<?xml version="1.0" encoding="UTF-8"?>
<gpx version="1.0" creator="GPSBabel - https://www.gpsbabel.org" xmlns="http://www.topografix.com/GPX/1/0">
  <time>2023-05-04T13:03:40.071Z</time>
  <bounds minlat="42.242010000" minlon="14.402720000" maxlat="42.358510000" maxlon="14.525740000"/>
  <trk>
    <trkseg>
      <trkpt lat="42.242010000" lon="14.525740000">
        <ele>2.000</ele>
      </trkpt>
      <trkpt lat="42.242450000" lon="14.524660000">
        <ele>2.000</ele>
      </trkpt>
      <trkpt lat="42.242770000" lon="14.523910000">
        <ele>2.000</ele>
      </trkpt>
      <trkpt lat="42.243150000" lon="14.523200000">
        <ele>2.000</ele>
      </trkpt>
      <trkpt lat="42.243500000" lon="14.522620000">
        <ele>2.000</ele>
      </trkpt>
      <trkpt lat="42.243500000" lon="14.522620000">
        <ele>2.000</ele>
      </trkpt>
      <trkpt lat="42.243300000" lon="14.522390000">
        <ele>3.000</ele>
      </trkpt>
      <trkpt lat="42.243290000" lon="14.522380000">
        <ele>3.000</ele>
      </trkpt>
      <trkpt lat="42.243220000" lon="14.522310000">
        <ele>3.000</ele>
      </trkpt>
      <trkpt lat="42.243200000" lon="14.522280000">
        <ele>3.000</ele>
      </trkpt>
      <trkpt lat="42.243200000" lon="14.522280000">
        <ele>3.000</ele>
      </trkpt>
      <trkpt lat="42.243430000" lon="14.521780000">
        <ele>3.000</ele>
      </trkpt>
      <trkpt lat="42.243530000" lon="14.521570000">
        <ele>3.000</ele>
      </trkpt>
      <trkpt lat="42.243530000" lon="14.521570000">
        <ele>3.000</ele>
      </trkpt>
      <trkpt lat="42.243580000" lon="14.521460000">
        <ele>3.000</ele>
      </trkpt>
      <trkpt lat="42.243660000" lon="14.521280000">
        <ele>3.000</ele>
      </trkpt>
      <trkpt lat="42.243920000" lon="14.520730000">
        <ele>3.000</ele>
      </trkpt>
      <trkpt lat="42.244140000" lon="14.520210000">
        <ele>4.000</ele>
      </trkpt>
      <trkpt lat="42.244140000" lon="14.520200000">
        <ele>4.000</ele>
      </trkpt>
      <trkpt lat="42.244230000" lon="14.520010000">
        <ele>4.000</ele>
      </trkpt>
      <trkpt lat="42.244330000" lon="14.519800000">
        <ele>4.000</ele>
      </trkpt>
      <trkpt lat="42.244560000" lon="14.519290000">
        <ele>4.000</ele>
      </trkpt>
      <trkpt lat="42.244610000" lon="14.519180000">
        <ele>4.000</ele>
      </trkpt>
      <trkpt lat="42.244740000" lon="14.518910000">
        <ele>4.000</ele>
      </trkpt>
      <trkpt lat="42.244810000" lon="14.518770000">
        <ele>4.000</ele>
      </trkpt>
      <trkpt lat="42.244910000" lon="14.518570000">
        <ele>5.000</ele>
      </trkpt>
      <trkpt lat="42.245010000" lon="14.518380000">
        <ele>5.000</ele>
      </trkpt>
      <trkpt lat="42.245270000" lon="14.517860000">
        <ele>5.000</ele>
      </trkpt>
      <trkpt lat="42.245320000" lon="14.517770000">
        <ele>5.000</ele>
      </trkpt>
      <trkpt lat="42.245460000" lon="14.517490000">
        <ele>5.000</ele>
      </trkpt>
      <trkpt lat="42.245640000" lon="14.517220000">
        <ele>5.000</ele>
      </trkpt>
      <trkpt lat="42.245660000" lon="14.517190000">
        <ele>5.000</ele>
      </trkpt>
      <trkpt lat="42.245770000" lon="14.516990000">
        <ele>6.000</ele>
      </trkpt>
      <trkpt lat="42.245800000" lon="14.516930000">
        <ele>6.000</ele>
      </trkpt>
      <trkpt lat="42.245940000" lon="14.516700000">
        <ele>6.000</ele>
      </trkpt>
      <trkpt lat="42.246000000" lon="14.516620000">
        <ele>7.000</ele>
      </trkpt>
      <trkpt lat="42.246120000" lon="14.516440000">
        <ele>7.000</ele>
      </trkpt>
      <trkpt lat="42.246160000" lon="14.516380000">
        <ele>7.000</ele>
      </trkpt>
      <trkpt lat="42.246290000" lon="14.516170000">
        <ele>8.000</ele>
      </trkpt>
      <trkpt lat="42.246610000" lon="14.515630000">
        <ele>9.000</ele>
      </trkpt>
      <trkpt lat="42.246690000" lon="14.515490000">
        <ele>9.000</ele>
      </trkpt>
      <trkpt lat="42.246800000" lon="14.515300000">
        <ele>10.000</ele>
      </trkpt>
      <trkpt lat="42.246860000" lon="14.515220000">
        <ele>11.000</ele>
      </trkpt>
      <trkpt lat="42.247050000" lon="14.514950000">
        <ele>11.000</ele>
      </trkpt>
      <trkpt lat="42.247130000" lon="14.514830000">
        <ele>11.000</ele>
      </trkpt>
      <trkpt lat="42.247280000" lon="14.514570000">
        <ele>10.000</ele>
      </trkpt>
      <trkpt lat="42.247330000" lon="14.514470000">
        <ele>10.000</ele>
      </trkpt>
      <trkpt lat="42.247330000" lon="14.514470000">
        <ele>10.000</ele>
      </trkpt>
      <trkpt lat="42.247390000" lon="14.514370000">
        <ele>10.000</ele>
      </trkpt>
      <trkpt lat="42.247650000" lon="14.513980000">
        <ele>9.000</ele>
      </trkpt>
      <trkpt lat="42.247740000" lon="14.513830000">
        <ele>9.000</ele>
      </trkpt>
      <trkpt lat="42.247980000" lon="14.513400000">
        <ele>9.000</ele>
      </trkpt>
      <trkpt lat="42.248170000" lon="14.513080000">
        <ele>8.000</ele>
      </trkpt>
      <trkpt lat="42.248180000" lon="14.513060000">
        <ele>8.000</ele>
      </trkpt>
      <trkpt lat="42.248560000" lon="14.512490000">
        <ele>8.000</ele>
      </trkpt>
      <trkpt lat="42.248650000" lon="14.512330000">
        <ele>7.000</ele>
      </trkpt>
      <trkpt lat="42.248800000" lon="14.512080000">
        <ele>7.000</ele>
      </trkpt>
      <trkpt lat="42.248980000" lon="14.511780000">
        <ele>7.000</ele>
      </trkpt>
      <trkpt lat="42.248990000" lon="14.511760000">
        <ele>7.000</ele>
      </trkpt>
      <trkpt lat="42.249180000" lon="14.511480000">
        <ele>7.000</ele>
      </trkpt>
      <trkpt lat="42.249410000" lon="14.511110000">
        <ele>7.000</ele>
      </trkpt>
      <trkpt lat="42.249560000" lon="14.510850000">
        <ele>7.000</ele>
      </trkpt>
      <trkpt lat="42.249670000" lon="14.510670000">
        <ele>7.000</ele>
      </trkpt>
      <trkpt lat="42.249830000" lon="14.510440000">
        <ele>7.000</ele>
      </trkpt>
      <trkpt lat="42.249940000" lon="14.510250000">
        <ele>7.000</ele>
      </trkpt>
      <trkpt lat="42.250050000" lon="14.510100000">
        <ele>7.000</ele>
      </trkpt>
      <trkpt lat="42.250160000" lon="14.509940000">
        <ele>7.000</ele>
      </trkpt>
      <trkpt lat="42.250320000" lon="14.509740000">
        <ele>7.000</ele>
      </trkpt>
      <trkpt lat="42.250590000" lon="14.509410000">
        <ele>7.000</ele>
      </trkpt>
      <trkpt lat="42.250700000" lon="14.509270000">
        <ele>6.000</ele>
      </trkpt>
      <trkpt lat="42.250800000" lon="14.509140000">
        <ele>6.000</ele>
      </trkpt>
      <trkpt lat="42.251000000" lon="14.508950000">
        <ele>6.000</ele>
      </trkpt>
      <trkpt lat="42.251370000" lon="14.508510000">
        <ele>6.000</ele>
      </trkpt>
      <trkpt lat="42.251440000" lon="14.508410000">
        <ele>6.000</ele>
      </trkpt>
      <trkpt lat="42.251480000" lon="14.508390000">
        <ele>6.000</ele>
      </trkpt>
      <trkpt lat="42.251500000" lon="14.508380000">
        <ele>6.000</ele>
      </trkpt>
      <trkpt lat="42.251500000" lon="14.508380000">
        <ele>5.000</ele>
      </trkpt>
      <trkpt lat="42.251540000" lon="14.508370000">
        <ele>5.000</ele>
      </trkpt>
      <trkpt lat="42.251600000" lon="14.508300000">
        <ele>5.000</ele>
      </trkpt>
      <trkpt lat="42.251600000" lon="14.508300000">
        <ele>5.000</ele>
      </trkpt>
      <trkpt lat="42.251650000" lon="14.508250000">
        <ele>5.000</ele>
      </trkpt>
      <trkpt lat="42.251720000" lon="14.508180000">
        <ele>5.000</ele>
      </trkpt>
      <trkpt lat="42.251750000" lon="14.508140000">
        <ele>5.000</ele>
      </trkpt>
      <trkpt lat="42.251860000" lon="14.508010000">
        <ele>5.000</ele>
      </trkpt>
      <trkpt lat="42.251950000" lon="14.507910000">
        <ele>5.000</ele>
      </trkpt>
      <trkpt lat="42.251950000" lon="14.507910000">
        <ele>5.000</ele>
      </trkpt>
      <trkpt lat="42.252120000" lon="14.507740000">
        <ele>5.000</ele>
      </trkpt>
      <trkpt lat="42.252230000" lon="14.507640000">
        <ele>5.000</ele>
      </trkpt>
      <trkpt lat="42.252620000" lon="14.507300000">
        <ele>5.000</ele>
      </trkpt>
      <trkpt lat="42.252830000" lon="14.507120000">
        <ele>5.000</ele>
      </trkpt>
      <trkpt lat="42.253500000" lon="14.506540000">
        <ele>5.000</ele>
      </trkpt>
      <trkpt lat="42.253940000" lon="14.506170000">
        <ele>5.000</ele>
      </trkpt>
      <trkpt lat="42.254450000" lon="14.505750000">
        <ele>5.000</ele>
      </trkpt>
      <trkpt lat="42.254980000" lon="14.505380000">
        <ele>5.000</ele>
      </trkpt>
      <trkpt lat="42.255340000" lon="14.505120000">
        <ele>5.000</ele>
      </trkpt>
      <trkpt lat="42.255520000" lon="14.504970000">
        <ele>5.000</ele>
      </trkpt>
      <trkpt lat="42.255660000" lon="14.504850000">
        <ele>5.000</ele>
      </trkpt>
      <trkpt lat="42.255800000" lon="14.504750000">
        <ele>6.000</ele>
      </trkpt>
      <trkpt lat="42.256030000" lon="14.504510000">
        <ele>6.000</ele>
      </trkpt>
      <trkpt lat="42.256270000" lon="14.504250000">
        <ele>7.000</ele>
      </trkpt>
      <trkpt lat="42.256320000" lon="14.504200000">
        <ele>7.000</ele>
      </trkpt>
      <trkpt lat="42.256320000" lon="14.504200000">
        <ele>8.000</ele>
      </trkpt>
      <trkpt lat="42.256370000" lon="14.504140000">
        <ele>8.000</ele>
      </trkpt>
      <trkpt lat="42.256820000" lon="14.503770000">
        <ele>9.000</ele>
      </trkpt>
      <trkpt lat="42.257150000" lon="14.503490000">
        <ele>10.000</ele>
      </trkpt>
      <trkpt lat="42.257310000" lon="14.503360000">
        <ele>10.000</ele>
      </trkpt>
      <trkpt lat="42.257450000" lon="14.503230000">
        <ele>10.000</ele>
      </trkpt>
      <trkpt lat="42.257650000" lon="14.503070000">
        <ele>10.000</ele>
      </trkpt>
      <trkpt lat="42.257760000" lon="14.502980000">
        <ele>10.000</ele>
      </trkpt>
      <trkpt lat="42.258060000" lon="14.502730000">
        <ele>9.000</ele>
      </trkpt>
      <trkpt lat="42.258370000" lon="14.502460000">
        <ele>9.000</ele>
      </trkpt>
      <trkpt lat="42.258510000" lon="14.502340000">
        <ele>8.000</ele>
      </trkpt>
      <trkpt lat="42.258970000" lon="14.501960000">
        <ele>7.000</ele>
      </trkpt>
      <trkpt lat="42.259290000" lon="14.501700000">
        <ele>7.000</ele>
      </trkpt>
      <trkpt lat="42.259420000" lon="14.501600000">
        <ele>6.000</ele>
      </trkpt>
      <trkpt lat="42.259750000" lon="14.501340000">
        <ele>6.000</ele>
      </trkpt>
      <trkpt lat="42.259950000" lon="14.501210000">
        <ele>6.000</ele>
      </trkpt>
      <trkpt lat="42.260090000" lon="14.501140000">
        <ele>6.000</ele>
      </trkpt>
      <trkpt lat="42.260350000" lon="14.501010000">
        <ele>6.000</ele>
      </trkpt>
      <trkpt lat="42.260810000" lon="14.500820000">
        <ele>6.000</ele>
      </trkpt>
      <trkpt lat="42.261020000" lon="14.500760000">
        <ele>6.000</ele>
      </trkpt>
      <trkpt lat="42.261120000" lon="14.500740000">
        <ele>6.000</ele>
      </trkpt>
      <trkpt lat="42.261290000" lon="14.500720000">
        <ele>7.000</ele>
      </trkpt>
      <trkpt lat="42.261590000" lon="14.500690000">
        <ele>7.000</ele>
      </trkpt>
      <trkpt lat="42.262020000" lon="14.500680000">
        <ele>7.000</ele>
      </trkpt>
      <trkpt lat="42.262080000" lon="14.500680000">
        <ele>7.000</ele>
      </trkpt>
      <trkpt lat="42.262590000" lon="14.500700000">
        <ele>7.000</ele>
      </trkpt>
      <trkpt lat="42.263190000" lon="14.500730000">
        <ele>7.000</ele>
      </trkpt>
      <trkpt lat="42.263310000" lon="14.500740000">
        <ele>7.000</ele>
      </trkpt>
      <trkpt lat="42.263670000" lon="14.500760000">
        <ele>7.000</ele>
      </trkpt>
      <trkpt lat="42.263780000" lon="14.500770000">
        <ele>7.000</ele>
      </trkpt>
      <trkpt lat="42.264030000" lon="14.500790000">
        <ele>7.000</ele>
      </trkpt>
      <trkpt lat="42.264390000" lon="14.500810000">
        <ele>7.000</ele>
      </trkpt>
      <trkpt lat="42.264460000" lon="14.500810000">
        <ele>7.000</ele>
      </trkpt>
      <trkpt lat="42.264540000" lon="14.500820000">
        <ele>7.000</ele>
      </trkpt>
      <trkpt lat="42.264720000" lon="14.500830000">
        <ele>7.000</ele>
      </trkpt>
      <trkpt lat="42.264900000" lon="14.500840000">
        <ele>7.000</ele>
      </trkpt>
      <trkpt lat="42.264960000" lon="14.500850000">
        <ele>7.000</ele>
      </trkpt>
      <trkpt lat="42.265080000" lon="14.500860000">
        <ele>7.000</ele>
      </trkpt>
      <trkpt lat="42.265440000" lon="14.500910000">
        <ele>6.000</ele>
      </trkpt>
      <trkpt lat="42.265490000" lon="14.500920000">
        <ele>6.000</ele>
      </trkpt>
      <trkpt lat="42.265880000" lon="14.501000000">
        <ele>6.000</ele>
      </trkpt>
      <trkpt lat="42.266140000" lon="14.501090000">
        <ele>5.000</ele>
      </trkpt>
      <trkpt lat="42.266180000" lon="14.501100000">
        <ele>5.000</ele>
      </trkpt>
      <trkpt lat="42.266410000" lon="14.501190000">
        <ele>5.000</ele>
      </trkpt>
      <trkpt lat="42.266820000" lon="14.501430000">
        <ele>4.000</ele>
      </trkpt>
      <trkpt lat="42.267190000" lon="14.501640000">
        <ele>4.000</ele>
      </trkpt>
      <trkpt lat="42.267480000" lon="14.501810000">
        <ele>4.000</ele>
      </trkpt>
      <trkpt lat="42.267800000" lon="14.502010000">
        <ele>4.000</ele>
      </trkpt>
      <trkpt lat="42.267840000" lon="14.502030000">
        <ele>4.000</ele>
      </trkpt>
      <trkpt lat="42.268220000" lon="14.502230000">
        <ele>5.000</ele>
      </trkpt>
      <trkpt lat="42.268480000" lon="14.502320000">
        <ele>5.000</ele>
      </trkpt>
      <trkpt lat="42.268720000" lon="14.502410000">
        <ele>5.000</ele>
      </trkpt>
      <trkpt lat="42.268950000" lon="14.502460000">
        <ele>5.000</ele>
      </trkpt>
      <trkpt lat="42.269110000" lon="14.502490000">
        <ele>6.000</ele>
      </trkpt>
      <trkpt lat="42.269410000" lon="14.502510000">
        <ele>6.000</ele>
      </trkpt>
      <trkpt lat="42.269710000" lon="14.502500000">
        <ele>6.000</ele>
      </trkpt>
      <trkpt lat="42.270530000" lon="14.502390000">
        <ele>7.000</ele>
      </trkpt>
      <trkpt lat="42.270940000" lon="14.502250000">
        <ele>7.000</ele>
      </trkpt>
      <trkpt lat="42.271100000" lon="14.502170000">
        <ele>7.000</ele>
      </trkpt>
      <trkpt lat="42.271320000" lon="14.502060000">
        <ele>7.000</ele>
      </trkpt>
      <trkpt lat="42.271430000" lon="14.501980000">
        <ele>8.000</ele>
      </trkpt>
      <trkpt lat="42.271590000" lon="14.501870000">
        <ele>8.000</ele>
      </trkpt>
      <trkpt lat="42.271710000" lon="14.501780000">
        <ele>8.000</ele>
      </trkpt>
      <trkpt lat="42.271900000" lon="14.501620000">
        <ele>8.000</ele>
      </trkpt>
      <trkpt lat="42.271980000" lon="14.501560000">
        <ele>8.000</ele>
      </trkpt>
      <trkpt lat="42.272250000" lon="14.501310000">
        <ele>8.000</ele>
      </trkpt>
      <trkpt lat="42.272590000" lon="14.500920000">
        <ele>8.000</ele>
      </trkpt>
      <trkpt lat="42.272920000" lon="14.500470000">
        <ele>8.000</ele>
      </trkpt>
      <trkpt lat="42.272980000" lon="14.500360000">
        <ele>8.000</ele>
      </trkpt>
      <trkpt lat="42.273140000" lon="14.500100000">
        <ele>8.000</ele>
      </trkpt>
      <trkpt lat="42.273290000" lon="14.499820000">
        <ele>7.000</ele>
      </trkpt>
      <trkpt lat="42.273310000" lon="14.499780000">
        <ele>7.000</ele>
      </trkpt>
      <trkpt lat="42.273520000" lon="14.499310000">
        <ele>7.000</ele>
      </trkpt>
      <trkpt lat="42.273560000" lon="14.499180000">
        <ele>7.000</ele>
      </trkpt>
      <trkpt lat="42.273590000" lon="14.499110000">
        <ele>7.000</ele>
      </trkpt>
      <trkpt lat="42.273750000" lon="14.498660000">
        <ele>7.000</ele>
      </trkpt>
      <trkpt lat="42.273840000" lon="14.498390000">
        <ele>7.000</ele>
      </trkpt>
      <trkpt lat="42.273950000" lon="14.498090000">
        <ele>7.000</ele>
      </trkpt>
      <trkpt lat="42.274070000" lon="14.497780000">
        <ele>7.000</ele>
      </trkpt>
      <trkpt lat="42.274160000" lon="14.497580000">
        <ele>7.000</ele>
      </trkpt>
      <trkpt lat="42.274170000" lon="14.497560000">
        <ele>7.000</ele>
      </trkpt>
      <trkpt lat="42.274280000" lon="14.497330000">
        <ele>7.000</ele>
      </trkpt>
      <trkpt lat="42.274320000" lon="14.497260000">
        <ele>7.000</ele>
      </trkpt>
      <trkpt lat="42.274480000" lon="14.496960000">
        <ele>7.000</ele>
      </trkpt>
      <trkpt lat="42.274710000" lon="14.496640000">
        <ele>8.000</ele>
      </trkpt>
      <trkpt lat="42.274790000" lon="14.496520000">
        <ele>8.000</ele>
      </trkpt>
      <trkpt lat="42.275060000" lon="14.496150000">
        <ele>8.000</ele>
      </trkpt>
      <trkpt lat="42.275430000" lon="14.495660000">
        <ele>8.000</ele>
      </trkpt>
      <trkpt lat="42.275470000" lon="14.495610000">
        <ele>8.000</ele>
      </trkpt>
      <trkpt lat="42.275520000" lon="14.495550000">
        <ele>9.000</ele>
      </trkpt>
      <trkpt lat="42.275560000" lon="14.495490000">
        <ele>9.000</ele>
      </trkpt>
      <trkpt lat="42.275600000" lon="14.495430000">
        <ele>9.000</ele>
      </trkpt>
      <trkpt lat="42.275810000" lon="14.495130000">
        <ele>9.000</ele>
      </trkpt>
      <trkpt lat="42.276060000" lon="14.494800000">
        <ele>9.000</ele>
      </trkpt>
      <trkpt lat="42.276110000" lon="14.494750000">
        <ele>8.000</ele>
      </trkpt>
      <trkpt lat="42.276460000" lon="14.494290000">
        <ele>7.000</ele>
      </trkpt>
      <trkpt lat="42.276500000" lon="14.494240000">
        <ele>6.000</ele>
      </trkpt>
      <trkpt lat="42.276580000" lon="14.494130000">
        <ele>5.000</ele>
      </trkpt>
      <trkpt lat="42.277010000" lon="14.493560000">
        <ele>4.000</ele>
      </trkpt>
      <trkpt lat="42.277100000" lon="14.493450000">
        <ele>2.000</ele>
      </trkpt>
      <trkpt lat="42.277140000" lon="14.493390000">
        <ele>1.000</ele>
      </trkpt>
      <trkpt lat="42.277220000" lon="14.493280000">
        <ele>1.000</ele>
      </trkpt>
      <trkpt lat="42.277420000" lon="14.493020000">
        <ele>1.000</ele>
      </trkpt>
      <trkpt lat="42.277740000" lon="14.492590000">
        <ele>1.000</ele>
      </trkpt>
      <trkpt lat="42.277820000" lon="14.492480000">
        <ele>2.000</ele>
      </trkpt>
      <trkpt lat="42.277910000" lon="14.492370000">
        <ele>2.000</ele>
      </trkpt>
      <trkpt lat="42.278130000" lon="14.492090000">
        <ele>3.000</ele>
      </trkpt>
      <trkpt lat="42.278450000" lon="14.491730000">
        <ele>4.000</ele>
      </trkpt>
      <trkpt lat="42.278630000" lon="14.491560000">
        <ele>4.000</ele>
      </trkpt>
      <trkpt lat="42.278750000" lon="14.491460000">
        <ele>5.000</ele>
      </trkpt>
      <trkpt lat="42.278840000" lon="14.491380000">
        <ele>6.000</ele>
      </trkpt>
      <trkpt lat="42.278960000" lon="14.491280000">
        <ele>6.000</ele>
      </trkpt>
      <trkpt lat="42.279060000" lon="14.491210000">
        <ele>6.000</ele>
      </trkpt>
      <trkpt lat="42.279140000" lon="14.491150000">
        <ele>7.000</ele>
      </trkpt>
      <trkpt lat="42.279390000" lon="14.490970000">
        <ele>7.000</ele>
      </trkpt>
      <trkpt lat="42.279630000" lon="14.490810000">
        <ele>8.000</ele>
      </trkpt>
      <trkpt lat="42.279700000" lon="14.490770000">
        <ele>8.000</ele>
      </trkpt>
      <trkpt lat="42.279780000" lon="14.490720000">
        <ele>8.000</ele>
      </trkpt>
      <trkpt lat="42.279960000" lon="14.490590000">
        <ele>9.000</ele>
      </trkpt>
      <trkpt lat="42.280020000" lon="14.490550000">
        <ele>9.000</ele>
      </trkpt>
      <trkpt lat="42.280180000" lon="14.490450000">
        <ele>9.000</ele>
      </trkpt>
      <trkpt lat="42.280280000" lon="14.490380000">
        <ele>9.000</ele>
      </trkpt>
      <trkpt lat="42.280340000" lon="14.490330000">
        <ele>9.000</ele>
      </trkpt>
      <trkpt lat="42.280620000" lon="14.490120000">
        <ele>9.000</ele>
      </trkpt>
      <trkpt lat="42.280740000" lon="14.490010000">
        <ele>9.000</ele>
      </trkpt>
      <trkpt lat="42.281090000" lon="14.489690000">
        <ele>9.000</ele>
      </trkpt>
      <trkpt lat="42.281100000" lon="14.489680000">
        <ele>8.000</ele>
      </trkpt>
      <trkpt lat="42.281210000" lon="14.489580000">
        <ele>8.000</ele>
      </trkpt>
      <trkpt lat="42.281380000" lon="14.489370000">
        <ele>8.000</ele>
      </trkpt>
      <trkpt lat="42.281510000" lon="14.489200000">
        <ele>8.000</ele>
      </trkpt>
      <trkpt lat="42.281650000" lon="14.489030000">
        <ele>8.000</ele>
      </trkpt>
      <trkpt lat="42.281760000" lon="14.488850000">
        <ele>8.000</ele>
      </trkpt>
      <trkpt lat="42.281880000" lon="14.488670000">
        <ele>8.000</ele>
      </trkpt>
      <trkpt lat="42.282000000" lon="14.488490000">
        <ele>8.000</ele>
      </trkpt>
      <trkpt lat="42.282090000" lon="14.488320000">
        <ele>8.000</ele>
      </trkpt>
      <trkpt lat="42.282210000" lon="14.488100000">
        <ele>8.000</ele>
      </trkpt>
      <trkpt lat="42.282570000" lon="14.487380000">
        <ele>8.000</ele>
      </trkpt>
      <trkpt lat="42.282830000" lon="14.486880000">
        <ele>8.000</ele>
      </trkpt>
      <trkpt lat="42.283260000" lon="14.486260000">
        <ele>8.000</ele>
      </trkpt>
      <trkpt lat="42.283270000" lon="14.486240000">
        <ele>8.000</ele>
      </trkpt>
      <trkpt lat="42.283560000" lon="14.485850000">
        <ele>9.000</ele>
      </trkpt>
      <trkpt lat="42.283640000" lon="14.485750000">
        <ele>10.000</ele>
      </trkpt>
      <trkpt lat="42.283890000" lon="14.485440000">
        <ele>10.000</ele>
      </trkpt>
      <trkpt lat="42.284040000" lon="14.485260000">
        <ele>11.000</ele>
      </trkpt>
      <trkpt lat="42.284210000" lon="14.485060000">
        <ele>11.000</ele>
      </trkpt>
      <trkpt lat="42.284320000" lon="14.484950000">
        <ele>12.000</ele>
      </trkpt>
      <trkpt lat="42.284490000" lon="14.484770000">
        <ele>12.000</ele>
      </trkpt>
      <trkpt lat="42.284610000" lon="14.484660000">
        <ele>12.000</ele>
      </trkpt>
      <trkpt lat="42.284880000" lon="14.484410000">
        <ele>11.000</ele>
      </trkpt>
      <trkpt lat="42.285210000" lon="14.484130000">
        <ele>11.000</ele>
      </trkpt>
      <trkpt lat="42.285250000" lon="14.484100000">
        <ele>10.000</ele>
      </trkpt>
      <trkpt lat="42.285500000" lon="14.483840000">
        <ele>10.000</ele>
      </trkpt>
      <trkpt lat="42.285710000" lon="14.483640000">
        <ele>9.000</ele>
      </trkpt>
      <trkpt lat="42.285790000" lon="14.483560000">
        <ele>9.000</ele>
      </trkpt>
      <trkpt lat="42.285860000" lon="14.483470000">
        <ele>9.000</ele>
      </trkpt>
      <trkpt lat="42.285990000" lon="14.483310000">
        <ele>9.000</ele>
      </trkpt>
      <trkpt lat="42.286100000" lon="14.483160000">
        <ele>8.000</ele>
      </trkpt>
      <trkpt lat="42.286240000" lon="14.482970000">
        <ele>8.000</ele>
      </trkpt>
      <trkpt lat="42.286300000" lon="14.482890000">
        <ele>8.000</ele>
      </trkpt>
      <trkpt lat="42.286570000" lon="14.482450000">
        <ele>7.000</ele>
      </trkpt>
      <trkpt lat="42.286590000" lon="14.482400000">
        <ele>7.000</ele>
      </trkpt>
      <trkpt lat="42.286600000" lon="14.482370000">
        <ele>7.000</ele>
      </trkpt>
      <trkpt lat="42.287000000" lon="14.481450000">
        <ele>6.000</ele>
      </trkpt>
      <trkpt lat="42.287100000" lon="14.481200000">
        <ele>6.000</ele>
      </trkpt>
      <trkpt lat="42.287160000" lon="14.481040000">
        <ele>6.000</ele>
      </trkpt>
      <trkpt lat="42.287310000" lon="14.480680000">
        <ele>6.000</ele>
      </trkpt>
      <trkpt lat="42.287510000" lon="14.480220000">
        <ele>6.000</ele>
      </trkpt>
      <trkpt lat="42.287560000" lon="14.480120000">
        <ele>6.000</ele>
      </trkpt>
      <trkpt lat="42.287710000" lon="14.479810000">
        <ele>7.000</ele>
      </trkpt>
      <trkpt lat="42.287730000" lon="14.479780000">
        <ele>7.000</ele>
      </trkpt>
      <trkpt lat="42.288010000" lon="14.479210000">
        <ele>7.000</ele>
      </trkpt>
      <trkpt lat="42.288120000" lon="14.479020000">
        <ele>7.000</ele>
      </trkpt>
      <trkpt lat="42.288360000" lon="14.478590000">
        <ele>7.000</ele>
      </trkpt>
      <trkpt lat="42.288450000" lon="14.478440000">
        <ele>7.000</ele>
      </trkpt>
      <trkpt lat="42.288660000" lon="14.478060000">
        <ele>7.000</ele>
      </trkpt>
      <trkpt lat="42.288850000" lon="14.477750000">
        <ele>6.000</ele>
      </trkpt>
      <trkpt lat="42.289110000" lon="14.477290000">
        <ele>6.000</ele>
      </trkpt>
      <trkpt lat="42.289220000" lon="14.477090000">
        <ele>6.000</ele>
      </trkpt>
      <trkpt lat="42.289640000" lon="14.476360000">
        <ele>5.000</ele>
      </trkpt>
      <trkpt lat="42.289770000" lon="14.476130000">
        <ele>5.000</ele>
      </trkpt>
      <trkpt lat="42.290030000" lon="14.475680000">
        <ele>4.000</ele>
      </trkpt>
      <trkpt lat="42.290210000" lon="14.475360000">
        <ele>4.000</ele>
      </trkpt>
      <trkpt lat="42.290300000" lon="14.475220000">
        <ele>3.000</ele>
      </trkpt>
      <trkpt lat="42.290450000" lon="14.474960000">
        <ele>3.000</ele>
      </trkpt>
      <trkpt lat="42.290540000" lon="14.474790000">
        <ele>3.000</ele>
      </trkpt>
      <trkpt lat="42.290650000" lon="14.474580000">
        <ele>3.000</ele>
      </trkpt>
      <trkpt lat="42.290750000" lon="14.474390000">
        <ele>3.000</ele>
      </trkpt>
      <trkpt lat="42.290790000" lon="14.474330000">
        <ele>3.000</ele>
      </trkpt>
      <trkpt lat="42.290990000" lon="14.474030000">
        <ele>4.000</ele>
      </trkpt>
      <trkpt lat="42.291020000" lon="14.473980000">
        <ele>4.000</ele>
      </trkpt>
      <trkpt lat="42.291230000" lon="14.473680000">
        <ele>4.000</ele>
      </trkpt>
      <trkpt lat="42.291380000" lon="14.473450000">
        <ele>4.000</ele>
      </trkpt>
      <trkpt lat="42.291480000" lon="14.473320000">
        <ele>5.000</ele>
      </trkpt>
      <trkpt lat="42.291540000" lon="14.473250000">
        <ele>5.000</ele>
      </trkpt>
      <trkpt lat="42.291770000" lon="14.473020000">
        <ele>6.000</ele>
      </trkpt>
      <trkpt lat="42.291940000" lon="14.472840000">
        <ele>7.000</ele>
      </trkpt>
      <trkpt lat="42.292050000" lon="14.472720000">
        <ele>8.000</ele>
      </trkpt>
      <trkpt lat="42.292330000" lon="14.472410000">
        <ele>10.000</ele>
      </trkpt>
      <trkpt lat="42.292490000" lon="14.472230000">
        <ele>12.000</ele>
      </trkpt>
      <trkpt lat="42.292580000" lon="14.472130000">
        <ele>13.000</ele>
      </trkpt>
      <trkpt lat="42.292720000" lon="14.471970000">
        <ele>14.000</ele>
      </trkpt>
      <trkpt lat="42.292860000" lon="14.471820000">
        <ele>16.000</ele>
      </trkpt>
      <trkpt lat="42.292960000" lon="14.471680000">
        <ele>16.000</ele>
      </trkpt>
      <trkpt lat="42.293090000" lon="14.471510000">
        <ele>16.000</ele>
      </trkpt>
      <trkpt lat="42.293340000" lon="14.471170000">
        <ele>16.000</ele>
      </trkpt>
      <trkpt lat="42.293470000" lon="14.471000000">
        <ele>15.000</ele>
      </trkpt>
      <trkpt lat="42.293550000" lon="14.470900000">
        <ele>14.000</ele>
      </trkpt>
      <trkpt lat="42.293600000" lon="14.470820000">
        <ele>14.000</ele>
      </trkpt>
      <trkpt lat="42.293710000" lon="14.470630000">
        <ele>13.000</ele>
      </trkpt>
      <trkpt lat="42.294060000" lon="14.470080000">
        <ele>11.000</ele>
      </trkpt>
      <trkpt lat="42.294430000" lon="14.469490000">
        <ele>9.000</ele>
      </trkpt>
      <trkpt lat="42.294790000" lon="14.468700000">
        <ele>7.000</ele>
      </trkpt>
      <trkpt lat="42.295260000" lon="14.467660000">
        <ele>6.000</ele>
      </trkpt>
      <trkpt lat="42.295360000" lon="14.467450000">
        <ele>6.000</ele>
      </trkpt>
      <trkpt lat="42.295450000" lon="14.467250000">
        <ele>5.000</ele>
      </trkpt>
      <trkpt lat="42.295550000" lon="14.467040000">
        <ele>6.000</ele>
      </trkpt>
      <trkpt lat="42.295670000" lon="14.466760000">
        <ele>7.000</ele>
      </trkpt>
      <trkpt lat="42.295860000" lon="14.466450000">
        <ele>8.000</ele>
      </trkpt>
      <trkpt lat="42.296090000" lon="14.466070000">
        <ele>10.000</ele>
      </trkpt>
      <trkpt lat="42.296200000" lon="14.465890000">
        <ele>12.000</ele>
      </trkpt>
      <trkpt lat="42.296220000" lon="14.465860000">
        <ele>14.000</ele>
      </trkpt>
      <trkpt lat="42.296290000" lon="14.465770000">
        <ele>15.000</ele>
      </trkpt>
      <trkpt lat="42.296340000" lon="14.465610000">
        <ele>16.000</ele>
      </trkpt>
      <trkpt lat="42.296360000" lon="14.465520000">
        <ele>17.000</ele>
      </trkpt>
      <trkpt lat="42.296360000" lon="14.465520000">
        <ele>18.000</ele>
      </trkpt>
      <trkpt lat="42.296390000" lon="14.465410000">
        <ele>19.000</ele>
      </trkpt>
      <trkpt lat="42.296440000" lon="14.465290000">
        <ele>20.000</ele>
      </trkpt>
      <trkpt lat="42.296460000" lon="14.465260000">
        <ele>20.000</ele>
      </trkpt>
      <trkpt lat="42.296520000" lon="14.465190000">
        <ele>21.000</ele>
      </trkpt>
      <trkpt lat="42.296570000" lon="14.465140000">
        <ele>21.000</ele>
      </trkpt>
      <trkpt lat="42.296600000" lon="14.465070000">
        <ele>21.000</ele>
      </trkpt>
      <trkpt lat="42.296660000" lon="14.464810000">
        <ele>20.000</ele>
      </trkpt>
      <trkpt lat="42.296730000" lon="14.464680000">
        <ele>20.000</ele>
      </trkpt>
      <trkpt lat="42.296800000" lon="14.464600000">
        <ele>19.000</ele>
      </trkpt>
      <trkpt lat="42.296810000" lon="14.464580000">
        <ele>19.000</ele>
      </trkpt>
      <trkpt lat="42.296830000" lon="14.464560000">
        <ele>19.000</ele>
      </trkpt>
      <trkpt lat="42.296870000" lon="14.464550000">
        <ele>18.000</ele>
      </trkpt>
      <trkpt lat="42.296900000" lon="14.464550000">
        <ele>18.000</ele>
      </trkpt>
      <trkpt lat="42.296910000" lon="14.464540000">
        <ele>18.000</ele>
      </trkpt>
      <trkpt lat="42.296930000" lon="14.464530000">
        <ele>18.000</ele>
      </trkpt>
      <trkpt lat="42.296950000" lon="14.464510000">
        <ele>18.000</ele>
      </trkpt>
      <trkpt lat="42.297020000" lon="14.464390000">
        <ele>18.000</ele>
      </trkpt>
      <trkpt lat="42.297140000" lon="14.464200000">
        <ele>17.000</ele>
      </trkpt>
      <trkpt lat="42.297360000" lon="14.463820000">
        <ele>16.000</ele>
      </trkpt>
      <trkpt lat="42.297810000" lon="14.463050000">
        <ele>14.000</ele>
      </trkpt>
      <trkpt lat="42.298140000" lon="14.462480000">
        <ele>14.000</ele>
      </trkpt>
      <trkpt lat="42.298370000" lon="14.462100000">
        <ele>14.000</ele>
      </trkpt>
      <trkpt lat="42.298480000" lon="14.461910000">
        <ele>15.000</ele>
      </trkpt>
      <trkpt lat="42.298610000" lon="14.461680000">
        <ele>16.000</ele>
      </trkpt>
      <trkpt lat="42.298820000" lon="14.461390000">
        <ele>17.000</ele>
      </trkpt>
      <trkpt lat="42.298850000" lon="14.461350000">
        <ele>18.000</ele>
      </trkpt>
      <trkpt lat="42.298910000" lon="14.461230000">
        <ele>19.000</ele>
      </trkpt>
      <trkpt lat="42.298920000" lon="14.461190000">
        <ele>19.000</ele>
      </trkpt>
      <trkpt lat="42.298940000" lon="14.461120000">
        <ele>20.000</ele>
      </trkpt>
      <trkpt lat="42.298970000" lon="14.460960000">
        <ele>20.000</ele>
      </trkpt>
      <trkpt lat="42.298990000" lon="14.460920000">
        <ele>20.000</ele>
      </trkpt>
      <trkpt lat="42.299040000" lon="14.460820000">
        <ele>20.000</ele>
      </trkpt>
      <trkpt lat="42.299070000" lon="14.460760000">
        <ele>19.000</ele>
      </trkpt>
      <trkpt lat="42.299100000" lon="14.460720000">
        <ele>19.000</ele>
      </trkpt>
      <trkpt lat="42.299150000" lon="14.460630000">
        <ele>19.000</ele>
      </trkpt>
      <trkpt lat="42.299180000" lon="14.460560000">
        <ele>19.000</ele>
      </trkpt>
      <trkpt lat="42.299200000" lon="14.460520000">
        <ele>19.000</ele>
      </trkpt>
      <trkpt lat="42.299290000" lon="14.460370000">
        <ele>18.000</ele>
      </trkpt>
      <trkpt lat="42.299310000" lon="14.460330000">
        <ele>18.000</ele>
      </trkpt>
      <trkpt lat="42.299330000" lon="14.460300000">
        <ele>18.000</ele>
      </trkpt>
      <trkpt lat="42.299410000" lon="14.460180000">
        <ele>17.000</ele>
      </trkpt>
      <trkpt lat="42.299430000" lon="14.460150000">
        <ele>17.000</ele>
      </trkpt>
      <trkpt lat="42.299470000" lon="14.460090000">
        <ele>17.000</ele>
      </trkpt>
      <trkpt lat="42.299530000" lon="14.460000000">
        <ele>17.000</ele>
      </trkpt>
      <trkpt lat="42.299550000" lon="14.459970000">
        <ele>16.000</ele>
      </trkpt>
      <trkpt lat="42.299550000" lon="14.459960000">
        <ele>16.000</ele>
      </trkpt>
      <trkpt lat="42.299640000" lon="14.459850000">
        <ele>16.000</ele>
      </trkpt>
      <trkpt lat="42.299720000" lon="14.459780000">
        <ele>16.000</ele>
      </trkpt>
      <trkpt lat="42.299790000" lon="14.459750000">
        <ele>15.000</ele>
      </trkpt>
      <trkpt lat="42.299810000" lon="14.459740000">
        <ele>15.000</ele>
      </trkpt>
      <trkpt lat="42.299920000" lon="14.459560000">
        <ele>15.000</ele>
      </trkpt>
      <trkpt lat="42.300040000" lon="14.459370000">
        <ele>14.000</ele>
      </trkpt>
      <trkpt lat="42.300270000" lon="14.459000000">
        <ele>13.000</ele>
      </trkpt>
      <trkpt lat="42.300390000" lon="14.458810000">
        <ele>13.000</ele>
      </trkpt>
      <trkpt lat="42.300420000" lon="14.458750000">
        <ele>12.000</ele>
      </trkpt>
      <trkpt lat="42.300610000" lon="14.458430000">
        <ele>12.000</ele>
      </trkpt>
      <trkpt lat="42.300720000" lon="14.458240000">
        <ele>11.000</ele>
      </trkpt>
      <trkpt lat="42.300840000" lon="14.458050000">
        <ele>11.000</ele>
      </trkpt>
      <trkpt lat="42.300930000" lon="14.457900000">
        <ele>10.000</ele>
      </trkpt>
      <trkpt lat="42.300950000" lon="14.457860000">
        <ele>10.000</ele>
      </trkpt>
      <trkpt lat="42.301060000" lon="14.457670000">
        <ele>10.000</ele>
      </trkpt>
      <trkpt lat="42.301390000" lon="14.457080000">
        <ele>9.000</ele>
      </trkpt>
      <trkpt lat="42.301610000" lon="14.456710000">
        <ele>9.000</ele>
      </trkpt>
      <trkpt lat="42.301960000" lon="14.456140000">
        <ele>9.000</ele>
      </trkpt>
      <trkpt lat="42.302260000" lon="14.455630000">
        <ele>8.000</ele>
      </trkpt>
      <trkpt lat="42.302400000" lon="14.455380000">
        <ele>8.000</ele>
      </trkpt>
      <trkpt lat="42.302570000" lon="14.455070000">
        <ele>7.000</ele>
      </trkpt>
      <trkpt lat="42.302820000" lon="14.454650000">
        <ele>7.000</ele>
      </trkpt>
      <trkpt lat="42.302950000" lon="14.454430000">
        <ele>7.000</ele>
      </trkpt>
      <trkpt lat="42.302970000" lon="14.454390000">
        <ele>7.000</ele>
      </trkpt>
      <trkpt lat="42.303160000" lon="14.454080000">
        <ele>7.000</ele>
      </trkpt>
      <trkpt lat="42.303180000" lon="14.454050000">
        <ele>7.000</ele>
      </trkpt>
      <trkpt lat="42.303300000" lon="14.453860000">
        <ele>7.000</ele>
      </trkpt>
      <trkpt lat="42.303310000" lon="14.453830000">
        <ele>7.000</ele>
      </trkpt>
      <trkpt lat="42.303410000" lon="14.453670000">
        <ele>7.000</ele>
      </trkpt>
      <trkpt lat="42.303570000" lon="14.453400000">
        <ele>7.000</ele>
      </trkpt>
      <trkpt lat="42.303730000" lon="14.453120000">
        <ele>7.000</ele>
      </trkpt>
      <trkpt lat="42.303860000" lon="14.452920000">
        <ele>6.000</ele>
      </trkpt>
      <trkpt lat="42.303900000" lon="14.452860000">
        <ele>6.000</ele>
      </trkpt>
      <trkpt lat="42.304070000" lon="14.452640000">
        <ele>6.000</ele>
      </trkpt>
      <trkpt lat="42.304120000" lon="14.452570000">
        <ele>6.000</ele>
      </trkpt>
      <trkpt lat="42.304220000" lon="14.452400000">
        <ele>6.000</ele>
      </trkpt>
      <trkpt lat="42.304360000" lon="14.452210000">
        <ele>6.000</ele>
      </trkpt>
      <trkpt lat="42.304390000" lon="14.452170000">
        <ele>6.000</ele>
      </trkpt>
      <trkpt lat="42.304690000" lon="14.451730000">
        <ele>5.000</ele>
      </trkpt>
      <trkpt lat="42.305010000" lon="14.451300000">
        <ele>5.000</ele>
      </trkpt>
      <trkpt lat="42.305050000" lon="14.451240000">
        <ele>5.000</ele>
      </trkpt>
      <trkpt lat="42.305340000" lon="14.450840000">
        <ele>5.000</ele>
      </trkpt>
      <trkpt lat="42.305440000" lon="14.450710000">
        <ele>5.000</ele>
      </trkpt>
      <trkpt lat="42.305590000" lon="14.450510000">
        <ele>5.000</ele>
      </trkpt>
      <trkpt lat="42.305680000" lon="14.450380000">
        <ele>5.000</ele>
      </trkpt>
      <trkpt lat="42.305770000" lon="14.450260000">
        <ele>5.000</ele>
      </trkpt>
      <trkpt lat="42.305820000" lon="14.450200000">
        <ele>5.000</ele>
      </trkpt>
      <trkpt lat="42.305900000" lon="14.450090000">
        <ele>5.000</ele>
      </trkpt>
      <trkpt lat="42.305950000" lon="14.450010000">
        <ele>5.000</ele>
      </trkpt>
      <trkpt lat="42.306120000" lon="14.449780000">
        <ele>5.000</ele>
      </trkpt>
      <trkpt lat="42.306290000" lon="14.449560000">
        <ele>5.000</ele>
      </trkpt>
      <trkpt lat="42.306390000" lon="14.449420000">
        <ele>5.000</ele>
      </trkpt>
      <trkpt lat="42.306570000" lon="14.449170000">
        <ele>5.000</ele>
      </trkpt>
      <trkpt lat="42.306700000" lon="14.449000000">
        <ele>5.000</ele>
      </trkpt>
      <trkpt lat="42.306850000" lon="14.448790000">
        <ele>5.000</ele>
      </trkpt>
      <trkpt lat="42.307000000" lon="14.448590000">
        <ele>5.000</ele>
      </trkpt>
      <trkpt lat="42.307040000" lon="14.448540000">
        <ele>5.000</ele>
      </trkpt>
      <trkpt lat="42.307240000" lon="14.448250000">
        <ele>5.000</ele>
      </trkpt>
      <trkpt lat="42.307460000" lon="14.447940000">
        <ele>5.000</ele>
      </trkpt>
      <trkpt lat="42.307480000" lon="14.447920000">
        <ele>5.000</ele>
      </trkpt>
      <trkpt lat="42.307700000" lon="14.447610000">
        <ele>5.000</ele>
      </trkpt>
      <trkpt lat="42.307730000" lon="14.447560000">
        <ele>5.000</ele>
      </trkpt>
      <trkpt lat="42.307940000" lon="14.447210000">
        <ele>5.000</ele>
      </trkpt>
      <trkpt lat="42.308050000" lon="14.446980000">
        <ele>5.000</ele>
      </trkpt>
      <trkpt lat="42.308100000" lon="14.446890000">
        <ele>5.000</ele>
      </trkpt>
      <trkpt lat="42.308320000" lon="14.446390000">
        <ele>5.000</ele>
      </trkpt>
      <trkpt lat="42.308260000" lon="14.446290000">
        <ele>5.000</ele>
      </trkpt>
      <trkpt lat="42.308260000" lon="14.446290000">
        <ele>5.000</ele>
      </trkpt>
      <trkpt lat="42.308390000" lon="14.446170000">
        <ele>5.000</ele>
      </trkpt>
      <trkpt lat="42.308440000" lon="14.446110000">
        <ele>5.000</ele>
      </trkpt>
      <trkpt lat="42.308750000" lon="14.445340000">
        <ele>5.000</ele>
      </trkpt>
      <trkpt lat="42.308790000" lon="14.445260000">
        <ele>5.000</ele>
      </trkpt>
      <trkpt lat="42.309110000" lon="14.444670000">
        <ele>5.000</ele>
      </trkpt>
      <trkpt lat="42.309140000" lon="14.444630000">
        <ele>5.000</ele>
      </trkpt>
      <trkpt lat="42.309300000" lon="14.444370000">
        <ele>5.000</ele>
      </trkpt>
      <trkpt lat="42.309500000" lon="14.444090000">
        <ele>5.000</ele>
      </trkpt>
      <trkpt lat="42.309570000" lon="14.444000000">
        <ele>5.000</ele>
      </trkpt>
      <trkpt lat="42.309600000" lon="14.443960000">
        <ele>5.000</ele>
      </trkpt>
      <trkpt lat="42.309690000" lon="14.443830000">
        <ele>5.000</ele>
      </trkpt>
      <trkpt lat="42.309750000" lon="14.443740000">
        <ele>5.000</ele>
      </trkpt>
      <trkpt lat="42.309820000" lon="14.443660000">
        <ele>5.000</ele>
      </trkpt>
      <trkpt lat="42.309950000" lon="14.443490000">
        <ele>5.000</ele>
      </trkpt>
      <trkpt lat="42.310080000" lon="14.443330000">
        <ele>5.000</ele>
      </trkpt>
      <trkpt lat="42.310260000" lon="14.443110000">
        <ele>6.000</ele>
      </trkpt>
      <trkpt lat="42.311070000" lon="14.442270000">
        <ele>6.000</ele>
      </trkpt>
      <trkpt lat="42.311210000" lon="14.442120000">
        <ele>6.000</ele>
      </trkpt>
      <trkpt lat="42.311470000" lon="14.441790000">
        <ele>7.000</ele>
      </trkpt>
      <trkpt lat="42.312000000" lon="14.441120000">
        <ele>7.000</ele>
      </trkpt>
      <trkpt lat="42.312190000" lon="14.440870000">
        <ele>7.000</ele>
      </trkpt>
      <trkpt lat="42.312630000" lon="14.440260000">
        <ele>7.000</ele>
      </trkpt>
      <trkpt lat="42.312850000" lon="14.439960000">
        <ele>7.000</ele>
      </trkpt>
      <trkpt lat="42.313540000" lon="14.439080000">
        <ele>7.000</ele>
      </trkpt>
      <trkpt lat="42.313800000" lon="14.438740000">
        <ele>8.000</ele>
      </trkpt>
      <trkpt lat="42.313920000" lon="14.438590000">
        <ele>8.000</ele>
      </trkpt>
      <trkpt lat="42.314210000" lon="14.438270000">
        <ele>9.000</ele>
      </trkpt>
      <trkpt lat="42.314350000" lon="14.438110000">
        <ele>9.000</ele>
      </trkpt>
      <trkpt lat="42.314480000" lon="14.437970000">
        <ele>9.000</ele>
      </trkpt>
      <trkpt lat="42.314490000" lon="14.437960000">
        <ele>9.000</ele>
      </trkpt>
      <trkpt lat="42.314640000" lon="14.437830000">
        <ele>9.000</ele>
      </trkpt>
      <trkpt lat="42.314640000" lon="14.437820000">
        <ele>10.000</ele>
      </trkpt>
      <trkpt lat="42.314660000" lon="14.437810000">
        <ele>10.000</ele>
      </trkpt>
      <trkpt lat="42.315280000" lon="14.437400000">
        <ele>10.000</ele>
      </trkpt>
      <trkpt lat="42.315570000" lon="14.437210000">
        <ele>10.000</ele>
      </trkpt>
      <trkpt lat="42.315780000" lon="14.437110000">
        <ele>10.000</ele>
      </trkpt>
      <trkpt lat="42.316000000" lon="14.437010000">
        <ele>10.000</ele>
      </trkpt>
      <trkpt lat="42.316110000" lon="14.436930000">
        <ele>10.000</ele>
      </trkpt>
      <trkpt lat="42.316590000" lon="14.436630000">
        <ele>10.000</ele>
      </trkpt>
      <trkpt lat="42.316750000" lon="14.436490000">
        <ele>10.000</ele>
      </trkpt>
      <trkpt lat="42.317060000" lon="14.436240000">
        <ele>9.000</ele>
      </trkpt>
      <trkpt lat="42.317520000" lon="14.435750000">
        <ele>9.000</ele>
      </trkpt>
      <trkpt lat="42.317840000" lon="14.435360000">
        <ele>8.000</ele>
      </trkpt>
      <trkpt lat="42.318010000" lon="14.435130000">
        <ele>8.000</ele>
      </trkpt>
      <trkpt lat="42.318200000" lon="14.434890000">
        <ele>8.000</ele>
      </trkpt>
      <trkpt lat="42.318840000" lon="14.434110000">
        <ele>8.000</ele>
      </trkpt>
      <trkpt lat="42.318940000" lon="14.433980000">
        <ele>8.000</ele>
      </trkpt>
      <trkpt lat="42.319340000" lon="14.433490000">
        <ele>8.000</ele>
      </trkpt>
      <trkpt lat="42.319600000" lon="14.433160000">
        <ele>8.000</ele>
      </trkpt>
      <trkpt lat="42.319740000" lon="14.432990000">
        <ele>8.000</ele>
      </trkpt>
      <trkpt lat="42.320000000" lon="14.432660000">
        <ele>8.000</ele>
      </trkpt>
      <trkpt lat="42.320660000" lon="14.431840000">
        <ele>8.000</ele>
      </trkpt>
      <trkpt lat="42.320910000" lon="14.431520000">
        <ele>7.000</ele>
      </trkpt>
      <trkpt lat="42.321330000" lon="14.431020000">
        <ele>7.000</ele>
      </trkpt>
      <trkpt lat="42.322410000" lon="14.429710000">
        <ele>7.000</ele>
      </trkpt>
      <trkpt lat="42.323030000" lon="14.428860000">
        <ele>6.000</ele>
      </trkpt>
      <trkpt lat="42.323280000" lon="14.428510000">
        <ele>6.000</ele>
      </trkpt>
      <trkpt lat="42.323400000" lon="14.428360000">
        <ele>6.000</ele>
      </trkpt>
      <trkpt lat="42.323870000" lon="14.427770000">
        <ele>6.000</ele>
      </trkpt>
      <trkpt lat="42.324080000" lon="14.427520000">
        <ele>6.000</ele>
      </trkpt>
      <trkpt lat="42.324370000" lon="14.427180000">
        <ele>6.000</ele>
      </trkpt>
      <trkpt lat="42.324630000" lon="14.426900000">
        <ele>6.000</ele>
      </trkpt>
      <trkpt lat="42.324930000" lon="14.426580000">
        <ele>6.000</ele>
      </trkpt>
      <trkpt lat="42.325610000" lon="14.425880000">
        <ele>6.000</ele>
      </trkpt>
      <trkpt lat="42.326160000" lon="14.425410000">
        <ele>6.000</ele>
      </trkpt>
      <trkpt lat="42.326390000" lon="14.425270000">
        <ele>5.000</ele>
      </trkpt>
      <trkpt lat="42.326610000" lon="14.425120000">
        <ele>5.000</ele>
      </trkpt>
      <trkpt lat="42.327220000" lon="14.424870000">
        <ele>5.000</ele>
      </trkpt>
      <trkpt lat="42.327610000" lon="14.424790000">
        <ele>5.000</ele>
      </trkpt>
      <trkpt lat="42.327970000" lon="14.424720000">
        <ele>5.000</ele>
      </trkpt>
      <trkpt lat="42.328500000" lon="14.424610000">
        <ele>5.000</ele>
      </trkpt>
      <trkpt lat="42.328680000" lon="14.424580000">
        <ele>5.000</ele>
      </trkpt>
      <trkpt lat="42.328860000" lon="14.424540000">
        <ele>5.000</ele>
      </trkpt>
      <trkpt lat="42.329750000" lon="14.424370000">
        <ele>5.000</ele>
      </trkpt>
      <trkpt lat="42.330100000" lon="14.424300000">
        <ele>5.000</ele>
      </trkpt>
      <trkpt lat="42.330640000" lon="14.424190000">
        <ele>5.010</ele>
      </trkpt>
      <trkpt lat="42.330810000" lon="14.424150000">
        <ele>5.050</ele>
      </trkpt>
      <trkpt lat="42.330990000" lon="14.424120000">
        <ele>5.090</ele>
      </trkpt>
      <trkpt lat="42.331170000" lon="14.424080000">
        <ele>5.140</ele>
      </trkpt>
      <trkpt lat="42.331350000" lon="14.424050000">
        <ele>5.180</ele>
      </trkpt>
      <trkpt lat="42.331530000" lon="14.424010000">
        <ele>5.220</ele>
      </trkpt>
      <trkpt lat="42.331630000" lon="14.423990000">
        <ele>5.250</ele>
      </trkpt>
      <trkpt lat="42.332160000" lon="14.423940000">
        <ele>5.370</ele>
      </trkpt>
      <trkpt lat="42.332320000" lon="14.423930000">
        <ele>5.410</ele>
      </trkpt>
      <trkpt lat="42.332500000" lon="14.423910000">
        <ele>5.460</ele>
      </trkpt>
      <trkpt lat="42.332660000" lon="14.423900000">
        <ele>5.490</ele>
      </trkpt>
      <trkpt lat="42.332840000" lon="14.423880000">
        <ele>5.540</ele>
      </trkpt>
      <trkpt lat="42.333200000" lon="14.423840000">
        <ele>5.620</ele>
      </trkpt>
      <trkpt lat="42.333370000" lon="14.423830000">
        <ele>5.660</ele>
      </trkpt>
      <trkpt lat="42.333550000" lon="14.423810000">
        <ele>5.710</ele>
      </trkpt>
      <trkpt lat="42.333730000" lon="14.423790000">
        <ele>5.750</ele>
      </trkpt>
      <trkpt lat="42.333910000" lon="14.423780000">
        <ele>5.790</ele>
      </trkpt>
      <trkpt lat="42.334100000" lon="14.423760000">
        <ele>5.840</ele>
      </trkpt>
      <trkpt lat="42.334410000" lon="14.423530000">
        <ele>5.920</ele>
      </trkpt>
      <trkpt lat="42.334720000" lon="14.423290000">
        <ele>6.010</ele>
      </trkpt>
      <trkpt lat="42.335030000" lon="14.423050000">
        <ele>6.100</ele>
      </trkpt>
      <trkpt lat="42.335190000" lon="14.422930000">
        <ele>6.140</ele>
      </trkpt>
      <trkpt lat="42.335350000" lon="14.422810000">
        <ele>6.180</ele>
      </trkpt>
      <trkpt lat="42.335410000" lon="14.422750000">
        <ele>6.200</ele>
      </trkpt>
      <trkpt lat="42.335480000" lon="14.422650000">
        <ele>6.230</ele>
      </trkpt>
      <trkpt lat="42.335730000" lon="14.422300000">
        <ele>6.310</ele>
      </trkpt>
      <trkpt lat="42.336100000" lon="14.421760000">
        <ele>6.440</ele>
      </trkpt>
      <trkpt lat="42.336340000" lon="14.421410000">
        <ele>6.530</ele>
      </trkpt>
      <trkpt lat="42.336470000" lon="14.421230000">
        <ele>6.570</ele>
      </trkpt>
      <trkpt lat="42.336710000" lon="14.420880000">
        <ele>6.660</ele>
      </trkpt>
      <trkpt lat="42.336960000" lon="14.420520000">
        <ele>6.740</ele>
      </trkpt>
      <trkpt lat="42.337200000" lon="14.420160000">
        <ele>6.830</ele>
      </trkpt>
      <trkpt lat="42.337320000" lon="14.419990000">
        <ele>6.870</ele>
      </trkpt>
      <trkpt lat="42.337690000" lon="14.419450000">
        <ele>7.000</ele>
      </trkpt>
      <trkpt lat="42.337810000" lon="14.419270000">
        <ele>7.000</ele>
      </trkpt>
      <trkpt lat="42.338180000" lon="14.418740000">
        <ele>7.000</ele>
      </trkpt>
      <trkpt lat="42.338310000" lon="14.418560000">
        <ele>7.000</ele>
      </trkpt>
      <trkpt lat="42.338430000" lon="14.418380000">
        <ele>7.000</ele>
      </trkpt>
      <trkpt lat="42.338550000" lon="14.418210000">
        <ele>7.000</ele>
      </trkpt>
      <trkpt lat="42.338800000" lon="14.417850000">
        <ele>7.000</ele>
      </trkpt>
      <trkpt lat="42.338920000" lon="14.417670000">
        <ele>7.000</ele>
      </trkpt>
      <trkpt lat="42.339040000" lon="14.417490000">
        <ele>7.000</ele>
      </trkpt>
      <trkpt lat="42.339160000" lon="14.417320000">
        <ele>7.000</ele>
      </trkpt>
      <trkpt lat="42.339290000" lon="14.417140000">
        <ele>7.000</ele>
      </trkpt>
      <trkpt lat="42.339610000" lon="14.416680000">
        <ele>8.000</ele>
      </trkpt>
      <trkpt lat="42.339660000" lon="14.416620000">
        <ele>9.000</ele>
      </trkpt>
      <trkpt lat="42.339810000" lon="14.416470000">
        <ele>9.000</ele>
      </trkpt>
      <trkpt lat="42.339950000" lon="14.416320000">
        <ele>10.000</ele>
      </trkpt>
      <trkpt lat="42.340240000" lon="14.416030000">
        <ele>11.000</ele>
      </trkpt>
      <trkpt lat="42.341100000" lon="14.415160000">
        <ele>10.000</ele>
      </trkpt>
      <trkpt lat="42.341260000" lon="14.415000000">
        <ele>9.000</ele>
      </trkpt>
      <trkpt lat="42.341380000" lon="14.414850000">
        <ele>9.000</ele>
      </trkpt>
      <trkpt lat="42.341600000" lon="14.414570000">
        <ele>8.000</ele>
      </trkpt>
      <trkpt lat="42.341600000" lon="14.414570000">
        <ele>7.000</ele>
      </trkpt>
      <trkpt lat="42.341910000" lon="14.414190000">
        <ele>6.000</ele>
      </trkpt>
      <trkpt lat="42.342600000" lon="14.413340000">
        <ele>6.000</ele>
      </trkpt>
      <trkpt lat="42.343270000" lon="14.412600000">
        <ele>5.000</ele>
      </trkpt>
      <trkpt lat="42.343410000" lon="14.412440000">
        <ele>5.000</ele>
      </trkpt>
      <trkpt lat="42.343550000" lon="14.412290000">
        <ele>5.000</ele>
      </trkpt>
      <trkpt lat="42.343680000" lon="14.412130000">
        <ele>4.000</ele>
      </trkpt>
      <trkpt lat="42.343810000" lon="14.411990000">
        <ele>4.000</ele>
      </trkpt>
      <trkpt lat="42.343890000" lon="14.412170000">
        <ele>4.000</ele>
      </trkpt>
      <trkpt lat="42.343890000" lon="14.412170000">
        <ele>3.000</ele>
      </trkpt>
      <trkpt lat="42.343960000" lon="14.412100000">
        <ele>3.000</ele>
      </trkpt>
      <trkpt lat="42.344020000" lon="14.412040000">
        <ele>3.000</ele>
      </trkpt>
      <trkpt lat="42.344040000" lon="14.412030000">
        <ele>3.000</ele>
      </trkpt>
      <trkpt lat="42.344270000" lon="14.411820000">
        <ele>3.000</ele>
      </trkpt>
      <trkpt lat="42.344330000" lon="14.411780000">
        <ele>3.000</ele>
      </trkpt>
      <trkpt lat="42.344510000" lon="14.411630000">
        <ele>2.000</ele>
      </trkpt>
      <trkpt lat="42.344690000" lon="14.411500000">
        <ele>2.000</ele>
      </trkpt>
      <trkpt lat="42.344750000" lon="14.411450000">
        <ele>2.000</ele>
      </trkpt>
      <trkpt lat="42.344750000" lon="14.411450000">
        <ele>2.000</ele>
      </trkpt>
      <trkpt lat="42.344910000" lon="14.411340000">
        <ele>2.000</ele>
      </trkpt>
      <trkpt lat="42.345000000" lon="14.411260000">
        <ele>2.000</ele>
      </trkpt>
      <trkpt lat="42.345250000" lon="14.411090000">
        <ele>2.000</ele>
      </trkpt>
      <trkpt lat="42.345340000" lon="14.411010000">
        <ele>2.000</ele>
      </trkpt>
      <trkpt lat="42.345540000" lon="14.410880000">
        <ele>2.000</ele>
      </trkpt>
      <trkpt lat="42.345760000" lon="14.410740000">
        <ele>2.000</ele>
      </trkpt>
      <trkpt lat="42.345820000" lon="14.410710000">
        <ele>2.000</ele>
      </trkpt>
      <trkpt lat="42.345980000" lon="14.410600000">
        <ele>2.000</ele>
      </trkpt>
      <trkpt lat="42.346030000" lon="14.410560000">
        <ele>2.000</ele>
      </trkpt>
      <trkpt lat="42.346050000" lon="14.410530000">
        <ele>2.000</ele>
      </trkpt>
      <trkpt lat="42.346060000" lon="14.410490000">
        <ele>2.000</ele>
      </trkpt>
      <trkpt lat="42.346060000" lon="14.410450000">
        <ele>2.000</ele>
      </trkpt>
      <trkpt lat="42.346050000" lon="14.410410000">
        <ele>2.000</ele>
      </trkpt>
      <trkpt lat="42.346050000" lon="14.410410000">
        <ele>2.000</ele>
      </trkpt>
      <trkpt lat="42.346060000" lon="14.410400000">
        <ele>2.000</ele>
      </trkpt>
      <trkpt lat="42.346230000" lon="14.410300000">
        <ele>2.000</ele>
      </trkpt>
      <trkpt lat="42.346270000" lon="14.410270000">
        <ele>2.000</ele>
      </trkpt>
      <trkpt lat="42.346390000" lon="14.410200000">
        <ele>2.000</ele>
      </trkpt>
      <trkpt lat="42.346560000" lon="14.410110000">
        <ele>2.000</ele>
      </trkpt>
      <trkpt lat="42.346630000" lon="14.410070000">
        <ele>2.000</ele>
      </trkpt>
      <trkpt lat="42.346710000" lon="14.410020000">
        <ele>2.000</ele>
      </trkpt>
      <trkpt lat="42.346830000" lon="14.409940000">
        <ele>2.000</ele>
      </trkpt>
      <trkpt lat="42.346990000" lon="14.409850000">
        <ele>2.000</ele>
      </trkpt>
      <trkpt lat="42.347050000" lon="14.409810000">
        <ele>2.000</ele>
      </trkpt>
      <trkpt lat="42.347150000" lon="14.409750000">
        <ele>2.000</ele>
      </trkpt>
      <trkpt lat="42.347750000" lon="14.409390000">
        <ele>2.000</ele>
      </trkpt>
      <trkpt lat="42.348150000" lon="14.409140000">
        <ele>2.000</ele>
      </trkpt>
      <trkpt lat="42.348360000" lon="14.409030000">
        <ele>2.000</ele>
      </trkpt>
      <trkpt lat="42.348600000" lon="14.408920000">
        <ele>2.000</ele>
      </trkpt>
      <trkpt lat="42.348820000" lon="14.408830000">
        <ele>2.000</ele>
      </trkpt>
      <trkpt lat="42.349050000" lon="14.408740000">
        <ele>2.000</ele>
      </trkpt>
      <trkpt lat="42.349160000" lon="14.408710000">
        <ele>2.000</ele>
      </trkpt>
      <trkpt lat="42.349290000" lon="14.408670000">
        <ele>2.000</ele>
      </trkpt>
      <trkpt lat="42.349500000" lon="14.408610000">
        <ele>2.000</ele>
      </trkpt>
      <trkpt lat="42.349930000" lon="14.408550000">
        <ele>2.000</ele>
      </trkpt>
      <trkpt lat="42.350190000" lon="14.408500000">
        <ele>2.000</ele>
      </trkpt>
      <trkpt lat="42.350820000" lon="14.408440000">
        <ele>2.000</ele>
      </trkpt>
      <trkpt lat="42.350900000" lon="14.408430000">
        <ele>2.000</ele>
      </trkpt>
      <trkpt lat="42.351200000" lon="14.408390000">
        <ele>2.000</ele>
      </trkpt>
      <trkpt lat="42.351440000" lon="14.408370000">
        <ele>2.000</ele>
      </trkpt>
      <trkpt lat="42.351440000" lon="14.408370000">
        <ele>2.000</ele>
      </trkpt>
      <trkpt lat="42.351860000" lon="14.408320000">
        <ele>2.000</ele>
      </trkpt>
      <trkpt lat="42.352380000" lon="14.408260000">
        <ele>2.000</ele>
      </trkpt>
      <trkpt lat="42.352560000" lon="14.408240000">
        <ele>2.000</ele>
      </trkpt>
      <trkpt lat="42.353140000" lon="14.408180000">
        <ele>2.000</ele>
      </trkpt>
      <trkpt lat="42.353280000" lon="14.408160000">
        <ele>2.000</ele>
      </trkpt>
      <trkpt lat="42.354300000" lon="14.408050000">
        <ele>2.000</ele>
      </trkpt>
      <trkpt lat="42.354660000" lon="14.408010000">
        <ele>2.000</ele>
      </trkpt>
      <trkpt lat="42.355300000" lon="14.407940000">
        <ele>2.000</ele>
      </trkpt>
      <trkpt lat="42.355710000" lon="14.407890000">
        <ele>2.000</ele>
      </trkpt>
      <trkpt lat="42.356480000" lon="14.407810000">
        <ele>2.000</ele>
      </trkpt>
      <trkpt lat="42.356520000" lon="14.407810000">
        <ele>2.000</ele>
      </trkpt>
      <trkpt lat="42.357000000" lon="14.407760000">
        <ele>2.000</ele>
      </trkpt>
      <trkpt lat="42.357590000" lon="14.407700000">
        <ele>2.000</ele>
      </trkpt>
      <trkpt lat="42.357930000" lon="14.407670000">
        <ele>3.000</ele>
      </trkpt>
      <trkpt lat="42.358110000" lon="14.407650000">
        <ele>3.000</ele>
      </trkpt>
      <trkpt lat="42.358170000" lon="14.407640000">
        <ele>4.000</ele>
      </trkpt>
      <trkpt lat="42.358200000" lon="14.407630000">
        <ele>4.000</ele>
      </trkpt>
      <trkpt lat="42.358240000" lon="14.407610000">
        <ele>4.000</ele>
      </trkpt>
      <trkpt lat="42.358290000" lon="14.407590000">
        <ele>4.000</ele>
      </trkpt>
      <trkpt lat="42.358290000" lon="14.407590000">
        <ele>4.000</ele>
      </trkpt>
      <trkpt lat="42.358220000" lon="14.407510000">
        <ele>5.000</ele>
      </trkpt>
      <trkpt lat="42.358190000" lon="14.407490000">
        <ele>5.000</ele>
      </trkpt>
      <trkpt lat="42.358160000" lon="14.407470000">
        <ele>5.000</ele>
      </trkpt>
      <trkpt lat="42.358130000" lon="14.407450000">
        <ele>5.000</ele>
      </trkpt>
      <trkpt lat="42.358100000" lon="14.407430000">
        <ele>5.000</ele>
      </trkpt>
      <trkpt lat="42.358050000" lon="14.407420000">
        <ele>6.000</ele>
      </trkpt>
      <trkpt lat="42.357990000" lon="14.407400000">
        <ele>6.000</ele>
      </trkpt>
      <trkpt lat="42.357880000" lon="14.407380000">
        <ele>6.000</ele>
      </trkpt>
      <trkpt lat="42.357850000" lon="14.407370000">
        <ele>7.000</ele>
      </trkpt>
      <trkpt lat="42.357810000" lon="14.407350000">
        <ele>7.000</ele>
      </trkpt>
      <trkpt lat="42.357780000" lon="14.407330000">
        <ele>7.000</ele>
      </trkpt>
      <trkpt lat="42.357780000" lon="14.407320000">
        <ele>7.000</ele>
      </trkpt>
      <trkpt lat="42.357660000" lon="14.407190000">
        <ele>8.000</ele>
      </trkpt>
      <trkpt lat="42.357650000" lon="14.407180000">
        <ele>8.000</ele>
      </trkpt>
      <trkpt lat="42.357650000" lon="14.407180000">
        <ele>8.000</ele>
      </trkpt>
      <trkpt lat="42.357330000" lon="14.407150000">
        <ele>9.000</ele>
      </trkpt>
      <trkpt lat="42.357300000" lon="14.407130000">
        <ele>10.000</ele>
      </trkpt>
      <trkpt lat="42.357280000" lon="14.407120000">
        <ele>10.000</ele>
      </trkpt>
      <trkpt lat="42.357170000" lon="14.407020000">
        <ele>11.000</ele>
      </trkpt>
      <trkpt lat="42.357120000" lon="14.406990000">
        <ele>11.000</ele>
      </trkpt>
      <trkpt lat="42.357110000" lon="14.406990000">
        <ele>11.000</ele>
      </trkpt>
      <trkpt lat="42.357040000" lon="14.406960000">
        <ele>12.000</ele>
      </trkpt>
      <trkpt lat="42.356840000" lon="14.406920000">
        <ele>12.000</ele>
      </trkpt>
      <trkpt lat="42.356670000" lon="14.406880000">
        <ele>13.000</ele>
      </trkpt>
      <trkpt lat="42.356530000" lon="14.406830000">
        <ele>14.000</ele>
      </trkpt>
      <trkpt lat="42.356420000" lon="14.406780000">
        <ele>15.000</ele>
      </trkpt>
      <trkpt lat="42.356420000" lon="14.406780000">
        <ele>15.000</ele>
      </trkpt>
      <trkpt lat="42.356300000" lon="14.406700000">
        <ele>16.000</ele>
      </trkpt>
      <trkpt lat="42.356220000" lon="14.406630000">
        <ele>17.000</ele>
      </trkpt>
      <trkpt lat="42.356130000" lon="14.406540000">
        <ele>17.000</ele>
      </trkpt>
      <trkpt lat="42.356090000" lon="14.406500000">
        <ele>18.000</ele>
      </trkpt>
      <trkpt lat="42.356040000" lon="14.406430000">
        <ele>18.000</ele>
      </trkpt>
      <trkpt lat="42.355990000" lon="14.406360000">
        <ele>19.000</ele>
      </trkpt>
      <trkpt lat="42.355660000" lon="14.406070000">
        <ele>20.000</ele>
      </trkpt>
      <trkpt lat="42.355650000" lon="14.406060000">
        <ele>21.000</ele>
      </trkpt>
      <trkpt lat="42.355300000" lon="14.405720000">
        <ele>23.000</ele>
      </trkpt>
      <trkpt lat="42.355020000" lon="14.405460000">
        <ele>25.000</ele>
      </trkpt>
      <trkpt lat="42.354900000" lon="14.405370000">
        <ele>26.000</ele>
      </trkpt>
      <trkpt lat="42.354720000" lon="14.405270000">
        <ele>28.000</ele>
      </trkpt>
      <trkpt lat="42.354570000" lon="14.405200000">
        <ele>29.000</ele>
      </trkpt>
      <trkpt lat="42.354530000" lon="14.405190000">
        <ele>30.000</ele>
      </trkpt>
      <trkpt lat="42.354220000" lon="14.405070000">
        <ele>31.000</ele>
      </trkpt>
      <trkpt lat="42.354080000" lon="14.405000000">
        <ele>32.000</ele>
      </trkpt>
      <trkpt lat="42.354000000" lon="14.404950000">
        <ele>33.000</ele>
      </trkpt>
      <trkpt lat="42.353970000" lon="14.404920000">
        <ele>34.000</ele>
      </trkpt>
      <trkpt lat="42.353960000" lon="14.404890000">
        <ele>34.000</ele>
      </trkpt>
      <trkpt lat="42.353950000" lon="14.404860000">
        <ele>35.000</ele>
      </trkpt>
      <trkpt lat="42.353950000" lon="14.404840000">
        <ele>35.000</ele>
      </trkpt>
      <trkpt lat="42.353950000" lon="14.404820000">
        <ele>35.000</ele>
      </trkpt>
      <trkpt lat="42.353950000" lon="14.404810000">
        <ele>35.000</ele>
      </trkpt>
      <trkpt lat="42.353950000" lon="14.404790000">
        <ele>35.000</ele>
      </trkpt>
      <trkpt lat="42.353960000" lon="14.404780000">
        <ele>35.000</ele>
      </trkpt>
      <trkpt lat="42.353980000" lon="14.404770000">
        <ele>36.000</ele>
      </trkpt>
      <trkpt lat="42.354010000" lon="14.404750000">
        <ele>36.000</ele>
      </trkpt>
      <trkpt lat="42.354050000" lon="14.404740000">
        <ele>36.000</ele>
      </trkpt>
      <trkpt lat="42.354080000" lon="14.404740000">
        <ele>36.000</ele>
      </trkpt>
      <trkpt lat="42.354110000" lon="14.404740000">
        <ele>36.000</ele>
      </trkpt>
      <trkpt lat="42.354160000" lon="14.404750000">
        <ele>36.000</ele>
      </trkpt>
      <trkpt lat="42.354260000" lon="14.404780000">
        <ele>37.000</ele>
      </trkpt>
      <trkpt lat="42.354460000" lon="14.404850000">
        <ele>37.000</ele>
      </trkpt>
      <trkpt lat="42.354600000" lon="14.404900000">
        <ele>38.000</ele>
      </trkpt>
      <trkpt lat="42.354630000" lon="14.404920000">
        <ele>39.000</ele>
      </trkpt>
      <trkpt lat="42.354730000" lon="14.404950000">
        <ele>39.000</ele>
      </trkpt>
      <trkpt lat="42.354980000" lon="14.405030000">
        <ele>40.000</ele>
      </trkpt>
      <trkpt lat="42.355070000" lon="14.405060000">
        <ele>41.000</ele>
      </trkpt>
      <trkpt lat="42.355240000" lon="14.405120000">
        <ele>42.000</ele>
      </trkpt>
      <trkpt lat="42.355300000" lon="14.405140000">
        <ele>42.000</ele>
      </trkpt>
      <trkpt lat="42.355330000" lon="14.405140000">
        <ele>43.000</ele>
      </trkpt>
      <trkpt lat="42.355340000" lon="14.405140000">
        <ele>43.000</ele>
      </trkpt>
      <trkpt lat="42.355370000" lon="14.405140000">
        <ele>44.000</ele>
      </trkpt>
      <trkpt lat="42.355390000" lon="14.405130000">
        <ele>44.000</ele>
      </trkpt>
      <trkpt lat="42.355410000" lon="14.405110000">
        <ele>44.000</ele>
      </trkpt>
      <trkpt lat="42.355420000" lon="14.405080000">
        <ele>44.000</ele>
      </trkpt>
      <trkpt lat="42.355430000" lon="14.405060000">
        <ele>45.000</ele>
      </trkpt>
      <trkpt lat="42.355440000" lon="14.405030000">
        <ele>45.000</ele>
      </trkpt>
      <trkpt lat="42.355430000" lon="14.404990000">
        <ele>45.000</ele>
      </trkpt>
      <trkpt lat="42.355430000" lon="14.404960000">
        <ele>45.000</ele>
      </trkpt>
      <trkpt lat="42.355420000" lon="14.404930000">
        <ele>45.000</ele>
      </trkpt>
      <trkpt lat="42.355410000" lon="14.404910000">
        <ele>45.000</ele>
      </trkpt>
      <trkpt lat="42.355400000" lon="14.404890000">
        <ele>45.000</ele>
      </trkpt>
      <trkpt lat="42.355390000" lon="14.404870000">
        <ele>46.000</ele>
      </trkpt>
      <trkpt lat="42.355350000" lon="14.404840000">
        <ele>46.000</ele>
      </trkpt>
      <trkpt lat="42.355290000" lon="14.404790000">
        <ele>46.000</ele>
      </trkpt>
      <trkpt lat="42.355170000" lon="14.404710000">
        <ele>46.000</ele>
      </trkpt>
      <trkpt lat="42.355160000" lon="14.404710000">
        <ele>47.000</ele>
      </trkpt>
      <trkpt lat="42.354960000" lon="14.404600000">
        <ele>47.000</ele>
      </trkpt>
      <trkpt lat="42.354820000" lon="14.404530000">
        <ele>48.000</ele>
      </trkpt>
      <trkpt lat="42.354720000" lon="14.404480000">
        <ele>49.000</ele>
      </trkpt>
      <trkpt lat="42.354530000" lon="14.404420000">
        <ele>50.000</ele>
      </trkpt>
      <trkpt lat="42.354360000" lon="14.404380000">
        <ele>51.000</ele>
      </trkpt>
      <trkpt lat="42.354090000" lon="14.404330000">
        <ele>51.000</ele>
      </trkpt>
      <trkpt lat="42.353940000" lon="14.404320000">
        <ele>52.000</ele>
      </trkpt>
      <trkpt lat="42.353880000" lon="14.404310000">
        <ele>53.000</ele>
      </trkpt>
      <trkpt lat="42.353720000" lon="14.404310000">
        <ele>53.000</ele>
      </trkpt>
      <trkpt lat="42.353500000" lon="14.404330000">
        <ele>54.000</ele>
      </trkpt>
      <trkpt lat="42.353230000" lon="14.404380000">
        <ele>55.000</ele>
      </trkpt>
      <trkpt lat="42.352940000" lon="14.404410000">
        <ele>56.000</ele>
      </trkpt>
      <trkpt lat="42.352860000" lon="14.404420000">
        <ele>57.000</ele>
      </trkpt>
      <trkpt lat="42.352830000" lon="14.404420000">
        <ele>57.000</ele>
      </trkpt>
      <trkpt lat="42.352780000" lon="14.404420000">
        <ele>57.000</ele>
      </trkpt>
      <trkpt lat="42.352730000" lon="14.404420000">
        <ele>58.000</ele>
      </trkpt>
      <trkpt lat="42.352690000" lon="14.404410000">
        <ele>58.000</ele>
      </trkpt>
      <trkpt lat="42.352630000" lon="14.404390000">
        <ele>58.000</ele>
      </trkpt>
      <trkpt lat="42.352440000" lon="14.404270000">
        <ele>59.000</ele>
      </trkpt>
      <trkpt lat="42.352400000" lon="14.404250000">
        <ele>59.000</ele>
      </trkpt>
      <trkpt lat="42.352300000" lon="14.404160000">
        <ele>60.000</ele>
      </trkpt>
      <trkpt lat="42.352300000" lon="14.404160000">
        <ele>60.000</ele>
      </trkpt>
      <trkpt lat="42.352260000" lon="14.404060000">
        <ele>61.000</ele>
      </trkpt>
      <trkpt lat="42.352240000" lon="14.404010000">
        <ele>61.000</ele>
      </trkpt>
      <trkpt lat="42.352230000" lon="14.403970000">
        <ele>61.000</ele>
      </trkpt>
      <trkpt lat="42.352230000" lon="14.403950000">
        <ele>62.000</ele>
      </trkpt>
      <trkpt lat="42.352190000" lon="14.403510000">
        <ele>62.000</ele>
      </trkpt>
      <trkpt lat="42.352180000" lon="14.403250000">
        <ele>63.000</ele>
      </trkpt>
      <trkpt lat="42.352180000" lon="14.403250000">
        <ele>64.000</ele>
      </trkpt>
      <trkpt lat="42.352390000" lon="14.403300000">
        <ele>65.000</ele>
      </trkpt>
      <trkpt lat="42.352510000" lon="14.403340000">
        <ele>65.000</ele>
      </trkpt>
      <trkpt lat="42.352510000" lon="14.403340000">
        <ele>66.000</ele>
      </trkpt>
      <trkpt lat="42.352830000" lon="14.403450000">
        <ele>67.000</ele>
      </trkpt>
      <trkpt lat="42.352900000" lon="14.403470000">
        <ele>67.000</ele>
      </trkpt>
      <trkpt lat="42.353420000" lon="14.403640000">
        <ele>67.000</ele>
      </trkpt>
      <trkpt lat="42.353640000" lon="14.403730000">
        <ele>66.000</ele>
      </trkpt>
      <trkpt lat="42.354040000" lon="14.403870000">
        <ele>66.000</ele>
      </trkpt>
      <trkpt lat="42.354550000" lon="14.404000000">
        <ele>64.000</ele>
      </trkpt>
      <trkpt lat="42.354910000" lon="14.404090000">
        <ele>63.000</ele>
      </trkpt>
      <trkpt lat="42.355150000" lon="14.404240000">
        <ele>62.000</ele>
      </trkpt>
      <trkpt lat="42.355150000" lon="14.404240000">
        <ele>61.000</ele>
      </trkpt>
      <trkpt lat="42.355230000" lon="14.404300000">
        <ele>61.000</ele>
      </trkpt>
      <trkpt lat="42.355310000" lon="14.404380000">
        <ele>60.000</ele>
      </trkpt>
      <trkpt lat="42.355380000" lon="14.404440000">
        <ele>60.000</ele>
      </trkpt>
      <trkpt lat="42.355730000" lon="14.404760000">
        <ele>59.000</ele>
      </trkpt>
      <trkpt lat="42.355730000" lon="14.404760000">
        <ele>59.000</ele>
      </trkpt>
      <trkpt lat="42.355980000" lon="14.404990000">
        <ele>58.000</ele>
      </trkpt>
      <trkpt lat="42.356110000" lon="14.405130000">
        <ele>58.000</ele>
      </trkpt>
      <trkpt lat="42.356260000" lon="14.405270000">
        <ele>57.000</ele>
      </trkpt>
      <trkpt lat="42.356270000" lon="14.405280000">
        <ele>57.000</ele>
      </trkpt>
      <trkpt lat="42.356410000" lon="14.405410000">
        <ele>57.000</ele>
      </trkpt>
      <trkpt lat="42.356530000" lon="14.405520000">
        <ele>56.000</ele>
      </trkpt>
      <trkpt lat="42.356680000" lon="14.405650000">
        <ele>56.000</ele>
      </trkpt>
      <trkpt lat="42.356860000" lon="14.405810000">
        <ele>55.000</ele>
      </trkpt>
      <trkpt lat="42.356980000" lon="14.405920000">
        <ele>54.000</ele>
      </trkpt>
      <trkpt lat="42.357000000" lon="14.405950000">
        <ele>54.000</ele>
      </trkpt>
      <trkpt lat="42.357020000" lon="14.405950000">
        <ele>53.000</ele>
      </trkpt>
      <trkpt lat="42.357060000" lon="14.405950000">
        <ele>53.000</ele>
      </trkpt>
      <trkpt lat="42.357090000" lon="14.405950000">
        <ele>53.000</ele>
      </trkpt>
      <trkpt lat="42.357250000" lon="14.405920000">
        <ele>52.000</ele>
      </trkpt>
      <trkpt lat="42.357290000" lon="14.405920000">
        <ele>52.000</ele>
      </trkpt>
      <trkpt lat="42.357330000" lon="14.405930000">
        <ele>52.000</ele>
      </trkpt>
      <trkpt lat="42.357350000" lon="14.405940000">
        <ele>51.000</ele>
      </trkpt>
      <trkpt lat="42.357360000" lon="14.405940000">
        <ele>51.000</ele>
      </trkpt>
      <trkpt lat="42.357390000" lon="14.405960000">
        <ele>51.000</ele>
      </trkpt>
      <trkpt lat="42.357440000" lon="14.405990000">
        <ele>51.000</ele>
      </trkpt>
      <trkpt lat="42.357510000" lon="14.406040000">
        <ele>51.000</ele>
      </trkpt>
      <trkpt lat="42.357540000" lon="14.406070000">
        <ele>50.000</ele>
      </trkpt>
      <trkpt lat="42.357630000" lon="14.406160000">
        <ele>50.000</ele>
      </trkpt>
      <trkpt lat="42.357720000" lon="14.406250000">
        <ele>50.000</ele>
      </trkpt>
      <trkpt lat="42.357780000" lon="14.406340000">
        <ele>49.000</ele>
      </trkpt>
      <trkpt lat="42.357790000" lon="14.406340000">
        <ele>49.000</ele>
      </trkpt>
      <trkpt lat="42.357790000" lon="14.406340000">
        <ele>49.000</ele>
      </trkpt>
      <trkpt lat="42.357860000" lon="14.406400000">
        <ele>48.000</ele>
      </trkpt>
      <trkpt lat="42.357940000" lon="14.406470000">
        <ele>48.000</ele>
      </trkpt>
      <trkpt lat="42.357980000" lon="14.406490000">
        <ele>48.000</ele>
      </trkpt>
      <trkpt lat="42.358040000" lon="14.406520000">
        <ele>47.000</ele>
      </trkpt>
      <trkpt lat="42.358050000" lon="14.406530000">
        <ele>47.000</ele>
      </trkpt>
      <trkpt lat="42.358100000" lon="14.406550000">
        <ele>47.000</ele>
      </trkpt>
      <trkpt lat="42.358120000" lon="14.406560000">
        <ele>47.000</ele>
      </trkpt>
      <trkpt lat="42.358150000" lon="14.406560000">
        <ele>47.000</ele>
      </trkpt>
      <trkpt lat="42.358180000" lon="14.406560000">
        <ele>47.000</ele>
      </trkpt>
      <trkpt lat="42.358190000" lon="14.406560000">
        <ele>47.000</ele>
      </trkpt>
      <trkpt lat="42.358200000" lon="14.406560000">
        <ele>47.000</ele>
      </trkpt>
      <trkpt lat="42.358210000" lon="14.406560000">
        <ele>47.000</ele>
      </trkpt>
      <trkpt lat="42.358210000" lon="14.406560000">
        <ele>47.000</ele>
      </trkpt>
      <trkpt lat="42.358220000" lon="14.406550000">
        <ele>47.000</ele>
      </trkpt>
      <trkpt lat="42.358230000" lon="14.406530000">
        <ele>47.000</ele>
      </trkpt>
      <trkpt lat="42.358250000" lon="14.406500000">
        <ele>47.000</ele>
      </trkpt>
      <trkpt lat="42.358270000" lon="14.406470000">
        <ele>48.000</ele>
      </trkpt>
      <trkpt lat="42.358290000" lon="14.406430000">
        <ele>48.000</ele>
      </trkpt>
      <trkpt lat="42.358290000" lon="14.406420000">
        <ele>48.000</ele>
      </trkpt>
      <trkpt lat="42.358340000" lon="14.406270000">
        <ele>48.000</ele>
      </trkpt>
      <trkpt lat="42.358400000" lon="14.406050000">
        <ele>49.000</ele>
      </trkpt>
      <trkpt lat="42.358460000" lon="14.405920000">
        <ele>50.000</ele>
      </trkpt>
      <trkpt lat="42.358460000" lon="14.405920000">
        <ele>50.000</ele>
      </trkpt>
      <trkpt lat="42.358510000" lon="14.405820000">
        <ele>51.000</ele>
      </trkpt>
      <trkpt lat="42.358510000" lon="14.405820000">
        <ele>51.000</ele>
      </trkpt>
      <trkpt lat="42.358410000" lon="14.405750000">
        <ele>52.000</ele>
      </trkpt>
      <trkpt lat="42.358350000" lon="14.405700000">
        <ele>52.000</ele>
      </trkpt>
      <trkpt lat="42.358340000" lon="14.405690000">
        <ele>52.000</ele>
      </trkpt>
      <trkpt lat="42.358190000" lon="14.405570000">
        <ele>53.000</ele>
      </trkpt>
      <trkpt lat="42.358040000" lon="14.405430000">
        <ele>54.000</ele>
      </trkpt>
      <trkpt lat="42.357660000" lon="14.405100000">
        <ele>56.000</ele>
      </trkpt>
      <trkpt lat="42.357350000" lon="14.404850000">
        <ele>58.000</ele>
      </trkpt>
      <trkpt lat="42.357300000" lon="14.404790000">
        <ele>59.000</ele>
      </trkpt>
      <trkpt lat="42.357240000" lon="14.404740000">
        <ele>60.000</ele>
      </trkpt>
      <trkpt lat="42.357010000" lon="14.404510000">
        <ele>60.000</ele>
      </trkpt>
      <trkpt lat="42.357010000" lon="14.404510000">
        <ele>61.000</ele>
      </trkpt>
      <trkpt lat="42.356960000" lon="14.404450000">
        <ele>61.000</ele>
      </trkpt>
      <trkpt lat="42.356950000" lon="14.404440000">
        <ele>61.000</ele>
      </trkpt>
      <trkpt lat="42.356910000" lon="14.404400000">
        <ele>61.000</ele>
      </trkpt>
      <trkpt lat="42.356770000" lon="14.404290000">
        <ele>61.000</ele>
      </trkpt>
      <trkpt lat="42.356460000" lon="14.404050000">
        <ele>61.000</ele>
      </trkpt>
      <trkpt lat="42.356190000" lon="14.403800000">
        <ele>61.000</ele>
      </trkpt>
      <trkpt lat="42.356190000" lon="14.403800000">
        <ele>61.000</ele>
      </trkpt>
      <trkpt lat="42.356140000" lon="14.403750000">
        <ele>61.000</ele>
      </trkpt>
      <trkpt lat="42.356080000" lon="14.403720000">
        <ele>61.000</ele>
      </trkpt>
      <trkpt lat="42.356030000" lon="14.403700000">
        <ele>61.000</ele>
      </trkpt>
      <trkpt lat="42.355970000" lon="14.403690000">
        <ele>61.000</ele>
      </trkpt>
      <trkpt lat="42.355900000" lon="14.403680000">
        <ele>61.000</ele>
      </trkpt>
      <trkpt lat="42.355820000" lon="14.403670000">
        <ele>61.000</ele>
      </trkpt>
      <trkpt lat="42.355790000" lon="14.403670000">
        <ele>61.000</ele>
      </trkpt>
      <trkpt lat="42.355700000" lon="14.403680000">
        <ele>62.000</ele>
      </trkpt>
      <trkpt lat="42.355660000" lon="14.403680000">
        <ele>62.000</ele>
      </trkpt>
      <trkpt lat="42.355610000" lon="14.403690000">
        <ele>62.000</ele>
      </trkpt>
      <trkpt lat="42.355610000" lon="14.403690000">
        <ele>62.000</ele>
      </trkpt>
      <trkpt lat="42.355440000" lon="14.403770000">
        <ele>63.000</ele>
      </trkpt>
      <trkpt lat="42.355440000" lon="14.403770000">
        <ele>63.000</ele>
      </trkpt>
      <trkpt lat="42.355390000" lon="14.403650000">
        <ele>63.000</ele>
      </trkpt>
      <trkpt lat="42.355350000" lon="14.403570000">
        <ele>64.000</ele>
      </trkpt>
      <trkpt lat="42.355320000" lon="14.403510000">
        <ele>64.000</ele>
      </trkpt>
      <trkpt lat="42.355320000" lon="14.403510000">
        <ele>64.000</ele>
      </trkpt>
      <trkpt lat="42.355180000" lon="14.403540000">
        <ele>65.000</ele>
      </trkpt>
      <trkpt lat="42.355080000" lon="14.403540000">
        <ele>65.000</ele>
      </trkpt>
      <trkpt lat="42.354900000" lon="14.403510000">
        <ele>66.000</ele>
      </trkpt>
      <trkpt lat="42.354420000" lon="14.403390000">
        <ele>67.000</ele>
      </trkpt>
      <trkpt lat="42.354140000" lon="14.403300000">
        <ele>69.000</ele>
      </trkpt>
      <trkpt lat="42.353950000" lon="14.403230000">
        <ele>70.000</ele>
      </trkpt>
      <trkpt lat="42.353610000" lon="14.403120000">
        <ele>70.000</ele>
      </trkpt>
      <trkpt lat="42.353610000" lon="14.403120000">
        <ele>71.000</ele>
      </trkpt>
      <trkpt lat="42.353500000" lon="14.403080000">
        <ele>71.000</ele>
      </trkpt>
      <trkpt lat="42.353020000" lon="14.402950000">
        <ele>71.000</ele>
      </trkpt>
      <trkpt lat="42.352440000" lon="14.402780000">
        <ele>70.000</ele>
      </trkpt>
      <trkpt lat="42.352320000" lon="14.402750000">
        <ele>70.000</ele>
      </trkpt>
      <trkpt lat="42.352320000" lon="14.402750000">
        <ele>69.000</ele>
      </trkpt>
      <trkpt lat="42.352210000" lon="14.402720000">
        <ele>69.000</ele>
      </trkpt>
    </trkseg>
  </trk>
</gpx>
