<?xml version="1.0" encoding="UTF-8"?>
<gpx version="1.0" creator="GPSBabel - https://www.gpsbabel.org" xmlns="http://www.topografix.com/GPX/1/0">
  <time>2023-05-04T12:59:16.568Z</time>
  <bounds minlat="46.465580000" minlon="13.489180000" maxlat="46.510690000" maxlon="13.578460000"/>
  <trk>
    <trkseg>
      <trkpt lat="46.505430000" lon="13.578460000">
        <ele>750.000</ele>
      </trkpt>
      <trkpt lat="46.505430000" lon="13.578460000">
        <ele>750.000</ele>
      </trkpt>
      <trkpt lat="46.505330000" lon="13.577480000">
        <ele>750.000</ele>
      </trkpt>
      <trkpt lat="46.505290000" lon="13.577150000">
        <ele>750.000</ele>
      </trkpt>
      <trkpt lat="46.505160000" lon="13.575750000">
        <ele>750.000</ele>
      </trkpt>
      <trkpt lat="46.505150000" lon="13.575280000">
        <ele>750.000</ele>
      </trkpt>
      <trkpt lat="46.505180000" lon="13.574860000">
        <ele>750.000</ele>
      </trkpt>
      <trkpt lat="46.505240000" lon="13.574510000">
        <ele>750.000</ele>
      </trkpt>
      <trkpt lat="46.505300000" lon="13.574210000">
        <ele>750.000</ele>
      </trkpt>
      <trkpt lat="46.505410000" lon="13.573910000">
        <ele>750.000</ele>
      </trkpt>
      <trkpt lat="46.505590000" lon="13.573540000">
        <ele>751.000</ele>
      </trkpt>
      <trkpt lat="46.505610000" lon="13.573440000">
        <ele>751.000</ele>
      </trkpt>
      <trkpt lat="46.505630000" lon="13.573280000">
        <ele>751.000</ele>
      </trkpt>
      <trkpt lat="46.505640000" lon="13.573050000">
        <ele>751.000</ele>
      </trkpt>
      <trkpt lat="46.505570000" lon="13.572230000">
        <ele>751.000</ele>
      </trkpt>
      <trkpt lat="46.505690000" lon="13.571980000">
        <ele>751.000</ele>
      </trkpt>
      <trkpt lat="46.505860000" lon="13.571690000">
        <ele>751.000</ele>
      </trkpt>
      <trkpt lat="46.505930000" lon="13.571530000">
        <ele>751.000</ele>
      </trkpt>
      <trkpt lat="46.505970000" lon="13.571320000">
        <ele>751.000</ele>
      </trkpt>
      <trkpt lat="46.505970000" lon="13.570650000">
        <ele>751.000</ele>
      </trkpt>
      <trkpt lat="46.506030000" lon="13.570190000">
        <ele>751.000</ele>
      </trkpt>
      <trkpt lat="46.506020000" lon="13.570090000">
        <ele>751.000</ele>
      </trkpt>
      <trkpt lat="46.506250000" lon="13.569820000">
        <ele>751.000</ele>
      </trkpt>
      <trkpt lat="46.506330000" lon="13.569670000">
        <ele>751.000</ele>
      </trkpt>
      <trkpt lat="46.506380000" lon="13.569520000">
        <ele>751.000</ele>
      </trkpt>
      <trkpt lat="46.506620000" lon="13.568580000">
        <ele>752.000</ele>
      </trkpt>
      <trkpt lat="46.506690000" lon="13.568340000">
        <ele>752.000</ele>
      </trkpt>
      <trkpt lat="46.506840000" lon="13.567970000">
        <ele>753.000</ele>
      </trkpt>
      <trkpt lat="46.506840000" lon="13.567970000">
        <ele>754.000</ele>
      </trkpt>
      <trkpt lat="46.507150000" lon="13.567190000">
        <ele>758.000</ele>
      </trkpt>
      <trkpt lat="46.507190000" lon="13.567150000">
        <ele>760.000</ele>
      </trkpt>
      <trkpt lat="46.507240000" lon="13.567170000">
        <ele>762.000</ele>
      </trkpt>
      <trkpt lat="46.507400000" lon="13.567500000">
        <ele>764.000</ele>
      </trkpt>
      <trkpt lat="46.507430000" lon="13.567510000">
        <ele>766.000</ele>
      </trkpt>
      <trkpt lat="46.507470000" lon="13.567500000">
        <ele>767.000</ele>
      </trkpt>
      <trkpt lat="46.507510000" lon="13.567190000">
        <ele>768.000</ele>
      </trkpt>
      <trkpt lat="46.507600000" lon="13.566970000">
        <ele>770.000</ele>
      </trkpt>
      <trkpt lat="46.507690000" lon="13.566880000">
        <ele>770.000</ele>
      </trkpt>
      <trkpt lat="46.507730000" lon="13.566630000">
        <ele>772.000</ele>
      </trkpt>
      <trkpt lat="46.507780000" lon="13.566120000">
        <ele>775.000</ele>
      </trkpt>
      <trkpt lat="46.507780000" lon="13.565100000">
        <ele>775.000</ele>
      </trkpt>
      <trkpt lat="46.507820000" lon="13.564570000">
        <ele>776.000</ele>
      </trkpt>
      <trkpt lat="46.507820000" lon="13.564570000">
        <ele>776.000</ele>
      </trkpt>
      <trkpt lat="46.507890000" lon="13.564110000">
        <ele>776.000</ele>
      </trkpt>
      <trkpt lat="46.508030000" lon="13.563630000">
        <ele>776.000</ele>
      </trkpt>
      <trkpt lat="46.508330000" lon="13.562860000">
        <ele>777.000</ele>
      </trkpt>
      <trkpt lat="46.508520000" lon="13.562310000">
        <ele>777.000</ele>
      </trkpt>
      <trkpt lat="46.509080000" lon="13.559660000">
        <ele>778.000</ele>
      </trkpt>
      <trkpt lat="46.509120000" lon="13.559330000">
        <ele>779.000</ele>
      </trkpt>
      <trkpt lat="46.509250000" lon="13.558560000">
        <ele>780.000</ele>
      </trkpt>
      <trkpt lat="46.509500000" lon="13.555370000">
        <ele>781.000</ele>
      </trkpt>
      <trkpt lat="46.509560000" lon="13.555080000">
        <ele>781.000</ele>
      </trkpt>
      <trkpt lat="46.509580000" lon="13.554860000">
        <ele>782.000</ele>
      </trkpt>
      <trkpt lat="46.509990000" lon="13.548710000">
        <ele>787.000</ele>
      </trkpt>
      <trkpt lat="46.510020000" lon="13.548550000">
        <ele>790.000</ele>
      </trkpt>
      <trkpt lat="46.510220000" lon="13.547690000">
        <ele>794.000</ele>
      </trkpt>
      <trkpt lat="46.510490000" lon="13.546430000">
        <ele>798.000</ele>
      </trkpt>
      <trkpt lat="46.510540000" lon="13.546180000">
        <ele>801.000</ele>
      </trkpt>
      <trkpt lat="46.510620000" lon="13.545510000">
        <ele>804.000</ele>
      </trkpt>
      <trkpt lat="46.510680000" lon="13.544370000">
        <ele>806.000</ele>
      </trkpt>
      <trkpt lat="46.510690000" lon="13.543700000">
        <ele>808.000</ele>
      </trkpt>
      <trkpt lat="46.510680000" lon="13.543420000">
        <ele>809.000</ele>
      </trkpt>
      <trkpt lat="46.510640000" lon="13.542960000">
        <ele>810.000</ele>
      </trkpt>
      <trkpt lat="46.510550000" lon="13.542440000">
        <ele>810.000</ele>
      </trkpt>
      <trkpt lat="46.510280000" lon="13.540990000">
        <ele>811.000</ele>
      </trkpt>
      <trkpt lat="46.510280000" lon="13.540990000">
        <ele>811.000</ele>
      </trkpt>
      <trkpt lat="46.509360000" lon="13.536100000">
        <ele>811.000</ele>
      </trkpt>
      <trkpt lat="46.509270000" lon="13.535690000">
        <ele>811.000</ele>
      </trkpt>
      <trkpt lat="46.509170000" lon="13.535340000">
        <ele>811.000</ele>
      </trkpt>
      <trkpt lat="46.509040000" lon="13.535000000">
        <ele>812.000</ele>
      </trkpt>
      <trkpt lat="46.508890000" lon="13.534680000">
        <ele>812.000</ele>
      </trkpt>
      <trkpt lat="46.508810000" lon="13.534580000">
        <ele>812.000</ele>
      </trkpt>
      <trkpt lat="46.508810000" lon="13.534580000">
        <ele>812.000</ele>
      </trkpt>
      <trkpt lat="46.508780000" lon="13.534550000">
        <ele>812.000</ele>
      </trkpt>
      <trkpt lat="46.508710000" lon="13.534550000">
        <ele>812.000</ele>
      </trkpt>
      <trkpt lat="46.508710000" lon="13.534280000">
        <ele>812.000</ele>
      </trkpt>
      <trkpt lat="46.508710000" lon="13.534220000">
        <ele>812.000</ele>
      </trkpt>
      <trkpt lat="46.508710000" lon="13.534220000">
        <ele>812.000</ele>
      </trkpt>
      <trkpt lat="46.508710000" lon="13.534160000">
        <ele>812.000</ele>
      </trkpt>
      <trkpt lat="46.508610000" lon="13.534190000">
        <ele>812.000</ele>
      </trkpt>
      <trkpt lat="46.508490000" lon="13.534120000">
        <ele>812.000</ele>
      </trkpt>
      <trkpt lat="46.508490000" lon="13.534120000">
        <ele>812.000</ele>
      </trkpt>
      <trkpt lat="46.508210000" lon="13.533900000">
        <ele>813.000</ele>
      </trkpt>
      <trkpt lat="46.507310000" lon="13.533300000">
        <ele>813.000</ele>
      </trkpt>
      <trkpt lat="46.507150000" lon="13.533150000">
        <ele>813.000</ele>
      </trkpt>
      <trkpt lat="46.506890000" lon="13.532860000">
        <ele>814.000</ele>
      </trkpt>
      <trkpt lat="46.506800000" lon="13.532740000">
        <ele>814.000</ele>
      </trkpt>
      <trkpt lat="46.506600000" lon="13.532420000">
        <ele>814.000</ele>
      </trkpt>
      <trkpt lat="46.506480000" lon="13.532200000">
        <ele>815.000</ele>
      </trkpt>
      <trkpt lat="46.506320000" lon="13.531750000">
        <ele>815.000</ele>
      </trkpt>
      <trkpt lat="46.506180000" lon="13.531100000">
        <ele>816.000</ele>
      </trkpt>
      <trkpt lat="46.506140000" lon="13.530670000">
        <ele>816.000</ele>
      </trkpt>
      <trkpt lat="46.506050000" lon="13.529410000">
        <ele>817.000</ele>
      </trkpt>
      <trkpt lat="46.505980000" lon="13.528640000">
        <ele>817.000</ele>
      </trkpt>
      <trkpt lat="46.505690000" lon="13.526640000">
        <ele>817.000</ele>
      </trkpt>
      <trkpt lat="46.505670000" lon="13.526050000">
        <ele>817.000</ele>
      </trkpt>
      <trkpt lat="46.505670000" lon="13.524430000">
        <ele>815.000</ele>
      </trkpt>
      <trkpt lat="46.505660000" lon="13.524170000">
        <ele>815.000</ele>
      </trkpt>
      <trkpt lat="46.505620000" lon="13.523890000">
        <ele>814.000</ele>
      </trkpt>
      <trkpt lat="46.505320000" lon="13.522790000">
        <ele>813.000</ele>
      </trkpt>
      <trkpt lat="46.505050000" lon="13.521980000">
        <ele>812.000</ele>
      </trkpt>
      <trkpt lat="46.504810000" lon="13.521240000">
        <ele>812.000</ele>
      </trkpt>
      <trkpt lat="46.504660000" lon="13.520780000">
        <ele>812.000</ele>
      </trkpt>
      <trkpt lat="46.504030000" lon="13.519300000">
        <ele>812.000</ele>
      </trkpt>
      <trkpt lat="46.503860000" lon="13.518760000">
        <ele>813.000</ele>
      </trkpt>
      <trkpt lat="46.503760000" lon="13.518150000">
        <ele>813.000</ele>
      </trkpt>
      <trkpt lat="46.503680000" lon="13.516810000">
        <ele>812.000</ele>
      </trkpt>
      <trkpt lat="46.503680000" lon="13.516810000">
        <ele>812.000</ele>
      </trkpt>
      <trkpt lat="46.503590000" lon="13.515960000">
        <ele>811.000</ele>
      </trkpt>
      <trkpt lat="46.503440000" lon="13.515240000">
        <ele>810.000</ele>
      </trkpt>
      <trkpt lat="46.502960000" lon="13.513230000">
        <ele>807.000</ele>
      </trkpt>
      <trkpt lat="46.502880000" lon="13.512640000">
        <ele>805.000</ele>
      </trkpt>
      <trkpt lat="46.502850000" lon="13.512260000">
        <ele>804.000</ele>
      </trkpt>
      <trkpt lat="46.502850000" lon="13.511540000">
        <ele>802.000</ele>
      </trkpt>
      <trkpt lat="46.502910000" lon="13.510530000">
        <ele>800.000</ele>
      </trkpt>
      <trkpt lat="46.503050000" lon="13.508960000">
        <ele>798.000</ele>
      </trkpt>
      <trkpt lat="46.503060000" lon="13.508190000">
        <ele>796.000</ele>
      </trkpt>
      <trkpt lat="46.503010000" lon="13.507460000">
        <ele>794.000</ele>
      </trkpt>
      <trkpt lat="46.502970000" lon="13.507130000">
        <ele>793.000</ele>
      </trkpt>
      <trkpt lat="46.502870000" lon="13.506530000">
        <ele>793.000</ele>
      </trkpt>
      <trkpt lat="46.502780000" lon="13.506180000">
        <ele>792.000</ele>
      </trkpt>
      <trkpt lat="46.502600000" lon="13.505590000">
        <ele>791.000</ele>
      </trkpt>
      <trkpt lat="46.501450000" lon="13.502660000">
        <ele>790.000</ele>
      </trkpt>
      <trkpt lat="46.501160000" lon="13.501840000">
        <ele>790.000</ele>
      </trkpt>
      <trkpt lat="46.501070000" lon="13.501550000">
        <ele>790.000</ele>
      </trkpt>
      <trkpt lat="46.501000000" lon="13.501450000">
        <ele>790.000</ele>
      </trkpt>
      <trkpt lat="46.500930000" lon="13.501440000">
        <ele>790.000</ele>
      </trkpt>
      <trkpt lat="46.500920000" lon="13.501320000">
        <ele>790.000</ele>
      </trkpt>
      <trkpt lat="46.500600000" lon="13.501400000">
        <ele>791.000</ele>
      </trkpt>
      <trkpt lat="46.500600000" lon="13.501400000">
        <ele>791.000</ele>
      </trkpt>
      <trkpt lat="46.499640000" lon="13.501610000">
        <ele>792.000</ele>
      </trkpt>
      <trkpt lat="46.499520000" lon="13.501610000">
        <ele>793.000</ele>
      </trkpt>
      <trkpt lat="46.499290000" lon="13.501530000">
        <ele>794.000</ele>
      </trkpt>
      <trkpt lat="46.499190000" lon="13.501480000">
        <ele>794.000</ele>
      </trkpt>
      <trkpt lat="46.499060000" lon="13.501350000">
        <ele>795.000</ele>
      </trkpt>
      <trkpt lat="46.498950000" lon="13.501210000">
        <ele>795.000</ele>
      </trkpt>
      <trkpt lat="46.498640000" lon="13.500630000">
        <ele>796.000</ele>
      </trkpt>
      <trkpt lat="46.498430000" lon="13.500380000">
        <ele>797.000</ele>
      </trkpt>
      <trkpt lat="46.498270000" lon="13.500270000">
        <ele>798.000</ele>
      </trkpt>
      <trkpt lat="46.498050000" lon="13.500190000">
        <ele>798.000</ele>
      </trkpt>
      <trkpt lat="46.497730000" lon="13.500190000">
        <ele>799.000</ele>
      </trkpt>
      <trkpt lat="46.496660000" lon="13.500160000">
        <ele>799.000</ele>
      </trkpt>
      <trkpt lat="46.496130000" lon="13.500130000">
        <ele>799.000</ele>
      </trkpt>
      <trkpt lat="46.496030000" lon="13.500100000">
        <ele>799.000</ele>
      </trkpt>
      <trkpt lat="46.495860000" lon="13.499980000">
        <ele>800.000</ele>
      </trkpt>
      <trkpt lat="46.494570000" lon="13.498610000">
        <ele>802.000</ele>
      </trkpt>
      <trkpt lat="46.494370000" lon="13.498340000">
        <ele>803.000</ele>
      </trkpt>
      <trkpt lat="46.494270000" lon="13.498140000">
        <ele>804.000</ele>
      </trkpt>
      <trkpt lat="46.494210000" lon="13.497890000">
        <ele>804.000</ele>
      </trkpt>
      <trkpt lat="46.493970000" lon="13.496410000">
        <ele>803.000</ele>
      </trkpt>
      <trkpt lat="46.493720000" lon="13.495630000">
        <ele>801.000</ele>
      </trkpt>
      <trkpt lat="46.493700000" lon="13.495500000">
        <ele>800.000</ele>
      </trkpt>
      <trkpt lat="46.493680000" lon="13.495310000">
        <ele>800.000</ele>
      </trkpt>
      <trkpt lat="46.493590000" lon="13.491970000">
        <ele>797.000</ele>
      </trkpt>
      <trkpt lat="46.493570000" lon="13.491780000">
        <ele>797.000</ele>
      </trkpt>
      <trkpt lat="46.493420000" lon="13.491580000">
        <ele>797.000</ele>
      </trkpt>
      <trkpt lat="46.493270000" lon="13.491440000">
        <ele>797.000</ele>
      </trkpt>
      <trkpt lat="46.493070000" lon="13.491350000">
        <ele>797.000</ele>
      </trkpt>
      <trkpt lat="46.492990000" lon="13.491360000">
        <ele>797.000</ele>
      </trkpt>
      <trkpt lat="46.492840000" lon="13.491580000">
        <ele>797.000</ele>
      </trkpt>
      <trkpt lat="46.492840000" lon="13.491580000">
        <ele>797.000</ele>
      </trkpt>
      <trkpt lat="46.492680000" lon="13.491880000">
        <ele>797.000</ele>
      </trkpt>
      <trkpt lat="46.492610000" lon="13.491950000">
        <ele>797.000</ele>
      </trkpt>
      <trkpt lat="46.492400000" lon="13.492000000">
        <ele>798.000</ele>
      </trkpt>
      <trkpt lat="46.492060000" lon="13.492070000">
        <ele>798.000</ele>
      </trkpt>
      <trkpt lat="46.491760000" lon="13.492110000">
        <ele>798.000</ele>
      </trkpt>
      <trkpt lat="46.491680000" lon="13.492080000">
        <ele>799.000</ele>
      </trkpt>
      <trkpt lat="46.491500000" lon="13.491850000">
        <ele>799.000</ele>
      </trkpt>
      <trkpt lat="46.491400000" lon="13.491800000">
        <ele>800.000</ele>
      </trkpt>
      <trkpt lat="46.491180000" lon="13.491810000">
        <ele>801.000</ele>
      </trkpt>
      <trkpt lat="46.490880000" lon="13.491710000">
        <ele>801.000</ele>
      </trkpt>
      <trkpt lat="46.490710000" lon="13.491700000">
        <ele>802.000</ele>
      </trkpt>
      <trkpt lat="46.490390000" lon="13.491780000">
        <ele>803.000</ele>
      </trkpt>
      <trkpt lat="46.490160000" lon="13.491790000">
        <ele>804.000</ele>
      </trkpt>
      <trkpt lat="46.489660000" lon="13.491640000">
        <ele>805.000</ele>
      </trkpt>
      <trkpt lat="46.489360000" lon="13.491580000">
        <ele>807.000</ele>
      </trkpt>
      <trkpt lat="46.488940000" lon="13.491460000">
        <ele>808.000</ele>
      </trkpt>
      <trkpt lat="46.488880000" lon="13.491410000">
        <ele>810.000</ele>
      </trkpt>
      <trkpt lat="46.488820000" lon="13.491330000">
        <ele>811.000</ele>
      </trkpt>
      <trkpt lat="46.488600000" lon="13.490810000">
        <ele>812.000</ele>
      </trkpt>
      <trkpt lat="46.488530000" lon="13.490680000">
        <ele>813.000</ele>
      </trkpt>
      <trkpt lat="46.487980000" lon="13.489970000">
        <ele>814.000</ele>
      </trkpt>
      <trkpt lat="46.487980000" lon="13.489970000">
        <ele>815.000</ele>
      </trkpt>
      <trkpt lat="46.487780000" lon="13.489720000">
        <ele>815.000</ele>
      </trkpt>
      <trkpt lat="46.487600000" lon="13.489620000">
        <ele>816.000</ele>
      </trkpt>
      <trkpt lat="46.487250000" lon="13.489560000">
        <ele>817.000</ele>
      </trkpt>
      <trkpt lat="46.486920000" lon="13.489550000">
        <ele>817.000</ele>
      </trkpt>
      <trkpt lat="46.486840000" lon="13.489460000">
        <ele>818.000</ele>
      </trkpt>
      <trkpt lat="46.486700000" lon="13.489180000">
        <ele>818.000</ele>
      </trkpt>
      <trkpt lat="46.486320000" lon="13.489230000">
        <ele>819.000</ele>
      </trkpt>
      <trkpt lat="46.486170000" lon="13.489280000">
        <ele>820.000</ele>
      </trkpt>
      <trkpt lat="46.485960000" lon="13.489430000">
        <ele>820.000</ele>
      </trkpt>
      <trkpt lat="46.484890000" lon="13.490720000">
        <ele>822.000</ele>
      </trkpt>
      <trkpt lat="46.484630000" lon="13.490890000">
        <ele>824.000</ele>
      </trkpt>
      <trkpt lat="46.484550000" lon="13.490940000">
        <ele>825.000</ele>
      </trkpt>
      <trkpt lat="46.484300000" lon="13.491080000">
        <ele>826.000</ele>
      </trkpt>
      <trkpt lat="46.484210000" lon="13.491110000">
        <ele>827.000</ele>
      </trkpt>
      <trkpt lat="46.484110000" lon="13.491110000">
        <ele>828.000</ele>
      </trkpt>
      <trkpt lat="46.483460000" lon="13.490990000">
        <ele>829.000</ele>
      </trkpt>
      <trkpt lat="46.483350000" lon="13.490990000">
        <ele>830.000</ele>
      </trkpt>
      <trkpt lat="46.482640000" lon="13.491150000">
        <ele>832.000</ele>
      </trkpt>
      <trkpt lat="46.482230000" lon="13.491190000">
        <ele>834.000</ele>
      </trkpt>
      <trkpt lat="46.482010000" lon="13.491220000">
        <ele>835.000</ele>
      </trkpt>
      <trkpt lat="46.481070000" lon="13.491290000">
        <ele>837.000</ele>
      </trkpt>
      <trkpt lat="46.480650000" lon="13.491350000">
        <ele>839.000</ele>
      </trkpt>
      <trkpt lat="46.480570000" lon="13.491380000">
        <ele>841.000</ele>
      </trkpt>
      <trkpt lat="46.479450000" lon="13.492180000">
        <ele>843.000</ele>
      </trkpt>
      <trkpt lat="46.478830000" lon="13.492790000">
        <ele>845.000</ele>
      </trkpt>
      <trkpt lat="46.478690000" lon="13.492900000">
        <ele>846.000</ele>
      </trkpt>
      <trkpt lat="46.478500000" lon="13.492960000">
        <ele>847.000</ele>
      </trkpt>
      <trkpt lat="46.477920000" lon="13.492980000">
        <ele>847.000</ele>
      </trkpt>
      <trkpt lat="46.477800000" lon="13.493030000">
        <ele>848.000</ele>
      </trkpt>
      <trkpt lat="46.477560000" lon="13.493170000">
        <ele>848.000</ele>
      </trkpt>
      <trkpt lat="46.476700000" lon="13.493810000">
        <ele>848.000</ele>
      </trkpt>
      <trkpt lat="46.476430000" lon="13.493900000">
        <ele>848.000</ele>
      </trkpt>
      <trkpt lat="46.476300000" lon="13.493910000">
        <ele>848.000</ele>
      </trkpt>
      <trkpt lat="46.476090000" lon="13.493870000">
        <ele>848.000</ele>
      </trkpt>
      <trkpt lat="46.474500000" lon="13.493060000">
        <ele>848.000</ele>
      </trkpt>
      <trkpt lat="46.474110000" lon="13.492890000">
        <ele>848.000</ele>
      </trkpt>
      <trkpt lat="46.472640000" lon="13.492770000">
        <ele>848.000</ele>
      </trkpt>
      <trkpt lat="46.471630000" lon="13.492520000">
        <ele>851.000</ele>
      </trkpt>
      <trkpt lat="46.471630000" lon="13.492520000">
        <ele>852.000</ele>
      </trkpt>
      <trkpt lat="46.471540000" lon="13.492490000">
        <ele>853.000</ele>
      </trkpt>
      <trkpt lat="46.471360000" lon="13.492370000">
        <ele>854.000</ele>
      </trkpt>
      <trkpt lat="46.471050000" lon="13.492350000">
        <ele>856.000</ele>
      </trkpt>
      <trkpt lat="46.470970000" lon="13.492310000">
        <ele>857.000</ele>
      </trkpt>
      <trkpt lat="46.470680000" lon="13.492040000">
        <ele>859.000</ele>
      </trkpt>
      <trkpt lat="46.470600000" lon="13.492010000">
        <ele>860.000</ele>
      </trkpt>
      <trkpt lat="46.470320000" lon="13.492000000">
        <ele>861.000</ele>
      </trkpt>
      <trkpt lat="46.470190000" lon="13.491970000">
        <ele>862.000</ele>
      </trkpt>
      <trkpt lat="46.469850000" lon="13.491810000">
        <ele>864.000</ele>
      </trkpt>
      <trkpt lat="46.469740000" lon="13.491780000">
        <ele>865.000</ele>
      </trkpt>
      <trkpt lat="46.469490000" lon="13.491810000">
        <ele>866.000</ele>
      </trkpt>
      <trkpt lat="46.468890000" lon="13.492010000">
        <ele>868.000</ele>
      </trkpt>
      <trkpt lat="46.468630000" lon="13.492030000">
        <ele>870.000</ele>
      </trkpt>
      <trkpt lat="46.468540000" lon="13.491980000">
        <ele>871.000</ele>
      </trkpt>
      <trkpt lat="46.468490000" lon="13.491920000">
        <ele>872.000</ele>
      </trkpt>
      <trkpt lat="46.468280000" lon="13.491520000">
        <ele>872.000</ele>
      </trkpt>
      <trkpt lat="46.468070000" lon="13.491310000">
        <ele>873.000</ele>
      </trkpt>
      <trkpt lat="46.467850000" lon="13.491200000">
        <ele>873.000</ele>
      </trkpt>
      <trkpt lat="46.467850000" lon="13.491200000">
        <ele>873.000</ele>
      </trkpt>
      <trkpt lat="46.467680000" lon="13.491160000">
        <ele>874.000</ele>
      </trkpt>
      <trkpt lat="46.467600000" lon="13.491160000">
        <ele>874.000</ele>
      </trkpt>
      <trkpt lat="46.467370000" lon="13.491210000">
        <ele>874.000</ele>
      </trkpt>
      <trkpt lat="46.467320000" lon="13.491330000">
        <ele>874.000</ele>
      </trkpt>
      <trkpt lat="46.467300000" lon="13.491450000">
        <ele>874.000</ele>
      </trkpt>
      <trkpt lat="46.467320000" lon="13.491610000">
        <ele>874.000</ele>
      </trkpt>
      <trkpt lat="46.467600000" lon="13.492050000">
        <ele>875.000</ele>
      </trkpt>
      <trkpt lat="46.467650000" lon="13.492170000">
        <ele>875.000</ele>
      </trkpt>
      <trkpt lat="46.467660000" lon="13.492260000">
        <ele>875.000</ele>
      </trkpt>
      <trkpt lat="46.467550000" lon="13.492710000">
        <ele>875.000</ele>
      </trkpt>
      <trkpt lat="46.467550000" lon="13.492830000">
        <ele>875.000</ele>
      </trkpt>
      <trkpt lat="46.467690000" lon="13.493280000">
        <ele>875.000</ele>
      </trkpt>
      <trkpt lat="46.467720000" lon="13.493440000">
        <ele>876.000</ele>
      </trkpt>
      <trkpt lat="46.467710000" lon="13.493520000">
        <ele>876.000</ele>
      </trkpt>
      <trkpt lat="46.467430000" lon="13.494130000">
        <ele>876.000</ele>
      </trkpt>
      <trkpt lat="46.467380000" lon="13.494190000">
        <ele>876.000</ele>
      </trkpt>
      <trkpt lat="46.467320000" lon="13.494230000">
        <ele>877.000</ele>
      </trkpt>
      <trkpt lat="46.467100000" lon="13.494240000">
        <ele>877.000</ele>
      </trkpt>
      <trkpt lat="46.467020000" lon="13.494210000">
        <ele>878.000</ele>
      </trkpt>
      <trkpt lat="46.466860000" lon="13.494100000">
        <ele>878.000</ele>
      </trkpt>
      <trkpt lat="46.466620000" lon="13.494120000">
        <ele>879.000</ele>
      </trkpt>
      <trkpt lat="46.466400000" lon="13.494240000">
        <ele>880.000</ele>
      </trkpt>
      <trkpt lat="46.466180000" lon="13.494250000">
        <ele>882.000</ele>
      </trkpt>
      <trkpt lat="46.465890000" lon="13.494390000">
        <ele>883.000</ele>
      </trkpt>
      <trkpt lat="46.465800000" lon="13.494480000">
        <ele>884.000</ele>
      </trkpt>
      <trkpt lat="46.465780000" lon="13.494590000">
        <ele>885.000</ele>
      </trkpt>
      <trkpt lat="46.465830000" lon="13.494750000">
        <ele>886.000</ele>
      </trkpt>
      <trkpt lat="46.465830000" lon="13.494750000">
        <ele>887.000</ele>
      </trkpt>
      <trkpt lat="46.466010000" lon="13.495080000">
        <ele>889.000</ele>
      </trkpt>
      <trkpt lat="46.466000000" lon="13.495190000">
        <ele>891.000</ele>
      </trkpt>
      <trkpt lat="46.465940000" lon="13.495270000">
        <ele>893.000</ele>
      </trkpt>
      <trkpt lat="46.465890000" lon="13.495320000">
        <ele>894.000</ele>
      </trkpt>
      <trkpt lat="46.465640000" lon="13.495540000">
        <ele>897.000</ele>
      </trkpt>
      <trkpt lat="46.465580000" lon="13.495620000">
        <ele>899.000</ele>
      </trkpt>
      <trkpt lat="46.465580000" lon="13.495740000">
        <ele>901.000</ele>
      </trkpt>
      <trkpt lat="46.465630000" lon="13.495900000">
        <ele>904.000</ele>
      </trkpt>
      <trkpt lat="46.465780000" lon="13.496220000">
        <ele>906.000</ele>
      </trkpt>
      <trkpt lat="46.465800000" lon="13.496300000">
        <ele>909.000</ele>
      </trkpt>
      <trkpt lat="46.465780000" lon="13.496560000">
        <ele>911.000</ele>
      </trkpt>
      <trkpt lat="46.465800000" lon="13.496660000">
        <ele>913.000</ele>
      </trkpt>
      <trkpt lat="46.465920000" lon="13.496810000">
        <ele>916.000</ele>
      </trkpt>
      <trkpt lat="46.465940000" lon="13.496890000">
        <ele>918.000</ele>
      </trkpt>
      <trkpt lat="46.465910000" lon="13.496960000">
        <ele>919.000</ele>
      </trkpt>
      <trkpt lat="46.465840000" lon="13.497010000">
        <ele>921.000</ele>
      </trkpt>
      <trkpt lat="46.465730000" lon="13.497170000">
        <ele>923.000</ele>
      </trkpt>
      <trkpt lat="46.465610000" lon="13.497230000">
        <ele>926.000</ele>
      </trkpt>
      <trkpt lat="46.465590000" lon="13.497280000">
        <ele>928.000</ele>
      </trkpt>
      <trkpt lat="46.465590000" lon="13.497340000">
        <ele>929.000</ele>
      </trkpt>
      <trkpt lat="46.465610000" lon="13.497400000">
        <ele>930.000</ele>
      </trkpt>
      <trkpt lat="46.465740000" lon="13.497580000">
        <ele>933.000</ele>
      </trkpt>
      <trkpt lat="46.465760000" lon="13.497630000">
        <ele>934.000</ele>
      </trkpt>
      <trkpt lat="46.465800000" lon="13.498090000">
        <ele>938.000</ele>
      </trkpt>
      <trkpt lat="46.466110000" lon="13.498410000">
        <ele>942.000</ele>
      </trkpt>
      <trkpt lat="46.466210000" lon="13.498580000">
        <ele>947.000</ele>
      </trkpt>
      <trkpt lat="46.466210000" lon="13.498580000">
        <ele>950.000</ele>
      </trkpt>
      <trkpt lat="46.466340000" lon="13.498880000">
        <ele>953.000</ele>
      </trkpt>
      <trkpt lat="46.466490000" lon="13.499030000">
        <ele>957.000</ele>
      </trkpt>
      <trkpt lat="46.466630000" lon="13.499190000">
        <ele>960.000</ele>
      </trkpt>
      <trkpt lat="46.467090000" lon="13.499970000">
        <ele>966.000</ele>
      </trkpt>
      <trkpt lat="46.467190000" lon="13.500090000">
        <ele>971.000</ele>
      </trkpt>
      <trkpt lat="46.467440000" lon="13.500270000">
        <ele>976.000</ele>
      </trkpt>
      <trkpt lat="46.467760000" lon="13.500350000">
        <ele>981.000</ele>
      </trkpt>
      <trkpt lat="46.467870000" lon="13.500330000">
        <ele>984.000</ele>
      </trkpt>
      <trkpt lat="46.468100000" lon="13.500140000">
        <ele>988.000</ele>
      </trkpt>
      <trkpt lat="46.468270000" lon="13.499910000">
        <ele>992.000</ele>
      </trkpt>
      <trkpt lat="46.468340000" lon="13.499850000">
        <ele>995.000</ele>
      </trkpt>
      <trkpt lat="46.468400000" lon="13.499850000">
        <ele>997.000</ele>
      </trkpt>
      <trkpt lat="46.468430000" lon="13.499940000">
        <ele>999.000</ele>
      </trkpt>
      <trkpt lat="46.468400000" lon="13.500040000">
        <ele>1001.000</ele>
      </trkpt>
      <trkpt lat="46.467840000" lon="13.500870000">
        <ele>1006.000</ele>
      </trkpt>
      <trkpt lat="46.467300000" lon="13.501870000">
        <ele>1014.000</ele>
      </trkpt>
      <trkpt lat="46.467160000" lon="13.502250000">
        <ele>1021.000</ele>
      </trkpt>
      <trkpt lat="46.467080000" lon="13.502540000">
        <ele>1028.000</ele>
      </trkpt>
      <trkpt lat="46.466920000" lon="13.502810000">
        <ele>1034.000</ele>
      </trkpt>
      <trkpt lat="46.466770000" lon="13.502980000">
        <ele>1039.000</ele>
      </trkpt>
      <trkpt lat="46.466690000" lon="13.503160000">
        <ele>1044.000</ele>
      </trkpt>
      <trkpt lat="46.466680000" lon="13.503210000">
        <ele>1047.000</ele>
      </trkpt>
      <trkpt lat="46.466700000" lon="13.503260000">
        <ele>1050.000</ele>
      </trkpt>
      <trkpt lat="46.466720000" lon="13.503280000">
        <ele>1051.000</ele>
      </trkpt>
      <trkpt lat="46.466750000" lon="13.503250000">
        <ele>1053.000</ele>
      </trkpt>
      <trkpt lat="46.466810000" lon="13.503160000">
        <ele>1055.000</ele>
      </trkpt>
      <trkpt lat="46.466840000" lon="13.503120000">
        <ele>1056.000</ele>
      </trkpt>
      <trkpt lat="46.466950000" lon="13.503090000">
        <ele>1058.000</ele>
      </trkpt>
      <trkpt lat="46.467150000" lon="13.503090000">
        <ele>1060.000</ele>
      </trkpt>
      <trkpt lat="46.467280000" lon="13.503000000">
        <ele>1063.000</ele>
      </trkpt>
      <trkpt lat="46.467700000" lon="13.502380000">
        <ele>1065.000</ele>
      </trkpt>
      <trkpt lat="46.467780000" lon="13.502310000">
        <ele>1066.000</ele>
      </trkpt>
      <trkpt lat="46.468040000" lon="13.502310000">
        <ele>1067.000</ele>
      </trkpt>
      <trkpt lat="46.468120000" lon="13.502330000">
        <ele>1068.000</ele>
      </trkpt>
      <trkpt lat="46.468220000" lon="13.502300000">
        <ele>1068.000</ele>
      </trkpt>
      <trkpt lat="46.468300000" lon="13.502210000">
        <ele>1069.000</ele>
      </trkpt>
      <trkpt lat="46.468360000" lon="13.502110000">
        <ele>1069.000</ele>
      </trkpt>
      <trkpt lat="46.468580000" lon="13.501490000">
        <ele>1069.000</ele>
      </trkpt>
      <trkpt lat="46.468600000" lon="13.501460000">
        <ele>1069.000</ele>
      </trkpt>
      <trkpt lat="46.468650000" lon="13.501440000">
        <ele>1070.000</ele>
      </trkpt>
      <trkpt lat="46.468680000" lon="13.501460000">
        <ele>1071.000</ele>
      </trkpt>
      <trkpt lat="46.468690000" lon="13.501500000">
        <ele>1072.000</ele>
      </trkpt>
      <trkpt lat="46.468630000" lon="13.501760000">
        <ele>1074.000</ele>
      </trkpt>
      <trkpt lat="46.468590000" lon="13.502010000">
        <ele>1078.000</ele>
      </trkpt>
      <trkpt lat="46.468580000" lon="13.502330000">
        <ele>1082.000</ele>
      </trkpt>
      <trkpt lat="46.468540000" lon="13.502520000">
        <ele>1086.000</ele>
      </trkpt>
      <trkpt lat="46.468500000" lon="13.502610000">
        <ele>1090.000</ele>
      </trkpt>
      <trkpt lat="46.468390000" lon="13.502780000">
        <ele>1094.000</ele>
      </trkpt>
      <trkpt lat="46.468220000" lon="13.502900000">
        <ele>1098.000</ele>
      </trkpt>
      <trkpt lat="46.468050000" lon="13.502940000">
        <ele>1103.000</ele>
      </trkpt>
      <trkpt lat="46.467980000" lon="13.503060000">
        <ele>1107.000</ele>
      </trkpt>
      <trkpt lat="46.467920000" lon="13.503260000">
        <ele>1111.000</ele>
      </trkpt>
      <trkpt lat="46.467870000" lon="13.503800000">
        <ele>1118.000</ele>
      </trkpt>
      <trkpt lat="46.467820000" lon="13.504050000">
        <ele>1123.000</ele>
      </trkpt>
      <trkpt lat="46.467640000" lon="13.504530000">
        <ele>1129.000</ele>
      </trkpt>
      <trkpt lat="46.467460000" lon="13.504820000">
        <ele>1134.000</ele>
      </trkpt>
      <trkpt lat="46.467450000" lon="13.505000000">
        <ele>1139.000</ele>
      </trkpt>
      <trkpt lat="46.467520000" lon="13.505400000">
        <ele>1143.000</ele>
      </trkpt>
      <trkpt lat="46.467520000" lon="13.505580000">
        <ele>1147.000</ele>
      </trkpt>
      <trkpt lat="46.467470000" lon="13.505810000">
        <ele>1150.000</ele>
      </trkpt>
      <trkpt lat="46.467160000" lon="13.506890000">
        <ele>1157.000</ele>
      </trkpt>
      <trkpt lat="46.467110000" lon="13.507140000">
        <ele>1163.000</ele>
      </trkpt>
      <trkpt lat="46.467130000" lon="13.507510000">
        <ele>1169.000</ele>
      </trkpt>
      <trkpt lat="46.467110000" lon="13.507660000">
        <ele>1174.000</ele>
      </trkpt>
      <trkpt lat="46.467050000" lon="13.507780000">
        <ele>1177.000</ele>
      </trkpt>
      <trkpt lat="46.466830000" lon="13.508060000">
        <ele>1182.000</ele>
      </trkpt>
      <trkpt lat="46.466540000" lon="13.508350000">
        <ele>1187.000</ele>
      </trkpt>
      <trkpt lat="46.466520000" lon="13.508410000">
        <ele>1191.000</ele>
      </trkpt>
      <trkpt lat="46.466550000" lon="13.508480000">
        <ele>1194.000</ele>
      </trkpt>
      <trkpt lat="46.466610000" lon="13.508470000">
        <ele>1196.000</ele>
      </trkpt>
      <trkpt lat="46.467050000" lon="13.508320000">
        <ele>1201.000</ele>
      </trkpt>
      <trkpt lat="46.467220000" lon="13.508210000">
        <ele>1205.000</ele>
      </trkpt>
      <trkpt lat="46.467470000" lon="13.507950000">
        <ele>1209.000</ele>
      </trkpt>
      <trkpt lat="46.467900000" lon="13.506920000">
        <ele>1214.000</ele>
      </trkpt>
      <trkpt lat="46.468220000" lon="13.506310000">
        <ele>1220.000</ele>
      </trkpt>
      <trkpt lat="46.468270000" lon="13.506180000">
        <ele>1224.000</ele>
      </trkpt>
      <trkpt lat="46.468270000" lon="13.506180000">
        <ele>1227.000</ele>
      </trkpt>
      <trkpt lat="46.468380000" lon="13.505860000">
        <ele>1229.000</ele>
      </trkpt>
      <trkpt lat="46.468500000" lon="13.505600000">
        <ele>1232.000</ele>
      </trkpt>
      <trkpt lat="46.468650000" lon="13.505470000">
        <ele>1234.000</ele>
      </trkpt>
      <trkpt lat="46.468790000" lon="13.505420000">
        <ele>1236.000</ele>
      </trkpt>
      <trkpt lat="46.468980000" lon="13.505400000">
        <ele>1238.000</ele>
      </trkpt>
      <trkpt lat="46.469080000" lon="13.505430000">
        <ele>1239.000</ele>
      </trkpt>
      <trkpt lat="46.469420000" lon="13.505640000">
        <ele>1241.000</ele>
      </trkpt>
      <trkpt lat="46.469440000" lon="13.505710000">
        <ele>1243.000</ele>
      </trkpt>
      <trkpt lat="46.469410000" lon="13.505770000">
        <ele>1244.000</ele>
      </trkpt>
      <trkpt lat="46.469390000" lon="13.505770000">
        <ele>1245.000</ele>
      </trkpt>
      <trkpt lat="46.469270000" lon="13.505700000">
        <ele>1246.000</ele>
      </trkpt>
      <trkpt lat="46.469040000" lon="13.505720000">
        <ele>1248.000</ele>
      </trkpt>
      <trkpt lat="46.468950000" lon="13.505770000">
        <ele>1250.000</ele>
      </trkpt>
      <trkpt lat="46.468900000" lon="13.505880000">
        <ele>1252.000</ele>
      </trkpt>
      <trkpt lat="46.468870000" lon="13.506550000">
        <ele>1257.000</ele>
      </trkpt>
      <trkpt lat="46.468780000" lon="13.507150000">
        <ele>1263.000</ele>
      </trkpt>
      <trkpt lat="46.468580000" lon="13.507530000">
        <ele>1270.000</ele>
      </trkpt>
      <trkpt lat="46.468610000" lon="13.507790000">
        <ele>1275.000</ele>
      </trkpt>
      <trkpt lat="46.468660000" lon="13.508090000">
        <ele>1281.000</ele>
      </trkpt>
      <trkpt lat="46.468660000" lon="13.508230000">
        <ele>1286.000</ele>
      </trkpt>
      <trkpt lat="46.468630000" lon="13.508380000">
        <ele>1290.000</ele>
      </trkpt>
      <trkpt lat="46.468340000" lon="13.509100000">
        <ele>1297.000</ele>
      </trkpt>
      <trkpt lat="46.468220000" lon="13.509870000">
        <ele>1308.000</ele>
      </trkpt>
      <trkpt lat="46.468180000" lon="13.510190000">
        <ele>1316.000</ele>
      </trkpt>
      <trkpt lat="46.468180000" lon="13.510340000">
        <ele>1323.000</ele>
      </trkpt>
      <trkpt lat="46.468200000" lon="13.510420000">
        <ele>1328.000</ele>
      </trkpt>
      <trkpt lat="46.468240000" lon="13.510420000">
        <ele>1331.000</ele>
      </trkpt>
      <trkpt lat="46.468300000" lon="13.510380000">
        <ele>1333.000</ele>
      </trkpt>
      <trkpt lat="46.468430000" lon="13.509790000">
        <ele>1335.000</ele>
      </trkpt>
      <trkpt lat="46.468500000" lon="13.509610000">
        <ele>1337.000</ele>
      </trkpt>
      <trkpt lat="46.468660000" lon="13.509350000">
        <ele>1339.000</ele>
      </trkpt>
      <trkpt lat="46.468870000" lon="13.509130000">
        <ele>1340.000</ele>
      </trkpt>
      <trkpt lat="46.468960000" lon="13.509060000">
        <ele>1342.000</ele>
      </trkpt>
      <trkpt lat="46.469030000" lon="13.509060000">
        <ele>1343.000</ele>
      </trkpt>
      <trkpt lat="46.469060000" lon="13.509100000">
        <ele>1343.000</ele>
      </trkpt>
      <trkpt lat="46.469050000" lon="13.509180000">
        <ele>1344.000</ele>
      </trkpt>
      <trkpt lat="46.468960000" lon="13.509320000">
        <ele>1345.000</ele>
      </trkpt>
      <trkpt lat="46.468810000" lon="13.509650000">
        <ele>1346.000</ele>
      </trkpt>
      <trkpt lat="46.468720000" lon="13.509900000">
        <ele>1347.000</ele>
      </trkpt>
      <trkpt lat="46.468730000" lon="13.510110000">
        <ele>1349.000</ele>
      </trkpt>
      <trkpt lat="46.468820000" lon="13.510480000">
        <ele>1351.000</ele>
      </trkpt>
      <trkpt lat="46.468730000" lon="13.510950000">
        <ele>1353.000</ele>
      </trkpt>
      <trkpt lat="46.468750000" lon="13.511000000">
        <ele>1355.000</ele>
      </trkpt>
      <trkpt lat="46.468790000" lon="13.510970000">
        <ele>1357.000</ele>
      </trkpt>
      <trkpt lat="46.468840000" lon="13.510860000">
        <ele>1358.000</ele>
      </trkpt>
      <trkpt lat="46.469010000" lon="13.510600000">
        <ele>1360.000</ele>
      </trkpt>
      <trkpt lat="46.469050000" lon="13.510440000">
        <ele>1362.000</ele>
      </trkpt>
      <trkpt lat="46.469060000" lon="13.510180000">
        <ele>1364.000</ele>
      </trkpt>
      <trkpt lat="46.469080000" lon="13.510080000">
        <ele>1365.000</ele>
      </trkpt>
      <trkpt lat="46.469130000" lon="13.509990000">
        <ele>1367.000</ele>
      </trkpt>
      <trkpt lat="46.469200000" lon="13.509970000">
        <ele>1368.000</ele>
      </trkpt>
      <trkpt lat="46.469410000" lon="13.510050000">
        <ele>1372.000</ele>
      </trkpt>
      <trkpt lat="46.469540000" lon="13.510150000">
        <ele>1375.000</ele>
      </trkpt>
      <trkpt lat="46.469640000" lon="13.510300000">
        <ele>1379.000</ele>
      </trkpt>
      <trkpt lat="46.469740000" lon="13.510550000">
        <ele>1383.000</ele>
      </trkpt>
      <trkpt lat="46.469820000" lon="13.510890000">
        <ele>1389.000</ele>
      </trkpt>
      <trkpt lat="46.469880000" lon="13.510990000">
        <ele>1393.000</ele>
      </trkpt>
      <trkpt lat="46.469980000" lon="13.511020000">
        <ele>1397.000</ele>
      </trkpt>
      <trkpt lat="46.470080000" lon="13.511000000">
        <ele>1401.000</ele>
      </trkpt>
      <trkpt lat="46.470170000" lon="13.510950000">
        <ele>1404.000</ele>
      </trkpt>
      <trkpt lat="46.470320000" lon="13.510730000">
        <ele>1409.000</ele>
      </trkpt>
      <trkpt lat="46.470390000" lon="13.510670000">
        <ele>1412.000</ele>
      </trkpt>
      <trkpt lat="46.470610000" lon="13.510590000">
        <ele>1417.000</ele>
      </trkpt>
      <trkpt lat="46.470700000" lon="13.510590000">
        <ele>1421.000</ele>
      </trkpt>
      <trkpt lat="46.470910000" lon="13.510520000">
        <ele>1426.000</ele>
      </trkpt>
      <trkpt lat="46.470980000" lon="13.510450000">
        <ele>1429.000</ele>
      </trkpt>
      <trkpt lat="46.471150000" lon="13.510170000">
        <ele>1434.000</ele>
      </trkpt>
      <trkpt lat="46.471250000" lon="13.510110000">
        <ele>1438.000</ele>
      </trkpt>
      <trkpt lat="46.471480000" lon="13.510090000">
        <ele>1443.000</ele>
      </trkpt>
      <trkpt lat="46.471520000" lon="13.510220000">
        <ele>1447.000</ele>
      </trkpt>
      <trkpt lat="46.471630000" lon="13.510400000">
        <ele>1451.000</ele>
      </trkpt>
      <trkpt lat="46.471770000" lon="13.510460000">
        <ele>1456.000</ele>
      </trkpt>
      <trkpt lat="46.471870000" lon="13.510450000">
        <ele>1459.000</ele>
      </trkpt>
      <trkpt lat="46.471930000" lon="13.510390000">
        <ele>1462.000</ele>
      </trkpt>
      <trkpt lat="46.472350000" lon="13.510400000">
        <ele>1468.000</ele>
      </trkpt>
      <trkpt lat="46.472450000" lon="13.510270000">
        <ele>1472.000</ele>
      </trkpt>
      <trkpt lat="46.472570000" lon="13.509960000">
        <ele>1475.000</ele>
      </trkpt>
      <trkpt lat="46.472960000" lon="13.509590000">
        <ele>1478.000</ele>
      </trkpt>
      <trkpt lat="46.473060000" lon="13.509470000">
        <ele>1480.000</ele>
      </trkpt>
      <trkpt lat="46.473270000" lon="13.509360000">
        <ele>1482.000</ele>
      </trkpt>
      <trkpt lat="46.473410000" lon="13.509140000">
        <ele>1483.000</ele>
      </trkpt>
      <trkpt lat="46.473470000" lon="13.509090000">
        <ele>1484.000</ele>
      </trkpt>
      <trkpt lat="46.473520000" lon="13.509110000">
        <ele>1485.000</ele>
      </trkpt>
      <trkpt lat="46.473540000" lon="13.509180000">
        <ele>1486.000</ele>
      </trkpt>
      <trkpt lat="46.473530000" lon="13.509240000">
        <ele>1486.000</ele>
      </trkpt>
      <trkpt lat="46.473410000" lon="13.509390000">
        <ele>1487.000</ele>
      </trkpt>
      <trkpt lat="46.473220000" lon="13.509690000">
        <ele>1488.000</ele>
      </trkpt>
      <trkpt lat="46.473050000" lon="13.510090000">
        <ele>1491.000</ele>
      </trkpt>
      <trkpt lat="46.472840000" lon="13.510670000">
        <ele>1496.000</ele>
      </trkpt>
      <trkpt lat="46.472780000" lon="13.510900000">
        <ele>1501.000</ele>
      </trkpt>
      <trkpt lat="46.472720000" lon="13.511210000">
        <ele>1507.000</ele>
      </trkpt>
      <trkpt lat="46.472660000" lon="13.511310000">
        <ele>1511.000</ele>
      </trkpt>
      <trkpt lat="46.472330000" lon="13.511470000">
        <ele>1516.000</ele>
      </trkpt>
      <trkpt lat="46.472230000" lon="13.511540000">
        <ele>1521.000</ele>
      </trkpt>
      <trkpt lat="46.472050000" lon="13.511880000">
        <ele>1526.000</ele>
      </trkpt>
      <trkpt lat="46.471850000" lon="13.512160000">
        <ele>1531.000</ele>
      </trkpt>
      <trkpt lat="46.471720000" lon="13.512500000">
        <ele>1537.000</ele>
      </trkpt>
      <trkpt lat="46.471650000" lon="13.512590000">
        <ele>1541.000</ele>
      </trkpt>
      <trkpt lat="46.471470000" lon="13.512720000">
        <ele>1545.000</ele>
      </trkpt>
      <trkpt lat="46.471220000" lon="13.512840000">
        <ele>1550.000</ele>
      </trkpt>
      <trkpt lat="46.471130000" lon="13.512920000">
        <ele>1554.000</ele>
      </trkpt>
      <trkpt lat="46.471040000" lon="13.513020000">
        <ele>1557.000</ele>
      </trkpt>
      <trkpt lat="46.470990000" lon="13.513240000">
        <ele>1560.000</ele>
      </trkpt>
      <trkpt lat="46.470940000" lon="13.513560000">
        <ele>1564.000</ele>
      </trkpt>
      <trkpt lat="46.470900000" lon="13.513650000">
        <ele>1567.000</ele>
      </trkpt>
      <trkpt lat="46.470840000" lon="13.513680000">
        <ele>1570.000</ele>
      </trkpt>
      <trkpt lat="46.470730000" lon="13.513640000">
        <ele>1572.000</ele>
      </trkpt>
      <trkpt lat="46.470600000" lon="13.513750000">
        <ele>1573.000</ele>
      </trkpt>
      <trkpt lat="46.470580000" lon="13.513830000">
        <ele>1574.000</ele>
      </trkpt>
      <trkpt lat="46.470610000" lon="13.513880000">
        <ele>1575.000</ele>
      </trkpt>
      <trkpt lat="46.470740000" lon="13.513820000">
        <ele>1576.000</ele>
      </trkpt>
      <trkpt lat="46.470800000" lon="13.513830000">
        <ele>1577.000</ele>
      </trkpt>
      <trkpt lat="46.470920000" lon="13.513920000">
        <ele>1578.000</ele>
      </trkpt>
      <trkpt lat="46.470990000" lon="13.513910000">
        <ele>1578.000</ele>
      </trkpt>
      <trkpt lat="46.471050000" lon="13.513860000">
        <ele>1579.000</ele>
      </trkpt>
      <trkpt lat="46.471110000" lon="13.513750000">
        <ele>1580.000</ele>
      </trkpt>
      <trkpt lat="46.471150000" lon="13.513620000">
        <ele>1580.000</ele>
      </trkpt>
      <trkpt lat="46.471200000" lon="13.513520000">
        <ele>1581.000</ele>
      </trkpt>
      <trkpt lat="46.471280000" lon="13.513420000">
        <ele>1582.000</ele>
      </trkpt>
      <trkpt lat="46.471340000" lon="13.513400000">
        <ele>1582.000</ele>
      </trkpt>
      <trkpt lat="46.471900000" lon="13.513480000">
        <ele>1584.000</ele>
      </trkpt>
      <trkpt lat="46.472000000" lon="13.513450000">
        <ele>1585.000</ele>
      </trkpt>
      <trkpt lat="46.472370000" lon="13.513200000">
        <ele>1586.000</ele>
      </trkpt>
      <trkpt lat="46.472580000" lon="13.513130000">
        <ele>1587.000</ele>
      </trkpt>
      <trkpt lat="46.472660000" lon="13.513070000">
        <ele>1588.000</ele>
      </trkpt>
      <trkpt lat="46.472740000" lon="13.513030000">
        <ele>1588.000</ele>
      </trkpt>
      <trkpt lat="46.472790000" lon="13.513040000">
        <ele>1589.000</ele>
      </trkpt>
      <trkpt lat="46.472820000" lon="13.513090000">
        <ele>1589.000</ele>
      </trkpt>
      <trkpt lat="46.472820000" lon="13.513180000">
        <ele>1589.000</ele>
      </trkpt>
      <trkpt lat="46.472600000" lon="13.513500000">
        <ele>1589.000</ele>
      </trkpt>
      <trkpt lat="46.472540000" lon="13.513650000">
        <ele>1590.000</ele>
      </trkpt>
      <trkpt lat="46.472150000" lon="13.514360000">
        <ele>1590.000</ele>
      </trkpt>
      <trkpt lat="46.472050000" lon="13.514600000">
        <ele>1592.000</ele>
      </trkpt>
      <trkpt lat="46.471970000" lon="13.514910000">
        <ele>1593.000</ele>
      </trkpt>
      <trkpt lat="46.471960000" lon="13.515090000">
        <ele>1595.000</ele>
      </trkpt>
      <trkpt lat="46.471930000" lon="13.515160000">
        <ele>1597.000</ele>
      </trkpt>
      <trkpt lat="46.471860000" lon="13.515230000">
        <ele>1598.000</ele>
      </trkpt>
      <trkpt lat="46.471750000" lon="13.515420000">
        <ele>1600.000</ele>
      </trkpt>
      <trkpt lat="46.471660000" lon="13.515470000">
        <ele>1601.000</ele>
      </trkpt>
      <trkpt lat="46.471620000" lon="13.515540000">
        <ele>1603.000</ele>
      </trkpt>
      <trkpt lat="46.471450000" lon="13.516160000">
        <ele>1606.000</ele>
      </trkpt>
      <trkpt lat="46.471390000" lon="13.516250000">
        <ele>1608.000</ele>
      </trkpt>
      <trkpt lat="46.471120000" lon="13.516580000">
        <ele>1611.000</ele>
      </trkpt>
      <trkpt lat="46.471000000" lon="13.516970000">
        <ele>1614.000</ele>
      </trkpt>
      <trkpt lat="46.470930000" lon="13.517140000">
        <ele>1615.000</ele>
      </trkpt>
      <trkpt lat="46.470700000" lon="13.517520000">
        <ele>1617.000</ele>
      </trkpt>
      <trkpt lat="46.470590000" lon="13.517640000">
        <ele>1618.000</ele>
      </trkpt>
      <trkpt lat="46.470510000" lon="13.517770000">
        <ele>1619.000</ele>
      </trkpt>
      <trkpt lat="46.470430000" lon="13.518190000">
        <ele>1620.000</ele>
      </trkpt>
      <trkpt lat="46.470380000" lon="13.518350000">
        <ele>1621.000</ele>
      </trkpt>
      <trkpt lat="46.470260000" lon="13.518590000">
        <ele>1622.000</ele>
      </trkpt>
      <trkpt lat="46.470230000" lon="13.518710000">
        <ele>1622.000</ele>
      </trkpt>
      <trkpt lat="46.470210000" lon="13.518800000">
        <ele>1623.000</ele>
      </trkpt>
      <trkpt lat="46.470210000" lon="13.518910000">
        <ele>1623.000</ele>
      </trkpt>
      <trkpt lat="46.470230000" lon="13.519000000">
        <ele>1623.000</ele>
      </trkpt>
      <trkpt lat="46.470280000" lon="13.519060000">
        <ele>1622.000</ele>
      </trkpt>
      <trkpt lat="46.470390000" lon="13.519080000">
        <ele>1622.000</ele>
      </trkpt>
      <trkpt lat="46.470490000" lon="13.519160000">
        <ele>1621.000</ele>
      </trkpt>
      <trkpt lat="46.470770000" lon="13.519490000">
        <ele>1620.000</ele>
      </trkpt>
      <trkpt lat="46.471090000" lon="13.519760000">
        <ele>1618.000</ele>
      </trkpt>
      <trkpt lat="46.471170000" lon="13.519890000">
        <ele>1617.000</ele>
      </trkpt>
      <trkpt lat="46.471210000" lon="13.520060000">
        <ele>1615.000</ele>
      </trkpt>
      <trkpt lat="46.471200000" lon="13.520330000">
        <ele>1614.000</ele>
      </trkpt>
      <trkpt lat="46.471280000" lon="13.520690000">
        <ele>1613.000</ele>
      </trkpt>
      <trkpt lat="46.471370000" lon="13.520990000">
        <ele>1612.000</ele>
      </trkpt>
      <trkpt lat="46.471460000" lon="13.521420000">
        <ele>1614.000</ele>
      </trkpt>
      <trkpt lat="46.471550000" lon="13.521640000">
        <ele>1615.000</ele>
      </trkpt>
      <trkpt lat="46.471730000" lon="13.521780000">
        <ele>1617.000</ele>
      </trkpt>
      <trkpt lat="46.471780000" lon="13.521850000">
        <ele>1618.000</ele>
      </trkpt>
      <trkpt lat="46.471790000" lon="13.522100000">
        <ele>1620.000</ele>
      </trkpt>
      <trkpt lat="46.471860000" lon="13.522370000">
        <ele>1622.000</ele>
      </trkpt>
      <trkpt lat="46.471840000" lon="13.522600000">
        <ele>1624.000</ele>
      </trkpt>
      <trkpt lat="46.471850000" lon="13.522700000">
        <ele>1625.000</ele>
      </trkpt>
      <trkpt lat="46.471880000" lon="13.522790000">
        <ele>1627.000</ele>
      </trkpt>
      <trkpt lat="46.471970000" lon="13.522870000">
        <ele>1628.000</ele>
      </trkpt>
      <trkpt lat="46.472230000" lon="13.522890000">
        <ele>1630.000</ele>
      </trkpt>
      <trkpt lat="46.472360000" lon="13.522950000">
        <ele>1631.000</ele>
      </trkpt>
      <trkpt lat="46.472570000" lon="13.523140000">
        <ele>1633.000</ele>
      </trkpt>
      <trkpt lat="46.472700000" lon="13.523160000">
        <ele>1635.000</ele>
      </trkpt>
      <trkpt lat="46.473300000" lon="13.522980000">
        <ele>1638.000</ele>
      </trkpt>
      <trkpt lat="46.473340000" lon="13.523030000">
        <ele>1640.000</ele>
      </trkpt>
      <trkpt lat="46.473330000" lon="13.523110000">
        <ele>1641.000</ele>
      </trkpt>
      <trkpt lat="46.473090000" lon="13.523190000">
        <ele>1643.000</ele>
      </trkpt>
      <trkpt lat="46.473050000" lon="13.523230000">
        <ele>1644.000</ele>
      </trkpt>
      <trkpt lat="46.473030000" lon="13.523310000">
        <ele>1645.000</ele>
      </trkpt>
      <trkpt lat="46.473090000" lon="13.523340000">
        <ele>1646.000</ele>
      </trkpt>
      <trkpt lat="46.473230000" lon="13.523250000">
        <ele>1647.000</ele>
      </trkpt>
      <trkpt lat="46.473280000" lon="13.523250000">
        <ele>1648.000</ele>
      </trkpt>
      <trkpt lat="46.473390000" lon="13.523300000">
        <ele>1649.000</ele>
      </trkpt>
      <trkpt lat="46.473440000" lon="13.523360000">
        <ele>1650.000</ele>
      </trkpt>
      <trkpt lat="46.473520000" lon="13.523610000">
        <ele>1651.000</ele>
      </trkpt>
      <trkpt lat="46.473550000" lon="13.523650000">
        <ele>1652.000</ele>
      </trkpt>
      <trkpt lat="46.473650000" lon="13.523720000">
        <ele>1653.000</ele>
      </trkpt>
      <trkpt lat="46.473710000" lon="13.523690000">
        <ele>1653.000</ele>
      </trkpt>
      <trkpt lat="46.473740000" lon="13.523650000">
        <ele>1654.000</ele>
      </trkpt>
      <trkpt lat="46.473810000" lon="13.523410000">
        <ele>1655.000</ele>
      </trkpt>
      <trkpt lat="46.473850000" lon="13.523350000">
        <ele>1656.000</ele>
      </trkpt>
      <trkpt lat="46.473890000" lon="13.523330000">
        <ele>1656.000</ele>
      </trkpt>
      <trkpt lat="46.474060000" lon="13.523410000">
        <ele>1657.000</ele>
      </trkpt>
      <trkpt lat="46.474120000" lon="13.523420000">
        <ele>1658.000</ele>
      </trkpt>
      <trkpt lat="46.474120000" lon="13.523420000">
        <ele>1659.000</ele>
      </trkpt>
      <trkpt lat="46.474210000" lon="13.523440000">
        <ele>1659.000</ele>
      </trkpt>
      <trkpt lat="46.474460000" lon="13.523370000">
        <ele>1661.000</ele>
      </trkpt>
      <trkpt lat="46.474680000" lon="13.523260000">
        <ele>1662.000</ele>
      </trkpt>
      <trkpt lat="46.474750000" lon="13.523250000">
        <ele>1663.000</ele>
      </trkpt>
      <trkpt lat="46.474830000" lon="13.523300000">
        <ele>1665.000</ele>
      </trkpt>
      <trkpt lat="46.474850000" lon="13.523350000">
        <ele>1666.000</ele>
      </trkpt>
      <trkpt lat="46.474860000" lon="13.523570000">
        <ele>1667.000</ele>
      </trkpt>
      <trkpt lat="46.474900000" lon="13.523920000">
        <ele>1670.000</ele>
      </trkpt>
      <trkpt lat="46.474960000" lon="13.524160000">
        <ele>1673.000</ele>
      </trkpt>
      <trkpt lat="46.475020000" lon="13.524290000">
        <ele>1676.000</ele>
      </trkpt>
      <trkpt lat="46.475130000" lon="13.524440000">
        <ele>1679.000</ele>
      </trkpt>
      <trkpt lat="46.475220000" lon="13.524660000">
        <ele>1682.000</ele>
      </trkpt>
      <trkpt lat="46.475480000" lon="13.525130000">
        <ele>1687.000</ele>
      </trkpt>
      <trkpt lat="46.475590000" lon="13.525250000">
        <ele>1691.000</ele>
      </trkpt>
      <trkpt lat="46.475710000" lon="13.525420000">
        <ele>1695.000</ele>
      </trkpt>
      <trkpt lat="46.475850000" lon="13.525520000">
        <ele>1698.000</ele>
      </trkpt>
      <trkpt lat="46.476150000" lon="13.525780000">
        <ele>1701.000</ele>
      </trkpt>
      <trkpt lat="46.476280000" lon="13.525850000">
        <ele>1703.000</ele>
      </trkpt>
      <trkpt lat="46.476600000" lon="13.526070000">
        <ele>1706.000</ele>
      </trkpt>
      <trkpt lat="46.476610000" lon="13.526020000">
        <ele>1707.000</ele>
      </trkpt>
      <trkpt lat="46.476930000" lon="13.525410000">
        <ele>1710.000</ele>
      </trkpt>
      <trkpt lat="46.477100000" lon="13.525210000">
        <ele>1712.000</ele>
      </trkpt>
      <trkpt lat="46.477170000" lon="13.525180000">
        <ele>1714.000</ele>
      </trkpt>
      <trkpt lat="46.477730000" lon="13.525100000">
        <ele>1718.000</ele>
      </trkpt>
      <trkpt lat="46.477800000" lon="13.525060000">
        <ele>1721.000</ele>
      </trkpt>
      <trkpt lat="46.477860000" lon="13.524990000">
        <ele>1723.000</ele>
      </trkpt>
      <trkpt lat="46.478140000" lon="13.524770000">
        <ele>1727.000</ele>
      </trkpt>
      <trkpt lat="46.478390000" lon="13.524660000">
        <ele>1730.000</ele>
      </trkpt>
      <trkpt lat="46.478390000" lon="13.524660000">
        <ele>1732.000</ele>
      </trkpt>
      <trkpt lat="46.478800000" lon="13.524480000">
        <ele>1736.000</ele>
      </trkpt>
      <trkpt lat="46.478860000" lon="13.524420000">
        <ele>1750.000</ele>
      </trkpt>
      <trkpt lat="46.478860000" lon="13.524560000">
        <ele>1750.000</ele>
      </trkpt>
      <trkpt lat="46.478900000" lon="13.524610000">
        <ele>1751.000</ele>
      </trkpt>
      <trkpt lat="46.478930000" lon="13.524610000">
        <ele>1751.000</ele>
      </trkpt>
      <trkpt lat="46.479070000" lon="13.524620000">
        <ele>1752.000</ele>
      </trkpt>
      <trkpt lat="46.479220000" lon="13.524680000">
        <ele>1752.000</ele>
      </trkpt>
      <trkpt lat="46.479340000" lon="13.524670000">
        <ele>1751.000</ele>
      </trkpt>
      <trkpt lat="46.479710000" lon="13.524600000">
        <ele>1749.000</ele>
      </trkpt>
      <trkpt lat="46.480120000" lon="13.524560000">
        <ele>1742.000</ele>
      </trkpt>
      <trkpt lat="46.480150000" lon="13.524550000">
        <ele>1741.000</ele>
      </trkpt>
      <trkpt lat="46.480210000" lon="13.524520000">
        <ele>1740.000</ele>
      </trkpt>
      <trkpt lat="46.480230000" lon="13.524470000">
        <ele>1740.000</ele>
      </trkpt>
      <trkpt lat="46.480230000" lon="13.524240000">
        <ele>1747.000</ele>
      </trkpt>
      <trkpt lat="46.480290000" lon="13.523990000">
        <ele>1749.000</ele>
      </trkpt>
      <trkpt lat="46.480290000" lon="13.523790000">
        <ele>1753.000</ele>
      </trkpt>
      <trkpt lat="46.480320000" lon="13.523710000">
        <ele>1753.000</ele>
      </trkpt>
      <trkpt lat="46.480460000" lon="13.523530000">
        <ele>1750.000</ele>
      </trkpt>
      <trkpt lat="46.480530000" lon="13.523450000">
        <ele>1748.000</ele>
      </trkpt>
      <trkpt lat="46.480560000" lon="13.523330000">
        <ele>1749.000</ele>
      </trkpt>
      <trkpt lat="46.480580000" lon="13.523180000">
        <ele>1748.000</ele>
      </trkpt>
      <trkpt lat="46.480650000" lon="13.523100000">
        <ele>1745.000</ele>
      </trkpt>
      <trkpt lat="46.480780000" lon="13.522810000">
        <ele>1743.000</ele>
      </trkpt>
      <trkpt lat="46.480870000" lon="13.522490000">
        <ele>1742.000</ele>
      </trkpt>
      <trkpt lat="46.481000000" lon="13.522060000">
        <ele>1737.000</ele>
      </trkpt>
      <trkpt lat="46.481240000" lon="13.521430000">
        <ele>1736.000</ele>
      </trkpt>
      <trkpt lat="46.481140000" lon="13.521350000">
        <ele>1736.000</ele>
      </trkpt>
      <trkpt lat="46.481140000" lon="13.521270000">
        <ele>1736.000</ele>
      </trkpt>
      <trkpt lat="46.481370000" lon="13.520860000">
        <ele>1741.000</ele>
      </trkpt>
      <trkpt lat="46.481540000" lon="13.520630000">
        <ele>1744.000</ele>
      </trkpt>
    </trkseg>
  </trk>
</gpx>
