<?xml version="1.0" encoding="UTF-8"?>
<gpx creator="Wikiloc - https://www.wikiloc.com" version="1.1" xmlns="http://www.topografix.com/GPX/1/1" xmlns:xsi="http://www.w3.org/2001/XMLSchema-instance" xsi:schemaLocation="http://www.topografix.com/GPX/1/1 http://www.topografix.com/GPX/1/1/gpx.xsd">
  <metadata>
    <name>Wikiloc - Aguarón - Codos</name>
    <link href="https://www.wikiloc.com/cycling-trails/aguaron-codos-48714856">
      <text>Aguarón - Codos - Wikiloc on Wikiloc</text>
    </link>
    <time>2020-04-29T19:16:16Z</time>
  </metadata>
  <trk>
    <name>Aguarón - Codos - Wikiloc</name>
    <cmt></cmt>
    <desc></desc>
    <trkseg>
      <trkpt lat="41.337177" lon="-1.276152">
        <ele>667.466</ele>
        <time>2020-04-29T18:50:10Z</time>
      </trkpt>
      <trkpt lat="41.333965" lon="-1.281577">
        <ele>683.229</ele>
        <time>2020-04-29T18:52:06Z</time>
      </trkpt>
      <trkpt lat="41.330782" lon="-1.289003">
        <ele>704.821</ele>
        <time>2020-04-29T18:54:02Z</time>
      </trkpt>
      <trkpt lat="41.330963" lon="-1.299524">
        <ele>741.608</ele>
        <time>2020-04-29T18:56:39Z</time>
      </trkpt>
      <trkpt lat="41.330733" lon="-1.300622">
        <ele>747.250</ele>
        <time>2020-04-29T18:56:59Z</time>
      </trkpt>
      <trkpt lat="41.330268" lon="-1.301361">
        <ele>751.054</ele>
        <time>2020-04-29T18:57:15Z</time>
      </trkpt>
      <trkpt lat="41.330006" lon="-1.302348">
        <ele>750.083</ele>
        <time>2020-04-29T18:57:27Z</time>
      </trkpt>
      <trkpt lat="41.330071" lon="-1.302739">
        <ele>749.097</ele>
        <time>2020-04-29T18:57:31Z</time>
      </trkpt>
      <trkpt lat="41.330590" lon="-1.303352">
        <ele>747.440</ele>
        <time>2020-04-29T18:57:39Z</time>
      </trkpt>
      <trkpt lat="41.330762" lon="-1.304396">
        <ele>753.494</ele>
        <time>2020-04-29T18:57:51Z</time>
      </trkpt>
      <trkpt lat="41.329967" lon="-1.310145">
        <ele>783.031</ele>
        <time>2020-04-29T18:59:37Z</time>
      </trkpt>
      <trkpt lat="41.329655" lon="-1.311656">
        <ele>790.892</ele>
        <time>2020-04-29T19:00:06Z</time>
      </trkpt>
      <trkpt lat="41.329697" lon="-1.312008">
        <ele>791.872</ele>
        <time>2020-04-29T19:00:12Z</time>
      </trkpt>
      <trkpt lat="41.330251" lon="-1.312922">
        <ele>797.413</ele>
        <time>2020-04-29T19:00:32Z</time>
      </trkpt>
      <trkpt lat="41.330454" lon="-1.313560">
        <ele>800.014</ele>
        <time>2020-04-29T19:00:45Z</time>
      </trkpt>
      <trkpt lat="41.330342" lon="-1.313798">
        <ele>800.208</ele>
        <time>2020-04-29T19:00:49Z</time>
      </trkpt>
      <trkpt lat="41.330112" lon="-1.313883">
        <ele>800.821</ele>
        <time>2020-04-29T19:00:53Z</time>
      </trkpt>
      <trkpt lat="41.329616" lon="-1.313525">
        <ele>802.415</ele>
        <time>2020-04-29T19:01:03Z</time>
      </trkpt>
      <trkpt lat="41.329419" lon="-1.313611">
        <ele>803.494</ele>
        <time>2020-04-29T19:01:07Z</time>
      </trkpt>
      <trkpt lat="41.328870" lon="-1.315705">
        <ele>816.868</ele>
        <time>2020-04-29T19:01:52Z</time>
      </trkpt>
      <trkpt lat="41.328992" lon="-1.316387">
        <ele>819.491</ele>
        <time>2020-04-29T19:02:04Z</time>
      </trkpt>
      <trkpt lat="41.329806" lon="-1.317794">
        <ele>829.055</ele>
        <time>2020-04-29T19:02:37Z</time>
      </trkpt>
      <trkpt lat="41.329821" lon="-1.318073">
        <ele>830.672</ele>
        <time>2020-04-29T19:02:43Z</time>
      </trkpt>
      <trkpt lat="41.329707" lon="-1.318215">
        <ele>831.693</ele>
        <time>2020-04-29T19:02:47Z</time>
      </trkpt>
      <trkpt lat="41.328534" lon="-1.318174">
        <ele>838.882</ele>
        <time>2020-04-29T19:03:16Z</time>
      </trkpt>
      <trkpt lat="41.327950" lon="-1.318588">
        <ele>843.043</ele>
        <time>2020-04-29T19:03:31Z</time>
      </trkpt>
      <trkpt lat="41.327798" lon="-1.318862">
        <ele>844.617</ele>
        <time>2020-04-29T19:03:37Z</time>
      </trkpt>
      <trkpt lat="41.327689" lon="-1.319545">
        <ele>847.608</ele>
        <time>2020-04-29T19:03:49Z</time>
      </trkpt>
      <trkpt lat="41.327101" lon="-1.320091">
        <ele>851.422</ele>
        <time>2020-04-29T19:04:05Z</time>
      </trkpt>
      <trkpt lat="41.326802" lon="-1.321565">
        <ele>858.216</ele>
        <time>2020-04-29T19:04:32Z</time>
      </trkpt>
      <trkpt lat="41.326920" lon="-1.323329">
        <ele>865.645</ele>
        <time>2020-04-29T19:05:01Z</time>
      </trkpt>
      <trkpt lat="41.326762" lon="-1.324539">
        <ele>872.469</ele>
        <time>2020-04-29T19:05:21Z</time>
      </trkpt>
      <trkpt lat="41.327186" lon="-1.326445">
        <ele>885.432</ele>
        <time>2020-04-29T19:06:04Z</time>
      </trkpt>
      <trkpt lat="41.327006" lon="-1.327111">
        <ele>887.256</ele>
        <time>2020-04-29T19:06:16Z</time>
      </trkpt>
      <trkpt lat="41.327021" lon="-1.327976">
        <ele>889.623</ele>
        <time>2020-04-29T19:06:29Z</time>
      </trkpt>
      <trkpt lat="41.327489" lon="-1.329318">
        <ele>899.014</ele>
        <time>2020-04-29T19:07:00Z</time>
      </trkpt>
      <trkpt lat="41.328210" lon="-1.330757">
        <ele>908.496</ele>
        <time>2020-04-29T19:07:32Z</time>
      </trkpt>
      <trkpt lat="41.328105" lon="-1.330877">
        <ele>909.431</ele>
        <time>2020-04-29T19:07:36Z</time>
      </trkpt>
      <trkpt lat="41.327788" lon="-1.330731">
        <ele>911.624</ele>
        <time>2020-04-29T19:07:44Z</time>
      </trkpt>
      <trkpt lat="41.325845" lon="-1.329169">
        <ele>922.408</ele>
        <time>2020-04-29T19:08:32Z</time>
      </trkpt>
      <trkpt lat="41.325137" lon="-1.327759">
        <ele>931.883</ele>
        <time>2020-04-29T19:09:07Z</time>
      </trkpt>
      <trkpt lat="41.324788" lon="-1.327341">
        <ele>935.087</ele>
        <time>2020-04-29T19:09:19Z</time>
      </trkpt>
      <trkpt lat="41.324591" lon="-1.327374">
        <ele>937.226</ele>
        <time>2020-04-29T19:09:25Z</time>
      </trkpt>
      <trkpt lat="41.323968" lon="-1.328921">
        <ele>947.480</ele>
        <time>2020-04-29T19:10:00Z</time>
      </trkpt>
      <trkpt lat="41.323867" lon="-1.330011">
        <ele>953.613</ele>
        <time>2020-04-29T19:10:21Z</time>
      </trkpt>
      <trkpt lat="41.324187" lon="-1.331305">
        <ele>963.067</ele>
        <time>2020-04-29T19:10:50Z</time>
      </trkpt>
      <trkpt lat="41.324240" lon="-1.332800">
        <ele>969.884</ele>
        <time>2020-04-29T19:11:16Z</time>
      </trkpt>
      <trkpt lat="41.324945" lon="-1.334257">
        <ele>980.415</ele>
        <time>2020-04-29T19:11:51Z</time>
      </trkpt>
      <trkpt lat="41.325080" lon="-1.334869">
        <ele>984.638</ele>
        <time>2020-04-29T19:12:08Z</time>
      </trkpt>
      <trkpt lat="41.325051" lon="-1.335542">
        <ele>989.070</ele>
        <time>2020-04-29T19:12:24Z</time>
      </trkpt>
      <trkpt lat="41.325261" lon="-1.336395">
        <ele>995.217</ele>
        <time>2020-04-29T19:12:46Z</time>
      </trkpt>
      <trkpt lat="41.325087" lon="-1.336464">
        <ele>996.808</ele>
        <time>2020-04-29T19:12:53Z</time>
      </trkpt>
      <trkpt lat="41.324189" lon="-1.336029">
        <ele>999.887</ele>
        <time>2020-04-29T19:13:13Z</time>
      </trkpt>
      <trkpt lat="41.323989" lon="-1.336088">
        <ele>1001.441</ele>
        <time>2020-04-29T19:13:17Z</time>
      </trkpt>
      <trkpt lat="41.323938" lon="-1.336507">
        <ele>1004.890</ele>
        <time>2020-04-29T19:13:27Z</time>
      </trkpt>
      <trkpt lat="41.324334" lon="-1.337762">
        <ele>1013.814</ele>
        <time>2020-04-29T19:13:54Z</time>
      </trkpt>
      <trkpt lat="41.324298" lon="-1.338287">
        <ele>1016.857</ele>
        <time>2020-04-29T19:14:04Z</time>
      </trkpt>
      <trkpt lat="41.324108" lon="-1.338501">
        <ele>1018.471</ele>
        <time>2020-04-29T19:14:10Z</time>
      </trkpt>
      <trkpt lat="41.323509" lon="-1.338802">
        <ele>1022.078</ele>
        <time>2020-04-29T19:14:24Z</time>
      </trkpt>
      <trkpt lat="41.322770" lon="-1.338590">
        <ele>1024.649</ele>
        <time>2020-04-29T19:14:41Z</time>
      </trkpt>
      <trkpt lat="41.322570" lon="-1.338623">
        <ele>1025.267</ele>
        <time>2020-04-29T19:14:45Z</time>
      </trkpt>
      <trkpt lat="41.322386" lon="-1.340348">
        <ele>1033.881</ele>
        <time>2020-04-29T19:15:14Z</time>
      </trkpt>
      <trkpt lat="41.321912" lon="-1.341128">
        <ele>1037.619</ele>
        <time>2020-04-29T19:15:28Z</time>
      </trkpt>
      <trkpt lat="41.321481" lon="-1.341271">
        <ele>1039.808</ele>
        <time>2020-04-29T19:15:36Z</time>
      </trkpt>
      <trkpt lat="41.320310" lon="-1.340906">
        <ele>1044.860</ele>
        <time>2020-04-29T19:15:59Z</time>
      </trkpt>
      <trkpt lat="41.319839" lon="-1.341078">
        <ele>1046.834</ele>
        <time>2020-04-29T19:16:16Z</time>
      </trkpt>
    </trkseg>
  </trk></gpx>