<?xml version="1.0" encoding="UTF-8"?>
<gpx creator="Wikiloc - https://www.wikiloc.com" version="1.1" xmlns="http://www.topografix.com/GPX/1/1" xmlns:xsi="http://www.w3.org/2001/XMLSchema-instance" xsi:schemaLocation="http://www.topografix.com/GPX/1/1 http://www.topografix.com/GPX/1/1/gpx.xsd">
  <metadata>
    <name>Wikiloc - ALPE D´HUEZ (por Le Bourg d´Oisans)</name>
    <link href="https://www.wikiloc.com/cycling-trails/alpe-dhuez-por-le-bourg-doisans-267409699">
      <text>ALPE D´HUEZ (por Le Bourg d´Oisans) - Wikiloc on Wikiloc</text>
    </link>
    <time>2026-07-16T10:14:11.684Z</time>
  </metadata>
  <trk>
    <name>ALPE D´HUEZ (por Le Bourg d´Oisans) - Wikiloc</name>
    <cmt></cmt>
    <desc></desc>
    <trkseg>
      <trkpt lat="45.062220" lon="6.037020">
        <ele>717.088</ele>
        <time>2026-07-16T10:14:11.682Z</time>
      </trkpt>
      <trkpt lat="45.062310" lon="6.036980">
        <ele>717.024</ele>
        <time>2026-07-16T10:14:31.682Z</time>
      </trkpt>
      <trkpt lat="45.062550" lon="6.036960">
        <ele>717.226</ele>
        <time>2026-07-16T10:14:51.682Z</time>
      </trkpt>
      <trkpt lat="45.062720" lon="6.037010">
        <ele>717.809</ele>
        <time>2026-07-16T10:15:11.682Z</time>
      </trkpt>
      <trkpt lat="45.062850" lon="6.037080">
        <ele>718.030</ele>
        <time>2026-07-16T10:15:31.682Z</time>
      </trkpt>
      <trkpt lat="45.063010" lon="6.037240">
        <ele>718.094</ele>
        <time>2026-07-16T10:15:51.682Z</time>
      </trkpt>
      <trkpt lat="45.064180" lon="6.038910">
        <ele>721.135</ele>
        <time>2026-07-16T10:16:11.682Z</time>
      </trkpt>
      <trkpt lat="45.064230" lon="6.038990">
        <ele>721.492</ele>
        <time>2026-07-16T10:16:31.682Z</time>
      </trkpt>
      <trkpt lat="45.064360" lon="6.039160">
        <ele>722.078</ele>
        <time>2026-07-16T10:16:51.682Z</time>
      </trkpt>
      <trkpt lat="45.065010" lon="6.040030">
        <ele>724.297</ele>
        <time>2026-07-16T10:17:11.682Z</time>
      </trkpt>
      <trkpt lat="45.065120" lon="6.040100">
        <ele>724.354</ele>
        <time>2026-07-16T10:17:31.682Z</time>
      </trkpt>
      <trkpt lat="45.065250" lon="6.040100">
        <ele>723.947</ele>
        <time>2026-07-16T10:17:51.682Z</time>
      </trkpt>
      <trkpt lat="45.065610" lon="6.039980">
        <ele>723.667</ele>
        <time>2026-07-16T10:18:11.682Z</time>
      </trkpt>
      <trkpt lat="45.066490" lon="6.039620">
        <ele>725.147</ele>
        <time>2026-07-16T10:18:31.682Z</time>
      </trkpt>
      <trkpt lat="45.066650" lon="6.039580">
        <ele>726.129</ele>
        <time>2026-07-16T10:18:51.682Z</time>
      </trkpt>
      <trkpt lat="45.067800" lon="6.039400">
        <ele>739.521</ele>
        <time>2026-07-16T10:19:11.682Z</time>
      </trkpt>
      <trkpt lat="45.068160" lon="6.039240">
        <ele>740.509</ele>
        <time>2026-07-16T10:19:31.682Z</time>
      </trkpt>
      <trkpt lat="45.068310" lon="6.039230">
        <ele>742.936</ele>
        <time>2026-07-16T10:19:51.682Z</time>
      </trkpt>
      <trkpt lat="45.068620" lon="6.039300">
        <ele>748.560</ele>
        <time>2026-07-16T10:20:11.682Z</time>
      </trkpt>
      <trkpt lat="45.068720" lon="6.039290">
        <ele>749.951</ele>
        <time>2026-07-16T10:20:31.682Z</time>
      </trkpt>
      <trkpt lat="45.069140" lon="6.039180">
        <ele>758.558</ele>
        <time>2026-07-16T10:20:51.682Z</time>
      </trkpt>
      <trkpt lat="45.069360" lon="6.039090">
        <ele>762.274</ele>
        <time>2026-07-16T10:21:11.682Z</time>
      </trkpt>
      <trkpt lat="45.069760" lon="6.038860">
        <ele>766.263</ele>
        <time>2026-07-16T10:21:31.682Z</time>
      </trkpt>
      <trkpt lat="45.070120" lon="6.038720">
        <ele>772.370</ele>
        <time>2026-07-16T10:21:51.682Z</time>
      </trkpt>
      <trkpt lat="45.070240" lon="6.038690">
        <ele>774.423</ele>
        <time>2026-07-16T10:22:11.682Z</time>
      </trkpt>
      <trkpt lat="45.070520" lon="6.038700">
        <ele>782.213</ele>
        <time>2026-07-16T10:22:31.682Z</time>
      </trkpt>
      <trkpt lat="45.070910" lon="6.038790">
        <ele>787.887</ele>
        <time>2026-07-16T10:22:51.682Z</time>
      </trkpt>
      <trkpt lat="45.071350" lon="6.038930">
        <ele>791.542</ele>
        <time>2026-07-16T10:23:11.682Z</time>
      </trkpt>
      <trkpt lat="45.071530" lon="6.038970">
        <ele>792.926</ele>
        <time>2026-07-16T10:23:31.682Z</time>
      </trkpt>
      <trkpt lat="45.071730" lon="6.038980">
        <ele>792.109</ele>
        <time>2026-07-16T10:23:51.682Z</time>
      </trkpt>
      <trkpt lat="45.071810" lon="6.039010">
        <ele>792.790</ele>
        <time>2026-07-16T10:24:11.682Z</time>
      </trkpt>
      <trkpt lat="45.071860" lon="6.039090">
        <ele>796.634</ele>
        <time>2026-07-16T10:24:31.682Z</time>
      </trkpt>
      <trkpt lat="45.071870" lon="6.039150">
        <ele>799.975</ele>
        <time>2026-07-16T10:24:51.682Z</time>
      </trkpt>
      <trkpt lat="45.071840" lon="6.039250">
        <ele>805.952</ele>
        <time>2026-07-16T10:25:11.682Z</time>
      </trkpt>
      <trkpt lat="45.071780" lon="6.039290">
        <ele>808.918</ele>
        <time>2026-07-16T10:25:31.682Z</time>
      </trkpt>
      <trkpt lat="45.071050" lon="6.039120">
        <ele>804.147</ele>
        <time>2026-07-16T10:25:51.682Z</time>
      </trkpt>
      <trkpt lat="45.070930" lon="6.039130">
        <ele>806.034</ele>
        <time>2026-07-16T10:26:11.682Z</time>
      </trkpt>
      <trkpt lat="45.070610" lon="6.039260">
        <ele>813.527</ele>
        <time>2026-07-16T10:26:31.682Z</time>
      </trkpt>
      <trkpt lat="45.070360" lon="6.039410">
        <ele>816.937</ele>
        <time>2026-07-16T10:26:51.682Z</time>
      </trkpt>
      <trkpt lat="45.070130" lon="6.039630">
        <ele>819.844</ele>
        <time>2026-07-16T10:27:11.682Z</time>
      </trkpt>
      <trkpt lat="45.069850" lon="6.040000">
        <ele>825.505</ele>
        <time>2026-07-16T10:27:31.682Z</time>
      </trkpt>
      <trkpt lat="45.069620" lon="6.040240">
        <ele>827.715</ele>
        <time>2026-07-16T10:27:51.682Z</time>
      </trkpt>
      <trkpt lat="45.069270" lon="6.040790">
        <ele>840.509</ele>
        <time>2026-07-16T10:28:11.682Z</time>
      </trkpt>
      <trkpt lat="45.069180" lon="6.040850">
        <ele>839.616</ele>
        <time>2026-07-16T10:28:31.682Z</time>
      </trkpt>
      <trkpt lat="45.068310" lon="6.041050">
        <ele>846.810</ele>
        <time>2026-07-16T10:28:51.682Z</time>
      </trkpt>
      <trkpt lat="45.068060" lon="6.041130">
        <ele>852.921</ele>
        <time>2026-07-16T10:29:11.682Z</time>
      </trkpt>
      <trkpt lat="45.067460" lon="6.041450">
        <ele>860.458</ele>
        <time>2026-07-16T10:29:31.682Z</time>
      </trkpt>
      <trkpt lat="45.066840" lon="6.041840">
        <ele>872.674</ele>
        <time>2026-07-16T10:29:51.682Z</time>
      </trkpt>
      <trkpt lat="45.066480" lon="6.042030">
        <ele>873.353</ele>
        <time>2026-07-16T10:30:11.682Z</time>
      </trkpt>
      <trkpt lat="45.066410" lon="6.042080">
        <ele>874.310</ele>
        <time>2026-07-16T10:30:31.682Z</time>
      </trkpt>
      <trkpt lat="45.066400" lon="6.042110">
        <ele>875.643</ele>
        <time>2026-07-16T10:30:51.682Z</time>
      </trkpt>
      <trkpt lat="45.066400" lon="6.042200">
        <ele>880.193</ele>
        <time>2026-07-16T10:31:11.682Z</time>
      </trkpt>
      <trkpt lat="45.066450" lon="6.042250">
        <ele>883.365</ele>
        <time>2026-07-16T10:31:31.682Z</time>
      </trkpt>
      <trkpt lat="45.066480" lon="6.042260">
        <ele>884.268</ele>
        <time>2026-07-16T10:31:51.682Z</time>
      </trkpt>
      <trkpt lat="45.067300" lon="6.041840">
        <ele>881.814</ele>
        <time>2026-07-16T10:32:11.682Z</time>
      </trkpt>
      <trkpt lat="45.067570" lon="6.041740">
        <ele>878.609</ele>
        <time>2026-07-16T10:32:31.682Z</time>
      </trkpt>
      <trkpt lat="45.067640" lon="6.041750">
        <ele>879.588</ele>
        <time>2026-07-16T10:32:51.682Z</time>
      </trkpt>
      <trkpt lat="45.067940" lon="6.041850">
        <ele>887.262</ele>
        <time>2026-07-16T10:33:11.682Z</time>
      </trkpt>
      <trkpt lat="45.067980" lon="6.041880">
        <ele>889.163</ele>
        <time>2026-07-16T10:33:31.682Z</time>
      </trkpt>
      <trkpt lat="45.068000" lon="6.041920">
        <ele>891.220</ele>
        <time>2026-07-16T10:33:51.682Z</time>
      </trkpt>
      <trkpt lat="45.068000" lon="6.042010">
        <ele>896.146</ele>
        <time>2026-07-16T10:34:11.682Z</time>
      </trkpt>
      <trkpt lat="45.067950" lon="6.042080">
        <ele>899.545</ele>
        <time>2026-07-16T10:34:31.682Z</time>
      </trkpt>
      <trkpt lat="45.067890" lon="6.042080">
        <ele>898.732</ele>
        <time>2026-07-16T10:34:51.682Z</time>
      </trkpt>
      <trkpt lat="45.067650" lon="6.041920">
        <ele>888.735</ele>
        <time>2026-07-16T10:35:11.682Z</time>
      </trkpt>
      <trkpt lat="45.067530" lon="6.041910">
        <ele>888.075</ele>
        <time>2026-07-16T10:35:31.682Z</time>
      </trkpt>
      <trkpt lat="45.067460" lon="6.041940">
        <ele>889.354</ele>
        <time>2026-07-16T10:35:51.682Z</time>
      </trkpt>
      <trkpt lat="45.067300" lon="6.042070">
        <ele>894.056</ele>
        <time>2026-07-16T10:36:11.682Z</time>
      </trkpt>
      <trkpt lat="45.066940" lon="6.042510">
        <ele>904.511</ele>
        <time>2026-07-16T10:36:31.682Z</time>
      </trkpt>
      <trkpt lat="45.066780" lon="6.042650">
        <ele>908.209</ele>
        <time>2026-07-16T10:36:51.682Z</time>
      </trkpt>
      <trkpt lat="45.065980" lon="6.043090">
        <ele>908.927</ele>
        <time>2026-07-16T10:37:11.682Z</time>
      </trkpt>
      <trkpt lat="45.065950" lon="6.043120">
        <ele>908.131</ele>
        <time>2026-07-16T10:37:31.682Z</time>
      </trkpt>
      <trkpt lat="45.065920" lon="6.043190">
        <ele>907.742</ele>
        <time>2026-07-16T10:37:51.682Z</time>
      </trkpt>
      <trkpt lat="45.065930" lon="6.043280">
        <ele>909.389</ele>
        <time>2026-07-16T10:38:11.682Z</time>
      </trkpt>
      <trkpt lat="45.065980" lon="6.043330">
        <ele>912.935</ele>
        <time>2026-07-16T10:38:31.682Z</time>
      </trkpt>
      <trkpt lat="45.066050" lon="6.043330">
        <ele>917.244</ele>
        <time>2026-07-16T10:38:51.682Z</time>
      </trkpt>
      <trkpt lat="45.066290" lon="6.043210">
        <ele>923.411</ele>
        <time>2026-07-16T10:39:11.682Z</time>
      </trkpt>
      <trkpt lat="45.066600" lon="6.043150">
        <ele>929.924</ele>
        <time>2026-07-16T10:39:31.682Z</time>
      </trkpt>
      <trkpt lat="45.066790" lon="6.043090">
        <ele>932.694</ele>
        <time>2026-07-16T10:39:51.682Z</time>
      </trkpt>
      <trkpt lat="45.067070" lon="6.042870">
        <ele>928.998</ele>
        <time>2026-07-16T10:40:11.682Z</time>
      </trkpt>
      <trkpt lat="45.067170" lon="6.042820">
        <ele>929.415</ele>
        <time>2026-07-16T10:40:31.682Z</time>
      </trkpt>
      <trkpt lat="45.067490" lon="6.042820">
        <ele>935.026</ele>
        <time>2026-07-16T10:40:51.682Z</time>
      </trkpt>
      <trkpt lat="45.067640" lon="6.042800">
        <ele>937.209</ele>
        <time>2026-07-16T10:41:11.682Z</time>
      </trkpt>
      <trkpt lat="45.068030" lon="6.042630">
        <ele>934.551</ele>
        <time>2026-07-16T10:41:31.682Z</time>
      </trkpt>
      <trkpt lat="45.068320" lon="6.042610">
        <ele>939.865</ele>
        <time>2026-07-16T10:41:51.682Z</time>
      </trkpt>
      <trkpt lat="45.068830" lon="6.042660">
        <ele>942.686</ele>
        <time>2026-07-16T10:42:11.682Z</time>
      </trkpt>
      <trkpt lat="45.068890" lon="6.042720">
        <ele>945.523</ele>
        <time>2026-07-16T10:42:31.682Z</time>
      </trkpt>
      <trkpt lat="45.068900" lon="6.042790">
        <ele>950.699</ele>
        <time>2026-07-16T10:42:51.682Z</time>
      </trkpt>
      <trkpt lat="45.068850" lon="6.042880">
        <ele>957.678</ele>
        <time>2026-07-16T10:43:11.682Z</time>
      </trkpt>
      <trkpt lat="45.068780" lon="6.042890">
        <ele>959.315</ele>
        <time>2026-07-16T10:43:31.682Z</time>
      </trkpt>
      <trkpt lat="45.068480" lon="6.042800">
        <ele>953.738</ele>
        <time>2026-07-16T10:43:51.682Z</time>
      </trkpt>
      <trkpt lat="45.068320" lon="6.042800">
        <ele>952.388</ele>
        <time>2026-07-16T10:44:11.682Z</time>
      </trkpt>
      <trkpt lat="45.068220" lon="6.042850">
        <ele>953.375</ele>
        <time>2026-07-16T10:44:31.682Z</time>
      </trkpt>
      <trkpt lat="45.067260" lon="6.043640">
        <ele>974.628</ele>
        <time>2026-07-16T10:44:51.682Z</time>
      </trkpt>
      <trkpt lat="45.067200" lon="6.043720">
        <ele>975.820</ele>
        <time>2026-07-16T10:45:11.682Z</time>
      </trkpt>
      <trkpt lat="45.067170" lon="6.043800">
        <ele>978.009</ele>
        <time>2026-07-16T10:45:31.682Z</time>
      </trkpt>
      <trkpt lat="45.067190" lon="6.043920">
        <ele>982.249</ele>
        <time>2026-07-16T10:45:51.682Z</time>
      </trkpt>
      <trkpt lat="45.067320" lon="6.044100">
        <ele>984.073</ele>
        <time>2026-07-16T10:46:11.682Z</time>
      </trkpt>
      <trkpt lat="45.067640" lon="6.044440">
        <ele>985.144</ele>
        <time>2026-07-16T10:46:31.682Z</time>
      </trkpt>
      <trkpt lat="45.067900" lon="6.044600">
        <ele>985.211</ele>
        <time>2026-07-16T10:46:51.682Z</time>
      </trkpt>
      <trkpt lat="45.068250" lon="6.044730">
        <ele>985.817</ele>
        <time>2026-07-16T10:47:11.682Z</time>
      </trkpt>
      <trkpt lat="45.068690" lon="6.044830">
        <ele>988.576</ele>
        <time>2026-07-16T10:47:31.682Z</time>
      </trkpt>
      <trkpt lat="45.068820" lon="6.044900">
        <ele>989.013</ele>
        <time>2026-07-16T10:47:51.682Z</time>
      </trkpt>
      <trkpt lat="45.068950" lon="6.045050">
        <ele>988.416</ele>
        <time>2026-07-16T10:48:11.682Z</time>
      </trkpt>
      <trkpt lat="45.069110" lon="6.045290">
        <ele>987.866</ele>
        <time>2026-07-16T10:48:31.682Z</time>
      </trkpt>
      <trkpt lat="45.069190" lon="6.045380">
        <ele>988.497</ele>
        <time>2026-07-16T10:48:51.682Z</time>
      </trkpt>
      <trkpt lat="45.069500" lon="6.045630">
        <ele>991.623</ele>
        <time>2026-07-16T10:49:11.682Z</time>
      </trkpt>
      <trkpt lat="45.069980" lon="6.045850">
        <ele>998.225</ele>
        <time>2026-07-16T10:49:31.682Z</time>
      </trkpt>
      <trkpt lat="45.070050" lon="6.045910">
        <ele>999.909</ele>
        <time>2026-07-16T10:49:51.682Z</time>
      </trkpt>
      <trkpt lat="45.070170" lon="6.046090">
        <ele>1002.651</ele>
        <time>2026-07-16T10:50:11.682Z</time>
      </trkpt>
      <trkpt lat="45.070500" lon="6.046710">
        <ele>1007.855</ele>
        <time>2026-07-16T10:50:31.682Z</time>
      </trkpt>
      <trkpt lat="45.070670" lon="6.046950">
        <ele>1010.426</ele>
        <time>2026-07-16T10:50:51.682Z</time>
      </trkpt>
      <trkpt lat="45.071440" lon="6.047670">
        <ele>1023.283</ele>
        <time>2026-07-16T10:51:11.682Z</time>
      </trkpt>
      <trkpt lat="45.071700" lon="6.047960">
        <ele>1025.019</ele>
        <time>2026-07-16T10:51:31.682Z</time>
      </trkpt>
      <trkpt lat="45.071830" lon="6.048140">
        <ele>1023.768</ele>
        <time>2026-07-16T10:51:51.682Z</time>
      </trkpt>
      <trkpt lat="45.071890" lon="6.048170">
        <ele>1024.625</ele>
        <time>2026-07-16T10:52:11.682Z</time>
      </trkpt>
      <trkpt lat="45.071960" lon="6.048110">
        <ele>1029.428</ele>
        <time>2026-07-16T10:52:31.682Z</time>
      </trkpt>
      <trkpt lat="45.071980" lon="6.048020">
        <ele>1033.798</ele>
        <time>2026-07-16T10:52:51.682Z</time>
      </trkpt>
      <trkpt lat="45.071960" lon="6.047930">
        <ele>1036.126</ele>
        <time>2026-07-16T10:53:11.682Z</time>
      </trkpt>
      <trkpt lat="45.071930" lon="6.047890">
        <ele>1036.447</ele>
        <time>2026-07-16T10:53:31.682Z</time>
      </trkpt>
      <trkpt lat="45.071730" lon="6.047730">
        <ele>1033.211</ele>
        <time>2026-07-16T10:53:51.682Z</time>
      </trkpt>
      <trkpt lat="45.071630" lon="6.047630">
        <ele>1032.309</ele>
        <time>2026-07-16T10:54:11.682Z</time>
      </trkpt>
      <trkpt lat="45.071320" lon="6.047210">
        <ele>1032.284</ele>
        <time>2026-07-16T10:54:31.682Z</time>
      </trkpt>
      <trkpt lat="45.071110" lon="6.046810">
        <ele>1031.488</ele>
        <time>2026-07-16T10:54:51.682Z</time>
      </trkpt>
      <trkpt lat="45.071060" lon="6.046640">
        <ele>1031.689</ele>
        <time>2026-07-16T10:55:11.682Z</time>
      </trkpt>
      <trkpt lat="45.071040" lon="6.046160">
        <ele>1035.616</ele>
        <time>2026-07-16T10:55:31.682Z</time>
      </trkpt>
      <trkpt lat="45.071090" lon="6.045180">
        <ele>1043.252</ele>
        <time>2026-07-16T10:55:51.682Z</time>
      </trkpt>
      <trkpt lat="45.071080" lon="6.044970">
        <ele>1044.561</ele>
        <time>2026-07-16T10:56:11.682Z</time>
      </trkpt>
      <trkpt lat="45.071030" lon="6.044780">
        <ele>1045.118</ele>
        <time>2026-07-16T10:56:31.682Z</time>
      </trkpt>
      <trkpt lat="45.070890" lon="6.044450">
        <ele>1047.931</ele>
        <time>2026-07-16T10:56:51.682Z</time>
      </trkpt>
      <trkpt lat="45.070870" lon="6.044350">
        <ele>1051.051</ele>
        <time>2026-07-16T10:57:11.682Z</time>
      </trkpt>
      <trkpt lat="45.070900" lon="6.044270">
        <ele>1054.321</ele>
        <time>2026-07-16T10:57:31.682Z</time>
      </trkpt>
      <trkpt lat="45.070950" lon="6.044230">
        <ele>1056.541</ele>
        <time>2026-07-16T10:57:51.682Z</time>
      </trkpt>
      <trkpt lat="45.070980" lon="6.044230">
        <ele>1057.005</ele>
        <time>2026-07-16T10:58:11.682Z</time>
      </trkpt>
      <trkpt lat="45.071040" lon="6.044280">
        <ele>1056.209</ele>
        <time>2026-07-16T10:58:31.682Z</time>
      </trkpt>
      <trkpt lat="45.071300" lon="6.044890">
        <ele>1053.584</ele>
        <time>2026-07-16T10:58:51.682Z</time>
      </trkpt>
      <trkpt lat="45.071510" lon="6.046080">
        <ele>1063.718</ele>
        <time>2026-07-16T10:59:11.682Z</time>
      </trkpt>
      <trkpt lat="45.071600" lon="6.046350">
        <ele>1066.799</ele>
        <time>2026-07-16T10:59:31.682Z</time>
      </trkpt>
      <trkpt lat="45.071700" lon="6.046530">
        <ele>1070.276</ele>
        <time>2026-07-16T10:59:51.682Z</time>
      </trkpt>
      <trkpt lat="45.071850" lon="6.046750">
        <ele>1074.122</ele>
        <time>2026-07-16T11:00:11.682Z</time>
      </trkpt>
      <trkpt lat="45.072040" lon="6.046950">
        <ele>1079.651</ele>
        <time>2026-07-16T11:00:31.682Z</time>
      </trkpt>
      <trkpt lat="45.072850" lon="6.047600">
        <ele>1083.238</ele>
        <time>2026-07-16T11:00:51.682Z</time>
      </trkpt>
      <trkpt lat="45.072970" lon="6.047670">
        <ele>1082.891</ele>
        <time>2026-07-16T11:01:11.682Z</time>
      </trkpt>
      <trkpt lat="45.073050" lon="6.047690">
        <ele>1084.221</ele>
        <time>2026-07-16T11:01:31.682Z</time>
      </trkpt>
      <trkpt lat="45.073350" lon="6.047710">
        <ele>1088.818</ele>
        <time>2026-07-16T11:01:51.682Z</time>
      </trkpt>
      <trkpt lat="45.073480" lon="6.047830">
        <ele>1088.898</ele>
        <time>2026-07-16T11:02:11.682Z</time>
      </trkpt>
      <trkpt lat="45.073540" lon="6.047930">
        <ele>1089.817</ele>
        <time>2026-07-16T11:02:31.682Z</time>
      </trkpt>
      <trkpt lat="45.073570" lon="6.048040">
        <ele>1089.909</ele>
        <time>2026-07-16T11:02:51.682Z</time>
      </trkpt>
      <trkpt lat="45.073670" lon="6.048500">
        <ele>1092.923</ele>
        <time>2026-07-16T11:03:11.682Z</time>
      </trkpt>
      <trkpt lat="45.073680" lon="6.048610">
        <ele>1092.727</ele>
        <time>2026-07-16T11:03:31.682Z</time>
      </trkpt>
      <trkpt lat="45.073660" lon="6.048780">
        <ele>1094.918</ele>
        <time>2026-07-16T11:03:51.682Z</time>
      </trkpt>
      <trkpt lat="45.073570" lon="6.048940">
        <ele>1094.935</ele>
        <time>2026-07-16T11:04:11.682Z</time>
      </trkpt>
      <trkpt lat="45.073390" lon="6.049190">
        <ele>1094.611</ele>
        <time>2026-07-16T11:04:31.682Z</time>
      </trkpt>
      <trkpt lat="45.073320" lon="6.049390">
        <ele>1096.280</ele>
        <time>2026-07-16T11:04:51.682Z</time>
      </trkpt>
      <trkpt lat="45.073260" lon="6.049700">
        <ele>1101.097</ele>
        <time>2026-07-16T11:05:11.682Z</time>
      </trkpt>
      <trkpt lat="45.073150" lon="6.049920">
        <ele>1101.620</ele>
        <time>2026-07-16T11:05:31.682Z</time>
      </trkpt>
      <trkpt lat="45.072440" lon="6.051070">
        <ele>1107.880</ele>
        <time>2026-07-16T11:05:51.682Z</time>
      </trkpt>
      <trkpt lat="45.072430" lon="6.051180">
        <ele>1111.281</ele>
        <time>2026-07-16T11:06:11.682Z</time>
      </trkpt>
      <trkpt lat="45.072450" lon="6.051220">
        <ele>1114.061</ele>
        <time>2026-07-16T11:06:31.682Z</time>
      </trkpt>
      <trkpt lat="45.072500" lon="6.051260">
        <ele>1118.917</ele>
        <time>2026-07-16T11:06:51.682Z</time>
      </trkpt>
      <trkpt lat="45.072570" lon="6.051240">
        <ele>1122.709</ele>
        <time>2026-07-16T11:07:11.682Z</time>
      </trkpt>
      <trkpt lat="45.072600" lon="6.051190">
        <ele>1122.610</ele>
        <time>2026-07-16T11:07:31.682Z</time>
      </trkpt>
      <trkpt lat="45.072720" lon="6.050940">
        <ele>1118.754</ele>
        <time>2026-07-16T11:07:51.682Z</time>
      </trkpt>
      <trkpt lat="45.072870" lon="6.050760">
        <ele>1117.925</ele>
        <time>2026-07-16T11:08:11.682Z</time>
      </trkpt>
      <trkpt lat="45.073590" lon="6.050180">
        <ele>1129.922</ele>
        <time>2026-07-16T11:08:31.682Z</time>
      </trkpt>
      <trkpt lat="45.073670" lon="6.050100">
        <ele>1132.328</ele>
        <time>2026-07-16T11:08:51.682Z</time>
      </trkpt>
      <trkpt lat="45.073960" lon="6.049680">
        <ele>1135.077</ele>
        <time>2026-07-16T11:09:11.682Z</time>
      </trkpt>
      <trkpt lat="45.074060" lon="6.049610">
        <ele>1135.994</ele>
        <time>2026-07-16T11:09:31.682Z</time>
      </trkpt>
      <trkpt lat="45.074550" lon="6.049550">
        <ele>1145.687</ele>
        <time>2026-07-16T11:09:51.682Z</time>
      </trkpt>
      <trkpt lat="45.074630" lon="6.049500">
        <ele>1146.117</ele>
        <time>2026-07-16T11:10:11.682Z</time>
      </trkpt>
      <trkpt lat="45.074760" lon="6.049360">
        <ele>1147.189</ele>
        <time>2026-07-16T11:10:31.682Z</time>
      </trkpt>
      <trkpt lat="45.074870" lon="6.049110">
        <ele>1147.506</ele>
        <time>2026-07-16T11:10:51.682Z</time>
      </trkpt>
      <trkpt lat="45.074990" lon="6.048750">
        <ele>1149.526</ele>
        <time>2026-07-16T11:11:11.682Z</time>
      </trkpt>
      <trkpt lat="45.075020" lon="6.048590">
        <ele>1151.509</ele>
        <time>2026-07-16T11:11:31.682Z</time>
      </trkpt>
      <trkpt lat="45.074990" lon="6.048370">
        <ele>1152.950</ele>
        <time>2026-07-16T11:11:51.682Z</time>
      </trkpt>
      <trkpt lat="45.074900" lon="6.048120">
        <ele>1151.724</ele>
        <time>2026-07-16T11:12:11.682Z</time>
      </trkpt>
      <trkpt lat="45.074760" lon="6.047780">
        <ele>1150.355</ele>
        <time>2026-07-16T11:12:31.682Z</time>
      </trkpt>
      <trkpt lat="45.074770" lon="6.047670">
        <ele>1149.282</ele>
        <time>2026-07-16T11:12:51.682Z</time>
      </trkpt>
      <trkpt lat="45.074790" lon="6.047630">
        <ele>1149.328</ele>
        <time>2026-07-16T11:13:11.682Z</time>
      </trkpt>
      <trkpt lat="45.074840" lon="6.047600">
        <ele>1150.757</ele>
        <time>2026-07-16T11:13:31.682Z</time>
      </trkpt>
      <trkpt lat="45.074870" lon="6.047610">
        <ele>1151.974</ele>
        <time>2026-07-16T11:13:51.682Z</time>
      </trkpt>
      <trkpt lat="45.074910" lon="6.047660">
        <ele>1154.197</ele>
        <time>2026-07-16T11:14:11.682Z</time>
      </trkpt>
      <trkpt lat="45.074980" lon="6.048000">
        <ele>1156.697</ele>
        <time>2026-07-16T11:14:31.682Z</time>
      </trkpt>
      <trkpt lat="45.075200" lon="6.048590">
        <ele>1161.857</ele>
        <time>2026-07-16T11:14:51.682Z</time>
      </trkpt>
      <trkpt lat="45.075220" lon="6.048670">
        <ele>1162.700</ele>
        <time>2026-07-16T11:15:11.682Z</time>
      </trkpt>
      <trkpt lat="45.075250" lon="6.048890">
        <ele>1164.420</ele>
        <time>2026-07-16T11:15:31.682Z</time>
      </trkpt>
      <trkpt lat="45.075230" lon="6.049480">
        <ele>1172.809</ele>
        <time>2026-07-16T11:15:51.682Z</time>
      </trkpt>
      <trkpt lat="45.075200" lon="6.049730">
        <ele>1175.377</ele>
        <time>2026-07-16T11:16:11.682Z</time>
      </trkpt>
      <trkpt lat="45.075140" lon="6.049880">
        <ele>1176.671</ele>
        <time>2026-07-16T11:16:31.682Z</time>
      </trkpt>
      <trkpt lat="45.075040" lon="6.050000">
        <ele>1175.752</ele>
        <time>2026-07-16T11:16:51.682Z</time>
      </trkpt>
      <trkpt lat="45.074980" lon="6.050040">
        <ele>1175.569</ele>
        <time>2026-07-16T11:17:11.682Z</time>
      </trkpt>
      <trkpt lat="45.074590" lon="6.050190">
        <ele>1175.145</ele>
        <time>2026-07-16T11:17:31.682Z</time>
      </trkpt>
      <trkpt lat="45.074450" lon="6.050290">
        <ele>1177.724</ele>
        <time>2026-07-16T11:17:51.682Z</time>
      </trkpt>
      <trkpt lat="45.074360" lon="6.050450">
        <ele>1179.971</ele>
        <time>2026-07-16T11:18:11.682Z</time>
      </trkpt>
      <trkpt lat="45.074280" lon="6.050670">
        <ele>1184.544</ele>
        <time>2026-07-16T11:18:31.682Z</time>
      </trkpt>
      <trkpt lat="45.074170" lon="6.050840">
        <ele>1186.524</ele>
        <time>2026-07-16T11:18:51.682Z</time>
      </trkpt>
      <trkpt lat="45.073510" lon="6.051730">
        <ele>1186.078</ele>
        <time>2026-07-16T11:19:11.682Z</time>
      </trkpt>
      <trkpt lat="45.073210" lon="6.051980">
        <ele>1187.033</ele>
        <time>2026-07-16T11:19:31.682Z</time>
      </trkpt>
      <trkpt lat="45.073190" lon="6.052040">
        <ele>1189.326</ele>
        <time>2026-07-16T11:19:51.682Z</time>
      </trkpt>
      <trkpt lat="45.073200" lon="6.052130">
        <ele>1194.509</ele>
        <time>2026-07-16T11:20:11.682Z</time>
      </trkpt>
      <trkpt lat="45.073250" lon="6.052180">
        <ele>1200.589</ele>
        <time>2026-07-16T11:20:31.682Z</time>
      </trkpt>
      <trkpt lat="45.073300" lon="6.052180">
        <ele>1203.973</ele>
        <time>2026-07-16T11:20:51.682Z</time>
      </trkpt>
      <trkpt lat="45.073820" lon="6.051580">
        <ele>1199.664</ele>
        <time>2026-07-16T11:21:11.682Z</time>
      </trkpt>
      <trkpt lat="45.074500" lon="6.050960">
        <ele>1208.191</ele>
        <time>2026-07-16T11:21:31.682Z</time>
      </trkpt>
      <trkpt lat="45.074810" lon="6.050800">
        <ele>1209.517</ele>
        <time>2026-07-16T11:21:51.682Z</time>
      </trkpt>
      <trkpt lat="45.075210" lon="6.050700">
        <ele>1214.936</ele>
        <time>2026-07-16T11:22:11.682Z</time>
      </trkpt>
      <trkpt lat="45.075380" lon="6.050630">
        <ele>1217.073</ele>
        <time>2026-07-16T11:22:31.682Z</time>
      </trkpt>
      <trkpt lat="45.075840" lon="6.050270">
        <ele>1220.286</ele>
        <time>2026-07-16T11:22:51.682Z</time>
      </trkpt>
      <trkpt lat="45.075920" lon="6.050110">
        <ele>1221.856</ele>
        <time>2026-07-16T11:23:11.682Z</time>
      </trkpt>
      <trkpt lat="45.076100" lon="6.049510">
        <ele>1221.428</ele>
        <time>2026-07-16T11:23:31.682Z</time>
      </trkpt>
      <trkpt lat="45.076340" lon="6.048970">
        <ele>1229.089</ele>
        <time>2026-07-16T11:23:51.682Z</time>
      </trkpt>
      <trkpt lat="45.076370" lon="6.048880">
        <ele>1230.917</ele>
        <time>2026-07-16T11:24:11.682Z</time>
      </trkpt>
      <trkpt lat="45.076380" lon="6.048690">
        <ele>1234.309</ele>
        <time>2026-07-16T11:24:31.682Z</time>
      </trkpt>
      <trkpt lat="45.076270" lon="6.048110">
        <ele>1233.454</ele>
        <time>2026-07-16T11:24:51.682Z</time>
      </trkpt>
      <trkpt lat="45.076270" lon="6.047950">
        <ele>1232.298</ele>
        <time>2026-07-16T11:25:11.682Z</time>
      </trkpt>
      <trkpt lat="45.076490" lon="6.047320">
        <ele>1237.599</ele>
        <time>2026-07-16T11:25:31.682Z</time>
      </trkpt>
      <trkpt lat="45.076520" lon="6.047280">
        <ele>1239.156</ele>
        <time>2026-07-16T11:25:51.682Z</time>
      </trkpt>
      <trkpt lat="45.076600" lon="6.047270">
        <ele>1245.542</ele>
        <time>2026-07-16T11:26:11.682Z</time>
      </trkpt>
      <trkpt lat="45.076650" lon="6.047320">
        <ele>1250.731</ele>
        <time>2026-07-16T11:26:31.682Z</time>
      </trkpt>
      <trkpt lat="45.076660" lon="6.047430">
        <ele>1253.988</ele>
        <time>2026-07-16T11:26:51.682Z</time>
      </trkpt>
      <trkpt lat="45.076490" lon="6.047830">
        <ele>1248.521</ele>
        <time>2026-07-16T11:27:11.682Z</time>
      </trkpt>
      <trkpt lat="45.076470" lon="6.047960">
        <ele>1248.631</ele>
        <time>2026-07-16T11:27:31.682Z</time>
      </trkpt>
      <trkpt lat="45.076510" lon="6.048170">
        <ele>1252.369</ele>
        <time>2026-07-16T11:27:51.682Z</time>
      </trkpt>
      <trkpt lat="45.076700" lon="6.048650">
        <ele>1258.704</ele>
        <time>2026-07-16T11:28:11.682Z</time>
      </trkpt>
      <trkpt lat="45.076720" lon="6.049000">
        <ele>1258.724</ele>
        <time>2026-07-16T11:28:31.682Z</time>
      </trkpt>
      <trkpt lat="45.076700" lon="6.049460">
        <ele>1260.509</ele>
        <time>2026-07-16T11:28:51.682Z</time>
      </trkpt>
      <trkpt lat="45.076680" lon="6.049600">
        <ele>1262.318</ele>
        <time>2026-07-16T11:29:11.682Z</time>
      </trkpt>
      <trkpt lat="45.076540" lon="6.050020">
        <ele>1261.252</ele>
        <time>2026-07-16T11:29:31.682Z</time>
      </trkpt>
      <trkpt lat="45.076510" lon="6.050160">
        <ele>1261.773</ele>
        <time>2026-07-16T11:29:51.682Z</time>
      </trkpt>
      <trkpt lat="45.076490" lon="6.050610">
        <ele>1268.410</ele>
        <time>2026-07-16T11:30:11.682Z</time>
      </trkpt>
      <trkpt lat="45.076470" lon="6.050700">
        <ele>1269.186</ele>
        <time>2026-07-16T11:30:31.682Z</time>
      </trkpt>
      <trkpt lat="45.076380" lon="6.050930">
        <ele>1270.035</ele>
        <time>2026-07-16T11:30:51.682Z</time>
      </trkpt>
      <trkpt lat="45.076320" lon="6.051050">
        <ele>1271.522</ele>
        <time>2026-07-16T11:31:11.682Z</time>
      </trkpt>
      <trkpt lat="45.076050" lon="6.051460">
        <ele>1279.995</ele>
        <time>2026-07-16T11:31:31.682Z</time>
      </trkpt>
      <trkpt lat="45.075960" lon="6.051560">
        <ele>1281.565</ele>
        <time>2026-07-16T11:31:51.682Z</time>
      </trkpt>
      <trkpt lat="45.075430" lon="6.051940">
        <ele>1285.721</ele>
        <time>2026-07-16T11:32:11.682Z</time>
      </trkpt>
      <trkpt lat="45.075220" lon="6.052070">
        <ele>1286.441</ele>
        <time>2026-07-16T11:32:31.682Z</time>
      </trkpt>
      <trkpt lat="45.075050" lon="6.052170">
        <ele>1287.805</ele>
        <time>2026-07-16T11:32:51.682Z</time>
      </trkpt>
      <trkpt lat="45.074860" lon="6.052200">
        <ele>1283.909</ele>
        <time>2026-07-16T11:33:11.682Z</time>
      </trkpt>
      <trkpt lat="45.074820" lon="6.052230">
        <ele>1284.774</ele>
        <time>2026-07-16T11:33:31.682Z</time>
      </trkpt>
      <trkpt lat="45.074760" lon="6.052330">
        <ele>1289.418</ele>
        <time>2026-07-16T11:33:51.682Z</time>
      </trkpt>
      <trkpt lat="45.074770" lon="6.052440">
        <ele>1297.099</ele>
        <time>2026-07-16T11:34:11.682Z</time>
      </trkpt>
      <trkpt lat="45.074800" lon="6.052480">
        <ele>1300.486</ele>
        <time>2026-07-16T11:34:31.682Z</time>
      </trkpt>
      <trkpt lat="45.074840" lon="6.052510">
        <ele>1303.282</ele>
        <time>2026-07-16T11:34:51.682Z</time>
      </trkpt>
      <trkpt lat="45.074890" lon="6.052490">
        <ele>1303.061</ele>
        <time>2026-07-16T11:35:11.682Z</time>
      </trkpt>
      <trkpt lat="45.075060" lon="6.052320">
        <ele>1297.338</ele>
        <time>2026-07-16T11:35:31.682Z</time>
      </trkpt>
      <trkpt lat="45.075220" lon="6.052210">
        <ele>1294.871</ele>
        <time>2026-07-16T11:35:51.682Z</time>
      </trkpt>
      <trkpt lat="45.075850" lon="6.051950">
        <ele>1299.861</ele>
        <time>2026-07-16T11:36:11.682Z</time>
      </trkpt>
      <trkpt lat="45.076200" lon="6.051890">
        <ele>1305.265</ele>
        <time>2026-07-16T11:36:31.682Z</time>
      </trkpt>
      <trkpt lat="45.076380" lon="6.051830">
        <ele>1306.468</ele>
        <time>2026-07-16T11:36:51.682Z</time>
      </trkpt>
      <trkpt lat="45.076630" lon="6.051740">
        <ele>1310.214</ele>
        <time>2026-07-16T11:37:11.682Z</time>
      </trkpt>
      <trkpt lat="45.076780" lon="6.051650">
        <ele>1313.609</ele>
        <time>2026-07-16T11:37:31.682Z</time>
      </trkpt>
      <trkpt lat="45.076970" lon="6.051420">
        <ele>1317.418</ele>
        <time>2026-07-16T11:37:51.682Z</time>
      </trkpt>
      <trkpt lat="45.077110" lon="6.051190">
        <ele>1320.232</ele>
        <time>2026-07-16T11:38:11.682Z</time>
      </trkpt>
      <trkpt lat="45.077240" lon="6.050860">
        <ele>1320.763</ele>
        <time>2026-07-16T11:38:31.682Z</time>
      </trkpt>
      <trkpt lat="45.077720" lon="6.050110">
        <ele>1328.010</ele>
        <time>2026-07-16T11:38:51.682Z</time>
      </trkpt>
      <trkpt lat="45.077980" lon="6.049620">
        <ele>1337.646</ele>
        <time>2026-07-16T11:39:11.682Z</time>
      </trkpt>
      <trkpt lat="45.078050" lon="6.049420">
        <ele>1340.885</ele>
        <time>2026-07-16T11:39:31.682Z</time>
      </trkpt>
      <trkpt lat="45.078040" lon="6.049230">
        <ele>1341.012</ele>
        <time>2026-07-16T11:39:51.682Z</time>
      </trkpt>
      <trkpt lat="45.077960" lon="6.049030">
        <ele>1339.235</ele>
        <time>2026-07-16T11:40:11.682Z</time>
      </trkpt>
      <trkpt lat="45.077930" lon="6.048910">
        <ele>1339.055</ele>
        <time>2026-07-16T11:40:31.682Z</time>
      </trkpt>
      <trkpt lat="45.077940" lon="6.048440">
        <ele>1345.379</ele>
        <time>2026-07-16T11:40:51.682Z</time>
      </trkpt>
      <trkpt lat="45.077890" lon="6.048210">
        <ele>1344.605</ele>
        <time>2026-07-16T11:41:11.682Z</time>
      </trkpt>
      <trkpt lat="45.077800" lon="6.047900">
        <ele>1340.425</ele>
        <time>2026-07-16T11:41:31.682Z</time>
      </trkpt>
      <trkpt lat="45.077820" lon="6.047820">
        <ele>1342.409</ele>
        <time>2026-07-16T11:41:51.682Z</time>
      </trkpt>
      <trkpt lat="45.077890" lon="6.047790">
        <ele>1348.619</ele>
        <time>2026-07-16T11:42:11.682Z</time>
      </trkpt>
      <trkpt lat="45.077920" lon="6.047800">
        <ele>1351.143</ele>
        <time>2026-07-16T11:42:31.682Z</time>
      </trkpt>
      <trkpt lat="45.077970" lon="6.047890">
        <ele>1354.444</ele>
        <time>2026-07-16T11:42:51.682Z</time>
      </trkpt>
      <trkpt lat="45.078040" lon="6.048300">
        <ele>1354.441</ele>
        <time>2026-07-16T11:43:11.682Z</time>
      </trkpt>
      <trkpt lat="45.078100" lon="6.048500">
        <ele>1355.787</ele>
        <time>2026-07-16T11:43:31.682Z</time>
      </trkpt>
      <trkpt lat="45.078230" lon="6.048830">
        <ele>1357.466</ele>
        <time>2026-07-16T11:43:51.682Z</time>
      </trkpt>
      <trkpt lat="45.078370" lon="6.049110">
        <ele>1359.253</ele>
        <time>2026-07-16T11:44:11.682Z</time>
      </trkpt>
      <trkpt lat="45.078420" lon="6.049250">
        <ele>1360.426</ele>
        <time>2026-07-16T11:44:31.682Z</time>
      </trkpt>
      <trkpt lat="45.078420" lon="6.049800">
        <ele>1364.556</ele>
        <time>2026-07-16T11:44:51.682Z</time>
      </trkpt>
      <trkpt lat="45.078400" lon="6.050050">
        <ele>1368.256</ele>
        <time>2026-07-16T11:45:11.682Z</time>
      </trkpt>
      <trkpt lat="45.078360" lon="6.050190">
        <ele>1368.159</ele>
        <time>2026-07-16T11:45:31.682Z</time>
      </trkpt>
      <trkpt lat="45.077830" lon="6.051700">
        <ele>1376.514</ele>
        <time>2026-07-16T11:45:51.682Z</time>
      </trkpt>
      <trkpt lat="45.077700" lon="6.052230">
        <ele>1384.309</ele>
        <time>2026-07-16T11:46:11.682Z</time>
      </trkpt>
      <trkpt lat="45.077660" lon="6.052350">
        <ele>1386.027</ele>
        <time>2026-07-16T11:46:31.682Z</time>
      </trkpt>
      <trkpt lat="45.077460" lon="6.052730">
        <ele>1385.471</ele>
        <time>2026-07-16T11:46:51.682Z</time>
      </trkpt>
      <trkpt lat="45.077370" lon="6.052850">
        <ele>1385.072</ele>
        <time>2026-07-16T11:47:11.682Z</time>
      </trkpt>
      <trkpt lat="45.077080" lon="6.053170">
        <ele>1382.939</ele>
        <time>2026-07-16T11:47:31.682Z</time>
      </trkpt>
      <trkpt lat="45.077050" lon="6.053270">
        <ele>1383.545</ele>
        <time>2026-07-16T11:47:51.682Z</time>
      </trkpt>
      <trkpt lat="45.077070" lon="6.053380">
        <ele>1384.144</ele>
        <time>2026-07-16T11:48:11.682Z</time>
      </trkpt>
      <trkpt lat="45.077110" lon="6.053460">
        <ele>1383.721</ele>
        <time>2026-07-16T11:48:31.682Z</time>
      </trkpt>
      <trkpt lat="45.077160" lon="6.053510">
        <ele>1383.874</ele>
        <time>2026-07-16T11:48:51.682Z</time>
      </trkpt>
      <trkpt lat="45.077600" lon="6.053620">
        <ele>1392.454</ele>
        <time>2026-07-16T11:49:11.682Z</time>
      </trkpt>
      <trkpt lat="45.077740" lon="6.053700">
        <ele>1395.472</ele>
        <time>2026-07-16T11:49:31.682Z</time>
      </trkpt>
      <trkpt lat="45.078100" lon="6.054030">
        <ele>1401.413</ele>
        <time>2026-07-16T11:49:51.682Z</time>
      </trkpt>
      <trkpt lat="45.079170" lon="6.054660">
        <ele>1412.014</ele>
        <time>2026-07-16T11:50:11.682Z</time>
      </trkpt>
      <trkpt lat="45.079360" lon="6.054690">
        <ele>1412.509</ele>
        <time>2026-07-16T11:50:31.682Z</time>
      </trkpt>
      <trkpt lat="45.079590" lon="6.054630">
        <ele>1417.189</ele>
        <time>2026-07-16T11:50:51.682Z</time>
      </trkpt>
      <trkpt lat="45.079740" lon="6.054620">
        <ele>1419.463</ele>
        <time>2026-07-16T11:51:11.682Z</time>
      </trkpt>
      <trkpt lat="45.080400" lon="6.054790">
        <ele>1425.094</ele>
        <time>2026-07-16T11:51:31.682Z</time>
      </trkpt>
      <trkpt lat="45.080610" lon="6.054870">
        <ele>1426.781</ele>
        <time>2026-07-16T11:51:51.682Z</time>
      </trkpt>
      <trkpt lat="45.080680" lon="6.054930">
        <ele>1428.187</ele>
        <time>2026-07-16T11:52:11.682Z</time>
      </trkpt>
      <trkpt lat="45.080770" lon="6.055090">
        <ele>1428.946</ele>
        <time>2026-07-16T11:52:31.682Z</time>
      </trkpt>
      <trkpt lat="45.080810" lon="6.055240">
        <ele>1427.853</ele>
        <time>2026-07-16T11:52:51.682Z</time>
      </trkpt>
      <trkpt lat="45.080810" lon="6.055370">
        <ele>1427.756</ele>
        <time>2026-07-16T11:53:11.682Z</time>
      </trkpt>
      <trkpt lat="45.080760" lon="6.055500">
        <ele>1427.486</ele>
        <time>2026-07-16T11:53:31.682Z</time>
      </trkpt>
      <trkpt lat="45.080720" lon="6.055540">
        <ele>1427.261</ele>
        <time>2026-07-16T11:53:51.682Z</time>
      </trkpt>
      <trkpt lat="45.080390" lon="6.055680">
        <ele>1428.221</ele>
        <time>2026-07-16T11:54:11.682Z</time>
      </trkpt>
      <trkpt lat="45.080240" lon="6.055790">
        <ele>1429.913</ele>
        <time>2026-07-16T11:54:31.682Z</time>
      </trkpt>
      <trkpt lat="45.080190" lon="6.055870">
        <ele>1431.209</ele>
        <time>2026-07-16T11:54:51.682Z</time>
      </trkpt>
      <trkpt lat="45.080120" lon="6.056070">
        <ele>1433.758</ele>
        <time>2026-07-16T11:55:11.682Z</time>
      </trkpt>
      <trkpt lat="45.080090" lon="6.056230">
        <ele>1434.962</ele>
        <time>2026-07-16T11:55:31.682Z</time>
      </trkpt>
      <trkpt lat="45.080040" lon="6.056610">
        <ele>1434.563</ele>
        <time>2026-07-16T11:55:51.682Z</time>
      </trkpt>
      <trkpt lat="45.080040" lon="6.056790">
        <ele>1433.170</ele>
        <time>2026-07-16T11:56:11.682Z</time>
      </trkpt>
      <trkpt lat="45.080070" lon="6.056890">
        <ele>1433.326</ele>
        <time>2026-07-16T11:56:31.682Z</time>
      </trkpt>
      <trkpt lat="45.080340" lon="6.057530">
        <ele>1438.155</ele>
        <time>2026-07-16T11:56:51.682Z</time>
      </trkpt>
      <trkpt lat="45.080620" lon="6.058280">
        <ele>1442.592</ele>
        <time>2026-07-16T11:57:11.682Z</time>
      </trkpt>
      <trkpt lat="45.080790" lon="6.058680">
        <ele>1444.175</ele>
        <time>2026-07-16T11:57:31.682Z</time>
      </trkpt>
      <trkpt lat="45.081070" lon="6.059080">
        <ele>1450.215</ele>
        <time>2026-07-16T11:57:51.682Z</time>
      </trkpt>
      <trkpt lat="45.081120" lon="6.059190">
        <ele>1451.333</ele>
        <time>2026-07-16T11:58:11.682Z</time>
      </trkpt>
      <trkpt lat="45.081270" lon="6.059660">
        <ele>1455.823</ele>
        <time>2026-07-16T11:58:31.682Z</time>
      </trkpt>
      <trkpt lat="45.081340" lon="6.059790">
        <ele>1458.215</ele>
        <time>2026-07-16T11:58:51.682Z</time>
      </trkpt>
      <trkpt lat="45.081410" lon="6.059880">
        <ele>1460.609</ele>
        <time>2026-07-16T11:59:11.682Z</time>
      </trkpt>
      <trkpt lat="45.081500" lon="6.060050">
        <ele>1463.235</ele>
        <time>2026-07-16T11:59:31.682Z</time>
      </trkpt>
      <trkpt lat="45.081800" lon="6.061070">
        <ele>1471.129</ele>
        <time>2026-07-16T11:59:51.682Z</time>
      </trkpt>
      <trkpt lat="45.082000" lon="6.061860">
        <ele>1472.240</ele>
        <time>2026-07-16T12:00:11.682Z</time>
      </trkpt>
      <trkpt lat="45.082120" lon="6.062210">
        <ele>1473.927</ele>
        <time>2026-07-16T12:00:31.682Z</time>
      </trkpt>
      <trkpt lat="45.082170" lon="6.062290">
        <ele>1475.643</ele>
        <time>2026-07-16T12:00:51.682Z</time>
      </trkpt>
      <trkpt lat="45.082200" lon="6.062320">
        <ele>1477.282</ele>
        <time>2026-07-16T12:01:11.682Z</time>
      </trkpt>
      <trkpt lat="45.082270" lon="6.062320">
        <ele>1482.099</ele>
        <time>2026-07-16T12:01:31.682Z</time>
      </trkpt>
      <trkpt lat="45.082340" lon="6.062240">
        <ele>1488.312</ele>
        <time>2026-07-16T12:01:51.682Z</time>
      </trkpt>
      <trkpt lat="45.082340" lon="6.062200">
        <ele>1489.092</ele>
        <time>2026-07-16T12:02:11.682Z</time>
      </trkpt>
      <trkpt lat="45.082310" lon="6.062080">
        <ele>1488.982</ele>
        <time>2026-07-16T12:02:31.682Z</time>
      </trkpt>
      <trkpt lat="45.082130" lon="6.061750">
        <ele>1482.343</ele>
        <time>2026-07-16T12:02:51.682Z</time>
      </trkpt>
      <trkpt lat="45.082080" lon="6.061530">
        <ele>1482.017</ele>
        <time>2026-07-16T12:03:11.682Z</time>
      </trkpt>
      <trkpt lat="45.082090" lon="6.061260">
        <ele>1485.109</ele>
        <time>2026-07-16T12:03:31.682Z</time>
      </trkpt>
      <trkpt lat="45.082190" lon="6.059750">
        <ele>1495.590</ele>
        <time>2026-07-16T12:03:51.682Z</time>
      </trkpt>
      <trkpt lat="45.082240" lon="6.058210">
        <ele>1498.064</ele>
        <time>2026-07-16T12:04:11.682Z</time>
      </trkpt>
      <trkpt lat="45.082250" lon="6.058090">
        <ele>1497.865</ele>
        <time>2026-07-16T12:04:31.682Z</time>
      </trkpt>
      <trkpt lat="45.082310" lon="6.057890">
        <ele>1497.422</ele>
        <time>2026-07-16T12:04:51.682Z</time>
      </trkpt>
      <trkpt lat="45.082390" lon="6.057760">
        <ele>1498.098</ele>
        <time>2026-07-16T12:05:11.682Z</time>
      </trkpt>
      <trkpt lat="45.082500" lon="6.057670">
        <ele>1499.867</ele>
        <time>2026-07-16T12:05:31.682Z</time>
      </trkpt>
      <trkpt lat="45.082590" lon="6.057620">
        <ele>1500.684</ele>
        <time>2026-07-16T12:05:51.682Z</time>
      </trkpt>
      <trkpt lat="45.083180" lon="6.057580">
        <ele>1506.227</ele>
        <time>2026-07-16T12:06:11.682Z</time>
      </trkpt>
      <trkpt lat="45.083580" lon="6.057480">
        <ele>1507.437</ele>
        <time>2026-07-16T12:06:31.682Z</time>
      </trkpt>
      <trkpt lat="45.083630" lon="6.057490">
        <ele>1507.984</ele>
        <time>2026-07-16T12:06:51.682Z</time>
      </trkpt>
      <trkpt lat="45.083670" lon="6.057530">
        <ele>1509.007</ele>
        <time>2026-07-16T12:07:11.682Z</time>
      </trkpt>
      <trkpt lat="45.083670" lon="6.057630">
        <ele>1510.917</ele>
        <time>2026-07-16T12:07:31.682Z</time>
      </trkpt>
      <trkpt lat="45.083630" lon="6.057700">
        <ele>1511.809</ele>
        <time>2026-07-16T12:07:51.682Z</time>
      </trkpt>
      <trkpt lat="45.083390" lon="6.057910">
        <ele>1513.870</ele>
        <time>2026-07-16T12:08:11.682Z</time>
      </trkpt>
      <trkpt lat="45.083210" lon="6.058180">
        <ele>1516.534</ele>
        <time>2026-07-16T12:08:31.682Z</time>
      </trkpt>
      <trkpt lat="45.083100" lon="6.058470">
        <ele>1519.455</ele>
        <time>2026-07-16T12:08:51.682Z</time>
      </trkpt>
      <trkpt lat="45.083010" lon="6.058840">
        <ele>1522.592</ele>
        <time>2026-07-16T12:09:11.682Z</time>
      </trkpt>
      <trkpt lat="45.083010" lon="6.059310">
        <ele>1526.668</ele>
        <time>2026-07-16T12:09:31.682Z</time>
      </trkpt>
      <trkpt lat="45.083020" lon="6.059690">
        <ele>1529.677</ele>
        <time>2026-07-16T12:09:51.682Z</time>
      </trkpt>
      <trkpt lat="45.083080" lon="6.060150">
        <ele>1533.524</ele>
        <time>2026-07-16T12:10:11.682Z</time>
      </trkpt>
      <trkpt lat="45.083450" lon="6.061930">
        <ele>1547.977</ele>
        <time>2026-07-16T12:10:31.682Z</time>
      </trkpt>
      <trkpt lat="45.083480" lon="6.062140">
        <ele>1548.417</ele>
        <time>2026-07-16T12:10:51.682Z</time>
      </trkpt>
      <trkpt lat="45.083480" lon="6.062470">
        <ele>1547.095</ele>
        <time>2026-07-16T12:11:11.682Z</time>
      </trkpt>
      <trkpt lat="45.083490" lon="6.062560">
        <ele>1547.249</ele>
        <time>2026-07-16T12:11:31.682Z</time>
      </trkpt>
      <trkpt lat="45.083540" lon="6.062630">
        <ele>1549.623</ele>
        <time>2026-07-16T12:11:51.682Z</time>
      </trkpt>
      <trkpt lat="45.083590" lon="6.062630">
        <ele>1552.409</ele>
        <time>2026-07-16T12:12:11.682Z</time>
      </trkpt>
      <trkpt lat="45.083630" lon="6.062580">
        <ele>1554.961</ele>
        <time>2026-07-16T12:12:31.682Z</time>
      </trkpt>
      <trkpt lat="45.083650" lon="6.062500">
        <ele>1556.515</ele>
        <time>2026-07-16T12:12:51.682Z</time>
      </trkpt>
      <trkpt lat="45.083600" lon="6.062160">
        <ele>1554.626</ele>
        <time>2026-07-16T12:13:11.682Z</time>
      </trkpt>
      <trkpt lat="45.083580" lon="6.061860">
        <ele>1554.553</ele>
        <time>2026-07-16T12:13:31.682Z</time>
      </trkpt>
      <trkpt lat="45.083580" lon="6.061600">
        <ele>1554.929</ele>
        <time>2026-07-16T12:13:51.682Z</time>
      </trkpt>
      <trkpt lat="45.083600" lon="6.061460">
        <ele>1556.328</ele>
        <time>2026-07-16T12:14:11.682Z</time>
      </trkpt>
      <trkpt lat="45.083770" lon="6.061010">
        <ele>1562.445</ele>
        <time>2026-07-16T12:14:31.682Z</time>
      </trkpt>
      <trkpt lat="45.083900" lon="6.060690">
        <ele>1563.248</ele>
        <time>2026-07-16T12:14:51.682Z</time>
      </trkpt>
      <trkpt lat="45.084020" lon="6.060480">
        <ele>1563.798</ele>
        <time>2026-07-16T12:15:11.682Z</time>
      </trkpt>
      <trkpt lat="45.084140" lon="6.060360">
        <ele>1564.572</ele>
        <time>2026-07-16T12:15:31.682Z</time>
      </trkpt>
      <trkpt lat="45.084350" lon="6.060240">
        <ele>1565.413</ele>
        <time>2026-07-16T12:15:51.682Z</time>
      </trkpt>
      <trkpt lat="45.085050" lon="6.060020">
        <ele>1573.214</ele>
        <time>2026-07-16T12:16:11.682Z</time>
      </trkpt>
      <trkpt lat="45.085140" lon="6.060020">
        <ele>1574.609</ele>
        <time>2026-07-16T12:16:31.682Z</time>
      </trkpt>
      <trkpt lat="45.085280" lon="6.059970">
        <ele>1575.589</ele>
        <time>2026-07-16T12:16:51.682Z</time>
      </trkpt>
      <trkpt lat="45.085530" lon="6.059820">
        <ele>1580.723</ele>
        <time>2026-07-16T12:17:11.682Z</time>
      </trkpt>
      <trkpt lat="45.085770" lon="6.059620">
        <ele>1585.574</ele>
        <time>2026-07-16T12:17:31.682Z</time>
      </trkpt>
      <trkpt lat="45.086430" lon="6.058920">
        <ele>1592.131</ele>
        <time>2026-07-16T12:17:51.682Z</time>
      </trkpt>
      <trkpt lat="45.086610" lon="6.058750">
        <ele>1594.297</ele>
        <time>2026-07-16T12:18:11.682Z</time>
      </trkpt>
      <trkpt lat="45.086890" lon="6.058520">
        <ele>1599.226</ele>
        <time>2026-07-16T12:18:31.682Z</time>
      </trkpt>
      <trkpt lat="45.087480" lon="6.058100">
        <ele>1607.063</ele>
        <time>2026-07-16T12:18:51.682Z</time>
      </trkpt>
      <trkpt lat="45.087590" lon="6.057930">
        <ele>1608.036</ele>
        <time>2026-07-16T12:19:11.682Z</time>
      </trkpt>
      <trkpt lat="45.087730" lon="6.057760">
        <ele>1609.856</ele>
        <time>2026-07-16T12:19:31.682Z</time>
      </trkpt>
      <trkpt lat="45.088170" lon="6.057030">
        <ele>1613.536</ele>
        <time>2026-07-16T12:19:51.682Z</time>
      </trkpt>
      <trkpt lat="45.088260" lon="6.056860">
        <ele>1614.817</ele>
        <time>2026-07-16T12:20:11.682Z</time>
      </trkpt>
      <trkpt lat="45.088330" lon="6.056650">
        <ele>1616.218</ele>
        <time>2026-07-16T12:20:31.682Z</time>
      </trkpt>
      <trkpt lat="45.088340" lon="6.056490">
        <ele>1619.309</ele>
        <time>2026-07-16T12:20:51.682Z</time>
      </trkpt>
      <trkpt lat="45.088320" lon="6.056330">
        <ele>1621.935</ele>
        <time>2026-07-16T12:21:11.682Z</time>
      </trkpt>
      <trkpt lat="45.088220" lon="6.056120">
        <ele>1624.019</ele>
        <time>2026-07-16T12:21:31.682Z</time>
      </trkpt>
      <trkpt lat="45.088120" lon="6.055970">
        <ele>1625.250</ele>
        <time>2026-07-16T12:21:51.682Z</time>
      </trkpt>
      <trkpt lat="45.088100" lon="6.055890">
        <ele>1626.777</ele>
        <time>2026-07-16T12:22:11.682Z</time>
      </trkpt>
      <trkpt lat="45.088120" lon="6.055830">
        <ele>1628.783</ele>
        <time>2026-07-16T12:22:31.682Z</time>
      </trkpt>
      <trkpt lat="45.088160" lon="6.055820">
        <ele>1630.092</ele>
        <time>2026-07-16T12:22:51.682Z</time>
      </trkpt>
      <trkpt lat="45.088210" lon="6.055840">
        <ele>1630.759</ele>
        <time>2026-07-16T12:23:11.682Z</time>
      </trkpt>
      <trkpt lat="45.088360" lon="6.055980">
        <ele>1631.162</ele>
        <time>2026-07-16T12:23:31.682Z</time>
      </trkpt>
      <trkpt lat="45.088890" lon="6.056340">
        <ele>1636.492</ele>
        <time>2026-07-16T12:23:51.682Z</time>
      </trkpt>
      <trkpt lat="45.088990" lon="6.056470">
        <ele>1636.621</ele>
        <time>2026-07-16T12:24:11.682Z</time>
      </trkpt>
      <trkpt lat="45.089040" lon="6.056650">
        <ele>1635.241</ele>
        <time>2026-07-16T12:24:31.682Z</time>
      </trkpt>
      <trkpt lat="45.089120" lon="6.057090">
        <ele>1637.305</ele>
        <time>2026-07-16T12:24:51.682Z</time>
      </trkpt>
      <trkpt lat="45.089150" lon="6.057550">
        <ele>1640.909</ele>
        <time>2026-07-16T12:25:11.682Z</time>
      </trkpt>
      <trkpt lat="45.089150" lon="6.058070">
        <ele>1645.684</ele>
        <time>2026-07-16T12:25:31.682Z</time>
      </trkpt>
      <trkpt lat="45.089110" lon="6.058470">
        <ele>1647.968</ele>
        <time>2026-07-16T12:25:51.682Z</time>
      </trkpt>
      <trkpt lat="45.088850" lon="6.059870">
        <ele>1658.539</ele>
        <time>2026-07-16T12:26:11.682Z</time>
      </trkpt>
      <trkpt lat="45.088810" lon="6.060000">
        <ele>1659.676</ele>
        <time>2026-07-16T12:26:31.682Z</time>
      </trkpt>
      <trkpt lat="45.088680" lon="6.060330">
        <ele>1661.552</ele>
        <time>2026-07-16T12:26:51.682Z</time>
      </trkpt>
      <trkpt lat="45.088670" lon="6.060420">
        <ele>1662.681</ele>
        <time>2026-07-16T12:27:11.682Z</time>
      </trkpt>
      <trkpt lat="45.088680" lon="6.060450">
        <ele>1663.478</ele>
        <time>2026-07-16T12:27:31.682Z</time>
      </trkpt>
      <trkpt lat="45.088750" lon="6.060470">
        <ele>1665.681</ele>
        <time>2026-07-16T12:27:51.682Z</time>
      </trkpt>
      <trkpt lat="45.088920" lon="6.060240">
        <ele>1666.291</ele>
        <time>2026-07-16T12:28:11.682Z</time>
      </trkpt>
      <trkpt lat="45.089480" lon="6.059730">
        <ele>1674.099</ele>
        <time>2026-07-16T12:28:31.682Z</time>
      </trkpt>
      <trkpt lat="45.089660" lon="6.059540">
        <ele>1675.807</ele>
        <time>2026-07-16T12:28:51.682Z</time>
      </trkpt>
      <trkpt lat="45.089980" lon="6.059120">
        <ele>1678.027</ele>
        <time>2026-07-16T12:29:11.682Z</time>
      </trkpt>
      <trkpt lat="45.090520" lon="6.058340">
        <ele>1687.809</ele>
        <time>2026-07-16T12:29:31.682Z</time>
      </trkpt>
      <trkpt lat="45.090760" lon="6.057940">
        <ele>1690.391</ele>
        <time>2026-07-16T12:29:51.682Z</time>
      </trkpt>
      <trkpt lat="45.091210" lon="6.057080">
        <ele>1700.585</ele>
        <time>2026-07-16T12:30:11.682Z</time>
      </trkpt>
      <trkpt lat="45.091350" lon="6.056590">
        <ele>1703.336</ele>
        <time>2026-07-16T12:30:31.682Z</time>
      </trkpt>
      <trkpt lat="45.091380" lon="6.056470">
        <ele>1704.043</ele>
        <time>2026-07-16T12:30:51.682Z</time>
      </trkpt>
      <trkpt lat="45.091400" lon="6.056330">
        <ele>1704.829</ele>
        <time>2026-07-16T12:31:11.682Z</time>
      </trkpt>
      <trkpt lat="45.091400" lon="6.056040">
        <ele>1706.168</ele>
        <time>2026-07-16T12:31:31.682Z</time>
      </trkpt>
      <trkpt lat="45.091380" lon="6.055760">
        <ele>1707.585</ele>
        <time>2026-07-16T12:31:51.682Z</time>
      </trkpt>
      <trkpt lat="45.091350" lon="6.055490">
        <ele>1709.368</ele>
        <time>2026-07-16T12:32:11.682Z</time>
      </trkpt>
      <trkpt lat="45.091370" lon="6.055380">
        <ele>1710.728</ele>
        <time>2026-07-16T12:32:31.682Z</time>
      </trkpt>
      <trkpt lat="45.091390" lon="6.055350">
        <ele>1711.541</ele>
        <time>2026-07-16T12:32:51.682Z</time>
      </trkpt>
      <trkpt lat="45.091470" lon="6.055350">
        <ele>1715.381</ele>
        <time>2026-07-16T12:33:11.682Z</time>
      </trkpt>
      <trkpt lat="45.091510" lon="6.055380">
        <ele>1716.909</ele>
        <time>2026-07-16T12:33:31.682Z</time>
      </trkpt>
      <trkpt lat="45.091550" lon="6.055440">
        <ele>1718.409</ele>
        <time>2026-07-16T12:33:51.682Z</time>
      </trkpt>
      <trkpt lat="45.091560" lon="6.055530">
        <ele>1718.226</ele>
        <time>2026-07-16T12:34:11.682Z</time>
      </trkpt>
      <trkpt lat="45.091590" lon="6.055960">
        <ele>1716.650</ele>
        <time>2026-07-16T12:34:31.682Z</time>
      </trkpt>
      <trkpt lat="45.091800" lon="6.056830">
        <ele>1721.581</ele>
        <time>2026-07-16T12:34:51.682Z</time>
      </trkpt>
      <trkpt lat="45.091820" lon="6.057010">
        <ele>1722.258</ele>
        <time>2026-07-16T12:35:11.682Z</time>
      </trkpt>
      <trkpt lat="45.091840" lon="6.057280">
        <ele>1724.034</ele>
        <time>2026-07-16T12:35:31.682Z</time>
      </trkpt>
      <trkpt lat="45.091740" lon="6.058870">
        <ele>1735.423</ele>
        <time>2026-07-16T12:35:51.682Z</time>
      </trkpt>
      <trkpt lat="45.091630" lon="6.059440">
        <ele>1739.360</ele>
        <time>2026-07-16T12:36:11.682Z</time>
      </trkpt>
      <trkpt lat="45.091220" lon="6.061350">
        <ele>1751.933</ele>
        <time>2026-07-16T12:36:31.682Z</time>
      </trkpt>
      <trkpt lat="45.091030" lon="6.061900">
        <ele>1757.553</ele>
        <time>2026-07-16T12:36:51.682Z</time>
      </trkpt>
      <trkpt lat="45.090840" lon="6.062660">
        <ele>1764.332</ele>
        <time>2026-07-16T12:37:11.682Z</time>
      </trkpt>
      <trkpt lat="45.090750" lon="6.063110">
        <ele>1766.692</ele>
        <time>2026-07-16T12:37:31.682Z</time>
      </trkpt>
      <trkpt lat="45.090720" lon="6.063640">
        <ele>1769.711</ele>
        <time>2026-07-16T12:37:51.682Z</time>
      </trkpt>
      <trkpt lat="45.090660" lon="6.063950">
        <ele>1770.009</ele>
        <time>2026-07-16T12:38:11.682Z</time>
      </trkpt>
      <trkpt lat="45.090640" lon="6.063950">
        <ele>1769.545</ele>
        <time>2026-07-16T12:38:31.682Z</time>
      </trkpt>
      <trkpt lat="45.090510" lon="6.064330">
        <ele>1769.429</ele>
        <time>2026-07-16T12:38:51.682Z</time>
      </trkpt>
      <trkpt lat="45.090440" lon="6.064870">
        <ele>1772.250</ele>
        <time>2026-07-16T12:39:11.682Z</time>
      </trkpt>
      <trkpt lat="45.090440" lon="6.065230">
        <ele>1775.327</ele>
        <time>2026-07-16T12:39:31.682Z</time>
      </trkpt>
      <trkpt lat="45.090480" lon="6.065360">
        <ele>1776.943</ele>
        <time>2026-07-16T12:39:51.682Z</time>
      </trkpt>
      <trkpt lat="45.090570" lon="6.065440">
        <ele>1778.252</ele>
        <time>2026-07-16T12:40:11.682Z</time>
      </trkpt>
      <trkpt lat="45.090680" lon="6.065490">
        <ele>1778.649</ele>
        <time>2026-07-16T12:40:31.682Z</time>
      </trkpt>
      <trkpt lat="45.090810" lon="6.065480">
        <ele>1778.772</ele>
        <time>2026-07-16T12:40:51.682Z</time>
      </trkpt>
      <trkpt lat="45.090880" lon="6.065460">
        <ele>1779.122</ele>
        <time>2026-07-16T12:41:11.682Z</time>
      </trkpt>
      <trkpt lat="45.090920" lon="6.065420">
        <ele>1779.386</ele>
        <time>2026-07-16T12:41:31.682Z</time>
      </trkpt>
      <trkpt lat="45.090980" lon="6.065330">
        <ele>1779.360</ele>
        <time>2026-07-16T12:41:51.682Z</time>
      </trkpt>
      <trkpt lat="45.091000" lon="6.065220">
        <ele>1779.226</ele>
        <time>2026-07-16T12:42:11.682Z</time>
      </trkpt>
      <trkpt lat="45.091000" lon="6.065070">
        <ele>1779.209</ele>
        <time>2026-07-16T12:42:31.682Z</time>
      </trkpt>
      <trkpt lat="45.091010" lon="6.064710">
        <ele>1778.930</ele>
        <time>2026-07-16T12:42:51.682Z</time>
      </trkpt>
      <trkpt lat="45.091090" lon="6.064350">
        <ele>1779.754</ele>
        <time>2026-07-16T12:43:11.682Z</time>
      </trkpt>
      <trkpt lat="45.091250" lon="6.063920">
        <ele>1781.695</ele>
        <time>2026-07-16T12:43:31.682Z</time>
      </trkpt>
      <trkpt lat="45.091570" lon="6.063490">
        <ele>1785.292</ele>
        <time>2026-07-16T12:43:51.682Z</time>
      </trkpt>
      <trkpt lat="45.091800" lon="6.063030">
        <ele>1787.618</ele>
        <time>2026-07-16T12:44:11.682Z</time>
      </trkpt>
      <trkpt lat="45.092080" lon="6.062480">
        <ele>1789.757</ele>
        <time>2026-07-16T12:44:31.682Z</time>
      </trkpt>
      <trkpt lat="45.092480" lon="6.061950">
        <ele>1794.564</ele>
        <time>2026-07-16T12:44:51.682Z</time>
      </trkpt>
      <trkpt lat="45.092620" lon="6.061610">
        <ele>1795.597</ele>
        <time>2026-07-16T12:45:11.682Z</time>
      </trkpt>
      <trkpt lat="45.092690" lon="6.061260">
        <ele>1794.887</ele>
        <time>2026-07-16T12:45:31.682Z</time>
      </trkpt>
      <trkpt lat="45.092730" lon="6.061190">
        <ele>1795.336</ele>
        <time>2026-07-16T12:45:51.682Z</time>
      </trkpt>
      <trkpt lat="45.092800" lon="6.061210">
        <ele>1797.917</ele>
        <time>2026-07-16T12:46:11.682Z</time>
      </trkpt>
      <trkpt lat="45.092830" lon="6.061290">
        <ele>1799.918</ele>
        <time>2026-07-16T12:46:31.682Z</time>
      </trkpt>
      <trkpt lat="45.092820" lon="6.061360">
        <ele>1800.209</ele>
        <time>2026-07-16T12:46:51.682Z</time>
      </trkpt>
      <trkpt lat="45.092770" lon="6.061530">
        <ele>1799.865</ele>
        <time>2026-07-16T12:47:11.682Z</time>
      </trkpt>
      <trkpt lat="45.092720" lon="6.061760">
        <ele>1800.189</ele>
        <time>2026-07-16T12:47:31.682Z</time>
      </trkpt>
      <trkpt lat="45.092610" lon="6.063000">
        <ele>1807.370</ele>
        <time>2026-07-16T12:47:51.682Z</time>
      </trkpt>
      <trkpt lat="45.092590" lon="6.063480">
        <ele>1810.367</ele>
        <time>2026-07-16T12:48:11.682Z</time>
      </trkpt>
      <trkpt lat="45.092620" lon="6.064000">
        <ele>1813.483</ele>
        <time>2026-07-16T12:48:31.682Z</time>
      </trkpt>
      <trkpt lat="45.092700" lon="6.064820">
        <ele>1818.152</ele>
        <time>2026-07-16T12:48:51.682Z</time>
      </trkpt>
      <trkpt lat="45.092790" lon="6.065320">
        <ele>1820.479</ele>
        <time>2026-07-16T12:49:11.682Z</time>
      </trkpt>
      <trkpt lat="45.092940" lon="6.065980">
        <ele>1823.792</ele>
        <time>2026-07-16T12:49:31.682Z</time>
      </trkpt>
      <trkpt lat="45.092960" lon="6.066330">
        <ele>1824.072</ele>
        <time>2026-07-16T12:49:51.682Z</time>
      </trkpt>
      <trkpt lat="45.092970" lon="6.066690">
        <ele>1823.445</ele>
        <time>2026-07-16T12:50:11.682Z</time>
      </trkpt>
      <trkpt lat="45.093060" lon="6.067030">
        <ele>1823.847</ele>
        <time>2026-07-16T12:50:31.682Z</time>
      </trkpt>
      <trkpt lat="45.093330" lon="6.067520">
        <ele>1826.911</ele>
        <time>2026-07-16T12:50:51.682Z</time>
      </trkpt>
      <trkpt lat="45.093350" lon="6.067550">
        <ele>1827.109</ele>
        <time>2026-07-16T12:51:11.682Z</time>
      </trkpt>
      <trkpt lat="45.093270" lon="6.067720">
        <ele>1825.136</ele>
        <time>2026-07-16T12:51:31.682Z</time>
      </trkpt>
      <trkpt lat="45.093060" lon="6.068310">
        <ele>1822.090</ele>
        <time>2026-07-16T12:51:51.682Z</time>
      </trkpt>
      <trkpt lat="45.093020" lon="6.068290">
        <ele>1821.581</ele>
        <time>2026-07-16T12:52:11.682Z</time>
      </trkpt>
      <trkpt lat="45.092930" lon="6.068330">
        <ele>1820.688</ele>
        <time>2026-07-16T12:52:31.682Z</time>
      </trkpt>
      <trkpt lat="45.092900" lon="6.068440">
        <ele>1820.594</ele>
        <time>2026-07-16T12:52:51.682Z</time>
      </trkpt>
      <trkpt lat="45.092920" lon="6.068550">
        <ele>1820.973</ele>
        <time>2026-07-16T12:53:11.682Z</time>
      </trkpt>
      <trkpt lat="45.092950" lon="6.068580">
        <ele>1821.280</ele>
        <time>2026-07-16T12:53:31.682Z</time>
      </trkpt>
      <trkpt lat="45.092570" lon="6.069430">
        <ele>1821.583</ele>
        <time>2026-07-16T12:53:51.682Z</time>
      </trkpt>
      <trkpt lat="45.092480" lon="6.069660">
        <ele>1820.943</ele>
        <time>2026-07-16T12:54:11.682Z</time>
      </trkpt>
      <trkpt lat="45.092430" lon="6.069870">
        <ele>1820.754</ele>
        <time>2026-07-16T12:54:31.682Z</time>
      </trkpt>
      <trkpt lat="45.092410" lon="6.070060">
        <ele>1820.656</ele>
        <time>2026-07-16T12:54:51.682Z</time>
      </trkpt>
      <trkpt lat="45.092440" lon="6.070760">
        <ele>1820.611</ele>
        <time>2026-07-16T12:55:11.682Z</time>
      </trkpt>
      <trkpt lat="45.092480" lon="6.071290">
        <ele>1820.909</ele>
        <time>2026-07-16T12:55:31.682Z</time>
      </trkpt>
      <trkpt lat="45.092510" lon="6.071920">
        <ele>1821.047</ele>
        <time>2026-07-16T12:55:51.682Z</time>
      </trkpt>
      <trkpt lat="45.092490" lon="6.071970">
        <ele>1820.991</ele>
        <time>2026-07-16T12:56:11.682Z</time>
      </trkpt>
      <trkpt lat="45.092510" lon="6.072070">
        <ele>1820.612</ele>
        <time>2026-07-16T12:56:31.682Z</time>
      </trkpt>
      <trkpt lat="45.092580" lon="6.072140">
        <ele>1820.639</ele>
        <time>2026-07-16T12:56:51.682Z</time>
      </trkpt>
      <trkpt lat="45.092650" lon="6.072130">
        <ele>1820.915</ele>
        <time>2026-07-16T12:57:11.682Z</time>
      </trkpt>
      <trkpt lat="45.092820" lon="6.071900">
        <ele>1822.654</ele>
        <time>2026-07-16T12:57:31.682Z</time>
      </trkpt>
      <trkpt lat="45.092860" lon="6.071820">
        <ele>1823.341</ele>
        <time>2026-07-16T12:57:51.682Z</time>
      </trkpt>
      <trkpt lat="45.094080" lon="6.071130">
        <ele>1838.274</ele>
        <time>2026-07-16T12:58:11.682Z</time>
      </trkpt>
    </trkseg>
  </trk></gpx>