<?xml version="1.0" encoding="UTF-8"?>
<gpx creator="Wikiloc - https://www.wikiloc.com" version="1.1" xmlns="http://www.topografix.com/GPX/1/1" xmlns:xsi="http://www.w3.org/2001/XMLSchema-instance" xsi:schemaLocation="http://www.topografix.com/GPX/1/1 http://www.topografix.com/GPX/1/1/gpx.xsd">
  <metadata>
    <name>Wikiloc - Alpe D'huez ( Le Bourg d'Oisans )</name>
    <link href="https://www.wikiloc.com/cycling-trails/alpe-dhuez-le-bourg-doisans-200539567">
      <text>Alpe D'huez ( Le Bourg d'Oisans ) - Wikiloc on Wikiloc</text>
    </link>
    <time>2017-09-27T12:19:36Z</time>
  </metadata>
  <trk>
    <name>Alpe D'huez ( Le Bourg d'Oisans ) - Wikiloc</name>
    <cmt></cmt>
    <desc></desc>
    <trkseg>
      <trkpt lat="45.060337" lon="6.037689">
        <ele>716.156</ele>
        <time>2017-09-27T11:18:03Z</time>
      </trkpt>
      <trkpt lat="45.061507" lon="6.037406">
        <ele>717.059</ele>
        <time>2017-09-27T11:18:26Z</time>
      </trkpt>
      <trkpt lat="45.062300" lon="6.037027">
        <ele>717.014</ele>
        <time>2017-09-27T11:18:44Z</time>
      </trkpt>
      <trkpt lat="45.062772" lon="6.037070">
        <ele>718.009</ele>
        <time>2017-09-27T11:18:53Z</time>
      </trkpt>
      <trkpt lat="45.065175" lon="6.040124">
        <ele>724.577</ele>
        <time>2017-09-27T11:19:50Z</time>
      </trkpt>
      <trkpt lat="45.066560" lon="6.039596">
        <ele>725.495</ele>
        <time>2017-09-27T11:20:28Z</time>
      </trkpt>
      <trkpt lat="45.068216" lon="6.039201">
        <ele>740.125</ele>
        <time>2017-09-27T11:21:18Z</time>
      </trkpt>
      <trkpt lat="45.069073" lon="6.039222">
        <ele>757.620</ele>
        <time>2017-09-27T11:21:45Z</time>
      </trkpt>
      <trkpt lat="45.070198" lon="6.038669">
        <ele>771.928</ele>
        <time>2017-09-27T11:22:24Z</time>
      </trkpt>
      <trkpt lat="45.071017" lon="6.038730">
        <ele>783.424</ele>
        <time>2017-09-27T11:22:50Z</time>
      </trkpt>
      <trkpt lat="45.071778" lon="6.039001">
        <ele>792.630</ele>
        <time>2017-09-27T11:23:13Z</time>
      </trkpt>
      <trkpt lat="45.071730" lon="6.039166">
        <ele>802.321</ele>
        <time>2017-09-27T11:23:18Z</time>
      </trkpt>
      <trkpt lat="45.071137" lon="6.039098">
        <ele>802.182</ele>
        <time>2017-09-27T11:23:36Z</time>
      </trkpt>
      <trkpt lat="45.070511" lon="6.039304">
        <ele>814.636</ele>
        <time>2017-09-27T11:23:56Z</time>
      </trkpt>
      <trkpt lat="45.069650" lon="6.040168">
        <ele>825.317</ele>
        <time>2017-09-27T11:24:31Z</time>
      </trkpt>
      <trkpt lat="45.069262" lon="6.040804">
        <ele>840.918</ele>
        <time>2017-09-27T11:24:52Z</time>
      </trkpt>
      <trkpt lat="45.068118" lon="6.041093">
        <ele>850.509</ele>
        <time>2017-09-27T11:25:30Z</time>
      </trkpt>
      <trkpt lat="45.066445" lon="6.041998">
        <ele>871.085</ele>
        <time>2017-09-27T11:26:28Z</time>
      </trkpt>
      <trkpt lat="45.066362" lon="6.042117">
        <ele>875.343</ele>
        <time>2017-09-27T11:26:32Z</time>
      </trkpt>
      <trkpt lat="45.066465" lon="6.042286">
        <ele>885.463</ele>
        <time>2017-09-27T11:26:37Z</time>
      </trkpt>
      <trkpt lat="45.067594" lon="6.041796">
        <ele>881.828</ele>
        <time>2017-09-27T11:27:12Z</time>
      </trkpt>
      <trkpt lat="45.067964" lon="6.041963">
        <ele>893.126</ele>
        <time>2017-09-27T11:27:26Z</time>
      </trkpt>
      <trkpt lat="45.067388" lon="6.041966">
        <ele>889.952</ele>
        <time>2017-09-27T11:27:45Z</time>
      </trkpt>
      <trkpt lat="45.066822" lon="6.042610">
        <ele>907.168</ele>
        <time>2017-09-27T11:28:10Z</time>
      </trkpt>
      <trkpt lat="45.065970" lon="6.043059">
        <ele>908.019</ele>
        <time>2017-09-27T11:28:39Z</time>
      </trkpt>
      <trkpt lat="45.065928" lon="6.043256">
        <ele>908.970</ele>
        <time>2017-09-27T11:28:44Z</time>
      </trkpt>
      <trkpt lat="45.066710" lon="6.043199">
        <ele>935.536</ele>
        <time>2017-09-27T11:29:10Z</time>
      </trkpt>
      <trkpt lat="45.067189" lon="6.042884">
        <ele>933.017</ele>
        <time>2017-09-27T11:29:27Z</time>
      </trkpt>
      <trkpt lat="45.068033" lon="6.042606">
        <ele>933.118</ele>
        <time>2017-09-27T11:29:55Z</time>
      </trkpt>
      <trkpt lat="45.068815" lon="6.042645">
        <ele>941.809</ele>
        <time>2017-09-27T11:30:21Z</time>
      </trkpt>
      <trkpt lat="45.068786" lon="6.042754">
        <ele>949.055</ele>
        <time>2017-09-27T11:30:25Z</time>
      </trkpt>
      <trkpt lat="45.068217" lon="6.042785">
        <ele>948.683</ele>
        <time>2017-09-27T11:30:42Z</time>
      </trkpt>
      <trkpt lat="45.067382" lon="6.043472">
        <ele>968.793</ele>
        <time>2017-09-27T11:31:13Z</time>
      </trkpt>
      <trkpt lat="45.067168" lon="6.043823">
        <ele>978.968</ele>
        <time>2017-09-27T11:31:23Z</time>
      </trkpt>
      <trkpt lat="45.067214" lon="6.044019">
        <ele>981.886</ele>
        <time>2017-09-27T11:31:27Z</time>
      </trkpt>
      <trkpt lat="45.067806" lon="6.044568">
        <ele>984.592</ele>
        <time>2017-09-27T11:31:46Z</time>
      </trkpt>
      <trkpt lat="45.068837" lon="6.044913">
        <ele>989.088</ele>
        <time>2017-09-27T11:32:13Z</time>
      </trkpt>
      <trkpt lat="45.069295" lon="6.045447">
        <ele>989.959</ele>
        <time>2017-09-27T11:32:28Z</time>
      </trkpt>
      <trkpt lat="45.070021" lon="6.045895">
        <ele>999.030</ele>
        <time>2017-09-27T11:32:50Z</time>
      </trkpt>
      <trkpt lat="45.070624" lon="6.046904">
        <ele>1009.576</ele>
        <time>2017-09-27T11:33:16Z</time>
      </trkpt>
      <trkpt lat="45.071931" lon="6.048121">
        <ele>1027.990</ele>
        <time>2017-09-27T11:34:00Z</time>
      </trkpt>
      <trkpt lat="45.071940" lon="6.047869">
        <ele>1037.519</ele>
        <time>2017-09-27T11:34:06Z</time>
      </trkpt>
      <trkpt lat="45.071085" lon="6.046607">
        <ele>1032.809</ele>
        <time>2017-09-27T11:34:39Z</time>
      </trkpt>
      <trkpt lat="45.071113" lon="6.045043">
        <ele>1044.829</ele>
        <time>2017-09-27T11:35:09Z</time>
      </trkpt>
      <trkpt lat="45.070916" lon="6.044403">
        <ele>1049.957</ele>
        <time>2017-09-27T11:35:22Z</time>
      </trkpt>
      <trkpt lat="45.070985" lon="6.044261">
        <ele>1056.017</ele>
        <time>2017-09-27T11:35:27Z</time>
      </trkpt>
      <trkpt lat="45.071260" lon="6.044799">
        <ele>1052.442</ele>
        <time>2017-09-27T11:35:39Z</time>
      </trkpt>
      <trkpt lat="45.071535" lon="6.046178">
        <ele>1064.460</ele>
        <time>2017-09-27T11:36:08Z</time>
      </trkpt>
      <trkpt lat="45.071774" lon="6.046637">
        <ele>1072.786</ele>
        <time>2017-09-27T11:36:20Z</time>
      </trkpt>
      <trkpt lat="45.072834" lon="6.047544">
        <ele>1086.142</ele>
        <time>2017-09-27T11:36:57Z</time>
      </trkpt>
      <trkpt lat="45.073396" lon="6.047728">
        <ele>1089.263</ele>
        <time>2017-09-27T11:37:14Z</time>
      </trkpt>
      <trkpt lat="45.073576" lon="6.048049">
        <ele>1090.264</ele>
        <time>2017-09-27T11:37:22Z</time>
      </trkpt>
      <trkpt lat="45.073659" lon="6.048731">
        <ele>1094.067</ele>
        <time>2017-09-27T11:37:36Z</time>
      </trkpt>
      <trkpt lat="45.072481" lon="6.050994">
        <ele>1107.381</ele>
        <time>2017-09-27T11:38:34Z</time>
      </trkpt>
      <trkpt lat="45.072488" lon="6.051252">
        <ele>1117.819</ele>
        <time>2017-09-27T11:38:41Z</time>
      </trkpt>
      <trkpt lat="45.074018" lon="6.049685">
        <ele>1137.209</ele>
        <time>2017-09-27T11:39:35Z</time>
      </trkpt>
      <trkpt lat="45.074794" lon="6.049338">
        <ele>1148.278</ele>
        <time>2017-09-27T11:40:00Z</time>
      </trkpt>
      <trkpt lat="45.075040" lon="6.048589">
        <ele>1152.646</ele>
        <time>2017-09-27T11:40:18Z</time>
      </trkpt>
      <trkpt lat="45.074865" lon="6.047645">
        <ele>1152.266</ele>
        <time>2017-09-27T11:40:41Z</time>
      </trkpt>
      <trkpt lat="45.075198" lon="6.048703">
        <ele>1161.451</ele>
        <time>2017-09-27T11:41:03Z</time>
      </trkpt>
      <trkpt lat="45.075143" lon="6.049772">
        <ele>1173.619</ele>
        <time>2017-09-27T11:41:26Z</time>
      </trkpt>
      <trkpt lat="45.074456" lon="6.050244">
        <ele>1175.415</ele>
        <time>2017-09-27T11:41:50Z</time>
      </trkpt>
      <trkpt lat="45.074161" lon="6.050811">
        <ele>1184.611</ele>
        <time>2017-09-27T11:42:05Z</time>
      </trkpt>
      <trkpt lat="45.073167" lon="6.051974">
        <ele>1184.992</ele>
        <time>2017-09-27T11:42:42Z</time>
      </trkpt>
      <trkpt lat="45.073223" lon="6.052146">
        <ele>1196.873</ele>
        <time>2017-09-27T11:42:46Z</time>
      </trkpt>
      <trkpt lat="45.074550" lon="6.050955">
        <ele>1209.461</ele>
        <time>2017-09-27T11:43:25Z</time>
      </trkpt>
      <trkpt lat="45.075421" lon="6.050608">
        <ele>1217.321</ele>
        <time>2017-09-27T11:43:51Z</time>
      </trkpt>
      <trkpt lat="45.075885" lon="6.050175">
        <ele>1221.113</ele>
        <time>2017-09-27T11:44:07Z</time>
      </trkpt>
      <trkpt lat="45.076368" lon="6.049000">
        <ele>1230.709</ele>
        <time>2017-09-27T11:44:35Z</time>
      </trkpt>
      <trkpt lat="45.076307" lon="6.048016">
        <ele>1236.058</ele>
        <time>2017-09-27T11:44:56Z</time>
      </trkpt>
      <trkpt lat="45.076585" lon="6.047311">
        <ele>1245.256</ele>
        <time>2017-09-27T11:45:14Z</time>
      </trkpt>
      <trkpt lat="45.076415" lon="6.047974">
        <ele>1244.136</ele>
        <time>2017-09-27T11:45:29Z</time>
      </trkpt>
      <trkpt lat="45.076670" lon="6.048651">
        <ele>1256.941</ele>
        <time>2017-09-27T11:45:46Z</time>
      </trkpt>
      <trkpt lat="45.076673" lon="6.049267">
        <ele>1257.159</ele>
        <time>2017-09-27T11:45:59Z</time>
      </trkpt>
      <trkpt lat="45.076388" lon="6.050853">
        <ele>1267.775</ele>
        <time>2017-09-27T11:46:35Z</time>
      </trkpt>
      <trkpt lat="45.075963" lon="6.051547">
        <ele>1280.951</ele>
        <time>2017-09-27T11:46:57Z</time>
      </trkpt>
      <trkpt lat="45.074798" lon="6.052165">
        <ele>1279.432</ele>
        <time>2017-09-27T11:47:40Z</time>
      </trkpt>
      <trkpt lat="45.074762" lon="6.052363">
        <ele>1291.763</ele>
        <time>2017-09-27T11:47:45Z</time>
      </trkpt>
      <trkpt lat="45.074883" lon="6.052485">
        <ele>1302.535</ele>
        <time>2017-09-27T11:47:49Z</time>
      </trkpt>
      <trkpt lat="45.076848" lon="6.051625">
        <ele>1316.586</ele>
        <time>2017-09-27T11:48:52Z</time>
      </trkpt>
      <trkpt lat="45.078141" lon="6.049505">
        <ele>1345.514</ele>
        <time>2017-09-27T11:49:58Z</time>
      </trkpt>
      <trkpt lat="45.077900" lon="6.047858">
        <ele>1348.909</ele>
        <time>2017-09-27T11:50:40Z</time>
      </trkpt>
      <trkpt lat="45.078415" lon="6.049219">
        <ele>1360.235</ele>
        <time>2017-09-27T11:51:17Z</time>
      </trkpt>
      <trkpt lat="45.078366" lon="6.050095">
        <ele>1366.883</ele>
        <time>2017-09-27T11:51:38Z</time>
      </trkpt>
      <trkpt lat="45.077647" lon="6.052305">
        <ele>1384.093</ele>
        <time>2017-09-27T11:52:34Z</time>
      </trkpt>
      <trkpt lat="45.077063" lon="6.053182">
        <ele>1382.678</ele>
        <time>2017-09-27T11:52:59Z</time>
      </trkpt>
      <trkpt lat="45.077102" lon="6.053425">
        <ele>1384.016</ele>
        <time>2017-09-27T11:53:04Z</time>
      </trkpt>
      <trkpt lat="45.079199" lon="6.054674">
        <ele>1411.882</ele>
        <time>2017-09-27T11:54:14Z</time>
      </trkpt>
      <trkpt lat="45.079904" lon="6.054652">
        <ele>1421.598</ele>
        <time>2017-09-27T11:54:36Z</time>
      </trkpt>
      <trkpt lat="45.080707" lon="6.054989">
        <ele>1428.249</ele>
        <time>2017-09-27T11:55:02Z</time>
      </trkpt>
      <trkpt lat="45.080704" lon="6.055477">
        <ele>1426.110</ele>
        <time>2017-09-27T11:55:13Z</time>
      </trkpt>
      <trkpt lat="45.080144" lon="6.055962">
        <ele>1432.214</ele>
        <time>2017-09-27T11:55:34Z</time>
      </trkpt>
      <trkpt lat="45.080069" lon="6.056842">
        <ele>1433.754</ele>
        <time>2017-09-27T11:55:52Z</time>
      </trkpt>
      <trkpt lat="45.080679" lon="6.058468">
        <ele>1442.509</ele>
        <time>2017-09-27T11:56:28Z</time>
      </trkpt>
      <trkpt lat="45.081499" lon="6.060076">
        <ele>1463.009</ele>
        <time>2017-09-27T11:57:16Z</time>
      </trkpt>
      <trkpt lat="45.082198" lon="6.062281">
        <ele>1477.983</ele>
        <time>2017-09-27T11:58:14Z</time>
      </trkpt>
      <trkpt lat="45.082366" lon="6.062246">
        <ele>1489.841</ele>
        <time>2017-09-27T11:58:20Z</time>
      </trkpt>
      <trkpt lat="45.082134" lon="6.061484">
        <ele>1485.881</ele>
        <time>2017-09-27T11:58:37Z</time>
      </trkpt>
      <trkpt lat="45.082272" lon="6.058306">
        <ele>1499.366</ele>
        <time>2017-09-27T11:59:44Z</time>
      </trkpt>
      <trkpt lat="45.082514" lon="6.057682">
        <ele>1500.234</ele>
        <time>2017-09-27T11:59:57Z</time>
      </trkpt>
      <trkpt lat="45.083598" lon="6.057522">
        <ele>1508.330</ele>
        <time>2017-09-27T12:00:30Z</time>
      </trkpt>
      <trkpt lat="45.083645" lon="6.057612">
        <ele>1510.326</ele>
        <time>2017-09-27T12:00:33Z</time>
      </trkpt>
      <trkpt lat="45.083150" lon="6.058282">
        <ele>1517.377</ele>
        <time>2017-09-27T12:00:54Z</time>
      </trkpt>
      <trkpt lat="45.082987" lon="6.059106">
        <ele>1524.538</ele>
        <time>2017-09-27T12:01:15Z</time>
      </trkpt>
      <trkpt lat="45.083033" lon="6.059953">
        <ele>1531.111</ele>
        <time>2017-09-27T12:01:36Z</time>
      </trkpt>
      <trkpt lat="45.083592" lon="6.062658">
        <ele>1552.421</ele>
        <time>2017-09-27T12:02:44Z</time>
      </trkpt>
      <trkpt lat="45.083647" lon="6.061492">
        <ele>1558.203</ele>
        <time>2017-09-27T12:03:06Z</time>
      </trkpt>
      <trkpt lat="45.084049" lon="6.060512">
        <ele>1564.509</ele>
        <time>2017-09-27T12:03:32Z</time>
      </trkpt>
      <trkpt lat="45.084402" lon="6.060253">
        <ele>1566.273</ele>
        <time>2017-09-27T12:03:46Z</time>
      </trkpt>
      <trkpt lat="45.085600" lon="6.059819">
        <ele>1583.411</ele>
        <time>2017-09-27T12:04:28Z</time>
      </trkpt>
      <trkpt lat="45.086756" lon="6.058639">
        <ele>1596.471</ele>
        <time>2017-09-27T12:05:17Z</time>
      </trkpt>
      <trkpt lat="45.087506" lon="6.058100">
        <ele>1607.666</ele>
        <time>2017-09-27T12:05:47Z</time>
      </trkpt>
      <trkpt lat="45.088340" lon="6.056774">
        <ele>1616.664</ele>
        <time>2017-09-27T12:06:30Z</time>
      </trkpt>
      <trkpt lat="45.088377" lon="6.056456">
        <ele>1620.980</ele>
        <time>2017-09-27T12:06:38Z</time>
      </trkpt>
      <trkpt lat="45.088172" lon="6.055850">
        <ele>1629.576</ele>
        <time>2017-09-27T12:06:55Z</time>
      </trkpt>
      <trkpt lat="45.088898" lon="6.056386">
        <ele>1635.317</ele>
        <time>2017-09-27T12:07:22Z</time>
      </trkpt>
      <trkpt lat="45.089095" lon="6.057064">
        <ele>1636.668</ele>
        <time>2017-09-27T12:07:40Z</time>
      </trkpt>
      <trkpt lat="45.089146" lon="6.058205">
        <ele>1646.576</ele>
        <time>2017-09-27T12:08:08Z</time>
      </trkpt>
      <trkpt lat="45.088682" lon="6.060346">
        <ele>1661.890</ele>
        <time>2017-09-27T12:09:00Z</time>
      </trkpt>
      <trkpt lat="45.088757" lon="6.060455">
        <ele>1665.619</ele>
        <time>2017-09-27T12:09:04Z</time>
      </trkpt>
      <trkpt lat="45.089707" lon="6.059539">
        <ele>1677.009</ele>
        <time>2017-09-27T12:09:41Z</time>
      </trkpt>
      <trkpt lat="45.090763" lon="6.058000">
        <ele>1690.869</ele>
        <time>2017-09-27T12:10:32Z</time>
      </trkpt>
      <trkpt lat="45.091381" lon="6.056614">
        <ele>1704.547</ele>
        <time>2017-09-27T12:11:12Z</time>
      </trkpt>
      <trkpt lat="45.091477" lon="6.055424">
        <ele>1715.137</ele>
        <time>2017-09-27T12:11:42Z</time>
      </trkpt>
      <trkpt lat="45.091825" lon="6.057134">
        <ele>1722.882</ele>
        <time>2017-09-27T12:12:21Z</time>
      </trkpt>
      <trkpt lat="45.091729" lon="6.058983">
        <ele>1736.320</ele>
        <time>2017-09-27T12:12:58Z</time>
      </trkpt>
      <trkpt lat="45.090806" lon="6.062981">
        <ele>1766.616</ele>
        <time>2017-09-27T12:14:24Z</time>
      </trkpt>
      <trkpt lat="45.090477" lon="6.065247">
        <ele>1775.972</ele>
        <time>2017-09-27T12:15:01Z</time>
      </trkpt>
      <trkpt lat="45.090626" lon="6.065620">
        <ele>1780.273</ele>
        <time>2017-09-27T12:15:10Z</time>
      </trkpt>
      <trkpt lat="45.090940" lon="6.065391">
        <ele>1779.334</ele>
        <time>2017-09-27T12:15:16Z</time>
      </trkpt>
      <trkpt lat="45.091293" lon="6.063935">
        <ele>1782.484</ele>
        <time>2017-09-27T12:15:39Z</time>
      </trkpt>
      <trkpt lat="45.092794" lon="6.061265">
        <ele>1798.307</ele>
        <time>2017-09-27T12:16:34Z</time>
      </trkpt>
      <trkpt lat="45.092626" lon="6.064044">
        <ele>1813.717</ele>
        <time>2017-09-27T12:17:18Z</time>
      </trkpt>
      <trkpt lat="45.093016" lon="6.066915">
        <ele>1823.509</ele>
        <time>2017-09-27T12:17:56Z</time>
      </trkpt>
      <trkpt lat="45.093288" lon="6.067658">
        <ele>1825.630</ele>
        <time>2017-09-27T12:18:07Z</time>
      </trkpt>
      <trkpt lat="45.093067" lon="6.068568">
        <ele>1822.128</ele>
        <time>2017-09-27T12:18:16Z</time>
      </trkpt>
      <trkpt lat="45.092489" lon="6.069743">
        <ele>1821.018</ele>
        <time>2017-09-27T12:18:27Z</time>
      </trkpt>
      <trkpt lat="45.092500" lon="6.071616">
        <ele>1821.013</ele>
        <time>2017-09-27T12:18:42Z</time>
      </trkpt>
      <trkpt lat="45.092646" lon="6.071869">
        <ele>1821.781</ele>
        <time>2017-09-27T12:18:45Z</time>
      </trkpt>
      <trkpt lat="45.092865" lon="6.071890">
        <ele>1823.167</ele>
        <time>2017-09-27T12:18:48Z</time>
      </trkpt>
      <trkpt lat="45.095097" lon="6.070679">
        <ele>1844.323</ele>
        <time>2017-09-27T12:19:36Z</time>
      </trkpt>
    </trkseg>
  </trk></gpx>