<?xml version="1.0" encoding="UTF-8"?>
<gpx creator="Wikiloc - https://www.wikiloc.com" version="1.1" xmlns="http://www.topografix.com/GPX/1/1" xmlns:xsi="http://www.w3.org/2001/XMLSchema-instance" xsi:schemaLocation="http://www.topografix.com/GPX/1/1 http://www.topografix.com/GPX/1/1/gpx.xsd">
  <metadata>
    <name>Wikiloc - ALTO DE AZURKI/ COLLADO MADARIAGA (por Elgoibar)</name>
    <link href="https://www.wikiloc.com/cycling-trails/alto-de-azurki-collado-madariaga-por-elgoibar-241925130">
      <text>ALTO DE AZURKI/ COLLADO MADARIAGA (por Elgoibar) - Wikiloc on Wikiloc</text>
    </link>
    <time>2026-07-16T09:46:01.253Z</time>
  </metadata>
  <trk>
    <name>ALTO DE AZURKI/ COLLADO MADARIAGA (por Elgoibar) - Wikiloc</name>
    <cmt></cmt>
    <desc></desc>
    <trkseg>
      <trkpt lat="43.216340" lon="-2.411180">
        <ele>40.064</ele>
        <time>2026-07-16T09:46:01.251Z</time>
      </trkpt>
      <trkpt lat="43.215910" lon="-2.411040">
        <ele>41.506</ele>
        <time>2026-07-16T09:46:21.251Z</time>
      </trkpt>
      <trkpt lat="43.215910" lon="-2.411060">
        <ele>41.516</ele>
        <time>2026-07-16T09:46:41.251Z</time>
      </trkpt>
      <trkpt lat="43.215900" lon="-2.411080">
        <ele>41.509</ele>
        <time>2026-07-16T09:47:01.251Z</time>
      </trkpt>
      <trkpt lat="43.215890" lon="-2.411100">
        <ele>41.688</ele>
        <time>2026-07-16T09:47:21.251Z</time>
      </trkpt>
      <trkpt lat="43.215880" lon="-2.411110">
        <ele>41.730</ele>
        <time>2026-07-16T09:47:41.251Z</time>
      </trkpt>
      <trkpt lat="43.215870" lon="-2.411130">
        <ele>41.777</ele>
        <time>2026-07-16T09:48:01.251Z</time>
      </trkpt>
      <trkpt lat="43.215850" lon="-2.411140">
        <ele>41.975</ele>
        <time>2026-07-16T09:48:21.251Z</time>
      </trkpt>
      <trkpt lat="43.215840" lon="-2.411150">
        <ele>42.018</ele>
        <time>2026-07-16T09:48:41.251Z</time>
      </trkpt>
      <trkpt lat="43.215820" lon="-2.411160">
        <ele>42.041</ele>
        <time>2026-07-16T09:49:01.251Z</time>
      </trkpt>
      <trkpt lat="43.215800" lon="-2.411160">
        <ele>41.987</ele>
        <time>2026-07-16T09:49:21.251Z</time>
      </trkpt>
      <trkpt lat="43.215780" lon="-2.411160">
        <ele>41.839</ele>
        <time>2026-07-16T09:49:41.251Z</time>
      </trkpt>
      <trkpt lat="43.215770" lon="-2.411150">
        <ele>41.896</ele>
        <time>2026-07-16T09:50:01.251Z</time>
      </trkpt>
      <trkpt lat="43.215750" lon="-2.411140">
        <ele>41.716</ele>
        <time>2026-07-16T09:50:21.251Z</time>
      </trkpt>
      <trkpt lat="43.215740" lon="-2.411130">
        <ele>41.776</ele>
        <time>2026-07-16T09:50:41.251Z</time>
      </trkpt>
      <trkpt lat="43.215730" lon="-2.411120">
        <ele>41.613</ele>
        <time>2026-07-16T09:51:01.251Z</time>
      </trkpt>
      <trkpt lat="43.215720" lon="-2.411110">
        <ele>41.609</ele>
        <time>2026-07-16T09:51:21.251Z</time>
      </trkpt>
      <trkpt lat="43.215710" lon="-2.411100">
        <ele>41.633</ele>
        <time>2026-07-16T09:51:41.251Z</time>
      </trkpt>
      <trkpt lat="43.215700" lon="-2.411080">
        <ele>41.695</ele>
        <time>2026-07-16T09:52:01.251Z</time>
      </trkpt>
      <trkpt lat="43.215700" lon="-2.411060">
        <ele>41.622</ele>
        <time>2026-07-16T09:52:21.251Z</time>
      </trkpt>
      <trkpt lat="43.215690" lon="-2.411050">
        <ele>41.680</ele>
        <time>2026-07-16T09:52:41.251Z</time>
      </trkpt>
      <trkpt lat="43.215690" lon="-2.411030">
        <ele>41.643</ele>
        <time>2026-07-16T09:53:01.251Z</time>
      </trkpt>
      <trkpt lat="43.215690" lon="-2.411010">
        <ele>41.786</ele>
        <time>2026-07-16T09:53:21.251Z</time>
      </trkpt>
      <trkpt lat="43.215690" lon="-2.410990">
        <ele>41.742</ele>
        <time>2026-07-16T09:53:41.251Z</time>
      </trkpt>
      <trkpt lat="43.215690" lon="-2.410970">
        <ele>41.754</ele>
        <time>2026-07-16T09:54:01.251Z</time>
      </trkpt>
      <trkpt lat="43.215690" lon="-2.410950">
        <ele>41.891</ele>
        <time>2026-07-16T09:54:21.251Z</time>
      </trkpt>
      <trkpt lat="43.215290" lon="-2.410800">
        <ele>43.492</ele>
        <time>2026-07-16T09:54:41.251Z</time>
      </trkpt>
      <trkpt lat="43.215190" lon="-2.410770">
        <ele>43.773</ele>
        <time>2026-07-16T09:55:01.251Z</time>
      </trkpt>
      <trkpt lat="43.215060" lon="-2.410730">
        <ele>43.620</ele>
        <time>2026-07-16T09:55:21.251Z</time>
      </trkpt>
      <trkpt lat="43.214920" lon="-2.410690">
        <ele>43.509</ele>
        <time>2026-07-16T09:55:41.251Z</time>
      </trkpt>
      <trkpt lat="43.214670" lon="-2.410630">
        <ele>44.191</ele>
        <time>2026-07-16T09:56:01.251Z</time>
      </trkpt>
      <trkpt lat="43.214520" lon="-2.410690">
        <ele>45.033</ele>
        <time>2026-07-16T09:56:21.251Z</time>
      </trkpt>
      <trkpt lat="43.214100" lon="-2.410950">
        <ele>47.320</ele>
        <time>2026-07-16T09:56:41.251Z</time>
      </trkpt>
      <trkpt lat="43.213790" lon="-2.411030">
        <ele>49.758</ele>
        <time>2026-07-16T09:57:01.251Z</time>
      </trkpt>
      <trkpt lat="43.213660" lon="-2.411000">
        <ele>51.131</ele>
        <time>2026-07-16T09:57:21.251Z</time>
      </trkpt>
      <trkpt lat="43.213550" lon="-2.410820">
        <ele>53.854</ele>
        <time>2026-07-16T09:57:41.251Z</time>
      </trkpt>
      <trkpt lat="43.213510" lon="-2.410680">
        <ele>54.190</ele>
        <time>2026-07-16T09:58:01.251Z</time>
      </trkpt>
      <trkpt lat="43.213450" lon="-2.410400">
        <ele>56.022</ele>
        <time>2026-07-16T09:58:21.251Z</time>
      </trkpt>
      <trkpt lat="43.213360" lon="-2.410170">
        <ele>56.949</ele>
        <time>2026-07-16T09:58:41.251Z</time>
      </trkpt>
      <trkpt lat="43.213130" lon="-2.409660">
        <ele>60.139</ele>
        <time>2026-07-16T09:59:01.251Z</time>
      </trkpt>
      <trkpt lat="43.212960" lon="-2.409230">
        <ele>64.601</ele>
        <time>2026-07-16T09:59:21.251Z</time>
      </trkpt>
      <trkpt lat="43.212860" lon="-2.409030">
        <ele>65.521</ele>
        <time>2026-07-16T09:59:41.251Z</time>
      </trkpt>
      <trkpt lat="43.212730" lon="-2.408890">
        <ele>65.409</ele>
        <time>2026-07-16T10:00:01.251Z</time>
      </trkpt>
      <trkpt lat="43.212550" lon="-2.408810">
        <ele>67.625</ele>
        <time>2026-07-16T10:00:21.251Z</time>
      </trkpt>
      <trkpt lat="43.212130" lon="-2.408770">
        <ele>68.267</ele>
        <time>2026-07-16T10:00:41.251Z</time>
      </trkpt>
      <trkpt lat="43.211950" lon="-2.408700">
        <ele>69.814</ele>
        <time>2026-07-16T10:01:01.251Z</time>
      </trkpt>
      <trkpt lat="43.211810" lon="-2.408570">
        <ele>71.492</ele>
        <time>2026-07-16T10:01:21.251Z</time>
      </trkpt>
      <trkpt lat="43.211730" lon="-2.408410">
        <ele>73.235</ele>
        <time>2026-07-16T10:01:41.251Z</time>
      </trkpt>
      <trkpt lat="43.211650" lon="-2.408220">
        <ele>74.248</ele>
        <time>2026-07-16T10:02:01.251Z</time>
      </trkpt>
      <trkpt lat="43.211570" lon="-2.408070">
        <ele>75.874</ele>
        <time>2026-07-16T10:02:21.251Z</time>
      </trkpt>
      <trkpt lat="43.211440" lon="-2.407900">
        <ele>77.656</ele>
        <time>2026-07-16T10:02:41.251Z</time>
      </trkpt>
      <trkpt lat="43.211220" lon="-2.407700">
        <ele>78.563</ele>
        <time>2026-07-16T10:03:01.251Z</time>
      </trkpt>
      <trkpt lat="43.211090" lon="-2.407520">
        <ele>79.294</ele>
        <time>2026-07-16T10:03:21.251Z</time>
      </trkpt>
      <trkpt lat="43.210910" lon="-2.407250">
        <ele>83.457</ele>
        <time>2026-07-16T10:03:41.251Z</time>
      </trkpt>
      <trkpt lat="43.210610" lon="-2.406870">
        <ele>86.122</ele>
        <time>2026-07-16T10:04:01.251Z</time>
      </trkpt>
      <trkpt lat="43.210520" lon="-2.406640">
        <ele>87.709</ele>
        <time>2026-07-16T10:04:21.251Z</time>
      </trkpt>
      <trkpt lat="43.210460" lon="-2.406360">
        <ele>90.071</ele>
        <time>2026-07-16T10:04:41.251Z</time>
      </trkpt>
      <trkpt lat="43.210320" lon="-2.405270">
        <ele>97.613</ele>
        <time>2026-07-16T10:05:01.251Z</time>
      </trkpt>
      <trkpt lat="43.210300" lon="-2.405030">
        <ele>98.170</ele>
        <time>2026-07-16T10:05:21.251Z</time>
      </trkpt>
      <trkpt lat="43.210280" lon="-2.404730">
        <ele>100.018</ele>
        <time>2026-07-16T10:05:41.251Z</time>
      </trkpt>
      <trkpt lat="43.210190" lon="-2.404390">
        <ele>101.591</ele>
        <time>2026-07-16T10:06:01.251Z</time>
      </trkpt>
      <trkpt lat="43.210100" lon="-2.404140">
        <ele>103.424</ele>
        <time>2026-07-16T10:06:21.251Z</time>
      </trkpt>
      <trkpt lat="43.209990" lon="-2.403890">
        <ele>104.780</ele>
        <time>2026-07-16T10:06:41.251Z</time>
      </trkpt>
      <trkpt lat="43.209960" lon="-2.403790">
        <ele>105.482</ele>
        <time>2026-07-16T10:07:01.251Z</time>
      </trkpt>
      <trkpt lat="43.209990" lon="-2.403720">
        <ele>107.789</ele>
        <time>2026-07-16T10:07:21.251Z</time>
      </trkpt>
      <trkpt lat="43.210040" lon="-2.403730">
        <ele>109.258</ele>
        <time>2026-07-16T10:07:41.251Z</time>
      </trkpt>
      <trkpt lat="43.210110" lon="-2.403830">
        <ele>109.752</ele>
        <time>2026-07-16T10:08:01.251Z</time>
      </trkpt>
      <trkpt lat="43.210260" lon="-2.404080">
        <ele>109.317</ele>
        <time>2026-07-16T10:08:21.251Z</time>
      </trkpt>
      <trkpt lat="43.210420" lon="-2.404360">
        <ele>112.509</ele>
        <time>2026-07-16T10:08:41.251Z</time>
      </trkpt>
      <trkpt lat="43.210510" lon="-2.404630">
        <ele>113.697</ele>
        <time>2026-07-16T10:09:01.251Z</time>
      </trkpt>
      <trkpt lat="43.210570" lon="-2.404900">
        <ele>115.189</ele>
        <time>2026-07-16T10:09:21.251Z</time>
      </trkpt>
      <trkpt lat="43.210630" lon="-2.405150">
        <ele>116.316</ele>
        <time>2026-07-16T10:09:41.251Z</time>
      </trkpt>
      <trkpt lat="43.210710" lon="-2.405430">
        <ele>116.554</ele>
        <time>2026-07-16T10:10:01.251Z</time>
      </trkpt>
      <trkpt lat="43.210770" lon="-2.405590">
        <ele>117.117</ele>
        <time>2026-07-16T10:10:21.251Z</time>
      </trkpt>
      <trkpt lat="43.210820" lon="-2.405630">
        <ele>119.130</ele>
        <time>2026-07-16T10:10:41.251Z</time>
      </trkpt>
      <trkpt lat="43.210870" lon="-2.405630">
        <ele>120.926</ele>
        <time>2026-07-16T10:11:01.251Z</time>
      </trkpt>
      <trkpt lat="43.210890" lon="-2.405580">
        <ele>121.958</ele>
        <time>2026-07-16T10:11:21.251Z</time>
      </trkpt>
      <trkpt lat="43.210880" lon="-2.405490">
        <ele>122.665</ele>
        <time>2026-07-16T10:11:41.251Z</time>
      </trkpt>
      <trkpt lat="43.210800" lon="-2.405270">
        <ele>122.644</ele>
        <time>2026-07-16T10:12:01.251Z</time>
      </trkpt>
      <trkpt lat="43.210770" lon="-2.405070">
        <ele>123.305</ele>
        <time>2026-07-16T10:12:21.251Z</time>
      </trkpt>
      <trkpt lat="43.210740" lon="-2.404670">
        <ele>125.215</ele>
        <time>2026-07-16T10:12:41.251Z</time>
      </trkpt>
      <trkpt lat="43.210660" lon="-2.404090">
        <ele>128.309</ele>
        <time>2026-07-16T10:13:01.251Z</time>
      </trkpt>
      <trkpt lat="43.210580" lon="-2.403550">
        <ele>132.666</ele>
        <time>2026-07-16T10:13:21.251Z</time>
      </trkpt>
      <trkpt lat="43.210540" lon="-2.403390">
        <ele>133.648</ele>
        <time>2026-07-16T10:13:41.251Z</time>
      </trkpt>
      <trkpt lat="43.210450" lon="-2.403150">
        <ele>135.285</ele>
        <time>2026-07-16T10:14:01.251Z</time>
      </trkpt>
      <trkpt lat="43.210320" lon="-2.402670">
        <ele>138.243</ele>
        <time>2026-07-16T10:14:21.251Z</time>
      </trkpt>
      <trkpt lat="43.210310" lon="-2.402500">
        <ele>139.616</ele>
        <time>2026-07-16T10:14:41.251Z</time>
      </trkpt>
      <trkpt lat="43.210380" lon="-2.402330">
        <ele>140.129</ele>
        <time>2026-07-16T10:15:01.251Z</time>
      </trkpt>
      <trkpt lat="43.210470" lon="-2.402170">
        <ele>142.375</ele>
        <time>2026-07-16T10:15:21.251Z</time>
      </trkpt>
      <trkpt lat="43.210520" lon="-2.402010">
        <ele>143.677</ele>
        <time>2026-07-16T10:15:41.251Z</time>
      </trkpt>
      <trkpt lat="43.210530" lon="-2.401860">
        <ele>144.364</ele>
        <time>2026-07-16T10:16:01.251Z</time>
      </trkpt>
      <trkpt lat="43.210520" lon="-2.401600">
        <ele>146.138</ele>
        <time>2026-07-16T10:16:21.251Z</time>
      </trkpt>
      <trkpt lat="43.210470" lon="-2.401400">
        <ele>147.670</ele>
        <time>2026-07-16T10:16:41.251Z</time>
      </trkpt>
      <trkpt lat="43.210310" lon="-2.401220">
        <ele>148.517</ele>
        <time>2026-07-16T10:17:01.251Z</time>
      </trkpt>
      <trkpt lat="43.209990" lon="-2.401070">
        <ele>150.409</ele>
        <time>2026-07-16T10:17:21.251Z</time>
      </trkpt>
      <trkpt lat="43.209780" lon="-2.400970">
        <ele>151.735</ele>
        <time>2026-07-16T10:17:41.251Z</time>
      </trkpt>
      <trkpt lat="43.209660" lon="-2.400830">
        <ele>153.277</ele>
        <time>2026-07-16T10:18:01.251Z</time>
      </trkpt>
      <trkpt lat="43.209620" lon="-2.400600">
        <ele>153.324</ele>
        <time>2026-07-16T10:18:21.251Z</time>
      </trkpt>
      <trkpt lat="43.209600" lon="-2.400170">
        <ele>155.652</ele>
        <time>2026-07-16T10:18:41.251Z</time>
      </trkpt>
      <trkpt lat="43.209600" lon="-2.399730">
        <ele>159.225</ele>
        <time>2026-07-16T10:19:01.251Z</time>
      </trkpt>
      <trkpt lat="43.209630" lon="-2.399460">
        <ele>161.098</ele>
        <time>2026-07-16T10:19:21.251Z</time>
      </trkpt>
      <trkpt lat="43.209650" lon="-2.399280">
        <ele>163.264</ele>
        <time>2026-07-16T10:19:41.251Z</time>
      </trkpt>
      <trkpt lat="43.209640" lon="-2.399160">
        <ele>163.636</ele>
        <time>2026-07-16T10:20:01.251Z</time>
      </trkpt>
      <trkpt lat="43.209620" lon="-2.399020">
        <ele>165.393</ele>
        <time>2026-07-16T10:20:21.251Z</time>
      </trkpt>
      <trkpt lat="43.209540" lon="-2.398870">
        <ele>166.765</ele>
        <time>2026-07-16T10:20:41.251Z</time>
      </trkpt>
      <trkpt lat="43.209430" lon="-2.398790">
        <ele>168.068</ele>
        <time>2026-07-16T10:21:01.251Z</time>
      </trkpt>
      <trkpt lat="43.209270" lon="-2.398780">
        <ele>169.214</ele>
        <time>2026-07-16T10:21:21.251Z</time>
      </trkpt>
      <trkpt lat="43.209100" lon="-2.398820">
        <ele>169.209</ele>
        <time>2026-07-16T10:21:41.251Z</time>
      </trkpt>
      <trkpt lat="43.208840" lon="-2.398890">
        <ele>170.698</ele>
        <time>2026-07-16T10:22:01.251Z</time>
      </trkpt>
      <trkpt lat="43.208730" lon="-2.398830">
        <ele>171.460</ele>
        <time>2026-07-16T10:22:21.251Z</time>
      </trkpt>
      <trkpt lat="43.208570" lon="-2.398570">
        <ele>174.337</ele>
        <time>2026-07-16T10:22:41.251Z</time>
      </trkpt>
      <trkpt lat="43.208450" lon="-2.398340">
        <ele>175.835</ele>
        <time>2026-07-16T10:23:01.251Z</time>
      </trkpt>
      <trkpt lat="43.208330" lon="-2.398150">
        <ele>176.168</ele>
        <time>2026-07-16T10:23:21.251Z</time>
      </trkpt>
      <trkpt lat="43.208160" lon="-2.397820">
        <ele>178.161</ele>
        <time>2026-07-16T10:23:41.251Z</time>
      </trkpt>
      <trkpt lat="43.208050" lon="-2.397510">
        <ele>180.647</ele>
        <time>2026-07-16T10:24:01.251Z</time>
      </trkpt>
      <trkpt lat="43.207970" lon="-2.397200">
        <ele>182.379</ele>
        <time>2026-07-16T10:24:21.251Z</time>
      </trkpt>
      <trkpt lat="43.207920" lon="-2.396850">
        <ele>184.926</ele>
        <time>2026-07-16T10:24:41.251Z</time>
      </trkpt>
      <trkpt lat="43.207890" lon="-2.396600">
        <ele>186.544</ele>
        <time>2026-07-16T10:25:01.251Z</time>
      </trkpt>
      <trkpt lat="43.207890" lon="-2.396290">
        <ele>189.305</ele>
        <time>2026-07-16T10:25:21.251Z</time>
      </trkpt>
      <trkpt lat="43.207890" lon="-2.396060">
        <ele>190.515</ele>
        <time>2026-07-16T10:25:41.251Z</time>
      </trkpt>
      <trkpt lat="43.207860" lon="-2.395890">
        <ele>191.809</ele>
        <time>2026-07-16T10:26:01.251Z</time>
      </trkpt>
      <trkpt lat="43.207810" lon="-2.395750">
        <ele>192.466</ele>
        <time>2026-07-16T10:26:21.251Z</time>
      </trkpt>
      <trkpt lat="43.207760" lon="-2.395590">
        <ele>193.728</ele>
        <time>2026-07-16T10:26:41.251Z</time>
      </trkpt>
      <trkpt lat="43.207710" lon="-2.395450">
        <ele>194.085</ele>
        <time>2026-07-16T10:27:01.251Z</time>
      </trkpt>
      <trkpt lat="43.207670" lon="-2.395320">
        <ele>194.753</ele>
        <time>2026-07-16T10:27:21.251Z</time>
      </trkpt>
      <trkpt lat="43.207630" lon="-2.395190">
        <ele>195.526</ele>
        <time>2026-07-16T10:27:41.251Z</time>
      </trkpt>
      <trkpt lat="43.207590" lon="-2.395020">
        <ele>197.039</ele>
        <time>2026-07-16T10:28:01.251Z</time>
      </trkpt>
      <trkpt lat="43.207570" lon="-2.394850">
        <ele>198.535</ele>
        <time>2026-07-16T10:28:21.251Z</time>
      </trkpt>
      <trkpt lat="43.207550" lon="-2.394700">
        <ele>199.747</ele>
        <time>2026-07-16T10:28:41.251Z</time>
      </trkpt>
      <trkpt lat="43.207520" lon="-2.394510">
        <ele>200.934</ele>
        <time>2026-07-16T10:29:01.251Z</time>
      </trkpt>
      <trkpt lat="43.207510" lon="-2.394360">
        <ele>202.258</ele>
        <time>2026-07-16T10:29:21.251Z</time>
      </trkpt>
      <trkpt lat="43.207490" lon="-2.394200">
        <ele>203.452</ele>
        <time>2026-07-16T10:29:41.251Z</time>
      </trkpt>
      <trkpt lat="43.207470" lon="-2.394050">
        <ele>203.917</ele>
        <time>2026-07-16T10:30:01.251Z</time>
      </trkpt>
      <trkpt lat="43.207460" lon="-2.393900">
        <ele>204.609</ele>
        <time>2026-07-16T10:30:21.251Z</time>
      </trkpt>
      <trkpt lat="43.207470" lon="-2.393800">
        <ele>205.027</ele>
        <time>2026-07-16T10:30:41.251Z</time>
      </trkpt>
      <trkpt lat="43.207490" lon="-2.393700">
        <ele>205.799</ele>
        <time>2026-07-16T10:31:01.251Z</time>
      </trkpt>
      <trkpt lat="43.207530" lon="-2.393550">
        <ele>206.526</ele>
        <time>2026-07-16T10:31:21.251Z</time>
      </trkpt>
      <trkpt lat="43.207560" lon="-2.393460">
        <ele>207.074</ele>
        <time>2026-07-16T10:31:41.251Z</time>
      </trkpt>
      <trkpt lat="43.207590" lon="-2.393380">
        <ele>207.717</ele>
        <time>2026-07-16T10:32:01.251Z</time>
      </trkpt>
      <trkpt lat="43.207610" lon="-2.393260">
        <ele>208.580</ele>
        <time>2026-07-16T10:32:21.251Z</time>
      </trkpt>
      <trkpt lat="43.207620" lon="-2.393130">
        <ele>209.516</ele>
        <time>2026-07-16T10:32:41.251Z</time>
      </trkpt>
      <trkpt lat="43.207600" lon="-2.392970">
        <ele>210.178</ele>
        <time>2026-07-16T10:33:01.251Z</time>
      </trkpt>
      <trkpt lat="43.207590" lon="-2.392790">
        <ele>211.565</ele>
        <time>2026-07-16T10:33:21.251Z</time>
      </trkpt>
      <trkpt lat="43.207580" lon="-2.392580">
        <ele>212.719</ele>
        <time>2026-07-16T10:33:41.251Z</time>
      </trkpt>
      <trkpt lat="43.207550" lon="-2.392210">
        <ele>214.509</ele>
        <time>2026-07-16T10:34:01.251Z</time>
      </trkpt>
      <trkpt lat="43.207550" lon="-2.391950">
        <ele>216.419</ele>
        <time>2026-07-16T10:34:21.251Z</time>
      </trkpt>
      <trkpt lat="43.207570" lon="-2.391710">
        <ele>218.109</ele>
        <time>2026-07-16T10:34:41.251Z</time>
      </trkpt>
      <trkpt lat="43.207590" lon="-2.391540">
        <ele>219.763</ele>
        <time>2026-07-16T10:35:01.251Z</time>
      </trkpt>
      <trkpt lat="43.207580" lon="-2.391440">
        <ele>219.925</ele>
        <time>2026-07-16T10:35:21.251Z</time>
      </trkpt>
      <trkpt lat="43.207570" lon="-2.391350">
        <ele>220.672</ele>
        <time>2026-07-16T10:35:41.251Z</time>
      </trkpt>
      <trkpt lat="43.207540" lon="-2.391250">
        <ele>221.680</ele>
        <time>2026-07-16T10:36:01.251Z</time>
      </trkpt>
      <trkpt lat="43.207420" lon="-2.391010">
        <ele>223.593</ele>
        <time>2026-07-16T10:36:21.251Z</time>
      </trkpt>
      <trkpt lat="43.207280" lon="-2.390750">
        <ele>226.526</ele>
        <time>2026-07-16T10:36:41.251Z</time>
      </trkpt>
      <trkpt lat="43.207110" lon="-2.390450">
        <ele>227.052</ele>
        <time>2026-07-16T10:37:01.251Z</time>
      </trkpt>
      <trkpt lat="43.207020" lon="-2.390340">
        <ele>227.454</ele>
        <time>2026-07-16T10:37:21.251Z</time>
      </trkpt>
      <trkpt lat="43.206890" lon="-2.390210">
        <ele>228.981</ele>
        <time>2026-07-16T10:37:41.251Z</time>
      </trkpt>
      <trkpt lat="43.206810" lon="-2.390150">
        <ele>229.589</ele>
        <time>2026-07-16T10:38:01.251Z</time>
      </trkpt>
      <trkpt lat="43.206720" lon="-2.390080">
        <ele>230.406</ele>
        <time>2026-07-16T10:38:21.251Z</time>
      </trkpt>
      <trkpt lat="43.206660" lon="-2.390010">
        <ele>231.626</ele>
        <time>2026-07-16T10:38:41.251Z</time>
      </trkpt>
      <trkpt lat="43.206610" lon="-2.389920">
        <ele>232.009</ele>
        <time>2026-07-16T10:39:01.251Z</time>
      </trkpt>
      <trkpt lat="43.206580" lon="-2.389830">
        <ele>232.560</ele>
        <time>2026-07-16T10:39:21.251Z</time>
      </trkpt>
      <trkpt lat="43.206570" lon="-2.389700">
        <ele>233.772</ele>
        <time>2026-07-16T10:39:41.251Z</time>
      </trkpt>
      <trkpt lat="43.206580" lon="-2.389530">
        <ele>234.869</ele>
        <time>2026-07-16T10:40:01.251Z</time>
      </trkpt>
      <trkpt lat="43.206600" lon="-2.389280">
        <ele>236.427</ele>
        <time>2026-07-16T10:40:21.251Z</time>
      </trkpt>
      <trkpt lat="43.206620" lon="-2.389080">
        <ele>238.190</ele>
        <time>2026-07-16T10:40:41.251Z</time>
      </trkpt>
      <trkpt lat="43.206630" lon="-2.388950">
        <ele>239.423</ele>
        <time>2026-07-16T10:41:01.251Z</time>
      </trkpt>
      <trkpt lat="43.206630" lon="-2.388830">
        <ele>240.599</ele>
        <time>2026-07-16T10:41:21.251Z</time>
      </trkpt>
      <trkpt lat="43.206620" lon="-2.388730">
        <ele>241.351</ele>
        <time>2026-07-16T10:41:41.251Z</time>
      </trkpt>
      <trkpt lat="43.206600" lon="-2.388630">
        <ele>241.948</ele>
        <time>2026-07-16T10:42:01.251Z</time>
      </trkpt>
      <trkpt lat="43.206480" lon="-2.388330">
        <ele>243.721</ele>
        <time>2026-07-16T10:42:21.251Z</time>
      </trkpt>
      <trkpt lat="43.206360" lon="-2.388170">
        <ele>245.241</ele>
        <time>2026-07-16T10:42:41.251Z</time>
      </trkpt>
      <trkpt lat="43.206240" lon="-2.388070">
        <ele>246.605</ele>
        <time>2026-07-16T10:43:01.251Z</time>
      </trkpt>
      <trkpt lat="43.206090" lon="-2.387970">
        <ele>247.509</ele>
        <time>2026-07-16T10:43:21.251Z</time>
      </trkpt>
      <trkpt lat="43.205940" lon="-2.387920">
        <ele>248.464</ele>
        <time>2026-07-16T10:43:41.251Z</time>
      </trkpt>
      <trkpt lat="43.205760" lon="-2.387880">
        <ele>249.756</ele>
        <time>2026-07-16T10:44:01.251Z</time>
      </trkpt>
      <trkpt lat="43.205530" lon="-2.387810">
        <ele>251.543</ele>
        <time>2026-07-16T10:44:21.251Z</time>
      </trkpt>
      <trkpt lat="43.205380" lon="-2.387710">
        <ele>252.151</ele>
        <time>2026-07-16T10:44:41.251Z</time>
      </trkpt>
      <trkpt lat="43.205250" lon="-2.387550">
        <ele>254.594</ele>
        <time>2026-07-16T10:45:01.251Z</time>
      </trkpt>
      <trkpt lat="43.205110" lon="-2.387300">
        <ele>256.937</ele>
        <time>2026-07-16T10:45:21.251Z</time>
      </trkpt>
      <trkpt lat="43.204890" lon="-2.386890">
        <ele>259.733</ele>
        <time>2026-07-16T10:45:41.251Z</time>
      </trkpt>
      <trkpt lat="43.204700" lon="-2.386500">
        <ele>262.575</ele>
        <time>2026-07-16T10:46:01.251Z</time>
      </trkpt>
      <trkpt lat="43.204600" lon="-2.386190">
        <ele>264.572</ele>
        <time>2026-07-16T10:46:21.251Z</time>
      </trkpt>
      <trkpt lat="43.204570" lon="-2.385940">
        <ele>266.455</ele>
        <time>2026-07-16T10:46:41.251Z</time>
      </trkpt>
      <trkpt lat="43.204540" lon="-2.385660">
        <ele>267.707</ele>
        <time>2026-07-16T10:47:01.251Z</time>
      </trkpt>
      <trkpt lat="43.204550" lon="-2.385480">
        <ele>268.617</ele>
        <time>2026-07-16T10:47:21.251Z</time>
      </trkpt>
      <trkpt lat="43.204580" lon="-2.385330">
        <ele>269.509</ele>
        <time>2026-07-16T10:47:41.251Z</time>
      </trkpt>
      <trkpt lat="43.204640" lon="-2.385200">
        <ele>270.527</ele>
        <time>2026-07-16T10:48:01.251Z</time>
      </trkpt>
      <trkpt lat="43.204740" lon="-2.385000">
        <ele>271.849</ele>
        <time>2026-07-16T10:48:21.251Z</time>
      </trkpt>
      <trkpt lat="43.204820" lon="-2.384870">
        <ele>274.346</ele>
        <time>2026-07-16T10:48:41.251Z</time>
      </trkpt>
      <trkpt lat="43.204840" lon="-2.384810">
        <ele>274.444</ele>
        <time>2026-07-16T10:49:01.251Z</time>
      </trkpt>
      <trkpt lat="43.204850" lon="-2.384740">
        <ele>273.927</ele>
        <time>2026-07-16T10:49:21.251Z</time>
      </trkpt>
      <trkpt lat="43.204840" lon="-2.384680">
        <ele>274.450</ele>
        <time>2026-07-16T10:49:41.251Z</time>
      </trkpt>
      <trkpt lat="43.204830" lon="-2.384630">
        <ele>275.426</ele>
        <time>2026-07-16T10:50:01.251Z</time>
      </trkpt>
      <trkpt lat="43.204780" lon="-2.384540">
        <ele>275.968</ele>
        <time>2026-07-16T10:50:21.251Z</time>
      </trkpt>
      <trkpt lat="43.204540" lon="-2.384170">
        <ele>277.775</ele>
        <time>2026-07-16T10:50:41.251Z</time>
      </trkpt>
      <trkpt lat="43.204300" lon="-2.383770">
        <ele>280.625</ele>
        <time>2026-07-16T10:51:01.251Z</time>
      </trkpt>
      <trkpt lat="43.204230" lon="-2.383640">
        <ele>281.426</ele>
        <time>2026-07-16T10:51:21.251Z</time>
      </trkpt>
      <trkpt lat="43.204170" lon="-2.383490">
        <ele>282.308</ele>
        <time>2026-07-16T10:51:41.251Z</time>
      </trkpt>
      <trkpt lat="43.204130" lon="-2.383380">
        <ele>282.909</ele>
        <time>2026-07-16T10:52:01.251Z</time>
      </trkpt>
      <trkpt lat="43.204100" lon="-2.383250">
        <ele>283.414</ele>
        <time>2026-07-16T10:52:21.251Z</time>
      </trkpt>
      <trkpt lat="43.204070" lon="-2.383090">
        <ele>283.866</ele>
        <time>2026-07-16T10:52:41.251Z</time>
      </trkpt>
      <trkpt lat="43.204020" lon="-2.382460">
        <ele>287.973</ele>
        <time>2026-07-16T10:53:01.251Z</time>
      </trkpt>
      <trkpt lat="43.203990" lon="-2.381930">
        <ele>293.411</ele>
        <time>2026-07-16T10:53:21.251Z</time>
      </trkpt>
      <trkpt lat="43.203990" lon="-2.381830">
        <ele>294.414</ele>
        <time>2026-07-16T10:53:41.251Z</time>
      </trkpt>
      <trkpt lat="43.203980" lon="-2.381750">
        <ele>294.477</ele>
        <time>2026-07-16T10:54:01.251Z</time>
      </trkpt>
      <trkpt lat="43.203960" lon="-2.381650">
        <ele>294.213</ele>
        <time>2026-07-16T10:54:21.251Z</time>
      </trkpt>
      <trkpt lat="43.203890" lon="-2.381340">
        <ele>296.055</ele>
        <time>2026-07-16T10:54:41.251Z</time>
      </trkpt>
      <trkpt lat="43.203840" lon="-2.381080">
        <ele>297.562</ele>
        <time>2026-07-16T10:55:01.251Z</time>
      </trkpt>
      <trkpt lat="43.203810" lon="-2.380810">
        <ele>299.084</ele>
        <time>2026-07-16T10:55:21.251Z</time>
      </trkpt>
      <trkpt lat="43.203790" lon="-2.380460">
        <ele>302.307</ele>
        <time>2026-07-16T10:55:41.251Z</time>
      </trkpt>
      <trkpt lat="43.203780" lon="-2.380370">
        <ele>303.317</ele>
        <time>2026-07-16T10:56:01.251Z</time>
      </trkpt>
      <trkpt lat="43.203670" lon="-2.380040">
        <ele>306.009</ele>
        <time>2026-07-16T10:56:21.251Z</time>
      </trkpt>
      <trkpt lat="43.203650" lon="-2.379990">
        <ele>306.180</ele>
        <time>2026-07-16T10:56:41.251Z</time>
      </trkpt>
      <trkpt lat="43.203620" lon="-2.379960">
        <ele>305.472</ele>
        <time>2026-07-16T10:57:01.251Z</time>
      </trkpt>
      <trkpt lat="43.203580" lon="-2.379950">
        <ele>306.299</ele>
        <time>2026-07-16T10:57:21.251Z</time>
      </trkpt>
      <trkpt lat="43.203540" lon="-2.379940">
        <ele>307.747</ele>
        <time>2026-07-16T10:57:41.251Z</time>
      </trkpt>
      <trkpt lat="43.203510" lon="-2.379940">
        <ele>308.680</ele>
        <time>2026-07-16T10:58:01.251Z</time>
      </trkpt>
      <trkpt lat="43.203480" lon="-2.379960">
        <ele>309.183</ele>
        <time>2026-07-16T10:58:21.251Z</time>
      </trkpt>
      <trkpt lat="43.203420" lon="-2.380030">
        <ele>309.829</ele>
        <time>2026-07-16T10:58:41.251Z</time>
      </trkpt>
      <trkpt lat="43.203270" lon="-2.380340">
        <ele>308.981</ele>
        <time>2026-07-16T10:59:01.251Z</time>
      </trkpt>
      <trkpt lat="43.203220" lon="-2.380400">
        <ele>308.568</ele>
        <time>2026-07-16T10:59:21.251Z</time>
      </trkpt>
      <trkpt lat="43.203180" lon="-2.380440">
        <ele>308.529</ele>
        <time>2026-07-16T10:59:41.251Z</time>
      </trkpt>
      <trkpt lat="43.203130" lon="-2.380460">
        <ele>309.300</ele>
        <time>2026-07-16T11:00:01.251Z</time>
      </trkpt>
      <trkpt lat="43.203080" lon="-2.380460">
        <ele>310.520</ele>
        <time>2026-07-16T11:00:21.251Z</time>
      </trkpt>
      <trkpt lat="43.203000" lon="-2.380450">
        <ele>311.209</ele>
        <time>2026-07-16T11:00:41.251Z</time>
      </trkpt>
      <trkpt lat="43.202760" lon="-2.380360">
        <ele>313.284</ele>
        <time>2026-07-16T11:01:01.251Z</time>
      </trkpt>
      <trkpt lat="43.202610" lon="-2.380340">
        <ele>315.846</ele>
        <time>2026-07-16T11:01:21.251Z</time>
      </trkpt>
      <trkpt lat="43.202500" lon="-2.380360">
        <ele>316.983</ele>
        <time>2026-07-16T11:01:41.251Z</time>
      </trkpt>
      <trkpt lat="43.202430" lon="-2.380420">
        <ele>318.891</ele>
        <time>2026-07-16T11:02:01.251Z</time>
      </trkpt>
      <trkpt lat="43.202330" lon="-2.380590">
        <ele>318.434</ele>
        <time>2026-07-16T11:02:21.251Z</time>
      </trkpt>
      <trkpt lat="43.202280" lon="-2.380690">
        <ele>317.717</ele>
        <time>2026-07-16T11:02:41.251Z</time>
      </trkpt>
      <trkpt lat="43.202170" lon="-2.380790">
        <ele>318.273</ele>
        <time>2026-07-16T11:03:01.251Z</time>
      </trkpt>
      <trkpt lat="43.202080" lon="-2.380830">
        <ele>318.725</ele>
        <time>2026-07-16T11:03:21.251Z</time>
      </trkpt>
      <trkpt lat="43.202000" lon="-2.380840">
        <ele>319.882</ele>
        <time>2026-07-16T11:03:41.251Z</time>
      </trkpt>
      <trkpt lat="43.201850" lon="-2.380800">
        <ele>320.862</ele>
        <time>2026-07-16T11:04:01.251Z</time>
      </trkpt>
      <trkpt lat="43.201750" lon="-2.380720">
        <ele>321.783</ele>
        <time>2026-07-16T11:04:21.251Z</time>
      </trkpt>
      <trkpt lat="43.201380" lon="-2.380300">
        <ele>326.311</ele>
        <time>2026-07-16T11:04:41.251Z</time>
      </trkpt>
      <trkpt lat="43.201100" lon="-2.380030">
        <ele>329.109</ele>
        <time>2026-07-16T11:05:01.251Z</time>
      </trkpt>
      <trkpt lat="43.201010" lon="-2.379920">
        <ele>329.788</ele>
        <time>2026-07-16T11:05:21.251Z</time>
      </trkpt>
      <trkpt lat="43.200860" lon="-2.379690">
        <ele>331.370</ele>
        <time>2026-07-16T11:05:41.251Z</time>
      </trkpt>
      <trkpt lat="43.200690" lon="-2.379310">
        <ele>333.097</ele>
        <time>2026-07-16T11:06:01.251Z</time>
      </trkpt>
      <trkpt lat="43.200570" lon="-2.378990">
        <ele>335.495</ele>
        <time>2026-07-16T11:06:21.251Z</time>
      </trkpt>
      <trkpt lat="43.200510" lon="-2.378680">
        <ele>338.558</ele>
        <time>2026-07-16T11:06:41.251Z</time>
      </trkpt>
      <trkpt lat="43.200490" lon="-2.378440">
        <ele>339.581</ele>
        <time>2026-07-16T11:07:01.251Z</time>
      </trkpt>
      <trkpt lat="43.200510" lon="-2.377860">
        <ele>343.847</ele>
        <time>2026-07-16T11:07:21.251Z</time>
      </trkpt>
      <trkpt lat="43.200570" lon="-2.377430">
        <ele>345.959</ele>
        <time>2026-07-16T11:07:41.251Z</time>
      </trkpt>
      <trkpt lat="43.200640" lon="-2.377280">
        <ele>346.966</ele>
        <time>2026-07-16T11:08:01.251Z</time>
      </trkpt>
      <trkpt lat="43.200710" lon="-2.377150">
        <ele>346.779</ele>
        <time>2026-07-16T11:08:21.251Z</time>
      </trkpt>
      <trkpt lat="43.200780" lon="-2.377110">
        <ele>347.805</ele>
        <time>2026-07-16T11:08:41.251Z</time>
      </trkpt>
      <trkpt lat="43.200890" lon="-2.377050">
        <ele>348.325</ele>
        <time>2026-07-16T11:09:01.251Z</time>
      </trkpt>
      <trkpt lat="43.200960" lon="-2.377040">
        <ele>348.909</ele>
        <time>2026-07-16T11:09:21.251Z</time>
      </trkpt>
      <trkpt lat="43.201020" lon="-2.377040">
        <ele>349.869</ele>
        <time>2026-07-16T11:09:41.251Z</time>
      </trkpt>
      <trkpt lat="43.201080" lon="-2.377050">
        <ele>351.131</ele>
        <time>2026-07-16T11:10:01.251Z</time>
      </trkpt>
      <trkpt lat="43.201430" lon="-2.377140">
        <ele>354.418</ele>
        <time>2026-07-16T11:10:21.251Z</time>
      </trkpt>
      <trkpt lat="43.201490" lon="-2.377150">
        <ele>355.176</ele>
        <time>2026-07-16T11:10:41.251Z</time>
      </trkpt>
      <trkpt lat="43.201530" lon="-2.377150">
        <ele>355.419</ele>
        <time>2026-07-16T11:11:01.251Z</time>
      </trkpt>
      <trkpt lat="43.201630" lon="-2.377110">
        <ele>355.222</ele>
        <time>2026-07-16T11:11:21.251Z</time>
      </trkpt>
      <trkpt lat="43.201670" lon="-2.377090">
        <ele>355.288</ele>
        <time>2026-07-16T11:11:41.251Z</time>
      </trkpt>
      <trkpt lat="43.201830" lon="-2.376940">
        <ele>356.760</ele>
        <time>2026-07-16T11:12:01.251Z</time>
      </trkpt>
      <trkpt lat="43.201900" lon="-2.376850">
        <ele>357.717</ele>
        <time>2026-07-16T11:12:21.251Z</time>
      </trkpt>
      <trkpt lat="43.201950" lon="-2.376760">
        <ele>358.174</ele>
        <time>2026-07-16T11:12:41.251Z</time>
      </trkpt>
      <trkpt lat="43.202070" lon="-2.376490">
        <ele>359.556</ele>
        <time>2026-07-16T11:13:01.251Z</time>
      </trkpt>
      <trkpt lat="43.202230" lon="-2.376030">
        <ele>363.721</ele>
        <time>2026-07-16T11:13:21.251Z</time>
      </trkpt>
      <trkpt lat="43.202280" lon="-2.375750">
        <ele>364.409</ele>
        <time>2026-07-16T11:13:41.251Z</time>
      </trkpt>
      <trkpt lat="43.202290" lon="-2.375570">
        <ele>365.429</ele>
        <time>2026-07-16T11:14:01.251Z</time>
      </trkpt>
      <trkpt lat="43.202260" lon="-2.374390">
        <ele>371.981</ele>
        <time>2026-07-16T11:14:21.251Z</time>
      </trkpt>
      <trkpt lat="43.202240" lon="-2.374160">
        <ele>372.838</ele>
        <time>2026-07-16T11:14:41.251Z</time>
      </trkpt>
      <trkpt lat="43.202190" lon="-2.373830">
        <ele>374.556</ele>
        <time>2026-07-16T11:15:01.251Z</time>
      </trkpt>
      <trkpt lat="43.202160" lon="-2.373630">
        <ele>375.399</ele>
        <time>2026-07-16T11:15:21.251Z</time>
      </trkpt>
      <trkpt lat="43.202140" lon="-2.373350">
        <ele>377.622</ele>
        <time>2026-07-16T11:15:41.251Z</time>
      </trkpt>
      <trkpt lat="43.202160" lon="-2.373140">
        <ele>378.888</ele>
        <time>2026-07-16T11:16:01.251Z</time>
      </trkpt>
      <trkpt lat="43.202220" lon="-2.372920">
        <ele>380.010</ele>
        <time>2026-07-16T11:16:21.251Z</time>
      </trkpt>
      <trkpt lat="43.202290" lon="-2.372610">
        <ele>380.327</ele>
        <time>2026-07-16T11:16:41.251Z</time>
      </trkpt>
      <trkpt lat="43.202320" lon="-2.372420">
        <ele>381.158</ele>
        <time>2026-07-16T11:17:01.251Z</time>
      </trkpt>
      <trkpt lat="43.202340" lon="-2.372040">
        <ele>383.952</ele>
        <time>2026-07-16T11:17:21.251Z</time>
      </trkpt>
      <trkpt lat="43.202380" lon="-2.371350">
        <ele>384.317</ele>
        <time>2026-07-16T11:17:41.251Z</time>
      </trkpt>
      <trkpt lat="43.202390" lon="-2.371070">
        <ele>385.009</ele>
        <time>2026-07-16T11:18:01.251Z</time>
      </trkpt>
      <trkpt lat="43.202390" lon="-2.370750">
        <ele>387.157</ele>
        <time>2026-07-16T11:18:21.251Z</time>
      </trkpt>
      <trkpt lat="43.202430" lon="-2.370280">
        <ele>389.569</ele>
        <time>2026-07-16T11:18:41.251Z</time>
      </trkpt>
      <trkpt lat="43.202570" lon="-2.369760">
        <ele>392.316</ele>
        <time>2026-07-16T11:19:01.251Z</time>
      </trkpt>
      <trkpt lat="43.202600" lon="-2.369530">
        <ele>392.824</ele>
        <time>2026-07-16T11:19:21.251Z</time>
      </trkpt>
      <trkpt lat="43.202580" lon="-2.369350">
        <ele>392.747</ele>
        <time>2026-07-16T11:19:41.251Z</time>
      </trkpt>
      <trkpt lat="43.202510" lon="-2.369180">
        <ele>392.880</ele>
        <time>2026-07-16T11:20:01.251Z</time>
      </trkpt>
      <trkpt lat="43.202410" lon="-2.369000">
        <ele>392.836</ele>
        <time>2026-07-16T11:20:21.251Z</time>
      </trkpt>
      <trkpt lat="43.202350" lon="-2.368800">
        <ele>391.558</ele>
        <time>2026-07-16T11:20:41.251Z</time>
      </trkpt>
      <trkpt lat="43.202300" lon="-2.368510">
        <ele>389.775</ele>
        <time>2026-07-16T11:21:01.251Z</time>
      </trkpt>
      <trkpt lat="43.202270" lon="-2.368260">
        <ele>389.281</ele>
        <time>2026-07-16T11:21:21.251Z</time>
      </trkpt>
      <trkpt lat="43.202300" lon="-2.367980">
        <ele>388.561</ele>
        <time>2026-07-16T11:21:41.251Z</time>
      </trkpt>
      <trkpt lat="43.202320" lon="-2.367750">
        <ele>388.517</ele>
        <time>2026-07-16T11:22:01.251Z</time>
      </trkpt>
      <trkpt lat="43.202290" lon="-2.367520">
        <ele>387.809</ele>
        <time>2026-07-16T11:22:21.251Z</time>
      </trkpt>
      <trkpt lat="43.202220" lon="-2.367350">
        <ele>386.280</ele>
        <time>2026-07-16T11:22:41.251Z</time>
      </trkpt>
      <trkpt lat="43.202040" lon="-2.367060">
        <ele>385.142</ele>
        <time>2026-07-16T11:23:01.251Z</time>
      </trkpt>
      <trkpt lat="43.201970" lon="-2.366890">
        <ele>384.599</ele>
        <time>2026-07-16T11:23:21.251Z</time>
      </trkpt>
      <trkpt lat="43.201980" lon="-2.366750">
        <ele>383.547</ele>
        <time>2026-07-16T11:23:41.251Z</time>
      </trkpt>
      <trkpt lat="43.202030" lon="-2.366530">
        <ele>384.660</ele>
        <time>2026-07-16T11:24:01.251Z</time>
      </trkpt>
      <trkpt lat="43.202140" lon="-2.366240">
        <ele>387.193</ele>
        <time>2026-07-16T11:24:21.251Z</time>
      </trkpt>
      <trkpt lat="43.202250" lon="-2.365990">
        <ele>387.269</ele>
        <time>2026-07-16T11:24:41.251Z</time>
      </trkpt>
      <trkpt lat="43.202360" lon="-2.365650">
        <ele>391.711</ele>
        <time>2026-07-16T11:25:01.251Z</time>
      </trkpt>
      <trkpt lat="43.202460" lon="-2.365390">
        <ele>394.968</ele>
        <time>2026-07-16T11:25:21.251Z</time>
      </trkpt>
      <trkpt lat="43.202590" lon="-2.365120">
        <ele>395.525</ele>
        <time>2026-07-16T11:25:41.251Z</time>
      </trkpt>
      <trkpt lat="43.202620" lon="-2.364990">
        <ele>396.826</ele>
        <time>2026-07-16T11:26:01.251Z</time>
      </trkpt>
      <trkpt lat="43.202630" lon="-2.364900">
        <ele>397.208</ele>
        <time>2026-07-16T11:26:21.251Z</time>
      </trkpt>
      <trkpt lat="43.202640" lon="-2.364790">
        <ele>397.809</ele>
        <time>2026-07-16T11:26:41.251Z</time>
      </trkpt>
      <trkpt lat="43.202570" lon="-2.364440">
        <ele>399.794</ele>
        <time>2026-07-16T11:27:01.251Z</time>
      </trkpt>
      <trkpt lat="43.202560" lon="-2.364290">
        <ele>400.296</ele>
        <time>2026-07-16T11:27:21.251Z</time>
      </trkpt>
      <trkpt lat="43.202560" lon="-2.364170">
        <ele>400.263</ele>
        <time>2026-07-16T11:27:41.251Z</time>
      </trkpt>
      <trkpt lat="43.202580" lon="-2.364070">
        <ele>401.521</ele>
        <time>2026-07-16T11:28:01.251Z</time>
      </trkpt>
      <trkpt lat="43.202740" lon="-2.363700">
        <ele>403.734</ele>
        <time>2026-07-16T11:28:21.251Z</time>
      </trkpt>
      <trkpt lat="43.202800" lon="-2.363530">
        <ele>404.697</ele>
        <time>2026-07-16T11:28:41.251Z</time>
      </trkpt>
      <trkpt lat="43.202900" lon="-2.363110">
        <ele>407.483</ele>
        <time>2026-07-16T11:29:01.251Z</time>
      </trkpt>
      <trkpt lat="43.202990" lon="-2.362680">
        <ele>409.135</ele>
        <time>2026-07-16T11:29:21.251Z</time>
      </trkpt>
      <trkpt lat="43.203130" lon="-2.362030">
        <ele>412.632</ele>
        <time>2026-07-16T11:29:41.251Z</time>
      </trkpt>
      <trkpt lat="43.203190" lon="-2.362020">
        <ele>412.666</ele>
        <time>2026-07-16T11:30:01.251Z</time>
      </trkpt>
      <trkpt lat="43.203260" lon="-2.361980">
        <ele>412.829</ele>
        <time>2026-07-16T11:30:21.251Z</time>
      </trkpt>
      <trkpt lat="43.203350" lon="-2.361910">
        <ele>413.321</ele>
        <time>2026-07-16T11:30:41.251Z</time>
      </trkpt>
      <trkpt lat="43.203420" lon="-2.361830">
        <ele>414.209</ele>
        <time>2026-07-16T11:31:01.251Z</time>
      </trkpt>
      <trkpt lat="43.203490" lon="-2.361720">
        <ele>415.468</ele>
        <time>2026-07-16T11:31:21.251Z</time>
      </trkpt>
      <trkpt lat="43.203600" lon="-2.361440">
        <ele>418.430</ele>
        <time>2026-07-16T11:31:41.251Z</time>
      </trkpt>
      <trkpt lat="43.203820" lon="-2.360810">
        <ele>424.187</ele>
        <time>2026-07-16T11:32:01.251Z</time>
      </trkpt>
      <trkpt lat="43.203980" lon="-2.360390">
        <ele>427.385</ele>
        <time>2026-07-16T11:32:21.251Z</time>
      </trkpt>
      <trkpt lat="43.204080" lon="-2.360080">
        <ele>429.068</ele>
        <time>2026-07-16T11:32:41.251Z</time>
      </trkpt>
      <trkpt lat="43.204120" lon="-2.359930">
        <ele>430.531</ele>
        <time>2026-07-16T11:33:01.251Z</time>
      </trkpt>
      <trkpt lat="43.204210" lon="-2.359220">
        <ele>435.427</ele>
        <time>2026-07-16T11:33:21.251Z</time>
      </trkpt>
      <trkpt lat="43.204310" lon="-2.358720">
        <ele>438.889</ele>
        <time>2026-07-16T11:33:41.251Z</time>
      </trkpt>
      <trkpt lat="43.204410" lon="-2.358500">
        <ele>440.726</ele>
        <time>2026-07-16T11:34:01.251Z</time>
      </trkpt>
      <trkpt lat="43.204560" lon="-2.358240">
        <ele>443.641</ele>
        <time>2026-07-16T11:34:21.251Z</time>
      </trkpt>
      <trkpt lat="43.204660" lon="-2.358100">
        <ele>445.781</ele>
        <time>2026-07-16T11:34:41.251Z</time>
      </trkpt>
      <trkpt lat="43.204840" lon="-2.357940">
        <ele>447.709</ele>
        <time>2026-07-16T11:35:01.251Z</time>
      </trkpt>
      <trkpt lat="43.205270" lon="-2.357660">
        <ele>453.409</ele>
        <time>2026-07-16T11:35:21.251Z</time>
      </trkpt>
      <trkpt lat="43.205400" lon="-2.357540">
        <ele>455.516</ele>
        <time>2026-07-16T11:35:41.251Z</time>
      </trkpt>
      <trkpt lat="43.205440" lon="-2.357500">
        <ele>456.288</ele>
        <time>2026-07-16T11:36:01.251Z</time>
      </trkpt>
      <trkpt lat="43.205480" lon="-2.357400">
        <ele>457.545</ele>
        <time>2026-07-16T11:36:21.251Z</time>
      </trkpt>
      <trkpt lat="43.205490" lon="-2.357300">
        <ele>457.383</ele>
        <time>2026-07-16T11:36:41.251Z</time>
      </trkpt>
      <trkpt lat="43.205480" lon="-2.357230">
        <ele>456.246</ele>
        <time>2026-07-16T11:37:01.251Z</time>
      </trkpt>
      <trkpt lat="43.205440" lon="-2.357100">
        <ele>457.299</ele>
        <time>2026-07-16T11:37:21.251Z</time>
      </trkpt>
      <trkpt lat="43.205360" lon="-2.356870">
        <ele>458.985</ele>
        <time>2026-07-16T11:37:41.251Z</time>
      </trkpt>
      <trkpt lat="43.205320" lon="-2.356720">
        <ele>460.337</ele>
        <time>2026-07-16T11:38:01.251Z</time>
      </trkpt>
      <trkpt lat="43.205320" lon="-2.356650">
        <ele>461.284</ele>
        <time>2026-07-16T11:38:21.251Z</time>
      </trkpt>
      <trkpt lat="43.205350" lon="-2.356560">
        <ele>461.574</ele>
        <time>2026-07-16T11:38:41.251Z</time>
      </trkpt>
      <trkpt lat="43.205410" lon="-2.356390">
        <ele>461.856</ele>
        <time>2026-07-16T11:39:01.251Z</time>
      </trkpt>
      <trkpt lat="43.205480" lon="-2.356300">
        <ele>461.821</ele>
        <time>2026-07-16T11:39:21.251Z</time>
      </trkpt>
      <trkpt lat="43.205600" lon="-2.356200">
        <ele>464.309</ele>
        <time>2026-07-16T11:39:41.251Z</time>
      </trkpt>
      <trkpt lat="43.205740" lon="-2.356080">
        <ele>467.859</ele>
        <time>2026-07-16T11:40:01.251Z</time>
      </trkpt>
      <trkpt lat="43.205810" lon="-2.355970">
        <ele>469.381</ele>
        <time>2026-07-16T11:40:21.251Z</time>
      </trkpt>
      <trkpt lat="43.205840" lon="-2.355920">
        <ele>470.258</ele>
        <time>2026-07-16T11:40:41.251Z</time>
      </trkpt>
      <trkpt lat="43.205850" lon="-2.355850">
        <ele>469.826</ele>
        <time>2026-07-16T11:41:01.251Z</time>
      </trkpt>
      <trkpt lat="43.205850" lon="-2.355780">
        <ele>470.899</ele>
        <time>2026-07-16T11:41:21.251Z</time>
      </trkpt>
      <trkpt lat="43.205850" lon="-2.355750">
        <ele>471.582</ele>
        <time>2026-07-16T11:41:41.251Z</time>
      </trkpt>
      <trkpt lat="43.205840" lon="-2.355720">
        <ele>471.718</ele>
        <time>2026-07-16T11:42:01.251Z</time>
      </trkpt>
      <trkpt lat="43.205680" lon="-2.355380">
        <ele>473.280</ele>
        <time>2026-07-16T11:42:21.252Z</time>
      </trkpt>
      <trkpt lat="43.205480" lon="-2.355040">
        <ele>474.497</ele>
        <time>2026-07-16T11:42:41.252Z</time>
      </trkpt>
      <trkpt lat="43.205360" lon="-2.354830">
        <ele>476.943</ele>
        <time>2026-07-16T11:43:01.252Z</time>
      </trkpt>
      <trkpt lat="43.205130" lon="-2.354440">
        <ele>480.764</ele>
        <time>2026-07-16T11:43:21.252Z</time>
      </trkpt>
      <trkpt lat="43.205050" lon="-2.354280">
        <ele>480.310</ele>
        <time>2026-07-16T11:43:41.252Z</time>
      </trkpt>
      <trkpt lat="43.205030" lon="-2.354170">
        <ele>481.409</ele>
        <time>2026-07-16T11:44:01.252Z</time>
      </trkpt>
      <trkpt lat="43.205030" lon="-2.354090">
        <ele>481.596</ele>
        <time>2026-07-16T11:44:21.252Z</time>
      </trkpt>
      <trkpt lat="43.205050" lon="-2.354020">
        <ele>482.558</ele>
        <time>2026-07-16T11:44:41.252Z</time>
      </trkpt>
      <trkpt lat="43.205120" lon="-2.353880">
        <ele>485.835</ele>
        <time>2026-07-16T11:45:01.252Z</time>
      </trkpt>
      <trkpt lat="43.205240" lon="-2.353720">
        <ele>486.633</ele>
        <time>2026-07-16T11:45:21.252Z</time>
      </trkpt>
      <trkpt lat="43.205490" lon="-2.353460">
        <ele>489.036</ele>
        <time>2026-07-16T11:45:41.252Z</time>
      </trkpt>
      <trkpt lat="43.205960" lon="-2.353040">
        <ele>496.569</ele>
        <time>2026-07-16T11:46:01.252Z</time>
      </trkpt>
      <trkpt lat="43.206190" lon="-2.352750">
        <ele>497.065</ele>
        <time>2026-07-16T11:46:21.252Z</time>
      </trkpt>
      <trkpt lat="43.206250" lon="-2.352550">
        <ele>497.587</ele>
        <time>2026-07-16T11:46:41.252Z</time>
      </trkpt>
      <trkpt lat="43.206260" lon="-2.352360">
        <ele>498.444</ele>
        <time>2026-07-16T11:47:01.252Z</time>
      </trkpt>
      <trkpt lat="43.206220" lon="-2.352120">
        <ele>497.819</ele>
        <time>2026-07-16T11:47:21.252Z</time>
      </trkpt>
      <trkpt lat="43.206080" lon="-2.351600">
        <ele>499.009</ele>
        <time>2026-07-16T11:47:41.252Z</time>
      </trkpt>
      <trkpt lat="43.205790" lon="-2.350680">
        <ele>500.519</ele>
        <time>2026-07-16T11:48:01.252Z</time>
      </trkpt>
      <trkpt lat="43.205750" lon="-2.350420">
        <ele>500.109</ele>
        <time>2026-07-16T11:48:21.252Z</time>
      </trkpt>
      <trkpt lat="43.205750" lon="-2.350270">
        <ele>500.283</ele>
        <time>2026-07-16T11:48:41.252Z</time>
      </trkpt>
      <trkpt lat="43.205770" lon="-2.350200">
        <ele>500.255</ele>
        <time>2026-07-16T11:49:01.252Z</time>
      </trkpt>
      <trkpt lat="43.205800" lon="-2.350120">
        <ele>500.482</ele>
        <time>2026-07-16T11:49:21.252Z</time>
      </trkpt>
      <trkpt lat="43.205860" lon="-2.350050">
        <ele>501.170</ele>
        <time>2026-07-16T11:49:41.252Z</time>
      </trkpt>
      <trkpt lat="43.205940" lon="-2.350010">
        <ele>502.173</ele>
        <time>2026-07-16T11:50:01.252Z</time>
      </trkpt>
      <trkpt lat="43.206050" lon="-2.349980">
        <ele>503.136</ele>
        <time>2026-07-16T11:50:21.252Z</time>
      </trkpt>
      <trkpt lat="43.206380" lon="-2.349970">
        <ele>505.382</ele>
        <time>2026-07-16T11:50:41.252Z</time>
      </trkpt>
      <trkpt lat="43.206670" lon="-2.349960">
        <ele>505.024</ele>
        <time>2026-07-16T11:51:01.252Z</time>
      </trkpt>
      <trkpt lat="43.207260" lon="-2.349890">
        <ele>507.131</ele>
        <time>2026-07-16T11:51:21.252Z</time>
      </trkpt>
      <trkpt lat="43.207410" lon="-2.349830">
        <ele>507.781</ele>
        <time>2026-07-16T11:51:41.252Z</time>
      </trkpt>
      <trkpt lat="43.207530" lon="-2.349730">
        <ele>506.561</ele>
        <time>2026-07-16T11:52:01.252Z</time>
      </trkpt>
      <trkpt lat="43.207620" lon="-2.349610">
        <ele>507.317</ele>
        <time>2026-07-16T11:52:21.252Z</time>
      </trkpt>
      <trkpt lat="43.207690" lon="-2.349450">
        <ele>507.009</ele>
        <time>2026-07-16T11:52:41.252Z</time>
      </trkpt>
      <trkpt lat="43.207740" lon="-2.349240">
        <ele>508.430</ele>
        <time>2026-07-16T11:53:01.252Z</time>
      </trkpt>
      <trkpt lat="43.207760" lon="-2.348980">
        <ele>507.852</ele>
        <time>2026-07-16T11:53:21.252Z</time>
      </trkpt>
      <trkpt lat="43.207780" lon="-2.348000">
        <ele>509.929</ele>
        <time>2026-07-16T11:53:41.252Z</time>
      </trkpt>
      <trkpt lat="43.207780" lon="-2.347530">
        <ele>509.127</ele>
        <time>2026-07-16T11:54:01.252Z</time>
      </trkpt>
      <trkpt lat="43.207780" lon="-2.346950">
        <ele>511.030</ele>
        <time>2026-07-16T11:54:21.252Z</time>
      </trkpt>
      <trkpt lat="43.207800" lon="-2.346310">
        <ele>511.843</ele>
        <time>2026-07-16T11:54:41.252Z</time>
      </trkpt>
      <trkpt lat="43.207820" lon="-2.345820">
        <ele>511.719</ele>
        <time>2026-07-16T11:55:01.252Z</time>
      </trkpt>
      <trkpt lat="43.207850" lon="-2.345660">
        <ele>511.121</ele>
        <time>2026-07-16T11:55:21.252Z</time>
      </trkpt>
      <trkpt lat="43.208050" lon="-2.344980">
        <ele>513.998</ele>
        <time>2026-07-16T11:55:41.252Z</time>
      </trkpt>
      <trkpt lat="43.208110" lon="-2.344750">
        <ele>511.979</ele>
        <time>2026-07-16T11:56:01.252Z</time>
      </trkpt>
      <trkpt lat="43.208140" lon="-2.344620">
        <ele>510.605</ele>
        <time>2026-07-16T11:56:21.252Z</time>
      </trkpt>
      <trkpt lat="43.208180" lon="-2.344370">
        <ele>509.725</ele>
        <time>2026-07-16T11:56:41.252Z</time>
      </trkpt>
      <trkpt lat="43.208220" lon="-2.344070">
        <ele>510.609</ele>
        <time>2026-07-16T11:57:01.252Z</time>
      </trkpt>
      <trkpt lat="43.208240" lon="-2.343610">
        <ele>515.739</ele>
        <time>2026-07-16T11:57:21.252Z</time>
      </trkpt>
      <trkpt lat="43.208230" lon="-2.343490">
        <ele>516.911</ele>
        <time>2026-07-16T11:57:41.252Z</time>
      </trkpt>
      <trkpt lat="43.208190" lon="-2.343410">
        <ele>517.828</ele>
        <time>2026-07-16T11:58:01.252Z</time>
      </trkpt>
      <trkpt lat="43.207860" lon="-2.343020">
        <ele>522.146</ele>
        <time>2026-07-16T11:58:21.252Z</time>
      </trkpt>
      <trkpt lat="43.207620" lon="-2.342710">
        <ele>524.879</ele>
        <time>2026-07-16T11:58:41.252Z</time>
      </trkpt>
      <trkpt lat="43.207370" lon="-2.342330">
        <ele>527.152</ele>
        <time>2026-07-16T11:59:01.252Z</time>
      </trkpt>
      <trkpt lat="43.207190" lon="-2.341970">
        <ele>530.218</ele>
        <time>2026-07-16T11:59:21.252Z</time>
      </trkpt>
      <trkpt lat="43.206920" lon="-2.341370">
        <ele>535.430</ele>
        <time>2026-07-16T11:59:41.252Z</time>
      </trkpt>
      <trkpt lat="43.206810" lon="-2.341010">
        <ele>538.777</ele>
        <time>2026-07-16T12:00:01.252Z</time>
      </trkpt>
      <trkpt lat="43.206710" lon="-2.340640">
        <ele>542.069</ele>
        <time>2026-07-16T12:00:21.252Z</time>
      </trkpt>
      <trkpt lat="43.206630" lon="-2.340090">
        <ele>546.304</ele>
        <time>2026-07-16T12:00:41.252Z</time>
      </trkpt>
      <trkpt lat="43.206550" lon="-2.339650">
        <ele>549.024</ele>
        <time>2026-07-16T12:01:01.252Z</time>
      </trkpt>
      <trkpt lat="43.206510" lon="-2.339460">
        <ele>550.109</ele>
        <time>2026-07-16T12:01:21.252Z</time>
      </trkpt>
      <trkpt lat="43.206520" lon="-2.339370">
        <ele>551.948</ele>
        <time>2026-07-16T12:01:41.252Z</time>
      </trkpt>
      <trkpt lat="43.206570" lon="-2.339330">
        <ele>554.470</ele>
        <time>2026-07-16T12:02:01.252Z</time>
      </trkpt>
      <trkpt lat="43.206630" lon="-2.339360">
        <ele>556.237</ele>
        <time>2026-07-16T12:02:21.252Z</time>
      </trkpt>
      <trkpt lat="43.206680" lon="-2.339470">
        <ele>556.295</ele>
        <time>2026-07-16T12:02:41.252Z</time>
      </trkpt>
      <trkpt lat="43.206770" lon="-2.339670">
        <ele>557.478</ele>
        <time>2026-07-16T12:03:01.252Z</time>
      </trkpt>
      <trkpt lat="43.206880" lon="-2.339860">
        <ele>558.781</ele>
        <time>2026-07-16T12:03:21.252Z</time>
      </trkpt>
      <trkpt lat="43.207030" lon="-2.340040">
        <ele>560.267</ele>
        <time>2026-07-16T12:03:41.252Z</time>
      </trkpt>
      <trkpt lat="43.207120" lon="-2.340120">
        <ele>561.479</ele>
        <time>2026-07-16T12:04:01.252Z</time>
      </trkpt>
      <trkpt lat="43.207210" lon="-2.340120">
        <ele>563.336</ele>
        <time>2026-07-16T12:04:21.252Z</time>
      </trkpt>
      <trkpt lat="43.207270" lon="-2.340070">
        <ele>563.636</ele>
        <time>2026-07-16T12:04:41.252Z</time>
      </trkpt>
      <trkpt lat="43.207290" lon="-2.339960">
        <ele>564.317</ele>
        <time>2026-07-16T12:05:01.252Z</time>
      </trkpt>
      <trkpt lat="43.207250" lon="-2.339830">
        <ele>566.218</ele>
        <time>2026-07-16T12:05:21.252Z</time>
      </trkpt>
      <trkpt lat="43.207150" lon="-2.339700">
        <ele>567.009</ele>
        <time>2026-07-16T12:05:41.252Z</time>
      </trkpt>
      <trkpt lat="43.207050" lon="-2.339550">
        <ele>567.435</ele>
        <time>2026-07-16T12:06:01.252Z</time>
      </trkpt>
      <trkpt lat="43.206920" lon="-2.339210">
        <ele>569.517</ele>
        <time>2026-07-16T12:06:21.252Z</time>
      </trkpt>
      <trkpt lat="43.206710" lon="-2.338590">
        <ele>574.514</ele>
        <time>2026-07-16T12:06:41.252Z</time>
      </trkpt>
      <trkpt lat="43.206530" lon="-2.337950">
        <ele>579.282</ele>
        <time>2026-07-16T12:07:01.252Z</time>
      </trkpt>
      <trkpt lat="43.206410" lon="-2.337420">
        <ele>583.335</ele>
        <time>2026-07-16T12:07:21.252Z</time>
      </trkpt>
      <trkpt lat="43.206340" lon="-2.337080">
        <ele>585.878</ele>
        <time>2026-07-16T12:07:41.252Z</time>
      </trkpt>
      <trkpt lat="43.206330" lon="-2.336900">
        <ele>587.354</ele>
        <time>2026-07-16T12:08:01.252Z</time>
      </trkpt>
      <trkpt lat="43.206360" lon="-2.336760">
        <ele>588.916</ele>
        <time>2026-07-16T12:08:21.252Z</time>
      </trkpt>
      <trkpt lat="43.206490" lon="-2.336490">
        <ele>592.143</ele>
        <time>2026-07-16T12:08:41.252Z</time>
      </trkpt>
      <trkpt lat="43.206650" lon="-2.336230">
        <ele>593.925</ele>
        <time>2026-07-16T12:09:01.252Z</time>
      </trkpt>
      <trkpt lat="43.206780" lon="-2.336010">
        <ele>594.326</ele>
        <time>2026-07-16T12:09:21.252Z</time>
      </trkpt>
      <trkpt lat="43.207020" lon="-2.335590">
        <ele>597.808</ele>
        <time>2026-07-16T12:09:41.252Z</time>
      </trkpt>
      <trkpt lat="43.207220" lon="-2.335190">
        <ele>602.309</ele>
        <time>2026-07-16T12:10:01.252Z</time>
      </trkpt>
      <trkpt lat="43.207300" lon="-2.335030">
        <ele>604.184</ele>
        <time>2026-07-16T12:10:21.252Z</time>
      </trkpt>
      <trkpt lat="43.207380" lon="-2.334940">
        <ele>605.566</ele>
        <time>2026-07-16T12:10:41.252Z</time>
      </trkpt>
      <trkpt lat="43.207440" lon="-2.334890">
        <ele>606.443</ele>
        <time>2026-07-16T12:11:01.252Z</time>
      </trkpt>
      <trkpt lat="43.207610" lon="-2.334820">
        <ele>608.141</ele>
        <time>2026-07-16T12:11:21.252Z</time>
      </trkpt>
      <trkpt lat="43.207760" lon="-2.334760">
        <ele>610.094</ele>
        <time>2026-07-16T12:11:41.252Z</time>
      </trkpt>
      <trkpt lat="43.207930" lon="-2.334720">
        <ele>612.197</ele>
        <time>2026-07-16T12:12:01.252Z</time>
      </trkpt>
      <trkpt lat="43.208080" lon="-2.334720">
        <ele>613.213</ele>
        <time>2026-07-16T12:12:21.252Z</time>
      </trkpt>
      <trkpt lat="43.208170" lon="-2.334730">
        <ele>613.655</ele>
        <time>2026-07-16T12:12:41.252Z</time>
      </trkpt>
      <trkpt lat="43.208240" lon="-2.334730">
        <ele>614.012</ele>
        <time>2026-07-16T12:13:01.252Z</time>
      </trkpt>
      <trkpt lat="43.208320" lon="-2.334690">
        <ele>615.579</ele>
        <time>2026-07-16T12:13:21.252Z</time>
      </trkpt>
      <trkpt lat="43.208360" lon="-2.334650">
        <ele>616.605</ele>
        <time>2026-07-16T12:13:41.252Z</time>
      </trkpt>
      <trkpt lat="43.208380" lon="-2.334610">
        <ele>617.625</ele>
        <time>2026-07-16T12:14:01.252Z</time>
      </trkpt>
      <trkpt lat="43.208390" lon="-2.334520">
        <ele>619.609</ele>
        <time>2026-07-16T12:14:21.252Z</time>
      </trkpt>
      <trkpt lat="43.208350" lon="-2.334400">
        <ele>621.259</ele>
        <time>2026-07-16T12:14:41.252Z</time>
      </trkpt>
      <trkpt lat="43.208200" lon="-2.334230">
        <ele>622.681</ele>
        <time>2026-07-16T12:15:01.252Z</time>
      </trkpt>
      <trkpt lat="43.208110" lon="-2.334120">
        <ele>622.958</ele>
        <time>2026-07-16T12:15:21.252Z</time>
      </trkpt>
      <trkpt lat="43.208090" lon="-2.334070">
        <ele>623.156</ele>
        <time>2026-07-16T12:15:41.252Z</time>
      </trkpt>
      <trkpt lat="43.208090" lon="-2.334020">
        <ele>623.469</ele>
        <time>2026-07-16T12:16:01.252Z</time>
      </trkpt>
      <trkpt lat="43.208100" lon="-2.333980">
        <ele>623.842</ele>
        <time>2026-07-16T12:16:21.252Z</time>
      </trkpt>
      <trkpt lat="43.208160" lon="-2.333930">
        <ele>624.818</ele>
        <time>2026-07-16T12:16:41.252Z</time>
      </trkpt>
      <trkpt lat="43.208240" lon="-2.333870">
        <ele>625.850</ele>
        <time>2026-07-16T12:17:01.252Z</time>
      </trkpt>
      <trkpt lat="43.208360" lon="-2.333760">
        <ele>626.727</ele>
        <time>2026-07-16T12:17:21.252Z</time>
      </trkpt>
      <trkpt lat="43.208470" lon="-2.333620">
        <ele>629.045</ele>
        <time>2026-07-16T12:17:41.252Z</time>
      </trkpt>
      <trkpt lat="43.208540" lon="-2.333450">
        <ele>630.647</ele>
        <time>2026-07-16T12:18:01.252Z</time>
      </trkpt>
      <trkpt lat="43.208580" lon="-2.333300">
        <ele>632.611</ele>
        <time>2026-07-16T12:18:21.252Z</time>
      </trkpt>
      <trkpt lat="43.208590" lon="-2.332830">
        <ele>636.409</ele>
        <time>2026-07-16T12:18:41.252Z</time>
      </trkpt>
      <trkpt lat="43.208560" lon="-2.332350">
        <ele>640.486</ele>
        <time>2026-07-16T12:19:01.252Z</time>
      </trkpt>
      <trkpt lat="43.208570" lon="-2.332020">
        <ele>643.228</ele>
        <time>2026-07-16T12:19:21.252Z</time>
      </trkpt>
      <trkpt lat="43.208640" lon="-2.331590">
        <ele>647.895</ele>
        <time>2026-07-16T12:19:41.252Z</time>
      </trkpt>
      <trkpt lat="43.208660" lon="-2.331330">
        <ele>650.463</ele>
        <time>2026-07-16T12:20:01.252Z</time>
      </trkpt>
      <trkpt lat="43.208660" lon="-2.331180">
        <ele>651.646</ele>
        <time>2026-07-16T12:20:21.252Z</time>
      </trkpt>
      <trkpt lat="43.208560" lon="-2.330240">
        <ele>659.159</ele>
        <time>2026-07-16T12:20:41.252Z</time>
      </trkpt>
      <trkpt lat="43.208490" lon="-2.329540">
        <ele>665.385</ele>
        <time>2026-07-16T12:21:01.252Z</time>
      </trkpt>
      <trkpt lat="43.208420" lon="-2.328910">
        <ele>669.887</ele>
        <time>2026-07-16T12:21:21.252Z</time>
      </trkpt>
      <trkpt lat="43.208420" lon="-2.328710">
        <ele>670.784</ele>
        <time>2026-07-16T12:21:41.252Z</time>
      </trkpt>
      <trkpt lat="43.208440" lon="-2.328590">
        <ele>671.889</ele>
        <time>2026-07-16T12:22:01.252Z</time>
      </trkpt>
      <trkpt lat="43.208470" lon="-2.328490">
        <ele>672.506</ele>
        <time>2026-07-16T12:22:21.252Z</time>
      </trkpt>
      <trkpt lat="43.208520" lon="-2.328400">
        <ele>672.926</ele>
        <time>2026-07-16T12:22:41.252Z</time>
      </trkpt>
      <trkpt lat="43.208620" lon="-2.328230">
        <ele>671.009</ele>
        <time>2026-07-16T12:23:01.252Z</time>
      </trkpt>
      <trkpt lat="43.208690" lon="-2.328070">
        <ele>669.640</ele>
        <time>2026-07-16T12:23:21.252Z</time>
      </trkpt>
      <trkpt lat="43.208720" lon="-2.327840">
        <ele>670.332</ele>
        <time>2026-07-16T12:23:41.252Z</time>
      </trkpt>
      <trkpt lat="43.208720" lon="-2.327620">
        <ele>670.999</ele>
        <time>2026-07-16T12:24:01.252Z</time>
      </trkpt>
      <trkpt lat="43.208720" lon="-2.327290">
        <ele>670.847</ele>
        <time>2026-07-16T12:24:21.252Z</time>
      </trkpt>
    </trkseg>
  </trk></gpx>