<?xml version="1.0" encoding="UTF-8"?><gpx creator="https://climbfinder.com" version="1.1"  xmlns:xsi="http://www.w3.org/2001/XMLSchema-instance"  xmlns="http://www.topografix.com/GPX/1/1" xsi:schemaLocation="http://www.topografix.com/GPX/1/1 http://www.topografix.com/GPX/1/1/gpx.xsd">
  <metadata>
    <name>alto-de-hazallanas-desde-guejar-sierra</name>
    <author>
      <link href="https://climbfinder.com">
        <text>climbfinder</text>
        <type>text/html</type>
      </link>
    </author>
  </metadata>
  <trk>
    <name>alto-de-hazallanas-desde-guejar-sierra</name>
    <trkseg>
			<trkpt lat="37.15414" lon="-3.43437">
        <ele>979.8</ele>
        <time>2026-08-05T09:00:00Z</time>
      </trkpt>
			<trkpt lat="37.15415" lon="-3.43433">
        <ele>979.8</ele>
        <time>2026-08-05T09:00:00Z</time>
      </trkpt>
			<trkpt lat="37.15419" lon="-3.43431">
        <ele>979.8</ele>
        <time>2026-08-05T09:00:01Z</time>
      </trkpt>
			<trkpt lat="37.15423" lon="-3.43432">
        <ele>979.8</ele>
        <time>2026-08-05T09:00:01Z</time>
      </trkpt>
			<trkpt lat="37.15444" lon="-3.4344">
        <ele>979.8</ele>
        <time>2026-08-05T09:00:04Z</time>
      </trkpt>
			<trkpt lat="37.15451" lon="-3.4344">
        <ele>979.8</ele>
        <time>2026-08-05T09:00:06Z</time>
      </trkpt>
			<trkpt lat="37.15453" lon="-3.43439">
        <ele>979.8</ele>
        <time>2026-08-05T09:00:06Z</time>
      </trkpt>
			<trkpt lat="37.15455" lon="-3.43436">
        <ele>979.8</ele>
        <time>2026-08-05T09:00:06Z</time>
      </trkpt>
			<trkpt lat="37.15459" lon="-3.43415">
        <ele>979.9</ele>
        <time>2026-08-05T09:00:09Z</time>
      </trkpt>
			<trkpt lat="37.15461" lon="-3.43401">
        <ele>980</ele>
        <time>2026-08-05T09:00:11Z</time>
      </trkpt>
			<trkpt lat="37.15462" lon="-3.43384">
        <ele>980.1</ele>
        <time>2026-08-05T09:00:14Z</time>
      </trkpt>
			<trkpt lat="37.15461" lon="-3.43363">
        <ele>980.3</ele>
        <time>2026-08-05T09:00:17Z</time>
      </trkpt>
			<trkpt lat="37.15463" lon="-3.4334">
        <ele>980.6</ele>
        <time>2026-08-05T09:00:20Z</time>
      </trkpt>
			<trkpt lat="37.1546" lon="-3.4334">
        <ele>980.7</ele>
        <time>2026-08-05T09:00:20Z</time>
      </trkpt>
			<trkpt lat="37.15459" lon="-3.43332">
        <ele>980.8</ele>
        <time>2026-08-05T09:00:22Z</time>
      </trkpt>
			<trkpt lat="37.15459" lon="-3.43324">
        <ele>980.9</ele>
        <time>2026-08-05T09:00:23Z</time>
      </trkpt>
			<trkpt lat="37.15457" lon="-3.43311">
        <ele>981.2</ele>
        <time>2026-08-05T09:00:25Z</time>
      </trkpt>
			<trkpt lat="37.15451" lon="-3.433">
        <ele>981.4</ele>
        <time>2026-08-05T09:00:27Z</time>
      </trkpt>
			<trkpt lat="37.15438" lon="-3.43282">
        <ele>982</ele>
        <time>2026-08-05T09:00:31Z</time>
      </trkpt>
			<trkpt lat="37.15412" lon="-3.4325">
        <ele>983.4</ele>
        <time>2026-08-05T09:00:39Z</time>
      </trkpt>
			<trkpt lat="37.15393" lon="-3.43233">
        <ele>984.4</ele>
        <time>2026-08-05T09:00:45Z</time>
      </trkpt>
			<trkpt lat="37.15374" lon="-3.43217">
        <ele>985.6</ele>
        <time>2026-08-05T09:00:52Z</time>
      </trkpt>
			<trkpt lat="37.15358" lon="-3.43197">
        <ele>986.9</ele>
        <time>2026-08-05T09:00:58Z</time>
      </trkpt>
			<trkpt lat="37.15348" lon="-3.43171">
        <ele>988.3</ele>
        <time>2026-08-05T09:01:05Z</time>
      </trkpt>
			<trkpt lat="37.15337" lon="-3.43146">
        <ele>989.9</ele>
        <time>2026-08-05T09:01:12Z</time>
      </trkpt>
			<trkpt lat="37.15322" lon="-3.43114">
        <ele>991.9</ele>
        <time>2026-08-05T09:01:21Z</time>
      </trkpt>
			<trkpt lat="37.15307" lon="-3.43083">
        <ele>994.1</ele>
        <time>2026-08-05T09:01:31Z</time>
      </trkpt>
			<trkpt lat="37.15298" lon="-3.43071">
        <ele>995</ele>
        <time>2026-08-05T09:01:35Z</time>
      </trkpt>
			<trkpt lat="37.15289" lon="-3.43061">
        <ele>995.9</ele>
        <time>2026-08-05T09:01:39Z</time>
      </trkpt>
			<trkpt lat="37.15284" lon="-3.43051">
        <ele>996.5</ele>
        <time>2026-08-05T09:01:42Z</time>
      </trkpt>
			<trkpt lat="37.15277" lon="-3.43024">
        <ele>998.1</ele>
        <time>2026-08-05T09:01:49Z</time>
      </trkpt>
			<trkpt lat="37.15271" lon="-3.42969">
        <ele>1001.1</ele>
        <time>2026-08-05T09:02:02Z</time>
      </trkpt>
			<trkpt lat="37.15268" lon="-3.42957">
        <ele>1001.7</ele>
        <time>2026-08-05T09:02:05Z</time>
      </trkpt>
			<trkpt lat="37.15253" lon="-3.42926">
        <ele>1003.4</ele>
        <time>2026-08-05T09:02:13Z</time>
      </trkpt>
			<trkpt lat="37.15235" lon="-3.4289">
        <ele>1005.2</ele>
        <time>2026-08-05T09:02:23Z</time>
      </trkpt>
			<trkpt lat="37.15229" lon="-3.42879">
        <ele>1005.7</ele>
        <time>2026-08-05T09:02:26Z</time>
      </trkpt>
			<trkpt lat="37.15224" lon="-3.42863">
        <ele>1006.3</ele>
        <time>2026-08-05T09:02:29Z</time>
      </trkpt>
			<trkpt lat="37.15223" lon="-3.4285">
        <ele>1006.8</ele>
        <time>2026-08-05T09:02:32Z</time>
      </trkpt>
			<trkpt lat="37.15224" lon="-3.42839">
        <ele>1007.1</ele>
        <time>2026-08-05T09:02:34Z</time>
      </trkpt>
			<trkpt lat="37.15226" lon="-3.42825">
        <ele>1007.6</ele>
        <time>2026-08-05T09:02:36Z</time>
      </trkpt>
			<trkpt lat="37.15238" lon="-3.42789">
        <ele>1008.6</ele>
        <time>2026-08-05T09:02:43Z</time>
      </trkpt>
			<trkpt lat="37.15247" lon="-3.42767">
        <ele>1009.2</ele>
        <time>2026-08-05T09:02:48Z</time>
      </trkpt>
			<trkpt lat="37.1525" lon="-3.42759">
        <ele>1009.3</ele>
        <time>2026-08-05T09:02:49Z</time>
      </trkpt>
			<trkpt lat="37.1525" lon="-3.4275">
        <ele>1009.5</ele>
        <time>2026-08-05T09:02:51Z</time>
      </trkpt>
			<trkpt lat="37.15257" lon="-3.42699">
        <ele>1010.3</ele>
        <time>2026-08-05T09:02:58Z</time>
      </trkpt>
			<trkpt lat="37.15257" lon="-3.42686">
        <ele>1010.5</ele>
        <time>2026-08-05T09:03:00Z</time>
      </trkpt>
			<trkpt lat="37.15254" lon="-3.42676">
        <ele>1010.6</ele>
        <time>2026-08-05T09:03:02Z</time>
      </trkpt>
			<trkpt lat="37.15251" lon="-3.42666">
        <ele>1010.7</ele>
        <time>2026-08-05T09:03:03Z</time>
      </trkpt>
			<trkpt lat="37.15246" lon="-3.42658">
        <ele>1010.8</ele>
        <time>2026-08-05T09:03:05Z</time>
      </trkpt>
			<trkpt lat="37.15227" lon="-3.42636">
        <ele>1011.2</ele>
        <time>2026-08-05T09:03:09Z</time>
      </trkpt>
			<trkpt lat="37.15208" lon="-3.42615">
        <ele>1011.5</ele>
        <time>2026-08-05T09:03:14Z</time>
      </trkpt>
			<trkpt lat="37.15205" lon="-3.42608">
        <ele>1011.6</ele>
        <time>2026-08-05T09:03:15Z</time>
      </trkpt>
			<trkpt lat="37.15201" lon="-3.42597">
        <ele>1011.7</ele>
        <time>2026-08-05T09:03:16Z</time>
      </trkpt>
			<trkpt lat="37.15192" lon="-3.42547">
        <ele>1012.4</ele>
        <time>2026-08-05T09:03:24Z</time>
      </trkpt>
			<trkpt lat="37.15183" lon="-3.42497">
        <ele>1013.5</ele>
        <time>2026-08-05T09:03:32Z</time>
      </trkpt>
			<trkpt lat="37.15181" lon="-3.42486">
        <ele>1013.9</ele>
        <time>2026-08-05T09:03:34Z</time>
      </trkpt>
			<trkpt lat="37.1518" lon="-3.42457">
        <ele>1014.7</ele>
        <time>2026-08-05T09:03:39Z</time>
      </trkpt>
			<trkpt lat="37.15178" lon="-3.42428">
        <ele>1015.9</ele>
        <time>2026-08-05T09:03:46Z</time>
      </trkpt>
			<trkpt lat="37.15178" lon="-3.42419">
        <ele>1016.2</ele>
        <time>2026-08-05T09:03:48Z</time>
      </trkpt>
			<trkpt lat="37.15182" lon="-3.42383">
        <ele>1018</ele>
        <time>2026-08-05T09:03:57Z</time>
      </trkpt>
			<trkpt lat="37.15182" lon="-3.42373">
        <ele>1018.5</ele>
        <time>2026-08-05T09:03:59Z</time>
      </trkpt>
			<trkpt lat="37.1518" lon="-3.42362">
        <ele>1019.1</ele>
        <time>2026-08-05T09:04:02Z</time>
      </trkpt>
			<trkpt lat="37.15167" lon="-3.42322">
        <ele>1021.7</ele>
        <time>2026-08-05T09:04:14Z</time>
      </trkpt>
			<trkpt lat="37.1516" lon="-3.42307">
        <ele>1022.8</ele>
        <time>2026-08-05T09:04:18Z</time>
      </trkpt>
			<trkpt lat="37.15145" lon="-3.42278">
        <ele>1025</ele>
        <time>2026-08-05T09:04:27Z</time>
      </trkpt>
			<trkpt lat="37.1513" lon="-3.4225">
        <ele>1027.1</ele>
        <time>2026-08-05T09:04:36Z</time>
      </trkpt>
			<trkpt lat="37.15109" lon="-3.42217">
        <ele>1029.6</ele>
        <time>2026-08-05T09:04:48Z</time>
      </trkpt>
			<trkpt lat="37.15091" lon="-3.42177">
        <ele>1031.7</ele>
        <time>2026-08-05T09:04:58Z</time>
      </trkpt>
			<trkpt lat="37.15073" lon="-3.42137">
        <ele>1033.3</ele>
        <time>2026-08-05T09:05:07Z</time>
      </trkpt>
			<trkpt lat="37.15068" lon="-3.42129">
        <ele>1033.6</ele>
        <time>2026-08-05T09:05:09Z</time>
      </trkpt>
			<trkpt lat="37.15048" lon="-3.42107">
        <ele>1034.3</ele>
        <time>2026-08-05T09:05:14Z</time>
      </trkpt>
			<trkpt lat="37.15044" lon="-3.42101">
        <ele>1034.4</ele>
        <time>2026-08-05T09:05:15Z</time>
      </trkpt>
			<trkpt lat="37.15039" lon="-3.42092">
        <ele>1034.6</ele>
        <time>2026-08-05T09:05:17Z</time>
      </trkpt>
			<trkpt lat="37.15034" lon="-3.42066">
        <ele>1034.8</ele>
        <time>2026-08-05T09:05:20Z</time>
      </trkpt>
			<trkpt lat="37.15029" lon="-3.42056">
        <ele>1034.9</ele>
        <time>2026-08-05T09:05:22Z</time>
      </trkpt>
			<trkpt lat="37.15022" lon="-3.42047">
        <ele>1035</ele>
        <time>2026-08-05T09:05:24Z</time>
      </trkpt>
			<trkpt lat="37.15014" lon="-3.42032">
        <ele>1035</ele>
        <time>2026-08-05T09:05:26Z</time>
      </trkpt>
			<trkpt lat="37.1501" lon="-3.42022">
        <ele>1035</ele>
        <time>2026-08-05T09:05:27Z</time>
      </trkpt>
			<trkpt lat="37.15007" lon="-3.42009">
        <ele>1035</ele>
        <time>2026-08-05T09:05:29Z</time>
      </trkpt>
			<trkpt lat="37.15006" lon="-3.41997">
        <ele>1035</ele>
        <time>2026-08-05T09:05:30Z</time>
      </trkpt>
			<trkpt lat="37.15008" lon="-3.41988">
        <ele>1035</ele>
        <time>2026-08-05T09:05:31Z</time>
      </trkpt>
			<trkpt lat="37.15011" lon="-3.41978">
        <ele>1035</ele>
        <time>2026-08-05T09:05:33Z</time>
      </trkpt>
			<trkpt lat="37.15025" lon="-3.41949">
        <ele>1035</ele>
        <time>2026-08-05T09:05:37Z</time>
      </trkpt>
			<trkpt lat="37.1503" lon="-3.41932">
        <ele>1034.9</ele>
        <time>2026-08-05T09:05:38Z</time>
      </trkpt>
			<trkpt lat="37.15036" lon="-3.41902">
        <ele>1035</ele>
        <time>2026-08-05T09:05:42Z</time>
      </trkpt>
			<trkpt lat="37.15042" lon="-3.41871">
        <ele>1035.2</ele>
        <time>2026-08-05T09:05:46Z</time>
      </trkpt>
			<trkpt lat="37.15041" lon="-3.4186">
        <ele>1035.2</ele>
        <time>2026-08-05T09:05:48Z</time>
      </trkpt>
			<trkpt lat="37.15038" lon="-3.41851">
        <ele>1035.3</ele>
        <time>2026-08-05T09:05:49Z</time>
      </trkpt>
			<trkpt lat="37.15026" lon="-3.41831">
        <ele>1035.6</ele>
        <time>2026-08-05T09:05:52Z</time>
      </trkpt>
			<trkpt lat="37.15017" lon="-3.41808">
        <ele>1036</ele>
        <time>2026-08-05T09:05:56Z</time>
      </trkpt>
			<trkpt lat="37.15013" lon="-3.41792">
        <ele>1036.4</ele>
        <time>2026-08-05T09:05:59Z</time>
      </trkpt>
			<trkpt lat="37.15001" lon="-3.41766">
        <ele>1037.1</ele>
        <time>2026-08-05T09:06:05Z</time>
      </trkpt>
			<trkpt lat="37.14987" lon="-3.41724">
        <ele>1038.4</ele>
        <time>2026-08-05T09:06:13Z</time>
      </trkpt>
			<trkpt lat="37.14975" lon="-3.41694">
        <ele>1039.6</ele>
        <time>2026-08-05T09:06:19Z</time>
      </trkpt>
			<trkpt lat="37.14962" lon="-3.41664">
        <ele>1041</ele>
        <time>2026-08-05T09:06:27Z</time>
      </trkpt>
			<trkpt lat="37.1496" lon="-3.41661">
        <ele>1041.2</ele>
        <time>2026-08-05T09:06:28Z</time>
      </trkpt>
			<trkpt lat="37.14949" lon="-3.41646">
        <ele>1042</ele>
        <time>2026-08-05T09:06:32Z</time>
      </trkpt>
			<trkpt lat="37.14934" lon="-3.41631">
        <ele>1043.1</ele>
        <time>2026-08-05T09:06:38Z</time>
      </trkpt>
			<trkpt lat="37.1493" lon="-3.41627">
        <ele>1043.4</ele>
        <time>2026-08-05T09:06:39Z</time>
      </trkpt>
			<trkpt lat="37.14927" lon="-3.41619">
        <ele>1043.8</ele>
        <time>2026-08-05T09:06:41Z</time>
      </trkpt>
			<trkpt lat="37.14913" lon="-3.41619">
        <ele>1044.6</ele>
        <time>2026-08-05T09:06:45Z</time>
      </trkpt>
			<trkpt lat="37.14902" lon="-3.41616">
        <ele>1045.3</ele>
        <time>2026-08-05T09:06:49Z</time>
      </trkpt>
			<trkpt lat="37.14881" lon="-3.416">
        <ele>1046.8</ele>
        <time>2026-08-05T09:06:56Z</time>
      </trkpt>
			<trkpt lat="37.1486" lon="-3.41584">
        <ele>1048.2</ele>
        <time>2026-08-05T09:07:03Z</time>
      </trkpt>
			<trkpt lat="37.14837" lon="-3.41562">
        <ele>1049.9</ele>
        <time>2026-08-05T09:07:11Z</time>
      </trkpt>
			<trkpt lat="37.14814" lon="-3.41545">
        <ele>1051.4</ele>
        <time>2026-08-05T09:07:18Z</time>
      </trkpt>
			<trkpt lat="37.1479" lon="-3.41528">
        <ele>1052.8</ele>
        <time>2026-08-05T09:07:26Z</time>
      </trkpt>
			<trkpt lat="37.14764" lon="-3.41514">
        <ele>1054.1</ele>
        <time>2026-08-05T09:07:33Z</time>
      </trkpt>
			<trkpt lat="37.14729" lon="-3.41488">
        <ele>1055.6</ele>
        <time>2026-08-05T09:07:42Z</time>
      </trkpt>
			<trkpt lat="37.14694" lon="-3.41461">
        <ele>1056.8</ele>
        <time>2026-08-05T09:07:52Z</time>
      </trkpt>
			<trkpt lat="37.14659" lon="-3.41435">
        <ele>1057.7</ele>
        <time>2026-08-05T09:07:59Z</time>
      </trkpt>
			<trkpt lat="37.14651" lon="-3.41429">
        <ele>1057.9</ele>
        <time>2026-08-05T09:08:01Z</time>
      </trkpt>
			<trkpt lat="37.14646" lon="-3.4142">
        <ele>1058.1</ele>
        <time>2026-08-05T09:08:03Z</time>
      </trkpt>
			<trkpt lat="37.14633" lon="-3.41385">
        <ele>1058.8</ele>
        <time>2026-08-05T09:08:09Z</time>
      </trkpt>
			<trkpt lat="37.14619" lon="-3.41351">
        <ele>1059.7</ele>
        <time>2026-08-05T09:08:15Z</time>
      </trkpt>
			<trkpt lat="37.14605" lon="-3.41324">
        <ele>1060.7</ele>
        <time>2026-08-05T09:08:22Z</time>
      </trkpt>
			<trkpt lat="37.14594" lon="-3.41312">
        <ele>1061.3</ele>
        <time>2026-08-05T09:08:26Z</time>
      </trkpt>
			<trkpt lat="37.14574" lon="-3.41293">
        <ele>1062.7</ele>
        <time>2026-08-05T09:08:33Z</time>
      </trkpt>
			<trkpt lat="37.14555" lon="-3.41271">
        <ele>1064.4</ele>
        <time>2026-08-05T09:08:41Z</time>
      </trkpt>
			<trkpt lat="37.14522" lon="-3.41235">
        <ele>1068</ele>
        <time>2026-08-05T09:08:55Z</time>
      </trkpt>
			<trkpt lat="37.14518" lon="-3.41231">
        <ele>1068.6</ele>
        <time>2026-08-05T09:08:58Z</time>
      </trkpt>
			<trkpt lat="37.14501" lon="-3.41219">
        <ele>1070.6</ele>
        <time>2026-08-05T09:09:06Z</time>
      </trkpt>
			<trkpt lat="37.14491" lon="-3.41214">
        <ele>1071.9</ele>
        <time>2026-08-05T09:09:12Z</time>
      </trkpt>
			<trkpt lat="37.1448" lon="-3.41213">
        <ele>1073.2</ele>
        <time>2026-08-05T09:09:17Z</time>
      </trkpt>
			<trkpt lat="37.14472" lon="-3.41214">
        <ele>1074.2</ele>
        <time>2026-08-05T09:09:21Z</time>
      </trkpt>
			<trkpt lat="37.14431" lon="-3.4123">
        <ele>1080</ele>
        <time>2026-08-05T09:09:46Z</time>
      </trkpt>
			<trkpt lat="37.14409" lon="-3.4123">
        <ele>1083.2</ele>
        <time>2026-08-05T09:10:01Z</time>
      </trkpt>
			<trkpt lat="37.14375" lon="-3.41227">
        <ele>1088.4</ele>
        <time>2026-08-05T09:10:23Z</time>
      </trkpt>
			<trkpt lat="37.14356" lon="-3.41226">
        <ele>1091.3</ele>
        <time>2026-08-05T09:10:36Z</time>
      </trkpt>
			<trkpt lat="37.1433" lon="-3.41227">
        <ele>1095.2</ele>
        <time>2026-08-05T09:10:53Z</time>
      </trkpt>
			<trkpt lat="37.14326" lon="-3.41219">
        <ele>1096.4</ele>
        <time>2026-08-05T09:10:58Z</time>
      </trkpt>
			<trkpt lat="37.14318" lon="-3.41191">
        <ele>1099.7</ele>
        <time>2026-08-05T09:11:14Z</time>
      </trkpt>
			<trkpt lat="37.14309" lon="-3.41163">
        <ele>1102.8</ele>
        <time>2026-08-05T09:11:28Z</time>
      </trkpt>
			<trkpt lat="37.14284" lon="-3.41131">
        <ele>1106.7</ele>
        <time>2026-08-05T09:11:46Z</time>
      </trkpt>
			<trkpt lat="37.14275" lon="-3.41113">
        <ele>1108.3</ele>
        <time>2026-08-05T09:11:53Z</time>
      </trkpt>
			<trkpt lat="37.14265" lon="-3.41094">
        <ele>1109.8</ele>
        <time>2026-08-05T09:11:59Z</time>
      </trkpt>
			<trkpt lat="37.14243" lon="-3.41064">
        <ele>1112</ele>
        <time>2026-08-05T09:12:09Z</time>
      </trkpt>
			<trkpt lat="37.14234" lon="-3.41047">
        <ele>1112.9</ele>
        <time>2026-08-05T09:12:13Z</time>
      </trkpt>
			<trkpt lat="37.14228" lon="-3.41026">
        <ele>1113.7</ele>
        <time>2026-08-05T09:12:18Z</time>
      </trkpt>
			<trkpt lat="37.14223" lon="-3.40998">
        <ele>1114.7</ele>
        <time>2026-08-05T09:12:24Z</time>
      </trkpt>
			<trkpt lat="37.14218" lon="-3.4099">
        <ele>1115</ele>
        <time>2026-08-05T09:12:25Z</time>
      </trkpt>
			<trkpt lat="37.14209" lon="-3.40984">
        <ele>1115.3</ele>
        <time>2026-08-05T09:12:28Z</time>
      </trkpt>
			<trkpt lat="37.14207" lon="-3.4098">
        <ele>1115.5</ele>
        <time>2026-08-05T09:12:29Z</time>
      </trkpt>
			<trkpt lat="37.14208" lon="-3.40974">
        <ele>1115.7</ele>
        <time>2026-08-05T09:12:30Z</time>
      </trkpt>
			<trkpt lat="37.1421" lon="-3.40969">
        <ele>1115.8</ele>
        <time>2026-08-05T09:12:31Z</time>
      </trkpt>
			<trkpt lat="37.14221" lon="-3.40953">
        <ele>1116.3</ele>
        <time>2026-08-05T09:12:35Z</time>
      </trkpt>
			<trkpt lat="37.14235" lon="-3.40934">
        <ele>1117.1</ele>
        <time>2026-08-05T09:12:39Z</time>
      </trkpt>
			<trkpt lat="37.14254" lon="-3.40897">
        <ele>1118.4</ele>
        <time>2026-08-05T09:12:47Z</time>
      </trkpt>
			<trkpt lat="37.14256" lon="-3.40886">
        <ele>1118.8</ele>
        <time>2026-08-05T09:12:49Z</time>
      </trkpt>
			<trkpt lat="37.14254" lon="-3.4088">
        <ele>1119</ele>
        <time>2026-08-05T09:12:50Z</time>
      </trkpt>
			<trkpt lat="37.14244" lon="-3.40876">
        <ele>1119.6</ele>
        <time>2026-08-05T09:12:53Z</time>
      </trkpt>
			<trkpt lat="37.14232" lon="-3.40869">
        <ele>1120.3</ele>
        <time>2026-08-05T09:12:57Z</time>
      </trkpt>
			<trkpt lat="37.14221" lon="-3.40861">
        <ele>1121</ele>
        <time>2026-08-05T09:13:01Z</time>
      </trkpt>
			<trkpt lat="37.14214" lon="-3.40853">
        <ele>1121.6</ele>
        <time>2026-08-05T09:13:04Z</time>
      </trkpt>
			<trkpt lat="37.14208" lon="-3.40835">
        <ele>1122.6</ele>
        <time>2026-08-05T09:13:08Z</time>
      </trkpt>
			<trkpt lat="37.14205" lon="-3.40811">
        <ele>1124</ele>
        <time>2026-08-05T09:13:15Z</time>
      </trkpt>
			<trkpt lat="37.14201" lon="-3.40806">
        <ele>1124.5</ele>
        <time>2026-08-05T09:13:17Z</time>
      </trkpt>
			<trkpt lat="37.14197" lon="-3.40806">
        <ele>1124.8</ele>
        <time>2026-08-05T09:13:19Z</time>
      </trkpt>
			<trkpt lat="37.14195" lon="-3.4081">
        <ele>1125.1</ele>
        <time>2026-08-05T09:13:20Z</time>
      </trkpt>
			<trkpt lat="37.14194" lon="-3.4082">
        <ele>1125.8</ele>
        <time>2026-08-05T09:13:23Z</time>
      </trkpt>
			<trkpt lat="37.14203" lon="-3.40852">
        <ele>1128.3</ele>
        <time>2026-08-05T09:13:34Z</time>
      </trkpt>
			<trkpt lat="37.14202" lon="-3.40857">
        <ele>1128.7</ele>
        <time>2026-08-05T09:13:36Z</time>
      </trkpt>
			<trkpt lat="37.14199" lon="-3.40859">
        <ele>1129</ele>
        <time>2026-08-05T09:13:37Z</time>
      </trkpt>
			<trkpt lat="37.14196" lon="-3.40856">
        <ele>1129.4</ele>
        <time>2026-08-05T09:13:39Z</time>
      </trkpt>
			<trkpt lat="37.14191" lon="-3.4084">
        <ele>1130.8</ele>
        <time>2026-08-05T09:13:45Z</time>
      </trkpt>
			<trkpt lat="37.14173" lon="-3.40791">
        <ele>1135.5</ele>
        <time>2026-08-05T09:14:06Z</time>
      </trkpt>
			<trkpt lat="37.14151" lon="-3.40742">
        <ele>1140.4</ele>
        <time>2026-08-05T09:14:29Z</time>
      </trkpt>
			<trkpt lat="37.14148" lon="-3.40723">
        <ele>1142.2</ele>
        <time>2026-08-05T09:14:36Z</time>
      </trkpt>
			<trkpt lat="37.14144" lon="-3.4072">
        <ele>1142.7</ele>
        <time>2026-08-05T09:14:39Z</time>
      </trkpt>
			<trkpt lat="37.14141" lon="-3.40726">
        <ele>1143.3</ele>
        <time>2026-08-05T09:14:42Z</time>
      </trkpt>
			<trkpt lat="37.1414" lon="-3.40731">
        <ele>1143.8</ele>
        <time>2026-08-05T09:14:44Z</time>
      </trkpt>
			<trkpt lat="37.1414" lon="-3.40742">
        <ele>1144.6</ele>
        <time>2026-08-05T09:14:47Z</time>
      </trkpt>
			<trkpt lat="37.14137" lon="-3.40747">
        <ele>1145.2</ele>
        <time>2026-08-05T09:14:50Z</time>
      </trkpt>
			<trkpt lat="37.14136" lon="-3.40755">
        <ele>1145.9</ele>
        <time>2026-08-05T09:14:53Z</time>
      </trkpt>
			<trkpt lat="37.14139" lon="-3.40767">
        <ele>1146.9</ele>
        <time>2026-08-05T09:14:57Z</time>
      </trkpt>
			<trkpt lat="37.14144" lon="-3.40777">
        <ele>1147.9</ele>
        <time>2026-08-05T09:15:02Z</time>
      </trkpt>
			<trkpt lat="37.14144" lon="-3.40784">
        <ele>1148.5</ele>
        <time>2026-08-05T09:15:05Z</time>
      </trkpt>
			<trkpt lat="37.14141" lon="-3.40785">
        <ele>1148.8</ele>
        <time>2026-08-05T09:15:06Z</time>
      </trkpt>
			<trkpt lat="37.14129" lon="-3.40771">
        <ele>1150.5</ele>
        <time>2026-08-05T09:15:14Z</time>
      </trkpt>
			<trkpt lat="37.14116" lon="-3.40759">
        <ele>1152.1</ele>
        <time>2026-08-05T09:15:21Z</time>
      </trkpt>
			<trkpt lat="37.14095" lon="-3.40729">
        <ele>1155.1</ele>
        <time>2026-08-05T09:15:33Z</time>
      </trkpt>
			<trkpt lat="37.14087" lon="-3.40714">
        <ele>1156.4</ele>
        <time>2026-08-05T09:15:39Z</time>
      </trkpt>
			<trkpt lat="37.1408" lon="-3.40693">
        <ele>1158.1</ele>
        <time>2026-08-05T09:15:46Z</time>
      </trkpt>
			<trkpt lat="37.14081" lon="-3.40672">
        <ele>1159.7</ele>
        <time>2026-08-05T09:15:54Z</time>
      </trkpt>
			<trkpt lat="37.14081" lon="-3.40664">
        <ele>1160.3</ele>
        <time>2026-08-05T09:15:56Z</time>
      </trkpt>
			<trkpt lat="37.14067" lon="-3.40647">
        <ele>1162.3</ele>
        <time>2026-08-05T09:16:05Z</time>
      </trkpt>
			<trkpt lat="37.14059" lon="-3.40634">
        <ele>1163.6</ele>
        <time>2026-08-05T09:16:11Z</time>
      </trkpt>
			<trkpt lat="37.14042" lon="-3.40594">
        <ele>1167.6</ele>
        <time>2026-08-05T09:16:29Z</time>
      </trkpt>
			<trkpt lat="37.14038" lon="-3.40579">
        <ele>1169.1</ele>
        <time>2026-08-05T09:16:35Z</time>
      </trkpt>
			<trkpt lat="37.14028" lon="-3.40557">
        <ele>1171.8</ele>
        <time>2026-08-05T09:16:47Z</time>
      </trkpt>
			<trkpt lat="37.14017" lon="-3.40539">
        <ele>1174.4</ele>
        <time>2026-08-05T09:16:59Z</time>
      </trkpt>
			<trkpt lat="37.14003" lon="-3.40513">
        <ele>1178.3</ele>
        <time>2026-08-05T09:17:16Z</time>
      </trkpt>
			<trkpt lat="37.13991" lon="-3.40473">
        <ele>1184</ele>
        <time>2026-08-05T09:17:43Z</time>
      </trkpt>
			<trkpt lat="37.13978" lon="-3.40434">
        <ele>1190.3</ele>
        <time>2026-08-05T09:18:10Z</time>
      </trkpt>
			<trkpt lat="37.1396" lon="-3.40405">
        <ele>1195.9</ele>
        <time>2026-08-05T09:18:33Z</time>
      </trkpt>
			<trkpt lat="37.13939" lon="-3.40374">
        <ele>1201.9</ele>
        <time>2026-08-05T09:18:59Z</time>
      </trkpt>
			<trkpt lat="37.13909" lon="-3.40342">
        <ele>1208.5</ele>
        <time>2026-08-05T09:19:31Z</time>
      </trkpt>
			<trkpt lat="37.13898" lon="-3.40319">
        <ele>1211.9</ele>
        <time>2026-08-05T09:19:45Z</time>
      </trkpt>
			<trkpt lat="37.13888" lon="-3.40285">
        <ele>1215.9</ele>
        <time>2026-08-05T09:20:02Z</time>
      </trkpt>
			<trkpt lat="37.13882" lon="-3.40274">
        <ele>1217.3</ele>
        <time>2026-08-05T09:20:08Z</time>
      </trkpt>
			<trkpt lat="37.13872" lon="-3.40269">
        <ele>1218.7</ele>
        <time>2026-08-05T09:20:14Z</time>
      </trkpt>
			<trkpt lat="37.13865" lon="-3.40274">
        <ele>1219.6</ele>
        <time>2026-08-05T09:20:18Z</time>
      </trkpt>
			<trkpt lat="37.13866" lon="-3.40298">
        <ele>1221.8</ele>
        <time>2026-08-05T09:20:27Z</time>
      </trkpt>
			<trkpt lat="37.13875" lon="-3.40325">
        <ele>1224.2</ele>
        <time>2026-08-05T09:20:38Z</time>
      </trkpt>
			<trkpt lat="37.13892" lon="-3.40365">
        <ele>1227.6</ele>
        <time>2026-08-05T09:20:52Z</time>
      </trkpt>
			<trkpt lat="37.13908" lon="-3.40406">
        <ele>1230.7</ele>
        <time>2026-08-05T09:21:07Z</time>
      </trkpt>
			<trkpt lat="37.13924" lon="-3.40443">
        <ele>1233.5</ele>
        <time>2026-08-05T09:21:20Z</time>
      </trkpt>
			<trkpt lat="37.13922" lon="-3.4046">
        <ele>1234.6</ele>
        <time>2026-08-05T09:21:25Z</time>
      </trkpt>
			<trkpt lat="37.13914" lon="-3.40478">
        <ele>1236</ele>
        <time>2026-08-05T09:21:31Z</time>
      </trkpt>
			<trkpt lat="37.13904" lon="-3.40486">
        <ele>1237</ele>
        <time>2026-08-05T09:21:36Z</time>
      </trkpt>
			<trkpt lat="37.13882" lon="-3.40493">
        <ele>1239</ele>
        <time>2026-08-05T09:21:45Z</time>
      </trkpt>
			<trkpt lat="37.13874" lon="-3.40499">
        <ele>1239.9</ele>
        <time>2026-08-05T09:21:49Z</time>
      </trkpt>
			<trkpt lat="37.13871" lon="-3.40508">
        <ele>1240.5</ele>
        <time>2026-08-05T09:21:52Z</time>
      </trkpt>
			<trkpt lat="37.1387" lon="-3.40521">
        <ele>1241.5</ele>
        <time>2026-08-05T09:21:57Z</time>
      </trkpt>
			<trkpt lat="37.13872" lon="-3.40552">
        <ele>1243.9</ele>
        <time>2026-08-05T09:22:08Z</time>
      </trkpt>
			<trkpt lat="37.13866" lon="-3.40563">
        <ele>1244.9</ele>
        <time>2026-08-05T09:22:12Z</time>
      </trkpt>
			<trkpt lat="37.13857" lon="-3.40573">
        <ele>1246.3</ele>
        <time>2026-08-05T09:22:18Z</time>
      </trkpt>
			<trkpt lat="37.13851" lon="-3.40582">
        <ele>1247.2</ele>
        <time>2026-08-05T09:22:22Z</time>
      </trkpt>
			<trkpt lat="37.13848" lon="-3.40592">
        <ele>1248.1</ele>
        <time>2026-08-05T09:22:26Z</time>
      </trkpt>
			<trkpt lat="37.13845" lon="-3.40595">
        <ele>1248.6</ele>
        <time>2026-08-05T09:22:29Z</time>
      </trkpt>
			<trkpt lat="37.13841" lon="-3.40592">
        <ele>1249.1</ele>
        <time>2026-08-05T09:22:31Z</time>
      </trkpt>
			<trkpt lat="37.13839" lon="-3.40587">
        <ele>1249.7</ele>
        <time>2026-08-05T09:22:33Z</time>
      </trkpt>
			<trkpt lat="37.13843" lon="-3.40547">
        <ele>1253.7</ele>
        <time>2026-08-05T09:22:50Z</time>
      </trkpt>
			<trkpt lat="37.13839" lon="-3.40536">
        <ele>1254.9</ele>
        <time>2026-08-05T09:22:54Z</time>
      </trkpt>
			<trkpt lat="37.13831" lon="-3.40522">
        <ele>1256.9</ele>
        <time>2026-08-05T09:23:04Z</time>
      </trkpt>
			<trkpt lat="37.13828" lon="-3.40499">
        <ele>1259.5</ele>
        <time>2026-08-05T09:23:16Z</time>
      </trkpt>
			<trkpt lat="37.13833" lon="-3.40465">
        <ele>1263.9</ele>
        <time>2026-08-05T09:23:34Z</time>
      </trkpt>
			<trkpt lat="37.13832" lon="-3.40434">
        <ele>1268.1</ele>
        <time>2026-08-05T09:23:54Z</time>
      </trkpt>
			<trkpt lat="37.13826" lon="-3.40413">
        <ele>1271.4</ele>
        <time>2026-08-05T09:24:08Z</time>
      </trkpt>
			<trkpt lat="37.13814" lon="-3.40392">
        <ele>1275.4</ele>
        <time>2026-08-05T09:24:25Z</time>
      </trkpt>
			<trkpt lat="37.13787" lon="-3.40364">
        <ele>1282.6</ele>
        <time>2026-08-05T09:24:53Z</time>
      </trkpt>
			<trkpt lat="37.13771" lon="-3.40334">
        <ele>1288.8</ele>
        <time>2026-08-05T09:25:16Z</time>
      </trkpt>
			<trkpt lat="37.13755" lon="-3.40304">
        <ele>1295</ele>
        <time>2026-08-05T09:25:39Z</time>
      </trkpt>
			<trkpt lat="37.13743" lon="-3.40278">
        <ele>1300</ele>
        <time>2026-08-05T09:25:58Z</time>
      </trkpt>
			<trkpt lat="37.13731" lon="-3.40253">
        <ele>1304.8</ele>
        <time>2026-08-05T09:26:17Z</time>
      </trkpt>
			<trkpt lat="37.1371" lon="-3.40234">
        <ele>1309.8</ele>
        <time>2026-08-05T09:26:37Z</time>
      </trkpt>
			<trkpt lat="37.13687" lon="-3.40214">
        <ele>1314.8</ele>
        <time>2026-08-05T09:27:00Z</time>
      </trkpt>
			<trkpt lat="37.13663" lon="-3.40194">
        <ele>1319</ele>
        <time>2026-08-05T09:27:19Z</time>
      </trkpt>
			<trkpt lat="37.13638" lon="-3.40182">
        <ele>1322.4</ele>
        <time>2026-08-05T09:27:33Z</time>
      </trkpt>
			<trkpt lat="37.13611" lon="-3.40173">
        <ele>1325.4</ele>
        <time>2026-08-05T09:27:46Z</time>
      </trkpt>
			<trkpt lat="37.13593" lon="-3.4017">
        <ele>1327.1</ele>
        <time>2026-08-05T09:27:54Z</time>
      </trkpt>
			<trkpt lat="37.13571" lon="-3.40175">
        <ele>1328.8</ele>
        <time>2026-08-05T09:28:01Z</time>
      </trkpt>
			<trkpt lat="37.13558" lon="-3.40175">
        <ele>1329.8</ele>
        <time>2026-08-05T09:28:06Z</time>
      </trkpt>
			<trkpt lat="37.13537" lon="-3.40164">
        <ele>1331.1</ele>
        <time>2026-08-05T09:28:12Z</time>
      </trkpt>
			<trkpt lat="37.1353" lon="-3.40154">
        <ele>1331.7</ele>
        <time>2026-08-05T09:28:15Z</time>
      </trkpt>
			<trkpt lat="37.13516" lon="-3.4013">
        <ele>1332.9</ele>
        <time>2026-08-05T09:28:22Z</time>
      </trkpt>
			<trkpt lat="37.13502" lon="-3.401">
        <ele>1334.2</ele>
        <time>2026-08-05T09:28:29Z</time>
      </trkpt>
			<trkpt lat="37.13489" lon="-3.40086">
        <ele>1335</ele>
        <time>2026-08-05T09:28:33Z</time>
      </trkpt>
			<trkpt lat="37.1346" lon="-3.40069">
        <ele>1336.5</ele>
        <time>2026-08-05T09:28:41Z</time>
      </trkpt>
			<trkpt lat="37.13442" lon="-3.40061">
        <ele>1337.5</ele>
        <time>2026-08-05T09:28:47Z</time>
      </trkpt>
			<trkpt lat="37.13429" lon="-3.40059">
        <ele>1338.1</ele>
        <time>2026-08-05T09:28:50Z</time>
      </trkpt>
			<trkpt lat="37.13416" lon="-3.40059">
        <ele>1338.8</ele>
        <time>2026-08-05T09:28:54Z</time>
      </trkpt>
			<trkpt lat="37.13397" lon="-3.40073">
        <ele>1340</ele>
        <time>2026-08-05T09:29:00Z</time>
      </trkpt>
			<trkpt lat="37.13357" lon="-3.40095">
        <ele>1342.7</ele>
        <time>2026-08-05T09:29:13Z</time>
      </trkpt>
			<trkpt lat="37.13326" lon="-3.40098">
        <ele>1344.6</ele>
        <time>2026-08-05T09:29:22Z</time>
      </trkpt>
			<trkpt lat="37.13314" lon="-3.40094">
        <ele>1345.4</ele>
        <time>2026-08-05T09:29:26Z</time>
      </trkpt>
			<trkpt lat="37.13307" lon="-3.40075">
        <ele>1346.6</ele>
        <time>2026-08-05T09:29:31Z</time>
      </trkpt>
			<trkpt lat="37.133" lon="-3.40065">
        <ele>1347.3</ele>
        <time>2026-08-05T09:29:34Z</time>
      </trkpt>
			<trkpt lat="37.13263" lon="-3.40046">
        <ele>1350</ele>
        <time>2026-08-05T09:29:47Z</time>
      </trkpt>
			<trkpt lat="37.13262" lon="-3.40034">
        <ele>1350.7</ele>
        <time>2026-08-05T09:29:50Z</time>
      </trkpt>
			<trkpt lat="37.13264" lon="-3.40019">
        <ele>1351.5</ele>
        <time>2026-08-05T09:29:54Z</time>
      </trkpt>
			<trkpt lat="37.13277" lon="-3.3998">
        <ele>1354.1</ele>
        <time>2026-08-05T09:30:05Z</time>
      </trkpt>
			<trkpt lat="37.13282" lon="-3.39946">
        <ele>1356.3</ele>
        <time>2026-08-05T09:30:14Z</time>
      </trkpt>
			<trkpt lat="37.13281" lon="-3.39912">
        <ele>1358.9</ele>
        <time>2026-08-05T09:30:26Z</time>
      </trkpt>
			<trkpt lat="37.13283" lon="-3.39884">
        <ele>1361</ele>
        <time>2026-08-05T09:30:35Z</time>
      </trkpt>
			<trkpt lat="37.1328" lon="-3.39872">
        <ele>1362.2</ele>
        <time>2026-08-05T09:30:40Z</time>
      </trkpt>
			<trkpt lat="37.13275" lon="-3.39857">
        <ele>1363.6</ele>
        <time>2026-08-05T09:30:47Z</time>
      </trkpt>
			<trkpt lat="37.13273" lon="-3.39858">
        <ele>1363.8</ele>
        <time>2026-08-05T09:30:47Z</time>
      </trkpt>
			<trkpt lat="37.13269" lon="-3.3987">
        <ele>1365.1</ele>
        <time>2026-08-05T09:30:53Z</time>
      </trkpt>
			<trkpt lat="37.13266" lon="-3.39874">
        <ele>1365.6</ele>
        <time>2026-08-05T09:30:55Z</time>
      </trkpt>
			<trkpt lat="37.1325" lon="-3.39922">
        <ele>1371</ele>
        <time>2026-08-05T09:31:19Z</time>
      </trkpt>
			<trkpt lat="37.13242" lon="-3.39961">
        <ele>1375.5</ele>
        <time>2026-08-05T09:31:40Z</time>
      </trkpt>
			<trkpt lat="37.13225" lon="-3.3998">
        <ele>1378.7</ele>
        <time>2026-08-05T09:31:55Z</time>
      </trkpt>
			<trkpt lat="37.13204" lon="-3.40018">
        <ele>1384</ele>
        <time>2026-08-05T09:32:20Z</time>
      </trkpt>
			<trkpt lat="37.1319" lon="-3.40041">
        <ele>1387.2</ele>
        <time>2026-08-05T09:32:33Z</time>
      </trkpt>
			<trkpt lat="37.13157" lon="-3.40066">
        <ele>1392</ele>
        <time>2026-08-05T09:32:52Z</time>
      </trkpt>
			<trkpt lat="37.13152" lon="-3.40072">
        <ele>1392.9</ele>
        <time>2026-08-05T09:32:56Z</time>
      </trkpt>
			<trkpt lat="37.13148" lon="-3.40081">
        <ele>1393.8</ele>
        <time>2026-08-05T09:33:00Z</time>
      </trkpt>
			<trkpt lat="37.13148" lon="-3.4009">
        <ele>1394.6</ele>
        <time>2026-08-05T09:33:04Z</time>
      </trkpt>
			<trkpt lat="37.13153" lon="-3.40099">
        <ele>1395.6</ele>
        <time>2026-08-05T09:33:08Z</time>
      </trkpt>
			<trkpt lat="37.13166" lon="-3.4011">
        <ele>1397.1</ele>
        <time>2026-08-05T09:33:15Z</time>
      </trkpt>
			<trkpt lat="37.13177" lon="-3.40123">
        <ele>1398.6</ele>
        <time>2026-08-05T09:33:22Z</time>
      </trkpt>
			<trkpt lat="37.13191" lon="-3.40152">
        <ele>1400.9</ele>
        <time>2026-08-05T09:33:33Z</time>
      </trkpt>
			<trkpt lat="37.13204" lon="-3.40183">
        <ele>1403</ele>
        <time>2026-08-05T09:33:42Z</time>
      </trkpt>
			<trkpt lat="37.13214" lon="-3.40198">
        <ele>1404.1</ele>
        <time>2026-08-05T09:33:47Z</time>
      </trkpt>
			<trkpt lat="37.13234" lon="-3.40212">
        <ele>1405.4</ele>
        <time>2026-08-05T09:33:53Z</time>
      </trkpt>
			<trkpt lat="37.13259" lon="-3.40231">
        <ele>1406.9</ele>
        <time>2026-08-05T09:34:02Z</time>
      </trkpt>
			<trkpt lat="37.13283" lon="-3.4025">
        <ele>1408.2</ele>
        <time>2026-08-05T09:34:09Z</time>
      </trkpt>
			<trkpt lat="37.13309" lon="-3.40261">
        <ele>1409.4</ele>
        <time>2026-08-05T09:34:16Z</time>
      </trkpt>
			<trkpt lat="37.13349" lon="-3.40272">
        <ele>1411.2</ele>
        <time>2026-08-05T09:34:26Z</time>
      </trkpt>
			<trkpt lat="37.13358" lon="-3.40279">
        <ele>1411.7</ele>
        <time>2026-08-05T09:34:29Z</time>
      </trkpt>
			<trkpt lat="37.13381" lon="-3.40312">
        <ele>1413.3</ele>
        <time>2026-08-05T09:34:37Z</time>
      </trkpt>
			<trkpt lat="37.13394" lon="-3.40326">
        <ele>1414.2</ele>
        <time>2026-08-05T09:34:42Z</time>
      </trkpt>
			<trkpt lat="37.1341" lon="-3.4033">
        <ele>1415.1</ele>
        <time>2026-08-05T09:34:47Z</time>
      </trkpt>
			<trkpt lat="37.13428" lon="-3.40331">
        <ele>1416.2</ele>
        <time>2026-08-05T09:34:52Z</time>
      </trkpt>
			<trkpt lat="37.13443" lon="-3.40334">
        <ele>1417.2</ele>
        <time>2026-08-05T09:34:57Z</time>
      </trkpt>
			<trkpt lat="37.13454" lon="-3.40341">
        <ele>1418</ele>
        <time>2026-08-05T09:35:01Z</time>
      </trkpt>
			<trkpt lat="37.13465" lon="-3.40354">
        <ele>1419.1</ele>
        <time>2026-08-05T09:35:06Z</time>
      </trkpt>
			<trkpt lat="37.13472" lon="-3.4037">
        <ele>1420.1</ele>
        <time>2026-08-05T09:35:10Z</time>
      </trkpt>
			<trkpt lat="37.13474" lon="-3.4038">
        <ele>1420.7</ele>
        <time>2026-08-05T09:35:13Z</time>
      </trkpt>
			<trkpt lat="37.13474" lon="-3.40391">
        <ele>1421.4</ele>
        <time>2026-08-05T09:35:16Z</time>
      </trkpt>
			<trkpt lat="37.1347" lon="-3.40403">
        <ele>1422.2</ele>
        <time>2026-08-05T09:35:19Z</time>
      </trkpt>
			<trkpt lat="37.13465" lon="-3.40412">
        <ele>1422.9</ele>
        <time>2026-08-05T09:35:22Z</time>
      </trkpt>
			<trkpt lat="37.13455" lon="-3.40424">
        <ele>1424.1</ele>
        <time>2026-08-05T09:35:28Z</time>
      </trkpt>
			<trkpt lat="37.13448" lon="-3.40429">
        <ele>1424.8</ele>
        <time>2026-08-05T09:35:31Z</time>
      </trkpt>
			<trkpt lat="37.13438" lon="-3.40433">
        <ele>1425.7</ele>
        <time>2026-08-05T09:35:35Z</time>
      </trkpt>
			<trkpt lat="37.13411" lon="-3.40434">
        <ele>1428.2</ele>
        <time>2026-08-05T09:35:46Z</time>
      </trkpt>
			<trkpt lat="37.13401" lon="-3.40438">
        <ele>1429.3</ele>
        <time>2026-08-05T09:35:51Z</time>
      </trkpt>
			<trkpt lat="37.13396" lon="-3.40446">
        <ele>1430.1</ele>
        <time>2026-08-05T09:35:54Z</time>
      </trkpt>
			<trkpt lat="37.13393" lon="-3.4046">
        <ele>1431.1</ele>
        <time>2026-08-05T09:35:59Z</time>
      </trkpt>
			<trkpt lat="37.13391" lon="-3.40479">
        <ele>1432.7</ele>
        <time>2026-08-05T09:36:06Z</time>
      </trkpt>
			<trkpt lat="37.13386" lon="-3.40495">
        <ele>1434.2</ele>
        <time>2026-08-05T09:36:13Z</time>
      </trkpt>
			<trkpt lat="37.1338" lon="-3.40511">
        <ele>1435.6</ele>
        <time>2026-08-05T09:36:19Z</time>
      </trkpt>
			<trkpt lat="37.13377" lon="-3.40525">
        <ele>1436.9</ele>
        <time>2026-08-05T09:36:25Z</time>
      </trkpt>
			<trkpt lat="37.13377" lon="-3.40555">
        <ele>1439.6</ele>
        <time>2026-08-05T09:36:37Z</time>
      </trkpt>
			<trkpt lat="37.13379" lon="-3.40576">
        <ele>1441.4</ele>
        <time>2026-08-05T09:36:45Z</time>
      </trkpt>
			<trkpt lat="37.1338" lon="-3.40593">
        <ele>1443.1</ele>
        <time>2026-08-05T09:36:52Z</time>
      </trkpt>
			<trkpt lat="37.13383" lon="-3.40606">
        <ele>1444.3</ele>
        <time>2026-08-05T09:36:57Z</time>
      </trkpt>
			<trkpt lat="37.13395" lon="-3.40636">
        <ele>1447.4</ele>
        <time>2026-08-05T09:37:11Z</time>
      </trkpt>
			<trkpt lat="37.13398" lon="-3.4065">
        <ele>1448.8</ele>
        <time>2026-08-05T09:37:16Z</time>
      </trkpt>
			<trkpt lat="37.13394" lon="-3.40668">
        <ele>1450.7</ele>
        <time>2026-08-05T09:37:24Z</time>
      </trkpt>
			<trkpt lat="37.13387" lon="-3.40691">
        <ele>1453.2</ele>
        <time>2026-08-05T09:37:34Z</time>
      </trkpt>
			<trkpt lat="37.13374" lon="-3.40721">
        <ele>1456.7</ele>
        <time>2026-08-05T09:37:49Z</time>
      </trkpt>
			<trkpt lat="37.13364" lon="-3.40739">
        <ele>1459</ele>
        <time>2026-08-05T09:37:59Z</time>
      </trkpt>
			<trkpt lat="37.1334" lon="-3.40763">
        <ele>1463.2</ele>
        <time>2026-08-05T09:38:17Z</time>
      </trkpt>
			<trkpt lat="37.13333" lon="-3.40774">
        <ele>1464.9</ele>
        <time>2026-08-05T09:38:24Z</time>
      </trkpt>
			<trkpt lat="37.13331" lon="-3.40783">
        <ele>1465.9</ele>
        <time>2026-08-05T09:38:28Z</time>
      </trkpt>
			<trkpt lat="37.13332" lon="-3.408">
        <ele>1467.9</ele>
        <time>2026-08-05T09:38:38Z</time>
      </trkpt>
			<trkpt lat="37.1334" lon="-3.40841">
        <ele>1473</ele>
        <time>2026-08-05T09:39:00Z</time>
      </trkpt>
			<trkpt lat="37.13347" lon="-3.40883">
        <ele>1478.3</ele>
        <time>2026-08-05T09:39:23Z</time>
      </trkpt>
			<trkpt lat="37.1335" lon="-3.40917">
        <ele>1482.4</ele>
        <time>2026-08-05T09:39:41Z</time>
      </trkpt>
			<trkpt lat="37.13356" lon="-3.40933">
        <ele>1484.6</ele>
        <time>2026-08-05T09:39:50Z</time>
      </trkpt>
			<trkpt lat="37.1338" lon="-3.40973">
        <ele>1490.3</ele>
        <time>2026-08-05T09:40:17Z</time>
      </trkpt>
			<trkpt lat="37.13389" lon="-3.41005">
        <ele>1493.9</ele>
        <time>2026-08-05T09:40:33Z</time>
      </trkpt>
			<trkpt lat="37.13398" lon="-3.41034">
        <ele>1496.9</ele>
        <time>2026-08-05T09:40:45Z</time>
      </trkpt>
			<trkpt lat="37.13406" lon="-3.41064">
        <ele>1499.5</ele>
        <time>2026-08-05T09:40:56Z</time>
      </trkpt>
			<trkpt lat="37.13403" lon="-3.41082">
        <ele>1500.8</ele>
        <time>2026-08-05T09:41:02Z</time>
      </trkpt>
			<trkpt lat="37.13397" lon="-3.411">
        <ele>1502</ele>
        <time>2026-08-05T09:41:07Z</time>
      </trkpt>
			<trkpt lat="37.13394" lon="-3.41123">
        <ele>1503.3</ele>
        <time>2026-08-05T09:41:13Z</time>
      </trkpt>
			<trkpt lat="37.13392" lon="-3.41179">
        <ele>1505.5</ele>
        <time>2026-08-05T09:41:24Z</time>
      </trkpt>
			<trkpt lat="37.1339" lon="-3.41205">
        <ele>1506.1</ele>
        <time>2026-08-05T09:41:29Z</time>
      </trkpt>
			<trkpt lat="37.1339" lon="-3.41223">
        <ele>1506.4</ele>
        <time>2026-08-05T09:41:31Z</time>
      </trkpt>
			<trkpt lat="37.13394" lon="-3.41238">
        <ele>1506.6</ele>
        <time>2026-08-05T09:41:34Z</time>
      </trkpt>
			<trkpt lat="37.13405" lon="-3.41255">
        <ele>1506.9</ele>
        <time>2026-08-05T09:41:37Z</time>
      </trkpt>
			<trkpt lat="37.13412" lon="-3.41271">
        <ele>1507</ele>
        <time>2026-08-05T09:41:40Z</time>
      </trkpt>
			<trkpt lat="37.13421" lon="-3.41281">
        <ele>1507</ele>
        <time>2026-08-05T09:41:41Z</time>
      </trkpt>
			<trkpt lat="37.13432" lon="-3.41292">
        <ele>1507.1</ele>
        <time>2026-08-05T09:41:44Z</time>
      </trkpt>
			<trkpt lat="37.13438" lon="-3.41302">
        <ele>1507.1</ele>
        <time>2026-08-05T09:41:45Z</time>
      </trkpt>
			<trkpt lat="37.13439" lon="-3.41313">
        <ele>1507.1</ele>
        <time>2026-08-05T09:41:47Z</time>
      </trkpt>
			<trkpt lat="37.13439" lon="-3.41331">
        <ele>1507.1</ele>
        <time>2026-08-05T09:41:49Z</time>
      </trkpt>
			<trkpt lat="37.1344" lon="-3.4134">
        <ele>1507.1</ele>
        <time>2026-08-05T09:41:50Z</time>
      </trkpt>
			<trkpt lat="37.13445" lon="-3.41347">
        <ele>1507.1</ele>
        <time>2026-08-05T09:41:51Z</time>
      </trkpt>
			<trkpt lat="37.13452" lon="-3.4135">
        <ele>1507.1</ele>
        <time>2026-08-05T09:41:52Z</time>
      </trkpt>
			<trkpt lat="37.13462" lon="-3.4135">
        <ele>1507.1</ele>
        <time>2026-08-05T09:41:53Z</time>
      </trkpt>
			<trkpt lat="37.1347" lon="-3.41347">
        <ele>1507.2</ele>
        <time>2026-08-05T09:41:55Z</time>
      </trkpt>
			<trkpt lat="37.1348" lon="-3.41342">
        <ele>1507.2</ele>
        <time>2026-08-05T09:41:56Z</time>
      </trkpt>
			<trkpt lat="37.13488" lon="-3.41332">
        <ele>1507.3</ele>
        <time>2026-08-05T09:41:58Z</time>
      </trkpt>
			<trkpt lat="37.1351" lon="-3.41292">
        <ele>1507.8</ele>
        <time>2026-08-05T09:42:05Z</time>
      </trkpt>
			<trkpt lat="37.13516" lon="-3.41288">
        <ele>1508</ele>
        <time>2026-08-05T09:42:07Z</time>
      </trkpt>
			<trkpt lat="37.13529" lon="-3.41289">
        <ele>1508.3</ele>
        <time>2026-08-05T09:42:09Z</time>
      </trkpt>
			<trkpt lat="37.13537" lon="-3.41296">
        <ele>1508.6</ele>
        <time>2026-08-05T09:42:11Z</time>
      </trkpt>
			<trkpt lat="37.13547" lon="-3.4131">
        <ele>1509.1</ele>
        <time>2026-08-05T09:42:15Z</time>
      </trkpt>
			<trkpt lat="37.13559" lon="-3.41335">
        <ele>1510.1</ele>
        <time>2026-08-05T09:42:21Z</time>
      </trkpt>
			<trkpt lat="37.13565" lon="-3.41357">
        <ele>1511.2</ele>
        <time>2026-08-05T09:42:26Z</time>
      </trkpt>
			<trkpt lat="37.13573" lon="-3.4137">
        <ele>1512</ele>
        <time>2026-08-05T09:42:30Z</time>
      </trkpt>
			<trkpt lat="37.13607" lon="-3.41401">
        <ele>1515.1</ele>
        <time>2026-08-05T09:42:44Z</time>
      </trkpt>
			<trkpt lat="37.13613" lon="-3.4142">
        <ele>1516.5</ele>
        <time>2026-08-05T09:42:50Z</time>
      </trkpt>
			<trkpt lat="37.13616" lon="-3.41472">
        <ele>1520.4</ele>
        <time>2026-08-05T09:43:07Z</time>
      </trkpt>
			<trkpt lat="37.13616" lon="-3.41509">
        <ele>1523.1</ele>
        <time>2026-08-05T09:43:19Z</time>
      </trkpt>
			<trkpt lat="37.13621" lon="-3.41526">
        <ele>1524.3</ele>
        <time>2026-08-05T09:43:23Z</time>
      </trkpt>
			<trkpt lat="37.13641" lon="-3.41549">
        <ele>1526.7</ele>
        <time>2026-08-05T09:43:34Z</time>
      </trkpt>
			<trkpt lat="37.13648" lon="-3.41561">
        <ele>1527.6</ele>
        <time>2026-08-05T09:43:38Z</time>
      </trkpt>
			<trkpt lat="37.1366" lon="-3.41601">
        <ele>1530</ele>
        <time>2026-08-05T09:43:49Z</time>
      </trkpt>
			<trkpt lat="37.13667" lon="-3.41613">
        <ele>1530.7</ele>
        <time>2026-08-05T09:43:52Z</time>
      </trkpt>
			<trkpt lat="37.13676" lon="-3.41621">
        <ele>1531.4</ele>
        <time>2026-08-05T09:43:55Z</time>
      </trkpt>
			<trkpt lat="37.13694" lon="-3.41635">
        <ele>1532.6</ele>
        <time>2026-08-05T09:44:02Z</time>
      </trkpt>
			<trkpt lat="37.13704" lon="-3.41646">
        <ele>1533.3</ele>
        <time>2026-08-05T09:44:05Z</time>
      </trkpt>
			<trkpt lat="37.13717" lon="-3.41674">
        <ele>1534.7</ele>
        <time>2026-08-05T09:44:13Z</time>
      </trkpt>
			<trkpt lat="37.13719" lon="-3.41691">
        <ele>1535.4</ele>
        <time>2026-08-05T09:44:17Z</time>
      </trkpt>
			<trkpt lat="37.13717" lon="-3.41704">
        <ele>1535.9</ele>
        <time>2026-08-05T09:44:19Z</time>
      </trkpt>
			<trkpt lat="37.1371" lon="-3.4172">
        <ele>1536.7</ele>
        <time>2026-08-05T09:44:23Z</time>
      </trkpt>
			<trkpt lat="37.13706" lon="-3.41735">
        <ele>1537.4</ele>
        <time>2026-08-05T09:44:27Z</time>
      </trkpt>
			<trkpt lat="37.13708" lon="-3.4175">
        <ele>1538</ele>
        <time>2026-08-05T09:44:30Z</time>
      </trkpt>
			<trkpt lat="37.13713" lon="-3.41761">
        <ele>1538.6</ele>
        <time>2026-08-05T09:44:33Z</time>
      </trkpt>
			<trkpt lat="37.1371" lon="-3.41766">
        <ele>1538.9</ele>
        <time>2026-08-05T09:44:34Z</time>
      </trkpt>
			<trkpt lat="37.1371" lon="-3.41774">
        <ele>1539.3</ele>
        <time>2026-08-05T09:44:36Z</time>
      </trkpt>
			<trkpt lat="37.13712" lon="-3.41784">
        <ele>1539.8</ele>
        <time>2026-08-05T09:44:39Z</time>
      </trkpt>
			<trkpt lat="37.13712" lon="-3.41795">
        <ele>1540.3</ele>
        <time>2026-08-05T09:44:41Z</time>
      </trkpt>
			<trkpt lat="37.13706" lon="-3.41806">
        <ele>1541</ele>
        <time>2026-08-05T09:44:44Z</time>
      </trkpt>
			<trkpt lat="37.13682" lon="-3.41838">
        <ele>1543.5</ele>
        <time>2026-08-05T09:44:55Z</time>
      </trkpt>
			<trkpt lat="37.13676" lon="-3.41852">
        <ele>1544.4</ele>
        <time>2026-08-05T09:44:59Z</time>
      </trkpt>
			<trkpt lat="37.13674" lon="-3.41868">
        <ele>1545.5</ele>
        <time>2026-08-05T09:45:04Z</time>
      </trkpt>
			<trkpt lat="37.13676" lon="-3.41883">
        <ele>1546.5</ele>
        <time>2026-08-05T09:45:08Z</time>
      </trkpt>
			<trkpt lat="37.13682" lon="-3.41895">
        <ele>1547.5</ele>
        <time>2026-08-05T09:45:13Z</time>
      </trkpt>
			<trkpt lat="37.13689" lon="-3.41902">
        <ele>1548.3</ele>
        <time>2026-08-05T09:45:16Z</time>
      </trkpt>
			<trkpt lat="37.13707" lon="-3.41914">
        <ele>1550.2</ele>
        <time>2026-08-05T09:45:25Z</time>
      </trkpt>
			<trkpt lat="37.13715" lon="-3.41922">
        <ele>1551.2</ele>
        <time>2026-08-05T09:45:29Z</time>
      </trkpt>
			<trkpt lat="37.13718" lon="-3.41932">
        <ele>1552</ele>
        <time>2026-08-05T09:45:33Z</time>
      </trkpt>
			<trkpt lat="37.13719" lon="-3.41946">
        <ele>1553.2</ele>
        <time>2026-08-05T09:45:38Z</time>
      </trkpt>
			<trkpt lat="37.13714" lon="-3.41955">
        <ele>1554</ele>
        <time>2026-08-05T09:45:42Z</time>
      </trkpt>
			<trkpt lat="37.13696" lon="-3.41975">
        <ele>1556.5</ele>
        <time>2026-08-05T09:45:52Z</time>
      </trkpt>
			<trkpt lat="37.1369" lon="-3.41987">
        <ele>1557.7</ele>
        <time>2026-08-05T09:45:58Z</time>
      </trkpt>
			<trkpt lat="37.13687" lon="-3.42">
        <ele>1558.9</ele>
        <time>2026-08-05T09:46:03Z</time>
      </trkpt>
			<trkpt lat="37.13687" lon="-3.42012">
        <ele>1559.8</ele>
        <time>2026-08-05T09:46:07Z</time>
      </trkpt>
			<trkpt lat="37.13688" lon="-3.42023">
        <ele>1560.7</ele>
        <time>2026-08-05T09:46:11Z</time>
      </trkpt>
			<trkpt lat="37.13693" lon="-3.42032">
        <ele>1561.7</ele>
        <time>2026-08-05T09:46:16Z</time>
      </trkpt>
			<trkpt lat="37.13698" lon="-3.42036">
        <ele>1562.3</ele>
        <time>2026-08-05T09:46:18Z</time>
      </trkpt>
			<trkpt lat="37.13716" lon="-3.42049">
        <ele>1564.4</ele>
        <time>2026-08-05T09:46:27Z</time>
      </trkpt>
			<trkpt lat="37.13728" lon="-3.42065">
        <ele>1566</ele>
        <time>2026-08-05T09:46:34Z</time>
      </trkpt>
			<trkpt lat="37.13732" lon="-3.42075">
        <ele>1566.9</ele>
        <time>2026-08-05T09:46:38Z</time>
      </trkpt>
			<trkpt lat="37.13739" lon="-3.42096">
        <ele>1568.5</ele>
        <time>2026-08-05T09:46:46Z</time>
      </trkpt>
			<trkpt lat="37.13739" lon="-3.42117">
        <ele>1570</ele>
        <time>2026-08-05T09:46:52Z</time>
      </trkpt>
			<trkpt lat="37.13733" lon="-3.42134">
        <ele>1571.2</ele>
        <time>2026-08-05T09:46:57Z</time>
      </trkpt>
			<trkpt lat="37.13729" lon="-3.42145">
        <ele>1572</ele>
        <time>2026-08-05T09:47:01Z</time>
      </trkpt>
			<trkpt lat="37.13728" lon="-3.42153">
        <ele>1572.4</ele>
        <time>2026-08-05T09:47:03Z</time>
      </trkpt>
			<trkpt lat="37.13729" lon="-3.42162">
        <ele>1573</ele>
        <time>2026-08-05T09:47:05Z</time>
      </trkpt>
			<trkpt lat="37.13731" lon="-3.42169">
        <ele>1573.4</ele>
        <time>2026-08-05T09:47:07Z</time>
      </trkpt>
			<trkpt lat="37.13734" lon="-3.42176">
        <ele>1573.9</ele>
        <time>2026-08-05T09:47:09Z</time>
      </trkpt>
			<trkpt lat="37.13741" lon="-3.42187">
        <ele>1574.6</ele>
        <time>2026-08-05T09:47:12Z</time>
      </trkpt>
			<trkpt lat="37.13747" lon="-3.42202">
        <ele>1575.5</ele>
        <time>2026-08-05T09:47:16Z</time>
      </trkpt>
			<trkpt lat="37.13752" lon="-3.42227">
        <ele>1576.8</ele>
        <time>2026-08-05T09:47:23Z</time>
      </trkpt>
			<trkpt lat="37.13756" lon="-3.42265">
        <ele>1578.5</ele>
        <time>2026-08-05T09:47:32Z</time>
      </trkpt>
			<trkpt lat="37.13759" lon="-3.42283">
        <ele>1579.2</ele>
        <time>2026-08-05T09:47:35Z</time>
      </trkpt>
			<trkpt lat="37.13769" lon="-3.42303">
        <ele>1580.2</ele>
        <time>2026-08-05T09:47:41Z</time>
      </trkpt>
			<trkpt lat="37.13778" lon="-3.42315">
        <ele>1580.9</ele>
        <time>2026-08-05T09:47:44Z</time>
      </trkpt>
			<trkpt lat="37.13783" lon="-3.42324">
        <ele>1581.3</ele>
        <time>2026-08-05T09:47:47Z</time>
      </trkpt>
			<trkpt lat="37.13784" lon="-3.4234">
        <ele>1581.9</ele>
        <time>2026-08-05T09:47:50Z</time>
      </trkpt>
			<trkpt lat="37.13781" lon="-3.42367">
        <ele>1583</ele>
        <time>2026-08-05T09:47:56Z</time>
      </trkpt>
			<trkpt lat="37.13771" lon="-3.42404">
        <ele>1584.6</ele>
        <time>2026-08-05T09:48:05Z</time>
      </trkpt>
			<trkpt lat="37.13768" lon="-3.42423">
        <ele>1585.4</ele>
        <time>2026-08-05T09:48:09Z</time>
      </trkpt>
			<trkpt lat="37.13767" lon="-3.42459">
        <ele>1587.1</ele>
        <time>2026-08-05T09:48:17Z</time>
      </trkpt>
			<trkpt lat="37.13764" lon="-3.42482">
        <ele>1588.2</ele>
        <time>2026-08-05T09:48:23Z</time>
      </trkpt>
			<trkpt lat="37.13768" lon="-3.42515">
        <ele>1589.9</ele>
        <time>2026-08-05T09:48:31Z</time>
      </trkpt>
			<trkpt lat="37.13767" lon="-3.42526">
        <ele>1590.5</ele>
        <time>2026-08-05T09:48:34Z</time>
      </trkpt>
			<trkpt lat="37.13757" lon="-3.42547">
        <ele>1591.7</ele>
        <time>2026-08-05T09:48:40Z</time>
      </trkpt>
			<trkpt lat="37.13755" lon="-3.4256">
        <ele>1592.5</ele>
        <time>2026-08-05T09:48:43Z</time>
      </trkpt>
			<trkpt lat="37.13756" lon="-3.42569">
        <ele>1592.9</ele>
        <time>2026-08-05T09:48:45Z</time>
      </trkpt>
			<trkpt lat="37.13761" lon="-3.42579">
        <ele>1593.6</ele>
        <time>2026-08-05T09:48:48Z</time>
      </trkpt>
			<trkpt lat="37.13766" lon="-3.42594">
        <ele>1594.5</ele>
        <time>2026-08-05T09:48:52Z</time>
      </trkpt>
			<trkpt lat="37.13771" lon="-3.42634">
        <ele>1596.7</ele>
        <time>2026-08-05T09:49:02Z</time>
      </trkpt>
			<trkpt lat="37.13776" lon="-3.42658">
        <ele>1598</ele>
        <time>2026-08-05T09:49:08Z</time>
      </trkpt>
			<trkpt lat="37.13778" lon="-3.42676">
        <ele>1598.9</ele>
        <time>2026-08-05T09:49:13Z</time>
      </trkpt>
			<trkpt lat="37.13779" lon="-3.42698">
        <ele>1600</ele>
        <time>2026-08-05T09:49:18Z</time>
      </trkpt>
			<trkpt lat="37.13778" lon="-3.42719">
        <ele>1601</ele>
        <time>2026-08-05T09:49:23Z</time>
      </trkpt>
			<trkpt lat="37.13779" lon="-3.42741">
        <ele>1602</ele>
        <time>2026-08-05T09:49:28Z</time>
      </trkpt>
			<trkpt lat="37.13781" lon="-3.42761">
        <ele>1603</ele>
        <time>2026-08-05T09:49:33Z</time>
      </trkpt>
			<trkpt lat="37.13785" lon="-3.42782">
        <ele>1603.9</ele>
        <time>2026-08-05T09:49:38Z</time>
      </trkpt>
			<trkpt lat="37.13795" lon="-3.42803">
        <ele>1604.9</ele>
        <time>2026-08-05T09:49:44Z</time>
      </trkpt>
			<trkpt lat="37.13809" lon="-3.4282">
        <ele>1605.9</ele>
        <time>2026-08-05T09:49:49Z</time>
      </trkpt>
			<trkpt lat="37.13829" lon="-3.42842">
        <ele>1607.3</ele>
        <time>2026-08-05T09:49:57Z</time>
      </trkpt>
			<trkpt lat="37.13834" lon="-3.4285">
        <ele>1607.7</ele>
        <time>2026-08-05T09:49:59Z</time>
      </trkpt>
			<trkpt lat="37.13846" lon="-3.42882">
        <ele>1609.2</ele>
        <time>2026-08-05T09:50:07Z</time>
      </trkpt>
			<trkpt lat="37.13857" lon="-3.42914">
        <ele>1610.8</ele>
        <time>2026-08-05T09:50:15Z</time>
      </trkpt>
			<trkpt lat="37.13858" lon="-3.42924">
        <ele>1611.2</ele>
        <time>2026-08-05T09:50:17Z</time>
      </trkpt>
			<trkpt lat="37.13856" lon="-3.42936">
        <ele>1611.8</ele>
        <time>2026-08-05T09:50:20Z</time>
      </trkpt>
			<trkpt lat="37.13852" lon="-3.42945">
        <ele>1612.3</ele>
        <time>2026-08-05T09:50:22Z</time>
      </trkpt>
			<trkpt lat="37.13845" lon="-3.42953">
        <ele>1612.9</ele>
        <time>2026-08-05T09:50:25Z</time>
      </trkpt>
			<trkpt lat="37.13836" lon="-3.42956">
        <ele>1613.6</ele>
        <time>2026-08-05T09:50:28Z</time>
      </trkpt>
			<trkpt lat="37.13815" lon="-3.4296">
        <ele>1615</ele>
        <time>2026-08-05T09:50:35Z</time>
      </trkpt>
			<trkpt lat="37.13798" lon="-3.4296">
        <ele>1616.2</ele>
        <time>2026-08-05T09:50:40Z</time>
      </trkpt>
			<trkpt lat="37.13785" lon="-3.42958">
        <ele>1617.2</ele>
        <time>2026-08-05T09:50:44Z</time>
      </trkpt>
			<trkpt lat="37.13776" lon="-3.42951">
        <ele>1618.1</ele>
        <time>2026-08-05T09:50:49Z</time>
      </trkpt>
			<trkpt lat="37.13772" lon="-3.42942">
        <ele>1618.7</ele>
        <time>2026-08-05T09:50:51Z</time>
      </trkpt>
			<trkpt lat="37.13769" lon="-3.42934">
        <ele>1619.3</ele>
        <time>2026-08-05T09:50:54Z</time>
      </trkpt>
			<trkpt lat="37.13767" lon="-3.4292">
        <ele>1620.2</ele>
        <time>2026-08-05T09:50:58Z</time>
      </trkpt>
			<trkpt lat="37.13766" lon="-3.42897">
        <ele>1621.7</ele>
        <time>2026-08-05T09:51:04Z</time>
      </trkpt>
			<trkpt lat="37.13764" lon="-3.42886">
        <ele>1622.5</ele>
        <time>2026-08-05T09:51:08Z</time>
      </trkpt>
			<trkpt lat="37.1376" lon="-3.42876">
        <ele>1623.3</ele>
        <time>2026-08-05T09:51:11Z</time>
      </trkpt>
			<trkpt lat="37.13753" lon="-3.42866">
        <ele>1624.1</ele>
        <time>2026-08-05T09:51:15Z</time>
      </trkpt>
			<trkpt lat="37.13745" lon="-3.42862">
        <ele>1624.9</ele>
        <time>2026-08-05T09:51:18Z</time>
      </trkpt>
			<trkpt lat="37.13733" lon="-3.42862">
        <ele>1625.9</ele>
        <time>2026-08-05T09:51:22Z</time>
      </trkpt>
			<trkpt lat="37.13724" lon="-3.42865">
        <ele>1626.8</ele>
        <time>2026-08-05T09:51:26Z</time>
      </trkpt>
			<trkpt lat="37.13717" lon="-3.42874">
        <ele>1627.6</ele>
        <time>2026-08-05T09:51:30Z</time>
      </trkpt>
			<trkpt lat="37.13712" lon="-3.42882">
        <ele>1628.3</ele>
        <time>2026-08-05T09:51:33Z</time>
      </trkpt>
			<trkpt lat="37.1371" lon="-3.42892">
        <ele>1629</ele>
        <time>2026-08-05T09:51:36Z</time>
      </trkpt>
			<trkpt lat="37.13714" lon="-3.42945">
        <ele>1632.6</ele>
        <time>2026-08-05T09:51:53Z</time>
      </trkpt>
			<trkpt lat="37.13713" lon="-3.42955">
        <ele>1633.3</ele>
        <time>2026-08-05T09:51:56Z</time>
      </trkpt>
			<trkpt lat="37.13708" lon="-3.42973">
        <ele>1634.5</ele>
        <time>2026-08-05T09:52:01Z</time>
      </trkpt>
			<trkpt lat="37.13699" lon="-3.42985">
        <ele>1635.5</ele>
        <time>2026-08-05T09:52:06Z</time>
      </trkpt>
			<trkpt lat="37.13693" lon="-3.42988">
        <ele>1636</ele>
        <time>2026-08-05T09:52:08Z</time>
      </trkpt>
			<trkpt lat="37.13687" lon="-3.4299">
        <ele>1636.5</ele>
        <time>2026-08-05T09:52:10Z</time>
      </trkpt>
			<trkpt lat="37.13681" lon="-3.42989">
        <ele>1636.9</ele>
        <time>2026-08-05T09:52:12Z</time>
      </trkpt>
			<trkpt lat="37.13675" lon="-3.42987">
        <ele>1637.4</ele>
        <time>2026-08-05T09:52:14Z</time>
      </trkpt>
			<trkpt lat="37.13664" lon="-3.4298">
        <ele>1638.3</ele>
        <time>2026-08-05T09:52:18Z</time>
      </trkpt>
			<trkpt lat="37.13661" lon="-3.42974">
        <ele>1638.7</ele>
        <time>2026-08-05T09:52:20Z</time>
      </trkpt>
			<trkpt lat="37.13656" lon="-3.42959">
        <ele>1639.6</ele>
        <time>2026-08-05T09:52:24Z</time>
      </trkpt>
			<trkpt lat="37.13657" lon="-3.42951">
        <ele>1640</ele>
        <time>2026-08-05T09:52:26Z</time>
      </trkpt>
			<trkpt lat="37.13659" lon="-3.4294">
        <ele>1640.6</ele>
        <time>2026-08-05T09:52:29Z</time>
      </trkpt>
			<trkpt lat="37.1367" lon="-3.42917">
        <ele>1642</ele>
        <time>2026-08-05T09:52:35Z</time>
      </trkpt>
			<trkpt lat="37.13682" lon="-3.42886">
        <ele>1643.7</ele>
        <time>2026-08-05T09:52:44Z</time>
      </trkpt>
			<trkpt lat="37.13683" lon="-3.42879">
        <ele>1644.1</ele>
        <time>2026-08-05T09:52:45Z</time>
      </trkpt>
			<trkpt lat="37.13682" lon="-3.42874">
        <ele>1644.3</ele>
        <time>2026-08-05T09:52:46Z</time>
      </trkpt>
			<trkpt lat="37.13679" lon="-3.42871">
        <ele>1644.5</ele>
        <time>2026-08-05T09:52:48Z</time>
      </trkpt>
			<trkpt lat="37.13676" lon="-3.42871">
        <ele>1644.8</ele>
        <time>2026-08-05T09:52:49Z</time>
      </trkpt>
			<trkpt lat="37.13674" lon="-3.42873">
        <ele>1644.9</ele>
        <time>2026-08-05T09:52:49Z</time>
      </trkpt>
			<trkpt lat="37.13672" lon="-3.42876">
        <ele>1645.1</ele>
        <time>2026-08-05T09:52:50Z</time>
      </trkpt>
			<trkpt lat="37.13668" lon="-3.42895">
        <ele>1646</ele>
        <time>2026-08-05T09:52:55Z</time>
      </trkpt>
			<trkpt lat="37.13663" lon="-3.42908">
        <ele>1646.7</ele>
        <time>2026-08-05T09:52:58Z</time>
      </trkpt>
			<trkpt lat="37.13656" lon="-3.4292">
        <ele>1647.3</ele>
        <time>2026-08-05T09:53:02Z</time>
      </trkpt>
			<trkpt lat="37.13641" lon="-3.42939">
        <ele>1648.6</ele>
        <time>2026-08-05T09:53:08Z</time>
      </trkpt>
			<trkpt lat="37.13634" lon="-3.4295">
        <ele>1649.2</ele>
        <time>2026-08-05T09:53:11Z</time>
      </trkpt>
			<trkpt lat="37.13631" lon="-3.42959">
        <ele>1649.6</ele>
        <time>2026-08-05T09:53:13Z</time>
      </trkpt>
			<trkpt lat="37.13616" lon="-3.43009">
        <ele>1652.1</ele>
        <time>2026-08-05T09:53:25Z</time>
      </trkpt>
			<trkpt lat="37.13611" lon="-3.43019">
        <ele>1652.5</ele>
        <time>2026-08-05T09:53:28Z</time>
      </trkpt>
			<trkpt lat="37.13594" lon="-3.43048">
        <ele>1654.1</ele>
        <time>2026-08-05T09:53:36Z</time>
      </trkpt>
			<trkpt lat="37.13577" lon="-3.43076">
        <ele>1655.6</ele>
        <time>2026-08-05T09:53:44Z</time>
      </trkpt>
			<trkpt lat="37.13571" lon="-3.43084">
        <ele>1656.1</ele>
        <time>2026-08-05T09:53:46Z</time>
      </trkpt>
			<trkpt lat="37.13566" lon="-3.43088">
        <ele>1656.3</ele>
        <time>2026-08-05T09:53:48Z</time>
      </trkpt>
			<trkpt lat="37.13542" lon="-3.43098">
        <ele>1657.7</ele>
        <time>2026-08-05T09:53:55Z</time>
      </trkpt>
			<trkpt lat="37.13535" lon="-3.43108">
        <ele>1658.1</ele>
        <time>2026-08-05T09:53:57Z</time>
      </trkpt>
			<trkpt lat="37.1353" lon="-3.43121">
        <ele>1658.7</ele>
        <time>2026-08-05T09:54:01Z</time>
      </trkpt>
			<trkpt lat="37.13523" lon="-3.43133">
        <ele>1659.2</ele>
        <time>2026-08-05T09:54:04Z</time>
      </trkpt>
			<trkpt lat="37.1351" lon="-3.43146">
        <ele>1660</ele>
        <time>2026-08-05T09:54:08Z</time>
      </trkpt>
			<trkpt lat="37.13487" lon="-3.4315">
        <ele>1661</ele>
        <time>2026-08-05T09:54:14Z</time>
      </trkpt>
			<trkpt lat="37.13478" lon="-3.43154">
        <ele>1661.4</ele>
        <time>2026-08-05T09:54:16Z</time>
      </trkpt>
			<trkpt lat="37.13449" lon="-3.43183">
        <ele>1662.8</ele>
        <time>2026-08-05T09:54:24Z</time>
      </trkpt>
			<trkpt lat="37.13433" lon="-3.43213">
        <ele>1663.9</ele>
        <time>2026-08-05T09:54:31Z</time>
      </trkpt>
			<trkpt lat="37.13426" lon="-3.43224">
        <ele>1664.3</ele>
        <time>2026-08-05T09:54:33Z</time>
      </trkpt>
			<trkpt lat="37.13405" lon="-3.43251">
        <ele>1665.2</ele>
        <time>2026-08-05T09:54:40Z</time>
      </trkpt>
			<trkpt lat="37.13399" lon="-3.43258">
        <ele>1665.4</ele>
        <time>2026-08-05T09:54:41Z</time>
      </trkpt>
			<trkpt lat="37.13393" lon="-3.43261">
        <ele>1665.6</ele>
        <time>2026-08-05T09:54:43Z</time>
      </trkpt>
			<trkpt lat="37.13372" lon="-3.43271">
        <ele>1666.2</ele>
        <time>2026-08-05T09:54:47Z</time>
      </trkpt>
			<trkpt lat="37.13345" lon="-3.43289">
        <ele>1667</ele>
        <time>2026-08-05T09:54:53Z</time>
      </trkpt>
			<trkpt lat="37.13323" lon="-3.43307">
        <ele>1667.6</ele>
        <time>2026-08-05T09:54:58Z</time>
      </trkpt>
		</trkseg>
	</trk>
</gpx>
