<?xml version="1.0" encoding="UTF-8"?>
<gpx creator="Wikiloc - https://www.wikiloc.com" version="1.1" xmlns="http://www.topografix.com/GPX/1/1" xmlns:xsi="http://www.w3.org/2001/XMLSchema-instance" xsi:schemaLocation="http://www.topografix.com/GPX/1/1 http://www.topografix.com/GPX/1/1/gpx.xsd">
  <metadata>
    <name>Wikiloc - Alto Gamoniteiro 1.772m</name>
    <link href="https://www.wikiloc.com/cycling-trails/alto-gamoniteiro-1-772m-161817658">
      <text>Alto Gamoniteiro 1.772m - Wikiloc on Wikiloc</text>
    </link>
    <time>2021-10-19T08:11:47Z</time>
  </metadata>
  <trk>
    <name>Alto Gamoniteiro 1.772m - Wikiloc</name>
    <cmt></cmt>
    <desc></desc>
    <trkseg>
      <trkpt lat="43.155976" lon="-5.830645">
        <ele>325.257</ele>
        <time>2021-10-19T06:38:04Z</time>
      </trkpt>
      <trkpt lat="43.155910" lon="-5.830803">
        <ele>325.600</ele>
        <time>2021-10-19T06:38:06Z</time>
      </trkpt>
      <trkpt lat="43.155950" lon="-5.830995">
        <ele>325.820</ele>
        <time>2021-10-19T06:38:08Z</time>
      </trkpt>
      <trkpt lat="43.155540" lon="-5.831852">
        <ele>327.509</ele>
        <time>2021-10-19T06:38:30Z</time>
      </trkpt>
      <trkpt lat="43.154542" lon="-5.835188">
        <ele>335.766</ele>
        <time>2021-10-19T06:39:53Z</time>
      </trkpt>
      <trkpt lat="43.153999" lon="-5.838025">
        <ele>354.781</ele>
        <time>2021-10-19T06:41:02Z</time>
      </trkpt>
      <trkpt lat="43.153966" lon="-5.838590">
        <ele>358.686</ele>
        <time>2021-10-19T06:41:17Z</time>
      </trkpt>
      <trkpt lat="43.154227" lon="-5.841761">
        <ele>384.333</ele>
        <time>2021-10-19T06:42:46Z</time>
      </trkpt>
      <trkpt lat="43.154092" lon="-5.842797">
        <ele>392.596</ele>
        <time>2021-10-19T06:43:16Z</time>
      </trkpt>
      <trkpt lat="43.153732" lon="-5.843616">
        <ele>399.722</ele>
        <time>2021-10-19T06:43:41Z</time>
      </trkpt>
      <trkpt lat="43.153706" lon="-5.844163">
        <ele>404.171</ele>
        <time>2021-10-19T06:43:56Z</time>
      </trkpt>
      <trkpt lat="43.153567" lon="-5.844569">
        <ele>406.760</ele>
        <time>2021-10-19T06:44:09Z</time>
      </trkpt>
      <trkpt lat="43.152886" lon="-5.845693">
        <ele>415.013</ele>
        <time>2021-10-19T06:44:46Z</time>
      </trkpt>
      <trkpt lat="43.152425" lon="-5.846079">
        <ele>419.087</ele>
        <time>2021-10-19T06:45:06Z</time>
      </trkpt>
      <trkpt lat="43.151962" lon="-5.846904">
        <ele>427.042</ele>
        <time>2021-10-19T06:45:33Z</time>
      </trkpt>
      <trkpt lat="43.151830" lon="-5.847449">
        <ele>431.926</ele>
        <time>2021-10-19T06:45:49Z</time>
      </trkpt>
      <trkpt lat="43.151809" lon="-5.848211">
        <ele>437.909</ele>
        <time>2021-10-19T06:46:12Z</time>
      </trkpt>
      <trkpt lat="43.152251" lon="-5.849574">
        <ele>447.359</ele>
        <time>2021-10-19T06:46:49Z</time>
      </trkpt>
      <trkpt lat="43.152340" lon="-5.850135">
        <ele>451.484</ele>
        <time>2021-10-19T06:47:03Z</time>
      </trkpt>
      <trkpt lat="43.152267" lon="-5.850858">
        <ele>455.539</ele>
        <time>2021-10-19T06:47:21Z</time>
      </trkpt>
      <trkpt lat="43.152048" lon="-5.851417">
        <ele>457.276</ele>
        <time>2021-10-19T06:47:36Z</time>
      </trkpt>
      <trkpt lat="43.151999" lon="-5.852117">
        <ele>459.369</ele>
        <time>2021-10-19T06:47:51Z</time>
      </trkpt>
      <trkpt lat="43.152152" lon="-5.852474">
        <ele>462.145</ele>
        <time>2021-10-19T06:48:03Z</time>
      </trkpt>
      <trkpt lat="43.152925" lon="-5.852994">
        <ele>472.484</ele>
        <time>2021-10-19T06:48:36Z</time>
      </trkpt>
      <trkpt lat="43.153093" lon="-5.853196">
        <ele>475.273</ele>
        <time>2021-10-19T06:48:44Z</time>
      </trkpt>
      <trkpt lat="43.153281" lon="-5.854223">
        <ele>484.436</ele>
        <time>2021-10-19T06:49:16Z</time>
      </trkpt>
      <trkpt lat="43.153931" lon="-5.855068">
        <ele>496.163</ele>
        <time>2021-10-19T06:49:55Z</time>
      </trkpt>
      <trkpt lat="43.154082" lon="-5.856129">
        <ele>507.044</ele>
        <time>2021-10-19T06:50:25Z</time>
      </trkpt>
      <trkpt lat="43.154470" lon="-5.856619">
        <ele>513.618</ele>
        <time>2021-10-19T06:50:50Z</time>
      </trkpt>
      <trkpt lat="43.155586" lon="-5.857701">
        <ele>528.209</ele>
        <time>2021-10-19T06:51:46Z</time>
      </trkpt>
      <trkpt lat="43.155727" lon="-5.857916">
        <ele>531.227</ele>
        <time>2021-10-19T06:51:55Z</time>
      </trkpt>
      <trkpt lat="43.155887" lon="-5.858520">
        <ele>538.342</ele>
        <time>2021-10-19T06:52:15Z</time>
      </trkpt>
      <trkpt lat="43.155842" lon="-5.858915">
        <ele>542.897</ele>
        <time>2021-10-19T06:52:26Z</time>
      </trkpt>
      <trkpt lat="43.155676" lon="-5.859209">
        <ele>547.134</ele>
        <time>2021-10-19T06:52:36Z</time>
      </trkpt>
      <trkpt lat="43.155387" lon="-5.859404">
        <ele>551.997</ele>
        <time>2021-10-19T06:52:52Z</time>
      </trkpt>
      <trkpt lat="43.154927" lon="-5.859363">
        <ele>556.913</ele>
        <time>2021-10-19T06:53:12Z</time>
      </trkpt>
      <trkpt lat="43.154666" lon="-5.859443">
        <ele>561.252</ele>
        <time>2021-10-19T06:53:24Z</time>
      </trkpt>
      <trkpt lat="43.154545" lon="-5.859591">
        <ele>564.021</ele>
        <time>2021-10-19T06:53:33Z</time>
      </trkpt>
      <trkpt lat="43.154506" lon="-5.859868">
        <ele>567.584</ele>
        <time>2021-10-19T06:53:43Z</time>
      </trkpt>
      <trkpt lat="43.154656" lon="-5.860277">
        <ele>572.987</ele>
        <time>2021-10-19T06:54:06Z</time>
      </trkpt>
      <trkpt lat="43.154826" lon="-5.860313">
        <ele>575.142</ele>
        <time>2021-10-19T06:54:14Z</time>
      </trkpt>
      <trkpt lat="43.155336" lon="-5.860892">
        <ele>582.626</ele>
        <time>2021-10-19T06:54:45Z</time>
      </trkpt>
      <trkpt lat="43.155619" lon="-5.861542">
        <ele>589.609</ele>
        <time>2021-10-19T06:55:09Z</time>
      </trkpt>
      <trkpt lat="43.155804" lon="-5.862808">
        <ele>602.919</ele>
        <time>2021-10-19T06:55:49Z</time>
      </trkpt>
      <trkpt lat="43.155678" lon="-5.863955">
        <ele>617.874</ele>
        <time>2021-10-19T06:56:27Z</time>
      </trkpt>
      <trkpt lat="43.155998" lon="-5.864752">
        <ele>626.279</ele>
        <time>2021-10-19T06:57:00Z</time>
      </trkpt>
      <trkpt lat="43.156069" lon="-5.865213">
        <ele>631.516</ele>
        <time>2021-10-19T06:57:17Z</time>
      </trkpt>
      <trkpt lat="43.155896" lon="-5.866606">
        <ele>647.289</ele>
        <time>2021-10-19T06:58:01Z</time>
      </trkpt>
      <trkpt lat="43.156244" lon="-5.867110">
        <ele>653.245</ele>
        <time>2021-10-19T06:58:26Z</time>
      </trkpt>
      <trkpt lat="43.156803" lon="-5.867549">
        <ele>661.484</ele>
        <time>2021-10-19T06:58:58Z</time>
      </trkpt>
      <trkpt lat="43.156927" lon="-5.867901">
        <ele>665.133</ele>
        <time>2021-10-19T06:59:11Z</time>
      </trkpt>
      <trkpt lat="43.156923" lon="-5.868145">
        <ele>667.316</ele>
        <time>2021-10-19T06:59:19Z</time>
      </trkpt>
      <trkpt lat="43.156881" lon="-5.868420">
        <ele>669.827</ele>
        <time>2021-10-19T06:59:29Z</time>
      </trkpt>
      <trkpt lat="43.156566" lon="-5.869024">
        <ele>676.068</ele>
        <time>2021-10-19T06:59:50Z</time>
      </trkpt>
      <trkpt lat="43.156106" lon="-5.869706">
        <ele>683.814</ele>
        <time>2021-10-19T07:00:19Z</time>
      </trkpt>
      <trkpt lat="43.155545" lon="-5.870252">
        <ele>692.909</ele>
        <time>2021-10-19T07:00:49Z</time>
      </trkpt>
      <trkpt lat="43.155251" lon="-5.870728">
        <ele>700.773</ele>
        <time>2021-10-19T07:01:09Z</time>
      </trkpt>
      <trkpt lat="43.155333" lon="-5.871207">
        <ele>705.188</ele>
        <time>2021-10-19T07:01:26Z</time>
      </trkpt>
      <trkpt lat="43.156262" lon="-5.872831">
        <ele>718.523</ele>
        <time>2021-10-19T07:02:26Z</time>
      </trkpt>
      <trkpt lat="43.156349" lon="-5.873443">
        <ele>725.340</ele>
        <time>2021-10-19T07:02:44Z</time>
      </trkpt>
      <trkpt lat="43.156102" lon="-5.874117">
        <ele>732.193</ele>
        <time>2021-10-19T07:03:07Z</time>
      </trkpt>
      <trkpt lat="43.155185" lon="-5.875317">
        <ele>750.239</ele>
        <time>2021-10-19T07:04:02Z</time>
      </trkpt>
      <trkpt lat="43.155115" lon="-5.875648">
        <ele>754.578</ele>
        <time>2021-10-19T07:04:14Z</time>
      </trkpt>
      <trkpt lat="43.155155" lon="-5.875998">
        <ele>758.277</ele>
        <time>2021-10-19T07:04:27Z</time>
      </trkpt>
      <trkpt lat="43.155680" lon="-5.877162">
        <ele>770.760</ele>
        <time>2021-10-19T07:05:17Z</time>
      </trkpt>
      <trkpt lat="43.156319" lon="-5.877785">
        <ele>781.679</ele>
        <time>2021-10-19T07:05:53Z</time>
      </trkpt>
      <trkpt lat="43.156651" lon="-5.878270">
        <ele>788.905</ele>
        <time>2021-10-19T07:06:14Z</time>
      </trkpt>
      <trkpt lat="43.157123" lon="-5.879746">
        <ele>807.725</ele>
        <time>2021-10-19T07:07:04Z</time>
      </trkpt>
      <trkpt lat="43.157403" lon="-5.881166">
        <ele>816.509</ele>
        <time>2021-10-19T07:07:53Z</time>
      </trkpt>
      <trkpt lat="43.157897" lon="-5.882033">
        <ele>825.278</ele>
        <time>2021-10-19T07:08:22Z</time>
      </trkpt>
      <trkpt lat="43.158323" lon="-5.882471">
        <ele>832.253</ele>
        <time>2021-10-19T07:08:48Z</time>
      </trkpt>
      <trkpt lat="43.159604" lon="-5.882569">
        <ele>849.398</ele>
        <time>2021-10-19T07:09:42Z</time>
      </trkpt>
      <trkpt lat="43.160002" lon="-5.882768">
        <ele>856.115</ele>
        <time>2021-10-19T07:10:02Z</time>
      </trkpt>
      <trkpt lat="43.160205" lon="-5.882993">
        <ele>860.598</ele>
        <time>2021-10-19T07:10:14Z</time>
      </trkpt>
      <trkpt lat="43.160428" lon="-5.883717">
        <ele>869.684</ele>
        <time>2021-10-19T07:10:42Z</time>
      </trkpt>
      <trkpt lat="43.160276" lon="-5.884640">
        <ele>879.873</ele>
        <time>2021-10-19T07:11:18Z</time>
      </trkpt>
      <trkpt lat="43.160349" lon="-5.885164">
        <ele>885.752</ele>
        <time>2021-10-19T07:11:36Z</time>
      </trkpt>
      <trkpt lat="43.161032" lon="-5.886299">
        <ele>894.815</ele>
        <time>2021-10-19T07:12:28Z</time>
      </trkpt>
      <trkpt lat="43.161645" lon="-5.887057">
        <ele>903.274</ele>
        <time>2021-10-19T07:13:06Z</time>
      </trkpt>
      <trkpt lat="43.162792" lon="-5.888792">
        <ele>925.456</ele>
        <time>2021-10-19T07:14:36Z</time>
      </trkpt>
      <trkpt lat="43.162993" lon="-5.889289">
        <ele>933.321</ele>
        <time>2021-10-19T07:14:54Z</time>
      </trkpt>
      <trkpt lat="43.163067" lon="-5.890213">
        <ele>938.709</ele>
        <time>2021-10-19T07:15:22Z</time>
      </trkpt>
      <trkpt lat="43.162845" lon="-5.891295">
        <ele>950.218</ele>
        <time>2021-10-19T07:15:57Z</time>
      </trkpt>
      <trkpt lat="43.162479" lon="-5.892327">
        <ele>956.783</ele>
        <time>2021-10-19T07:16:34Z</time>
      </trkpt>
      <trkpt lat="43.162382" lon="-5.894252">
        <ele>974.788</ele>
        <time>2021-10-19T07:17:31Z</time>
      </trkpt>
      <trkpt lat="43.162287" lon="-5.894698">
        <ele>979.145</ele>
        <time>2021-10-19T07:17:47Z</time>
      </trkpt>
      <trkpt lat="43.162070" lon="-5.894993">
        <ele>983.068</ele>
        <time>2021-10-19T07:17:59Z</time>
      </trkpt>
      <trkpt lat="43.161864" lon="-5.895079">
        <ele>985.714</ele>
        <time>2021-10-19T07:18:09Z</time>
      </trkpt>
      <trkpt lat="43.161048" lon="-5.894946">
        <ele>996.343</ele>
        <time>2021-10-19T07:18:49Z</time>
      </trkpt>
      <trkpt lat="43.160818" lon="-5.895013">
        <ele>999.482</ele>
        <time>2021-10-19T07:19:01Z</time>
      </trkpt>
      <trkpt lat="43.160564" lon="-5.895290">
        <ele>1003.745</ele>
        <time>2021-10-19T07:19:20Z</time>
      </trkpt>
      <trkpt lat="43.160481" lon="-5.895844">
        <ele>1009.194</ele>
        <time>2021-10-19T07:19:44Z</time>
      </trkpt>
      <trkpt lat="43.160306" lon="-5.896295">
        <ele>1013.957</ele>
        <time>2021-10-19T07:20:04Z</time>
      </trkpt>
      <trkpt lat="43.160133" lon="-5.898086">
        <ele>1031.022</ele>
        <time>2021-10-19T07:21:10Z</time>
      </trkpt>
      <trkpt lat="43.159674" lon="-5.900011">
        <ele>1050.409</ele>
        <time>2021-10-19T07:22:17Z</time>
      </trkpt>
      <trkpt lat="43.159473" lon="-5.900373">
        <ele>1054.720</ele>
        <time>2021-10-19T07:22:32Z</time>
      </trkpt>
      <trkpt lat="43.158483" lon="-5.900575">
        <ele>1066.945</ele>
        <time>2021-10-19T07:23:17Z</time>
      </trkpt>
      <trkpt lat="43.158062" lon="-5.900314">
        <ele>1071.060</ele>
        <time>2021-10-19T07:23:32Z</time>
      </trkpt>
      <trkpt lat="43.156990" lon="-5.898202">
        <ele>1080.067</ele>
        <time>2021-10-19T07:24:34Z</time>
      </trkpt>
      <trkpt lat="43.156649" lon="-5.897920">
        <ele>1082.720</ele>
        <time>2021-10-19T07:24:47Z</time>
      </trkpt>
      <trkpt lat="43.156439" lon="-5.898002">
        <ele>1084.416</ele>
        <time>2021-10-19T07:24:55Z</time>
      </trkpt>
      <trkpt lat="43.156250" lon="-5.898266">
        <ele>1086.695</ele>
        <time>2021-10-19T07:25:04Z</time>
      </trkpt>
      <trkpt lat="43.155491" lon="-5.900429">
        <ele>1100.254</ele>
        <time>2021-10-19T07:26:04Z</time>
      </trkpt>
      <trkpt lat="43.155185" lon="-5.900769">
        <ele>1103.087</ele>
        <time>2021-10-19T07:26:16Z</time>
      </trkpt>
      <trkpt lat="43.154992" lon="-5.900797">
        <ele>1104.495</ele>
        <time>2021-10-19T07:26:22Z</time>
      </trkpt>
      <trkpt lat="43.154665" lon="-5.900760">
        <ele>1106.849</ele>
        <time>2021-10-19T07:26:34Z</time>
      </trkpt>
      <trkpt lat="43.154106" lon="-5.900045">
        <ele>1113.323</ele>
        <time>2021-10-19T07:27:00Z</time>
      </trkpt>
      <trkpt lat="43.153330" lon="-5.899484">
        <ele>1121.709</ele>
        <time>2021-10-19T07:27:33Z</time>
      </trkpt>
      <trkpt lat="43.152513" lon="-5.899476">
        <ele>1129.590</ele>
        <time>2021-10-19T07:28:04Z</time>
      </trkpt>
      <trkpt lat="43.152234" lon="-5.899168">
        <ele>1133.015</ele>
        <time>2021-10-19T07:28:15Z</time>
      </trkpt>
      <trkpt lat="43.151699" lon="-5.898773">
        <ele>1139.190</ele>
        <time>2021-10-19T07:28:37Z</time>
      </trkpt>
      <trkpt lat="43.151370" lon="-5.898736">
        <ele>1142.087</ele>
        <time>2021-10-19T07:28:48Z</time>
      </trkpt>
      <trkpt lat="43.151330" lon="-5.898861">
        <ele>1142.270</ele>
        <time>2021-10-19T07:28:53Z</time>
      </trkpt>
      <trkpt lat="43.151470" lon="-5.898944">
        <ele>1142.376</ele>
        <time>2021-10-19T07:29:01Z</time>
      </trkpt>
      <trkpt lat="43.151353" lon="-5.898769">
        <ele>1142.395</ele>
        <time>2021-10-19T07:29:10Z</time>
      </trkpt>
      <trkpt lat="43.151302" lon="-5.898823">
        <ele>1142.484</ele>
        <time>2021-10-19T07:29:18Z</time>
      </trkpt>
      <trkpt lat="43.151140" lon="-5.898700">
        <ele>1142.597</ele>
        <time>2021-10-19T07:29:30Z</time>
      </trkpt>
      <trkpt lat="43.151426" lon="-5.898905">
        <ele>1143.585</ele>
        <time>2021-10-19T07:31:34Z</time>
      </trkpt>
      <trkpt lat="43.151909" lon="-5.898982">
        <ele>1145.589</ele>
        <time>2021-10-19T07:31:51Z</time>
      </trkpt>
      <trkpt lat="43.152295" lon="-5.899550">
        <ele>1149.217</ele>
        <time>2021-10-19T07:32:08Z</time>
      </trkpt>
      <trkpt lat="43.153023" lon="-5.899807">
        <ele>1147.309</ele>
        <time>2021-10-19T07:32:31Z</time>
      </trkpt>
      <trkpt lat="43.153703" lon="-5.900641">
        <ele>1149.339</ele>
        <time>2021-10-19T07:32:48Z</time>
      </trkpt>
      <trkpt lat="43.153783" lon="-5.900925">
        <ele>1150.414</ele>
        <time>2021-10-19T07:32:54Z</time>
      </trkpt>
      <trkpt lat="43.153776" lon="-5.901340">
        <ele>1151.859</ele>
        <time>2021-10-19T07:33:02Z</time>
      </trkpt>
      <trkpt lat="43.154217" lon="-5.901804">
        <ele>1154.436</ele>
        <time>2021-10-19T07:33:16Z</time>
      </trkpt>
      <trkpt lat="43.154481" lon="-5.901975">
        <ele>1155.369</ele>
        <time>2021-10-19T07:33:24Z</time>
      </trkpt>
      <trkpt lat="43.155227" lon="-5.902122">
        <ele>1158.615</ele>
        <time>2021-10-19T07:33:43Z</time>
      </trkpt>
      <trkpt lat="43.155667" lon="-5.902099">
        <ele>1160.774</ele>
        <time>2021-10-19T07:33:54Z</time>
      </trkpt>
      <trkpt lat="43.155981" lon="-5.901999">
        <ele>1162.743</ele>
        <time>2021-10-19T07:34:03Z</time>
      </trkpt>
      <trkpt lat="43.156045" lon="-5.901841">
        <ele>1163.416</ele>
        <time>2021-10-19T07:34:07Z</time>
      </trkpt>
      <trkpt lat="43.156539" lon="-5.901388">
        <ele>1166.791</ele>
        <time>2021-10-19T07:34:25Z</time>
      </trkpt>
      <trkpt lat="43.156719" lon="-5.901331">
        <ele>1168.381</ele>
        <time>2021-10-19T07:34:32Z</time>
      </trkpt>
      <trkpt lat="43.156900" lon="-5.901394">
        <ele>1170.119</ele>
        <time>2021-10-19T07:34:38Z</time>
      </trkpt>
      <trkpt lat="43.157054" lon="-5.901746">
        <ele>1172.709</ele>
        <time>2021-10-19T07:34:49Z</time>
      </trkpt>
      <trkpt lat="43.157106" lon="-5.902761">
        <ele>1181.080</ele>
        <time>2021-10-19T07:35:17Z</time>
      </trkpt>
      <trkpt lat="43.156998" lon="-5.903520">
        <ele>1187.385</ele>
        <time>2021-10-19T07:35:37Z</time>
      </trkpt>
      <trkpt lat="43.157012" lon="-5.904174">
        <ele>1192.650</ele>
        <time>2021-10-19T07:35:58Z</time>
      </trkpt>
      <trkpt lat="43.157251" lon="-5.904970">
        <ele>1198.477</ele>
        <time>2021-10-19T07:36:25Z</time>
      </trkpt>
      <trkpt lat="43.157529" lon="-5.905382">
        <ele>1204.340</ele>
        <time>2021-10-19T07:36:41Z</time>
      </trkpt>
      <trkpt lat="43.157595" lon="-5.905716">
        <ele>1207.676</ele>
        <time>2021-10-19T07:36:51Z</time>
      </trkpt>
      <trkpt lat="43.158170" lon="-5.905945">
        <ele>1213.275</ele>
        <time>2021-10-19T07:37:18Z</time>
      </trkpt>
      <trkpt lat="43.158446" lon="-5.905977">
        <ele>1216.234</ele>
        <time>2021-10-19T07:37:29Z</time>
      </trkpt>
      <trkpt lat="43.159291" lon="-5.906429">
        <ele>1226.517</ele>
        <time>2021-10-19T07:38:06Z</time>
      </trkpt>
      <trkpt lat="43.159570" lon="-5.906296">
        <ele>1229.246</ele>
        <time>2021-10-19T07:38:18Z</time>
      </trkpt>
      <trkpt lat="43.159875" lon="-5.905873">
        <ele>1232.888</ele>
        <time>2021-10-19T07:38:34Z</time>
      </trkpt>
      <trkpt lat="43.160034" lon="-5.905829">
        <ele>1234.416</ele>
        <time>2021-10-19T07:38:40Z</time>
      </trkpt>
      <trkpt lat="43.160357" lon="-5.906441">
        <ele>1242.009</ele>
        <time>2021-10-19T07:39:06Z</time>
      </trkpt>
      <trkpt lat="43.160758" lon="-5.906899">
        <ele>1248.755</ele>
        <time>2021-10-19T07:39:34Z</time>
      </trkpt>
      <trkpt lat="43.161342" lon="-5.906543">
        <ele>1256.970</ele>
        <time>2021-10-19T07:40:01Z</time>
      </trkpt>
      <trkpt lat="43.161554" lon="-5.906614">
        <ele>1259.945</ele>
        <time>2021-10-19T07:40:12Z</time>
      </trkpt>
      <trkpt lat="43.161892" lon="-5.906571">
        <ele>1265.092</ele>
        <time>2021-10-19T07:40:29Z</time>
      </trkpt>
      <trkpt lat="43.162709" lon="-5.906060">
        <ele>1276.975</ele>
        <time>2021-10-19T07:41:11Z</time>
      </trkpt>
      <trkpt lat="43.163403" lon="-5.905846">
        <ele>1284.751</ele>
        <time>2021-10-19T07:41:41Z</time>
      </trkpt>
      <trkpt lat="43.163859" lon="-5.905822">
        <ele>1289.490</ele>
        <time>2021-10-19T07:42:02Z</time>
      </trkpt>
      <trkpt lat="43.164433" lon="-5.905313">
        <ele>1295.469</ele>
        <time>2021-10-19T07:42:27Z</time>
      </trkpt>
      <trkpt lat="43.164941" lon="-5.904178">
        <ele>1307.422</ele>
        <time>2021-10-19T07:43:11Z</time>
      </trkpt>
      <trkpt lat="43.165375" lon="-5.902767">
        <ele>1321.235</ele>
        <time>2021-10-19T07:43:57Z</time>
      </trkpt>
      <trkpt lat="43.165496" lon="-5.901946">
        <ele>1328.286</ele>
        <time>2021-10-19T07:44:20Z</time>
      </trkpt>
      <trkpt lat="43.165781" lon="-5.901526">
        <ele>1330.914</ele>
        <time>2021-10-19T07:44:34Z</time>
      </trkpt>
      <trkpt lat="43.166037" lon="-5.901308">
        <ele>1332.509</ele>
        <time>2021-10-19T07:44:45Z</time>
      </trkpt>
      <trkpt lat="43.166478" lon="-5.901137">
        <ele>1335.214</ele>
        <time>2021-10-19T07:45:01Z</time>
      </trkpt>
      <trkpt lat="43.166996" lon="-5.900689">
        <ele>1339.549</ele>
        <time>2021-10-19T07:45:22Z</time>
      </trkpt>
      <trkpt lat="43.167140" lon="-5.901085">
        <ele>1342.064</ele>
        <time>2021-10-19T07:45:34Z</time>
      </trkpt>
      <trkpt lat="43.167133" lon="-5.901693">
        <ele>1344.531</ele>
        <time>2021-10-19T07:45:50Z</time>
      </trkpt>
      <trkpt lat="43.167251" lon="-5.901767">
        <ele>1345.294</ele>
        <time>2021-10-19T07:45:55Z</time>
      </trkpt>
      <trkpt lat="43.167504" lon="-5.901657">
        <ele>1346.460</ele>
        <time>2021-10-19T07:46:03Z</time>
      </trkpt>
      <trkpt lat="43.168149" lon="-5.901138">
        <ele>1353.819</ele>
        <time>2021-10-19T07:46:30Z</time>
      </trkpt>
      <trkpt lat="43.168690" lon="-5.901017">
        <ele>1360.758</ele>
        <time>2021-10-19T07:46:56Z</time>
      </trkpt>
      <trkpt lat="43.169158" lon="-5.901562">
        <ele>1367.451</ele>
        <time>2021-10-19T07:47:22Z</time>
      </trkpt>
      <trkpt lat="43.169429" lon="-5.902010">
        <ele>1371.858</ele>
        <time>2021-10-19T07:47:39Z</time>
      </trkpt>
      <trkpt lat="43.169522" lon="-5.902770">
        <ele>1378.752</ele>
        <time>2021-10-19T07:48:04Z</time>
      </trkpt>
      <trkpt lat="43.169398" lon="-5.903449">
        <ele>1384.917</ele>
        <time>2021-10-19T07:48:26Z</time>
      </trkpt>
      <trkpt lat="43.169669" lon="-5.904626">
        <ele>1395.709</ele>
        <time>2021-10-19T07:49:12Z</time>
      </trkpt>
      <trkpt lat="43.170105" lon="-5.905762">
        <ele>1406.866</ele>
        <time>2021-10-19T07:49:55Z</time>
      </trkpt>
      <trkpt lat="43.170916" lon="-5.907004">
        <ele>1421.571</ele>
        <time>2021-10-19T07:50:50Z</time>
      </trkpt>
      <trkpt lat="43.171029" lon="-5.908200">
        <ele>1432.186</ele>
        <time>2021-10-19T07:51:32Z</time>
      </trkpt>
      <trkpt lat="43.170966" lon="-5.908740">
        <ele>1436.993</ele>
        <time>2021-10-19T07:51:51Z</time>
      </trkpt>
      <trkpt lat="43.171105" lon="-5.909390">
        <ele>1442.816</ele>
        <time>2021-10-19T07:52:15Z</time>
      </trkpt>
      <trkpt lat="43.171383" lon="-5.909848">
        <ele>1448.032</ele>
        <time>2021-10-19T07:52:36Z</time>
      </trkpt>
      <trkpt lat="43.171289" lon="-5.910598">
        <ele>1454.891</ele>
        <time>2021-10-19T07:52:58Z</time>
      </trkpt>
      <trkpt lat="43.171451" lon="-5.911652">
        <ele>1464.290</ele>
        <time>2021-10-19T07:53:28Z</time>
      </trkpt>
      <trkpt lat="43.171695" lon="-5.912214">
        <ele>1469.943</ele>
        <time>2021-10-19T07:53:49Z</time>
      </trkpt>
      <trkpt lat="43.172302" lon="-5.912989">
        <ele>1479.163</ele>
        <time>2021-10-19T07:54:22Z</time>
      </trkpt>
      <trkpt lat="43.172802" lon="-5.913340">
        <ele>1484.544</ele>
        <time>2021-10-19T07:54:45Z</time>
      </trkpt>
      <trkpt lat="43.173355" lon="-5.913492">
        <ele>1489.418</ele>
        <time>2021-10-19T07:55:10Z</time>
      </trkpt>
      <trkpt lat="43.173500" lon="-5.913651">
        <ele>1491.409</ele>
        <time>2021-10-19T07:55:17Z</time>
      </trkpt>
      <trkpt lat="43.173987" lon="-5.914551">
        <ele>1501.837</ele>
        <time>2021-10-19T07:55:55Z</time>
      </trkpt>
      <trkpt lat="43.174265" lon="-5.915251">
        <ele>1509.062</ele>
        <time>2021-10-19T07:56:23Z</time>
      </trkpt>
      <trkpt lat="43.174457" lon="-5.916321">
        <ele>1516.587</ele>
        <time>2021-10-19T07:56:55Z</time>
      </trkpt>
      <trkpt lat="43.174839" lon="-5.917083">
        <ele>1523.154</ele>
        <time>2021-10-19T07:57:26Z</time>
      </trkpt>
      <trkpt lat="43.175053" lon="-5.917804">
        <ele>1529.157</ele>
        <time>2021-10-19T07:57:52Z</time>
      </trkpt>
      <trkpt lat="43.175229" lon="-5.918038">
        <ele>1531.743</ele>
        <time>2021-10-19T07:58:01Z</time>
      </trkpt>
      <trkpt lat="43.176922" lon="-5.919026">
        <ele>1555.492</ele>
        <time>2021-10-19T07:59:24Z</time>
      </trkpt>
      <trkpt lat="43.178116" lon="-5.919109">
        <ele>1569.411</ele>
        <time>2021-10-19T08:00:26Z</time>
      </trkpt>
      <trkpt lat="43.178594" lon="-5.919348">
        <ele>1576.444</ele>
        <time>2021-10-19T08:00:51Z</time>
      </trkpt>
      <trkpt lat="43.178915" lon="-5.919711">
        <ele>1582.136</ele>
        <time>2021-10-19T08:01:10Z</time>
      </trkpt>
      <trkpt lat="43.179231" lon="-5.920683">
        <ele>1592.717</ele>
        <time>2021-10-19T08:01:44Z</time>
      </trkpt>
      <trkpt lat="43.179626" lon="-5.921154">
        <ele>1599.918</ele>
        <time>2021-10-19T08:02:08Z</time>
      </trkpt>
      <trkpt lat="43.180037" lon="-5.921403">
        <ele>1606.009</ele>
        <time>2021-10-19T08:02:26Z</time>
      </trkpt>
      <trkpt lat="43.180368" lon="-5.921432">
        <ele>1610.524</ele>
        <time>2021-10-19T08:02:40Z</time>
      </trkpt>
      <trkpt lat="43.180732" lon="-5.921342">
        <ele>1615.699</ele>
        <time>2021-10-19T08:02:59Z</time>
      </trkpt>
      <trkpt lat="43.180915" lon="-5.921422">
        <ele>1618.274</ele>
        <time>2021-10-19T08:03:09Z</time>
      </trkpt>
      <trkpt lat="43.181681" lon="-5.922579">
        <ele>1634.061</ele>
        <time>2021-10-19T08:04:10Z</time>
      </trkpt>
      <trkpt lat="43.181932" lon="-5.922755">
        <ele>1637.924</ele>
        <time>2021-10-19T08:04:26Z</time>
      </trkpt>
      <trkpt lat="43.182173" lon="-5.922701">
        <ele>1641.290</ele>
        <time>2021-10-19T08:04:40Z</time>
      </trkpt>
      <trkpt lat="43.183113" lon="-5.923007">
        <ele>1654.569</ele>
        <time>2021-10-19T08:05:32Z</time>
      </trkpt>
      <trkpt lat="43.183450" lon="-5.922979">
        <ele>1659.248</ele>
        <time>2021-10-19T08:05:50Z</time>
      </trkpt>
      <trkpt lat="43.184029" lon="-5.923080">
        <ele>1667.141</ele>
        <time>2021-10-19T08:06:14Z</time>
      </trkpt>
      <trkpt lat="43.184518" lon="-5.922540">
        <ele>1675.715</ele>
        <time>2021-10-19T08:06:44Z</time>
      </trkpt>
      <trkpt lat="43.185111" lon="-5.922113">
        <ele>1684.865</ele>
        <time>2021-10-19T08:07:17Z</time>
      </trkpt>
      <trkpt lat="43.185745" lon="-5.921967">
        <ele>1693.511</ele>
        <time>2021-10-19T08:07:49Z</time>
      </trkpt>
      <trkpt lat="43.186029" lon="-5.922187">
        <ele>1697.909</ele>
        <time>2021-10-19T08:08:05Z</time>
      </trkpt>
      <trkpt lat="43.186248" lon="-5.922504">
        <ele>1702.352</ele>
        <time>2021-10-19T08:08:21Z</time>
      </trkpt>
      <trkpt lat="43.186386" lon="-5.922903">
        <ele>1706.917</ele>
        <time>2021-10-19T08:08:40Z</time>
      </trkpt>
      <trkpt lat="43.186437" lon="-5.923496">
        <ele>1714.162</ele>
        <time>2021-10-19T08:09:02Z</time>
      </trkpt>
      <trkpt lat="43.186851" lon="-5.923946">
        <ele>1721.129</ele>
        <time>2021-10-19T08:09:33Z</time>
      </trkpt>
      <trkpt lat="43.187900" lon="-5.924690">
        <ele>1737.512</ele>
        <time>2021-10-19T08:10:30Z</time>
      </trkpt>
      <trkpt lat="43.188157" lon="-5.924616">
        <ele>1742.238</ele>
        <time>2021-10-19T08:10:43Z</time>
      </trkpt>
      <trkpt lat="43.188187" lon="-5.924487">
        <ele>1744.077</ele>
        <time>2021-10-19T08:10:50Z</time>
      </trkpt>
      <trkpt lat="43.188127" lon="-5.924249">
        <ele>1747.096</ele>
        <time>2021-10-19T08:11:02Z</time>
      </trkpt>
      <trkpt lat="43.187856" lon="-5.923863">
        <ele>1749.219</ele>
        <time>2021-10-19T08:11:22Z</time>
      </trkpt>
      <trkpt lat="43.187942" lon="-5.923452">
        <ele>1751.058</ele>
        <time>2021-10-19T08:11:47Z</time>
      </trkpt>
    </trkseg>
  </trk></gpx>