<?xml version="1.0" encoding="UTF-8"?>
<gpx creator="Wikiloc - https://www.wikiloc.com" version="1.1" xmlns="http://www.topografix.com/GPX/1/1" xmlns:xsi="http://www.w3.org/2001/XMLSchema-instance" xsi:schemaLocation="http://www.topografix.com/GPX/1/1 http://www.topografix.com/GPX/1/1/gpx.xsd">
  <metadata>
    <name>Wikiloc - ALTO DE CONTRERAS (por río Cabriel)</name>
    <link href="https://www.wikiloc.com/cycling-trails/alto-de-contreras-por-rio-cabriel-265833237">
      <text>ALTO DE CONTRERAS (por río Cabriel) - Wikiloc on Wikiloc</text>
    </link>
    <time>2026-07-16T10:12:24.051Z</time>
  </metadata>
  <trk>
    <name>ALTO DE CONTRERAS (por río Cabriel) - Wikiloc</name>
    <cmt></cmt>
    <desc></desc>
    <trkseg>
      <trkpt lat="39.541870" lon="-1.505010">
        <ele>570.486</ele>
        <time>2026-07-16T10:12:24.050Z</time>
      </trkpt>
      <trkpt lat="39.541540" lon="-1.504560">
        <ele>591.060</ele>
        <time>2026-07-16T10:12:44.050Z</time>
      </trkpt>
      <trkpt lat="39.541430" lon="-1.504520">
        <ele>596.126</ele>
        <time>2026-07-16T10:13:04.050Z</time>
      </trkpt>
      <trkpt lat="39.541320" lon="-1.504550">
        <ele>597.909</ele>
        <time>2026-07-16T10:13:24.050Z</time>
      </trkpt>
      <trkpt lat="39.540960" lon="-1.504790">
        <ele>595.690</ele>
        <time>2026-07-16T10:13:44.050Z</time>
      </trkpt>
      <trkpt lat="39.540680" lon="-1.504950">
        <ele>594.014</ele>
        <time>2026-07-16T10:14:04.050Z</time>
      </trkpt>
      <trkpt lat="39.540470" lon="-1.505000">
        <ele>594.953</ele>
        <time>2026-07-16T10:14:24.050Z</time>
      </trkpt>
      <trkpt lat="39.540020" lon="-1.504980">
        <ele>598.696</ele>
        <time>2026-07-16T10:14:44.050Z</time>
      </trkpt>
      <trkpt lat="39.539850" lon="-1.504940">
        <ele>598.681</ele>
        <time>2026-07-16T10:15:04.050Z</time>
      </trkpt>
      <trkpt lat="39.539730" lon="-1.504880">
        <ele>599.151</ele>
        <time>2026-07-16T10:15:24.050Z</time>
      </trkpt>
      <trkpt lat="39.539600" lon="-1.504740">
        <ele>598.660</ele>
        <time>2026-07-16T10:15:44.050Z</time>
      </trkpt>
      <trkpt lat="39.538620" lon="-1.503540">
        <ele>604.051</ele>
        <time>2026-07-16T10:16:04.050Z</time>
      </trkpt>
      <trkpt lat="39.537920" lon="-1.502710">
        <ele>606.655</ele>
        <time>2026-07-16T10:16:24.050Z</time>
      </trkpt>
      <trkpt lat="39.537850" lon="-1.502600">
        <ele>608.399</ele>
        <time>2026-07-16T10:16:44.050Z</time>
      </trkpt>
      <trkpt lat="39.537830" lon="-1.502540">
        <ele>610.007</ele>
        <time>2026-07-16T10:17:04.050Z</time>
      </trkpt>
      <trkpt lat="39.537840" lon="-1.502450">
        <ele>613.227</ele>
        <time>2026-07-16T10:17:24.050Z</time>
      </trkpt>
      <trkpt lat="39.537910" lon="-1.502420">
        <ele>616.009</ele>
        <time>2026-07-16T10:17:44.050Z</time>
      </trkpt>
      <trkpt lat="39.537990" lon="-1.502450">
        <ele>617.441</ele>
        <time>2026-07-16T10:18:04.050Z</time>
      </trkpt>
      <trkpt lat="39.538750" lon="-1.503140">
        <ele>618.535</ele>
        <time>2026-07-16T10:18:24.050Z</time>
      </trkpt>
      <trkpt lat="39.539280" lon="-1.503520">
        <ele>620.484</ele>
        <time>2026-07-16T10:18:44.050Z</time>
      </trkpt>
      <trkpt lat="39.540040" lon="-1.504360">
        <ele>615.967</ele>
        <time>2026-07-16T10:19:04.050Z</time>
      </trkpt>
      <trkpt lat="39.540110" lon="-1.504380">
        <ele>615.932</ele>
        <time>2026-07-16T10:19:24.050Z</time>
      </trkpt>
      <trkpt lat="39.540160" lon="-1.504330">
        <ele>618.232</ele>
        <time>2026-07-16T10:19:44.050Z</time>
      </trkpt>
      <trkpt lat="39.540160" lon="-1.504240">
        <ele>621.341</ele>
        <time>2026-07-16T10:20:04.050Z</time>
      </trkpt>
      <trkpt lat="39.539830" lon="-1.503810">
        <ele>630.422</ele>
        <time>2026-07-16T10:20:24.050Z</time>
      </trkpt>
      <trkpt lat="39.538750" lon="-1.502330">
        <ele>638.376</ele>
        <time>2026-07-16T10:20:44.050Z</time>
      </trkpt>
      <trkpt lat="39.538650" lon="-1.502240">
        <ele>639.212</ele>
        <time>2026-07-16T10:21:04.050Z</time>
      </trkpt>
      <trkpt lat="39.538050" lon="-1.501870">
        <ele>633.132</ele>
        <time>2026-07-16T10:21:24.050Z</time>
      </trkpt>
      <trkpt lat="39.537960" lon="-1.501780">
        <ele>634.405</ele>
        <time>2026-07-16T10:21:44.050Z</time>
      </trkpt>
      <trkpt lat="39.537710" lon="-1.501180">
        <ele>641.709</ele>
        <time>2026-07-16T10:22:04.050Z</time>
      </trkpt>
      <trkpt lat="39.537680" lon="-1.501030">
        <ele>642.843</ele>
        <time>2026-07-16T10:22:24.050Z</time>
      </trkpt>
      <trkpt lat="39.537650" lon="-1.500440">
        <ele>650.337</ele>
        <time>2026-07-16T10:22:44.050Z</time>
      </trkpt>
      <trkpt lat="39.537620" lon="-1.500300">
        <ele>651.216</ele>
        <time>2026-07-16T10:23:04.050Z</time>
      </trkpt>
      <trkpt lat="39.537540" lon="-1.500160">
        <ele>650.139</ele>
        <time>2026-07-16T10:23:24.050Z</time>
      </trkpt>
      <trkpt lat="39.537020" lon="-1.499750">
        <ele>651.474</ele>
        <time>2026-07-16T10:23:44.050Z</time>
      </trkpt>
      <trkpt lat="39.536840" lon="-1.499590">
        <ele>649.824</ele>
        <time>2026-07-16T10:24:04.050Z</time>
      </trkpt>
      <trkpt lat="39.536750" lon="-1.499430">
        <ele>649.463</ele>
        <time>2026-07-16T10:24:24.050Z</time>
      </trkpt>
      <trkpt lat="39.536730" lon="-1.499340">
        <ele>649.614</ele>
        <time>2026-07-16T10:24:44.050Z</time>
      </trkpt>
      <trkpt lat="39.536740" lon="-1.499240">
        <ele>650.078</ele>
        <time>2026-07-16T10:25:04.050Z</time>
      </trkpt>
      <trkpt lat="39.536810" lon="-1.499080">
        <ele>651.053</ele>
        <time>2026-07-16T10:25:24.050Z</time>
      </trkpt>
      <trkpt lat="39.536910" lon="-1.498980">
        <ele>651.604</ele>
        <time>2026-07-16T10:25:44.050Z</time>
      </trkpt>
      <trkpt lat="39.537000" lon="-1.498950">
        <ele>652.314</ele>
        <time>2026-07-16T10:26:04.050Z</time>
      </trkpt>
      <trkpt lat="39.537060" lon="-1.498960">
        <ele>652.909</ele>
        <time>2026-07-16T10:26:24.050Z</time>
      </trkpt>
      <trkpt lat="39.537150" lon="-1.499000">
        <ele>653.557</ele>
        <time>2026-07-16T10:26:44.050Z</time>
      </trkpt>
      <trkpt lat="39.537380" lon="-1.499200">
        <ele>655.881</ele>
        <time>2026-07-16T10:27:04.050Z</time>
      </trkpt>
      <trkpt lat="39.537830" lon="-1.499630">
        <ele>657.780</ele>
        <time>2026-07-16T10:27:24.050Z</time>
      </trkpt>
      <trkpt lat="39.538430" lon="-1.500130">
        <ele>668.313</ele>
        <time>2026-07-16T10:27:44.050Z</time>
      </trkpt>
      <trkpt lat="39.539150" lon="-1.500840">
        <ele>672.758</ele>
        <time>2026-07-16T10:28:04.050Z</time>
      </trkpt>
      <trkpt lat="39.539290" lon="-1.500950">
        <ele>672.058</ele>
        <time>2026-07-16T10:28:24.050Z</time>
      </trkpt>
      <trkpt lat="39.539390" lon="-1.500960">
        <ele>672.357</ele>
        <time>2026-07-16T10:28:44.050Z</time>
      </trkpt>
      <trkpt lat="39.539470" lon="-1.500920">
        <ele>673.268</ele>
        <time>2026-07-16T10:29:04.050Z</time>
      </trkpt>
      <trkpt lat="39.539520" lon="-1.500800">
        <ele>674.362</ele>
        <time>2026-07-16T10:29:24.050Z</time>
      </trkpt>
      <trkpt lat="39.539530" lon="-1.500690">
        <ele>674.545</ele>
        <time>2026-07-16T10:29:44.050Z</time>
      </trkpt>
      <trkpt lat="39.539470" lon="-1.500480">
        <ele>674.247</ele>
        <time>2026-07-16T10:30:04.050Z</time>
      </trkpt>
      <trkpt lat="39.538950" lon="-1.499300">
        <ele>673.211</ele>
        <time>2026-07-16T10:30:24.050Z</time>
      </trkpt>
      <trkpt lat="39.537910" lon="-1.496840">
        <ele>688.509</ele>
        <time>2026-07-16T10:30:44.050Z</time>
      </trkpt>
      <trkpt lat="39.536450" lon="-1.493600">
        <ele>704.176</ele>
        <time>2026-07-16T10:31:04.050Z</time>
      </trkpt>
      <trkpt lat="39.536270" lon="-1.493230">
        <ele>703.460</ele>
        <time>2026-07-16T10:31:24.050Z</time>
      </trkpt>
      <trkpt lat="39.535760" lon="-1.492300">
        <ele>711.789</ele>
        <time>2026-07-16T10:31:44.050Z</time>
      </trkpt>
      <trkpt lat="39.535670" lon="-1.492100">
        <ele>712.852</ele>
        <time>2026-07-16T10:32:04.050Z</time>
      </trkpt>
      <trkpt lat="39.535570" lon="-1.491850">
        <ele>714.867</ele>
        <time>2026-07-16T10:32:24.050Z</time>
      </trkpt>
      <trkpt lat="39.535350" lon="-1.491150">
        <ele>719.427</ele>
        <time>2026-07-16T10:32:44.050Z</time>
      </trkpt>
      <trkpt lat="39.535280" lon="-1.490990">
        <ele>719.896</ele>
        <time>2026-07-16T10:33:04.050Z</time>
      </trkpt>
      <trkpt lat="39.534120" lon="-1.489270">
        <ele>735.647</ele>
        <time>2026-07-16T10:33:24.050Z</time>
      </trkpt>
      <trkpt lat="39.533970" lon="-1.489140">
        <ele>736.841</ele>
        <time>2026-07-16T10:33:44.050Z</time>
      </trkpt>
      <trkpt lat="39.533520" lon="-1.488900">
        <ele>736.768</ele>
        <time>2026-07-16T10:34:04.050Z</time>
      </trkpt>
      <trkpt lat="39.533350" lon="-1.488770">
        <ele>736.442</ele>
        <time>2026-07-16T10:34:24.050Z</time>
      </trkpt>
      <trkpt lat="39.533250" lon="-1.488640">
        <ele>735.626</ele>
        <time>2026-07-16T10:34:44.050Z</time>
      </trkpt>
      <trkpt lat="39.533190" lon="-1.488490">
        <ele>736.909</ele>
        <time>2026-07-16T10:35:04.050Z</time>
      </trkpt>
      <trkpt lat="39.533010" lon="-1.487870">
        <ele>739.928</ele>
        <time>2026-07-16T10:35:24.050Z</time>
      </trkpt>
      <trkpt lat="39.532730" lon="-1.487220">
        <ele>743.062</ele>
        <time>2026-07-16T10:35:44.050Z</time>
      </trkpt>
      <trkpt lat="39.532570" lon="-1.486930">
        <ele>747.551</ele>
        <time>2026-07-16T10:36:04.050Z</time>
      </trkpt>
      <trkpt lat="39.532160" lon="-1.486370">
        <ele>744.224</ele>
        <time>2026-07-16T10:36:24.050Z</time>
      </trkpt>
      <trkpt lat="39.531920" lon="-1.485790">
        <ele>750.149</ele>
        <time>2026-07-16T10:36:44.050Z</time>
      </trkpt>
      <trkpt lat="39.531590" lon="-1.485340">
        <ele>748.129</ele>
        <time>2026-07-16T10:37:04.050Z</time>
      </trkpt>
      <trkpt lat="39.531040" lon="-1.484050">
        <ele>769.968</ele>
        <time>2026-07-16T10:37:24.050Z</time>
      </trkpt>
      <trkpt lat="39.530860" lon="-1.483840">
        <ele>768.339</ele>
        <time>2026-07-16T10:37:44.050Z</time>
      </trkpt>
      <trkpt lat="39.529940" lon="-1.482980">
        <ele>772.463</ele>
        <time>2026-07-16T10:38:04.050Z</time>
      </trkpt>
      <trkpt lat="39.529500" lon="-1.482490">
        <ele>771.985</ele>
        <time>2026-07-16T10:38:24.050Z</time>
      </trkpt>
      <trkpt lat="39.529040" lon="-1.481820">
        <ele>774.689</ele>
        <time>2026-07-16T10:38:44.050Z</time>
      </trkpt>
      <trkpt lat="39.528890" lon="-1.481540">
        <ele>773.917</ele>
        <time>2026-07-16T10:39:04.050Z</time>
      </trkpt>
      <trkpt lat="39.528790" lon="-1.481270">
        <ele>779.609</ele>
        <time>2026-07-16T10:39:24.050Z</time>
      </trkpt>
      <trkpt lat="39.528720" lon="-1.481140">
        <ele>782.960</ele>
        <time>2026-07-16T10:39:44.050Z</time>
      </trkpt>
      <trkpt lat="39.528600" lon="-1.481020">
        <ele>784.154</ele>
        <time>2026-07-16T10:40:04.050Z</time>
      </trkpt>
      <trkpt lat="39.528430" lon="-1.480910">
        <ele>787.463</ele>
        <time>2026-07-16T10:40:24.050Z</time>
      </trkpt>
      <trkpt lat="39.528190" lon="-1.480710">
        <ele>789.426</ele>
        <time>2026-07-16T10:40:44.050Z</time>
      </trkpt>
      <trkpt lat="39.527270" lon="-1.479340">
        <ele>791.341</ele>
        <time>2026-07-16T10:41:04.050Z</time>
      </trkpt>
      <trkpt lat="39.526790" lon="-1.478670">
        <ele>798.341</ele>
        <time>2026-07-16T10:41:24.050Z</time>
      </trkpt>
      <trkpt lat="39.526240" lon="-1.477970">
        <ele>796.070</ele>
        <time>2026-07-16T10:41:44.050Z</time>
      </trkpt>
      <trkpt lat="39.526060" lon="-1.477790">
        <ele>797.261</ele>
        <time>2026-07-16T10:42:04.050Z</time>
      </trkpt>
      <trkpt lat="39.525530" lon="-1.477340">
        <ele>805.275</ele>
        <time>2026-07-16T10:42:24.050Z</time>
      </trkpt>
      <trkpt lat="39.525420" lon="-1.477200">
        <ele>807.686</ele>
        <time>2026-07-16T10:42:44.050Z</time>
      </trkpt>
      <trkpt lat="39.525260" lon="-1.476940">
        <ele>809.560</ele>
        <time>2026-07-16T10:43:04.050Z</time>
      </trkpt>
      <trkpt lat="39.525170" lon="-1.476760">
        <ele>811.426</ele>
        <time>2026-07-16T10:43:24.050Z</time>
      </trkpt>
      <trkpt lat="39.525020" lon="-1.476280">
        <ele>819.109</ele>
        <time>2026-07-16T10:43:44.050Z</time>
      </trkpt>
      <trkpt lat="39.524930" lon="-1.476090">
        <ele>818.980</ele>
        <time>2026-07-16T10:44:04.050Z</time>
      </trkpt>
      <trkpt lat="39.524210" lon="-1.475240">
        <ele>817.084</ele>
        <time>2026-07-16T10:44:24.050Z</time>
      </trkpt>
      <trkpt lat="39.524100" lon="-1.475190">
        <ele>818.553</ele>
        <time>2026-07-16T10:44:44.050Z</time>
      </trkpt>
      <trkpt lat="39.524060" lon="-1.475200">
        <ele>818.936</ele>
        <time>2026-07-16T10:45:04.050Z</time>
      </trkpt>
      <trkpt lat="39.523970" lon="-1.475260">
        <ele>819.581</ele>
        <time>2026-07-16T10:45:24.050Z</time>
      </trkpt>
      <trkpt lat="39.523900" lon="-1.475380">
        <ele>818.221</ele>
        <time>2026-07-16T10:45:44.050Z</time>
      </trkpt>
      <trkpt lat="39.523880" lon="-1.475690">
        <ele>813.240</ele>
        <time>2026-07-16T10:46:04.050Z</time>
      </trkpt>
      <trkpt lat="39.523880" lon="-1.476080">
        <ele>816.851</ele>
        <time>2026-07-16T10:46:24.050Z</time>
      </trkpt>
      <trkpt lat="39.523900" lon="-1.476260">
        <ele>818.325</ele>
        <time>2026-07-16T10:46:44.050Z</time>
      </trkpt>
      <trkpt lat="39.524000" lon="-1.476680">
        <ele>815.992</ele>
        <time>2026-07-16T10:47:04.050Z</time>
      </trkpt>
      <trkpt lat="39.524000" lon="-1.476750">
        <ele>816.373</ele>
        <time>2026-07-16T10:47:24.050Z</time>
      </trkpt>
      <trkpt lat="39.523940" lon="-1.476830">
        <ele>818.620</ele>
        <time>2026-07-16T10:47:44.050Z</time>
      </trkpt>
      <trkpt lat="39.523860" lon="-1.476810">
        <ele>820.909</ele>
        <time>2026-07-16T10:48:04.050Z</time>
      </trkpt>
      <trkpt lat="39.523830" lon="-1.476770">
        <ele>821.571</ele>
        <time>2026-07-16T10:48:24.050Z</time>
      </trkpt>
      <trkpt lat="39.523780" lon="-1.476610">
        <ele>823.125</ele>
        <time>2026-07-16T10:48:44.050Z</time>
      </trkpt>
      <trkpt lat="39.523710" lon="-1.476060">
        <ele>825.754</ele>
        <time>2026-07-16T10:49:04.050Z</time>
      </trkpt>
      <trkpt lat="39.523670" lon="-1.475600">
        <ele>829.427</ele>
        <time>2026-07-16T10:49:24.050Z</time>
      </trkpt>
      <trkpt lat="39.523620" lon="-1.475420">
        <ele>834.952</ele>
        <time>2026-07-16T10:49:44.050Z</time>
      </trkpt>
      <trkpt lat="39.523470" lon="-1.475010">
        <ele>838.792</ele>
        <time>2026-07-16T10:50:04.050Z</time>
      </trkpt>
      <trkpt lat="39.523350" lon="-1.474750">
        <ele>842.411</ele>
        <time>2026-07-16T10:50:24.050Z</time>
      </trkpt>
      <trkpt lat="39.522940" lon="-1.474160">
        <ele>836.722</ele>
        <time>2026-07-16T10:50:44.050Z</time>
      </trkpt>
      <trkpt lat="39.522890" lon="-1.474100">
        <ele>837.956</ele>
        <time>2026-07-16T10:51:04.050Z</time>
      </trkpt>
      <trkpt lat="39.522850" lon="-1.474100">
        <ele>838.412</ele>
        <time>2026-07-16T10:51:24.050Z</time>
      </trkpt>
      <trkpt lat="39.522810" lon="-1.474130">
        <ele>838.832</ele>
        <time>2026-07-16T10:51:44.050Z</time>
      </trkpt>
      <trkpt lat="39.522790" lon="-1.474200">
        <ele>839.305</ele>
        <time>2026-07-16T10:52:04.050Z</time>
      </trkpt>
      <trkpt lat="39.522810" lon="-1.474250">
        <ele>839.709</ele>
        <time>2026-07-16T10:52:24.050Z</time>
      </trkpt>
      <trkpt lat="39.523150" lon="-1.474840">
        <ele>846.213</ele>
        <time>2026-07-16T10:52:44.050Z</time>
      </trkpt>
      <trkpt lat="39.523270" lon="-1.475090">
        <ele>846.127</ele>
        <time>2026-07-16T10:53:04.050Z</time>
      </trkpt>
      <trkpt lat="39.523350" lon="-1.475330">
        <ele>845.446</ele>
        <time>2026-07-16T10:53:24.050Z</time>
      </trkpt>
      <trkpt lat="39.523410" lon="-1.475660">
        <ele>842.239</ele>
        <time>2026-07-16T10:53:44.050Z</time>
      </trkpt>
      <trkpt lat="39.523420" lon="-1.475840">
        <ele>840.914</ele>
        <time>2026-07-16T10:54:04.050Z</time>
      </trkpt>
      <trkpt lat="39.523350" lon="-1.476550">
        <ele>835.364</ele>
        <time>2026-07-16T10:54:24.050Z</time>
      </trkpt>
      <trkpt lat="39.523340" lon="-1.476590">
        <ele>835.023</ele>
        <time>2026-07-16T10:54:44.050Z</time>
      </trkpt>
      <trkpt lat="39.523260" lon="-1.476620">
        <ele>835.534</ele>
        <time>2026-07-16T10:55:04.050Z</time>
      </trkpt>
      <trkpt lat="39.523200" lon="-1.476570">
        <ele>837.098</ele>
        <time>2026-07-16T10:55:24.050Z</time>
      </trkpt>
      <trkpt lat="39.523170" lon="-1.476460">
        <ele>839.258</ele>
        <time>2026-07-16T10:55:44.050Z</time>
      </trkpt>
      <trkpt lat="39.523210" lon="-1.475700">
        <ele>847.952</ele>
        <time>2026-07-16T10:56:04.050Z</time>
      </trkpt>
      <trkpt lat="39.523200" lon="-1.475560">
        <ele>848.917</ele>
        <time>2026-07-16T10:56:24.050Z</time>
      </trkpt>
      <trkpt lat="39.523160" lon="-1.475430">
        <ele>850.009</ele>
        <time>2026-07-16T10:56:44.050Z</time>
      </trkpt>
      <trkpt lat="39.523050" lon="-1.475240">
        <ele>852.677</ele>
        <time>2026-07-16T10:57:04.050Z</time>
      </trkpt>
      <trkpt lat="39.522660" lon="-1.474870">
        <ele>852.021</ele>
        <time>2026-07-16T10:57:24.050Z</time>
      </trkpt>
      <trkpt lat="39.522450" lon="-1.474610">
        <ele>853.510</ele>
        <time>2026-07-16T10:57:44.050Z</time>
      </trkpt>
      <trkpt lat="39.521670" lon="-1.473330">
        <ele>862.953</ele>
        <time>2026-07-16T10:58:04.050Z</time>
      </trkpt>
      <trkpt lat="39.521610" lon="-1.473210">
        <ele>864.498</ele>
        <time>2026-07-16T10:58:24.050Z</time>
      </trkpt>
      <trkpt lat="39.521600" lon="-1.473140">
        <ele>864.718</ele>
        <time>2026-07-16T10:58:44.050Z</time>
      </trkpt>
      <trkpt lat="39.521600" lon="-1.473000">
        <ele>864.737</ele>
        <time>2026-07-16T10:59:04.050Z</time>
      </trkpt>
      <trkpt lat="39.521630" lon="-1.472630">
        <ele>864.538</ele>
        <time>2026-07-16T10:59:24.050Z</time>
      </trkpt>
      <trkpt lat="39.521610" lon="-1.472560">
        <ele>865.212</ele>
        <time>2026-07-16T10:59:44.050Z</time>
      </trkpt>
      <trkpt lat="39.521550" lon="-1.472500">
        <ele>866.963</ele>
        <time>2026-07-16T11:00:04.050Z</time>
      </trkpt>
      <trkpt lat="39.521490" lon="-1.472500">
        <ele>868.544</ele>
        <time>2026-07-16T11:00:24.050Z</time>
      </trkpt>
      <trkpt lat="39.521470" lon="-1.472520">
        <ele>868.918</ele>
        <time>2026-07-16T11:00:44.050Z</time>
      </trkpt>
      <trkpt lat="39.521410" lon="-1.472620">
        <ele>870.009</ele>
        <time>2026-07-16T11:01:04.050Z</time>
      </trkpt>
      <trkpt lat="39.521380" lon="-1.472770">
        <ele>870.178</ele>
        <time>2026-07-16T11:01:24.050Z</time>
      </trkpt>
      <trkpt lat="39.521370" lon="-1.472990">
        <ele>870.152</ele>
        <time>2026-07-16T11:01:44.050Z</time>
      </trkpt>
      <trkpt lat="39.521420" lon="-1.473420">
        <ele>869.031</ele>
        <time>2026-07-16T11:02:04.050Z</time>
      </trkpt>
      <trkpt lat="39.521400" lon="-1.473530">
        <ele>869.114</ele>
        <time>2026-07-16T11:02:24.050Z</time>
      </trkpt>
      <trkpt lat="39.521370" lon="-1.473550">
        <ele>869.369</ele>
        <time>2026-07-16T11:02:44.050Z</time>
      </trkpt>
      <trkpt lat="39.521290" lon="-1.473530">
        <ele>869.689</ele>
        <time>2026-07-16T11:03:04.050Z</time>
      </trkpt>
      <trkpt lat="39.521250" lon="-1.473480">
        <ele>870.088</ele>
        <time>2026-07-16T11:03:24.050Z</time>
      </trkpt>
      <trkpt lat="39.521050" lon="-1.472950">
        <ele>871.069</ele>
        <time>2026-07-16T11:03:44.050Z</time>
      </trkpt>
      <trkpt lat="39.520980" lon="-1.472710">
        <ele>873.133</ele>
        <time>2026-07-16T11:04:04.050Z</time>
      </trkpt>
      <trkpt lat="39.520990" lon="-1.472440">
        <ele>877.335</ele>
        <time>2026-07-16T11:04:24.050Z</time>
      </trkpt>
      <trkpt lat="39.521130" lon="-1.471700">
        <ele>882.786</ele>
        <time>2026-07-16T11:04:44.050Z</time>
      </trkpt>
      <trkpt lat="39.521140" lon="-1.471510">
        <ele>883.414</ele>
        <time>2026-07-16T11:05:04.050Z</time>
      </trkpt>
      <trkpt lat="39.521110" lon="-1.471400">
        <ele>883.909</ele>
        <time>2026-07-16T11:05:24.050Z</time>
      </trkpt>
      <trkpt lat="39.520960" lon="-1.471210">
        <ele>881.085</ele>
        <time>2026-07-16T11:05:44.050Z</time>
      </trkpt>
      <trkpt lat="39.520940" lon="-1.471160">
        <ele>880.689</ele>
        <time>2026-07-16T11:06:04.050Z</time>
      </trkpt>
      <trkpt lat="39.520940" lon="-1.471030">
        <ele>880.768</ele>
        <time>2026-07-16T11:06:24.050Z</time>
      </trkpt>
      <trkpt lat="39.520970" lon="-1.470960">
        <ele>881.281</ele>
        <time>2026-07-16T11:06:44.050Z</time>
      </trkpt>
      <trkpt lat="39.521010" lon="-1.470930">
        <ele>881.826</ele>
        <time>2026-07-16T11:07:04.050Z</time>
      </trkpt>
      <trkpt lat="39.521120" lon="-1.470900">
        <ele>883.166</ele>
        <time>2026-07-16T11:07:24.050Z</time>
      </trkpt>
      <trkpt lat="39.521400" lon="-1.470890">
        <ele>886.835</ele>
        <time>2026-07-16T11:07:44.050Z</time>
      </trkpt>
      <trkpt lat="39.521540" lon="-1.470830">
        <ele>887.626</ele>
        <time>2026-07-16T11:08:04.050Z</time>
      </trkpt>
      <trkpt lat="39.521650" lon="-1.470720">
        <ele>888.790</ele>
        <time>2026-07-16T11:08:24.050Z</time>
      </trkpt>
      <trkpt lat="39.521780" lon="-1.470430">
        <ele>889.434</ele>
        <time>2026-07-16T11:08:44.050Z</time>
      </trkpt>
      <trkpt lat="39.521870" lon="-1.470300">
        <ele>890.055</ele>
        <time>2026-07-16T11:09:04.050Z</time>
      </trkpt>
      <trkpt lat="39.521970" lon="-1.470240">
        <ele>890.910</ele>
        <time>2026-07-16T11:09:24.050Z</time>
      </trkpt>
      <trkpt lat="39.522160" lon="-1.470240">
        <ele>891.509</ele>
        <time>2026-07-16T11:09:44.050Z</time>
      </trkpt>
      <trkpt lat="39.522200" lon="-1.470280">
        <ele>890.995</ele>
        <time>2026-07-16T11:10:04.050Z</time>
      </trkpt>
      <trkpt lat="39.522360" lon="-1.470570">
        <ele>889.499</ele>
        <time>2026-07-16T11:10:24.050Z</time>
      </trkpt>
      <trkpt lat="39.522470" lon="-1.470690">
        <ele>890.448</ele>
        <time>2026-07-16T11:10:44.050Z</time>
      </trkpt>
      <trkpt lat="39.523240" lon="-1.471200">
        <ele>896.771</ele>
        <time>2026-07-16T11:11:04.050Z</time>
      </trkpt>
      <trkpt lat="39.523580" lon="-1.471410">
        <ele>895.746</ele>
        <time>2026-07-16T11:11:24.050Z</time>
      </trkpt>
      <trkpt lat="39.523760" lon="-1.471460">
        <ele>897.066</ele>
        <time>2026-07-16T11:11:44.050Z</time>
      </trkpt>
      <trkpt lat="39.524180" lon="-1.471500">
        <ele>900.025</ele>
        <time>2026-07-16T11:12:04.050Z</time>
      </trkpt>
      <trkpt lat="39.525070" lon="-1.471380">
        <ele>905.186</ele>
        <time>2026-07-16T11:12:24.050Z</time>
      </trkpt>
      <trkpt lat="39.525150" lon="-1.471350">
        <ele>905.140</ele>
        <time>2026-07-16T11:12:44.050Z</time>
      </trkpt>
      <trkpt lat="39.525250" lon="-1.471280">
        <ele>904.841</ele>
        <time>2026-07-16T11:13:04.050Z</time>
      </trkpt>
      <trkpt lat="39.525280" lon="-1.471220">
        <ele>904.481</ele>
        <time>2026-07-16T11:13:24.050Z</time>
      </trkpt>
      <trkpt lat="39.525300" lon="-1.471160">
        <ele>904.009</ele>
        <time>2026-07-16T11:13:44.050Z</time>
      </trkpt>
      <trkpt lat="39.525280" lon="-1.471020">
        <ele>904.309</ele>
        <time>2026-07-16T11:14:04.050Z</time>
      </trkpt>
      <trkpt lat="39.525220" lon="-1.470870">
        <ele>905.926</ele>
        <time>2026-07-16T11:14:24.050Z</time>
      </trkpt>
      <trkpt lat="39.524730" lon="-1.469900">
        <ele>911.860</ele>
        <time>2026-07-16T11:14:44.050Z</time>
      </trkpt>
      <trkpt lat="39.524410" lon="-1.469190">
        <ele>911.989</ele>
        <time>2026-07-16T11:15:04.050Z</time>
      </trkpt>
      <trkpt lat="39.524290" lon="-1.468830">
        <ele>914.982</ele>
        <time>2026-07-16T11:15:24.050Z</time>
      </trkpt>
      <trkpt lat="39.524170" lon="-1.468230">
        <ele>919.667</ele>
        <time>2026-07-16T11:15:44.050Z</time>
      </trkpt>
    </trkseg>
  </trk></gpx>