<?xml version="1.0" encoding="UTF-8"?>
<gpx creator="Wikiloc - https://www.wikiloc.com" version="1.1" xmlns="http://www.topografix.com/GPX/1/1" xmlns:xsi="http://www.w3.org/2001/XMLSchema-instance" xsi:schemaLocation="http://www.topografix.com/GPX/1/1 http://www.topografix.com/GPX/1/1/gpx.xsd">
  <metadata>
    <name>Wikiloc - ALTO DE LA ESTACIÓN DE ESQUÍ DE ERR-PUIGMAL (por la D89) - W...</name>
    <link href="https://www.wikiloc.com/cycling-trails/alto-de-la-estacion-de-esqui-de-err-puigmal-por-la-d89-267755439">
      <text>ALTO DE LA ESTACIÓN DE ESQUÍ DE ERR-PUIGMAL (por la D89) - W... on Wikiloc</text>
    </link>
    <time>2026-07-16T10:17:17.605Z</time>
  </metadata>
  <trk>
    <name>ALTO DE LA ESTACIÓN DE ESQUÍ DE ERR-PUIGMAL (por la D89) - W... - Wikiloc</name>
    <cmt></cmt>
    <desc></desc>
    <trkseg>
      <trkpt lat="42.438580" lon="1.988310">
        <ele>1236.686</ele>
        <time>2026-07-16T10:17:17.603Z</time>
      </trkpt>
      <trkpt lat="42.438590" lon="1.988560">
        <ele>1237.660</ele>
        <time>2026-07-16T10:17:37.603Z</time>
      </trkpt>
      <trkpt lat="42.438560" lon="1.988800">
        <ele>1238.826</ele>
        <time>2026-07-16T10:17:57.603Z</time>
      </trkpt>
      <trkpt lat="42.438460" lon="1.989360">
        <ele>1240.909</ele>
        <time>2026-07-16T10:18:17.603Z</time>
      </trkpt>
      <trkpt lat="42.438440" lon="1.989810">
        <ele>1242.510</ele>
        <time>2026-07-16T10:18:37.603Z</time>
      </trkpt>
      <trkpt lat="42.438600" lon="1.991000">
        <ele>1248.514</ele>
        <time>2026-07-16T10:18:57.603Z</time>
      </trkpt>
      <trkpt lat="42.438660" lon="1.991030">
        <ele>1249.125</ele>
        <time>2026-07-16T10:19:17.603Z</time>
      </trkpt>
      <trkpt lat="42.438750" lon="1.991230">
        <ele>1250.485</ele>
        <time>2026-07-16T10:19:37.603Z</time>
      </trkpt>
      <trkpt lat="42.439400" lon="1.993230">
        <ele>1261.663</ele>
        <time>2026-07-16T10:19:57.603Z</time>
      </trkpt>
      <trkpt lat="42.439530" lon="1.993710">
        <ele>1264.013</ele>
        <time>2026-07-16T10:20:17.603Z</time>
      </trkpt>
      <trkpt lat="42.439590" lon="1.994020">
        <ele>1265.572</ele>
        <time>2026-07-16T10:20:37.603Z</time>
      </trkpt>
      <trkpt lat="42.439650" lon="1.994650">
        <ele>1267.521</ele>
        <time>2026-07-16T10:20:57.603Z</time>
      </trkpt>
      <trkpt lat="42.439710" lon="1.997250">
        <ele>1275.057</ele>
        <time>2026-07-16T10:21:17.603Z</time>
      </trkpt>
      <trkpt lat="42.439760" lon="1.998280">
        <ele>1276.712</ele>
        <time>2026-07-16T10:21:37.603Z</time>
      </trkpt>
      <trkpt lat="42.439760" lon="1.998380">
        <ele>1277.032</ele>
        <time>2026-07-16T10:21:57.603Z</time>
      </trkpt>
      <trkpt lat="42.439350" lon="1.999360">
        <ele>1281.005</ele>
        <time>2026-07-16T10:22:17.603Z</time>
      </trkpt>
      <trkpt lat="42.439220" lon="2.001100">
        <ele>1289.509</ele>
        <time>2026-07-16T10:22:37.603Z</time>
      </trkpt>
      <trkpt lat="42.439180" lon="2.001230">
        <ele>1289.913</ele>
        <time>2026-07-16T10:22:57.603Z</time>
      </trkpt>
      <trkpt lat="42.442690" lon="2.008780">
        <ele>1309.757</ele>
        <time>2026-07-16T10:23:17.603Z</time>
      </trkpt>
      <trkpt lat="42.442700" lon="2.008690">
        <ele>1309.528</ele>
        <time>2026-07-16T10:23:37.603Z</time>
      </trkpt>
      <trkpt lat="42.442600" lon="2.008460">
        <ele>1309.188</ele>
        <time>2026-07-16T10:23:57.603Z</time>
      </trkpt>
      <trkpt lat="42.442010" lon="2.007310">
        <ele>1306.176</ele>
        <time>2026-07-16T10:24:17.603Z</time>
      </trkpt>
      <trkpt lat="42.442620" lon="2.008650">
        <ele>1309.656</ele>
        <time>2026-07-16T10:24:37.603Z</time>
      </trkpt>
      <trkpt lat="42.442430" lon="2.009000">
        <ele>1310.765</ele>
        <time>2026-07-16T10:24:57.603Z</time>
      </trkpt>
      <trkpt lat="42.441030" lon="2.011230">
        <ele>1324.714</ele>
        <time>2026-07-16T10:25:17.603Z</time>
      </trkpt>
      <trkpt lat="42.440910" lon="2.011480">
        <ele>1326.390</ele>
        <time>2026-07-16T10:25:37.603Z</time>
      </trkpt>
      <trkpt lat="42.440840" lon="2.011780">
        <ele>1328.438</ele>
        <time>2026-07-16T10:25:57.603Z</time>
      </trkpt>
      <trkpt lat="42.440830" lon="2.012680">
        <ele>1332.770</ele>
        <time>2026-07-16T10:26:17.603Z</time>
      </trkpt>
      <trkpt lat="42.440800" lon="2.012930">
        <ele>1333.717</ele>
        <time>2026-07-16T10:26:37.603Z</time>
      </trkpt>
      <trkpt lat="42.440750" lon="2.013130">
        <ele>1334.909</ele>
        <time>2026-07-16T10:26:57.603Z</time>
      </trkpt>
      <trkpt lat="42.440670" lon="2.013380">
        <ele>1336.345</ele>
        <time>2026-07-16T10:27:17.604Z</time>
      </trkpt>
      <trkpt lat="42.440510" lon="2.013690">
        <ele>1338.639</ele>
        <time>2026-07-16T10:27:37.604Z</time>
      </trkpt>
      <trkpt lat="42.440100" lon="2.014260">
        <ele>1343.760</ele>
        <time>2026-07-16T10:27:57.604Z</time>
      </trkpt>
      <trkpt lat="42.438580" lon="2.016500">
        <ele>1363.930</ele>
        <time>2026-07-16T10:28:17.604Z</time>
      </trkpt>
      <trkpt lat="42.438220" lon="2.016850">
        <ele>1367.358</ele>
        <time>2026-07-16T10:28:37.604Z</time>
      </trkpt>
      <trkpt lat="42.437890" lon="2.017030">
        <ele>1370.168</ele>
        <time>2026-07-16T10:28:57.604Z</time>
      </trkpt>
      <trkpt lat="42.437720" lon="2.017070">
        <ele>1370.817</ele>
        <time>2026-07-16T10:29:17.604Z</time>
      </trkpt>
      <trkpt lat="42.437440" lon="2.017050">
        <ele>1370.786</ele>
        <time>2026-07-16T10:29:37.604Z</time>
      </trkpt>
      <trkpt lat="42.437050" lon="2.016930">
        <ele>1372.862</ele>
        <time>2026-07-16T10:29:57.604Z</time>
      </trkpt>
      <trkpt lat="42.436800" lon="2.016810">
        <ele>1374.855</ele>
        <time>2026-07-16T10:30:17.604Z</time>
      </trkpt>
      <trkpt lat="42.436220" lon="2.016230">
        <ele>1376.207</ele>
        <time>2026-07-16T10:30:37.604Z</time>
      </trkpt>
      <trkpt lat="42.436070" lon="2.016150">
        <ele>1376.517</ele>
        <time>2026-07-16T10:30:57.604Z</time>
      </trkpt>
      <trkpt lat="42.435900" lon="2.016090">
        <ele>1377.409</ele>
        <time>2026-07-16T10:31:17.604Z</time>
      </trkpt>
      <trkpt lat="42.435550" lon="2.016140">
        <ele>1380.277</ele>
        <time>2026-07-16T10:31:37.604Z</time>
      </trkpt>
      <trkpt lat="42.434150" lon="2.016460">
        <ele>1391.841</ele>
        <time>2026-07-16T10:31:57.604Z</time>
      </trkpt>
      <trkpt lat="42.434060" lon="2.016550">
        <ele>1392.942</ele>
        <time>2026-07-16T10:32:17.604Z</time>
      </trkpt>
      <trkpt lat="42.433540" lon="2.016850">
        <ele>1395.722</ele>
        <time>2026-07-16T10:32:37.604Z</time>
      </trkpt>
      <trkpt lat="42.433300" lon="2.016950">
        <ele>1397.320</ele>
        <time>2026-07-16T10:32:57.604Z</time>
      </trkpt>
      <trkpt lat="42.432780" lon="2.017160">
        <ele>1402.320</ele>
        <time>2026-07-16T10:33:17.604Z</time>
      </trkpt>
      <trkpt lat="42.432630" lon="2.017180">
        <ele>1403.629</ele>
        <time>2026-07-16T10:33:37.604Z</time>
      </trkpt>
      <trkpt lat="42.432510" lon="2.017130">
        <ele>1403.988</ele>
        <time>2026-07-16T10:33:57.604Z</time>
      </trkpt>
      <trkpt lat="42.432380" lon="2.017000">
        <ele>1404.324</ele>
        <time>2026-07-16T10:34:17.604Z</time>
      </trkpt>
      <trkpt lat="42.432300" lon="2.016960">
        <ele>1405.038</ele>
        <time>2026-07-16T10:34:37.604Z</time>
      </trkpt>
      <trkpt lat="42.432220" lon="2.017000">
        <ele>1406.670</ele>
        <time>2026-07-16T10:34:57.604Z</time>
      </trkpt>
      <trkpt lat="42.432180" lon="2.017140">
        <ele>1408.917</ele>
        <time>2026-07-16T10:35:17.604Z</time>
      </trkpt>
      <trkpt lat="42.432240" lon="2.017280">
        <ele>1409.409</ele>
        <time>2026-07-16T10:35:37.604Z</time>
      </trkpt>
      <trkpt lat="42.432510" lon="2.017530">
        <ele>1408.395</ele>
        <time>2026-07-16T10:35:57.604Z</time>
      </trkpt>
      <trkpt lat="42.432610" lon="2.017720">
        <ele>1409.629</ele>
        <time>2026-07-16T10:36:17.604Z</time>
      </trkpt>
      <trkpt lat="42.433280" lon="2.019320">
        <ele>1419.980</ele>
        <time>2026-07-16T10:36:37.604Z</time>
      </trkpt>
      <trkpt lat="42.433340" lon="2.019570">
        <ele>1421.820</ele>
        <time>2026-07-16T10:36:57.604Z</time>
      </trkpt>
      <trkpt lat="42.433410" lon="2.020190">
        <ele>1427.378</ele>
        <time>2026-07-16T10:37:17.604Z</time>
      </trkpt>
      <trkpt lat="42.433450" lon="2.021010">
        <ele>1432.238</ele>
        <time>2026-07-16T10:37:37.604Z</time>
      </trkpt>
      <trkpt lat="42.433480" lon="2.021270">
        <ele>1433.027</ele>
        <time>2026-07-16T10:37:57.604Z</time>
      </trkpt>
      <trkpt lat="42.433790" lon="2.022660">
        <ele>1434.036</ele>
        <time>2026-07-16T10:38:17.604Z</time>
      </trkpt>
      <trkpt lat="42.433800" lon="2.022970">
        <ele>1435.072</ele>
        <time>2026-07-16T10:38:37.604Z</time>
      </trkpt>
      <trkpt lat="42.433780" lon="2.023320">
        <ele>1436.118</ele>
        <time>2026-07-16T10:38:57.604Z</time>
      </trkpt>
      <trkpt lat="42.433660" lon="2.024140">
        <ele>1441.198</ele>
        <time>2026-07-16T10:39:17.604Z</time>
      </trkpt>
      <trkpt lat="42.433560" lon="2.025060">
        <ele>1447.017</ele>
        <time>2026-07-16T10:39:37.604Z</time>
      </trkpt>
      <trkpt lat="42.433550" lon="2.025960">
        <ele>1453.709</ele>
        <time>2026-07-16T10:39:57.604Z</time>
      </trkpt>
      <trkpt lat="42.433600" lon="2.026520">
        <ele>1457.683</ele>
        <time>2026-07-16T10:40:17.604Z</time>
      </trkpt>
      <trkpt lat="42.433640" lon="2.026820">
        <ele>1459.847</ele>
        <time>2026-07-16T10:40:37.604Z</time>
      </trkpt>
      <trkpt lat="42.433720" lon="2.027060">
        <ele>1461.258</ele>
        <time>2026-07-16T10:40:57.604Z</time>
      </trkpt>
      <trkpt lat="42.433830" lon="2.027280">
        <ele>1461.748</ele>
        <time>2026-07-16T10:41:17.604Z</time>
      </trkpt>
      <trkpt lat="42.433990" lon="2.027600">
        <ele>1462.366</ele>
        <time>2026-07-16T10:41:37.604Z</time>
      </trkpt>
      <trkpt lat="42.434010" lon="2.027730">
        <ele>1462.946</ele>
        <time>2026-07-16T10:41:57.604Z</time>
      </trkpt>
      <trkpt lat="42.433980" lon="2.027830">
        <ele>1464.035</ele>
        <time>2026-07-16T10:42:17.604Z</time>
      </trkpt>
      <trkpt lat="42.433880" lon="2.027880">
        <ele>1465.984</ele>
        <time>2026-07-16T10:42:37.604Z</time>
      </trkpt>
      <trkpt lat="42.433800" lon="2.027830">
        <ele>1467.250</ele>
        <time>2026-07-16T10:42:57.604Z</time>
      </trkpt>
      <trkpt lat="42.433620" lon="2.027430">
        <ele>1467.184</ele>
        <time>2026-07-16T10:43:17.604Z</time>
      </trkpt>
      <trkpt lat="42.433440" lon="2.027220">
        <ele>1468.107</ele>
        <time>2026-07-16T10:43:37.604Z</time>
      </trkpt>
      <trkpt lat="42.432650" lon="2.026540">
        <ele>1475.217</ele>
        <time>2026-07-16T10:43:57.604Z</time>
      </trkpt>
      <trkpt lat="42.432420" lon="2.026400">
        <ele>1477.909</ele>
        <time>2026-07-16T10:44:17.604Z</time>
      </trkpt>
      <trkpt lat="42.431850" lon="2.026110">
        <ele>1486.720</ele>
        <time>2026-07-16T10:44:37.604Z</time>
      </trkpt>
      <trkpt lat="42.430350" lon="2.025140">
        <ele>1501.364</ele>
        <time>2026-07-16T10:44:57.604Z</time>
      </trkpt>
      <trkpt lat="42.429880" lon="2.024800">
        <ele>1508.135</ele>
        <time>2026-07-16T10:45:17.604Z</time>
      </trkpt>
      <trkpt lat="42.429720" lon="2.024660">
        <ele>1509.145</ele>
        <time>2026-07-16T10:45:37.604Z</time>
      </trkpt>
      <trkpt lat="42.429640" lon="2.024480">
        <ele>1508.513</ele>
        <time>2026-07-16T10:45:57.604Z</time>
      </trkpt>
      <trkpt lat="42.429610" lon="2.024290">
        <ele>1509.333</ele>
        <time>2026-07-16T10:46:17.604Z</time>
      </trkpt>
      <trkpt lat="42.429650" lon="2.024070">
        <ele>1509.882</ele>
        <time>2026-07-16T10:46:37.604Z</time>
      </trkpt>
      <trkpt lat="42.429890" lon="2.023450">
        <ele>1509.311</ele>
        <time>2026-07-16T10:46:57.604Z</time>
      </trkpt>
      <trkpt lat="42.429940" lon="2.023170">
        <ele>1508.917</ele>
        <time>2026-07-16T10:47:17.604Z</time>
      </trkpt>
      <trkpt lat="42.429950" lon="2.022940">
        <ele>1508.432</ele>
        <time>2026-07-16T10:47:37.604Z</time>
      </trkpt>
      <trkpt lat="42.429880" lon="2.022600">
        <ele>1509.492</ele>
        <time>2026-07-16T10:47:57.604Z</time>
      </trkpt>
      <trkpt lat="42.429560" lon="2.021660">
        <ele>1514.111</ele>
        <time>2026-07-16T10:48:17.604Z</time>
      </trkpt>
      <trkpt lat="42.429420" lon="2.021310">
        <ele>1516.709</ele>
        <time>2026-07-16T10:48:37.604Z</time>
      </trkpt>
      <trkpt lat="42.429070" lon="2.020720">
        <ele>1521.115</ele>
        <time>2026-07-16T10:48:57.604Z</time>
      </trkpt>
      <trkpt lat="42.428660" lon="2.019930">
        <ele>1527.289</ele>
        <time>2026-07-16T10:49:17.604Z</time>
      </trkpt>
      <trkpt lat="42.428550" lon="2.019640">
        <ele>1529.960</ele>
        <time>2026-07-16T10:49:37.604Z</time>
      </trkpt>
      <trkpt lat="42.428450" lon="2.019110">
        <ele>1532.510</ele>
        <time>2026-07-16T10:49:57.604Z</time>
      </trkpt>
      <trkpt lat="42.428370" lon="2.018850">
        <ele>1535.548</ele>
        <time>2026-07-16T10:50:17.604Z</time>
      </trkpt>
      <trkpt lat="42.428230" lon="2.018560">
        <ele>1538.668</ele>
        <time>2026-07-16T10:50:37.604Z</time>
      </trkpt>
      <trkpt lat="42.428060" lon="2.018330">
        <ele>1539.737</ele>
        <time>2026-07-16T10:50:57.604Z</time>
      </trkpt>
      <trkpt lat="42.427860" lon="2.018170">
        <ele>1538.276</ele>
        <time>2026-07-16T10:51:17.604Z</time>
      </trkpt>
      <trkpt lat="42.427200" lon="2.017840">
        <ele>1537.862</ele>
        <time>2026-07-16T10:51:37.604Z</time>
      </trkpt>
      <trkpt lat="42.426570" lon="2.017430">
        <ele>1547.919</ele>
        <time>2026-07-16T10:51:57.604Z</time>
      </trkpt>
      <trkpt lat="42.426200" lon="2.016990">
        <ele>1552.609</ele>
        <time>2026-07-16T10:52:17.604Z</time>
      </trkpt>
      <trkpt lat="42.426050" lon="2.016790">
        <ele>1551.419</ele>
        <time>2026-07-16T10:52:37.604Z</time>
      </trkpt>
      <trkpt lat="42.425970" lon="2.016620">
        <ele>1551.209</ele>
        <time>2026-07-16T10:52:57.604Z</time>
      </trkpt>
      <trkpt lat="42.425930" lon="2.016410">
        <ele>1555.323</ele>
        <time>2026-07-16T10:53:17.604Z</time>
      </trkpt>
      <trkpt lat="42.425920" lon="2.015540">
        <ele>1561.597</ele>
        <time>2026-07-16T10:53:37.604Z</time>
      </trkpt>
      <trkpt lat="42.425890" lon="2.015090">
        <ele>1563.648</ele>
        <time>2026-07-16T10:53:57.604Z</time>
      </trkpt>
      <trkpt lat="42.425910" lon="2.014410">
        <ele>1561.228</ele>
        <time>2026-07-16T10:54:17.604Z</time>
      </trkpt>
      <trkpt lat="42.425860" lon="2.014220">
        <ele>1559.246</ele>
        <time>2026-07-16T10:54:37.604Z</time>
      </trkpt>
      <trkpt lat="42.425780" lon="2.014040">
        <ele>1559.726</ele>
        <time>2026-07-16T10:54:57.604Z</time>
      </trkpt>
      <trkpt lat="42.425650" lon="2.013770">
        <ele>1560.635</ele>
        <time>2026-07-16T10:55:17.604Z</time>
      </trkpt>
      <trkpt lat="42.425480" lon="2.013520">
        <ele>1560.864</ele>
        <time>2026-07-16T10:55:37.604Z</time>
      </trkpt>
      <trkpt lat="42.424940" lon="2.013030">
        <ele>1561.310</ele>
        <time>2026-07-16T10:55:57.604Z</time>
      </trkpt>
      <trkpt lat="42.424690" lon="2.012920">
        <ele>1562.858</ele>
        <time>2026-07-16T10:56:17.604Z</time>
      </trkpt>
      <trkpt lat="42.424330" lon="2.012840">
        <ele>1567.152</ele>
        <time>2026-07-16T10:56:37.604Z</time>
      </trkpt>
      <trkpt lat="42.423900" lon="2.012820">
        <ele>1567.617</ele>
        <time>2026-07-16T10:56:57.604Z</time>
      </trkpt>
      <trkpt lat="42.423440" lon="2.012840">
        <ele>1571.809</ele>
        <time>2026-07-16T10:57:17.604Z</time>
      </trkpt>
      <trkpt lat="42.423210" lon="2.012900">
        <ele>1572.587</ele>
        <time>2026-07-16T10:57:37.604Z</time>
      </trkpt>
      <trkpt lat="42.422820" lon="2.013100">
        <ele>1574.331</ele>
        <time>2026-07-16T10:57:57.604Z</time>
      </trkpt>
      <trkpt lat="42.422750" lon="2.013200">
        <ele>1575.972</ele>
        <time>2026-07-16T10:58:17.604Z</time>
      </trkpt>
      <trkpt lat="42.422740" lon="2.013310">
        <ele>1578.232</ele>
        <time>2026-07-16T10:58:37.604Z</time>
      </trkpt>
      <trkpt lat="42.422780" lon="2.013390">
        <ele>1580.060</ele>
        <time>2026-07-16T10:58:57.604Z</time>
      </trkpt>
      <trkpt lat="42.422860" lon="2.013380">
        <ele>1580.870</ele>
        <time>2026-07-16T10:59:17.604Z</time>
      </trkpt>
      <trkpt lat="42.423090" lon="2.013230">
        <ele>1579.879</ele>
        <time>2026-07-16T10:59:37.604Z</time>
      </trkpt>
      <trkpt lat="42.423320" lon="2.013110">
        <ele>1578.668</ele>
        <time>2026-07-16T10:59:57.604Z</time>
      </trkpt>
      <trkpt lat="42.423550" lon="2.013100">
        <ele>1579.234</ele>
        <time>2026-07-16T11:00:17.604Z</time>
      </trkpt>
      <trkpt lat="42.423960" lon="2.013180">
        <ele>1579.674</ele>
        <time>2026-07-16T11:00:37.604Z</time>
      </trkpt>
      <trkpt lat="42.424320" lon="2.013310">
        <ele>1581.156</ele>
        <time>2026-07-16T11:00:57.604Z</time>
      </trkpt>
      <trkpt lat="42.424530" lon="2.013470">
        <ele>1582.321</ele>
        <time>2026-07-16T11:01:17.604Z</time>
      </trkpt>
      <trkpt lat="42.424730" lon="2.013650">
        <ele>1581.109</ele>
        <time>2026-07-16T11:01:37.604Z</time>
      </trkpt>
      <trkpt lat="42.424820" lon="2.013790">
        <ele>1582.999</ele>
        <time>2026-07-16T11:01:57.604Z</time>
      </trkpt>
      <trkpt lat="42.424920" lon="2.014130">
        <ele>1588.163</ele>
        <time>2026-07-16T11:02:17.604Z</time>
      </trkpt>
      <trkpt lat="42.424970" lon="2.014490">
        <ele>1593.154</ele>
        <time>2026-07-16T11:02:37.604Z</time>
      </trkpt>
      <trkpt lat="42.424930" lon="2.014890">
        <ele>1599.044</ele>
        <time>2026-07-16T11:02:57.604Z</time>
      </trkpt>
      <trkpt lat="42.424630" lon="2.016330">
        <ele>1607.752</ele>
        <time>2026-07-16T11:03:17.604Z</time>
      </trkpt>
      <trkpt lat="42.424580" lon="2.016780">
        <ele>1608.112</ele>
        <time>2026-07-16T11:03:37.604Z</time>
      </trkpt>
      <trkpt lat="42.424550" lon="2.017160">
        <ele>1609.981</ele>
        <time>2026-07-16T11:03:57.604Z</time>
      </trkpt>
      <trkpt lat="42.424560" lon="2.017410">
        <ele>1610.310</ele>
        <time>2026-07-16T11:04:17.604Z</time>
      </trkpt>
      <trkpt lat="42.424600" lon="2.017630">
        <ele>1609.846</ele>
        <time>2026-07-16T11:04:37.604Z</time>
      </trkpt>
      <trkpt lat="42.424690" lon="2.017830">
        <ele>1609.324</ele>
        <time>2026-07-16T11:04:57.604Z</time>
      </trkpt>
      <trkpt lat="42.424980" lon="2.018110">
        <ele>1611.504</ele>
        <time>2026-07-16T11:05:17.604Z</time>
      </trkpt>
      <trkpt lat="42.425650" lon="2.018830">
        <ele>1618.514</ele>
        <time>2026-07-16T11:05:37.604Z</time>
      </trkpt>
      <trkpt lat="42.426040" lon="2.019190">
        <ele>1618.409</ele>
        <time>2026-07-16T11:05:57.604Z</time>
      </trkpt>
      <trkpt lat="42.426200" lon="2.019380">
        <ele>1619.884</ele>
        <time>2026-07-16T11:06:17.604Z</time>
      </trkpt>
      <trkpt lat="42.426530" lon="2.020050">
        <ele>1625.898</ele>
        <time>2026-07-16T11:06:37.604Z</time>
      </trkpt>
      <trkpt lat="42.426830" lon="2.020770">
        <ele>1628.589</ele>
        <time>2026-07-16T11:06:57.604Z</time>
      </trkpt>
      <trkpt lat="42.426960" lon="2.021330">
        <ele>1632.159</ele>
        <time>2026-07-16T11:07:17.604Z</time>
      </trkpt>
      <trkpt lat="42.427070" lon="2.021900">
        <ele>1637.817</ele>
        <time>2026-07-16T11:07:37.604Z</time>
      </trkpt>
      <trkpt lat="42.427120" lon="2.022340">
        <ele>1641.177</ele>
        <time>2026-07-16T11:07:57.604Z</time>
      </trkpt>
      <trkpt lat="42.427130" lon="2.022660">
        <ele>1642.296</ele>
        <time>2026-07-16T11:08:17.604Z</time>
      </trkpt>
      <trkpt lat="42.427090" lon="2.022880">
        <ele>1644.145</ele>
        <time>2026-07-16T11:08:37.604Z</time>
      </trkpt>
      <trkpt lat="42.427000" lon="2.023080">
        <ele>1646.871</ele>
        <time>2026-07-16T11:08:57.604Z</time>
      </trkpt>
      <trkpt lat="42.426840" lon="2.023280">
        <ele>1651.095</ele>
        <time>2026-07-16T11:09:17.604Z</time>
      </trkpt>
      <trkpt lat="42.425890" lon="2.023940">
        <ele>1654.249</ele>
        <time>2026-07-16T11:09:37.604Z</time>
      </trkpt>
      <trkpt lat="42.424750" lon="2.024590">
        <ele>1664.123</ele>
        <time>2026-07-16T11:09:57.604Z</time>
      </trkpt>
      <trkpt lat="42.424470" lon="2.024710">
        <ele>1668.709</ele>
        <time>2026-07-16T11:10:17.604Z</time>
      </trkpt>
      <trkpt lat="42.423810" lon="2.024910">
        <ele>1669.671</ele>
        <time>2026-07-16T11:10:37.604Z</time>
      </trkpt>
      <trkpt lat="42.422940" lon="2.025200">
        <ele>1678.345</ele>
        <time>2026-07-16T11:10:57.604Z</time>
      </trkpt>
      <trkpt lat="42.422180" lon="2.025400">
        <ele>1685.616</ele>
        <time>2026-07-16T11:11:17.604Z</time>
      </trkpt>
      <trkpt lat="42.422040" lon="2.025480">
        <ele>1686.566</ele>
        <time>2026-07-16T11:11:37.604Z</time>
      </trkpt>
      <trkpt lat="42.421970" lon="2.025610">
        <ele>1684.164</ele>
        <time>2026-07-16T11:11:57.604Z</time>
      </trkpt>
      <trkpt lat="42.421970" lon="2.025740">
        <ele>1680.994</ele>
        <time>2026-07-16T11:12:17.604Z</time>
      </trkpt>
      <trkpt lat="42.422100" lon="2.025940">
        <ele>1679.363</ele>
        <time>2026-07-16T11:12:37.604Z</time>
      </trkpt>
      <trkpt lat="42.422370" lon="2.026140">
        <ele>1680.742</ele>
        <time>2026-07-16T11:12:57.604Z</time>
      </trkpt>
      <trkpt lat="42.423220" lon="2.026650">
        <ele>1688.478</ele>
        <time>2026-07-16T11:13:17.604Z</time>
      </trkpt>
      <trkpt lat="42.423390" lon="2.026800">
        <ele>1690.861</ele>
        <time>2026-07-16T11:13:37.604Z</time>
      </trkpt>
      <trkpt lat="42.423550" lon="2.027040">
        <ele>1695.221</ele>
        <time>2026-07-16T11:13:57.604Z</time>
      </trkpt>
      <trkpt lat="42.423770" lon="2.027540">
        <ele>1700.613</ele>
        <time>2026-07-16T11:14:17.604Z</time>
      </trkpt>
      <trkpt lat="42.423850" lon="2.027700">
        <ele>1701.009</ele>
        <time>2026-07-16T11:14:37.604Z</time>
      </trkpt>
      <trkpt lat="42.423930" lon="2.027780">
        <ele>1700.018</ele>
        <time>2026-07-16T11:14:57.604Z</time>
      </trkpt>
      <trkpt lat="42.424060" lon="2.027840">
        <ele>1699.012</ele>
        <time>2026-07-16T11:15:17.604Z</time>
      </trkpt>
      <trkpt lat="42.424520" lon="2.027860">
        <ele>1703.683</ele>
        <time>2026-07-16T11:15:37.604Z</time>
      </trkpt>
      <trkpt lat="42.424690" lon="2.027930">
        <ele>1705.023</ele>
        <time>2026-07-16T11:15:57.604Z</time>
      </trkpt>
      <trkpt lat="42.425000" lon="2.028100">
        <ele>1704.111</ele>
        <time>2026-07-16T11:16:17.604Z</time>
      </trkpt>
      <trkpt lat="42.425380" lon="2.028220">
        <ele>1710.121</ele>
        <time>2026-07-16T11:16:37.604Z</time>
      </trkpt>
      <trkpt lat="42.425880" lon="2.028110">
        <ele>1710.880</ele>
        <time>2026-07-16T11:16:57.604Z</time>
      </trkpt>
      <trkpt lat="42.426010" lon="2.028130">
        <ele>1711.379</ele>
        <time>2026-07-16T11:17:17.604Z</time>
      </trkpt>
      <trkpt lat="42.426110" lon="2.028190">
        <ele>1713.345</ele>
        <time>2026-07-16T11:17:37.604Z</time>
      </trkpt>
      <trkpt lat="42.426290" lon="2.028470">
        <ele>1717.081</ele>
        <time>2026-07-16T11:17:57.604Z</time>
      </trkpt>
      <trkpt lat="42.426470" lon="2.028680">
        <ele>1717.361</ele>
        <time>2026-07-16T11:18:17.604Z</time>
      </trkpt>
      <trkpt lat="42.426670" lon="2.028870">
        <ele>1718.317</ele>
        <time>2026-07-16T11:18:37.604Z</time>
      </trkpt>
      <trkpt lat="42.427290" lon="2.029250">
        <ele>1724.309</ele>
        <time>2026-07-16T11:18:57.604Z</time>
      </trkpt>
      <trkpt lat="42.427350" lon="2.029340">
        <ele>1723.580</ele>
        <time>2026-07-16T11:19:17.604Z</time>
      </trkpt>
      <trkpt lat="42.427400" lon="2.029510">
        <ele>1723.694</ele>
        <time>2026-07-16T11:19:37.604Z</time>
      </trkpt>
      <trkpt lat="42.427420" lon="2.029590">
        <ele>1723.685</ele>
        <time>2026-07-16T11:19:57.604Z</time>
      </trkpt>
      <trkpt lat="42.427420" lon="2.030150">
        <ele>1730.325</ele>
        <time>2026-07-16T11:20:17.604Z</time>
      </trkpt>
      <trkpt lat="42.427390" lon="2.030880">
        <ele>1738.913</ele>
        <time>2026-07-16T11:20:37.604Z</time>
      </trkpt>
      <trkpt lat="42.427390" lon="2.032070">
        <ele>1749.043</ele>
        <time>2026-07-16T11:20:57.604Z</time>
      </trkpt>
      <trkpt lat="42.427360" lon="2.032420">
        <ele>1750.262</ele>
        <time>2026-07-16T11:21:17.604Z</time>
      </trkpt>
      <trkpt lat="42.427280" lon="2.032740">
        <ele>1752.681</ele>
        <time>2026-07-16T11:21:37.604Z</time>
      </trkpt>
      <trkpt lat="42.427090" lon="2.033140">
        <ele>1758.677</ele>
        <time>2026-07-16T11:21:57.604Z</time>
      </trkpt>
      <trkpt lat="42.426510" lon="2.034070">
        <ele>1769.786</ele>
        <time>2026-07-16T11:22:17.604Z</time>
      </trkpt>
      <trkpt lat="42.426300" lon="2.034350">
        <ele>1772.960</ele>
        <time>2026-07-16T11:22:37.604Z</time>
      </trkpt>
      <trkpt lat="42.425900" lon="2.034830">
        <ele>1775.626</ele>
        <time>2026-07-16T11:22:57.604Z</time>
      </trkpt>
      <trkpt lat="42.425720" lon="2.035000">
        <ele>1775.009</ele>
        <time>2026-07-16T11:23:17.604Z</time>
      </trkpt>
      <trkpt lat="42.424630" lon="2.035480">
        <ele>1788.050</ele>
        <time>2026-07-16T11:23:37.604Z</time>
      </trkpt>
      <trkpt lat="42.423910" lon="2.035860">
        <ele>1795.644</ele>
        <time>2026-07-16T11:23:57.604Z</time>
      </trkpt>
      <trkpt lat="42.422480" lon="2.036720">
        <ele>1802.995</ele>
        <time>2026-07-16T11:24:17.604Z</time>
      </trkpt>
      <trkpt lat="42.422080" lon="2.036920">
        <ele>1806.785</ele>
        <time>2026-07-16T11:24:37.604Z</time>
      </trkpt>
      <trkpt lat="42.421180" lon="2.037380">
        <ele>1810.693</ele>
        <time>2026-07-16T11:24:57.604Z</time>
      </trkpt>
      <trkpt lat="42.420310" lon="2.037790">
        <ele>1820.183</ele>
        <time>2026-07-16T11:25:17.604Z</time>
      </trkpt>
      <trkpt lat="42.419280" lon="2.038170">
        <ele>1834.972</ele>
        <time>2026-07-16T11:25:37.604Z</time>
      </trkpt>
      <trkpt lat="42.418710" lon="2.038210">
        <ele>1840.381</ele>
        <time>2026-07-16T11:25:57.604Z</time>
      </trkpt>
      <trkpt lat="42.417850" lon="2.038450">
        <ele>1847.577</ele>
        <time>2026-07-16T11:26:17.604Z</time>
      </trkpt>
      <trkpt lat="42.417160" lon="2.038550">
        <ele>1854.861</ele>
        <time>2026-07-16T11:26:37.604Z</time>
      </trkpt>
      <trkpt lat="42.416920" lon="2.038610">
        <ele>1853.821</ele>
        <time>2026-07-16T11:26:57.604Z</time>
      </trkpt>
      <trkpt lat="42.416540" lon="2.038840">
        <ele>1860.013</ele>
        <time>2026-07-16T11:27:17.604Z</time>
      </trkpt>
      <trkpt lat="42.416290" lon="2.038910">
        <ele>1863.509</ele>
        <time>2026-07-16T11:27:37.604Z</time>
      </trkpt>
      <trkpt lat="42.415830" lon="2.038870">
        <ele>1869.798</ele>
        <time>2026-07-16T11:27:57.604Z</time>
      </trkpt>
      <trkpt lat="42.415650" lon="2.038890">
        <ele>1869.662</ele>
        <time>2026-07-16T11:28:17.604Z</time>
      </trkpt>
      <trkpt lat="42.415540" lon="2.038980">
        <ele>1867.193</ele>
        <time>2026-07-16T11:28:37.604Z</time>
      </trkpt>
      <trkpt lat="42.415440" lon="2.039250">
        <ele>1862.813</ele>
        <time>2026-07-16T11:28:57.604Z</time>
      </trkpt>
      <trkpt lat="42.415410" lon="2.039870">
        <ele>1864.371</ele>
        <time>2026-07-16T11:29:17.604Z</time>
      </trkpt>
      <trkpt lat="42.415350" lon="2.040600">
        <ele>1866.221</ele>
        <time>2026-07-16T11:29:37.604Z</time>
      </trkpt>
      <trkpt lat="42.415300" lon="2.041260">
        <ele>1864.170</ele>
        <time>2026-07-16T11:29:57.604Z</time>
      </trkpt>
      <trkpt lat="42.415290" lon="2.041700">
        <ele>1861.099</ele>
        <time>2026-07-16T11:30:17.604Z</time>
      </trkpt>
      <trkpt lat="42.415240" lon="2.041890">
        <ele>1860.395</ele>
        <time>2026-07-16T11:30:37.604Z</time>
      </trkpt>
      <trkpt lat="42.414800" lon="2.042660">
        <ele>1860.383</ele>
        <time>2026-07-16T11:30:57.604Z</time>
      </trkpt>
      <trkpt lat="42.414210" lon="2.043550">
        <ele>1855.125</ele>
        <time>2026-07-16T11:31:17.604Z</time>
      </trkpt>
      <trkpt lat="42.413640" lon="2.044470">
        <ele>1850.617</ele>
        <time>2026-07-16T11:31:37.604Z</time>
      </trkpt>
      <trkpt lat="42.413570" lon="2.044680">
        <ele>1848.509</ele>
        <time>2026-07-16T11:31:57.604Z</time>
      </trkpt>
      <trkpt lat="42.413600" lon="2.044880">
        <ele>1846.590</ele>
        <time>2026-07-16T11:32:17.604Z</time>
      </trkpt>
      <trkpt lat="42.413780" lon="2.045030">
        <ele>1845.684</ele>
        <time>2026-07-16T11:32:37.604Z</time>
      </trkpt>
      <trkpt lat="42.415830" lon="2.045620">
        <ele>1823.655</ele>
        <time>2026-07-16T11:32:57.604Z</time>
      </trkpt>
      <trkpt lat="42.416230" lon="2.045770">
        <ele>1822.035</ele>
        <time>2026-07-16T11:33:17.604Z</time>
      </trkpt>
      <trkpt lat="42.417610" lon="2.046440">
        <ele>1818.853</ele>
        <time>2026-07-16T11:33:37.604Z</time>
      </trkpt>
      <trkpt lat="42.417950" lon="2.046650">
        <ele>1818.783</ele>
        <time>2026-07-16T11:33:57.604Z</time>
      </trkpt>
      <trkpt lat="42.418380" lon="2.047070">
        <ele>1818.342</ele>
        <time>2026-07-16T11:34:17.604Z</time>
      </trkpt>
      <trkpt lat="42.419100" lon="2.047880">
        <ele>1815.861</ele>
        <time>2026-07-16T11:34:37.604Z</time>
      </trkpt>
      <trkpt lat="42.419220" lon="2.048120">
        <ele>1814.587</ele>
        <time>2026-07-16T11:34:57.604Z</time>
      </trkpt>
      <trkpt lat="42.419250" lon="2.048290">
        <ele>1813.926</ele>
        <time>2026-07-16T11:35:17.604Z</time>
      </trkpt>
      <trkpt lat="42.419240" lon="2.048500">
        <ele>1812.447</ele>
        <time>2026-07-16T11:35:37.604Z</time>
      </trkpt>
      <trkpt lat="42.418520" lon="2.049670">
        <ele>1809.211</ele>
        <time>2026-07-16T11:35:57.604Z</time>
      </trkpt>
      <trkpt lat="42.417670" lon="2.050970">
        <ele>1801.709</ele>
        <time>2026-07-16T11:36:17.604Z</time>
      </trkpt>
      <trkpt lat="42.417040" lon="2.052010">
        <ele>1796.054</ele>
        <time>2026-07-16T11:36:37.604Z</time>
      </trkpt>
      <trkpt lat="42.416770" lon="2.052390">
        <ele>1793.638</ele>
        <time>2026-07-16T11:36:57.604Z</time>
      </trkpt>
      <trkpt lat="42.415930" lon="2.053290">
        <ele>1792.079</ele>
        <time>2026-07-16T11:37:17.604Z</time>
      </trkpt>
      <trkpt lat="42.415440" lon="2.053730">
        <ele>1792.139</ele>
        <time>2026-07-16T11:37:37.604Z</time>
      </trkpt>
      <trkpt lat="42.415300" lon="2.053900">
        <ele>1792.017</ele>
        <time>2026-07-16T11:37:57.604Z</time>
      </trkpt>
      <trkpt lat="42.414910" lon="2.054610">
        <ele>1788.927</ele>
        <time>2026-07-16T11:38:17.604Z</time>
      </trkpt>
      <trkpt lat="42.414690" lon="2.054870">
        <ele>1791.356</ele>
        <time>2026-07-16T11:38:37.604Z</time>
      </trkpt>
      <trkpt lat="42.413610" lon="2.055720">
        <ele>1803.925</ele>
        <time>2026-07-16T11:38:57.604Z</time>
      </trkpt>
      <trkpt lat="42.413350" lon="2.055990">
        <ele>1808.441</ele>
        <time>2026-07-16T11:39:17.604Z</time>
      </trkpt>
      <trkpt lat="42.412420" lon="2.057260">
        <ele>1816.824</ele>
        <time>2026-07-16T11:39:37.604Z</time>
      </trkpt>
      <trkpt lat="42.412030" lon="2.057710">
        <ele>1824.604</ele>
        <time>2026-07-16T11:39:57.604Z</time>
      </trkpt>
      <trkpt lat="42.411670" lon="2.058060">
        <ele>1828.814</ele>
        <time>2026-07-16T11:40:17.604Z</time>
      </trkpt>
      <trkpt lat="42.411480" lon="2.058190">
        <ele>1829.609</ele>
        <time>2026-07-16T11:40:37.604Z</time>
      </trkpt>
      <trkpt lat="42.411050" lon="2.058330">
        <ele>1830.784</ele>
        <time>2026-07-16T11:40:57.604Z</time>
      </trkpt>
      <trkpt lat="42.410820" lon="2.058360">
        <ele>1832.638</ele>
        <time>2026-07-16T11:41:17.604Z</time>
      </trkpt>
      <trkpt lat="42.410080" lon="2.058500">
        <ele>1843.489</ele>
        <time>2026-07-16T11:41:37.604Z</time>
      </trkpt>
      <trkpt lat="42.409640" lon="2.058680">
        <ele>1850.499</ele>
        <time>2026-07-16T11:41:57.604Z</time>
      </trkpt>
      <trkpt lat="42.408940" lon="2.059020">
        <ele>1861.297</ele>
        <time>2026-07-16T11:42:17.604Z</time>
      </trkpt>
      <trkpt lat="42.408740" lon="2.059070">
        <ele>1863.267</ele>
        <time>2026-07-16T11:42:37.604Z</time>
      </trkpt>
      <trkpt lat="42.408320" lon="2.059110">
        <ele>1865.696</ele>
        <time>2026-07-16T11:42:57.604Z</time>
      </trkpt>
      <trkpt lat="42.408140" lon="2.059130">
        <ele>1866.635</ele>
        <time>2026-07-16T11:43:17.604Z</time>
      </trkpt>
      <trkpt lat="42.407970" lon="2.059200">
        <ele>1867.291</ele>
        <time>2026-07-16T11:43:37.604Z</time>
      </trkpt>
      <trkpt lat="42.407870" lon="2.059340">
        <ele>1867.727</ele>
        <time>2026-07-16T11:43:57.604Z</time>
      </trkpt>
      <trkpt lat="42.407800" lon="2.059580">
        <ele>1867.768</ele>
        <time>2026-07-16T11:44:17.604Z</time>
      </trkpt>
      <trkpt lat="42.407710" lon="2.059780">
        <ele>1868.514</ele>
        <time>2026-07-16T11:44:37.604Z</time>
      </trkpt>
      <trkpt lat="42.407520" lon="2.059960">
        <ele>1871.309</ele>
        <time>2026-07-16T11:44:57.604Z</time>
      </trkpt>
      <trkpt lat="42.406970" lon="2.060290">
        <ele>1876.264</ele>
        <time>2026-07-16T11:45:17.604Z</time>
      </trkpt>
      <trkpt lat="42.406640" lon="2.060600">
        <ele>1882.168</ele>
        <time>2026-07-16T11:45:37.604Z</time>
      </trkpt>
      <trkpt lat="42.406360" lon="2.060960">
        <ele>1887.779</ele>
        <time>2026-07-16T11:45:57.604Z</time>
      </trkpt>
      <trkpt lat="42.406090" lon="2.061410">
        <ele>1890.469</ele>
        <time>2026-07-16T11:46:17.604Z</time>
      </trkpt>
      <trkpt lat="42.405930" lon="2.061720">
        <ele>1890.167</ele>
        <time>2026-07-16T11:46:37.604Z</time>
      </trkpt>
      <trkpt lat="42.405740" lon="2.061950">
        <ele>1892.977</ele>
        <time>2026-07-16T11:46:57.604Z</time>
      </trkpt>
      <trkpt lat="42.405150" lon="2.062520">
        <ele>1900.416</ele>
        <time>2026-07-16T11:47:17.604Z</time>
      </trkpt>
      <trkpt lat="42.404620" lon="2.063280">
        <ele>1900.845</ele>
        <time>2026-07-16T11:47:37.604Z</time>
      </trkpt>
      <trkpt lat="42.404460" lon="2.063560">
        <ele>1903.891</ele>
        <time>2026-07-16T11:47:57.604Z</time>
      </trkpt>
      <trkpt lat="42.404290" lon="2.064020">
        <ele>1903.577</ele>
        <time>2026-07-16T11:48:17.604Z</time>
      </trkpt>
      <trkpt lat="42.403960" lon="2.065060">
        <ele>1902.761</ele>
        <time>2026-07-16T11:48:37.604Z</time>
      </trkpt>
      <trkpt lat="42.403210" lon="2.066280">
        <ele>1907.927</ele>
        <time>2026-07-16T11:48:57.604Z</time>
      </trkpt>
      <trkpt lat="42.402960" lon="2.066770">
        <ele>1908.209</ele>
        <time>2026-07-16T11:49:17.604Z</time>
      </trkpt>
      <trkpt lat="42.402750" lon="2.067030">
        <ele>1912.319</ele>
        <time>2026-07-16T11:49:37.604Z</time>
      </trkpt>
      <trkpt lat="42.402140" lon="2.067580">
        <ele>1920.993</ele>
        <time>2026-07-16T11:49:57.604Z</time>
      </trkpt>
      <trkpt lat="42.401860" lon="2.067940">
        <ele>1922.294</ele>
        <time>2026-07-16T11:50:17.604Z</time>
      </trkpt>
      <trkpt lat="42.401640" lon="2.068270">
        <ele>1925.164</ele>
        <time>2026-07-16T11:50:37.604Z</time>
      </trkpt>
      <trkpt lat="42.401440" lon="2.068820">
        <ele>1922.122</ele>
        <time>2026-07-16T11:50:57.604Z</time>
      </trkpt>
      <trkpt lat="42.401150" lon="2.069320">
        <ele>1922.882</ele>
        <time>2026-07-16T11:51:17.604Z</time>
      </trkpt>
      <trkpt lat="42.400720" lon="2.069790">
        <ele>1925.431</ele>
        <time>2026-07-16T11:51:37.604Z</time>
      </trkpt>
      <trkpt lat="42.400440" lon="2.070060">
        <ele>1927.720</ele>
        <time>2026-07-16T11:51:57.604Z</time>
      </trkpt>
      <trkpt lat="42.399560" lon="2.071090">
        <ele>1935.496</ele>
        <time>2026-07-16T11:52:17.604Z</time>
      </trkpt>
      <trkpt lat="42.399360" lon="2.071440">
        <ele>1936.991</ele>
        <time>2026-07-16T11:52:37.604Z</time>
      </trkpt>
      <trkpt lat="42.398740" lon="2.072820">
        <ele>1946.181</ele>
        <time>2026-07-16T11:52:57.604Z</time>
      </trkpt>
      <trkpt lat="42.398560" lon="2.073140">
        <ele>1947.419</ele>
        <time>2026-07-16T11:53:17.604Z</time>
      </trkpt>
      <trkpt lat="42.398480" lon="2.073270">
        <ele>1947.809</ele>
        <time>2026-07-16T11:53:37.604Z</time>
      </trkpt>
      <trkpt lat="42.398240" lon="2.073510">
        <ele>1950.481</ele>
        <time>2026-07-16T11:53:57.604Z</time>
      </trkpt>
      <trkpt lat="42.398070" lon="2.073650">
        <ele>1952.265</ele>
        <time>2026-07-16T11:54:17.604Z</time>
      </trkpt>
      <trkpt lat="42.397280" lon="2.074130">
        <ele>1960.066</ele>
        <time>2026-07-16T11:54:37.604Z</time>
      </trkpt>
      <trkpt lat="42.397110" lon="2.074270">
        <ele>1962.886</ele>
        <time>2026-07-16T11:54:57.604Z</time>
      </trkpt>
      <trkpt lat="42.396970" lon="2.074420">
        <ele>1964.694</ele>
        <time>2026-07-16T11:55:17.604Z</time>
      </trkpt>
      <trkpt lat="42.396560" lon="2.075010">
        <ele>1967.394</ele>
        <time>2026-07-16T11:55:37.604Z</time>
      </trkpt>
      <trkpt lat="42.396270" lon="2.075290">
        <ele>1970.463</ele>
        <time>2026-07-16T11:55:57.604Z</time>
      </trkpt>
      <trkpt lat="42.395930" lon="2.075670">
        <ele>1975.272</ele>
        <time>2026-07-16T11:56:17.604Z</time>
      </trkpt>
      <trkpt lat="42.395790" lon="2.076030">
        <ele>1975.888</ele>
        <time>2026-07-16T11:56:37.604Z</time>
      </trkpt>
      <trkpt lat="42.395710" lon="2.076620">
        <ele>1977.327</ele>
        <time>2026-07-16T11:56:57.604Z</time>
      </trkpt>
      <trkpt lat="42.395560" lon="2.077360">
        <ele>1985.868</ele>
        <time>2026-07-16T11:57:17.604Z</time>
      </trkpt>
      <trkpt lat="42.395500" lon="2.077730">
        <ele>1989.314</ele>
        <time>2026-07-16T11:57:37.604Z</time>
      </trkpt>
      <trkpt lat="42.395440" lon="2.078000">
        <ele>1990.709</ele>
        <time>2026-07-16T11:57:57.604Z</time>
      </trkpt>
      <trkpt lat="42.395300" lon="2.078380">
        <ele>1992.984</ele>
        <time>2026-07-16T11:58:17.604Z</time>
      </trkpt>
      <trkpt lat="42.395220" lon="2.078540">
        <ele>1994.798</ele>
        <time>2026-07-16T11:58:37.604Z</time>
      </trkpt>
      <trkpt lat="42.394720" lon="2.079370">
        <ele>2000.469</ele>
        <time>2026-07-16T11:58:57.604Z</time>
      </trkpt>
      <trkpt lat="42.394290" lon="2.079880">
        <ele>2003.849</ele>
        <time>2026-07-16T11:59:17.604Z</time>
      </trkpt>
      <trkpt lat="42.393050" lon="2.080870">
        <ele>2017.057</ele>
        <time>2026-07-16T11:59:37.604Z</time>
      </trkpt>
      <trkpt lat="42.391610" lon="2.082260">
        <ele>2030.137</ele>
        <time>2026-07-16T11:59:57.604Z</time>
      </trkpt>
      <trkpt lat="42.391500" lon="2.082460">
        <ele>2031.556</ele>
        <time>2026-07-16T12:00:17.604Z</time>
      </trkpt>
      <trkpt lat="42.391420" lon="2.082820">
        <ele>2031.565</ele>
        <time>2026-07-16T12:00:37.604Z</time>
      </trkpt>
      <trkpt lat="42.391300" lon="2.083140">
        <ele>2032.791</ele>
        <time>2026-07-16T12:00:57.604Z</time>
      </trkpt>
      <trkpt lat="42.390790" lon="2.083990">
        <ele>2039.054</ele>
        <time>2026-07-16T12:01:17.604Z</time>
      </trkpt>
      <trkpt lat="42.390780" lon="2.083860">
        <ele>2040.956</ele>
        <time>2026-07-16T12:01:37.604Z</time>
      </trkpt>
      <trkpt lat="42.390790" lon="2.083990">
        <ele>2039.011</ele>
        <time>2026-07-16T12:01:57.604Z</time>
      </trkpt>
      <trkpt lat="42.390560" lon="2.084410">
        <ele>2042.509</ele>
        <time>2026-07-16T12:02:17.604Z</time>
      </trkpt>
      <trkpt lat="42.390250" lon="2.085030">
        <ele>2046.427</ele>
        <time>2026-07-16T12:02:37.604Z</time>
      </trkpt>
      <trkpt lat="42.389980" lon="2.085730">
        <ele>2050.981</ele>
        <time>2026-07-16T12:02:57.604Z</time>
      </trkpt>
      <trkpt lat="42.389650" lon="2.086420">
        <ele>2056.472</ele>
        <time>2026-07-16T12:03:17.604Z</time>
      </trkpt>
      <trkpt lat="42.389130" lon="2.087330">
        <ele>2062.942</ele>
        <time>2026-07-16T12:03:37.604Z</time>
      </trkpt>
      <trkpt lat="42.388440" lon="2.088300">
        <ele>2070.280</ele>
        <time>2026-07-16T12:03:57.604Z</time>
      </trkpt>
      <trkpt lat="42.388070" lon="2.088920">
        <ele>2074.260</ele>
        <time>2026-07-16T12:04:17.604Z</time>
      </trkpt>
      <trkpt lat="42.387920" lon="2.089020">
        <ele>2076.589</ele>
        <time>2026-07-16T12:04:37.604Z</time>
      </trkpt>
      <trkpt lat="42.387860" lon="2.088950">
        <ele>2078.558</ele>
        <time>2026-07-16T12:04:57.604Z</time>
      </trkpt>
      <trkpt lat="42.387890" lon="2.088800">
        <ele>2080.134</ele>
        <time>2026-07-16T12:05:17.604Z</time>
      </trkpt>
      <trkpt lat="42.388080" lon="2.088550">
        <ele>2078.556</ele>
        <time>2026-07-16T12:05:37.604Z</time>
      </trkpt>
      <trkpt lat="42.389240" lon="2.086070">
        <ele>2090.659</ele>
        <time>2026-07-16T12:05:57.604Z</time>
      </trkpt>
      <trkpt lat="42.389460" lon="2.085330">
        <ele>2095.114</ele>
        <time>2026-07-16T12:06:17.604Z</time>
      </trkpt>
      <trkpt lat="42.389640" lon="2.084480">
        <ele>2099.909</ele>
        <time>2026-07-16T12:06:37.604Z</time>
      </trkpt>
      <trkpt lat="42.389790" lon="2.083740">
        <ele>2100.157</ele>
        <time>2026-07-16T12:06:57.604Z</time>
      </trkpt>
      <trkpt lat="42.389770" lon="2.083590">
        <ele>2101.571</ele>
        <time>2026-07-16T12:07:17.604Z</time>
      </trkpt>
      <trkpt lat="42.389690" lon="2.083590">
        <ele>2105.252</ele>
        <time>2026-07-16T12:07:37.604Z</time>
      </trkpt>
      <trkpt lat="42.389620" lon="2.083730">
        <ele>2108.032</ele>
        <time>2026-07-16T12:07:57.604Z</time>
      </trkpt>
      <trkpt lat="42.389510" lon="2.084280">
        <ele>2108.550</ele>
        <time>2026-07-16T12:08:17.604Z</time>
      </trkpt>
      <trkpt lat="42.389360" lon="2.084710">
        <ele>2113.010</ele>
        <time>2026-07-16T12:08:37.604Z</time>
      </trkpt>
      <trkpt lat="42.389130" lon="2.085340">
        <ele>2115.749</ele>
        <time>2026-07-16T12:08:57.604Z</time>
      </trkpt>
      <trkpt lat="42.388880" lon="2.085780">
        <ele>2119.698</ele>
        <time>2026-07-16T12:09:17.604Z</time>
      </trkpt>
      <trkpt lat="42.388610" lon="2.086120">
        <ele>2123.884</ele>
        <time>2026-07-16T12:09:37.604Z</time>
      </trkpt>
      <trkpt lat="42.388310" lon="2.086450">
        <ele>2127.284</ele>
        <time>2026-07-16T12:09:57.604Z</time>
      </trkpt>
      <trkpt lat="42.386380" lon="2.088520">
        <ele>2152.007</ele>
        <time>2026-07-16T12:10:17.604Z</time>
      </trkpt>
      <trkpt lat="42.385820" lon="2.089150">
        <ele>2159.117</ele>
        <time>2026-07-16T12:10:37.604Z</time>
      </trkpt>
      <trkpt lat="42.385680" lon="2.089350">
        <ele>2162.009</ele>
        <time>2026-07-16T12:10:57.604Z</time>
      </trkpt>
      <trkpt lat="42.384970" lon="2.091090">
        <ele>2173.180</ele>
        <time>2026-07-16T12:11:17.604Z</time>
      </trkpt>
      <trkpt lat="42.384820" lon="2.091400">
        <ele>2174.344</ele>
        <time>2026-07-16T12:11:37.604Z</time>
      </trkpt>
      <trkpt lat="42.384740" lon="2.091770">
        <ele>2176.035</ele>
        <time>2026-07-16T12:11:57.604Z</time>
      </trkpt>
      <trkpt lat="42.384690" lon="2.092430">
        <ele>2177.735</ele>
        <time>2026-07-16T12:12:17.604Z</time>
      </trkpt>
      <trkpt lat="42.384710" lon="2.092750">
        <ele>2179.253</ele>
        <time>2026-07-16T12:12:37.604Z</time>
      </trkpt>
      <trkpt lat="42.384750" lon="2.093050">
        <ele>2180.843</ele>
        <time>2026-07-16T12:12:57.604Z</time>
      </trkpt>
      <trkpt lat="42.384810" lon="2.093290">
        <ele>2180.782</ele>
        <time>2026-07-16T12:13:17.604Z</time>
      </trkpt>
      <trkpt lat="42.384780" lon="2.093430">
        <ele>2182.821</ele>
        <time>2026-07-16T12:13:37.604Z</time>
      </trkpt>
      <trkpt lat="42.384710" lon="2.093460">
        <ele>2185.547</ele>
        <time>2026-07-16T12:13:57.604Z</time>
      </trkpt>
      <trkpt lat="42.384630" lon="2.093350">
        <ele>2188.148</ele>
        <time>2026-07-16T12:14:17.604Z</time>
      </trkpt>
      <trkpt lat="42.384530" lon="2.092920">
        <ele>2188.861</ele>
        <time>2026-07-16T12:14:37.604Z</time>
      </trkpt>
      <trkpt lat="42.384480" lon="2.092600">
        <ele>2189.217</ele>
        <time>2026-07-16T12:14:57.604Z</time>
      </trkpt>
      <trkpt lat="42.384440" lon="2.092180">
        <ele>2191.409</ele>
        <time>2026-07-16T12:15:17.604Z</time>
      </trkpt>
      <trkpt lat="42.384420" lon="2.091650">
        <ele>2194.796</ele>
        <time>2026-07-16T12:15:37.604Z</time>
      </trkpt>
      <trkpt lat="42.384440" lon="2.091410">
        <ele>2195.150</ele>
        <time>2026-07-16T12:15:57.604Z</time>
      </trkpt>
      <trkpt lat="42.384500" lon="2.091170">
        <ele>2196.821</ele>
        <time>2026-07-16T12:16:17.604Z</time>
      </trkpt>
      <trkpt lat="42.384640" lon="2.090850">
        <ele>2198.421</ele>
        <time>2026-07-16T12:16:37.604Z</time>
      </trkpt>
      <trkpt lat="42.384780" lon="2.090410">
        <ele>2200.959</ele>
        <time>2026-07-16T12:16:57.604Z</time>
      </trkpt>
      <trkpt lat="42.385060" lon="2.089360">
        <ele>2204.949</ele>
        <time>2026-07-16T12:17:17.604Z</time>
      </trkpt>
      <trkpt lat="42.385190" lon="2.088650">
        <ele>2208.938</ele>
        <time>2026-07-16T12:17:37.604Z</time>
      </trkpt>
      <trkpt lat="42.385280" lon="2.088330">
        <ele>2211.017</ele>
        <time>2026-07-16T12:17:57.604Z</time>
      </trkpt>
      <trkpt lat="42.385510" lon="2.087900">
        <ele>2213.243</ele>
        <time>2026-07-16T12:18:17.604Z</time>
      </trkpt>
      <trkpt lat="42.385610" lon="2.087420">
        <ele>2217.694</ele>
        <time>2026-07-16T12:18:37.604Z</time>
      </trkpt>
      <trkpt lat="42.385740" lon="2.086990">
        <ele>2218.857</ele>
        <time>2026-07-16T12:18:57.604Z</time>
      </trkpt>
      <trkpt lat="42.385860" lon="2.086700">
        <ele>2218.722</ele>
        <time>2026-07-16T12:19:17.604Z</time>
      </trkpt>
      <trkpt lat="42.385870" lon="2.086580">
        <ele>2219.409</ele>
        <time>2026-07-16T12:19:37.604Z</time>
      </trkpt>
      <trkpt lat="42.385830" lon="2.086510">
        <ele>2221.271</ele>
        <time>2026-07-16T12:19:57.604Z</time>
      </trkpt>
      <trkpt lat="42.385770" lon="2.086490">
        <ele>2223.425</ele>
        <time>2026-07-16T12:20:17.604Z</time>
      </trkpt>
      <trkpt lat="42.385700" lon="2.086530">
        <ele>2225.346</ele>
        <time>2026-07-16T12:20:37.604Z</time>
      </trkpt>
      <trkpt lat="42.385350" lon="2.087330">
        <ele>2225.996</ele>
        <time>2026-07-16T12:20:57.604Z</time>
      </trkpt>
      <trkpt lat="42.385100" lon="2.087850">
        <ele>2227.994</ele>
        <time>2026-07-16T12:21:17.604Z</time>
      </trkpt>
      <trkpt lat="42.384740" lon="2.088390">
        <ele>2231.614</ele>
        <time>2026-07-16T12:21:37.604Z</time>
      </trkpt>
      <trkpt lat="42.384630" lon="2.088510">
        <ele>2232.053</ele>
        <time>2026-07-16T12:21:57.604Z</time>
      </trkpt>
    </trkseg>
  </trk></gpx>