<?xml version="1.0" encoding="UTF-8"?>
<gpx creator="Wikiloc - https://www.wikiloc.com" version="1.1" xmlns="http://www.topografix.com/GPX/1/1" xmlns:xsi="http://www.w3.org/2001/XMLSchema-instance" xsi:schemaLocation="http://www.topografix.com/GPX/1/1 http://www.topografix.com/GPX/1/1/gpx.xsd">
  <metadata>
    <name>Wikiloc - Alto de El Mogote SOLOPUERTOS</name>
    <link href="https://www.wikiloc.com/gravel-bike-trails/alto-de-el-mogote-solopuertos-46082956">
      <text>Alto de El Mogote SOLOPUERTOS - Wikiloc on Wikiloc</text>
    </link>
    <time>2019-12-16T11:00:07Z</time>
  </metadata>
  <trk>
    <name>Alto de El Mogote SOLOPUERTOS - Wikiloc</name>
    <cmt></cmt>
    <desc></desc>
    <trkseg>
      <trkpt lat="36.928854" lon="-5.403520">
        <ele>395.066</ele>
        <time>2019-12-16T10:04:49Z</time>
      </trkpt>
      <trkpt lat="36.927233" lon="-5.403255">
        <ele>400.829</ele>
        <time>2019-12-16T10:05:57Z</time>
      </trkpt>
      <trkpt lat="36.926474" lon="-5.403559">
        <ele>408.521</ele>
        <time>2019-12-16T10:06:22Z</time>
      </trkpt>
      <trkpt lat="36.925919" lon="-5.403987">
        <ele>414.708</ele>
        <time>2019-12-16T10:06:47Z</time>
      </trkpt>
      <trkpt lat="36.925032" lon="-5.403987">
        <ele>423.970</ele>
        <time>2019-12-16T10:07:17Z</time>
      </trkpt>
      <trkpt lat="36.924720" lon="-5.404126">
        <ele>427.922</ele>
        <time>2019-12-16T10:07:29Z</time>
      </trkpt>
      <trkpt lat="36.924224" lon="-5.403847">
        <ele>435.436</ele>
        <time>2019-12-16T10:07:48Z</time>
      </trkpt>
      <trkpt lat="36.923521" lon="-5.403895">
        <ele>441.314</ele>
        <time>2019-12-16T10:08:11Z</time>
      </trkpt>
      <trkpt lat="36.923175" lon="-5.404138">
        <ele>445.438</ele>
        <time>2019-12-16T10:08:25Z</time>
      </trkpt>
      <trkpt lat="36.923092" lon="-5.404119">
        <ele>446.385</ele>
        <time>2019-12-16T10:08:28Z</time>
      </trkpt>
      <trkpt lat="36.923085" lon="-5.404007">
        <ele>447.321</ele>
        <time>2019-12-16T10:08:32Z</time>
      </trkpt>
      <trkpt lat="36.923594" lon="-5.403452">
        <ele>452.732</ele>
        <time>2019-12-16T10:08:51Z</time>
      </trkpt>
      <trkpt lat="36.923845" lon="-5.403023">
        <ele>457.289</ele>
        <time>2019-12-16T10:09:05Z</time>
      </trkpt>
      <trkpt lat="36.924002" lon="-5.402181">
        <ele>464.106</ele>
        <time>2019-12-16T10:09:27Z</time>
      </trkpt>
      <trkpt lat="36.923796" lon="-5.401176">
        <ele>472.226</ele>
        <time>2019-12-16T10:09:52Z</time>
      </trkpt>
      <trkpt lat="36.923542" lon="-5.400849">
        <ele>476.708</ele>
        <time>2019-12-16T10:10:06Z</time>
      </trkpt>
      <trkpt lat="36.923199" lon="-5.400194">
        <ele>481.752</ele>
        <time>2019-12-16T10:10:27Z</time>
      </trkpt>
      <trkpt lat="36.923413" lon="-5.399620">
        <ele>484.894</ele>
        <time>2019-12-16T10:10:43Z</time>
      </trkpt>
      <trkpt lat="36.923820" lon="-5.399216">
        <ele>489.498</ele>
        <time>2019-12-16T10:10:59Z</time>
      </trkpt>
      <trkpt lat="36.923853" lon="-5.398883">
        <ele>492.376</ele>
        <time>2019-12-16T10:11:07Z</time>
      </trkpt>
      <trkpt lat="36.923637" lon="-5.398635">
        <ele>494.650</ele>
        <time>2019-12-16T10:11:17Z</time>
      </trkpt>
      <trkpt lat="36.923293" lon="-5.398665">
        <ele>498.657</ele>
        <time>2019-12-16T10:11:27Z</time>
      </trkpt>
      <trkpt lat="36.922533" lon="-5.399096">
        <ele>506.623</ele>
        <time>2019-12-16T10:11:53Z</time>
      </trkpt>
      <trkpt lat="36.922116" lon="-5.400195">
        <ele>513.514</ele>
        <time>2019-12-16T10:12:20Z</time>
      </trkpt>
      <trkpt lat="36.921668" lon="-5.400857">
        <ele>519.668</ele>
        <time>2019-12-16T10:12:42Z</time>
      </trkpt>
      <trkpt lat="36.921195" lon="-5.401062">
        <ele>522.642</ele>
        <time>2019-12-16T10:12:56Z</time>
      </trkpt>
      <trkpt lat="36.920716" lon="-5.401165">
        <ele>525.426</ele>
        <time>2019-12-16T10:13:08Z</time>
      </trkpt>
      <trkpt lat="36.919890" lon="-5.401038">
        <ele>529.108</ele>
        <time>2019-12-16T10:13:22Z</time>
      </trkpt>
      <trkpt lat="36.919623" lon="-5.401093">
        <ele>529.980</ele>
        <time>2019-12-16T10:13:27Z</time>
      </trkpt>
      <trkpt lat="36.919456" lon="-5.401255">
        <ele>530.412</ele>
        <time>2019-12-16T10:13:31Z</time>
      </trkpt>
      <trkpt lat="36.918993" lon="-5.402355">
        <ele>532.546</ele>
        <time>2019-12-16T10:13:53Z</time>
      </trkpt>
      <trkpt lat="36.918763" lon="-5.402536">
        <ele>533.414</ele>
        <time>2019-12-16T10:14:00Z</time>
      </trkpt>
      <trkpt lat="36.918268" lon="-5.402788">
        <ele>537.328</ele>
        <time>2019-12-16T10:14:20Z</time>
      </trkpt>
      <trkpt lat="36.918104" lon="-5.402741">
        <ele>539.945</ele>
        <time>2019-12-16T10:14:24Z</time>
      </trkpt>
      <trkpt lat="36.917960" lon="-5.402789">
        <ele>542.741</ele>
        <time>2019-12-16T10:14:33Z</time>
      </trkpt>
      <trkpt lat="36.917202" lon="-5.402418">
        <ele>562.822</ele>
        <time>2019-12-16T10:15:14Z</time>
      </trkpt>
      <trkpt lat="36.916763" lon="-5.402333">
        <ele>574.021</ele>
        <time>2019-12-16T10:15:34Z</time>
      </trkpt>
      <trkpt lat="36.917077" lon="-5.403105">
        <ele>583.141</ele>
        <time>2019-12-16T10:15:58Z</time>
      </trkpt>
      <trkpt lat="36.917092" lon="-5.403413">
        <ele>585.005</ele>
        <time>2019-12-16T10:16:06Z</time>
      </trkpt>
      <trkpt lat="36.916997" lon="-5.403661">
        <ele>586.508</ele>
        <time>2019-12-16T10:16:13Z</time>
      </trkpt>
      <trkpt lat="36.916768" lon="-5.403866">
        <ele>588.096</ele>
        <time>2019-12-16T10:16:22Z</time>
      </trkpt>
      <trkpt lat="36.916166" lon="-5.404169">
        <ele>589.998</ele>
        <time>2019-12-16T10:16:47Z</time>
      </trkpt>
      <trkpt lat="36.915868" lon="-5.404166">
        <ele>590.882</ele>
        <time>2019-12-16T10:17:00Z</time>
      </trkpt>
      <trkpt lat="36.915612" lon="-5.404293">
        <ele>591.220</ele>
        <time>2019-12-16T10:17:11Z</time>
      </trkpt>
      <trkpt lat="36.914719" lon="-5.405229">
        <ele>590.734</ele>
        <time>2019-12-16T10:17:42Z</time>
      </trkpt>
      <trkpt lat="36.914251" lon="-5.405485">
        <ele>592.651</ele>
        <time>2019-12-16T10:17:53Z</time>
      </trkpt>
      <trkpt lat="36.913818" lon="-5.405892">
        <ele>594.977</ele>
        <time>2019-12-16T10:18:04Z</time>
      </trkpt>
      <trkpt lat="36.913349" lon="-5.406086">
        <ele>597.238</ele>
        <time>2019-12-16T10:18:20Z</time>
      </trkpt>
      <trkpt lat="36.913229" lon="-5.406346">
        <ele>598.232</ele>
        <time>2019-12-16T10:18:27Z</time>
      </trkpt>
      <trkpt lat="36.913230" lon="-5.406902">
        <ele>597.192</ele>
        <time>2019-12-16T10:18:41Z</time>
      </trkpt>
      <trkpt lat="36.913046" lon="-5.407202">
        <ele>597.411</ele>
        <time>2019-12-16T10:18:48Z</time>
      </trkpt>
      <trkpt lat="36.912843" lon="-5.407353">
        <ele>599.208</ele>
        <time>2019-12-16T10:18:52Z</time>
      </trkpt>
      <trkpt lat="36.912806" lon="-5.407588">
        <ele>601.047</ele>
        <time>2019-12-16T10:18:58Z</time>
      </trkpt>
      <trkpt lat="36.912413" lon="-5.407736">
        <ele>607.729</ele>
        <time>2019-12-16T10:19:15Z</time>
      </trkpt>
      <trkpt lat="36.912299" lon="-5.407646">
        <ele>610.023</ele>
        <time>2019-12-16T10:19:20Z</time>
      </trkpt>
      <trkpt lat="36.912067" lon="-5.407121">
        <ele>614.061</ele>
        <time>2019-12-16T10:19:41Z</time>
      </trkpt>
      <trkpt lat="36.912109" lon="-5.406595">
        <ele>615.195</ele>
        <time>2019-12-16T10:19:55Z</time>
      </trkpt>
      <trkpt lat="36.912389" lon="-5.406156">
        <ele>616.622</ele>
        <time>2019-12-16T10:20:09Z</time>
      </trkpt>
      <trkpt lat="36.912725" lon="-5.405994">
        <ele>618.348</ele>
        <time>2019-12-16T10:20:20Z</time>
      </trkpt>
      <trkpt lat="36.912663" lon="-5.405850">
        <ele>619.029</ele>
        <time>2019-12-16T10:20:24Z</time>
      </trkpt>
      <trkpt lat="36.912317" lon="-5.406046">
        <ele>621.062</ele>
        <time>2019-12-16T10:20:34Z</time>
      </trkpt>
      <trkpt lat="36.911643" lon="-5.406789">
        <ele>627.683</ele>
        <time>2019-12-16T10:21:02Z</time>
      </trkpt>
      <trkpt lat="36.911229" lon="-5.407113">
        <ele>632.411</ele>
        <time>2019-12-16T10:21:18Z</time>
      </trkpt>
      <trkpt lat="36.910702" lon="-5.407226">
        <ele>637.908</ele>
        <time>2019-12-16T10:21:35Z</time>
      </trkpt>
      <trkpt lat="36.910040" lon="-5.407949">
        <ele>646.830</ele>
        <time>2019-12-16T10:22:02Z</time>
      </trkpt>
      <trkpt lat="36.909843" lon="-5.408398">
        <ele>650.612</ele>
        <time>2019-12-16T10:22:14Z</time>
      </trkpt>
      <trkpt lat="36.909732" lon="-5.409083">
        <ele>655.586</ele>
        <time>2019-12-16T10:22:31Z</time>
      </trkpt>
      <trkpt lat="36.909218" lon="-5.409740">
        <ele>662.164</ele>
        <time>2019-12-16T10:22:55Z</time>
      </trkpt>
      <trkpt lat="36.908824" lon="-5.410554">
        <ele>669.918</ele>
        <time>2019-12-16T10:23:22Z</time>
      </trkpt>
      <trkpt lat="36.908735" lon="-5.410574">
        <ele>670.945</ele>
        <time>2019-12-16T10:23:26Z</time>
      </trkpt>
      <trkpt lat="36.908691" lon="-5.410495">
        <ele>671.681</ele>
        <time>2019-12-16T10:23:29Z</time>
      </trkpt>
      <trkpt lat="36.908588" lon="-5.409689">
        <ele>679.412</ele>
        <time>2019-12-16T10:23:54Z</time>
      </trkpt>
      <trkpt lat="36.908661" lon="-5.409483">
        <ele>681.796</ele>
        <time>2019-12-16T10:24:00Z</time>
      </trkpt>
      <trkpt lat="36.908953" lon="-5.409253">
        <ele>685.831</ele>
        <time>2019-12-16T10:24:11Z</time>
      </trkpt>
      <trkpt lat="36.909074" lon="-5.409015">
        <ele>688.324</ele>
        <time>2019-12-16T10:24:19Z</time>
      </trkpt>
      <trkpt lat="36.908995" lon="-5.408379">
        <ele>693.408</ele>
        <time>2019-12-16T10:24:37Z</time>
      </trkpt>
      <trkpt lat="36.908868" lon="-5.408243">
        <ele>695.543</ele>
        <time>2019-12-16T10:24:43Z</time>
      </trkpt>
      <trkpt lat="36.908753" lon="-5.408319">
        <ele>696.825</ele>
        <time>2019-12-16T10:24:47Z</time>
      </trkpt>
      <trkpt lat="36.908634" lon="-5.408630">
        <ele>699.799</ele>
        <time>2019-12-16T10:24:56Z</time>
      </trkpt>
      <trkpt lat="36.908507" lon="-5.408747">
        <ele>701.457</ele>
        <time>2019-12-16T10:25:02Z</time>
      </trkpt>
      <trkpt lat="36.908175" lon="-5.408760">
        <ele>705.061</ele>
        <time>2019-12-16T10:25:15Z</time>
      </trkpt>
      <trkpt lat="36.908069" lon="-5.408858">
        <ele>706.618</ele>
        <time>2019-12-16T10:25:20Z</time>
      </trkpt>
      <trkpt lat="36.907775" lon="-5.409393">
        <ele>713.074</ele>
        <time>2019-12-16T10:25:39Z</time>
      </trkpt>
      <trkpt lat="36.907450" lon="-5.410270">
        <ele>722.465</ele>
        <time>2019-12-16T10:26:07Z</time>
      </trkpt>
      <trkpt lat="36.906721" lon="-5.410591">
        <ele>731.349</ele>
        <time>2019-12-16T10:26:40Z</time>
      </trkpt>
      <trkpt lat="36.906391" lon="-5.410840">
        <ele>735.902</ele>
        <time>2019-12-16T10:26:58Z</time>
      </trkpt>
      <trkpt lat="36.905829" lon="-5.410994">
        <ele>743.622</ele>
        <time>2019-12-16T10:27:23Z</time>
      </trkpt>
      <trkpt lat="36.905487" lon="-5.411008">
        <ele>748.708</ele>
        <time>2019-12-16T10:27:35Z</time>
      </trkpt>
      <trkpt lat="36.905251" lon="-5.411139">
        <ele>751.168</ele>
        <time>2019-12-16T10:27:45Z</time>
      </trkpt>
      <trkpt lat="36.905245" lon="-5.411317">
        <ele>751.440</ele>
        <time>2019-12-16T10:27:51Z</time>
      </trkpt>
      <trkpt lat="36.905371" lon="-5.411443">
        <ele>751.594</ele>
        <time>2019-12-16T10:27:56Z</time>
      </trkpt>
      <trkpt lat="36.905805" lon="-5.411611">
        <ele>751.462</ele>
        <time>2019-12-16T10:28:13Z</time>
      </trkpt>
      <trkpt lat="36.905805" lon="-5.411513">
        <ele>751.326</ele>
        <time>2019-12-16T10:28:42Z</time>
      </trkpt>
      <trkpt lat="36.905878" lon="-5.411636">
        <ele>751.293</ele>
        <time>2019-12-16T10:29:49Z</time>
      </trkpt>
      <trkpt lat="36.905879" lon="-5.411787">
        <ele>751.389</ele>
        <time>2019-12-16T10:29:53Z</time>
      </trkpt>
      <trkpt lat="36.905719" lon="-5.411935">
        <ele>751.770</ele>
        <time>2019-12-16T10:29:59Z</time>
      </trkpt>
      <trkpt lat="36.905442" lon="-5.412039">
        <ele>752.919</ele>
        <time>2019-12-16T10:30:09Z</time>
      </trkpt>
      <trkpt lat="36.904741" lon="-5.411560">
        <ele>758.309</ele>
        <time>2019-12-16T10:30:37Z</time>
      </trkpt>
      <trkpt lat="36.904379" lon="-5.411139">
        <ele>761.319</ele>
        <time>2019-12-16T10:30:54Z</time>
      </trkpt>
      <trkpt lat="36.904346" lon="-5.410795">
        <ele>763.408</ele>
        <time>2019-12-16T10:31:06Z</time>
      </trkpt>
      <trkpt lat="36.904430" lon="-5.410522">
        <ele>765.615</ele>
        <time>2019-12-16T10:31:15Z</time>
      </trkpt>
      <trkpt lat="36.904578" lon="-5.410373">
        <ele>767.247</ele>
        <time>2019-12-16T10:31:21Z</time>
      </trkpt>
      <trkpt lat="36.905075" lon="-5.410167">
        <ele>771.741</ele>
        <time>2019-12-16T10:31:39Z</time>
      </trkpt>
      <trkpt lat="36.905392" lon="-5.409795">
        <ele>775.139</ele>
        <time>2019-12-16T10:31:53Z</time>
      </trkpt>
      <trkpt lat="36.905898" lon="-5.408829">
        <ele>785.153</ele>
        <time>2019-12-16T10:32:32Z</time>
      </trkpt>
      <trkpt lat="36.905947" lon="-5.408322">
        <ele>791.280</ele>
        <time>2019-12-16T10:32:50Z</time>
      </trkpt>
      <trkpt lat="36.906101" lon="-5.408048">
        <ele>796.626</ele>
        <time>2019-12-16T10:33:02Z</time>
      </trkpt>
      <trkpt lat="36.906057" lon="-5.407962">
        <ele>799.117</ele>
        <time>2019-12-16T10:33:09Z</time>
      </trkpt>
      <trkpt lat="36.905595" lon="-5.408753">
        <ele>805.313</ele>
        <time>2019-12-16T10:33:38Z</time>
      </trkpt>
      <trkpt lat="36.904978" lon="-5.408957">
        <ele>811.743</ele>
        <time>2019-12-16T10:34:02Z</time>
      </trkpt>
      <trkpt lat="36.904448" lon="-5.408915">
        <ele>815.307</ele>
        <time>2019-12-16T10:34:20Z</time>
      </trkpt>
      <trkpt lat="36.904078" lon="-5.409172">
        <ele>817.608</ele>
        <time>2019-12-16T10:34:34Z</time>
      </trkpt>
      <trkpt lat="36.903742" lon="-5.410109">
        <ele>821.545</ele>
        <time>2019-12-16T10:34:56Z</time>
      </trkpt>
      <trkpt lat="36.903396" lon="-5.410697">
        <ele>823.817</ele>
        <time>2019-12-16T10:35:11Z</time>
      </trkpt>
      <trkpt lat="36.903073" lon="-5.411505">
        <ele>826.441</ele>
        <time>2019-12-16T10:35:30Z</time>
      </trkpt>
      <trkpt lat="36.902975" lon="-5.412092">
        <ele>828.999</ele>
        <time>2019-12-16T10:35:45Z</time>
      </trkpt>
      <trkpt lat="36.902805" lon="-5.412332">
        <ele>830.243</ele>
        <time>2019-12-16T10:35:54Z</time>
      </trkpt>
      <trkpt lat="36.902024" lon="-5.412824">
        <ele>834.010</ele>
        <time>2019-12-16T10:36:20Z</time>
      </trkpt>
      <trkpt lat="36.900870" lon="-5.413249">
        <ele>839.236</ele>
        <time>2019-12-16T10:36:56Z</time>
      </trkpt>
      <trkpt lat="36.899811" lon="-5.413840">
        <ele>843.537</ele>
        <time>2019-12-16T10:37:28Z</time>
      </trkpt>
      <trkpt lat="36.899418" lon="-5.414136">
        <ele>846.655</ele>
        <time>2019-12-16T10:37:44Z</time>
      </trkpt>
      <trkpt lat="36.899572" lon="-5.413888">
        <ele>849.207</ele>
        <time>2019-12-16T10:37:51Z</time>
      </trkpt>
      <trkpt lat="36.900312" lon="-5.413433">
        <ele>849.717</ele>
        <time>2019-12-16T10:38:06Z</time>
      </trkpt>
      <trkpt lat="36.900861" lon="-5.412851">
        <ele>851.608</ele>
        <time>2019-12-16T10:38:20Z</time>
      </trkpt>
      <trkpt lat="36.901556" lon="-5.412486">
        <ele>856.869</ele>
        <time>2019-12-16T10:38:38Z</time>
      </trkpt>
      <trkpt lat="36.902382" lon="-5.411917">
        <ele>860.711</ele>
        <time>2019-12-16T10:38:59Z</time>
      </trkpt>
      <trkpt lat="36.902479" lon="-5.411665">
        <ele>861.615</ele>
        <time>2019-12-16T10:39:04Z</time>
      </trkpt>
      <trkpt lat="36.902489" lon="-5.411008">
        <ele>864.853</ele>
        <time>2019-12-16T10:39:16Z</time>
      </trkpt>
      <trkpt lat="36.902848" lon="-5.409850">
        <ele>869.057</ele>
        <time>2019-12-16T10:39:39Z</time>
      </trkpt>
      <trkpt lat="36.902822" lon="-5.408618">
        <ele>877.464</ele>
        <time>2019-12-16T10:40:08Z</time>
      </trkpt>
      <trkpt lat="36.903375" lon="-5.407414">
        <ele>882.710</ele>
        <time>2019-12-16T10:40:40Z</time>
      </trkpt>
      <trkpt lat="36.903488" lon="-5.406879">
        <ele>888.451</ele>
        <time>2019-12-16T10:41:30Z</time>
      </trkpt>
      <trkpt lat="36.903838" lon="-5.406021">
        <ele>892.841</ele>
        <time>2019-12-16T10:42:02Z</time>
      </trkpt>
      <trkpt lat="36.904284" lon="-5.405424">
        <ele>906.081</ele>
        <time>2019-12-16T10:42:27Z</time>
      </trkpt>
      <trkpt lat="36.905268" lon="-5.404514">
        <ele>930.909</ele>
        <time>2019-12-16T10:43:26Z</time>
      </trkpt>
      <trkpt lat="36.905466" lon="-5.404197">
        <ele>938.708</ele>
        <time>2019-12-16T10:43:42Z</time>
      </trkpt>
      <trkpt lat="36.905719" lon="-5.403960">
        <ele>943.938</ele>
        <time>2019-12-16T10:43:56Z</time>
      </trkpt>
      <trkpt lat="36.906079" lon="-5.403356">
        <ele>949.110</ele>
        <time>2019-12-16T10:44:21Z</time>
      </trkpt>
      <trkpt lat="36.906067" lon="-5.402802">
        <ele>951.614</ele>
        <time>2019-12-16T10:44:34Z</time>
      </trkpt>
      <trkpt lat="36.906224" lon="-5.402008">
        <ele>955.022</ele>
        <time>2019-12-16T10:44:52Z</time>
      </trkpt>
      <trkpt lat="36.906207" lon="-5.401264">
        <ele>958.016</ele>
        <time>2019-12-16T10:45:08Z</time>
      </trkpt>
      <trkpt lat="36.906362" lon="-5.400489">
        <ele>961.343</ele>
        <time>2019-12-16T10:45:26Z</time>
      </trkpt>
      <trkpt lat="36.906114" lon="-5.400345">
        <ele>961.159</ele>
        <time>2019-12-16T10:45:33Z</time>
      </trkpt>
      <trkpt lat="36.905137" lon="-5.400264">
        <ele>960.830</ele>
        <time>2019-12-16T10:45:58Z</time>
      </trkpt>
      <trkpt lat="36.904293" lon="-5.400049">
        <ele>962.796</ele>
        <time>2019-12-16T10:46:23Z</time>
      </trkpt>
      <trkpt lat="36.904136" lon="-5.399967">
        <ele>963.031</ele>
        <time>2019-12-16T10:46:28Z</time>
      </trkpt>
      <trkpt lat="36.904121" lon="-5.399857">
        <ele>964.724</ele>
        <time>2019-12-16T10:46:31Z</time>
      </trkpt>
      <trkpt lat="36.904270" lon="-5.399748">
        <ele>967.208</ele>
        <time>2019-12-16T10:46:36Z</time>
      </trkpt>
      <trkpt lat="36.905623" lon="-5.399306">
        <ele>976.143</ele>
        <time>2019-12-16T10:47:10Z</time>
      </trkpt>
      <trkpt lat="36.906632" lon="-5.398627">
        <ele>982.055</ele>
        <time>2019-12-16T10:47:37Z</time>
      </trkpt>
      <trkpt lat="36.907351" lon="-5.398314">
        <ele>986.399</ele>
        <time>2019-12-16T10:47:55Z</time>
      </trkpt>
      <trkpt lat="36.907820" lon="-5.397670">
        <ele>990.227</ele>
        <time>2019-12-16T10:48:11Z</time>
      </trkpt>
      <trkpt lat="36.908203" lon="-5.396916">
        <ele>993.641</ele>
        <time>2019-12-16T10:48:28Z</time>
      </trkpt>
      <trkpt lat="36.908222" lon="-5.396708">
        <ele>994.738</ele>
        <time>2019-12-16T10:48:32Z</time>
      </trkpt>
      <trkpt lat="36.908040" lon="-5.396166">
        <ele>997.514</ele>
        <time>2019-12-16T10:48:43Z</time>
      </trkpt>
      <trkpt lat="36.907161" lon="-5.395265">
        <ele>1003.115</ele>
        <time>2019-12-16T10:49:10Z</time>
      </trkpt>
      <trkpt lat="36.906446" lon="-5.394044">
        <ele>1008.471</ele>
        <time>2019-12-16T10:49:42Z</time>
      </trkpt>
      <trkpt lat="36.905788" lon="-5.393543">
        <ele>1011.741</ele>
        <time>2019-12-16T10:50:02Z</time>
      </trkpt>
      <trkpt lat="36.905400" lon="-5.393029">
        <ele>1015.515</ele>
        <time>2019-12-16T10:50:16Z</time>
      </trkpt>
      <trkpt lat="36.905257" lon="-5.392716">
        <ele>1016.908</ele>
        <time>2019-12-16T10:50:23Z</time>
      </trkpt>
      <trkpt lat="36.905163" lon="-5.392186">
        <ele>1018.941</ele>
        <time>2019-12-16T10:50:33Z</time>
      </trkpt>
      <trkpt lat="36.905187" lon="-5.390819">
        <ele>1023.013</ele>
        <time>2019-12-16T10:51:01Z</time>
      </trkpt>
      <trkpt lat="36.905034" lon="-5.390650">
        <ele>1024.037</ele>
        <time>2019-12-16T10:51:06Z</time>
      </trkpt>
      <trkpt lat="36.904699" lon="-5.390636">
        <ele>1025.615</ele>
        <time>2019-12-16T10:51:14Z</time>
      </trkpt>
      <trkpt lat="36.903811" lon="-5.390991">
        <ele>1029.499</ele>
        <time>2019-12-16T10:51:37Z</time>
      </trkpt>
      <trkpt lat="36.903186" lon="-5.391315">
        <ele>1031.796</ele>
        <time>2019-12-16T10:51:53Z</time>
      </trkpt>
      <trkpt lat="36.902559" lon="-5.391784">
        <ele>1034.872</ele>
        <time>2019-12-16T10:52:11Z</time>
      </trkpt>
      <trkpt lat="36.902134" lon="-5.391805">
        <ele>1036.063</ele>
        <time>2019-12-16T10:52:22Z</time>
      </trkpt>
      <trkpt lat="36.901813" lon="-5.391912">
        <ele>1037.398</ele>
        <time>2019-12-16T10:52:30Z</time>
      </trkpt>
      <trkpt lat="36.901461" lon="-5.392292">
        <ele>1039.415</ele>
        <time>2019-12-16T10:52:41Z</time>
      </trkpt>
      <trkpt lat="36.901120" lon="-5.392922">
        <ele>1041.726</ele>
        <time>2019-12-16T10:52:56Z</time>
      </trkpt>
      <trkpt lat="36.900556" lon="-5.393066">
        <ele>1042.208</ele>
        <time>2019-12-16T10:53:11Z</time>
      </trkpt>
      <trkpt lat="36.900193" lon="-5.393401">
        <ele>1039.633</ele>
        <time>2019-12-16T10:53:24Z</time>
      </trkpt>
      <trkpt lat="36.899199" lon="-5.393318">
        <ele>1031.175</ele>
        <time>2019-12-16T10:53:45Z</time>
      </trkpt>
      <trkpt lat="36.898915" lon="-5.393215">
        <ele>1030.219</ele>
        <time>2019-12-16T10:53:50Z</time>
      </trkpt>
      <trkpt lat="36.898311" lon="-5.393266">
        <ele>1028.277</ele>
        <time>2019-12-16T10:54:11Z</time>
      </trkpt>
      <trkpt lat="36.898342" lon="-5.393330">
        <ele>1028.041</ele>
        <time>2019-12-16T10:54:46Z</time>
      </trkpt>
      <trkpt lat="36.898234" lon="-5.393412">
        <ele>1027.538</ele>
        <time>2019-12-16T10:55:23Z</time>
      </trkpt>
      <trkpt lat="36.898243" lon="-5.393331">
        <ele>1026.364</ele>
        <time>2019-12-16T11:00:07Z</time>
      </trkpt>
    </trkseg>
  </trk></gpx>