<?xml version="1.0" encoding="UTF-8"?>
<gpx creator="Wikiloc - https://www.wikiloc.com" version="1.1" xmlns="http://www.topografix.com/GPX/1/1" xmlns:xsi="http://www.w3.org/2001/XMLSchema-instance" xsi:schemaLocation="http://www.topografix.com/GPX/1/1 http://www.topografix.com/GPX/1/1/gpx.xsd">
  <metadata>
    <name>Wikiloc - ALTO DEL SANTUARIO DEL ACEBO (por Cangas de Narcea) - Wikilo...</name>
    <link href="https://www.wikiloc.com/cycling-trails/alto-del-santuario-del-acebo-por-cangas-de-narcea-272842980">
      <text>ALTO DEL SANTUARIO DEL ACEBO (por Cangas de Narcea) - Wikilo... on Wikiloc</text>
    </link>
    <time>2026-07-16T11:02:01.315Z</time>
  </metadata>
  <trk>
    <name>ALTO DEL SANTUARIO DEL ACEBO (por Cangas de Narcea) - Wikilo... - Wikiloc</name>
    <cmt></cmt>
    <desc></desc>
    <trkseg>
      <trkpt lat="43.180100" lon="-6.550580">
        <ele>383.018</ele>
        <time>2026-07-16T11:02:01.313Z</time>
      </trkpt>
      <trkpt lat="43.180080" lon="-6.550610">
        <ele>383.098</ele>
        <time>2026-07-16T11:02:21.313Z</time>
      </trkpt>
      <trkpt lat="43.180030" lon="-6.550650">
        <ele>383.517</ele>
        <time>2026-07-16T11:02:41.313Z</time>
      </trkpt>
      <trkpt lat="43.179780" lon="-6.550860">
        <ele>384.809</ele>
        <time>2026-07-16T11:03:01.313Z</time>
      </trkpt>
      <trkpt lat="43.179720" lon="-6.550860">
        <ele>385.713</ele>
        <time>2026-07-16T11:03:21.313Z</time>
      </trkpt>
      <trkpt lat="43.179590" lon="-6.550740">
        <ele>388.138</ele>
        <time>2026-07-16T11:03:41.313Z</time>
      </trkpt>
      <trkpt lat="43.179510" lon="-6.550730">
        <ele>388.733</ele>
        <time>2026-07-16T11:04:01.313Z</time>
      </trkpt>
      <trkpt lat="43.179120" lon="-6.550800">
        <ele>388.689</ele>
        <time>2026-07-16T11:04:21.313Z</time>
      </trkpt>
      <trkpt lat="43.178970" lon="-6.550790">
        <ele>389.355</ele>
        <time>2026-07-16T11:04:41.313Z</time>
      </trkpt>
      <trkpt lat="43.178740" lon="-6.550670">
        <ele>393.283</ele>
        <time>2026-07-16T11:05:01.313Z</time>
      </trkpt>
      <trkpt lat="43.177660" lon="-6.549830">
        <ele>391.930</ele>
        <time>2026-07-16T11:05:21.313Z</time>
      </trkpt>
      <trkpt lat="43.177310" lon="-6.549450">
        <ele>395.659</ele>
        <time>2026-07-16T11:05:41.313Z</time>
      </trkpt>
      <trkpt lat="43.176960" lon="-6.549050">
        <ele>395.611</ele>
        <time>2026-07-16T11:06:01.313Z</time>
      </trkpt>
      <trkpt lat="43.177310" lon="-6.548350">
        <ele>404.595</ele>
        <time>2026-07-16T11:06:21.313Z</time>
      </trkpt>
      <trkpt lat="43.178520" lon="-6.549520">
        <ele>412.649</ele>
        <time>2026-07-16T11:06:41.313Z</time>
      </trkpt>
      <trkpt lat="43.178890" lon="-6.549850">
        <ele>415.323</ele>
        <time>2026-07-16T11:07:01.313Z</time>
      </trkpt>
      <trkpt lat="43.178980" lon="-6.549860">
        <ele>413.709</ele>
        <time>2026-07-16T11:07:21.313Z</time>
      </trkpt>
      <trkpt lat="43.179030" lon="-6.549820">
        <ele>414.251</ele>
        <time>2026-07-16T11:07:41.313Z</time>
      </trkpt>
      <trkpt lat="43.179340" lon="-6.549450">
        <ele>414.556</ele>
        <time>2026-07-16T11:08:01.313Z</time>
      </trkpt>
      <trkpt lat="43.179360" lon="-6.549400">
        <ele>414.491</ele>
        <time>2026-07-16T11:08:21.313Z</time>
      </trkpt>
      <trkpt lat="43.179360" lon="-6.549300">
        <ele>415.137</ele>
        <time>2026-07-16T11:08:41.313Z</time>
      </trkpt>
      <trkpt lat="43.179300" lon="-6.549120">
        <ele>418.233</ele>
        <time>2026-07-16T11:09:01.313Z</time>
      </trkpt>
      <trkpt lat="43.178900" lon="-6.548430">
        <ele>430.481</ele>
        <time>2026-07-16T11:09:21.313Z</time>
      </trkpt>
      <trkpt lat="43.178790" lon="-6.548080">
        <ele>434.128</ele>
        <time>2026-07-16T11:09:41.313Z</time>
      </trkpt>
      <trkpt lat="43.178780" lon="-6.547940">
        <ele>435.017</ele>
        <time>2026-07-16T11:10:01.313Z</time>
      </trkpt>
      <trkpt lat="43.178800" lon="-6.547800">
        <ele>435.569</ele>
        <time>2026-07-16T11:10:21.313Z</time>
      </trkpt>
      <trkpt lat="43.178840" lon="-6.547700">
        <ele>436.264</ele>
        <time>2026-07-16T11:10:41.313Z</time>
      </trkpt>
      <trkpt lat="43.178790" lon="-6.547710">
        <ele>436.506</ele>
        <time>2026-07-16T11:11:01.313Z</time>
      </trkpt>
      <trkpt lat="43.178600" lon="-6.547870">
        <ele>436.316</ele>
        <time>2026-07-16T11:11:21.313Z</time>
      </trkpt>
      <trkpt lat="43.178520" lon="-6.547870">
        <ele>436.409</ele>
        <time>2026-07-16T11:11:41.313Z</time>
      </trkpt>
      <trkpt lat="43.178450" lon="-6.547800">
        <ele>437.338</ele>
        <time>2026-07-16T11:12:01.313Z</time>
      </trkpt>
      <trkpt lat="43.178360" lon="-6.547630">
        <ele>440.013</ele>
        <time>2026-07-16T11:12:21.313Z</time>
      </trkpt>
      <trkpt lat="43.178180" lon="-6.547230">
        <ele>446.638</ele>
        <time>2026-07-16T11:12:41.313Z</time>
      </trkpt>
      <trkpt lat="43.178100" lon="-6.547080">
        <ele>448.014</ele>
        <time>2026-07-16T11:13:01.313Z</time>
      </trkpt>
      <trkpt lat="43.177960" lon="-6.546860">
        <ele>449.920</ele>
        <time>2026-07-16T11:13:21.313Z</time>
      </trkpt>
      <trkpt lat="43.177300" lon="-6.546030">
        <ele>455.118</ele>
        <time>2026-07-16T11:13:41.313Z</time>
      </trkpt>
      <trkpt lat="43.177220" lon="-6.545910">
        <ele>454.515</ele>
        <time>2026-07-16T11:14:01.313Z</time>
      </trkpt>
      <trkpt lat="43.177170" lon="-6.545810">
        <ele>454.134</ele>
        <time>2026-07-16T11:14:21.313Z</time>
      </trkpt>
      <trkpt lat="43.177140" lon="-6.545700">
        <ele>454.266</ele>
        <time>2026-07-16T11:14:41.313Z</time>
      </trkpt>
      <trkpt lat="43.177100" lon="-6.545050">
        <ele>462.369</ele>
        <time>2026-07-16T11:15:01.313Z</time>
      </trkpt>
      <trkpt lat="43.177050" lon="-6.544660">
        <ele>466.804</ele>
        <time>2026-07-16T11:15:21.313Z</time>
      </trkpt>
      <trkpt lat="43.176950" lon="-6.544240">
        <ele>471.424</ele>
        <time>2026-07-16T11:15:41.313Z</time>
      </trkpt>
      <trkpt lat="43.176860" lon="-6.543970">
        <ele>477.909</ele>
        <time>2026-07-16T11:16:01.313Z</time>
      </trkpt>
      <trkpt lat="43.176830" lon="-6.543820">
        <ele>482.658</ele>
        <time>2026-07-16T11:16:21.313Z</time>
      </trkpt>
      <trkpt lat="43.176800" lon="-6.543750">
        <ele>484.413</ele>
        <time>2026-07-16T11:16:41.313Z</time>
      </trkpt>
      <trkpt lat="43.176740" lon="-6.543720">
        <ele>483.928</ele>
        <time>2026-07-16T11:17:01.313Z</time>
      </trkpt>
      <trkpt lat="43.176670" lon="-6.543750">
        <ele>481.134</ele>
        <time>2026-07-16T11:17:21.313Z</time>
      </trkpt>
      <trkpt lat="43.176340" lon="-6.543950">
        <ele>476.480</ele>
        <time>2026-07-16T11:17:41.313Z</time>
      </trkpt>
      <trkpt lat="43.176030" lon="-6.544250">
        <ele>479.698</ele>
        <time>2026-07-16T11:18:01.313Z</time>
      </trkpt>
      <trkpt lat="43.175850" lon="-6.544360">
        <ele>481.675</ele>
        <time>2026-07-16T11:18:21.313Z</time>
      </trkpt>
      <trkpt lat="43.175640" lon="-6.544340">
        <ele>486.084</ele>
        <time>2026-07-16T11:18:41.313Z</time>
      </trkpt>
      <trkpt lat="43.175470" lon="-6.544280">
        <ele>488.116</ele>
        <time>2026-07-16T11:19:01.313Z</time>
      </trkpt>
      <trkpt lat="43.175300" lon="-6.544200">
        <ele>488.292</ele>
        <time>2026-07-16T11:19:21.313Z</time>
      </trkpt>
      <trkpt lat="43.174960" lon="-6.543970">
        <ele>489.573</ele>
        <time>2026-07-16T11:19:41.313Z</time>
      </trkpt>
      <trkpt lat="43.174350" lon="-6.543430">
        <ele>507.620</ele>
        <time>2026-07-16T11:20:01.313Z</time>
      </trkpt>
      <trkpt lat="43.174290" lon="-6.543350">
        <ele>508.409</ele>
        <time>2026-07-16T11:20:21.313Z</time>
      </trkpt>
      <trkpt lat="43.174240" lon="-6.543260">
        <ele>508.941</ele>
        <time>2026-07-16T11:20:41.313Z</time>
      </trkpt>
      <trkpt lat="43.174070" lon="-6.542890">
        <ele>512.486</ele>
        <time>2026-07-16T11:21:01.313Z</time>
      </trkpt>
      <trkpt lat="43.173990" lon="-6.542790">
        <ele>513.291</ele>
        <time>2026-07-16T11:21:21.313Z</time>
      </trkpt>
      <trkpt lat="43.173890" lon="-6.542730">
        <ele>513.467</ele>
        <time>2026-07-16T11:21:41.313Z</time>
      </trkpt>
      <trkpt lat="43.173760" lon="-6.542690">
        <ele>515.213</ele>
        <time>2026-07-16T11:22:01.313Z</time>
      </trkpt>
      <trkpt lat="43.173440" lon="-6.542670">
        <ele>516.631</ele>
        <time>2026-07-16T11:22:21.313Z</time>
      </trkpt>
      <trkpt lat="43.173180" lon="-6.542570">
        <ele>518.118</ele>
        <time>2026-07-16T11:22:41.313Z</time>
      </trkpt>
      <trkpt lat="43.172930" lon="-6.542340">
        <ele>522.037</ele>
        <time>2026-07-16T11:23:01.313Z</time>
      </trkpt>
      <trkpt lat="43.172780" lon="-6.542140">
        <ele>524.519</ele>
        <time>2026-07-16T11:23:21.313Z</time>
      </trkpt>
      <trkpt lat="43.172730" lon="-6.542030">
        <ele>525.412</ele>
        <time>2026-07-16T11:23:41.313Z</time>
      </trkpt>
      <trkpt lat="43.172670" lon="-6.541850">
        <ele>525.732</ele>
        <time>2026-07-16T11:24:01.313Z</time>
      </trkpt>
      <trkpt lat="43.172660" lon="-6.541620">
        <ele>526.005</ele>
        <time>2026-07-16T11:24:21.313Z</time>
      </trkpt>
      <trkpt lat="43.172760" lon="-6.541320">
        <ele>528.809</ele>
        <time>2026-07-16T11:24:41.313Z</time>
      </trkpt>
      <trkpt lat="43.173100" lon="-6.540480">
        <ele>537.533</ele>
        <time>2026-07-16T11:25:01.313Z</time>
      </trkpt>
      <trkpt lat="43.173230" lon="-6.540050">
        <ele>541.368</ele>
        <time>2026-07-16T11:25:21.313Z</time>
      </trkpt>
      <trkpt lat="43.173280" lon="-6.539930">
        <ele>542.113</ele>
        <time>2026-07-16T11:25:41.313Z</time>
      </trkpt>
      <trkpt lat="43.173600" lon="-6.539580">
        <ele>550.279</ele>
        <time>2026-07-16T11:26:01.313Z</time>
      </trkpt>
      <trkpt lat="43.173620" lon="-6.539390">
        <ele>552.585</ele>
        <time>2026-07-16T11:26:21.313Z</time>
      </trkpt>
      <trkpt lat="43.173570" lon="-6.539200">
        <ele>554.753</ele>
        <time>2026-07-16T11:26:41.313Z</time>
      </trkpt>
      <trkpt lat="43.173340" lon="-6.538750">
        <ele>553.360</ele>
        <time>2026-07-16T11:27:01.313Z</time>
      </trkpt>
      <trkpt lat="43.173220" lon="-6.538500">
        <ele>552.349</ele>
        <time>2026-07-16T11:27:21.313Z</time>
      </trkpt>
      <trkpt lat="43.173150" lon="-6.538280">
        <ele>554.771</ele>
        <time>2026-07-16T11:27:41.313Z</time>
      </trkpt>
      <trkpt lat="43.173130" lon="-6.538160">
        <ele>557.299</ele>
        <time>2026-07-16T11:28:01.313Z</time>
      </trkpt>
      <trkpt lat="43.173080" lon="-6.537770">
        <ele>564.407</ele>
        <time>2026-07-16T11:28:21.313Z</time>
      </trkpt>
      <trkpt lat="43.172960" lon="-6.537100">
        <ele>569.427</ele>
        <time>2026-07-16T11:28:41.313Z</time>
      </trkpt>
      <trkpt lat="43.172970" lon="-6.536870">
        <ele>574.509</ele>
        <time>2026-07-16T11:29:01.313Z</time>
      </trkpt>
      <trkpt lat="43.172960" lon="-6.536740">
        <ele>577.681</ele>
        <time>2026-07-16T11:29:21.313Z</time>
      </trkpt>
      <trkpt lat="43.172930" lon="-6.536680">
        <ele>579.166</ele>
        <time>2026-07-16T11:29:41.313Z</time>
      </trkpt>
      <trkpt lat="43.172870" lon="-6.536680">
        <ele>579.361</ele>
        <time>2026-07-16T11:30:01.313Z</time>
      </trkpt>
      <trkpt lat="43.172650" lon="-6.536850">
        <ele>578.987</ele>
        <time>2026-07-16T11:30:21.313Z</time>
      </trkpt>
      <trkpt lat="43.172490" lon="-6.537050">
        <ele>578.873</ele>
        <time>2026-07-16T11:30:41.313Z</time>
      </trkpt>
      <trkpt lat="43.171980" lon="-6.537770">
        <ele>581.381</ele>
        <time>2026-07-16T11:31:01.313Z</time>
      </trkpt>
      <trkpt lat="43.171910" lon="-6.537850">
        <ele>580.248</ele>
        <time>2026-07-16T11:31:21.313Z</time>
      </trkpt>
      <trkpt lat="43.171740" lon="-6.537910">
        <ele>579.037</ele>
        <time>2026-07-16T11:31:41.313Z</time>
      </trkpt>
      <trkpt lat="43.171580" lon="-6.537910">
        <ele>579.559</ele>
        <time>2026-07-16T11:32:01.313Z</time>
      </trkpt>
      <trkpt lat="43.171450" lon="-6.537890">
        <ele>580.472</ele>
        <time>2026-07-16T11:32:21.313Z</time>
      </trkpt>
      <trkpt lat="43.171370" lon="-6.537860">
        <ele>581.113</ele>
        <time>2026-07-16T11:32:41.313Z</time>
      </trkpt>
      <trkpt lat="43.171310" lon="-6.537800">
        <ele>581.914</ele>
        <time>2026-07-16T11:33:01.313Z</time>
      </trkpt>
      <trkpt lat="43.171190" lon="-6.537630">
        <ele>584.209</ele>
        <time>2026-07-16T11:33:21.313Z</time>
      </trkpt>
      <trkpt lat="43.171200" lon="-6.537550">
        <ele>585.799</ele>
        <time>2026-07-16T11:33:41.313Z</time>
      </trkpt>
      <trkpt lat="43.171260" lon="-6.537510">
        <ele>586.994</ele>
        <time>2026-07-16T11:34:01.313Z</time>
      </trkpt>
      <trkpt lat="43.171420" lon="-6.537530">
        <ele>587.429</ele>
        <time>2026-07-16T11:34:21.313Z</time>
      </trkpt>
      <trkpt lat="43.171470" lon="-6.537500">
        <ele>588.015</ele>
        <time>2026-07-16T11:34:41.313Z</time>
      </trkpt>
      <trkpt lat="43.171820" lon="-6.537190">
        <ele>595.441</ele>
        <time>2026-07-16T11:35:01.313Z</time>
      </trkpt>
      <trkpt lat="43.171870" lon="-6.537120">
        <ele>597.379</ele>
        <time>2026-07-16T11:35:21.313Z</time>
      </trkpt>
      <trkpt lat="43.171980" lon="-6.536920">
        <ele>602.286</ele>
        <time>2026-07-16T11:35:41.313Z</time>
      </trkpt>
      <trkpt lat="43.172320" lon="-6.536190">
        <ele>613.925</ele>
        <time>2026-07-16T11:36:01.313Z</time>
      </trkpt>
      <trkpt lat="43.172430" lon="-6.535980">
        <ele>618.967</ele>
        <time>2026-07-16T11:36:21.313Z</time>
      </trkpt>
      <trkpt lat="43.172540" lon="-6.535840">
        <ele>621.946</ele>
        <time>2026-07-16T11:36:41.313Z</time>
      </trkpt>
      <trkpt lat="43.172610" lon="-6.535720">
        <ele>624.388</ele>
        <time>2026-07-16T11:37:01.313Z</time>
      </trkpt>
      <trkpt lat="43.172680" lon="-6.535580">
        <ele>627.816</ele>
        <time>2026-07-16T11:37:21.313Z</time>
      </trkpt>
      <trkpt lat="43.172790" lon="-6.535290">
        <ele>634.009</ele>
        <time>2026-07-16T11:37:41.313Z</time>
      </trkpt>
      <trkpt lat="43.172860" lon="-6.535160">
        <ele>635.036</ele>
        <time>2026-07-16T11:38:01.313Z</time>
      </trkpt>
      <trkpt lat="43.172940" lon="-6.535050">
        <ele>634.821</ele>
        <time>2026-07-16T11:38:21.313Z</time>
      </trkpt>
      <trkpt lat="43.173200" lon="-6.534890">
        <ele>632.596</ele>
        <time>2026-07-16T11:38:41.313Z</time>
      </trkpt>
      <trkpt lat="43.173210" lon="-6.534870">
        <ele>633.092</ele>
        <time>2026-07-16T11:39:01.313Z</time>
      </trkpt>
      <trkpt lat="43.173210" lon="-6.534820">
        <ele>634.168</ele>
        <time>2026-07-16T11:39:21.313Z</time>
      </trkpt>
      <trkpt lat="43.173190" lon="-6.534790">
        <ele>634.986</ele>
        <time>2026-07-16T11:39:41.313Z</time>
      </trkpt>
      <trkpt lat="43.173120" lon="-6.534790">
        <ele>635.243</ele>
        <time>2026-07-16T11:40:01.313Z</time>
      </trkpt>
      <trkpt lat="43.172860" lon="-6.534980">
        <ele>640.782</ele>
        <time>2026-07-16T11:40:21.313Z</time>
      </trkpt>
      <trkpt lat="43.172620" lon="-6.535230">
        <ele>642.814</ele>
        <time>2026-07-16T11:40:41.313Z</time>
      </trkpt>
      <trkpt lat="43.172400" lon="-6.535530">
        <ele>640.189</ele>
        <time>2026-07-16T11:41:01.313Z</time>
      </trkpt>
      <trkpt lat="43.172310" lon="-6.535600">
        <ele>640.306</ele>
        <time>2026-07-16T11:41:21.313Z</time>
      </trkpt>
      <trkpt lat="43.172010" lon="-6.535810">
        <ele>640.126</ele>
        <time>2026-07-16T11:41:41.313Z</time>
      </trkpt>
      <trkpt lat="43.171900" lon="-6.535830">
        <ele>641.309</ele>
        <time>2026-07-16T11:42:01.313Z</time>
      </trkpt>
      <trkpt lat="43.171720" lon="-6.535780">
        <ele>643.370</ele>
        <time>2026-07-16T11:42:21.313Z</time>
      </trkpt>
      <trkpt lat="43.171530" lon="-6.535670">
        <ele>646.775</ele>
        <time>2026-07-16T11:42:41.313Z</time>
      </trkpt>
      <trkpt lat="43.171280" lon="-6.535470">
        <ele>652.730</ele>
        <time>2026-07-16T11:43:01.313Z</time>
      </trkpt>
      <trkpt lat="43.171010" lon="-6.535170">
        <ele>660.466</ele>
        <time>2026-07-16T11:43:21.313Z</time>
      </trkpt>
      <trkpt lat="43.170920" lon="-6.535110">
        <ele>661.582</ele>
        <time>2026-07-16T11:43:41.313Z</time>
      </trkpt>
      <trkpt lat="43.170660" lon="-6.534980">
        <ele>660.680</ele>
        <time>2026-07-16T11:44:01.313Z</time>
      </trkpt>
      <trkpt lat="43.170570" lon="-6.534890">
        <ele>660.397</ele>
        <time>2026-07-16T11:44:21.313Z</time>
      </trkpt>
      <trkpt lat="43.170500" lon="-6.534810">
        <ele>660.146</ele>
        <time>2026-07-16T11:44:41.313Z</time>
      </trkpt>
      <trkpt lat="43.170460" lon="-6.534720">
        <ele>660.628</ele>
        <time>2026-07-16T11:45:01.313Z</time>
      </trkpt>
      <trkpt lat="43.170440" lon="-6.534610">
        <ele>661.815</ele>
        <time>2026-07-16T11:45:21.313Z</time>
      </trkpt>
      <trkpt lat="43.170460" lon="-6.534310">
        <ele>666.865</ele>
        <time>2026-07-16T11:45:41.313Z</time>
      </trkpt>
      <trkpt lat="43.170450" lon="-6.534220">
        <ele>667.811</ele>
        <time>2026-07-16T11:46:01.313Z</time>
      </trkpt>
      <trkpt lat="43.170410" lon="-6.534070">
        <ele>668.909</ele>
        <time>2026-07-16T11:46:21.313Z</time>
      </trkpt>
      <trkpt lat="43.170360" lon="-6.533800">
        <ele>671.893</ele>
        <time>2026-07-16T11:46:41.313Z</time>
      </trkpt>
      <trkpt lat="43.170270" lon="-6.533550">
        <ele>673.118</ele>
        <time>2026-07-16T11:47:01.313Z</time>
      </trkpt>
      <trkpt lat="43.169950" lon="-6.532770">
        <ele>675.623</ele>
        <time>2026-07-16T11:47:21.313Z</time>
      </trkpt>
      <trkpt lat="43.169900" lon="-6.532470">
        <ele>676.689</ele>
        <time>2026-07-16T11:47:41.313Z</time>
      </trkpt>
      <trkpt lat="43.169910" lon="-6.532270">
        <ele>678.715</ele>
        <time>2026-07-16T11:48:01.313Z</time>
      </trkpt>
      <trkpt lat="43.169990" lon="-6.531570">
        <ele>687.033</ele>
        <time>2026-07-16T11:48:21.313Z</time>
      </trkpt>
      <trkpt lat="43.170000" lon="-6.531400">
        <ele>687.040</ele>
        <time>2026-07-16T11:48:41.313Z</time>
      </trkpt>
      <trkpt lat="43.169940" lon="-6.530580">
        <ele>683.789</ele>
        <time>2026-07-16T11:49:01.313Z</time>
      </trkpt>
      <trkpt lat="43.169960" lon="-6.530420">
        <ele>686.371</ele>
        <time>2026-07-16T11:49:21.313Z</time>
      </trkpt>
      <trkpt lat="43.170130" lon="-6.529720">
        <ele>695.599</ele>
        <time>2026-07-16T11:49:41.313Z</time>
      </trkpt>
      <trkpt lat="43.170140" lon="-6.529580">
        <ele>695.507</ele>
        <time>2026-07-16T11:50:01.313Z</time>
      </trkpt>
      <trkpt lat="43.170070" lon="-6.528960">
        <ele>695.127</ele>
        <time>2026-07-16T11:50:21.313Z</time>
      </trkpt>
      <trkpt lat="43.170020" lon="-6.528710">
        <ele>699.009</ele>
        <time>2026-07-16T11:50:41.313Z</time>
      </trkpt>
      <trkpt lat="43.169770" lon="-6.527980">
        <ele>713.551</ele>
        <time>2026-07-16T11:51:01.313Z</time>
      </trkpt>
      <trkpt lat="43.169720" lon="-6.527950">
        <ele>713.846</ele>
        <time>2026-07-16T11:51:21.313Z</time>
      </trkpt>
      <trkpt lat="43.169680" lon="-6.527960">
        <ele>715.241</ele>
        <time>2026-07-16T11:51:41.313Z</time>
      </trkpt>
      <trkpt lat="43.169630" lon="-6.528020">
        <ele>715.947</ele>
        <time>2026-07-16T11:52:01.313Z</time>
      </trkpt>
      <trkpt lat="43.169490" lon="-6.528410">
        <ele>709.933</ele>
        <time>2026-07-16T11:52:21.313Z</time>
      </trkpt>
      <trkpt lat="43.169450" lon="-6.528560">
        <ele>707.111</ele>
        <time>2026-07-16T11:52:41.313Z</time>
      </trkpt>
      <trkpt lat="43.169350" lon="-6.528770">
        <ele>705.068</ele>
        <time>2026-07-16T11:53:01.313Z</time>
      </trkpt>
      <trkpt lat="43.169240" lon="-6.528910">
        <ele>706.497</ele>
        <time>2026-07-16T11:53:21.313Z</time>
      </trkpt>
      <trkpt lat="43.168780" lon="-6.529300">
        <ele>712.049</ele>
        <time>2026-07-16T11:53:41.313Z</time>
      </trkpt>
      <trkpt lat="43.168540" lon="-6.529550">
        <ele>712.035</ele>
        <time>2026-07-16T11:54:01.313Z</time>
      </trkpt>
      <trkpt lat="43.168450" lon="-6.529580">
        <ele>712.186</ele>
        <time>2026-07-16T11:54:21.313Z</time>
      </trkpt>
      <trkpt lat="43.168130" lon="-6.529620">
        <ele>709.414</ele>
        <time>2026-07-16T11:54:41.313Z</time>
      </trkpt>
      <trkpt lat="43.167480" lon="-6.529800">
        <ele>699.209</ele>
        <time>2026-07-16T11:55:01.313Z</time>
      </trkpt>
      <trkpt lat="43.167000" lon="-6.529860">
        <ele>698.555</ele>
        <time>2026-07-16T11:55:21.313Z</time>
      </trkpt>
      <trkpt lat="43.166650" lon="-6.529890">
        <ele>696.560</ele>
        <time>2026-07-16T11:55:41.313Z</time>
      </trkpt>
      <trkpt lat="43.166440" lon="-6.529870">
        <ele>698.155</ele>
        <time>2026-07-16T11:56:01.313Z</time>
      </trkpt>
      <trkpt lat="43.166200" lon="-6.529790">
        <ele>699.981</ele>
        <time>2026-07-16T11:56:21.313Z</time>
      </trkpt>
      <trkpt lat="43.165840" lon="-6.529620">
        <ele>700.317</ele>
        <time>2026-07-16T11:56:41.313Z</time>
      </trkpt>
      <trkpt lat="43.165690" lon="-6.529480">
        <ele>701.835</ele>
        <time>2026-07-16T11:57:01.313Z</time>
      </trkpt>
      <trkpt lat="43.165620" lon="-6.529410">
        <ele>702.292</ele>
        <time>2026-07-16T11:57:21.313Z</time>
      </trkpt>
      <trkpt lat="43.165440" lon="-6.529160">
        <ele>701.711</ele>
        <time>2026-07-16T11:57:41.313Z</time>
      </trkpt>
      <trkpt lat="43.165360" lon="-6.528970">
        <ele>699.933</ele>
        <time>2026-07-16T11:58:01.313Z</time>
      </trkpt>
      <trkpt lat="43.165350" lon="-6.528890">
        <ele>699.845</ele>
        <time>2026-07-16T11:58:21.313Z</time>
      </trkpt>
      <trkpt lat="43.165380" lon="-6.528760">
        <ele>700.247</ele>
        <time>2026-07-16T11:58:41.313Z</time>
      </trkpt>
      <trkpt lat="43.165530" lon="-6.528470">
        <ele>704.011</ele>
        <time>2026-07-16T11:59:01.313Z</time>
      </trkpt>
      <trkpt lat="43.165580" lon="-6.528340">
        <ele>705.109</ele>
        <time>2026-07-16T11:59:21.313Z</time>
      </trkpt>
      <trkpt lat="43.165690" lon="-6.527940">
        <ele>708.246</ele>
        <time>2026-07-16T11:59:41.313Z</time>
      </trkpt>
      <trkpt lat="43.165700" lon="-6.527850">
        <ele>709.041</ele>
        <time>2026-07-16T12:00:01.313Z</time>
      </trkpt>
      <trkpt lat="43.165700" lon="-6.527770">
        <ele>709.436</ele>
        <time>2026-07-16T12:00:21.313Z</time>
      </trkpt>
      <trkpt lat="43.165690" lon="-6.527710">
        <ele>710.092</ele>
        <time>2026-07-16T12:00:41.313Z</time>
      </trkpt>
      <trkpt lat="43.165590" lon="-6.527500">
        <ele>710.228</ele>
        <time>2026-07-16T12:01:01.313Z</time>
      </trkpt>
      <trkpt lat="43.165510" lon="-6.527270">
        <ele>710.056</ele>
        <time>2026-07-16T12:01:21.313Z</time>
      </trkpt>
      <trkpt lat="43.165480" lon="-6.527080">
        <ele>711.513</ele>
        <time>2026-07-16T12:01:41.313Z</time>
      </trkpt>
      <trkpt lat="43.165470" lon="-6.526930">
        <ele>713.482</ele>
        <time>2026-07-16T12:02:01.313Z</time>
      </trkpt>
      <trkpt lat="43.165460" lon="-6.526770">
        <ele>713.974</ele>
        <time>2026-07-16T12:02:21.313Z</time>
      </trkpt>
      <trkpt lat="43.165530" lon="-6.526040">
        <ele>719.813</ele>
        <time>2026-07-16T12:02:41.313Z</time>
      </trkpt>
      <trkpt lat="43.165660" lon="-6.525500">
        <ele>726.443</ele>
        <time>2026-07-16T12:03:01.313Z</time>
      </trkpt>
      <trkpt lat="43.165920" lon="-6.524490">
        <ele>734.507</ele>
        <time>2026-07-16T12:03:21.313Z</time>
      </trkpt>
      <trkpt lat="43.166080" lon="-6.524180">
        <ele>741.109</ele>
        <time>2026-07-16T12:03:41.313Z</time>
      </trkpt>
      <trkpt lat="43.166120" lon="-6.523840">
        <ele>739.793</ele>
        <time>2026-07-16T12:04:01.313Z</time>
      </trkpt>
      <trkpt lat="43.166310" lon="-6.523190">
        <ele>741.018</ele>
        <time>2026-07-16T12:04:21.313Z</time>
      </trkpt>
      <trkpt lat="43.166450" lon="-6.522590">
        <ele>750.193</ele>
        <time>2026-07-16T12:04:41.313Z</time>
      </trkpt>
      <trkpt lat="43.166620" lon="-6.522070">
        <ele>752.289</ele>
        <time>2026-07-16T12:05:01.313Z</time>
      </trkpt>
      <trkpt lat="43.166770" lon="-6.521750">
        <ele>753.145</ele>
        <time>2026-07-16T12:05:21.313Z</time>
      </trkpt>
      <trkpt lat="43.166950" lon="-6.521500">
        <ele>755.913</ele>
        <time>2026-07-16T12:05:41.313Z</time>
      </trkpt>
      <trkpt lat="43.167270" lon="-6.521150">
        <ele>760.450</ele>
        <time>2026-07-16T12:06:01.313Z</time>
      </trkpt>
      <trkpt lat="43.167540" lon="-6.520750">
        <ele>764.839</ele>
        <time>2026-07-16T12:06:21.313Z</time>
      </trkpt>
      <trkpt lat="43.167760" lon="-6.520350">
        <ele>775.271</ele>
        <time>2026-07-16T12:06:41.313Z</time>
      </trkpt>
      <trkpt lat="43.167830" lon="-6.520120">
        <ele>781.798</ele>
        <time>2026-07-16T12:07:01.313Z</time>
      </trkpt>
      <trkpt lat="43.167840" lon="-6.520050">
        <ele>783.215</ele>
        <time>2026-07-16T12:07:21.313Z</time>
      </trkpt>
      <trkpt lat="43.167830" lon="-6.519970">
        <ele>784.126</ele>
        <time>2026-07-16T12:07:41.313Z</time>
      </trkpt>
      <trkpt lat="43.167790" lon="-6.519930">
        <ele>783.009</ele>
        <time>2026-07-16T12:08:01.313Z</time>
      </trkpt>
      <trkpt lat="43.167540" lon="-6.519870">
        <ele>779.081</ele>
        <time>2026-07-16T12:08:21.313Z</time>
      </trkpt>
      <trkpt lat="43.167230" lon="-6.519710">
        <ele>777.826</ele>
        <time>2026-07-16T12:08:41.313Z</time>
      </trkpt>
      <trkpt lat="43.166790" lon="-6.519410">
        <ele>777.821</ele>
        <time>2026-07-16T12:09:01.313Z</time>
      </trkpt>
      <trkpt lat="43.166590" lon="-6.519190">
        <ele>777.847</ele>
        <time>2026-07-16T12:09:21.313Z</time>
      </trkpt>
      <trkpt lat="43.166510" lon="-6.519070">
        <ele>778.813</ele>
        <time>2026-07-16T12:09:41.313Z</time>
      </trkpt>
      <trkpt lat="43.166460" lon="-6.518950">
        <ele>780.051</ele>
        <time>2026-07-16T12:10:01.313Z</time>
      </trkpt>
      <trkpt lat="43.166300" lon="-6.518400">
        <ele>790.078</ele>
        <time>2026-07-16T12:10:21.313Z</time>
      </trkpt>
      <trkpt lat="43.166290" lon="-6.518270">
        <ele>792.967</ele>
        <time>2026-07-16T12:10:41.313Z</time>
      </trkpt>
      <trkpt lat="43.166300" lon="-6.517950">
        <ele>801.459</ele>
        <time>2026-07-16T12:11:01.313Z</time>
      </trkpt>
      <trkpt lat="43.166290" lon="-6.517900">
        <ele>802.663</ele>
        <time>2026-07-16T12:11:21.313Z</time>
      </trkpt>
      <trkpt lat="43.166210" lon="-6.517800">
        <ele>802.844</ele>
        <time>2026-07-16T12:11:41.313Z</time>
      </trkpt>
      <trkpt lat="43.166090" lon="-6.517720">
        <ele>801.918</ele>
        <time>2026-07-16T12:12:01.313Z</time>
      </trkpt>
      <trkpt lat="43.165910" lon="-6.517660">
        <ele>800.909</ele>
        <time>2026-07-16T12:12:21.313Z</time>
      </trkpt>
      <trkpt lat="43.165760" lon="-6.517630">
        <ele>800.858</ele>
        <time>2026-07-16T12:12:41.313Z</time>
      </trkpt>
      <trkpt lat="43.165390" lon="-6.517690">
        <ele>798.683</ele>
        <time>2026-07-16T12:13:01.313Z</time>
      </trkpt>
      <trkpt lat="43.165250" lon="-6.517700">
        <ele>798.588</ele>
        <time>2026-07-16T12:13:21.313Z</time>
      </trkpt>
      <trkpt lat="43.165150" lon="-6.517680">
        <ele>799.274</ele>
        <time>2026-07-16T12:13:41.313Z</time>
      </trkpt>
      <trkpt lat="43.164940" lon="-6.517520">
        <ele>804.270</ele>
        <time>2026-07-16T12:14:01.313Z</time>
      </trkpt>
      <trkpt lat="43.164830" lon="-6.517390">
        <ele>808.558</ele>
        <time>2026-07-16T12:14:21.313Z</time>
      </trkpt>
      <trkpt lat="43.164670" lon="-6.517310">
        <ele>810.825</ele>
        <time>2026-07-16T12:14:41.313Z</time>
      </trkpt>
      <trkpt lat="43.164530" lon="-6.517270">
        <ele>811.854</ele>
        <time>2026-07-16T12:15:01.313Z</time>
      </trkpt>
      <trkpt lat="43.164390" lon="-6.517270">
        <ele>812.376</ele>
        <time>2026-07-16T12:15:21.313Z</time>
      </trkpt>
      <trkpt lat="43.163900" lon="-6.517340">
        <ele>818.944</ele>
        <time>2026-07-16T12:15:41.313Z</time>
      </trkpt>
      <trkpt lat="43.163670" lon="-6.517350">
        <ele>821.205</ele>
        <time>2026-07-16T12:16:01.313Z</time>
      </trkpt>
      <trkpt lat="43.163460" lon="-6.517440">
        <ele>821.115</ele>
        <time>2026-07-16T12:16:21.313Z</time>
      </trkpt>
      <trkpt lat="43.162960" lon="-6.517720">
        <ele>823.809</ele>
        <time>2026-07-16T12:16:41.313Z</time>
      </trkpt>
      <trkpt lat="43.162740" lon="-6.517820">
        <ele>828.656</ele>
        <time>2026-07-16T12:17:01.313Z</time>
      </trkpt>
      <trkpt lat="43.162260" lon="-6.517940">
        <ele>832.291</ele>
        <time>2026-07-16T12:17:21.313Z</time>
      </trkpt>
      <trkpt lat="43.162060" lon="-6.517930">
        <ele>831.876</ele>
        <time>2026-07-16T12:17:41.313Z</time>
      </trkpt>
      <trkpt lat="43.161960" lon="-6.517880">
        <ele>832.542</ele>
        <time>2026-07-16T12:18:01.313Z</time>
      </trkpt>
      <trkpt lat="43.161870" lon="-6.517780">
        <ele>834.178</ele>
        <time>2026-07-16T12:18:21.313Z</time>
      </trkpt>
      <trkpt lat="43.161690" lon="-6.517500">
        <ele>841.386</ele>
        <time>2026-07-16T12:18:41.313Z</time>
      </trkpt>
      <trkpt lat="43.161580" lon="-6.517360">
        <ele>843.033</ele>
        <time>2026-07-16T12:19:01.313Z</time>
      </trkpt>
      <trkpt lat="43.161370" lon="-6.517180">
        <ele>843.512</ele>
        <time>2026-07-16T12:19:21.313Z</time>
      </trkpt>
      <trkpt lat="43.161350" lon="-6.517110">
        <ele>844.784</ele>
        <time>2026-07-16T12:19:41.313Z</time>
      </trkpt>
      <trkpt lat="43.161370" lon="-6.517070">
        <ele>846.388</ele>
        <time>2026-07-16T12:20:01.313Z</time>
      </trkpt>
      <trkpt lat="43.161440" lon="-6.517070">
        <ele>847.824</ele>
        <time>2026-07-16T12:20:21.313Z</time>
      </trkpt>
      <trkpt lat="43.161650" lon="-6.517200">
        <ele>849.126</ele>
        <time>2026-07-16T12:20:41.313Z</time>
      </trkpt>
      <trkpt lat="43.161960" lon="-6.517290">
        <ele>851.709</ele>
        <time>2026-07-16T12:21:01.313Z</time>
      </trkpt>
      <trkpt lat="43.162110" lon="-6.517290">
        <ele>850.970</ele>
        <time>2026-07-16T12:21:21.313Z</time>
      </trkpt>
      <trkpt lat="43.162240" lon="-6.517240">
        <ele>851.495</ele>
        <time>2026-07-16T12:21:41.313Z</time>
      </trkpt>
      <trkpt lat="43.162390" lon="-6.517140">
        <ele>852.670</ele>
        <time>2026-07-16T12:22:01.313Z</time>
      </trkpt>
      <trkpt lat="43.162580" lon="-6.516970">
        <ele>855.796</ele>
        <time>2026-07-16T12:22:21.313Z</time>
      </trkpt>
      <trkpt lat="43.163030" lon="-6.516450">
        <ele>866.672</ele>
        <time>2026-07-16T12:22:41.313Z</time>
      </trkpt>
      <trkpt lat="43.163230" lon="-6.516240">
        <ele>870.430</ele>
        <time>2026-07-16T12:23:01.313Z</time>
      </trkpt>
      <trkpt lat="43.164140" lon="-6.515560">
        <ele>883.227</ele>
        <time>2026-07-16T12:23:21.313Z</time>
      </trkpt>
      <trkpt lat="43.164620" lon="-6.515230">
        <ele>890.866</ele>
        <time>2026-07-16T12:23:41.313Z</time>
      </trkpt>
      <trkpt lat="43.165220" lon="-6.514890">
        <ele>896.018</ele>
        <time>2026-07-16T12:24:01.313Z</time>
      </trkpt>
      <trkpt lat="43.165620" lon="-6.514740">
        <ele>899.531</ele>
        <time>2026-07-16T12:24:21.313Z</time>
      </trkpt>
      <trkpt lat="43.166230" lon="-6.514450">
        <ele>908.061</ele>
        <time>2026-07-16T12:24:41.313Z</time>
      </trkpt>
      <trkpt lat="43.166580" lon="-6.514120">
        <ele>910.007</ele>
        <time>2026-07-16T12:25:01.313Z</time>
      </trkpt>
      <trkpt lat="43.166620" lon="-6.514070">
        <ele>910.309</ele>
        <time>2026-07-16T12:25:21.313Z</time>
      </trkpt>
      <trkpt lat="43.166640" lon="-6.514020">
        <ele>910.935</ele>
        <time>2026-07-16T12:25:41.313Z</time>
      </trkpt>
      <trkpt lat="43.166650" lon="-6.513920">
        <ele>912.650</ele>
        <time>2026-07-16T12:26:01.313Z</time>
      </trkpt>
      <trkpt lat="43.166640" lon="-6.513850">
        <ele>913.525</ele>
        <time>2026-07-16T12:26:21.313Z</time>
      </trkpt>
      <trkpt lat="43.166620" lon="-6.513810">
        <ele>914.051</ele>
        <time>2026-07-16T12:26:41.313Z</time>
      </trkpt>
      <trkpt lat="43.166480" lon="-6.513730">
        <ele>915.997</ele>
        <time>2026-07-16T12:27:01.313Z</time>
      </trkpt>
      <trkpt lat="43.166380" lon="-6.513690">
        <ele>917.285</ele>
        <time>2026-07-16T12:27:21.313Z</time>
      </trkpt>
      <trkpt lat="43.166280" lon="-6.513690">
        <ele>917.722</ele>
        <time>2026-07-16T12:27:41.313Z</time>
      </trkpt>
      <trkpt lat="43.165860" lon="-6.513770">
        <ele>917.971</ele>
        <time>2026-07-16T12:28:01.313Z</time>
      </trkpt>
      <trkpt lat="43.165320" lon="-6.513790">
        <ele>922.823</ele>
        <time>2026-07-16T12:28:21.313Z</time>
      </trkpt>
      <trkpt lat="43.164520" lon="-6.513920">
        <ele>925.425</ele>
        <time>2026-07-16T12:28:41.313Z</time>
      </trkpt>
      <trkpt lat="43.162960" lon="-6.513930">
        <ele>931.526</ele>
        <time>2026-07-16T12:29:01.313Z</time>
      </trkpt>
      <trkpt lat="43.162410" lon="-6.513800">
        <ele>937.108</ele>
        <time>2026-07-16T12:29:21.313Z</time>
      </trkpt>
      <trkpt lat="43.161390" lon="-6.513500">
        <ele>947.409</ele>
        <time>2026-07-16T12:29:41.313Z</time>
      </trkpt>
      <trkpt lat="43.161090" lon="-6.513490">
        <ele>947.614</ele>
        <time>2026-07-16T12:30:01.313Z</time>
      </trkpt>
      <trkpt lat="43.161030" lon="-6.513470">
        <ele>948.429</ele>
        <time>2026-07-16T12:30:21.313Z</time>
      </trkpt>
      <trkpt lat="43.161010" lon="-6.513420">
        <ele>950.094</ele>
        <time>2026-07-16T12:30:41.313Z</time>
      </trkpt>
      <trkpt lat="43.161010" lon="-6.513360">
        <ele>951.970</ele>
        <time>2026-07-16T12:31:01.313Z</time>
      </trkpt>
      <trkpt lat="43.161050" lon="-6.513290">
        <ele>953.336</ele>
        <time>2026-07-16T12:31:21.313Z</time>
      </trkpt>
      <trkpt lat="43.161200" lon="-6.513140">
        <ele>954.724</ele>
        <time>2026-07-16T12:31:41.313Z</time>
      </trkpt>
      <trkpt lat="43.161280" lon="-6.513000">
        <ele>955.861</ele>
        <time>2026-07-16T12:32:01.313Z</time>
      </trkpt>
      <trkpt lat="43.161490" lon="-6.512390">
        <ele>959.870</ele>
        <time>2026-07-16T12:32:21.313Z</time>
      </trkpt>
      <trkpt lat="43.161730" lon="-6.511490">
        <ele>965.992</ele>
        <time>2026-07-16T12:32:41.313Z</time>
      </trkpt>
      <trkpt lat="43.161750" lon="-6.511260">
        <ele>966.576</ele>
        <time>2026-07-16T12:33:01.313Z</time>
      </trkpt>
      <trkpt lat="43.161700" lon="-6.511080">
        <ele>967.690</ele>
        <time>2026-07-16T12:33:21.313Z</time>
      </trkpt>
      <trkpt lat="43.161610" lon="-6.510870">
        <ele>969.919</ele>
        <time>2026-07-16T12:33:41.313Z</time>
      </trkpt>
      <trkpt lat="43.161560" lon="-6.510800">
        <ele>970.909</ele>
        <time>2026-07-16T12:34:01.313Z</time>
      </trkpt>
      <trkpt lat="43.161490" lon="-6.510760">
        <ele>972.159</ele>
        <time>2026-07-16T12:34:21.313Z</time>
      </trkpt>
      <trkpt lat="43.161040" lon="-6.510680">
        <ele>977.924</ele>
        <time>2026-07-16T12:34:41.314Z</time>
      </trkpt>
      <trkpt lat="43.160650" lon="-6.510540">
        <ele>982.269</ele>
        <time>2026-07-16T12:35:01.314Z</time>
      </trkpt>
      <trkpt lat="43.160430" lon="-6.510390">
        <ele>984.635</ele>
        <time>2026-07-16T12:35:21.314Z</time>
      </trkpt>
      <trkpt lat="43.160290" lon="-6.510210">
        <ele>985.841</ele>
        <time>2026-07-16T12:35:41.314Z</time>
      </trkpt>
      <trkpt lat="43.159900" lon="-6.509260">
        <ele>993.599</ele>
        <time>2026-07-16T12:36:01.314Z</time>
      </trkpt>
      <trkpt lat="43.159630" lon="-6.508880">
        <ele>1000.056</ele>
        <time>2026-07-16T12:36:21.314Z</time>
      </trkpt>
      <trkpt lat="43.159550" lon="-6.508750">
        <ele>1002.035</ele>
        <time>2026-07-16T12:36:41.314Z</time>
      </trkpt>
      <trkpt lat="43.159490" lon="-6.508610">
        <ele>1002.977</ele>
        <time>2026-07-16T12:37:01.314Z</time>
      </trkpt>
      <trkpt lat="43.159380" lon="-6.508250">
        <ele>1008.469</ele>
        <time>2026-07-16T12:37:21.314Z</time>
      </trkpt>
      <trkpt lat="43.159200" lon="-6.507350">
        <ele>1014.204</ele>
        <time>2026-07-16T12:37:41.314Z</time>
      </trkpt>
      <trkpt lat="43.159190" lon="-6.507200">
        <ele>1014.624</ele>
        <time>2026-07-16T12:38:01.314Z</time>
      </trkpt>
      <trkpt lat="43.159220" lon="-6.507080">
        <ele>1014.509</ele>
        <time>2026-07-16T12:38:21.314Z</time>
      </trkpt>
      <trkpt lat="43.159280" lon="-6.506920">
        <ele>1014.248</ele>
        <time>2026-07-16T12:38:41.314Z</time>
      </trkpt>
      <trkpt lat="43.159370" lon="-6.506760">
        <ele>1014.373</ele>
        <time>2026-07-16T12:39:01.314Z</time>
      </trkpt>
      <trkpt lat="43.159880" lon="-6.506010">
        <ele>1021.978</ele>
        <time>2026-07-16T12:39:21.314Z</time>
      </trkpt>
      <trkpt lat="43.160130" lon="-6.505610">
        <ele>1025.414</ele>
        <time>2026-07-16T12:39:41.314Z</time>
      </trkpt>
      <trkpt lat="43.160340" lon="-6.505340">
        <ele>1026.850</ele>
        <time>2026-07-16T12:40:01.314Z</time>
      </trkpt>
      <trkpt lat="43.160360" lon="-6.505300">
        <ele>1027.328</ele>
        <time>2026-07-16T12:40:21.314Z</time>
      </trkpt>
      <trkpt lat="43.160350" lon="-6.505250">
        <ele>1028.665</ele>
        <time>2026-07-16T12:40:41.314Z</time>
      </trkpt>
      <trkpt lat="43.160340" lon="-6.505210">
        <ele>1029.664</ele>
        <time>2026-07-16T12:41:01.314Z</time>
      </trkpt>
      <trkpt lat="43.160300" lon="-6.505190">
        <ele>1030.646</ele>
        <time>2026-07-16T12:41:21.314Z</time>
      </trkpt>
      <trkpt lat="43.159940" lon="-6.505400">
        <ele>1033.714</ele>
        <time>2026-07-16T12:41:41.314Z</time>
      </trkpt>
      <trkpt lat="43.159660" lon="-6.505490">
        <ele>1037.954</ele>
        <time>2026-07-16T12:42:01.314Z</time>
      </trkpt>
      <trkpt lat="43.159110" lon="-6.505580">
        <ele>1041.509</ele>
        <time>2026-07-16T12:42:21.314Z</time>
      </trkpt>
      <trkpt lat="43.158750" lon="-6.505580">
        <ele>1044.109</ele>
        <time>2026-07-16T12:42:41.314Z</time>
      </trkpt>
      <trkpt lat="43.158530" lon="-6.505630">
        <ele>1047.223</ele>
        <time>2026-07-16T12:43:01.314Z</time>
      </trkpt>
      <trkpt lat="43.158370" lon="-6.505710">
        <ele>1049.058</ele>
        <time>2026-07-16T12:43:21.314Z</time>
      </trkpt>
      <trkpt lat="43.158190" lon="-6.505890">
        <ele>1051.953</ele>
        <time>2026-07-16T12:43:41.314Z</time>
      </trkpt>
      <trkpt lat="43.158070" lon="-6.506030">
        <ele>1054.419</ele>
        <time>2026-07-16T12:44:01.314Z</time>
      </trkpt>
      <trkpt lat="43.157980" lon="-6.506210">
        <ele>1056.165</ele>
        <time>2026-07-16T12:44:21.314Z</time>
      </trkpt>
      <trkpt lat="43.157800" lon="-6.506700">
        <ele>1063.083</ele>
        <time>2026-07-16T12:44:41.314Z</time>
      </trkpt>
      <trkpt lat="43.157760" lon="-6.506860">
        <ele>1064.850</ele>
        <time>2026-07-16T12:45:01.314Z</time>
      </trkpt>
      <trkpt lat="43.157740" lon="-6.507230">
        <ele>1067.079</ele>
        <time>2026-07-16T12:45:21.314Z</time>
      </trkpt>
      <trkpt lat="43.157750" lon="-6.507490">
        <ele>1068.371</ele>
        <time>2026-07-16T12:45:41.314Z</time>
      </trkpt>
      <trkpt lat="43.157820" lon="-6.508080">
        <ele>1065.641</ele>
        <time>2026-07-16T12:46:01.314Z</time>
      </trkpt>
      <trkpt lat="43.157820" lon="-6.508190">
        <ele>1065.081</ele>
        <time>2026-07-16T12:46:21.314Z</time>
      </trkpt>
      <trkpt lat="43.157790" lon="-6.508330">
        <ele>1065.509</ele>
        <time>2026-07-16T12:46:41.314Z</time>
      </trkpt>
      <trkpt lat="43.157740" lon="-6.508440">
        <ele>1066.809</ele>
        <time>2026-07-16T12:47:01.314Z</time>
      </trkpt>
      <trkpt lat="43.157590" lon="-6.508660">
        <ele>1068.376</ele>
        <time>2026-07-16T12:47:21.314Z</time>
      </trkpt>
      <trkpt lat="43.157460" lon="-6.508790">
        <ele>1068.681</ele>
        <time>2026-07-16T12:47:41.314Z</time>
      </trkpt>
      <trkpt lat="43.157130" lon="-6.508990">
        <ele>1071.326</ele>
        <time>2026-07-16T12:48:01.314Z</time>
      </trkpt>
      <trkpt lat="43.156930" lon="-6.509060">
        <ele>1073.842</ele>
        <time>2026-07-16T12:48:21.314Z</time>
      </trkpt>
      <trkpt lat="43.156810" lon="-6.509040">
        <ele>1074.788</ele>
        <time>2026-07-16T12:48:41.314Z</time>
      </trkpt>
      <trkpt lat="43.156760" lon="-6.509010">
        <ele>1075.536</ele>
        <time>2026-07-16T12:49:01.314Z</time>
      </trkpt>
      <trkpt lat="43.156720" lon="-6.508950">
        <ele>1076.833</ele>
        <time>2026-07-16T12:49:21.314Z</time>
      </trkpt>
      <trkpt lat="43.156700" lon="-6.508880">
        <ele>1078.022</ele>
        <time>2026-07-16T12:49:41.314Z</time>
      </trkpt>
      <trkpt lat="43.156690" lon="-6.508780">
        <ele>1078.454</ele>
        <time>2026-07-16T12:50:01.314Z</time>
      </trkpt>
      <trkpt lat="43.156700" lon="-6.508450">
        <ele>1079.953</ele>
        <time>2026-07-16T12:50:21.314Z</time>
      </trkpt>
      <trkpt lat="43.156740" lon="-6.507750">
        <ele>1083.904</ele>
        <time>2026-07-16T12:50:41.314Z</time>
      </trkpt>
      <trkpt lat="43.156810" lon="-6.507100">
        <ele>1087.314</ele>
        <time>2026-07-16T12:51:01.314Z</time>
      </trkpt>
      <trkpt lat="43.156820" lon="-6.506660">
        <ele>1092.009</ele>
        <time>2026-07-16T12:51:21.314Z</time>
      </trkpt>
      <trkpt lat="43.156770" lon="-6.506090">
        <ele>1094.727</ele>
        <time>2026-07-16T12:51:41.314Z</time>
      </trkpt>
      <trkpt lat="43.156660" lon="-6.505450">
        <ele>1099.412</ele>
        <time>2026-07-16T12:52:01.314Z</time>
      </trkpt>
      <trkpt lat="43.156520" lon="-6.504860">
        <ele>1104.917</ele>
        <time>2026-07-16T12:52:21.314Z</time>
      </trkpt>
      <trkpt lat="43.156470" lon="-6.504490">
        <ele>1109.973</ele>
        <time>2026-07-16T12:52:41.314Z</time>
      </trkpt>
      <trkpt lat="43.156460" lon="-6.504230">
        <ele>1116.049</ele>
        <time>2026-07-16T12:53:01.314Z</time>
      </trkpt>
      <trkpt lat="43.156480" lon="-6.504090">
        <ele>1118.437</ele>
        <time>2026-07-16T12:53:21.314Z</time>
      </trkpt>
      <trkpt lat="43.156650" lon="-6.503460">
        <ele>1126.844</ele>
        <time>2026-07-16T12:53:41.314Z</time>
      </trkpt>
      <trkpt lat="43.156810" lon="-6.502990">
        <ele>1130.523</ele>
        <time>2026-07-16T12:54:01.314Z</time>
      </trkpt>
      <trkpt lat="43.157120" lon="-6.502290">
        <ele>1137.795</ele>
        <time>2026-07-16T12:54:21.314Z</time>
      </trkpt>
      <trkpt lat="43.157540" lon="-6.501600">
        <ele>1144.216</ele>
        <time>2026-07-16T12:54:41.314Z</time>
      </trkpt>
      <trkpt lat="43.158140" lon="-6.500780">
        <ele>1153.776</ele>
        <time>2026-07-16T12:55:01.314Z</time>
      </trkpt>
      <trkpt lat="43.158320" lon="-6.500380">
        <ele>1158.413</ele>
        <time>2026-07-16T12:55:21.314Z</time>
      </trkpt>
      <trkpt lat="43.158450" lon="-6.500000">
        <ele>1162.509</ele>
        <time>2026-07-16T12:55:41.314Z</time>
      </trkpt>
      <trkpt lat="43.158530" lon="-6.499670">
        <ele>1167.413</ele>
        <time>2026-07-16T12:56:01.314Z</time>
      </trkpt>
      <trkpt lat="43.158560" lon="-6.499450">
        <ele>1168.218</ele>
        <time>2026-07-16T12:56:21.314Z</time>
      </trkpt>
      <trkpt lat="43.158540" lon="-6.499310">
        <ele>1168.193</ele>
        <time>2026-07-16T12:56:41.314Z</time>
      </trkpt>
      <trkpt lat="43.158480" lon="-6.499180">
        <ele>1167.279</ele>
        <time>2026-07-16T12:57:01.314Z</time>
      </trkpt>
      <trkpt lat="43.158450" lon="-6.499060">
        <ele>1166.995</ele>
        <time>2026-07-16T12:57:21.314Z</time>
      </trkpt>
      <trkpt lat="43.158460" lon="-6.498970">
        <ele>1167.223</ele>
        <time>2026-07-16T12:57:41.314Z</time>
      </trkpt>
    </trkseg>
  </trk></gpx>