<?xml version="1.0" encoding="UTF-8"?>
<gpx creator="Wikiloc - https://www.wikiloc.com" version="1.1" xmlns="http://www.topografix.com/GPX/1/1" xmlns:xsi="http://www.w3.org/2001/XMLSchema-instance" xsi:schemaLocation="http://www.topografix.com/GPX/1/1 http://www.topografix.com/GPX/1/1/gpx.xsd">
  <metadata>
    <name>Wikiloc - Alto San Esteban</name>
    <link href="https://www.wikiloc.com/cycling-trails/alto-san-esteban-205228638">
      <text>Alto San Esteban - Wikiloc on Wikiloc</text>
    </link>
    <time>2025-03-17T15:10:09Z</time>
  </metadata>
  <trk>
    <name>Alto San Esteban - Wikiloc</name>
    <cmt></cmt>
    <desc></desc>
    <trkseg>
      <trkpt lat="41.772576" lon="-0.825040">
        <ele>261.262</ele>
        <time>2025-03-17T14:21:07Z</time>
      </trkpt>
      <trkpt lat="41.772960" lon="-0.824095">
        <ele>262.783</ele>
        <time>2025-03-17T14:21:21Z</time>
      </trkpt>
      <trkpt lat="41.773169" lon="-0.824001">
        <ele>262.611</ele>
        <time>2025-03-17T14:21:25Z</time>
      </trkpt>
      <trkpt lat="41.777968" lon="-0.828209">
        <ele>267.309</ele>
        <time>2025-03-17T14:22:48Z</time>
      </trkpt>
      <trkpt lat="41.778302" lon="-0.828713">
        <ele>264.668</ele>
        <time>2025-03-17T14:22:55Z</time>
      </trkpt>
      <trkpt lat="41.779950" lon="-0.830394">
        <ele>271.136</ele>
        <time>2025-03-17T14:23:26Z</time>
      </trkpt>
      <trkpt lat="41.779975" lon="-0.831242">
        <ele>272.021</ele>
        <time>2025-03-17T14:23:36Z</time>
      </trkpt>
      <trkpt lat="41.780423" lon="-0.833110">
        <ele>272.018</ele>
        <time>2025-03-17T14:23:58Z</time>
      </trkpt>
      <trkpt lat="41.781333" lon="-0.834217">
        <ele>270.188</ele>
        <time>2025-03-17T14:24:12Z</time>
      </trkpt>
      <trkpt lat="41.784690" lon="-0.834858">
        <ele>276.564</ele>
        <time>2025-03-17T14:24:54Z</time>
      </trkpt>
      <trkpt lat="41.785724" lon="-0.835344">
        <ele>276.692</ele>
        <time>2025-03-17T14:25:08Z</time>
      </trkpt>
      <trkpt lat="41.793935" lon="-0.842687">
        <ele>289.549</ele>
        <time>2025-03-17T14:27:14Z</time>
      </trkpt>
      <trkpt lat="41.794516" lon="-0.843051">
        <ele>289.074</ele>
        <time>2025-03-17T14:27:22Z</time>
      </trkpt>
      <trkpt lat="41.795310" lon="-0.843934">
        <ele>292.774</ele>
        <time>2025-03-17T14:27:35Z</time>
      </trkpt>
      <trkpt lat="41.812986" lon="-0.859661">
        <ele>318.856</ele>
        <time>2025-03-17T14:32:13Z</time>
      </trkpt>
      <trkpt lat="41.816553" lon="-0.863983">
        <ele>333.821</ele>
        <time>2025-03-17T14:33:15Z</time>
      </trkpt>
      <trkpt lat="41.822263" lon="-0.868607">
        <ele>338.909</ele>
        <time>2025-03-17T14:34:36Z</time>
      </trkpt>
      <trkpt lat="41.825770" lon="-0.872985">
        <ele>341.939</ele>
        <time>2025-03-17T14:35:34Z</time>
      </trkpt>
      <trkpt lat="41.832616" lon="-0.876547">
        <ele>348.447</ele>
        <time>2025-03-17T14:37:04Z</time>
      </trkpt>
      <trkpt lat="41.840756" lon="-0.888315">
        <ele>370.522</ele>
        <time>2025-03-17T14:39:50Z</time>
      </trkpt>
      <trkpt lat="41.841529" lon="-0.889337">
        <ele>372.889</ele>
        <time>2025-03-17T14:40:05Z</time>
      </trkpt>
      <trkpt lat="41.842031" lon="-0.889772">
        <ele>373.519</ele>
        <time>2025-03-17T14:40:13Z</time>
      </trkpt>
      <trkpt lat="41.850193" lon="-0.892470">
        <ele>387.715</ele>
        <time>2025-03-17T14:42:03Z</time>
      </trkpt>
      <trkpt lat="41.850719" lon="-0.892511">
        <ele>388.913</ele>
        <time>2025-03-17T14:42:09Z</time>
      </trkpt>
      <trkpt lat="41.851827" lon="-0.892194">
        <ele>391.380</ele>
        <time>2025-03-17T14:42:23Z</time>
      </trkpt>
      <trkpt lat="41.852300" lon="-0.892215">
        <ele>391.315</ele>
        <time>2025-03-17T14:42:29Z</time>
      </trkpt>
      <trkpt lat="41.855400" lon="-0.893505">
        <ele>398.268</ele>
        <time>2025-03-17T14:43:11Z</time>
      </trkpt>
      <trkpt lat="41.860017" lon="-0.897346">
        <ele>407.242</ele>
        <time>2025-03-17T14:44:26Z</time>
      </trkpt>
      <trkpt lat="41.863079" lon="-0.898744">
        <ele>412.226</ele>
        <time>2025-03-17T14:45:10Z</time>
      </trkpt>
      <trkpt lat="41.865220" lon="-0.900226">
        <ele>417.009</ele>
        <time>2025-03-17T14:45:43Z</time>
      </trkpt>
      <trkpt lat="41.868794" lon="-0.903470">
        <ele>422.418</ele>
        <time>2025-03-17T14:46:43Z</time>
      </trkpt>
      <trkpt lat="41.871657" lon="-0.904729">
        <ele>435.776</ele>
        <time>2025-03-17T14:47:24Z</time>
      </trkpt>
      <trkpt lat="41.879129" lon="-0.909034">
        <ele>445.511</ele>
        <time>2025-03-17T14:49:14Z</time>
      </trkpt>
      <trkpt lat="41.883325" lon="-0.911715">
        <ele>457.958</ele>
        <time>2025-03-17T14:50:24Z</time>
      </trkpt>
      <trkpt lat="41.887393" lon="-0.912133">
        <ele>482.568</ele>
        <time>2025-03-17T14:51:57Z</time>
      </trkpt>
      <trkpt lat="41.888833" lon="-0.912610">
        <ele>491.084</ele>
        <time>2025-03-17T14:52:31Z</time>
      </trkpt>
      <trkpt lat="41.891047" lon="-0.912611">
        <ele>499.562</ele>
        <time>2025-03-17T14:53:15Z</time>
      </trkpt>
      <trkpt lat="41.892981" lon="-0.913412">
        <ele>506.719</ele>
        <time>2025-03-17T14:53:53Z</time>
      </trkpt>
      <trkpt lat="41.895848" lon="-0.914162">
        <ele>512.124</ele>
        <time>2025-03-17T14:54:44Z</time>
      </trkpt>
      <trkpt lat="41.896471" lon="-0.914458">
        <ele>515.171</ele>
        <time>2025-03-17T14:54:55Z</time>
      </trkpt>
      <trkpt lat="41.897506" lon="-0.915272">
        <ele>522.041</ele>
        <time>2025-03-17T14:55:16Z</time>
      </trkpt>
      <trkpt lat="41.899583" lon="-0.917061">
        <ele>527.815</ele>
        <time>2025-03-17T14:55:59Z</time>
      </trkpt>
      <trkpt lat="41.901532" lon="-0.919024">
        <ele>535.209</ele>
        <time>2025-03-17T14:56:40Z</time>
      </trkpt>
      <trkpt lat="41.902066" lon="-0.919322">
        <ele>537.229</ele>
        <time>2025-03-17T14:56:49Z</time>
      </trkpt>
      <trkpt lat="41.903868" lon="-0.919151">
        <ele>544.827</ele>
        <time>2025-03-17T14:57:20Z</time>
      </trkpt>
      <trkpt lat="41.905132" lon="-0.918074">
        <ele>545.492</ele>
        <time>2025-03-17T14:57:48Z</time>
      </trkpt>
      <trkpt lat="41.905630" lon="-0.917848">
        <ele>549.669</ele>
        <time>2025-03-17T14:57:58Z</time>
      </trkpt>
      <trkpt lat="41.909513" lon="-0.918088">
        <ele>563.019</ele>
        <time>2025-03-17T14:59:17Z</time>
      </trkpt>
      <trkpt lat="41.911177" lon="-0.918355">
        <ele>565.275</ele>
        <time>2025-03-17T14:59:42Z</time>
      </trkpt>
      <trkpt lat="41.911653" lon="-0.918675">
        <ele>569.143</ele>
        <time>2025-03-17T14:59:53Z</time>
      </trkpt>
      <trkpt lat="41.913352" lon="-0.920945">
        <ele>579.720</ele>
        <time>2025-03-17T15:00:46Z</time>
      </trkpt>
      <trkpt lat="41.914334" lon="-0.922954">
        <ele>584.875</ele>
        <time>2025-03-17T15:01:24Z</time>
      </trkpt>
      <trkpt lat="41.915579" lon="-0.923919">
        <ele>595.864</ele>
        <time>2025-03-17T15:01:56Z</time>
      </trkpt>
      <trkpt lat="41.916435" lon="-0.925864">
        <ele>602.006</ele>
        <time>2025-03-17T15:02:30Z</time>
      </trkpt>
      <trkpt lat="41.918522" lon="-0.928249">
        <ele>614.216</ele>
        <time>2025-03-17T15:03:22Z</time>
      </trkpt>
      <trkpt lat="41.920058" lon="-0.930767">
        <ele>628.809</ele>
        <time>2025-03-17T15:04:11Z</time>
      </trkpt>
      <trkpt lat="41.920539" lon="-0.931119">
        <ele>630.728</ele>
        <time>2025-03-17T15:04:26Z</time>
      </trkpt>
      <trkpt lat="41.921766" lon="-0.931557">
        <ele>639.636</ele>
        <time>2025-03-17T15:05:00Z</time>
      </trkpt>
      <trkpt lat="41.923259" lon="-0.932879">
        <ele>638.521</ele>
        <time>2025-03-17T15:05:33Z</time>
      </trkpt>
      <trkpt lat="41.924475" lon="-0.934391">
        <ele>652.628</ele>
        <time>2025-03-17T15:06:06Z</time>
      </trkpt>
      <trkpt lat="41.924781" lon="-0.934475">
        <ele>655.668</ele>
        <time>2025-03-17T15:06:13Z</time>
      </trkpt>
      <trkpt lat="41.925007" lon="-0.934346">
        <ele>655.844</ele>
        <time>2025-03-17T15:06:19Z</time>
      </trkpt>
      <trkpt lat="41.925747" lon="-0.933011">
        <ele>666.162</ele>
        <time>2025-03-17T15:06:51Z</time>
      </trkpt>
      <trkpt lat="41.926850" lon="-0.932532">
        <ele>672.619</ele>
        <time>2025-03-17T15:07:20Z</time>
      </trkpt>
      <trkpt lat="41.927272" lon="-0.932595">
        <ele>674.954</ele>
        <time>2025-03-17T15:07:30Z</time>
      </trkpt>
      <trkpt lat="41.928502" lon="-0.933333">
        <ele>673.011</ele>
        <time>2025-03-17T15:07:59Z</time>
      </trkpt>
      <trkpt lat="41.931664" lon="-0.933068">
        <ele>681.921</ele>
        <time>2025-03-17T15:08:58Z</time>
      </trkpt>
      <trkpt lat="41.932325" lon="-0.933278">
        <ele>683.603</ele>
        <time>2025-03-17T15:09:10Z</time>
      </trkpt>
      <trkpt lat="41.933023" lon="-0.933805">
        <ele>687.609</ele>
        <time>2025-03-17T15:09:24Z</time>
      </trkpt>
      <trkpt lat="41.934738" lon="-0.936020">
        <ele>703.393</ele>
        <time>2025-03-17T15:10:09Z</time>
      </trkpt>
    </trkseg>
  </trk></gpx>