<?xml version="1.0" encoding="UTF-8"?>
<gpx creator="Wikiloc - https://www.wikiloc.com" version="1.1" xmlns="http://www.topografix.com/GPX/1/1" xmlns:xsi="http://www.w3.org/2001/XMLSchema-instance" xsi:schemaLocation="http://www.topografix.com/GPX/1/1 http://www.topografix.com/GPX/1/1/gpx.xsd">
  <metadata>
    <name>Wikiloc - ALTO DEL MONASTERIO DE MONTSERRAT (por Monistrol de Monserra...</name>
    <link href="https://www.wikiloc.com/cycling-trails/alto-del-monasterio-de-montserrat-por-monistrol-de-monserrat-269710414">
      <text>ALTO DEL MONASTERIO DE MONTSERRAT (por Monistrol de Monserra... on Wikiloc</text>
    </link>
    <time>2026-07-16T10:20:05.020Z</time>
  </metadata>
  <trk>
    <name>ALTO DEL MONASTERIO DE MONTSERRAT (por Monistrol de Monserra... - Wikiloc</name>
    <cmt></cmt>
    <desc></desc>
    <trkseg>
      <trkpt lat="41.609190" lon="1.843710">
        <ele>165.816</ele>
        <time>2026-07-16T10:20:05.018Z</time>
      </trkpt>
      <trkpt lat="41.609100" lon="1.843550">
        <ele>167.876</ele>
        <time>2026-07-16T10:20:25.018Z</time>
      </trkpt>
      <trkpt lat="41.609090" lon="1.843460">
        <ele>168.413</ele>
        <time>2026-07-16T10:20:45.018Z</time>
      </trkpt>
      <trkpt lat="41.609110" lon="1.843360">
        <ele>168.009</ele>
        <time>2026-07-16T10:21:05.018Z</time>
      </trkpt>
      <trkpt lat="41.609140" lon="1.843250">
        <ele>167.373</ele>
        <time>2026-07-16T10:21:25.018Z</time>
      </trkpt>
      <trkpt lat="41.609230" lon="1.843140">
        <ele>165.547</ele>
        <time>2026-07-16T10:21:45.018Z</time>
      </trkpt>
      <trkpt lat="41.609330" lon="1.843010">
        <ele>164.570</ele>
        <time>2026-07-16T10:22:05.018Z</time>
      </trkpt>
      <trkpt lat="41.609350" lon="1.842930">
        <ele>164.888</ele>
        <time>2026-07-16T10:22:25.018Z</time>
      </trkpt>
      <trkpt lat="41.609340" lon="1.842820">
        <ele>165.942</ele>
        <time>2026-07-16T10:22:45.018Z</time>
      </trkpt>
      <trkpt lat="41.609310" lon="1.842700">
        <ele>167.951</ele>
        <time>2026-07-16T10:23:05.018Z</time>
      </trkpt>
      <trkpt lat="41.609250" lon="1.842610">
        <ele>170.235</ele>
        <time>2026-07-16T10:23:25.018Z</time>
      </trkpt>
      <trkpt lat="41.609170" lon="1.842550">
        <ele>172.432</ele>
        <time>2026-07-16T10:23:45.018Z</time>
      </trkpt>
      <trkpt lat="41.609060" lon="1.842510">
        <ele>175.625</ele>
        <time>2026-07-16T10:24:05.018Z</time>
      </trkpt>
      <trkpt lat="41.608980" lon="1.842420">
        <ele>177.676</ele>
        <time>2026-07-16T10:24:25.018Z</time>
      </trkpt>
      <trkpt lat="41.608960" lon="1.842360">
        <ele>178.090</ele>
        <time>2026-07-16T10:24:45.018Z</time>
      </trkpt>
      <trkpt lat="41.608960" lon="1.842260">
        <ele>177.819</ele>
        <time>2026-07-16T10:25:05.018Z</time>
      </trkpt>
      <trkpt lat="41.608990" lon="1.842140">
        <ele>177.509</ele>
        <time>2026-07-16T10:25:25.018Z</time>
      </trkpt>
      <trkpt lat="41.609100" lon="1.841890">
        <ele>176.149</ele>
        <time>2026-07-16T10:25:45.018Z</time>
      </trkpt>
      <trkpt lat="41.609160" lon="1.841740">
        <ele>174.453</ele>
        <time>2026-07-16T10:26:05.018Z</time>
      </trkpt>
      <trkpt lat="41.609170" lon="1.841640">
        <ele>174.076</ele>
        <time>2026-07-16T10:26:25.018Z</time>
      </trkpt>
      <trkpt lat="41.609160" lon="1.841500">
        <ele>174.224</ele>
        <time>2026-07-16T10:26:45.018Z</time>
      </trkpt>
      <trkpt lat="41.609140" lon="1.841420">
        <ele>174.858</ele>
        <time>2026-07-16T10:27:05.018Z</time>
      </trkpt>
      <trkpt lat="41.609100" lon="1.841320">
        <ele>176.717</ele>
        <time>2026-07-16T10:27:25.018Z</time>
      </trkpt>
      <trkpt lat="41.609010" lon="1.841220">
        <ele>180.621</ele>
        <time>2026-07-16T10:27:45.018Z</time>
      </trkpt>
      <trkpt lat="41.608780" lon="1.841100">
        <ele>188.158</ele>
        <time>2026-07-16T10:28:05.018Z</time>
      </trkpt>
      <trkpt lat="41.608720" lon="1.841020">
        <ele>190.251</ele>
        <time>2026-07-16T10:28:25.018Z</time>
      </trkpt>
      <trkpt lat="41.608690" lon="1.840960">
        <ele>191.414</ele>
        <time>2026-07-16T10:28:45.018Z</time>
      </trkpt>
      <trkpt lat="41.608680" lon="1.840870">
        <ele>192.654</ele>
        <time>2026-07-16T10:29:05.018Z</time>
      </trkpt>
      <trkpt lat="41.608700" lon="1.840790">
        <ele>193.509</ele>
        <time>2026-07-16T10:29:25.018Z</time>
      </trkpt>
      <trkpt lat="41.608720" lon="1.840730">
        <ele>194.309</ele>
        <time>2026-07-16T10:29:45.018Z</time>
      </trkpt>
      <trkpt lat="41.608760" lon="1.840690">
        <ele>194.483</ele>
        <time>2026-07-16T10:30:05.018Z</time>
      </trkpt>
      <trkpt lat="41.608990" lon="1.840630">
        <ele>191.027</ele>
        <time>2026-07-16T10:30:25.018Z</time>
      </trkpt>
      <trkpt lat="41.609080" lon="1.840590">
        <ele>189.590</ele>
        <time>2026-07-16T10:30:45.018Z</time>
      </trkpt>
      <trkpt lat="41.609190" lon="1.840510">
        <ele>187.718</ele>
        <time>2026-07-16T10:31:05.018Z</time>
      </trkpt>
      <trkpt lat="41.609240" lon="1.840420">
        <ele>186.832</ele>
        <time>2026-07-16T10:31:25.018Z</time>
      </trkpt>
      <trkpt lat="41.609260" lon="1.840370">
        <ele>186.631</ele>
        <time>2026-07-16T10:31:45.018Z</time>
      </trkpt>
      <trkpt lat="41.609270" lon="1.840280">
        <ele>187.375</ele>
        <time>2026-07-16T10:32:05.018Z</time>
      </trkpt>
      <trkpt lat="41.609270" lon="1.840170">
        <ele>188.282</ele>
        <time>2026-07-16T10:32:25.018Z</time>
      </trkpt>
      <trkpt lat="41.609270" lon="1.840040">
        <ele>189.385</ele>
        <time>2026-07-16T10:32:45.018Z</time>
      </trkpt>
      <trkpt lat="41.609250" lon="1.839920">
        <ele>190.099</ele>
        <time>2026-07-16T10:33:05.018Z</time>
      </trkpt>
      <trkpt lat="41.609230" lon="1.839840">
        <ele>190.207</ele>
        <time>2026-07-16T10:33:25.018Z</time>
      </trkpt>
      <trkpt lat="41.609190" lon="1.839740">
        <ele>190.627</ele>
        <time>2026-07-16T10:33:45.018Z</time>
      </trkpt>
      <trkpt lat="41.608930" lon="1.839390">
        <ele>192.709</ele>
        <time>2026-07-16T10:34:05.018Z</time>
      </trkpt>
      <trkpt lat="41.608600" lon="1.838930">
        <ele>202.461</ele>
        <time>2026-07-16T10:34:25.018Z</time>
      </trkpt>
      <trkpt lat="41.608320" lon="1.838390">
        <ele>208.155</ele>
        <time>2026-07-16T10:34:45.018Z</time>
      </trkpt>
      <trkpt lat="41.608180" lon="1.838130">
        <ele>208.768</ele>
        <time>2026-07-16T10:35:05.018Z</time>
      </trkpt>
      <trkpt lat="41.607920" lon="1.837620">
        <ele>209.276</ele>
        <time>2026-07-16T10:35:25.018Z</time>
      </trkpt>
      <trkpt lat="41.607900" lon="1.837540">
        <ele>209.370</ele>
        <time>2026-07-16T10:35:45.018Z</time>
      </trkpt>
      <trkpt lat="41.607900" lon="1.837460">
        <ele>210.219</ele>
        <time>2026-07-16T10:36:05.018Z</time>
      </trkpt>
      <trkpt lat="41.607900" lon="1.837410">
        <ele>211.513</ele>
        <time>2026-07-16T10:36:25.018Z</time>
      </trkpt>
      <trkpt lat="41.607930" lon="1.837330">
        <ele>213.170</ele>
        <time>2026-07-16T10:36:45.018Z</time>
      </trkpt>
      <trkpt lat="41.607960" lon="1.837280">
        <ele>213.923</ele>
        <time>2026-07-16T10:37:05.018Z</time>
      </trkpt>
      <trkpt lat="41.607990" lon="1.837250">
        <ele>214.244</ele>
        <time>2026-07-16T10:37:25.018Z</time>
      </trkpt>
      <trkpt lat="41.608030" lon="1.837230">
        <ele>214.205</ele>
        <time>2026-07-16T10:37:45.018Z</time>
      </trkpt>
      <trkpt lat="41.608090" lon="1.837220">
        <ele>213.615</ele>
        <time>2026-07-16T10:38:05.018Z</time>
      </trkpt>
      <trkpt lat="41.608150" lon="1.837220">
        <ele>212.709</ele>
        <time>2026-07-16T10:38:25.018Z</time>
      </trkpt>
      <trkpt lat="41.608270" lon="1.837240">
        <ele>210.686</ele>
        <time>2026-07-16T10:38:45.018Z</time>
      </trkpt>
      <trkpt lat="41.608340" lon="1.837250">
        <ele>209.480</ele>
        <time>2026-07-16T10:39:05.018Z</time>
      </trkpt>
      <trkpt lat="41.608380" lon="1.837240">
        <ele>208.963</ele>
        <time>2026-07-16T10:39:25.018Z</time>
      </trkpt>
      <trkpt lat="41.608400" lon="1.837230">
        <ele>208.721</ele>
        <time>2026-07-16T10:39:45.018Z</time>
      </trkpt>
      <trkpt lat="41.608420" lon="1.837210">
        <ele>208.735</ele>
        <time>2026-07-16T10:40:05.018Z</time>
      </trkpt>
      <trkpt lat="41.608440" lon="1.837180">
        <ele>209.094</ele>
        <time>2026-07-16T10:40:25.018Z</time>
      </trkpt>
      <trkpt lat="41.608470" lon="1.837120">
        <ele>209.448</ele>
        <time>2026-07-16T10:40:45.018Z</time>
      </trkpt>
      <trkpt lat="41.608480" lon="1.837050">
        <ele>210.335</ele>
        <time>2026-07-16T10:41:05.018Z</time>
      </trkpt>
      <trkpt lat="41.608480" lon="1.836910">
        <ele>212.768</ele>
        <time>2026-07-16T10:41:25.018Z</time>
      </trkpt>
      <trkpt lat="41.608430" lon="1.836480">
        <ele>220.932</ele>
        <time>2026-07-16T10:41:45.018Z</time>
      </trkpt>
      <trkpt lat="41.608430" lon="1.836410">
        <ele>221.692</ele>
        <time>2026-07-16T10:42:05.018Z</time>
      </trkpt>
      <trkpt lat="41.608450" lon="1.836350">
        <ele>220.811</ele>
        <time>2026-07-16T10:42:25.018Z</time>
      </trkpt>
      <trkpt lat="41.608470" lon="1.836300">
        <ele>219.909</ele>
        <time>2026-07-16T10:42:45.018Z</time>
      </trkpt>
      <trkpt lat="41.608510" lon="1.836230">
        <ele>218.215</ele>
        <time>2026-07-16T10:43:05.018Z</time>
      </trkpt>
      <trkpt lat="41.608570" lon="1.836110">
        <ele>215.939</ele>
        <time>2026-07-16T10:43:25.018Z</time>
      </trkpt>
      <trkpt lat="41.608590" lon="1.836040">
        <ele>215.562</ele>
        <time>2026-07-16T10:43:45.018Z</time>
      </trkpt>
      <trkpt lat="41.608580" lon="1.835950">
        <ele>216.570</ele>
        <time>2026-07-16T10:44:05.018Z</time>
      </trkpt>
      <trkpt lat="41.608560" lon="1.835820">
        <ele>218.114</ele>
        <time>2026-07-16T10:44:25.018Z</time>
      </trkpt>
      <trkpt lat="41.608490" lon="1.835630">
        <ele>221.773</ele>
        <time>2026-07-16T10:44:45.018Z</time>
      </trkpt>
      <trkpt lat="41.608420" lon="1.835410">
        <ele>224.557</ele>
        <time>2026-07-16T10:45:05.018Z</time>
      </trkpt>
      <trkpt lat="41.608320" lon="1.834950">
        <ele>228.634</ele>
        <time>2026-07-16T10:45:25.018Z</time>
      </trkpt>
      <trkpt lat="41.608260" lon="1.834530">
        <ele>233.377</ele>
        <time>2026-07-16T10:45:45.018Z</time>
      </trkpt>
      <trkpt lat="41.608260" lon="1.834380">
        <ele>234.692</ele>
        <time>2026-07-16T10:46:05.018Z</time>
      </trkpt>
      <trkpt lat="41.608300" lon="1.834090">
        <ele>235.573</ele>
        <time>2026-07-16T10:46:25.018Z</time>
      </trkpt>
      <trkpt lat="41.608370" lon="1.833810">
        <ele>236.620</ele>
        <time>2026-07-16T10:46:45.018Z</time>
      </trkpt>
      <trkpt lat="41.608420" lon="1.833680">
        <ele>237.409</ele>
        <time>2026-07-16T10:47:05.018Z</time>
      </trkpt>
      <trkpt lat="41.608470" lon="1.833580">
        <ele>237.941</ele>
        <time>2026-07-16T10:47:25.018Z</time>
      </trkpt>
      <trkpt lat="41.608550" lon="1.833470">
        <ele>238.285</ele>
        <time>2026-07-16T10:47:45.018Z</time>
      </trkpt>
      <trkpt lat="41.608600" lon="1.833400">
        <ele>238.448</ele>
        <time>2026-07-16T10:48:05.018Z</time>
      </trkpt>
      <trkpt lat="41.608640" lon="1.833370">
        <ele>238.876</ele>
        <time>2026-07-16T10:48:25.018Z</time>
      </trkpt>
      <trkpt lat="41.608690" lon="1.833360">
        <ele>239.380</ele>
        <time>2026-07-16T10:48:45.018Z</time>
      </trkpt>
      <trkpt lat="41.608750" lon="1.833350">
        <ele>239.999</ele>
        <time>2026-07-16T10:49:05.018Z</time>
      </trkpt>
      <trkpt lat="41.608790" lon="1.833370">
        <ele>240.093</ele>
        <time>2026-07-16T10:49:25.018Z</time>
      </trkpt>
      <trkpt lat="41.608860" lon="1.833420">
        <ele>240.130</ele>
        <time>2026-07-16T10:49:45.018Z</time>
      </trkpt>
      <trkpt lat="41.608910" lon="1.833510">
        <ele>240.393</ele>
        <time>2026-07-16T10:50:05.018Z</time>
      </trkpt>
      <trkpt lat="41.608950" lon="1.833700">
        <ele>240.193</ele>
        <time>2026-07-16T10:50:25.018Z</time>
      </trkpt>
      <trkpt lat="41.608960" lon="1.834040">
        <ele>236.765</ele>
        <time>2026-07-16T10:50:45.018Z</time>
      </trkpt>
      <trkpt lat="41.608970" lon="1.834120">
        <ele>235.821</ele>
        <time>2026-07-16T10:51:05.018Z</time>
      </trkpt>
      <trkpt lat="41.608990" lon="1.834180">
        <ele>235.309</ele>
        <time>2026-07-16T10:51:25.018Z</time>
      </trkpt>
      <trkpt lat="41.609020" lon="1.834240">
        <ele>235.081</ele>
        <time>2026-07-16T10:51:45.018Z</time>
      </trkpt>
      <trkpt lat="41.609060" lon="1.834290">
        <ele>235.185</ele>
        <time>2026-07-16T10:52:05.018Z</time>
      </trkpt>
      <trkpt lat="41.609150" lon="1.834320">
        <ele>236.848</ele>
        <time>2026-07-16T10:52:25.018Z</time>
      </trkpt>
      <trkpt lat="41.609310" lon="1.834340">
        <ele>242.926</ele>
        <time>2026-07-16T10:52:45.018Z</time>
      </trkpt>
      <trkpt lat="41.609360" lon="1.834370">
        <ele>244.550</ele>
        <time>2026-07-16T10:53:05.018Z</time>
      </trkpt>
      <trkpt lat="41.609420" lon="1.834410">
        <ele>246.559</ele>
        <time>2026-07-16T10:53:25.018Z</time>
      </trkpt>
      <trkpt lat="41.609520" lon="1.834560">
        <ele>247.283</ele>
        <time>2026-07-16T10:53:45.018Z</time>
      </trkpt>
      <trkpt lat="41.609810" lon="1.835010">
        <ele>248.340</ele>
        <time>2026-07-16T10:54:05.018Z</time>
      </trkpt>
      <trkpt lat="41.610100" lon="1.835340">
        <ele>249.113</ele>
        <time>2026-07-16T10:54:25.018Z</time>
      </trkpt>
      <trkpt lat="41.610200" lon="1.835410">
        <ele>248.616</ele>
        <time>2026-07-16T10:54:45.018Z</time>
      </trkpt>
      <trkpt lat="41.610260" lon="1.835440">
        <ele>248.576</ele>
        <time>2026-07-16T10:55:05.018Z</time>
      </trkpt>
      <trkpt lat="41.610330" lon="1.835440">
        <ele>249.513</ele>
        <time>2026-07-16T10:55:25.018Z</time>
      </trkpt>
      <trkpt lat="41.610620" lon="1.835380">
        <ele>255.709</ele>
        <time>2026-07-16T10:55:45.018Z</time>
      </trkpt>
      <trkpt lat="41.611060" lon="1.835280">
        <ele>265.593</ele>
        <time>2026-07-16T10:56:05.018Z</time>
      </trkpt>
      <trkpt lat="41.611190" lon="1.835270">
        <ele>267.237</ele>
        <time>2026-07-16T10:56:25.018Z</time>
      </trkpt>
      <trkpt lat="41.611310" lon="1.835290">
        <ele>267.650</ele>
        <time>2026-07-16T10:56:45.018Z</time>
      </trkpt>
      <trkpt lat="41.611440" lon="1.835370">
        <ele>266.738</ele>
        <time>2026-07-16T10:57:05.018Z</time>
      </trkpt>
      <trkpt lat="41.611620" lon="1.835540">
        <ele>267.592</ele>
        <time>2026-07-16T10:57:25.018Z</time>
      </trkpt>
      <trkpt lat="41.611990" lon="1.836010">
        <ele>273.211</ele>
        <time>2026-07-16T10:57:45.018Z</time>
      </trkpt>
      <trkpt lat="41.612130" lon="1.836240">
        <ele>274.535</ele>
        <time>2026-07-16T10:58:05.018Z</time>
      </trkpt>
      <trkpt lat="41.612260" lon="1.836510">
        <ele>276.712</ele>
        <time>2026-07-16T10:58:25.019Z</time>
      </trkpt>
      <trkpt lat="41.612370" lon="1.836790">
        <ele>278.735</ele>
        <time>2026-07-16T10:58:45.019Z</time>
      </trkpt>
      <trkpt lat="41.612450" lon="1.837070">
        <ele>278.591</ele>
        <time>2026-07-16T10:59:05.019Z</time>
      </trkpt>
      <trkpt lat="41.612550" lon="1.837400">
        <ele>277.981</ele>
        <time>2026-07-16T10:59:25.019Z</time>
      </trkpt>
      <trkpt lat="41.612610" lon="1.837490">
        <ele>278.719</ele>
        <time>2026-07-16T10:59:45.019Z</time>
      </trkpt>
      <trkpt lat="41.612660" lon="1.837530">
        <ele>279.709</ele>
        <time>2026-07-16T11:00:05.019Z</time>
      </trkpt>
      <trkpt lat="41.612740" lon="1.837550">
        <ele>281.881</ele>
        <time>2026-07-16T11:00:25.019Z</time>
      </trkpt>
      <trkpt lat="41.612850" lon="1.837550">
        <ele>284.725</ele>
        <time>2026-07-16T11:00:45.019Z</time>
      </trkpt>
      <trkpt lat="41.612950" lon="1.837560">
        <ele>286.928</ele>
        <time>2026-07-16T11:01:05.019Z</time>
      </trkpt>
      <trkpt lat="41.613010" lon="1.837580">
        <ele>287.926</ele>
        <time>2026-07-16T11:01:25.019Z</time>
      </trkpt>
      <trkpt lat="41.613080" lon="1.837640">
        <ele>287.960</ele>
        <time>2026-07-16T11:01:45.019Z</time>
      </trkpt>
      <trkpt lat="41.613150" lon="1.837750">
        <ele>286.159</ele>
        <time>2026-07-16T11:02:05.019Z</time>
      </trkpt>
      <trkpt lat="41.613250" lon="1.837990">
        <ele>281.563</ele>
        <time>2026-07-16T11:02:25.019Z</time>
      </trkpt>
      <trkpt lat="41.613320" lon="1.838150">
        <ele>279.870</ele>
        <time>2026-07-16T11:02:45.019Z</time>
      </trkpt>
      <trkpt lat="41.613390" lon="1.838190">
        <ele>279.793</ele>
        <time>2026-07-16T11:03:05.019Z</time>
      </trkpt>
      <trkpt lat="41.613490" lon="1.838190">
        <ele>279.817</ele>
        <time>2026-07-16T11:03:25.019Z</time>
      </trkpt>
      <trkpt lat="41.613600" lon="1.838120">
        <ele>281.087</ele>
        <time>2026-07-16T11:03:45.019Z</time>
      </trkpt>
      <trkpt lat="41.613690" lon="1.838030">
        <ele>280.215</ele>
        <time>2026-07-16T11:04:05.019Z</time>
      </trkpt>
      <trkpt lat="41.613880" lon="1.837730">
        <ele>287.109</ele>
        <time>2026-07-16T11:04:25.019Z</time>
      </trkpt>
      <trkpt lat="41.614160" lon="1.837380">
        <ele>301.223</ele>
        <time>2026-07-16T11:04:45.019Z</time>
      </trkpt>
      <trkpt lat="41.614280" lon="1.837300">
        <ele>302.297</ele>
        <time>2026-07-16T11:05:05.019Z</time>
      </trkpt>
      <trkpt lat="41.614400" lon="1.837280">
        <ele>299.930</ele>
        <time>2026-07-16T11:05:25.019Z</time>
      </trkpt>
      <trkpt lat="41.614580" lon="1.837280">
        <ele>300.288</ele>
        <time>2026-07-16T11:05:45.019Z</time>
      </trkpt>
      <trkpt lat="41.614770" lon="1.837290">
        <ele>302.632</ele>
        <time>2026-07-16T11:06:05.019Z</time>
      </trkpt>
      <trkpt lat="41.615110" lon="1.837430">
        <ele>306.061</ele>
        <time>2026-07-16T11:06:25.019Z</time>
      </trkpt>
      <trkpt lat="41.615510" lon="1.837750">
        <ele>303.875</ele>
        <time>2026-07-16T11:06:45.019Z</time>
      </trkpt>
      <trkpt lat="41.615900" lon="1.837990">
        <ele>303.162</ele>
        <time>2026-07-16T11:07:05.019Z</time>
      </trkpt>
      <trkpt lat="41.615970" lon="1.838010">
        <ele>303.355</ele>
        <time>2026-07-16T11:07:25.019Z</time>
      </trkpt>
      <trkpt lat="41.616000" lon="1.838000">
        <ele>303.774</ele>
        <time>2026-07-16T11:07:45.019Z</time>
      </trkpt>
      <trkpt lat="41.616040" lon="1.837980">
        <ele>304.356</ele>
        <time>2026-07-16T11:08:05.019Z</time>
      </trkpt>
      <trkpt lat="41.616060" lon="1.837940">
        <ele>305.021</ele>
        <time>2026-07-16T11:08:25.019Z</time>
      </trkpt>
      <trkpt lat="41.616090" lon="1.837870">
        <ele>306.009</ele>
        <time>2026-07-16T11:08:45.019Z</time>
      </trkpt>
      <trkpt lat="41.616110" lon="1.837790">
        <ele>306.939</ele>
        <time>2026-07-16T11:09:05.019Z</time>
      </trkpt>
      <trkpt lat="41.616110" lon="1.837730">
        <ele>307.053</ele>
        <time>2026-07-16T11:09:25.019Z</time>
      </trkpt>
      <trkpt lat="41.616110" lon="1.837670">
        <ele>307.056</ele>
        <time>2026-07-16T11:09:45.019Z</time>
      </trkpt>
      <trkpt lat="41.616060" lon="1.837520">
        <ele>308.674</ele>
        <time>2026-07-16T11:10:05.019Z</time>
      </trkpt>
      <trkpt lat="41.615900" lon="1.837240">
        <ele>313.678</ele>
        <time>2026-07-16T11:10:25.019Z</time>
      </trkpt>
      <trkpt lat="41.615730" lon="1.836940">
        <ele>320.017</ele>
        <time>2026-07-16T11:10:45.019Z</time>
      </trkpt>
      <trkpt lat="41.615610" lon="1.836550">
        <ele>324.841</ele>
        <time>2026-07-16T11:11:05.019Z</time>
      </trkpt>
      <trkpt lat="41.615590" lon="1.836410">
        <ele>325.648</ele>
        <time>2026-07-16T11:11:25.019Z</time>
      </trkpt>
      <trkpt lat="41.615590" lon="1.836340">
        <ele>326.341</ele>
        <time>2026-07-16T11:11:45.019Z</time>
      </trkpt>
      <trkpt lat="41.615600" lon="1.836260">
        <ele>327.093</ele>
        <time>2026-07-16T11:12:05.019Z</time>
      </trkpt>
      <trkpt lat="41.615620" lon="1.836170">
        <ele>327.465</ele>
        <time>2026-07-16T11:12:25.019Z</time>
      </trkpt>
      <trkpt lat="41.615700" lon="1.836000">
        <ele>327.721</ele>
        <time>2026-07-16T11:12:45.019Z</time>
      </trkpt>
      <trkpt lat="41.615840" lon="1.835830">
        <ele>324.809</ele>
        <time>2026-07-16T11:13:05.019Z</time>
      </trkpt>
      <trkpt lat="41.615970" lon="1.835700">
        <ele>323.281</ele>
        <time>2026-07-16T11:13:25.019Z</time>
      </trkpt>
      <trkpt lat="41.616030" lon="1.835620">
        <ele>323.155</ele>
        <time>2026-07-16T11:13:45.019Z</time>
      </trkpt>
      <trkpt lat="41.616060" lon="1.835550">
        <ele>323.998</ele>
        <time>2026-07-16T11:14:05.019Z</time>
      </trkpt>
      <trkpt lat="41.616070" lon="1.835490">
        <ele>323.956</ele>
        <time>2026-07-16T11:14:25.019Z</time>
      </trkpt>
      <trkpt lat="41.616070" lon="1.835420">
        <ele>324.430</ele>
        <time>2026-07-16T11:14:45.019Z</time>
      </trkpt>
      <trkpt lat="41.616020" lon="1.835300">
        <ele>326.839</ele>
        <time>2026-07-16T11:15:05.019Z</time>
      </trkpt>
      <trkpt lat="41.615860" lon="1.834960">
        <ele>330.343</ele>
        <time>2026-07-16T11:15:25.019Z</time>
      </trkpt>
      <trkpt lat="41.615620" lon="1.834480">
        <ele>337.180</ele>
        <time>2026-07-16T11:15:45.019Z</time>
      </trkpt>
      <trkpt lat="41.615370" lon="1.834020">
        <ele>338.363</ele>
        <time>2026-07-16T11:16:05.019Z</time>
      </trkpt>
      <trkpt lat="41.615270" lon="1.833870">
        <ele>338.997</ele>
        <time>2026-07-16T11:16:25.019Z</time>
      </trkpt>
      <trkpt lat="41.615110" lon="1.833740">
        <ele>341.523</ele>
        <time>2026-07-16T11:16:45.019Z</time>
      </trkpt>
      <trkpt lat="41.614820" lon="1.833460">
        <ele>344.425</ele>
        <time>2026-07-16T11:17:05.019Z</time>
      </trkpt>
      <trkpt lat="41.614570" lon="1.833180">
        <ele>348.709</ele>
        <time>2026-07-16T11:17:25.019Z</time>
      </trkpt>
      <trkpt lat="41.614450" lon="1.832970">
        <ele>352.151</ele>
        <time>2026-07-16T11:17:45.019Z</time>
      </trkpt>
      <trkpt lat="41.614360" lon="1.832730">
        <ele>353.475</ele>
        <time>2026-07-16T11:18:05.019Z</time>
      </trkpt>
      <trkpt lat="41.614300" lon="1.832580">
        <ele>353.488</ele>
        <time>2026-07-16T11:18:25.019Z</time>
      </trkpt>
      <trkpt lat="41.614200" lon="1.832470">
        <ele>355.656</ele>
        <time>2026-07-16T11:18:45.019Z</time>
      </trkpt>
      <trkpt lat="41.614080" lon="1.832350">
        <ele>358.660</ele>
        <time>2026-07-16T11:19:05.019Z</time>
      </trkpt>
      <trkpt lat="41.613990" lon="1.832260">
        <ele>360.439</ele>
        <time>2026-07-16T11:19:25.019Z</time>
      </trkpt>
      <trkpt lat="41.613910" lon="1.832120">
        <ele>363.293</ele>
        <time>2026-07-16T11:19:45.019Z</time>
      </trkpt>
      <trkpt lat="41.613870" lon="1.832010">
        <ele>365.140</ele>
        <time>2026-07-16T11:20:05.019Z</time>
      </trkpt>
      <trkpt lat="41.613860" lon="1.831920">
        <ele>366.283</ele>
        <time>2026-07-16T11:20:25.019Z</time>
      </trkpt>
      <trkpt lat="41.613870" lon="1.831830">
        <ele>367.884</ele>
        <time>2026-07-16T11:20:45.019Z</time>
      </trkpt>
      <trkpt lat="41.613910" lon="1.831730">
        <ele>369.307</ele>
        <time>2026-07-16T11:21:05.019Z</time>
      </trkpt>
      <trkpt lat="41.614290" lon="1.831520">
        <ele>369.017</ele>
        <time>2026-07-16T11:21:25.019Z</time>
      </trkpt>
      <trkpt lat="41.614720" lon="1.831360">
        <ele>368.009</ele>
        <time>2026-07-16T11:21:45.019Z</time>
      </trkpt>
      <trkpt lat="41.615230" lon="1.831380">
        <ele>366.670</ele>
        <time>2026-07-16T11:22:05.019Z</time>
      </trkpt>
      <trkpt lat="41.615670" lon="1.831350">
        <ele>364.634</ele>
        <time>2026-07-16T11:22:25.019Z</time>
      </trkpt>
      <trkpt lat="41.616060" lon="1.831120">
        <ele>366.467</ele>
        <time>2026-07-16T11:22:45.019Z</time>
      </trkpt>
      <trkpt lat="41.616090" lon="1.831080">
        <ele>366.285</ele>
        <time>2026-07-16T11:23:05.019Z</time>
      </trkpt>
      <trkpt lat="41.616090" lon="1.830900">
        <ele>365.789</ele>
        <time>2026-07-16T11:23:25.019Z</time>
      </trkpt>
      <trkpt lat="41.615870" lon="1.830620">
        <ele>369.938</ele>
        <time>2026-07-16T11:23:45.019Z</time>
      </trkpt>
      <trkpt lat="41.615480" lon="1.830290">
        <ele>379.362</ele>
        <time>2026-07-16T11:24:05.019Z</time>
      </trkpt>
      <trkpt lat="41.615060" lon="1.829990">
        <ele>382.789</ele>
        <time>2026-07-16T11:24:25.019Z</time>
      </trkpt>
      <trkpt lat="41.614660" lon="1.829820">
        <ele>386.092</ele>
        <time>2026-07-16T11:24:45.019Z</time>
      </trkpt>
      <trkpt lat="41.614330" lon="1.829440">
        <ele>391.419</ele>
        <time>2026-07-16T11:25:05.019Z</time>
      </trkpt>
      <trkpt lat="41.614010" lon="1.828990">
        <ele>391.709</ele>
        <time>2026-07-16T11:25:25.019Z</time>
      </trkpt>
      <trkpt lat="41.613520" lon="1.828400">
        <ele>399.719</ele>
        <time>2026-07-16T11:25:45.019Z</time>
      </trkpt>
      <trkpt lat="41.613080" lon="1.828090">
        <ele>403.209</ele>
        <time>2026-07-16T11:26:05.019Z</time>
      </trkpt>
      <trkpt lat="41.612810" lon="1.827920">
        <ele>410.443</ele>
        <time>2026-07-16T11:26:25.019Z</time>
      </trkpt>
      <trkpt lat="41.612650" lon="1.827640">
        <ele>414.987</ele>
        <time>2026-07-16T11:26:45.019Z</time>
      </trkpt>
      <trkpt lat="41.612410" lon="1.827090">
        <ele>417.730</ele>
        <time>2026-07-16T11:27:05.019Z</time>
      </trkpt>
      <trkpt lat="41.612190" lon="1.826590">
        <ele>412.698</ele>
        <time>2026-07-16T11:27:25.019Z</time>
      </trkpt>
      <trkpt lat="41.611890" lon="1.826120">
        <ele>417.992</ele>
        <time>2026-07-16T11:27:45.019Z</time>
      </trkpt>
      <trkpt lat="41.611650" lon="1.825670">
        <ele>422.121</ele>
        <time>2026-07-16T11:28:05.019Z</time>
      </trkpt>
      <trkpt lat="41.611470" lon="1.825160">
        <ele>422.385</ele>
        <time>2026-07-16T11:28:25.019Z</time>
      </trkpt>
      <trkpt lat="41.611280" lon="1.824680">
        <ele>421.892</ele>
        <time>2026-07-16T11:28:45.019Z</time>
      </trkpt>
      <trkpt lat="41.611070" lon="1.824470">
        <ele>423.395</ele>
        <time>2026-07-16T11:29:05.019Z</time>
      </trkpt>
      <trkpt lat="41.610690" lon="1.824340">
        <ele>435.927</ele>
        <time>2026-07-16T11:29:25.019Z</time>
      </trkpt>
      <trkpt lat="41.610500" lon="1.824240">
        <ele>442.168</ele>
        <time>2026-07-16T11:29:45.019Z</time>
      </trkpt>
      <trkpt lat="41.610420" lon="1.824140">
        <ele>442.314</ele>
        <time>2026-07-16T11:30:05.019Z</time>
      </trkpt>
      <trkpt lat="41.610200" lon="1.823680">
        <ele>438.909</ele>
        <time>2026-07-16T11:30:25.019Z</time>
      </trkpt>
      <trkpt lat="41.610080" lon="1.823120">
        <ele>445.084</ele>
        <time>2026-07-16T11:30:45.019Z</time>
      </trkpt>
      <trkpt lat="41.610190" lon="1.822950">
        <ele>445.618</ele>
        <time>2026-07-16T11:31:05.019Z</time>
      </trkpt>
      <trkpt lat="41.610310" lon="1.822920">
        <ele>443.911</ele>
        <time>2026-07-16T11:31:25.019Z</time>
      </trkpt>
      <trkpt lat="41.610580" lon="1.823000">
        <ele>440.579</ele>
        <time>2026-07-16T11:31:45.019Z</time>
      </trkpt>
      <trkpt lat="41.610990" lon="1.823080">
        <ele>439.463</ele>
        <time>2026-07-16T11:32:05.019Z</time>
      </trkpt>
      <trkpt lat="41.611370" lon="1.823000">
        <ele>450.332</ele>
        <time>2026-07-16T11:32:25.019Z</time>
      </trkpt>
      <trkpt lat="41.611560" lon="1.823020">
        <ele>455.316</ele>
        <time>2026-07-16T11:32:45.019Z</time>
      </trkpt>
      <trkpt lat="41.611790" lon="1.823090">
        <ele>459.123</ele>
        <time>2026-07-16T11:33:05.019Z</time>
      </trkpt>
      <trkpt lat="41.612170" lon="1.823420">
        <ele>455.656</ele>
        <time>2026-07-16T11:33:25.019Z</time>
      </trkpt>
      <trkpt lat="41.612570" lon="1.823630">
        <ele>458.362</ele>
        <time>2026-07-16T11:33:45.019Z</time>
      </trkpt>
      <trkpt lat="41.613000" lon="1.823740">
        <ele>459.983</ele>
        <time>2026-07-16T11:34:05.019Z</time>
      </trkpt>
      <trkpt lat="41.613310" lon="1.823740">
        <ele>460.611</ele>
        <time>2026-07-16T11:34:25.019Z</time>
      </trkpt>
      <trkpt lat="41.613350" lon="1.823580">
        <ele>461.809</ele>
        <time>2026-07-16T11:34:45.019Z</time>
      </trkpt>
      <trkpt lat="41.613290" lon="1.823430">
        <ele>463.298</ele>
        <time>2026-07-16T11:35:05.019Z</time>
      </trkpt>
      <trkpt lat="41.613090" lon="1.823310">
        <ele>466.652</ele>
        <time>2026-07-16T11:35:25.019Z</time>
      </trkpt>
      <trkpt lat="41.612980" lon="1.823270">
        <ele>468.325</ele>
        <time>2026-07-16T11:35:45.019Z</time>
      </trkpt>
      <trkpt lat="41.612560" lon="1.823150">
        <ele>472.533</ele>
        <time>2026-07-16T11:36:05.019Z</time>
      </trkpt>
      <trkpt lat="41.612170" lon="1.822970">
        <ele>472.987</ele>
        <time>2026-07-16T11:36:25.019Z</time>
      </trkpt>
      <trkpt lat="41.611820" lon="1.822640">
        <ele>479.436</ele>
        <time>2026-07-16T11:36:45.019Z</time>
      </trkpt>
      <trkpt lat="41.611350" lon="1.822450">
        <ele>480.140</ele>
        <time>2026-07-16T11:37:05.019Z</time>
      </trkpt>
      <trkpt lat="41.610930" lon="1.822240">
        <ele>486.697</ele>
        <time>2026-07-16T11:37:25.019Z</time>
      </trkpt>
      <trkpt lat="41.610590" lon="1.822010">
        <ele>491.050</ele>
        <time>2026-07-16T11:37:45.019Z</time>
      </trkpt>
      <trkpt lat="41.610250" lon="1.821760">
        <ele>497.637</ele>
        <time>2026-07-16T11:38:05.019Z</time>
      </trkpt>
      <trkpt lat="41.609850" lon="1.821650">
        <ele>503.349</ele>
        <time>2026-07-16T11:38:25.019Z</time>
      </trkpt>
      <trkpt lat="41.609240" lon="1.821660">
        <ele>508.913</ele>
        <time>2026-07-16T11:38:45.019Z</time>
      </trkpt>
      <trkpt lat="41.608800" lon="1.821830">
        <ele>515.309</ele>
        <time>2026-07-16T11:39:05.019Z</time>
      </trkpt>
      <trkpt lat="41.608490" lon="1.822310">
        <ele>517.845</ele>
        <time>2026-07-16T11:39:25.019Z</time>
      </trkpt>
      <trkpt lat="41.608420" lon="1.822540">
        <ele>518.839</ele>
        <time>2026-07-16T11:39:45.019Z</time>
      </trkpt>
      <trkpt lat="41.608400" lon="1.823110">
        <ele>521.962</ele>
        <time>2026-07-16T11:40:05.019Z</time>
      </trkpt>
      <trkpt lat="41.608520" lon="1.823690">
        <ele>518.860</ele>
        <time>2026-07-16T11:40:25.019Z</time>
      </trkpt>
      <trkpt lat="41.608720" lon="1.824200">
        <ele>521.844</ele>
        <time>2026-07-16T11:40:45.019Z</time>
      </trkpt>
      <trkpt lat="41.608880" lon="1.824710">
        <ele>524.153</ele>
        <time>2026-07-16T11:41:05.019Z</time>
      </trkpt>
      <trkpt lat="41.609000" lon="1.825430">
        <ele>532.787</ele>
        <time>2026-07-16T11:41:25.019Z</time>
      </trkpt>
      <trkpt lat="41.609020" lon="1.825750">
        <ele>535.054</ele>
        <time>2026-07-16T11:41:45.019Z</time>
      </trkpt>
      <trkpt lat="41.609000" lon="1.825810">
        <ele>535.577</ele>
        <time>2026-07-16T11:42:05.019Z</time>
      </trkpt>
      <trkpt lat="41.608880" lon="1.825880">
        <ele>535.689</ele>
        <time>2026-07-16T11:42:25.019Z</time>
      </trkpt>
      <trkpt lat="41.608790" lon="1.825870">
        <ele>535.206</ele>
        <time>2026-07-16T11:42:45.019Z</time>
      </trkpt>
      <trkpt lat="41.608590" lon="1.825650">
        <ele>537.026</ele>
        <time>2026-07-16T11:43:05.019Z</time>
      </trkpt>
      <trkpt lat="41.608230" lon="1.825520">
        <ele>541.709</ele>
        <time>2026-07-16T11:43:25.019Z</time>
      </trkpt>
      <trkpt lat="41.608000" lon="1.825780">
        <ele>541.880</ele>
        <time>2026-07-16T11:43:45.019Z</time>
      </trkpt>
      <trkpt lat="41.607850" lon="1.826150">
        <ele>539.744</ele>
        <time>2026-07-16T11:44:05.019Z</time>
      </trkpt>
      <trkpt lat="41.607580" lon="1.826330">
        <ele>540.997</ele>
        <time>2026-07-16T11:44:25.019Z</time>
      </trkpt>
      <trkpt lat="41.607130" lon="1.826280">
        <ele>543.695</ele>
        <time>2026-07-16T11:44:45.019Z</time>
      </trkpt>
      <trkpt lat="41.606850" lon="1.826230">
        <ele>542.329</ele>
        <time>2026-07-16T11:45:05.019Z</time>
      </trkpt>
      <trkpt lat="41.606730" lon="1.826140">
        <ele>545.158</ele>
        <time>2026-07-16T11:45:25.019Z</time>
      </trkpt>
      <trkpt lat="41.606490" lon="1.825910">
        <ele>550.112</ele>
        <time>2026-07-16T11:45:45.019Z</time>
      </trkpt>
      <trkpt lat="41.606340" lon="1.825900">
        <ele>549.969</ele>
        <time>2026-07-16T11:46:05.019Z</time>
      </trkpt>
      <trkpt lat="41.606040" lon="1.826000">
        <ele>545.652</ele>
        <time>2026-07-16T11:46:25.019Z</time>
      </trkpt>
      <trkpt lat="41.605760" lon="1.825860">
        <ele>549.696</ele>
        <time>2026-07-16T11:46:45.019Z</time>
      </trkpt>
      <trkpt lat="41.605350" lon="1.825490">
        <ele>556.131</ele>
        <time>2026-07-16T11:47:05.019Z</time>
      </trkpt>
      <trkpt lat="41.605050" lon="1.825370">
        <ele>561.024</ele>
        <time>2026-07-16T11:47:25.019Z</time>
      </trkpt>
      <trkpt lat="41.604570" lon="1.825540">
        <ele>561.209</ele>
        <time>2026-07-16T11:47:45.019Z</time>
      </trkpt>
      <trkpt lat="41.604260" lon="1.825480">
        <ele>569.661</ele>
        <time>2026-07-16T11:48:05.019Z</time>
      </trkpt>
      <trkpt lat="41.603850" lon="1.825760">
        <ele>574.235</ele>
        <time>2026-07-16T11:48:25.019Z</time>
      </trkpt>
      <trkpt lat="41.603660" lon="1.826010">
        <ele>574.738</ele>
        <time>2026-07-16T11:48:45.019Z</time>
      </trkpt>
      <trkpt lat="41.603490" lon="1.826470">
        <ele>572.726</ele>
        <time>2026-07-16T11:49:05.019Z</time>
      </trkpt>
      <trkpt lat="41.603490" lon="1.826830">
        <ele>575.660</ele>
        <time>2026-07-16T11:49:25.019Z</time>
      </trkpt>
      <trkpt lat="41.603570" lon="1.827250">
        <ele>584.729</ele>
        <time>2026-07-16T11:49:45.019Z</time>
      </trkpt>
      <trkpt lat="41.603720" lon="1.827780">
        <ele>585.793</ele>
        <time>2026-07-16T11:50:05.019Z</time>
      </trkpt>
      <trkpt lat="41.603900" lon="1.828340">
        <ele>586.560</ele>
        <time>2026-07-16T11:50:25.019Z</time>
      </trkpt>
      <trkpt lat="41.604070" lon="1.828970">
        <ele>581.673</ele>
        <time>2026-07-16T11:50:45.019Z</time>
      </trkpt>
      <trkpt lat="41.604160" lon="1.829320">
        <ele>574.836</ele>
        <time>2026-07-16T11:51:05.019Z</time>
      </trkpt>
      <trkpt lat="41.604140" lon="1.829650">
        <ele>579.317</ele>
        <time>2026-07-16T11:51:25.019Z</time>
      </trkpt>
      <trkpt lat="41.604070" lon="1.829720">
        <ele>583.218</ele>
        <time>2026-07-16T11:51:45.019Z</time>
      </trkpt>
      <trkpt lat="41.603780" lon="1.829710">
        <ele>596.609</ele>
        <time>2026-07-16T11:52:05.019Z</time>
      </trkpt>
      <trkpt lat="41.603500" lon="1.829760">
        <ele>603.975</ele>
        <time>2026-07-16T11:52:25.019Z</time>
      </trkpt>
      <trkpt lat="41.603140" lon="1.830230">
        <ele>603.739</ele>
        <time>2026-07-16T11:52:45.019Z</time>
      </trkpt>
      <trkpt lat="41.602780" lon="1.830570">
        <ele>617.862</ele>
        <time>2026-07-16T11:53:05.019Z</time>
      </trkpt>
      <trkpt lat="41.602750" lon="1.830740">
        <ele>618.150</ele>
        <time>2026-07-16T11:53:25.019Z</time>
      </trkpt>
      <trkpt lat="41.602920" lon="1.831230">
        <ele>614.584</ele>
        <time>2026-07-16T11:53:45.019Z</time>
      </trkpt>
      <trkpt lat="41.603150" lon="1.831690">
        <ele>611.063</ele>
        <time>2026-07-16T11:54:05.019Z</time>
      </trkpt>
      <trkpt lat="41.603340" lon="1.832030">
        <ele>608.217</ele>
        <time>2026-07-16T11:54:25.019Z</time>
      </trkpt>
      <trkpt lat="41.603400" lon="1.832210">
        <ele>601.414</ele>
        <time>2026-07-16T11:54:45.019Z</time>
      </trkpt>
      <trkpt lat="41.603380" lon="1.832290">
        <ele>600.527</ele>
        <time>2026-07-16T11:55:05.019Z</time>
      </trkpt>
      <trkpt lat="41.603330" lon="1.832360">
        <ele>602.226</ele>
        <time>2026-07-16T11:55:25.019Z</time>
      </trkpt>
      <trkpt lat="41.603260" lon="1.832430">
        <ele>602.747</ele>
        <time>2026-07-16T11:55:45.019Z</time>
      </trkpt>
      <trkpt lat="41.603120" lon="1.832520">
        <ele>606.511</ele>
        <time>2026-07-16T11:56:05.019Z</time>
      </trkpt>
      <trkpt lat="41.602850" lon="1.832590">
        <ele>610.209</ele>
        <time>2026-07-16T11:56:25.019Z</time>
      </trkpt>
      <trkpt lat="41.602540" lon="1.832570">
        <ele>617.294</ele>
        <time>2026-07-16T11:56:45.019Z</time>
      </trkpt>
      <trkpt lat="41.602170" lon="1.832520">
        <ele>631.498</ele>
        <time>2026-07-16T11:57:05.019Z</time>
      </trkpt>
      <trkpt lat="41.602050" lon="1.832540">
        <ele>633.711</ele>
        <time>2026-07-16T11:57:25.019Z</time>
      </trkpt>
      <trkpt lat="41.601970" lon="1.832570">
        <ele>635.089</ele>
        <time>2026-07-16T11:57:45.019Z</time>
      </trkpt>
      <trkpt lat="41.601890" lon="1.832680">
        <ele>635.353</ele>
        <time>2026-07-16T11:58:05.019Z</time>
      </trkpt>
      <trkpt lat="41.601770" lon="1.832800">
        <ele>635.442</ele>
        <time>2026-07-16T11:58:25.019Z</time>
      </trkpt>
      <trkpt lat="41.601460" lon="1.833090">
        <ele>639.786</ele>
        <time>2026-07-16T11:58:45.019Z</time>
      </trkpt>
      <trkpt lat="41.601330" lon="1.833280">
        <ele>643.393</ele>
        <time>2026-07-16T11:59:05.019Z</time>
      </trkpt>
      <trkpt lat="41.601200" lon="1.833540">
        <ele>651.386</ele>
        <time>2026-07-16T11:59:25.019Z</time>
      </trkpt>
      <trkpt lat="41.601180" lon="1.833880">
        <ele>646.275</ele>
        <time>2026-07-16T11:59:45.019Z</time>
      </trkpt>
      <trkpt lat="41.601190" lon="1.833980">
        <ele>644.128</ele>
        <time>2026-07-16T12:00:05.019Z</time>
      </trkpt>
      <trkpt lat="41.601200" lon="1.834170">
        <ele>640.920</ele>
        <time>2026-07-16T12:00:25.019Z</time>
      </trkpt>
      <trkpt lat="41.601190" lon="1.834310">
        <ele>640.309</ele>
        <time>2026-07-16T12:00:45.019Z</time>
      </trkpt>
      <trkpt lat="41.601150" lon="1.834410">
        <ele>641.059</ele>
        <time>2026-07-16T12:01:05.019Z</time>
      </trkpt>
      <trkpt lat="41.601070" lon="1.834550">
        <ele>645.283</ele>
        <time>2026-07-16T12:01:25.019Z</time>
      </trkpt>
      <trkpt lat="41.600900" lon="1.834780">
        <ele>652.046</ele>
        <time>2026-07-16T12:01:45.019Z</time>
      </trkpt>
      <trkpt lat="41.600700" lon="1.835030">
        <ele>649.794</ele>
        <time>2026-07-16T12:02:05.019Z</time>
      </trkpt>
      <trkpt lat="41.600530" lon="1.835110">
        <ele>650.568</ele>
        <time>2026-07-16T12:02:25.019Z</time>
      </trkpt>
      <trkpt lat="41.600350" lon="1.835100">
        <ele>655.967</ele>
        <time>2026-07-16T12:02:45.019Z</time>
      </trkpt>
      <trkpt lat="41.600100" lon="1.835060">
        <ele>663.011</ele>
        <time>2026-07-16T12:03:05.019Z</time>
      </trkpt>
      <trkpt lat="41.599880" lon="1.835070">
        <ele>663.468</ele>
        <time>2026-07-16T12:03:25.019Z</time>
      </trkpt>
      <trkpt lat="41.599340" lon="1.834970">
        <ele>669.661</ele>
        <time>2026-07-16T12:03:45.019Z</time>
      </trkpt>
      <trkpt lat="41.599190" lon="1.834980">
        <ele>670.536</ele>
        <time>2026-07-16T12:04:05.019Z</time>
      </trkpt>
      <trkpt lat="41.599100" lon="1.835020">
        <ele>670.817</ele>
        <time>2026-07-16T12:04:25.019Z</time>
      </trkpt>
      <trkpt lat="41.598980" lon="1.835120">
        <ele>669.918</ele>
        <time>2026-07-16T12:04:45.019Z</time>
      </trkpt>
      <trkpt lat="41.598840" lon="1.835280">
        <ele>667.209</ele>
        <time>2026-07-16T12:05:05.019Z</time>
      </trkpt>
      <trkpt lat="41.598780" lon="1.835400">
        <ele>668.175</ele>
        <time>2026-07-16T12:05:25.019Z</time>
      </trkpt>
      <trkpt lat="41.598720" lon="1.835560">
        <ele>667.859</ele>
        <time>2026-07-16T12:05:45.019Z</time>
      </trkpt>
      <trkpt lat="41.598620" lon="1.835980">
        <ele>669.332</ele>
        <time>2026-07-16T12:06:05.019Z</time>
      </trkpt>
      <trkpt lat="41.598550" lon="1.836170">
        <ele>670.870</ele>
        <time>2026-07-16T12:06:25.019Z</time>
      </trkpt>
      <trkpt lat="41.598500" lon="1.836270">
        <ele>671.714</ele>
        <time>2026-07-16T12:06:45.019Z</time>
      </trkpt>
      <trkpt lat="41.598430" lon="1.836350">
        <ele>673.993</ele>
        <time>2026-07-16T12:07:05.019Z</time>
      </trkpt>
      <trkpt lat="41.598340" lon="1.836420">
        <ele>676.137</ele>
        <time>2026-07-16T12:07:25.019Z</time>
      </trkpt>
      <trkpt lat="41.598050" lon="1.836570">
        <ele>678.464</ele>
        <time>2026-07-16T12:07:45.019Z</time>
      </trkpt>
      <trkpt lat="41.597760" lon="1.836730">
        <ele>686.677</ele>
        <time>2026-07-16T12:08:05.019Z</time>
      </trkpt>
      <trkpt lat="41.597560" lon="1.836890">
        <ele>687.589</ele>
        <time>2026-07-16T12:08:25.019Z</time>
      </trkpt>
      <trkpt lat="41.597430" lon="1.837020">
        <ele>684.406</ele>
        <time>2026-07-16T12:08:45.019Z</time>
      </trkpt>
      <trkpt lat="41.597120" lon="1.837350">
        <ele>690.326</ele>
        <time>2026-07-16T12:09:05.019Z</time>
      </trkpt>
      <trkpt lat="41.596890" lon="1.837610">
        <ele>695.609</ele>
        <time>2026-07-16T12:09:25.019Z</time>
      </trkpt>
      <trkpt lat="41.596740" lon="1.837850">
        <ele>698.140</ele>
        <time>2026-07-16T12:09:45.019Z</time>
      </trkpt>
      <trkpt lat="41.596670" lon="1.838070">
        <ele>694.464</ele>
        <time>2026-07-16T12:10:05.019Z</time>
      </trkpt>
      <trkpt lat="41.596590" lon="1.838320">
        <ele>694.757</ele>
        <time>2026-07-16T12:10:25.019Z</time>
      </trkpt>
      <trkpt lat="41.596510" lon="1.838480">
        <ele>697.995</ele>
        <time>2026-07-16T12:10:45.019Z</time>
      </trkpt>
      <trkpt lat="41.596320" lon="1.838680">
        <ele>707.719</ele>
        <time>2026-07-16T12:11:05.019Z</time>
      </trkpt>
      <trkpt lat="41.595990" lon="1.839060">
        <ele>708.988</ele>
        <time>2026-07-16T12:11:25.019Z</time>
      </trkpt>
      <trkpt lat="41.595740" lon="1.839330">
        <ele>705.922</ele>
        <time>2026-07-16T12:11:45.019Z</time>
      </trkpt>
      <trkpt lat="41.595660" lon="1.839380">
        <ele>708.869</ele>
        <time>2026-07-16T12:12:05.019Z</time>
      </trkpt>
      <trkpt lat="41.595420" lon="1.839460">
        <ele>724.382</ele>
        <time>2026-07-16T12:12:25.019Z</time>
      </trkpt>
      <trkpt lat="41.595120" lon="1.839520">
        <ele>737.444</ele>
        <time>2026-07-16T12:12:45.019Z</time>
      </trkpt>
      <trkpt lat="41.595020" lon="1.839600">
        <ele>735.005</ele>
        <time>2026-07-16T12:13:05.019Z</time>
      </trkpt>
      <trkpt lat="41.594940" lon="1.839740">
        <ele>729.015</ele>
        <time>2026-07-16T12:13:25.019Z</time>
      </trkpt>
      <trkpt lat="41.594890" lon="1.839990">
        <ele>723.409</ele>
        <time>2026-07-16T12:13:45.019Z</time>
      </trkpt>
      <trkpt lat="41.594870" lon="1.840120">
        <ele>721.896</ele>
        <time>2026-07-16T12:14:05.019Z</time>
      </trkpt>
      <trkpt lat="41.594820" lon="1.840320">
        <ele>720.180</ele>
        <time>2026-07-16T12:14:25.019Z</time>
      </trkpt>
      <trkpt lat="41.594770" lon="1.840450">
        <ele>720.543</ele>
        <time>2026-07-16T12:14:45.019Z</time>
      </trkpt>
      <trkpt lat="41.594740" lon="1.840490">
        <ele>720.991</ele>
        <time>2026-07-16T12:15:05.019Z</time>
      </trkpt>
      <trkpt lat="41.594640" lon="1.840570">
        <ele>720.585</ele>
        <time>2026-07-16T12:15:25.019Z</time>
      </trkpt>
      <trkpt lat="41.594510" lon="1.840580">
        <ele>719.874</ele>
        <time>2026-07-16T12:15:45.019Z</time>
      </trkpt>
      <trkpt lat="41.594430" lon="1.840570">
        <ele>719.488</ele>
        <time>2026-07-16T12:16:05.019Z</time>
      </trkpt>
      <trkpt lat="41.594380" lon="1.840540">
        <ele>719.015</ele>
        <time>2026-07-16T12:16:25.019Z</time>
      </trkpt>
      <trkpt lat="41.594310" lon="1.840490">
        <ele>718.458</ele>
        <time>2026-07-16T12:16:45.019Z</time>
      </trkpt>
      <trkpt lat="41.594190" lon="1.840300">
        <ele>717.798</ele>
        <time>2026-07-16T12:17:05.019Z</time>
      </trkpt>
      <trkpt lat="41.594020" lon="1.839970">
        <ele>712.615</ele>
        <time>2026-07-16T12:17:25.019Z</time>
      </trkpt>
      <trkpt lat="41.593970" lon="1.839820">
        <ele>713.026</ele>
        <time>2026-07-16T12:17:45.019Z</time>
      </trkpt>
      <trkpt lat="41.593950" lon="1.839680">
        <ele>714.809</ele>
        <time>2026-07-16T12:18:05.019Z</time>
      </trkpt>
      <trkpt lat="41.593960" lon="1.839670">
        <ele>715.391</ele>
        <time>2026-07-16T12:18:25.019Z</time>
      </trkpt>
      <trkpt lat="41.593970" lon="1.839660">
        <ele>715.815</ele>
        <time>2026-07-16T12:18:45.019Z</time>
      </trkpt>
      <trkpt lat="41.593980" lon="1.839650">
        <ele>716.478</ele>
        <time>2026-07-16T12:19:05.019Z</time>
      </trkpt>
      <trkpt lat="41.593980" lon="1.839630">
        <ele>716.826</ele>
        <time>2026-07-16T12:19:25.019Z</time>
      </trkpt>
      <trkpt lat="41.593990" lon="1.839610">
        <ele>717.660</ele>
        <time>2026-07-16T12:19:45.019Z</time>
      </trkpt>
      <trkpt lat="41.593990" lon="1.839590">
        <ele>718.149</ele>
        <time>2026-07-16T12:20:05.019Z</time>
      </trkpt>
      <trkpt lat="41.593990" lon="1.839570">
        <ele>718.533</ele>
        <time>2026-07-16T12:20:25.019Z</time>
      </trkpt>
      <trkpt lat="41.593990" lon="1.839550">
        <ele>719.010</ele>
        <time>2026-07-16T12:20:45.019Z</time>
      </trkpt>
      <trkpt lat="41.593990" lon="1.839530">
        <ele>719.553</ele>
        <time>2026-07-16T12:21:05.019Z</time>
      </trkpt>
      <trkpt lat="41.593980" lon="1.839520">
        <ele>719.511</ele>
        <time>2026-07-16T12:21:25.019Z</time>
      </trkpt>
      <trkpt lat="41.593970" lon="1.839510">
        <ele>719.521</ele>
        <time>2026-07-16T12:21:45.019Z</time>
      </trkpt>
      <trkpt lat="41.593960" lon="1.839490">
        <ele>719.703</ele>
        <time>2026-07-16T12:22:05.019Z</time>
      </trkpt>
      <trkpt lat="41.593950" lon="1.839480">
        <ele>719.709</ele>
        <time>2026-07-16T12:22:25.019Z</time>
      </trkpt>
      <trkpt lat="41.593930" lon="1.839470">
        <ele>719.433</ele>
        <time>2026-07-16T12:22:45.019Z</time>
      </trkpt>
      <trkpt lat="41.593910" lon="1.839470">
        <ele>718.917</ele>
        <time>2026-07-16T12:23:05.019Z</time>
      </trkpt>
      <trkpt lat="41.593890" lon="1.839480">
        <ele>718.120</ele>
        <time>2026-07-16T12:23:25.019Z</time>
      </trkpt>
      <trkpt lat="41.593870" lon="1.839490">
        <ele>717.178</ele>
        <time>2026-07-16T12:23:45.019Z</time>
      </trkpt>
      <trkpt lat="41.593860" lon="1.839510">
        <ele>716.362</ele>
        <time>2026-07-16T12:24:05.019Z</time>
      </trkpt>
      <trkpt lat="41.593850" lon="1.839520">
        <ele>715.661</ele>
        <time>2026-07-16T12:24:25.019Z</time>
      </trkpt>
      <trkpt lat="41.593790" lon="1.839460">
        <ele>714.745</ele>
        <time>2026-07-16T12:24:45.019Z</time>
      </trkpt>
      <trkpt lat="41.593700" lon="1.839340">
        <ele>715.332</ele>
        <time>2026-07-16T12:25:05.019Z</time>
      </trkpt>
      <trkpt lat="41.593300" lon="1.838570">
        <ele>714.655</ele>
        <time>2026-07-16T12:25:25.019Z</time>
      </trkpt>
      <trkpt lat="41.593190" lon="1.838320">
        <ele>714.096</ele>
        <time>2026-07-16T12:25:45.019Z</time>
      </trkpt>
      <trkpt lat="41.593030" lon="1.837880">
        <ele>714.931</ele>
        <time>2026-07-16T12:26:05.019Z</time>
      </trkpt>
      <trkpt lat="41.592910" lon="1.837420">
        <ele>716.724</ele>
        <time>2026-07-16T12:26:25.019Z</time>
      </trkpt>
      <trkpt lat="41.592910" lon="1.837410">
        <ele>716.909</ele>
        <time>2026-07-16T12:26:45.019Z</time>
      </trkpt>
    </trkseg>
  </trk></gpx>