<?xml version="1.0" encoding="UTF-8"?>
<gpx creator="https://gpx.studio" version="1.1" xmlns="http://www.topografix.com/GPX/1/1" xmlns:xsi="http://www.w3.org/2001/XMLSchema-instance" xsi:schemaLocation="http://www.topografix.com/GPX/1/1 http://www.topografix.com/GPX/1/1/gpx.xsd http://www.garmin.com/xmlschemas/GpxExtensions/v3 http://www.garmin.com/xmlschemas/GpxExtensionsv3.xsd http://www.garmin.com/xmlschemas/TrackPointExtension/v1 http://www.garmin.com/xmlschemas/TrackPointExtensionv1.xsd http://www.garmin.com/xmlschemas/PowerExtension/v1 http://www.garmin.com/xmlschemas/PowerExtensionv1.xsd http://www.topografix.com/GPX/gpx_style/0/2 http://www.topografix.com/GPX/gpx_style/0/2/gpx_style.xsd" xmlns:gpxtpx="http://www.garmin.com/xmlschemas/TrackPointExtension/v1" xmlns:gpxx="http://www.garmin.com/xmlschemas/GpxExtensions/v3" xmlns:gpxpx="http://www.garmin.com/xmlschemas/PowerExtension/v1" xmlns:gpx_style="http://www.topografix.com/GPX/gpx_style/0/2">
  <metadata>
    <name>ancares_tejedo_gpxstudio</name>
    <author>
      <name>gpx.studio</name>
      <link href="https://gpx.studio"/>
    </author>
  </metadata>
  <trk>
    <name>ancares_tejedo_gpxstudio</name>
    <trkseg>
      <trkpt lat="42.841446" lon="-6.764413">
        <ele>973.35</ele>
      </trkpt>
      <trkpt lat="42.841687" lon="-6.764976">
        <ele>974.11</ele>
      </trkpt>
      <trkpt lat="42.841727" lon="-6.765099">
        <ele>974.71</ele>
      </trkpt>
      <trkpt lat="42.841778" lon="-6.765372">
        <ele>975.55</ele>
      </trkpt>
      <trkpt lat="42.841809" lon="-6.765791">
        <ele>976.19</ele>
      </trkpt>
      <trkpt lat="42.841813" lon="-6.766574">
        <ele>976.13</ele>
      </trkpt>
      <trkpt lat="42.841827" lon="-6.767624">
        <ele>979.51</ele>
      </trkpt>
      <trkpt lat="42.84167" lon="-6.768363">
        <ele>981.56</ele>
      </trkpt>
      <trkpt lat="42.841632" lon="-6.768732">
        <ele>981.69</ele>
      </trkpt>
      <trkpt lat="42.841706" lon="-6.769757">
        <ele>982</ele>
      </trkpt>
      <trkpt lat="42.84172" lon="-6.770919">
        <ele>984.39</ele>
      </trkpt>
      <trkpt lat="42.84177" lon="-6.771174">
        <ele>985.51</ele>
      </trkpt>
      <trkpt lat="42.842012" lon="-6.771875">
        <ele>987.42</ele>
      </trkpt>
      <trkpt lat="42.842133" lon="-6.772226">
        <ele>989.98</ele>
      </trkpt>
      <trkpt lat="42.842305" lon="-6.772764">
        <ele>991.98</ele>
      </trkpt>
      <trkpt lat="42.842462" lon="-6.773553">
        <ele>993.3</ele>
      </trkpt>
      <trkpt lat="42.842541" lon="-6.773765">
        <ele>993.67</ele>
      </trkpt>
      <trkpt lat="42.842777" lon="-6.77412">
        <ele>996.22</ele>
      </trkpt>
      <trkpt lat="42.842997" lon="-6.77436">
        <ele>1000.31</ele>
      </trkpt>
      <trkpt lat="42.843255" lon="-6.775124">
        <ele>1001.09</ele>
      </trkpt>
      <trkpt lat="42.843576" lon="-6.775956">
        <ele>1002.7</ele>
      </trkpt>
      <trkpt lat="42.843847" lon="-6.776549">
        <ele>1004.39</ele>
      </trkpt>
      <trkpt lat="42.844237" lon="-6.777244">
        <ele>1004.53</ele>
      </trkpt>
      <trkpt lat="42.844398" lon="-6.77755">
        <ele>1003.92</ele>
      </trkpt>
      <trkpt lat="42.844718" lon="-6.778163">
        <ele>1005.34</ele>
      </trkpt>
      <trkpt lat="42.8452" lon="-6.779082">
        <ele>1010.06</ele>
      </trkpt>
      <trkpt lat="42.845842" lon="-6.780308">
        <ele>1013.05</ele>
      </trkpt>
      <trkpt lat="42.846112" lon="-6.780643">
        <ele>1014.48</ele>
      </trkpt>
      <trkpt lat="42.846792" lon="-6.781304">
        <ele>1018.67</ele>
      </trkpt>
      <trkpt lat="42.84705" lon="-6.781638">
        <ele>1019.57</ele>
      </trkpt>
      <trkpt lat="42.84717" lon="-6.781819">
        <ele>1019.93</ele>
      </trkpt>
      <trkpt lat="42.847274" lon="-6.782011">
        <ele>1019.96</ele>
      </trkpt>
      <trkpt lat="42.847396" lon="-6.782213">
        <ele>1019.71</ele>
      </trkpt>
      <trkpt lat="42.848227" lon="-6.782917">
        <ele>1022.81</ele>
      </trkpt>
      <trkpt lat="42.848925" lon="-6.783758">
        <ele>1025.93</ele>
      </trkpt>
      <trkpt lat="42.849334" lon="-6.784223">
        <ele>1028.6</ele>
      </trkpt>
      <trkpt lat="42.849539" lon="-6.784455">
        <ele>1028.1</ele>
      </trkpt>
      <trkpt lat="42.849831" lon="-6.784617">
        <ele>1030.2</ele>
      </trkpt>
      <trkpt lat="42.850191" lon="-6.784715">
        <ele>1032.09</ele>
      </trkpt>
      <trkpt lat="42.850498" lon="-6.784737">
        <ele>1032.48</ele>
      </trkpt>
      <trkpt lat="42.8507" lon="-6.784788">
        <ele>1033.58</ele>
      </trkpt>
      <trkpt lat="42.850769" lon="-6.7849">
        <ele>1034.64</ele>
      </trkpt>
      <trkpt lat="42.850907" lon="-6.785385">
        <ele>1038.01</ele>
      </trkpt>
      <trkpt lat="42.851015" lon="-6.785852">
        <ele>1040.1</ele>
      </trkpt>
      <trkpt lat="42.85114" lon="-6.786496">
        <ele>1042.09</ele>
      </trkpt>
      <trkpt lat="42.851272" lon="-6.786891">
        <ele>1043.04</ele>
      </trkpt>
      <trkpt lat="42.851658" lon="-6.78774">
        <ele>1049.42</ele>
      </trkpt>
      <trkpt lat="42.851952" lon="-6.788402">
        <ele>1056.03</ele>
      </trkpt>
      <trkpt lat="42.852177" lon="-6.789085">
        <ele>1064.03</ele>
      </trkpt>
      <trkpt lat="42.852276" lon="-6.789118">
        <ele>1066.67</ele>
      </trkpt>
      <trkpt lat="42.852374" lon="-6.789071">
        <ele>1067.75</ele>
      </trkpt>
      <trkpt lat="42.852455" lon="-6.788968">
        <ele>1069.24</ele>
      </trkpt>
      <trkpt lat="42.852523" lon="-6.788816">
        <ele>1070.24</ele>
      </trkpt>
      <trkpt lat="42.852619" lon="-6.788445">
        <ele>1073.34</ele>
      </trkpt>
      <trkpt lat="42.852873" lon="-6.786532">
        <ele>1085.35</ele>
      </trkpt>
      <trkpt lat="42.85311" lon="-6.785784">
        <ele>1093.1</ele>
      </trkpt>
      <trkpt lat="42.853204" lon="-6.78563">
        <ele>1095.29</ele>
      </trkpt>
      <trkpt lat="42.85428" lon="-6.784402">
        <ele>1108.62</ele>
      </trkpt>
      <trkpt lat="42.854519" lon="-6.784153">
        <ele>1111.97</ele>
      </trkpt>
      <trkpt lat="42.854721" lon="-6.783819">
        <ele>1115.38</ele>
      </trkpt>
      <trkpt lat="42.854865" lon="-6.783613">
        <ele>1119.05</ele>
      </trkpt>
      <trkpt lat="42.854985" lon="-6.783587">
        <ele>1121.29</ele>
      </trkpt>
      <trkpt lat="42.855079" lon="-6.783655">
        <ele>1123.79</ele>
      </trkpt>
      <trkpt lat="42.855104" lon="-6.783733">
        <ele>1124.95</ele>
      </trkpt>
      <trkpt lat="42.85513" lon="-6.783947">
        <ele>1126.59</ele>
      </trkpt>
      <trkpt lat="42.855126" lon="-6.784206">
        <ele>1129.14</ele>
      </trkpt>
      <trkpt lat="42.855048" lon="-6.784436">
        <ele>1131.41</ele>
      </trkpt>
      <trkpt lat="42.854789" lon="-6.784953">
        <ele>1138.25</ele>
      </trkpt>
      <trkpt lat="42.854445" lon="-6.785872">
        <ele>1150.2</ele>
      </trkpt>
      <trkpt lat="42.85433" lon="-6.786179">
        <ele>1152.47</ele>
      </trkpt>
      <trkpt lat="42.854186" lon="-6.786745">
        <ele>1156.61</ele>
      </trkpt>
      <trkpt lat="42.854167" lon="-6.787286">
        <ele>1162</ele>
      </trkpt>
      <trkpt lat="42.854179" lon="-6.787612">
        <ele>1166.25</ele>
      </trkpt>
      <trkpt lat="42.854298" lon="-6.788397">
        <ele>1175.37</ele>
      </trkpt>
      <trkpt lat="42.85445" lon="-6.788968">
        <ele>1183.69</ele>
      </trkpt>
      <trkpt lat="42.854701" lon="-6.78968">
        <ele>1192.5</ele>
      </trkpt>
      <trkpt lat="42.854828" lon="-6.789827">
        <ele>1195.45</ele>
      </trkpt>
      <trkpt lat="42.854941" lon="-6.790002">
        <ele>1197.95</ele>
      </trkpt>
      <trkpt lat="42.854972" lon="-6.79017">
        <ele>1200.44</ele>
      </trkpt>
      <trkpt lat="42.854966" lon="-6.790316">
        <ele>1201.35</ele>
      </trkpt>
      <trkpt lat="42.855001" lon="-6.790538">
        <ele>1203.36</ele>
      </trkpt>
      <trkpt lat="42.855041" lon="-6.790702">
        <ele>1204.42</ele>
      </trkpt>
      <trkpt lat="42.855129" lon="-6.790908">
        <ele>1206.46</ele>
      </trkpt>
      <trkpt lat="42.855224" lon="-6.791063">
        <ele>1208.97</ele>
      </trkpt>
      <trkpt lat="42.855281" lon="-6.791234">
        <ele>1210.97</ele>
      </trkpt>
      <trkpt lat="42.855299" lon="-6.791457">
        <ele>1213.73</ele>
      </trkpt>
      <trkpt lat="42.855331" lon="-6.791655">
        <ele>1215.97</ele>
      </trkpt>
      <trkpt lat="42.855532" lon="-6.792238">
        <ele>1219.58</ele>
      </trkpt>
      <trkpt lat="42.855664" lon="-6.792513">
        <ele>1223.87</ele>
      </trkpt>
      <trkpt lat="42.85579" lon="-6.792753">
        <ele>1226.31</ele>
      </trkpt>
      <trkpt lat="42.855992" lon="-6.793062">
        <ele>1229.2</ele>
      </trkpt>
      <trkpt lat="42.856149" lon="-6.79326">
        <ele>1232.22</ele>
      </trkpt>
      <trkpt lat="42.856401" lon="-6.793655">
        <ele>1238.64</ele>
      </trkpt>
      <trkpt lat="42.85675" lon="-6.794136">
        <ele>1245.77</ele>
      </trkpt>
      <trkpt lat="42.8572" lon="-6.794585">
        <ele>1254.88</ele>
      </trkpt>
      <trkpt lat="42.857495" lon="-6.795097">
        <ele>1261.49</ele>
      </trkpt>
      <trkpt lat="42.857671" lon="-6.795457">
        <ele>1267.05</ele>
      </trkpt>
      <trkpt lat="42.857769" lon="-6.795642">
        <ele>1268.23</ele>
      </trkpt>
      <trkpt lat="42.857923" lon="-6.7958">
        <ele>1271.37</ele>
      </trkpt>
      <trkpt lat="42.858036" lon="-6.795964">
        <ele>1273.89</ele>
      </trkpt>
      <trkpt lat="42.858159" lon="-6.796228">
        <ele>1277.09</ele>
      </trkpt>
      <trkpt lat="42.858338" lon="-6.796436">
        <ele>1280.43</ele>
      </trkpt>
      <trkpt lat="42.858546" lon="-6.796607">
        <ele>1284.17</ele>
      </trkpt>
      <trkpt lat="42.858765" lon="-6.796818">
        <ele>1287.83</ele>
      </trkpt>
      <trkpt lat="42.858932" lon="-6.797094">
        <ele>1291.35</ele>
      </trkpt>
      <trkpt lat="42.859364" lon="-6.79738">
        <ele>1296.93</ele>
      </trkpt>
      <trkpt lat="42.859502" lon="-6.79744">
        <ele>1298.9</ele>
      </trkpt>
      <trkpt lat="42.860509" lon="-6.79762">
        <ele>1313.54</ele>
      </trkpt>
      <trkpt lat="42.860718" lon="-6.797713">
        <ele>1314.96</ele>
      </trkpt>
      <trkpt lat="42.860927" lon="-6.797806">
        <ele>1318.87</ele>
      </trkpt>
      <trkpt lat="42.861415" lon="-6.798144">
        <ele>1327.8</ele>
      </trkpt>
      <trkpt lat="42.861453" lon="-6.798221">
        <ele>1328.1</ele>
      </trkpt>
      <trkpt lat="42.861446" lon="-6.798341">
        <ele>1329.52</ele>
      </trkpt>
      <trkpt lat="42.861398" lon="-6.798426">
        <ele>1331.36</ele>
      </trkpt>
      <trkpt lat="42.861182" lon="-6.798538">
        <ele>1332.77</ele>
      </trkpt>
      <trkpt lat="42.860944" lon="-6.798712">
        <ele>1335.76</ele>
      </trkpt>
      <trkpt lat="42.86083" lon="-6.798865">
        <ele>1337.49</ele>
      </trkpt>
      <trkpt lat="42.860729" lon="-6.799028">
        <ele>1338.96</ele>
      </trkpt>
      <trkpt lat="42.860641" lon="-6.799285">
        <ele>1341.53</ele>
      </trkpt>
      <trkpt lat="42.860503" lon="-6.7998">
        <ele>1347.3</ele>
      </trkpt>
      <trkpt lat="42.860491" lon="-6.799952">
        <ele>1348.99</ele>
      </trkpt>
      <trkpt lat="42.86054" lon="-6.800015">
        <ele>1350.53</ele>
      </trkpt>
      <trkpt lat="42.860603" lon="-6.799998">
        <ele>1352.07</ele>
      </trkpt>
      <trkpt lat="42.860723" lon="-6.799903">
        <ele>1354.4</ele>
      </trkpt>
      <trkpt lat="42.860899" lon="-6.799663">
        <ele>1356.83</ele>
      </trkpt>
      <trkpt lat="42.861082" lon="-6.799526">
        <ele>1359.05</ele>
      </trkpt>
      <trkpt lat="42.861459" lon="-6.79944">
        <ele>1365.07</ele>
      </trkpt>
      <trkpt lat="42.861856" lon="-6.799492">
        <ele>1370.38</ele>
      </trkpt>
      <trkpt lat="42.862126" lon="-6.799508">
        <ele>1372.94</ele>
      </trkpt>
      <trkpt lat="42.862227" lon="-6.799543">
        <ele>1374.24</ele>
      </trkpt>
      <trkpt lat="42.862252" lon="-6.799629">
        <ele>1376.75</ele>
      </trkpt>
      <trkpt lat="42.862239" lon="-6.799706">
        <ele>1378.48</ele>
      </trkpt>
      <trkpt lat="42.862183" lon="-6.799766">
        <ele>1380.22</ele>
      </trkpt>
      <trkpt lat="42.861943" lon="-6.799809">
        <ele>1382.17</ele>
      </trkpt>
      <trkpt lat="42.861717" lon="-6.799903">
        <ele>1382.72</ele>
      </trkpt>
      <trkpt lat="42.861553" lon="-6.800075">
        <ele>1384.11</ele>
      </trkpt>
      <trkpt lat="42.861392" lon="-6.800422">
        <ele>1387.08</ele>
      </trkpt>
      <trkpt lat="42.861273" lon="-6.800818">
        <ele>1389.87</ele>
      </trkpt>
      <trkpt lat="42.86119" lon="-6.801151">
        <ele>1394.39</ele>
      </trkpt>
      <trkpt lat="42.86117" lon="-6.801302">
        <ele>1395.28</ele>
      </trkpt>
      <trkpt lat="42.861195" lon="-6.801508">
        <ele>1397.59</ele>
      </trkpt>
      <trkpt lat="42.861295" lon="-6.801826">
        <ele>1400.46</ele>
      </trkpt>
      <trkpt lat="42.861528" lon="-6.802264">
        <ele>1404.91</ele>
      </trkpt>
      <trkpt lat="42.861654" lon="-6.802418">
        <ele>1407.64</ele>
      </trkpt>
      <trkpt lat="42.861799" lon="-6.80253">
        <ele>1410.47</ele>
      </trkpt>
      <trkpt lat="42.861981" lon="-6.80259">
        <ele>1413.83</ele>
      </trkpt>
      <trkpt lat="42.862315" lon="-6.80259">
        <ele>1419.06</ele>
      </trkpt>
      <trkpt lat="42.862396" lon="-6.802624">
        <ele>1419.93</ele>
      </trkpt>
      <trkpt lat="42.862472" lon="-6.802701">
        <ele>1420.02</ele>
      </trkpt>
      <trkpt lat="42.862541" lon="-6.80283">
        <ele>1420.87</ele>
      </trkpt>
      <trkpt lat="42.862585" lon="-6.802993">
        <ele>1422.04</ele>
      </trkpt>
      <trkpt lat="42.86261" lon="-6.803302">
        <ele>1424.57</ele>
      </trkpt>
      <trkpt lat="42.862667" lon="-6.803482">
        <ele>1426.62</ele>
      </trkpt>
      <trkpt lat="42.862766" lon="-6.803843">
        <ele>1429.03</ele>
      </trkpt>
      <trkpt lat="42.862963" lon="-6.804564">
        <ele>1437.81</ele>
      </trkpt>
      <trkpt lat="42.863013" lon="-6.80489">
        <ele>1438.82</ele>
      </trkpt>
      <trkpt lat="42.862993" lon="-6.805494">
        <ele>1445.31</ele>
      </trkpt>
      <trkpt lat="42.863026" lon="-6.805628">
        <ele>1447.16</ele>
      </trkpt>
      <trkpt lat="42.86307" lon="-6.805705">
        <ele>1448.6</ele>
      </trkpt>
      <trkpt lat="42.863132" lon="-6.805709">
        <ele>1450.37</ele>
      </trkpt>
      <trkpt lat="42.86317" lon="-6.805637">
        <ele>1451.17</ele>
      </trkpt>
      <trkpt lat="42.863208" lon="-6.805482">
        <ele>1452.23</ele>
      </trkpt>
      <trkpt lat="42.863262" lon="-6.804946">
        <ele>1453.18</ele>
      </trkpt>
      <trkpt lat="42.863271" lon="-6.804641">
        <ele>1454.71</ele>
      </trkpt>
      <trkpt lat="42.863246" lon="-6.804263">
        <ele>1457.5</ele>
      </trkpt>
      <trkpt lat="42.863233" lon="-6.803933">
        <ele>1458.68</ele>
      </trkpt>
      <trkpt lat="42.863208" lon="-6.803272">
        <ele>1465.34</ele>
      </trkpt>
      <trkpt lat="42.863196" lon="-6.802941">
        <ele>1466.96</ele>
      </trkpt>
      <trkpt lat="42.863202" lon="-6.802779">
        <ele>1468.81</ele>
      </trkpt>
      <trkpt lat="42.863233" lon="-6.802676">
        <ele>1470.96</ele>
      </trkpt>
      <trkpt lat="42.863309" lon="-6.802598">
        <ele>1472.34</ele>
      </trkpt>
      <trkpt lat="42.863403" lon="-6.802607">
        <ele>1473.78</ele>
      </trkpt>
      <trkpt lat="42.86346" lon="-6.802633">
        <ele>1474.92</ele>
      </trkpt>
      <trkpt lat="42.86351" lon="-6.802684">
        <ele>1476.24</ele>
      </trkpt>
      <trkpt lat="42.863591" lon="-6.802853">
        <ele>1479.01</ele>
      </trkpt>
      <trkpt lat="42.863648" lon="-6.803053">
        <ele>1482.55</ele>
      </trkpt>
      <trkpt lat="42.863736" lon="-6.803439">
        <ele>1486.49</ele>
      </trkpt>
      <trkpt lat="42.863736" lon="-6.803714">
        <ele>1489.08</ele>
      </trkpt>
      <trkpt lat="42.863757" lon="-6.803998">
        <ele>1491.92</ele>
      </trkpt>
      <trkpt lat="42.8639" lon="-6.804366">
        <ele>1496.96</ele>
      </trkpt>
      <trkpt lat="42.864611" lon="-6.805774">
        <ele>1515.48</ele>
      </trkpt>
      <trkpt lat="42.864854" lon="-6.806291">
        <ele>1523.02</ele>
      </trkpt>
      <trkpt lat="42.864976" lon="-6.80655">
        <ele>1524.89</ele>
      </trkpt>
      <trkpt lat="42.8653" lon="-6.806979">
        <ele>1531.73</ele>
      </trkpt>
      <trkpt lat="42.865713" lon="-6.807668">
        <ele>1539.46</ele>
      </trkpt>
      <trkpt lat="42.865819" lon="-6.807757">
        <ele>1542.47</ele>
      </trkpt>
      <trkpt lat="42.866146" lon="-6.807808">
        <ele>1549.25</ele>
      </trkpt>
      <trkpt lat="42.866253" lon="-6.807911">
        <ele>1550.28</ele>
      </trkpt>
      <trkpt lat="42.866335" lon="-6.8081">
        <ele>1551.82</ele>
      </trkpt>
      <trkpt lat="42.866416" lon="-6.808357">
        <ele>1553.71</ele>
      </trkpt>
      <trkpt lat="42.866517" lon="-6.808606">
        <ele>1558.33</ele>
      </trkpt>
      <trkpt lat="42.866618" lon="-6.808855">
        <ele>1560.29</ele>
      </trkpt>
      <trkpt lat="42.866844" lon="-6.809293">
        <ele>1566.18</ele>
      </trkpt>
      <trkpt lat="42.867014" lon="-6.809525">
        <ele>1570.23</ele>
      </trkpt>
      <trkpt lat="42.867933" lon="-6.810478">
        <ele>1586.32</ele>
      </trkpt>
      <trkpt lat="42.868417" lon="-6.811027">
        <ele>1595.89</ele>
      </trkpt>
      <trkpt lat="42.868606" lon="-6.811327">
        <ele>1599.89</ele>
      </trkpt>
      <trkpt lat="42.868864" lon="-6.811898">
        <ele>1608.65</ele>
      </trkpt>
      <trkpt lat="42.869121" lon="-6.812469">
        <ele>1615.3</ele>
      </trkpt>
      <trkpt lat="42.86947" lon="-6.813567">
        <ele>1627.02</ele>
      </trkpt>
      <trkpt lat="42.869521" lon="-6.813783">
        <ele>1629.09</ele>
      </trkpt>
      <trkpt lat="42.869563" lon="-6.814039">
        <ele>1632.4</ele>
      </trkpt>
      <trkpt lat="42.869594" lon="-6.814151">
        <ele>1634.21</ele>
      </trkpt>
      <trkpt lat="42.869631" lon="-6.814244">
        <ele>1635.39</ele>
      </trkpt>
      <trkpt lat="42.869755" lon="-6.814482">
        <ele>1638.82</ele>
      </trkpt>
      <trkpt lat="42.869781" lon="-6.814567">
        <ele>1639.87</ele>
      </trkpt>
      <trkpt lat="42.869862" lon="-6.815113">
        <ele>1644.63</ele>
      </trkpt>
      <trkpt lat="42.869859" lon="-6.815174">
        <ele>1645.18</ele>
      </trkpt>
      <trkpt lat="42.869812" lon="-6.815317">
        <ele>1646.91</ele>
      </trkpt>
      <trkpt lat="42.869769" lon="-6.815396">
        <ele>1647.18</ele>
      </trkpt>
      <trkpt lat="42.869704" lon="-6.815548">
        <ele>1648.18</ele>
      </trkpt>
      <trkpt lat="42.869668" lon="-6.815659">
        <ele>1648.95</ele>
      </trkpt>
      <trkpt lat="42.869648" lon="-6.815771">
        <ele>1649.72</ele>
      </trkpt>
      <trkpt lat="42.869619" lon="-6.815979">
        <ele>1651.63</ele>
      </trkpt>
      <trkpt lat="42.86959" lon="-6.816097">
        <ele>1652.57</ele>
      </trkpt>
      <trkpt lat="42.869493" lon="-6.816325">
        <ele>1654.73</ele>
      </trkpt>
      <trkpt lat="42.869436" lon="-6.816426">
        <ele>1655.48</ele>
      </trkpt>
      <trkpt lat="42.869247" lon="-6.816699">
        <ele>1657.47</ele>
      </trkpt>
    </trkseg>
  </trk>
</gpx>
