<?xml version="1.0" encoding="UTF-8"?>
<gpx creator="https://gpx.studio" version="1.1" xmlns="http://www.topografix.com/GPX/1/1" xmlns:xsi="http://www.w3.org/2001/XMLSchema-instance" xsi:schemaLocation="http://www.topografix.com/GPX/1/1 http://www.topografix.com/GPX/1/1/gpx.xsd http://www.garmin.com/xmlschemas/GpxExtensions/v3 http://www.garmin.com/xmlschemas/GpxExtensionsv3.xsd http://www.garmin.com/xmlschemas/TrackPointExtension/v1 http://www.garmin.com/xmlschemas/TrackPointExtensionv1.xsd http://www.garmin.com/xmlschemas/PowerExtension/v1 http://www.garmin.com/xmlschemas/PowerExtensionv1.xsd http://www.topografix.com/GPX/gpx_style/0/2 http://www.topografix.com/GPX/gpx_style/0/2/gpx_style.xsd" xmlns:gpxtpx="http://www.garmin.com/xmlschemas/TrackPointExtension/v1" xmlns:gpxx="http://www.garmin.com/xmlschemas/GpxExtensions/v3" xmlns:gpxpx="http://www.garmin.com/xmlschemas/PowerExtension/v1" xmlns:gpx_style="http://www.topografix.com/GPX/gpx_style/0/2">
  <metadata>
    <name>arguis_por_rasal_gpxstudio</name>
    <author>
      <name>gpx.studio</name>
      <link href="https://gpx.studio"/>
    </author>
  </metadata>
  <trk>
    <name>arguis_por_rasal_gpxstudio</name>
    <trkseg>
      <trkpt lat="42.375755" lon="-0.579334">
        <ele>695.44</ele>
      </trkpt>
      <trkpt lat="42.375745" lon="-0.579183">
        <ele>695.65</ele>
      </trkpt>
      <trkpt lat="42.375701" lon="-0.578959">
        <ele>695.86</ele>
      </trkpt>
      <trkpt lat="42.375651" lon="-0.578748">
        <ele>696</ele>
      </trkpt>
      <trkpt lat="42.375588" lon="-0.578546">
        <ele>695.6</ele>
      </trkpt>
      <trkpt lat="42.375437" lon="-0.578194">
        <ele>695.69</ele>
      </trkpt>
      <trkpt lat="42.375344" lon="-0.578041">
        <ele>697.07</ele>
      </trkpt>
      <trkpt lat="42.375066" lon="-0.577685">
        <ele>700.59</ele>
      </trkpt>
      <trkpt lat="42.374988" lon="-0.577608">
        <ele>701.31</ele>
      </trkpt>
      <trkpt lat="42.374907" lon="-0.577547">
        <ele>701.77</ele>
      </trkpt>
      <trkpt lat="42.374819" lon="-0.577502">
        <ele>703.11</ele>
      </trkpt>
      <trkpt lat="42.374418" lon="-0.577427">
        <ele>705.26</ele>
      </trkpt>
      <trkpt lat="42.374263" lon="-0.577405">
        <ele>705.77</ele>
      </trkpt>
      <trkpt lat="42.374001" lon="-0.577408">
        <ele>707.63</ele>
      </trkpt>
      <trkpt lat="42.373932" lon="-0.577388">
        <ele>708.21</ele>
      </trkpt>
      <trkpt lat="42.373845" lon="-0.577337">
        <ele>708.68</ele>
      </trkpt>
      <trkpt lat="42.373707" lon="-0.577209">
        <ele>709.58</ele>
      </trkpt>
      <trkpt lat="42.373526" lon="-0.57702">
        <ele>711.7</ele>
      </trkpt>
      <trkpt lat="42.373074" lon="-0.576493">
        <ele>717.32</ele>
      </trkpt>
      <trkpt lat="42.372956" lon="-0.576347">
        <ele>718.19</ele>
      </trkpt>
      <trkpt lat="42.372849" lon="-0.576191">
        <ele>719.57</ele>
      </trkpt>
      <trkpt lat="42.372774" lon="-0.576052">
        <ele>719.77</ele>
      </trkpt>
      <trkpt lat="42.372738" lon="-0.575954">
        <ele>720.18</ele>
      </trkpt>
      <trkpt lat="42.372706" lon="-0.575819">
        <ele>721.16</ele>
      </trkpt>
      <trkpt lat="42.372646" lon="-0.575271">
        <ele>723</ele>
      </trkpt>
      <trkpt lat="42.372405" lon="-0.572482">
        <ele>727.07</ele>
      </trkpt>
      <trkpt lat="42.372391" lon="-0.572277">
        <ele>727.04</ele>
      </trkpt>
      <trkpt lat="42.372395" lon="-0.572117">
        <ele>726.32</ele>
      </trkpt>
      <trkpt lat="42.372411" lon="-0.572001">
        <ele>726.3</ele>
      </trkpt>
      <trkpt lat="42.372434" lon="-0.571897">
        <ele>726.61</ele>
      </trkpt>
      <trkpt lat="42.372476" lon="-0.571787">
        <ele>725.9</ele>
      </trkpt>
      <trkpt lat="42.37261" lon="-0.571543">
        <ele>723.96</ele>
      </trkpt>
      <trkpt lat="42.372819" lon="-0.571213">
        <ele>721.16</ele>
      </trkpt>
      <trkpt lat="42.372882" lon="-0.571078">
        <ele>720.87</ele>
      </trkpt>
      <trkpt lat="42.372903" lon="-0.57101">
        <ele>720.87</ele>
      </trkpt>
      <trkpt lat="42.372916" lon="-0.570942">
        <ele>720.53</ele>
      </trkpt>
      <trkpt lat="42.372915" lon="-0.570864">
        <ele>720.11</ele>
      </trkpt>
      <trkpt lat="42.372864" lon="-0.57065">
        <ele>722.66</ele>
      </trkpt>
      <trkpt lat="42.372853" lon="-0.570562">
        <ele>723.05</ele>
      </trkpt>
      <trkpt lat="42.37286" lon="-0.570476">
        <ele>723.25</ele>
      </trkpt>
      <trkpt lat="42.372879" lon="-0.570369">
        <ele>722.67</ele>
      </trkpt>
      <trkpt lat="42.372911" lon="-0.570243">
        <ele>722.76</ele>
      </trkpt>
      <trkpt lat="42.373079" lon="-0.569812">
        <ele>724.44</ele>
      </trkpt>
      <trkpt lat="42.373114" lon="-0.569701">
        <ele>724.65</ele>
      </trkpt>
      <trkpt lat="42.373132" lon="-0.569598">
        <ele>724.59</ele>
      </trkpt>
      <trkpt lat="42.373129" lon="-0.569484">
        <ele>724.54</ele>
      </trkpt>
      <trkpt lat="42.373109" lon="-0.569376">
        <ele>725.09</ele>
      </trkpt>
      <trkpt lat="42.373065" lon="-0.569263">
        <ele>725.54</ele>
      </trkpt>
      <trkpt lat="42.372994" lon="-0.569134">
        <ele>725.74</ele>
      </trkpt>
      <trkpt lat="42.371717" lon="-0.567329">
        <ele>739.34</ele>
      </trkpt>
      <trkpt lat="42.371347" lon="-0.56684">
        <ele>743.37</ele>
      </trkpt>
      <trkpt lat="42.371272" lon="-0.56677">
        <ele>743.78</ele>
      </trkpt>
      <trkpt lat="42.371196" lon="-0.566735">
        <ele>743.97</ele>
      </trkpt>
      <trkpt lat="42.37111" lon="-0.566716">
        <ele>744.12</ele>
      </trkpt>
      <trkpt lat="42.370509" lon="-0.566773">
        <ele>748</ele>
      </trkpt>
      <trkpt lat="42.370421" lon="-0.566753">
        <ele>748.62</ele>
      </trkpt>
      <trkpt lat="42.370347" lon="-0.566715">
        <ele>749.19</ele>
      </trkpt>
      <trkpt lat="42.370277" lon="-0.566657">
        <ele>749.86</ele>
      </trkpt>
      <trkpt lat="42.370186" lon="-0.566532">
        <ele>750.83</ele>
      </trkpt>
      <trkpt lat="42.370019" lon="-0.566239">
        <ele>752.77</ele>
      </trkpt>
      <trkpt lat="42.369942" lon="-0.566083">
        <ele>753.7</ele>
      </trkpt>
      <trkpt lat="42.369884" lon="-0.565936">
        <ele>754.62</ele>
      </trkpt>
      <trkpt lat="42.369856" lon="-0.565805">
        <ele>755.39</ele>
      </trkpt>
      <trkpt lat="42.369818" lon="-0.565411">
        <ele>757.38</ele>
      </trkpt>
      <trkpt lat="42.369796" lon="-0.565279">
        <ele>757.99</ele>
      </trkpt>
      <trkpt lat="42.369738" lon="-0.565097">
        <ele>759.04</ele>
      </trkpt>
      <trkpt lat="42.369662" lon="-0.5649">
        <ele>760.78</ele>
      </trkpt>
      <trkpt lat="42.369568" lon="-0.564724">
        <ele>762.07</ele>
      </trkpt>
      <trkpt lat="42.369467" lon="-0.564581">
        <ele>763</ele>
      </trkpt>
      <trkpt lat="42.368987" lon="-0.56399">
        <ele>767.99</ele>
      </trkpt>
      <trkpt lat="42.368943" lon="-0.563923">
        <ele>768.42</ele>
      </trkpt>
      <trkpt lat="42.368916" lon="-0.563853">
        <ele>768.8</ele>
      </trkpt>
      <trkpt lat="42.368854" lon="-0.563499">
        <ele>771.04</ele>
      </trkpt>
      <trkpt lat="42.36879" lon="-0.563227">
        <ele>771.63</ele>
      </trkpt>
      <trkpt lat="42.368719" lon="-0.562998">
        <ele>771.84</ele>
      </trkpt>
      <trkpt lat="42.368636" lon="-0.562798">
        <ele>773.14</ele>
      </trkpt>
      <trkpt lat="42.368419" lon="-0.562412">
        <ele>773.82</ele>
      </trkpt>
      <trkpt lat="42.368174" lon="-0.562041">
        <ele>772.83</ele>
      </trkpt>
      <trkpt lat="42.368063" lon="-0.561914">
        <ele>773.02</ele>
      </trkpt>
      <trkpt lat="42.367946" lon="-0.561815">
        <ele>773.57</ele>
      </trkpt>
      <trkpt lat="42.367818" lon="-0.561731">
        <ele>774.07</ele>
      </trkpt>
      <trkpt lat="42.367678" lon="-0.561667">
        <ele>774.37</ele>
      </trkpt>
      <trkpt lat="42.367557" lon="-0.561635">
        <ele>774.26</ele>
      </trkpt>
      <trkpt lat="42.367429" lon="-0.561624">
        <ele>774.44</ele>
      </trkpt>
      <trkpt lat="42.367316" lon="-0.561632">
        <ele>774.92</ele>
      </trkpt>
      <trkpt lat="42.367011" lon="-0.56171">
        <ele>777.27</ele>
      </trkpt>
      <trkpt lat="42.366944" lon="-0.561713">
        <ele>778.17</ele>
      </trkpt>
      <trkpt lat="42.366874" lon="-0.56169">
        <ele>778.93</ele>
      </trkpt>
      <trkpt lat="42.366809" lon="-0.561653">
        <ele>779.51</ele>
      </trkpt>
      <trkpt lat="42.366757" lon="-0.561598">
        <ele>779.47</ele>
      </trkpt>
      <trkpt lat="42.366716" lon="-0.561502">
        <ele>779.71</ele>
      </trkpt>
      <trkpt lat="42.366696" lon="-0.561389">
        <ele>780.2</ele>
      </trkpt>
      <trkpt lat="42.366695" lon="-0.561249">
        <ele>781.01</ele>
      </trkpt>
      <trkpt lat="42.366819" lon="-0.55966">
        <ele>788.43</ele>
      </trkpt>
      <trkpt lat="42.366826" lon="-0.559499">
        <ele>789.21</ele>
      </trkpt>
      <trkpt lat="42.366821" lon="-0.559336">
        <ele>790.13</ele>
      </trkpt>
      <trkpt lat="42.366801" lon="-0.559212">
        <ele>791.4</ele>
      </trkpt>
      <trkpt lat="42.366762" lon="-0.559092">
        <ele>792.22</ele>
      </trkpt>
      <trkpt lat="42.366701" lon="-0.559">
        <ele>792.9</ele>
      </trkpt>
      <trkpt lat="42.366601" lon="-0.558883">
        <ele>793.88</ele>
      </trkpt>
      <trkpt lat="42.366053" lon="-0.558454">
        <ele>798.06</ele>
      </trkpt>
      <trkpt lat="42.365939" lon="-0.558342">
        <ele>798.33</ele>
      </trkpt>
      <trkpt lat="42.365859" lon="-0.558237">
        <ele>798.7</ele>
      </trkpt>
      <trkpt lat="42.365801" lon="-0.558106">
        <ele>798.2</ele>
      </trkpt>
      <trkpt lat="42.365758" lon="-0.557955">
        <ele>797.53</ele>
      </trkpt>
      <trkpt lat="42.365696" lon="-0.557591">
        <ele>795.9</ele>
      </trkpt>
      <trkpt lat="42.365668" lon="-0.557477">
        <ele>795.24</ele>
      </trkpt>
      <trkpt lat="42.36562" lon="-0.557356">
        <ele>795.51</ele>
      </trkpt>
      <trkpt lat="42.365489" lon="-0.557104">
        <ele>797.33</ele>
      </trkpt>
      <trkpt lat="42.365368" lon="-0.556923">
        <ele>799.35</ele>
      </trkpt>
      <trkpt lat="42.365258" lon="-0.556781">
        <ele>800.8</ele>
      </trkpt>
      <trkpt lat="42.365145" lon="-0.556669">
        <ele>801.56</ele>
      </trkpt>
      <trkpt lat="42.365054" lon="-0.556611">
        <ele>802.61</ele>
      </trkpt>
      <trkpt lat="42.364924" lon="-0.556547">
        <ele>804.01</ele>
      </trkpt>
      <trkpt lat="42.364765" lon="-0.5565">
        <ele>805</ele>
      </trkpt>
      <trkpt lat="42.364604" lon="-0.556466">
        <ele>805.57</ele>
      </trkpt>
      <trkpt lat="42.364045" lon="-0.556398">
        <ele>810.16</ele>
      </trkpt>
      <trkpt lat="42.363834" lon="-0.556341">
        <ele>811.44</ele>
      </trkpt>
      <trkpt lat="42.363627" lon="-0.556254">
        <ele>811.65</ele>
      </trkpt>
      <trkpt lat="42.363465" lon="-0.556167">
        <ele>814.05</ele>
      </trkpt>
      <trkpt lat="42.363326" lon="-0.55607">
        <ele>814.01</ele>
      </trkpt>
      <trkpt lat="42.363113" lon="-0.555879">
        <ele>813.91</ele>
      </trkpt>
      <trkpt lat="42.36231" lon="-0.555048">
        <ele>815.32</ele>
      </trkpt>
      <trkpt lat="42.362247" lon="-0.554969">
        <ele>815.91</ele>
      </trkpt>
      <trkpt lat="42.362178" lon="-0.554862">
        <ele>816.6</ele>
      </trkpt>
      <trkpt lat="42.361884" lon="-0.554294">
        <ele>816.06</ele>
      </trkpt>
      <trkpt lat="42.361592" lon="-0.553777">
        <ele>811.94</ele>
      </trkpt>
      <trkpt lat="42.361522" lon="-0.553668">
        <ele>810.83</ele>
      </trkpt>
      <trkpt lat="42.361465" lon="-0.553604">
        <ele>809.96</ele>
      </trkpt>
      <trkpt lat="42.361417" lon="-0.553572">
        <ele>809.21</ele>
      </trkpt>
      <trkpt lat="42.361358" lon="-0.553552">
        <ele>808.7</ele>
      </trkpt>
      <trkpt lat="42.361302" lon="-0.553562">
        <ele>808.1</ele>
      </trkpt>
      <trkpt lat="42.361246" lon="-0.553597">
        <ele>807.19</ele>
      </trkpt>
      <trkpt lat="42.361189" lon="-0.553652">
        <ele>806.87</ele>
      </trkpt>
      <trkpt lat="42.36101" lon="-0.553911">
        <ele>807.18</ele>
      </trkpt>
      <trkpt lat="42.36095" lon="-0.553981">
        <ele>808.21</ele>
      </trkpt>
      <trkpt lat="42.360893" lon="-0.554026">
        <ele>808.19</ele>
      </trkpt>
      <trkpt lat="42.360821" lon="-0.554039">
        <ele>808.58</ele>
      </trkpt>
      <trkpt lat="42.360748" lon="-0.554021">
        <ele>808.79</ele>
      </trkpt>
      <trkpt lat="42.36068" lon="-0.553978">
        <ele>809.05</ele>
      </trkpt>
      <trkpt lat="42.360616" lon="-0.553905">
        <ele>809.32</ele>
      </trkpt>
      <trkpt lat="42.360393" lon="-0.553595">
        <ele>810.99</ele>
      </trkpt>
      <trkpt lat="42.360276" lon="-0.553453">
        <ele>812.36</ele>
      </trkpt>
      <trkpt lat="42.360194" lon="-0.553374">
        <ele>811.96</ele>
      </trkpt>
      <trkpt lat="42.359542" lon="-0.552881">
        <ele>817.96</ele>
      </trkpt>
      <trkpt lat="42.359481" lon="-0.552823">
        <ele>818.83</ele>
      </trkpt>
      <trkpt lat="42.359404" lon="-0.552713">
        <ele>820.05</ele>
      </trkpt>
      <trkpt lat="42.359338" lon="-0.5526">
        <ele>821.01</ele>
      </trkpt>
      <trkpt lat="42.359266" lon="-0.552507">
        <ele>821.36</ele>
      </trkpt>
      <trkpt lat="42.358944" lon="-0.552168">
        <ele>824.26</ele>
      </trkpt>
      <trkpt lat="42.35882" lon="-0.552023">
        <ele>825.8</ele>
      </trkpt>
      <trkpt lat="42.358483" lon="-0.551509">
        <ele>830.47</ele>
      </trkpt>
      <trkpt lat="42.358389" lon="-0.5514">
        <ele>832.03</ele>
      </trkpt>
      <trkpt lat="42.358292" lon="-0.551327">
        <ele>832.55</ele>
      </trkpt>
      <trkpt lat="42.358173" lon="-0.55128">
        <ele>832.69</ele>
      </trkpt>
      <trkpt lat="42.357762" lon="-0.551202">
        <ele>834.24</ele>
      </trkpt>
      <trkpt lat="42.357585" lon="-0.55115">
        <ele>833.78</ele>
      </trkpt>
      <trkpt lat="42.357424" lon="-0.55107">
        <ele>833.19</ele>
      </trkpt>
      <trkpt lat="42.356873" lon="-0.550606">
        <ele>828.61</ele>
      </trkpt>
      <trkpt lat="42.356739" lon="-0.550452">
        <ele>827.08</ele>
      </trkpt>
      <trkpt lat="42.356645" lon="-0.55029">
        <ele>826.06</ele>
      </trkpt>
      <trkpt lat="42.356486" lon="-0.549909">
        <ele>822.85</ele>
      </trkpt>
      <trkpt lat="42.356361" lon="-0.549665">
        <ele>820.06</ele>
      </trkpt>
      <trkpt lat="42.356098" lon="-0.549159">
        <ele>819.28</ele>
      </trkpt>
      <trkpt lat="42.356004" lon="-0.549017">
        <ele>818.99</ele>
      </trkpt>
      <trkpt lat="42.355902" lon="-0.548897">
        <ele>818.66</ele>
      </trkpt>
      <trkpt lat="42.355811" lon="-0.54881">
        <ele>818.38</ele>
      </trkpt>
      <trkpt lat="42.355713" lon="-0.548736">
        <ele>817.59</ele>
      </trkpt>
      <trkpt lat="42.35524" lon="-0.548427">
        <ele>817.43</ele>
      </trkpt>
      <trkpt lat="42.35516" lon="-0.548356">
        <ele>817.73</ele>
      </trkpt>
      <trkpt lat="42.355093" lon="-0.548279">
        <ele>817.99</ele>
      </trkpt>
      <trkpt lat="42.355045" lon="-0.548193">
        <ele>817.72</ele>
      </trkpt>
      <trkpt lat="42.35501" lon="-0.548097">
        <ele>817.39</ele>
      </trkpt>
      <trkpt lat="42.354994" lon="-0.547978">
        <ele>817.14</ele>
      </trkpt>
      <trkpt lat="42.354991" lon="-0.547845">
        <ele>817.09</ele>
      </trkpt>
      <trkpt lat="42.355014" lon="-0.547674">
        <ele>816.66</ele>
      </trkpt>
      <trkpt lat="42.355094" lon="-0.547364">
        <ele>815.3</ele>
      </trkpt>
      <trkpt lat="42.355165" lon="-0.547037">
        <ele>814.16</ele>
      </trkpt>
      <trkpt lat="42.355181" lon="-0.546871">
        <ele>814.93</ele>
      </trkpt>
      <trkpt lat="42.355186" lon="-0.546696">
        <ele>816.02</ele>
      </trkpt>
      <trkpt lat="42.355159" lon="-0.546525">
        <ele>816.89</ele>
      </trkpt>
      <trkpt lat="42.355107" lon="-0.546346">
        <ele>818.3</ele>
      </trkpt>
      <trkpt lat="42.355044" lon="-0.546163">
        <ele>818.88</ele>
      </trkpt>
      <trkpt lat="42.354955" lon="-0.545951">
        <ele>821.32</ele>
      </trkpt>
      <trkpt lat="42.354858" lon="-0.545757">
        <ele>824.82</ele>
      </trkpt>
      <trkpt lat="42.354675" lon="-0.545436">
        <ele>823.28</ele>
      </trkpt>
      <trkpt lat="42.354493" lon="-0.545114">
        <ele>826.47</ele>
      </trkpt>
      <trkpt lat="42.354109" lon="-0.544487">
        <ele>832.32</ele>
      </trkpt>
      <trkpt lat="42.354045" lon="-0.544371">
        <ele>834.05</ele>
      </trkpt>
      <trkpt lat="42.353911" lon="-0.543966">
        <ele>835.88</ele>
      </trkpt>
      <trkpt lat="42.353849" lon="-0.543843">
        <ele>835.74</ele>
      </trkpt>
      <trkpt lat="42.353656" lon="-0.543458">
        <ele>841.03</ele>
      </trkpt>
      <trkpt lat="42.353532" lon="-0.543223">
        <ele>841.13</ele>
      </trkpt>
      <trkpt lat="42.35345" lon="-0.543093">
        <ele>842.17</ele>
      </trkpt>
      <trkpt lat="42.353384" lon="-0.54302">
        <ele>843.02</ele>
      </trkpt>
      <trkpt lat="42.353185" lon="-0.542841">
        <ele>845.21</ele>
      </trkpt>
      <trkpt lat="42.35307" lon="-0.542677">
        <ele>848.28</ele>
      </trkpt>
      <trkpt lat="42.352938" lon="-0.54251">
        <ele>850.12</ele>
      </trkpt>
      <trkpt lat="42.352743" lon="-0.542322">
        <ele>852.67</ele>
      </trkpt>
      <trkpt lat="42.352417" lon="-0.542055">
        <ele>855.9</ele>
      </trkpt>
      <trkpt lat="42.352288" lon="-0.541925">
        <ele>858.15</ele>
      </trkpt>
      <trkpt lat="42.352191" lon="-0.541813">
        <ele>860.16</ele>
      </trkpt>
      <trkpt lat="42.352009" lon="-0.541544">
        <ele>861.36</ele>
      </trkpt>
      <trkpt lat="42.351878" lon="-0.541292">
        <ele>863.41</ele>
      </trkpt>
      <trkpt lat="42.351675" lon="-0.540833">
        <ele>866.17</ele>
      </trkpt>
      <trkpt lat="42.351619" lon="-0.540755">
        <ele>866.63</ele>
      </trkpt>
      <trkpt lat="42.351563" lon="-0.5407">
        <ele>866.85</ele>
      </trkpt>
      <trkpt lat="42.351455" lon="-0.540631">
        <ele>869.7</ele>
      </trkpt>
      <trkpt lat="42.351353" lon="-0.540552">
        <ele>871.87</ele>
      </trkpt>
      <trkpt lat="42.35124" lon="-0.540451">
        <ele>872.79</ele>
      </trkpt>
      <trkpt lat="42.351074" lon="-0.540254">
        <ele>873.17</ele>
      </trkpt>
      <trkpt lat="42.350827" lon="-0.539912">
        <ele>874.48</ele>
      </trkpt>
      <trkpt lat="42.350733" lon="-0.539749">
        <ele>875.84</ele>
      </trkpt>
      <trkpt lat="42.350641" lon="-0.539555">
        <ele>877.83</ele>
      </trkpt>
      <trkpt lat="42.350575" lon="-0.539364">
        <ele>878.53</ele>
      </trkpt>
      <trkpt lat="42.350448" lon="-0.538856">
        <ele>882.07</ele>
      </trkpt>
      <trkpt lat="42.350412" lon="-0.538584">
        <ele>883.65</ele>
      </trkpt>
      <trkpt lat="42.350394" lon="-0.537674">
        <ele>885.64</ele>
      </trkpt>
      <trkpt lat="42.350389" lon="-0.537338">
        <ele>889.66</ele>
      </trkpt>
      <trkpt lat="42.350368" lon="-0.536606">
        <ele>892.55</ele>
      </trkpt>
      <trkpt lat="42.350353" lon="-0.536491">
        <ele>893.29</ele>
      </trkpt>
      <trkpt lat="42.350315" lon="-0.536294">
        <ele>893.97</ele>
      </trkpt>
      <trkpt lat="42.350157" lon="-0.535698">
        <ele>897.44</ele>
      </trkpt>
      <trkpt lat="42.35008" lon="-0.53543">
        <ele>897.81</ele>
      </trkpt>
      <trkpt lat="42.350017" lon="-0.535276">
        <ele>899.57</ele>
      </trkpt>
      <trkpt lat="42.349888" lon="-0.535021">
        <ele>901.36</ele>
      </trkpt>
      <trkpt lat="42.349702" lon="-0.534708">
        <ele>904.18</ele>
      </trkpt>
      <trkpt lat="42.34934" lon="-0.534116">
        <ele>906.99</ele>
      </trkpt>
      <trkpt lat="42.349232" lon="-0.53397">
        <ele>907.69</ele>
      </trkpt>
      <trkpt lat="42.348993" lon="-0.533718">
        <ele>908.88</ele>
      </trkpt>
      <trkpt lat="42.34753" lon="-0.532255">
        <ele>920.52</ele>
      </trkpt>
      <trkpt lat="42.347411" lon="-0.532129">
        <ele>921.59</ele>
      </trkpt>
      <trkpt lat="42.347331" lon="-0.532013">
        <ele>921.82</ele>
      </trkpt>
      <trkpt lat="42.347268" lon="-0.531894">
        <ele>922.7</ele>
      </trkpt>
      <trkpt lat="42.347163" lon="-0.5315">
        <ele>923.37</ele>
      </trkpt>
      <trkpt lat="42.347128" lon="-0.531326">
        <ele>922.66</ele>
      </trkpt>
      <trkpt lat="42.347069" lon="-0.531134">
        <ele>923.11</ele>
      </trkpt>
      <trkpt lat="42.347021" lon="-0.53103">
        <ele>922.97</ele>
      </trkpt>
      <trkpt lat="42.346749" lon="-0.530543">
        <ele>925.61</ele>
      </trkpt>
      <trkpt lat="42.34667" lon="-0.530367">
        <ele>927.18</ele>
      </trkpt>
      <trkpt lat="42.346593" lon="-0.530164">
        <ele>928.55</ele>
      </trkpt>
      <trkpt lat="42.345996" lon="-0.52849">
        <ele>930.43</ele>
      </trkpt>
      <trkpt lat="42.345831" lon="-0.528064">
        <ele>932.42</ele>
      </trkpt>
      <trkpt lat="42.345719" lon="-0.527826">
        <ele>934.2</ele>
      </trkpt>
      <trkpt lat="42.3456" lon="-0.527601">
        <ele>934.59</ele>
      </trkpt>
      <trkpt lat="42.345228" lon="-0.526965">
        <ele>937.84</ele>
      </trkpt>
      <trkpt lat="42.345076" lon="-0.526653">
        <ele>938.1</ele>
      </trkpt>
      <trkpt lat="42.34475" lon="-0.525893">
        <ele>941.26</ele>
      </trkpt>
      <trkpt lat="42.344703" lon="-0.525765">
        <ele>942.27</ele>
      </trkpt>
      <trkpt lat="42.344674" lon="-0.525634">
        <ele>941.76</ele>
      </trkpt>
      <trkpt lat="42.344609" lon="-0.524974">
        <ele>944.29</ele>
      </trkpt>
      <trkpt lat="42.344569" lon="-0.524771">
        <ele>944.11</ele>
      </trkpt>
      <trkpt lat="42.344516" lon="-0.524579">
        <ele>944.02</ele>
      </trkpt>
      <trkpt lat="42.344447" lon="-0.52439">
        <ele>944.01</ele>
      </trkpt>
      <trkpt lat="42.344367" lon="-0.52421">
        <ele>942.81</ele>
      </trkpt>
      <trkpt lat="42.34423" lon="-0.523965">
        <ele>944.89</ele>
      </trkpt>
      <trkpt lat="42.343538" lon="-0.522917">
        <ele>947.68</ele>
      </trkpt>
      <trkpt lat="42.343192" lon="-0.522393">
        <ele>946.66</ele>
      </trkpt>
      <trkpt lat="42.342782" lon="-0.521694">
        <ele>948.85</ele>
      </trkpt>
      <trkpt lat="42.342556" lon="-0.521293">
        <ele>949.41</ele>
      </trkpt>
      <trkpt lat="42.342426" lon="-0.520995">
        <ele>950.11</ele>
      </trkpt>
      <trkpt lat="42.342338" lon="-0.520742">
        <ele>951.39</ele>
      </trkpt>
      <trkpt lat="42.342316" lon="-0.520639">
        <ele>951.65</ele>
      </trkpt>
      <trkpt lat="42.342307" lon="-0.520528">
        <ele>951.69</ele>
      </trkpt>
      <trkpt lat="42.34231" lon="-0.520407">
        <ele>951.78</ele>
      </trkpt>
      <trkpt lat="42.342368" lon="-0.52005">
        <ele>951.79</ele>
      </trkpt>
      <trkpt lat="42.342375" lon="-0.519939">
        <ele>952.47</ele>
      </trkpt>
      <trkpt lat="42.342365" lon="-0.519812">
        <ele>953.39</ele>
      </trkpt>
      <trkpt lat="42.342342" lon="-0.519707">
        <ele>953.94</ele>
      </trkpt>
      <trkpt lat="42.342298" lon="-0.519592">
        <ele>954.37</ele>
      </trkpt>
      <trkpt lat="42.341954" lon="-0.518925">
        <ele>956.38</ele>
      </trkpt>
      <trkpt lat="42.34189" lon="-0.518826">
        <ele>957.03</ele>
      </trkpt>
      <trkpt lat="42.341821" lon="-0.518751">
        <ele>957.35</ele>
      </trkpt>
      <trkpt lat="42.341557" lon="-0.518539">
        <ele>958.33</ele>
      </trkpt>
      <trkpt lat="42.341503" lon="-0.518479">
        <ele>958.54</ele>
      </trkpt>
      <trkpt lat="42.341464" lon="-0.518426">
        <ele>958.85</ele>
      </trkpt>
      <trkpt lat="42.341402" lon="-0.518281">
        <ele>959.79</ele>
      </trkpt>
      <trkpt lat="42.34138" lon="-0.518163">
        <ele>959.95</ele>
      </trkpt>
      <trkpt lat="42.341386" lon="-0.517405">
        <ele>962.81</ele>
      </trkpt>
      <trkpt lat="42.341381" lon="-0.517284">
        <ele>963.44</ele>
      </trkpt>
      <trkpt lat="42.341358" lon="-0.517131">
        <ele>964.05</ele>
      </trkpt>
      <trkpt lat="42.341326" lon="-0.516997">
        <ele>964.78</ele>
      </trkpt>
      <trkpt lat="42.341271" lon="-0.516851">
        <ele>965.25</ele>
      </trkpt>
      <trkpt lat="42.340996" lon="-0.516264">
        <ele>968.7</ele>
      </trkpt>
      <trkpt lat="42.340897" lon="-0.516086">
        <ele>969.78</ele>
      </trkpt>
      <trkpt lat="42.3408" lon="-0.515968">
        <ele>971.66</ele>
      </trkpt>
      <trkpt lat="42.34075" lon="-0.515935">
        <ele>972.34</ele>
      </trkpt>
      <trkpt lat="42.340689" lon="-0.515909">
        <ele>972.71</ele>
      </trkpt>
      <trkpt lat="42.340413" lon="-0.515832">
        <ele>974.12</ele>
      </trkpt>
      <trkpt lat="42.34037" lon="-0.515813">
        <ele>974.11</ele>
      </trkpt>
      <trkpt lat="42.340339" lon="-0.515782">
        <ele>974.39</ele>
      </trkpt>
      <trkpt lat="42.34031" lon="-0.515735">
        <ele>974.77</ele>
      </trkpt>
      <trkpt lat="42.340288" lon="-0.515678">
        <ele>975.13</ele>
      </trkpt>
      <trkpt lat="42.340269" lon="-0.515555">
        <ele>975.78</ele>
      </trkpt>
      <trkpt lat="42.340276" lon="-0.515462">
        <ele>976.43</ele>
      </trkpt>
      <trkpt lat="42.340309" lon="-0.51532">
        <ele>977.87</ele>
      </trkpt>
      <trkpt lat="42.340546" lon="-0.514396">
        <ele>980.52</ele>
      </trkpt>
      <trkpt lat="42.340582" lon="-0.514207">
        <ele>981.39</ele>
      </trkpt>
      <trkpt lat="42.340613" lon="-0.513985">
        <ele>981.87</ele>
      </trkpt>
      <trkpt lat="42.340608" lon="-0.513773">
        <ele>982.79</ele>
      </trkpt>
      <trkpt lat="42.340582" lon="-0.513649">
        <ele>983.32</ele>
      </trkpt>
      <trkpt lat="42.340544" lon="-0.513551">
        <ele>983.97</ele>
      </trkpt>
      <trkpt lat="42.340487" lon="-0.51347">
        <ele>984.92</ele>
      </trkpt>
      <trkpt lat="42.340346" lon="-0.513311">
        <ele>986.54</ele>
      </trkpt>
      <trkpt lat="42.340042" lon="-0.513018">
        <ele>989.42</ele>
      </trkpt>
      <trkpt lat="42.339983" lon="-0.51292">
        <ele>989.84</ele>
      </trkpt>
      <trkpt lat="42.339935" lon="-0.512801">
        <ele>989.94</ele>
      </trkpt>
      <trkpt lat="42.339897" lon="-0.512627">
        <ele>990.57</ele>
      </trkpt>
      <trkpt lat="42.339868" lon="-0.512386">
        <ele>992.04</ele>
      </trkpt>
      <trkpt lat="42.339854" lon="-0.512081">
        <ele>992.68</ele>
      </trkpt>
      <trkpt lat="42.33987" lon="-0.511849">
        <ele>993.28</ele>
      </trkpt>
      <trkpt lat="42.339902" lon="-0.51169">
        <ele>994.69</ele>
      </trkpt>
      <trkpt lat="42.340181" lon="-0.51071">
        <ele>1000.09</ele>
      </trkpt>
      <trkpt lat="42.340278" lon="-0.510411">
        <ele>1000.99</ele>
      </trkpt>
      <trkpt lat="42.340351" lon="-0.510117">
        <ele>1001.63</ele>
      </trkpt>
      <trkpt lat="42.340413" lon="-0.509803">
        <ele>1002.73</ele>
      </trkpt>
      <trkpt lat="42.340486" lon="-0.509354">
        <ele>1005.51</ele>
      </trkpt>
      <trkpt lat="42.340517" lon="-0.509104">
        <ele>1007.23</ele>
      </trkpt>
      <trkpt lat="42.340521" lon="-0.508917">
        <ele>1008.25</ele>
      </trkpt>
      <trkpt lat="42.340511" lon="-0.508805">
        <ele>1008.25</ele>
      </trkpt>
      <trkpt lat="42.340491" lon="-0.50871">
        <ele>1007.94</ele>
      </trkpt>
      <trkpt lat="42.34045" lon="-0.508588">
        <ele>1008.04</ele>
      </trkpt>
      <trkpt lat="42.340331" lon="-0.508343">
        <ele>1009.47</ele>
      </trkpt>
      <trkpt lat="42.340287" lon="-0.508231">
        <ele>1010.12</ele>
      </trkpt>
      <trkpt lat="42.340252" lon="-0.508121">
        <ele>1010.76</ele>
      </trkpt>
      <trkpt lat="42.340222" lon="-0.507981">
        <ele>1011.71</ele>
      </trkpt>
      <trkpt lat="42.340208" lon="-0.507824">
        <ele>1012.01</ele>
      </trkpt>
      <trkpt lat="42.340208" lon="-0.507736">
        <ele>1011.75</ele>
      </trkpt>
      <trkpt lat="42.340223" lon="-0.507527">
        <ele>1010.51</ele>
      </trkpt>
      <trkpt lat="42.340292" lon="-0.507112">
        <ele>1008.89</ele>
      </trkpt>
      <trkpt lat="42.340353" lon="-0.506897">
        <ele>1008.44</ele>
      </trkpt>
      <trkpt lat="42.340431" lon="-0.506676">
        <ele>1007.47</ele>
      </trkpt>
      <trkpt lat="42.340488" lon="-0.506544">
        <ele>1007.88</ele>
      </trkpt>
      <trkpt lat="42.340539" lon="-0.506459">
        <ele>1007.26</ele>
      </trkpt>
      <trkpt lat="42.340711" lon="-0.506259">
        <ele>1007.73</ele>
      </trkpt>
      <trkpt lat="42.340782" lon="-0.506192">
        <ele>1008.31</ele>
      </trkpt>
      <trkpt lat="42.340853" lon="-0.506143">
        <ele>1008.52</ele>
      </trkpt>
      <trkpt lat="42.341007" lon="-0.506083">
        <ele>1007.2</ele>
      </trkpt>
      <trkpt lat="42.341074" lon="-0.506038">
        <ele>1007.3</ele>
      </trkpt>
      <trkpt lat="42.341162" lon="-0.505957">
        <ele>1007.31</ele>
      </trkpt>
      <trkpt lat="42.341225" lon="-0.505877">
        <ele>1006.94</ele>
      </trkpt>
      <trkpt lat="42.341268" lon="-0.5058">
        <ele>1006.95</ele>
      </trkpt>
      <trkpt lat="42.341293" lon="-0.505719">
        <ele>1007.06</ele>
      </trkpt>
      <trkpt lat="42.341307" lon="-0.505622">
        <ele>1007.3</ele>
      </trkpt>
      <trkpt lat="42.341313" lon="-0.505233">
        <ele>1006.79</ele>
      </trkpt>
      <trkpt lat="42.341308" lon="-0.505122">
        <ele>1006.25</ele>
      </trkpt>
      <trkpt lat="42.341287" lon="-0.505038">
        <ele>1006.08</ele>
      </trkpt>
      <trkpt lat="42.341257" lon="-0.50496">
        <ele>1006.28</ele>
      </trkpt>
      <trkpt lat="42.341195" lon="-0.504873">
        <ele>1006.64</ele>
      </trkpt>
      <trkpt lat="42.341021" lon="-0.504704">
        <ele>1006.08</ele>
      </trkpt>
      <trkpt lat="42.340973" lon="-0.504626">
        <ele>1004.26</ele>
      </trkpt>
      <trkpt lat="42.340926" lon="-0.504501">
        <ele>1003.01</ele>
      </trkpt>
      <trkpt lat="42.340898" lon="-0.504378">
        <ele>1002.61</ele>
      </trkpt>
      <trkpt lat="42.340871" lon="-0.504223">
        <ele>1001.78</ele>
      </trkpt>
      <trkpt lat="42.340842" lon="-0.50385">
        <ele>1000.56</ele>
      </trkpt>
      <trkpt lat="42.340827" lon="-0.503751">
        <ele>1000.31</ele>
      </trkpt>
      <trkpt lat="42.340801" lon="-0.50366">
        <ele>1000.24</ele>
      </trkpt>
      <trkpt lat="42.340664" lon="-0.503276">
        <ele>999.03</ele>
      </trkpt>
      <trkpt lat="42.340107" lon="-0.50198">
        <ele>991.94</ele>
      </trkpt>
      <trkpt lat="42.339931" lon="-0.501643">
        <ele>990.33</ele>
      </trkpt>
      <trkpt lat="42.339841" lon="-0.501495">
        <ele>989.77</ele>
      </trkpt>
      <trkpt lat="42.339494" lon="-0.500982">
        <ele>986.27</ele>
      </trkpt>
      <trkpt lat="42.339308" lon="-0.500732">
        <ele>985.3</ele>
      </trkpt>
      <trkpt lat="42.339164" lon="-0.500568">
        <ele>984.39</ele>
      </trkpt>
      <trkpt lat="42.338954" lon="-0.500368">
        <ele>982.73</ele>
      </trkpt>
      <trkpt lat="42.338753" lon="-0.500196">
        <ele>981.57</ele>
      </trkpt>
      <trkpt lat="42.338463" lon="-0.499996">
        <ele>980.03</ele>
      </trkpt>
      <trkpt lat="42.338249" lon="-0.499795">
        <ele>977.4</ele>
      </trkpt>
      <trkpt lat="42.338373" lon="-0.499542">
        <ele>975.47</ele>
      </trkpt>
      <trkpt lat="42.338514" lon="-0.499323">
        <ele>976.38</ele>
      </trkpt>
      <trkpt lat="42.338554" lon="-0.499244">
        <ele>976.35</ele>
      </trkpt>
      <trkpt lat="42.338608" lon="-0.499126">
        <ele>976.74</ele>
      </trkpt>
      <trkpt lat="42.338737" lon="-0.498797">
        <ele>976.97</ele>
      </trkpt>
      <trkpt lat="42.338812" lon="-0.498646">
        <ele>976.91</ele>
      </trkpt>
      <trkpt lat="42.338874" lon="-0.49855">
        <ele>976.42</ele>
      </trkpt>
      <trkpt lat="42.339012" lon="-0.498407">
        <ele>978.12</ele>
      </trkpt>
      <trkpt lat="42.339052" lon="-0.498326">
        <ele>978.1</ele>
      </trkpt>
      <trkpt lat="42.33907" lon="-0.498229">
        <ele>978.04</ele>
      </trkpt>
      <trkpt lat="42.339072" lon="-0.498176">
        <ele>978.33</ele>
      </trkpt>
      <trkpt lat="42.339064" lon="-0.498114">
        <ele>978.45</ele>
      </trkpt>
      <trkpt lat="42.338973" lon="-0.49783">
        <ele>976.18</ele>
      </trkpt>
      <trkpt lat="42.33897" lon="-0.497655">
        <ele>976.68</ele>
      </trkpt>
      <trkpt lat="42.338944" lon="-0.497579">
        <ele>976.41</ele>
      </trkpt>
      <trkpt lat="42.338861" lon="-0.49747">
        <ele>975.68</ele>
      </trkpt>
      <trkpt lat="42.338774" lon="-0.497389">
        <ele>975.19</ele>
      </trkpt>
      <trkpt lat="42.338604" lon="-0.497259">
        <ele>974.09</ele>
      </trkpt>
      <trkpt lat="42.338541" lon="-0.497196">
        <ele>973.29</ele>
      </trkpt>
      <trkpt lat="42.338491" lon="-0.497118">
        <ele>972.09</ele>
      </trkpt>
      <trkpt lat="42.338468" lon="-0.497023">
        <ele>971.34</ele>
      </trkpt>
      <trkpt lat="42.33846" lon="-0.496806">
        <ele>971.02</ele>
      </trkpt>
      <trkpt lat="42.338469" lon="-0.496678">
        <ele>971.2</ele>
      </trkpt>
      <trkpt lat="42.338508" lon="-0.496415">
        <ele>971.47</ele>
      </trkpt>
      <trkpt lat="42.33852" lon="-0.496268">
        <ele>971.54</ele>
      </trkpt>
      <trkpt lat="42.338504" lon="-0.496134">
        <ele>971.99</ele>
      </trkpt>
      <trkpt lat="42.338477" lon="-0.496036">
        <ele>972</ele>
      </trkpt>
      <trkpt lat="42.338462" lon="-0.495949">
        <ele>972.2</ele>
      </trkpt>
      <trkpt lat="42.338447" lon="-0.495762">
        <ele>973.03</ele>
      </trkpt>
      <trkpt lat="42.338457" lon="-0.495597">
        <ele>973.33</ele>
      </trkpt>
      <trkpt lat="42.338479" lon="-0.495498">
        <ele>973.71</ele>
      </trkpt>
      <trkpt lat="42.33853" lon="-0.495324">
        <ele>974.3</ele>
      </trkpt>
      <trkpt lat="42.338542" lon="-0.495196">
        <ele>974.92</ele>
      </trkpt>
      <trkpt lat="42.338538" lon="-0.495124">
        <ele>974.98</ele>
      </trkpt>
      <trkpt lat="42.338522" lon="-0.495052">
        <ele>974.86</ele>
      </trkpt>
      <trkpt lat="42.338491" lon="-0.49496">
        <ele>974.5</ele>
      </trkpt>
      <trkpt lat="42.338422" lon="-0.494816">
        <ele>973.65</ele>
      </trkpt>
      <trkpt lat="42.338211" lon="-0.494491">
        <ele>974.11</ele>
      </trkpt>
      <trkpt lat="42.338116" lon="-0.494327">
        <ele>973.81</ele>
      </trkpt>
      <trkpt lat="42.337888" lon="-0.493989">
        <ele>972.82</ele>
      </trkpt>
      <trkpt lat="42.337824" lon="-0.493845">
        <ele>972.52</ele>
      </trkpt>
      <trkpt lat="42.33774" lon="-0.493614">
        <ele>972.86</ele>
      </trkpt>
      <trkpt lat="42.337627" lon="-0.493375">
        <ele>974.44</ele>
      </trkpt>
      <trkpt lat="42.337412" lon="-0.492965">
        <ele>977.52</ele>
      </trkpt>
      <trkpt lat="42.337322" lon="-0.492773">
        <ele>978.2</ele>
      </trkpt>
      <trkpt lat="42.337084" lon="-0.492202">
        <ele>980.76</ele>
      </trkpt>
      <trkpt lat="42.337054" lon="-0.492147">
        <ele>981.27</ele>
      </trkpt>
      <trkpt lat="42.337011" lon="-0.492092">
        <ele>981.91</ele>
      </trkpt>
      <trkpt lat="42.336951" lon="-0.492041">
        <ele>982.98</ele>
      </trkpt>
      <trkpt lat="42.33679" lon="-0.491948">
        <ele>983.13</ele>
      </trkpt>
      <trkpt lat="42.336686" lon="-0.491862">
        <ele>983.62</ele>
      </trkpt>
      <trkpt lat="42.336606" lon="-0.49177">
        <ele>984.13</ele>
      </trkpt>
      <trkpt lat="42.336417" lon="-0.49152">
        <ele>983.49</ele>
      </trkpt>
      <trkpt lat="42.335503" lon="-0.490437">
        <ele>986.47</ele>
      </trkpt>
      <trkpt lat="42.335107" lon="-0.489979">
        <ele>988.59</ele>
      </trkpt>
      <trkpt lat="42.334985" lon="-0.489857">
        <ele>988.25</ele>
      </trkpt>
      <trkpt lat="42.334775" lon="-0.489689">
        <ele>988.81</ele>
      </trkpt>
      <trkpt lat="42.334731" lon="-0.48964">
        <ele>988.94</ele>
      </trkpt>
      <trkpt lat="42.33448" lon="-0.489239">
        <ele>990.41</ele>
      </trkpt>
      <trkpt lat="42.334384" lon="-0.489148">
        <ele>990.27</ele>
      </trkpt>
      <trkpt lat="42.334198" lon="-0.489021">
        <ele>990.22</ele>
      </trkpt>
      <trkpt lat="42.333653" lon="-0.488632">
        <ele>995.25</ele>
      </trkpt>
      <trkpt lat="42.333587" lon="-0.488575">
        <ele>995.75</ele>
      </trkpt>
      <trkpt lat="42.333547" lon="-0.488525">
        <ele>996</ele>
      </trkpt>
      <trkpt lat="42.333463" lon="-0.488385">
        <ele>997.44</ele>
      </trkpt>
      <trkpt lat="42.33341" lon="-0.488317">
        <ele>998.19</ele>
      </trkpt>
      <trkpt lat="42.333295" lon="-0.488235">
        <ele>999.06</ele>
      </trkpt>
      <trkpt lat="42.333149" lon="-0.488154">
        <ele>999.75</ele>
      </trkpt>
      <trkpt lat="42.333092" lon="-0.488111">
        <ele>1000.32</ele>
      </trkpt>
      <trkpt lat="42.333037" lon="-0.488046">
        <ele>1000.99</ele>
      </trkpt>
      <trkpt lat="42.332989" lon="-0.487965">
        <ele>1000.9</ele>
      </trkpt>
      <trkpt lat="42.332943" lon="-0.48787">
        <ele>1002.72</ele>
      </trkpt>
      <trkpt lat="42.332802" lon="-0.487518">
        <ele>1004.32</ele>
      </trkpt>
      <trkpt lat="42.332696" lon="-0.48732">
        <ele>1005.83</ele>
      </trkpt>
      <trkpt lat="42.332647" lon="-0.487201">
        <ele>1007.39</ele>
      </trkpt>
      <trkpt lat="42.332635" lon="-0.487143">
        <ele>1008.12</ele>
      </trkpt>
      <trkpt lat="42.332637" lon="-0.487031">
        <ele>1009.05</ele>
      </trkpt>
      <trkpt lat="42.332693" lon="-0.48674">
        <ele>1011.5</ele>
      </trkpt>
      <trkpt lat="42.332696" lon="-0.486627">
        <ele>1012.79</ele>
      </trkpt>
      <trkpt lat="42.332691" lon="-0.486584">
        <ele>1013.33</ele>
      </trkpt>
      <trkpt lat="42.332677" lon="-0.486549">
        <ele>1013.66</ele>
      </trkpt>
      <trkpt lat="42.332629" lon="-0.486493">
        <ele>1014.36</ele>
      </trkpt>
      <trkpt lat="42.33231" lon="-0.486379">
        <ele>1016.82</ele>
      </trkpt>
      <trkpt lat="42.332093" lon="-0.48628">
        <ele>1018.51</ele>
      </trkpt>
      <trkpt lat="42.331986" lon="-0.486266">
        <ele>1018.81</ele>
      </trkpt>
      <trkpt lat="42.331934" lon="-0.486271">
        <ele>1019.18</ele>
      </trkpt>
      <trkpt lat="42.33188" lon="-0.486294">
        <ele>1019.67</ele>
      </trkpt>
      <trkpt lat="42.331843" lon="-0.486345">
        <ele>1020.23</ele>
      </trkpt>
      <trkpt lat="42.33183" lon="-0.486388">
        <ele>1020.81</ele>
      </trkpt>
      <trkpt lat="42.331824" lon="-0.486507">
        <ele>1021.72</ele>
      </trkpt>
      <trkpt lat="42.331831" lon="-0.486567">
        <ele>1021.72</ele>
      </trkpt>
      <trkpt lat="42.33189" lon="-0.486715">
        <ele>1022.11</ele>
      </trkpt>
      <trkpt lat="42.331917" lon="-0.486808">
        <ele>1022.48</ele>
      </trkpt>
      <trkpt lat="42.331948" lon="-0.48694">
        <ele>1022.97</ele>
      </trkpt>
      <trkpt lat="42.331952" lon="-0.486991">
        <ele>1023.3</ele>
      </trkpt>
      <trkpt lat="42.331945" lon="-0.487037">
        <ele>1023.8</ele>
      </trkpt>
      <trkpt lat="42.33189" lon="-0.487118">
        <ele>1024.54</ele>
      </trkpt>
      <trkpt lat="42.331852" lon="-0.487141">
        <ele>1024.71</ele>
      </trkpt>
      <trkpt lat="42.331805" lon="-0.487149">
        <ele>1024.83</ele>
      </trkpt>
      <trkpt lat="42.331755" lon="-0.48714">
        <ele>1025.11</ele>
      </trkpt>
      <trkpt lat="42.331698" lon="-0.487113">
        <ele>1025.86</ele>
      </trkpt>
      <trkpt lat="42.33157" lon="-0.486999">
        <ele>1027.23</ele>
      </trkpt>
      <trkpt lat="42.331488" lon="-0.4869">
        <ele>1028.29</ele>
      </trkpt>
      <trkpt lat="42.331273" lon="-0.4866">
        <ele>1029.48</ele>
      </trkpt>
      <trkpt lat="42.33122" lon="-0.486539">
        <ele>1030.47</ele>
      </trkpt>
      <trkpt lat="42.331011" lon="-0.486361">
        <ele>1032.55</ele>
      </trkpt>
      <trkpt lat="42.330962" lon="-0.486304">
        <ele>1033.21</ele>
      </trkpt>
      <trkpt lat="42.3309" lon="-0.486208">
        <ele>1033.88</ele>
      </trkpt>
      <trkpt lat="42.330838" lon="-0.486083">
        <ele>1034.84</ele>
      </trkpt>
      <trkpt lat="42.330739" lon="-0.485838">
        <ele>1036.82</ele>
      </trkpt>
      <trkpt lat="42.330712" lon="-0.48575">
        <ele>1037.67</ele>
      </trkpt>
      <trkpt lat="42.330697" lon="-0.485674">
        <ele>1038.11</ele>
      </trkpt>
      <trkpt lat="42.330694" lon="-0.485546">
        <ele>1038.78</ele>
      </trkpt>
      <trkpt lat="42.330726" lon="-0.485422">
        <ele>1039.91</ele>
      </trkpt>
      <trkpt lat="42.330755" lon="-0.485365">
        <ele>1040.51</ele>
      </trkpt>
      <trkpt lat="42.330814" lon="-0.485293">
        <ele>1041.41</ele>
      </trkpt>
      <trkpt lat="42.330859" lon="-0.485264">
        <ele>1041.88</ele>
      </trkpt>
      <trkpt lat="42.331399" lon="-0.485037">
        <ele>1044.42</ele>
      </trkpt>
      <trkpt lat="42.33163" lon="-0.484922">
        <ele>1046.28</ele>
      </trkpt>
      <trkpt lat="42.331701" lon="-0.484865">
        <ele>1046.95</ele>
      </trkpt>
      <trkpt lat="42.331725" lon="-0.484828">
        <ele>1047.13</ele>
      </trkpt>
      <trkpt lat="42.331755" lon="-0.484748">
        <ele>1047.46</ele>
      </trkpt>
      <trkpt lat="42.33176" lon="-0.484654">
        <ele>1048.46</ele>
      </trkpt>
      <trkpt lat="42.331732" lon="-0.484572">
        <ele>1049.42</ele>
      </trkpt>
      <trkpt lat="42.331698" lon="-0.484523">
        <ele>1049.92</ele>
      </trkpt>
      <trkpt lat="42.331194" lon="-0.483913">
        <ele>1054.94</ele>
      </trkpt>
      <trkpt lat="42.330905" lon="-0.483509">
        <ele>1056.35</ele>
      </trkpt>
      <trkpt lat="42.330475" lon="-0.482989">
        <ele>1059.06</ele>
      </trkpt>
      <trkpt lat="42.330313" lon="-0.482783">
        <ele>1061.08</ele>
      </trkpt>
      <trkpt lat="42.330109" lon="-0.482472">
        <ele>1061.46</ele>
      </trkpt>
      <trkpt lat="42.330025" lon="-0.482362">
        <ele>1061.73</ele>
      </trkpt>
      <trkpt lat="42.32992" lon="-0.482244">
        <ele>1063.56</ele>
      </trkpt>
      <trkpt lat="42.329757" lon="-0.482072">
        <ele>1063.65</ele>
      </trkpt>
      <trkpt lat="42.329678" lon="-0.482025">
        <ele>1062.9</ele>
      </trkpt>
      <trkpt lat="42.329042" lon="-0.48173">
        <ele>1067.39</ele>
      </trkpt>
      <trkpt lat="42.328957" lon="-0.481678">
        <ele>1067.63</ele>
      </trkpt>
      <trkpt lat="42.328868" lon="-0.481611">
        <ele>1067.85</ele>
      </trkpt>
      <trkpt lat="42.32842" lon="-0.481208">
        <ele>1071.24</ele>
      </trkpt>
      <trkpt lat="42.328033" lon="-0.480835">
        <ele>1073.8</ele>
      </trkpt>
      <trkpt lat="42.327647" lon="-0.48046">
        <ele>1078.57</ele>
      </trkpt>
      <trkpt lat="42.327261" lon="-0.480082">
        <ele>1081.27</ele>
      </trkpt>
      <trkpt lat="42.326968" lon="-0.479779">
        <ele>1083.08</ele>
      </trkpt>
      <trkpt lat="42.326696" lon="-0.479537">
        <ele>1085.93</ele>
      </trkpt>
      <trkpt lat="42.325867" lon="-0.478733">
        <ele>1095.61</ele>
      </trkpt>
      <trkpt lat="42.325806" lon="-0.478664">
        <ele>1096.03</ele>
      </trkpt>
      <trkpt lat="42.325756" lon="-0.47859">
        <ele>1096.46</ele>
      </trkpt>
      <trkpt lat="42.325511" lon="-0.478188">
        <ele>1096.95</ele>
      </trkpt>
      <trkpt lat="42.325286" lon="-0.477866">
        <ele>1098.13</ele>
      </trkpt>
      <trkpt lat="42.325107" lon="-0.477544">
        <ele>1097.97</ele>
      </trkpt>
      <trkpt lat="42.324937" lon="-0.477236">
        <ele>1095.43</ele>
      </trkpt>
      <trkpt lat="42.324876" lon="-0.477161">
        <ele>1096.11</ele>
      </trkpt>
      <trkpt lat="42.324833" lon="-0.477137">
        <ele>1096.67</ele>
      </trkpt>
      <trkpt lat="42.324654" lon="-0.477084">
        <ele>1097.97</ele>
      </trkpt>
      <trkpt lat="42.324599" lon="-0.47705">
        <ele>1098.4</ele>
      </trkpt>
      <trkpt lat="42.324543" lon="-0.476989">
        <ele>1098.31</ele>
      </trkpt>
      <trkpt lat="42.32418" lon="-0.476406">
        <ele>1100.26</ele>
      </trkpt>
      <trkpt lat="42.324057" lon="-0.476256">
        <ele>1101.05</ele>
      </trkpt>
      <trkpt lat="42.323748" lon="-0.476011">
        <ele>1102.58</ele>
      </trkpt>
      <trkpt lat="42.3234" lon="-0.475804">
        <ele>1104.97</ele>
      </trkpt>
      <trkpt lat="42.322552" lon="-0.475268">
        <ele>1110.63</ele>
      </trkpt>
      <trkpt lat="42.322219" lon="-0.475134">
        <ele>1114.82</ele>
      </trkpt>
      <trkpt lat="42.321854" lon="-0.474951">
        <ele>1118.83</ele>
      </trkpt>
      <trkpt lat="42.321607" lon="-0.474861">
        <ele>1120.95</ele>
      </trkpt>
      <trkpt lat="42.321399" lon="-0.474814">
        <ele>1122.43</ele>
      </trkpt>
      <trkpt lat="42.321027" lon="-0.474759">
        <ele>1125.98</ele>
      </trkpt>
      <trkpt lat="42.320885" lon="-0.474725">
        <ele>1125.71</ele>
      </trkpt>
      <trkpt lat="42.320819" lon="-0.474698">
        <ele>1125.35</ele>
      </trkpt>
      <trkpt lat="42.320562" lon="-0.474529">
        <ele>1124.33</ele>
      </trkpt>
      <trkpt lat="42.320379" lon="-0.474383">
        <ele>1123.37</ele>
      </trkpt>
      <trkpt lat="42.320049" lon="-0.474095">
        <ele>1123.51</ele>
      </trkpt>
      <trkpt lat="42.32" lon="-0.474062">
        <ele>1123.4</ele>
      </trkpt>
      <trkpt lat="42.319905" lon="-0.474017">
        <ele>1123.21</ele>
      </trkpt>
      <trkpt lat="42.319709" lon="-0.473965">
        <ele>1124.35</ele>
      </trkpt>
      <trkpt lat="42.319647" lon="-0.473939">
        <ele>1124.5</ele>
      </trkpt>
      <trkpt lat="42.319582" lon="-0.473889">
        <ele>1124.33</ele>
      </trkpt>
      <trkpt lat="42.319558" lon="-0.47385">
        <ele>1124.35</ele>
      </trkpt>
      <trkpt lat="42.319543" lon="-0.473797">
        <ele>1124.23</ele>
      </trkpt>
      <trkpt lat="42.319466" lon="-0.473291">
        <ele>1124.16</ele>
      </trkpt>
      <trkpt lat="42.319424" lon="-0.47313">
        <ele>1124.11</ele>
      </trkpt>
    </trkseg>
  </trk>
</gpx>
