<?xml version="1.0" encoding="UTF-8"?>
<gpx creator="Wikiloc - https://www.wikiloc.com" version="1.1" xmlns="http://www.topografix.com/GPX/1/1" xmlns:xsi="http://www.w3.org/2001/XMLSchema-instance" xsi:schemaLocation="http://www.topografix.com/GPX/1/1 http://www.topografix.com/GPX/1/1/gpx.xsd">
  <metadata>
    <name>Wikiloc - ASCENSO A LA SIERRA DE LÚJAR (por Órgiva)</name>
    <link href="https://www.wikiloc.com/cycling-trails/ascenso-a-la-sierra-de-lujar-por-orgiva-263314953">
      <text>ASCENSO A LA SIERRA DE LÚJAR (por Órgiva) - Wikiloc on Wikiloc</text>
    </link>
    <time>2026-07-16T10:06:24.427Z</time>
  </metadata>
  <trk>
    <name>ASCENSO A LA SIERRA DE LÚJAR (por Órgiva) - Wikiloc</name>
    <cmt></cmt>
    <desc></desc>
    <trkseg>
      <trkpt lat="36.884590" lon="-3.415550">
        <ele>310.047</ele>
        <time>2026-07-16T10:06:24.426Z</time>
      </trkpt>
      <trkpt lat="36.883490" lon="-3.415150">
        <ele>319.929</ele>
        <time>2026-07-16T10:06:44.426Z</time>
      </trkpt>
      <trkpt lat="36.883340" lon="-3.415190">
        <ele>327.421</ele>
        <time>2026-07-16T10:07:04.426Z</time>
      </trkpt>
      <trkpt lat="36.883680" lon="-3.413560">
        <ele>318.509</ele>
        <time>2026-07-16T10:07:24.426Z</time>
      </trkpt>
      <trkpt lat="36.883920" lon="-3.412870">
        <ele>336.656</ele>
        <time>2026-07-16T10:07:44.426Z</time>
      </trkpt>
      <trkpt lat="36.884380" lon="-3.412580">
        <ele>339.270</ele>
        <time>2026-07-16T10:08:04.426Z</time>
      </trkpt>
      <trkpt lat="36.884770" lon="-3.412160">
        <ele>337.017</ele>
        <time>2026-07-16T10:08:24.426Z</time>
      </trkpt>
      <trkpt lat="36.884840" lon="-3.411890">
        <ele>340.297</ele>
        <time>2026-07-16T10:08:44.426Z</time>
      </trkpt>
      <trkpt lat="36.884790" lon="-3.410780">
        <ele>352.935</ele>
        <time>2026-07-16T10:09:04.426Z</time>
      </trkpt>
      <trkpt lat="36.884680" lon="-3.409460">
        <ele>359.348</ele>
        <time>2026-07-16T10:09:24.426Z</time>
      </trkpt>
      <trkpt lat="36.884800" lon="-3.408250">
        <ele>371.643</ele>
        <time>2026-07-16T10:09:44.426Z</time>
      </trkpt>
      <trkpt lat="36.884820" lon="-3.407700">
        <ele>375.059</ele>
        <time>2026-07-16T10:10:04.426Z</time>
      </trkpt>
      <trkpt lat="36.884680" lon="-3.406990">
        <ele>376.327</ele>
        <time>2026-07-16T10:10:24.426Z</time>
      </trkpt>
      <trkpt lat="36.884490" lon="-3.406560">
        <ele>379.323</ele>
        <time>2026-07-16T10:10:44.426Z</time>
      </trkpt>
      <trkpt lat="36.884180" lon="-3.406090">
        <ele>382.683</ele>
        <time>2026-07-16T10:11:04.426Z</time>
      </trkpt>
      <trkpt lat="36.883820" lon="-3.405780">
        <ele>386.511</ele>
        <time>2026-07-16T10:11:24.426Z</time>
      </trkpt>
      <trkpt lat="36.881820" lon="-3.404650">
        <ele>403.209</ele>
        <time>2026-07-16T10:11:44.426Z</time>
      </trkpt>
      <trkpt lat="36.881080" lon="-3.404110">
        <ele>411.414</ele>
        <time>2026-07-16T10:12:04.426Z</time>
      </trkpt>
      <trkpt lat="36.880640" lon="-3.403560">
        <ele>416.868</ele>
        <time>2026-07-16T10:12:24.426Z</time>
      </trkpt>
      <trkpt lat="36.879470" lon="-3.401700">
        <ele>432.135</ele>
        <time>2026-07-16T10:12:44.426Z</time>
      </trkpt>
      <trkpt lat="36.879010" lon="-3.401340">
        <ele>435.135</ele>
        <time>2026-07-16T10:13:04.426Z</time>
      </trkpt>
      <trkpt lat="36.878470" lon="-3.401120">
        <ele>442.463</ele>
        <time>2026-07-16T10:13:24.426Z</time>
      </trkpt>
      <trkpt lat="36.877740" lon="-3.400910">
        <ele>449.986</ele>
        <time>2026-07-16T10:13:44.426Z</time>
      </trkpt>
      <trkpt lat="36.877670" lon="-3.400780">
        <ele>446.451</ele>
        <time>2026-07-16T10:14:04.426Z</time>
      </trkpt>
      <trkpt lat="36.877660" lon="-3.400550">
        <ele>443.077</ele>
        <time>2026-07-16T10:14:24.426Z</time>
      </trkpt>
      <trkpt lat="36.877860" lon="-3.400140">
        <ele>444.735</ele>
        <time>2026-07-16T10:14:44.426Z</time>
      </trkpt>
      <trkpt lat="36.878520" lon="-3.399440">
        <ele>449.494</ele>
        <time>2026-07-16T10:15:04.426Z</time>
      </trkpt>
      <trkpt lat="36.878760" lon="-3.399380">
        <ele>450.357</ele>
        <time>2026-07-16T10:15:24.426Z</time>
      </trkpt>
      <trkpt lat="36.879340" lon="-3.399320">
        <ele>452.822</ele>
        <time>2026-07-16T10:15:44.426Z</time>
      </trkpt>
      <trkpt lat="36.879520" lon="-3.399180">
        <ele>455.009</ele>
        <time>2026-07-16T10:16:04.426Z</time>
      </trkpt>
      <trkpt lat="36.879840" lon="-3.398640">
        <ele>459.131</ele>
        <time>2026-07-16T10:16:24.426Z</time>
      </trkpt>
      <trkpt lat="36.880050" lon="-3.397990">
        <ele>462.415</ele>
        <time>2026-07-16T10:16:44.426Z</time>
      </trkpt>
      <trkpt lat="36.879970" lon="-3.397600">
        <ele>466.762</ele>
        <time>2026-07-16T10:17:04.426Z</time>
      </trkpt>
      <trkpt lat="36.879790" lon="-3.397330">
        <ele>468.772</ele>
        <time>2026-07-16T10:17:24.426Z</time>
      </trkpt>
      <trkpt lat="36.879430" lon="-3.397130">
        <ele>470.210</ele>
        <time>2026-07-16T10:17:44.426Z</time>
      </trkpt>
      <trkpt lat="36.878990" lon="-3.397090">
        <ele>474.133</ele>
        <time>2026-07-16T10:18:04.426Z</time>
      </trkpt>
      <trkpt lat="36.878150" lon="-3.397200">
        <ele>486.448</ele>
        <time>2026-07-16T10:18:24.426Z</time>
      </trkpt>
      <trkpt lat="36.877730" lon="-3.397150">
        <ele>484.974</ele>
        <time>2026-07-16T10:18:44.426Z</time>
      </trkpt>
      <trkpt lat="36.877110" lon="-3.396850">
        <ele>488.712</ele>
        <time>2026-07-16T10:19:04.426Z</time>
      </trkpt>
      <trkpt lat="36.876400" lon="-3.396800">
        <ele>496.222</ele>
        <time>2026-07-16T10:19:24.426Z</time>
      </trkpt>
      <trkpt lat="36.876200" lon="-3.396720">
        <ele>496.862</ele>
        <time>2026-07-16T10:19:44.426Z</time>
      </trkpt>
      <trkpt lat="36.876050" lon="-3.396540">
        <ele>496.808</ele>
        <time>2026-07-16T10:20:04.426Z</time>
      </trkpt>
      <trkpt lat="36.875950" lon="-3.396090">
        <ele>499.409</ele>
        <time>2026-07-16T10:20:24.426Z</time>
      </trkpt>
      <trkpt lat="36.876070" lon="-3.395720">
        <ele>507.454</ele>
        <time>2026-07-16T10:20:44.426Z</time>
      </trkpt>
      <trkpt lat="36.876680" lon="-3.395190">
        <ele>512.348</ele>
        <time>2026-07-16T10:21:04.426Z</time>
      </trkpt>
      <trkpt lat="36.877080" lon="-3.394850">
        <ele>512.935</ele>
        <time>2026-07-16T10:21:24.426Z</time>
      </trkpt>
      <trkpt lat="36.877210" lon="-3.394600">
        <ele>514.425</ele>
        <time>2026-07-16T10:21:44.426Z</time>
      </trkpt>
      <trkpt lat="36.877250" lon="-3.394330">
        <ele>514.043</ele>
        <time>2026-07-16T10:22:04.426Z</time>
      </trkpt>
      <trkpt lat="36.877170" lon="-3.393970">
        <ele>515.196</ele>
        <time>2026-07-16T10:22:24.426Z</time>
      </trkpt>
      <trkpt lat="36.876880" lon="-3.393680">
        <ele>526.581</ele>
        <time>2026-07-16T10:22:44.426Z</time>
      </trkpt>
      <trkpt lat="36.876330" lon="-3.393500">
        <ele>544.227</ele>
        <time>2026-07-16T10:23:04.426Z</time>
      </trkpt>
      <trkpt lat="36.876000" lon="-3.393200">
        <ele>544.465</ele>
        <time>2026-07-16T10:23:24.426Z</time>
      </trkpt>
      <trkpt lat="36.875930" lon="-3.392850">
        <ele>537.878</ele>
        <time>2026-07-16T10:23:44.426Z</time>
      </trkpt>
      <trkpt lat="36.876060" lon="-3.392560">
        <ele>537.633</ele>
        <time>2026-07-16T10:24:04.426Z</time>
      </trkpt>
      <trkpt lat="36.876470" lon="-3.391980">
        <ele>539.326</ele>
        <time>2026-07-16T10:24:24.426Z</time>
      </trkpt>
      <trkpt lat="36.876490" lon="-3.391740">
        <ele>541.809</ele>
        <time>2026-07-16T10:24:44.426Z</time>
      </trkpt>
      <trkpt lat="36.876300" lon="-3.391060">
        <ele>550.569</ele>
        <time>2026-07-16T10:25:04.426Z</time>
      </trkpt>
      <trkpt lat="36.876290" lon="-3.390770">
        <ele>552.553</ele>
        <time>2026-07-16T10:25:24.426Z</time>
      </trkpt>
      <trkpt lat="36.876460" lon="-3.390140">
        <ele>555.020</ele>
        <time>2026-07-16T10:25:44.426Z</time>
      </trkpt>
      <trkpt lat="36.876520" lon="-3.389390">
        <ele>561.480</ele>
        <time>2026-07-16T10:26:04.426Z</time>
      </trkpt>
      <trkpt lat="36.876490" lon="-3.387850">
        <ele>572.138</ele>
        <time>2026-07-16T10:26:24.426Z</time>
      </trkpt>
      <trkpt lat="36.876740" lon="-3.386250">
        <ele>580.541</ele>
        <time>2026-07-16T10:26:44.426Z</time>
      </trkpt>
      <trkpt lat="36.876770" lon="-3.385300">
        <ele>585.826</ele>
        <time>2026-07-16T10:27:04.426Z</time>
      </trkpt>
      <trkpt lat="36.876750" lon="-3.383520">
        <ele>598.492</ele>
        <time>2026-07-16T10:27:24.426Z</time>
      </trkpt>
      <trkpt lat="36.877070" lon="-3.380600">
        <ele>622.920</ele>
        <time>2026-07-16T10:27:44.426Z</time>
      </trkpt>
      <trkpt lat="36.877150" lon="-3.380260">
        <ele>624.031</ele>
        <time>2026-07-16T10:28:04.426Z</time>
      </trkpt>
      <trkpt lat="36.877270" lon="-3.380060">
        <ele>624.961</ele>
        <time>2026-07-16T10:28:24.426Z</time>
      </trkpt>
      <trkpt lat="36.877610" lon="-3.379310">
        <ele>637.407</ele>
        <time>2026-07-16T10:28:44.426Z</time>
      </trkpt>
      <trkpt lat="36.878300" lon="-3.377980">
        <ele>646.009</ele>
        <time>2026-07-16T10:29:04.426Z</time>
      </trkpt>
      <trkpt lat="36.878910" lon="-3.376990">
        <ele>649.945</ele>
        <time>2026-07-16T10:29:24.426Z</time>
      </trkpt>
      <trkpt lat="36.879100" lon="-3.376230">
        <ele>652.759</ele>
        <time>2026-07-16T10:29:44.426Z</time>
      </trkpt>
      <trkpt lat="36.879210" lon="-3.375100">
        <ele>663.856</ele>
        <time>2026-07-16T10:30:04.426Z</time>
      </trkpt>
      <trkpt lat="36.878850" lon="-3.374470">
        <ele>668.966</ele>
        <time>2026-07-16T10:30:24.426Z</time>
      </trkpt>
      <trkpt lat="36.878110" lon="-3.374490">
        <ele>679.554</ele>
        <time>2026-07-16T10:30:44.426Z</time>
      </trkpt>
      <trkpt lat="36.876980" lon="-3.374610">
        <ele>689.587</ele>
        <time>2026-07-16T10:31:04.426Z</time>
      </trkpt>
      <trkpt lat="36.876750" lon="-3.374500">
        <ele>688.752</ele>
        <time>2026-07-16T10:31:24.426Z</time>
      </trkpt>
      <trkpt lat="36.876470" lon="-3.374270">
        <ele>690.338</ele>
        <time>2026-07-16T10:31:44.426Z</time>
      </trkpt>
      <trkpt lat="36.875490" lon="-3.374200">
        <ele>700.596</ele>
        <time>2026-07-16T10:32:04.426Z</time>
      </trkpt>
      <trkpt lat="36.874280" lon="-3.374020">
        <ele>711.331</ele>
        <time>2026-07-16T10:32:24.426Z</time>
      </trkpt>
      <trkpt lat="36.873360" lon="-3.373970">
        <ele>720.761</ele>
        <time>2026-07-16T10:32:44.426Z</time>
      </trkpt>
      <trkpt lat="36.872270" lon="-3.373800">
        <ele>732.107</ele>
        <time>2026-07-16T10:33:04.426Z</time>
      </trkpt>
      <trkpt lat="36.871610" lon="-3.373290">
        <ele>737.209</ele>
        <time>2026-07-16T10:33:24.426Z</time>
      </trkpt>
      <trkpt lat="36.871140" lon="-3.373250">
        <ele>736.265</ele>
        <time>2026-07-16T10:33:44.426Z</time>
      </trkpt>
      <trkpt lat="36.870520" lon="-3.373640">
        <ele>747.849</ele>
        <time>2026-07-16T10:34:04.426Z</time>
      </trkpt>
      <trkpt lat="36.869730" lon="-3.374040">
        <ele>752.946</ele>
        <time>2026-07-16T10:34:24.426Z</time>
      </trkpt>
      <trkpt lat="36.869560" lon="-3.374370">
        <ele>760.146</ele>
        <time>2026-07-16T10:34:44.426Z</time>
      </trkpt>
      <trkpt lat="36.869360" lon="-3.374440">
        <ele>762.154</ele>
        <time>2026-07-16T10:35:04.426Z</time>
      </trkpt>
      <trkpt lat="36.868760" lon="-3.374400">
        <ele>772.027</ele>
        <time>2026-07-16T10:35:24.426Z</time>
      </trkpt>
      <trkpt lat="36.868380" lon="-3.374930">
        <ele>780.582</ele>
        <time>2026-07-16T10:35:44.426Z</time>
      </trkpt>
      <trkpt lat="36.867380" lon="-3.375660">
        <ele>775.948</ele>
        <time>2026-07-16T10:36:04.426Z</time>
      </trkpt>
      <trkpt lat="36.866830" lon="-3.375910">
        <ele>776.846</ele>
        <time>2026-07-16T10:36:24.426Z</time>
      </trkpt>
      <trkpt lat="36.866230" lon="-3.375860">
        <ele>779.334</ele>
        <time>2026-07-16T10:36:44.426Z</time>
      </trkpt>
      <trkpt lat="36.865700" lon="-3.375590">
        <ele>775.455</ele>
        <time>2026-07-16T10:37:04.426Z</time>
      </trkpt>
      <trkpt lat="36.865130" lon="-3.375020">
        <ele>777.210</ele>
        <time>2026-07-16T10:37:24.426Z</time>
      </trkpt>
      <trkpt lat="36.864490" lon="-3.374230">
        <ele>793.509</ele>
        <time>2026-07-16T10:37:44.426Z</time>
      </trkpt>
      <trkpt lat="36.864440" lon="-3.373220">
        <ele>790.185</ele>
        <time>2026-07-16T10:38:04.426Z</time>
      </trkpt>
      <trkpt lat="36.864300" lon="-3.372560">
        <ele>796.089</ele>
        <time>2026-07-16T10:38:24.426Z</time>
      </trkpt>
      <trkpt lat="36.864460" lon="-3.372130">
        <ele>796.726</ele>
        <time>2026-07-16T10:38:44.426Z</time>
      </trkpt>
      <trkpt lat="36.864660" lon="-3.371890">
        <ele>793.846</ele>
        <time>2026-07-16T10:39:04.426Z</time>
      </trkpt>
      <trkpt lat="36.864850" lon="-3.371350">
        <ele>793.224</ele>
        <time>2026-07-16T10:39:24.426Z</time>
      </trkpt>
      <trkpt lat="36.864850" lon="-3.371030">
        <ele>792.677</ele>
        <time>2026-07-16T10:39:44.426Z</time>
      </trkpt>
      <trkpt lat="36.864480" lon="-3.370690">
        <ele>802.892</ele>
        <time>2026-07-16T10:40:04.426Z</time>
      </trkpt>
      <trkpt lat="36.864140" lon="-3.370110">
        <ele>806.368</ele>
        <time>2026-07-16T10:40:24.426Z</time>
      </trkpt>
      <trkpt lat="36.863890" lon="-3.370020">
        <ele>802.786</ele>
        <time>2026-07-16T10:40:44.426Z</time>
      </trkpt>
      <trkpt lat="36.863440" lon="-3.370290">
        <ele>808.863</ele>
        <time>2026-07-16T10:41:04.426Z</time>
      </trkpt>
      <trkpt lat="36.862560" lon="-3.370600">
        <ele>823.344</ele>
        <time>2026-07-16T10:41:24.426Z</time>
      </trkpt>
      <trkpt lat="36.861900" lon="-3.370820">
        <ele>833.018</ele>
        <time>2026-07-16T10:41:44.426Z</time>
      </trkpt>
      <trkpt lat="36.861680" lon="-3.370710">
        <ele>833.509</ele>
        <time>2026-07-16T10:42:04.426Z</time>
      </trkpt>
      <trkpt lat="36.861500" lon="-3.370350">
        <ele>835.288</ele>
        <time>2026-07-16T10:42:24.426Z</time>
      </trkpt>
      <trkpt lat="36.861450" lon="-3.369820">
        <ele>834.182</ele>
        <time>2026-07-16T10:42:44.426Z</time>
      </trkpt>
      <trkpt lat="36.861280" lon="-3.369600">
        <ele>834.269</ele>
        <time>2026-07-16T10:43:04.426Z</time>
      </trkpt>
      <trkpt lat="36.860890" lon="-3.369340">
        <ele>838.659</ele>
        <time>2026-07-16T10:43:24.426Z</time>
      </trkpt>
      <trkpt lat="36.860610" lon="-3.368970">
        <ele>828.497</ele>
        <time>2026-07-16T10:43:44.426Z</time>
      </trkpt>
      <trkpt lat="36.860270" lon="-3.369160">
        <ele>825.670</ele>
        <time>2026-07-16T10:44:04.426Z</time>
      </trkpt>
      <trkpt lat="36.860220" lon="-3.369800">
        <ele>840.515</ele>
        <time>2026-07-16T10:44:24.426Z</time>
      </trkpt>
      <trkpt lat="36.859780" lon="-3.370370">
        <ele>842.121</ele>
        <time>2026-07-16T10:44:44.426Z</time>
      </trkpt>
      <trkpt lat="36.859090" lon="-3.371150">
        <ele>841.019</ele>
        <time>2026-07-16T10:45:04.426Z</time>
      </trkpt>
      <trkpt lat="36.858270" lon="-3.371690">
        <ele>842.833</ele>
        <time>2026-07-16T10:45:24.426Z</time>
      </trkpt>
      <trkpt lat="36.858030" lon="-3.372040">
        <ele>856.923</ele>
        <time>2026-07-16T10:45:44.426Z</time>
      </trkpt>
      <trkpt lat="36.857820" lon="-3.371860">
        <ele>856.815</ele>
        <time>2026-07-16T10:46:04.426Z</time>
      </trkpt>
      <trkpt lat="36.857590" lon="-3.371120">
        <ele>839.809</ele>
        <time>2026-07-16T10:46:24.426Z</time>
      </trkpt>
      <trkpt lat="36.856710" lon="-3.371390">
        <ele>852.665</ele>
        <time>2026-07-16T10:46:44.426Z</time>
      </trkpt>
      <trkpt lat="36.855780" lon="-3.371240">
        <ele>874.599</ele>
        <time>2026-07-16T10:47:04.426Z</time>
      </trkpt>
      <trkpt lat="36.855330" lon="-3.370780">
        <ele>867.226</ele>
        <time>2026-07-16T10:47:24.426Z</time>
      </trkpt>
      <trkpt lat="36.855000" lon="-3.370530">
        <ele>864.616</ele>
        <time>2026-07-16T10:47:44.426Z</time>
      </trkpt>
      <trkpt lat="36.853710" lon="-3.370510">
        <ele>877.254</ele>
        <time>2026-07-16T10:48:04.426Z</time>
      </trkpt>
      <trkpt lat="36.853630" lon="-3.370360">
        <ele>878.917</ele>
        <time>2026-07-16T10:48:24.426Z</time>
      </trkpt>
      <trkpt lat="36.853770" lon="-3.370140">
        <ele>879.792</ele>
        <time>2026-07-16T10:48:44.426Z</time>
      </trkpt>
      <trkpt lat="36.853970" lon="-3.369810">
        <ele>880.128</ele>
        <time>2026-07-16T10:49:04.426Z</time>
      </trkpt>
      <trkpt lat="36.854170" lon="-3.369300">
        <ele>885.666</ele>
        <time>2026-07-16T10:49:24.426Z</time>
      </trkpt>
      <trkpt lat="36.854300" lon="-3.369050">
        <ele>890.534</ele>
        <time>2026-07-16T10:49:44.426Z</time>
      </trkpt>
      <trkpt lat="36.854700" lon="-3.368870">
        <ele>887.955</ele>
        <time>2026-07-16T10:50:04.426Z</time>
      </trkpt>
      <trkpt lat="36.856060" lon="-3.368930">
        <ele>898.010</ele>
        <time>2026-07-16T10:50:24.426Z</time>
      </trkpt>
      <trkpt lat="36.856240" lon="-3.368610">
        <ele>901.109</ele>
        <time>2026-07-16T10:50:44.426Z</time>
      </trkpt>
      <trkpt lat="36.856170" lon="-3.368340">
        <ele>901.995</ele>
        <time>2026-07-16T10:51:04.426Z</time>
      </trkpt>
      <trkpt lat="36.855110" lon="-3.367940">
        <ele>909.129</ele>
        <time>2026-07-16T10:51:24.426Z</time>
      </trkpt>
      <trkpt lat="36.854480" lon="-3.367600">
        <ele>916.886</ele>
        <time>2026-07-16T10:51:44.426Z</time>
      </trkpt>
      <trkpt lat="36.853820" lon="-3.365950">
        <ele>933.156</ele>
        <time>2026-07-16T10:52:04.426Z</time>
      </trkpt>
      <trkpt lat="36.853660" lon="-3.365430">
        <ele>940.234</ele>
        <time>2026-07-16T10:52:24.426Z</time>
      </trkpt>
      <trkpt lat="36.853790" lon="-3.364950">
        <ele>940.737</ele>
        <time>2026-07-16T10:52:44.426Z</time>
      </trkpt>
      <trkpt lat="36.854490" lon="-3.363610">
        <ele>949.512</ele>
        <time>2026-07-16T10:53:04.426Z</time>
      </trkpt>
      <trkpt lat="36.854400" lon="-3.363420">
        <ele>953.128</ele>
        <time>2026-07-16T10:53:24.426Z</time>
      </trkpt>
      <trkpt lat="36.854220" lon="-3.363450">
        <ele>953.996</ele>
        <time>2026-07-16T10:53:44.426Z</time>
      </trkpt>
      <trkpt lat="36.853490" lon="-3.363620">
        <ele>962.176</ele>
        <time>2026-07-16T10:54:04.426Z</time>
      </trkpt>
      <trkpt lat="36.852760" lon="-3.363960">
        <ele>967.590</ele>
        <time>2026-07-16T10:54:24.426Z</time>
      </trkpt>
      <trkpt lat="36.852680" lon="-3.364300">
        <ele>971.519</ele>
        <time>2026-07-16T10:54:44.426Z</time>
      </trkpt>
      <trkpt lat="36.852680" lon="-3.366000">
        <ele>982.909</ele>
        <time>2026-07-16T10:55:04.426Z</time>
      </trkpt>
      <trkpt lat="36.852430" lon="-3.366720">
        <ele>988.129</ele>
        <time>2026-07-16T10:55:24.426Z</time>
      </trkpt>
      <trkpt lat="36.851790" lon="-3.367180">
        <ele>993.033</ele>
        <time>2026-07-16T10:55:44.426Z</time>
      </trkpt>
      <trkpt lat="36.850650" lon="-3.367570">
        <ele>1008.520</ele>
        <time>2026-07-16T10:56:04.426Z</time>
      </trkpt>
      <trkpt lat="36.849340" lon="-3.368110">
        <ele>1024.720</ele>
        <time>2026-07-16T10:56:24.426Z</time>
      </trkpt>
      <trkpt lat="36.849010" lon="-3.368450">
        <ele>1027.778</ele>
        <time>2026-07-16T10:56:44.426Z</time>
      </trkpt>
      <trkpt lat="36.848870" lon="-3.368890">
        <ele>1026.641</ele>
        <time>2026-07-16T10:57:04.426Z</time>
      </trkpt>
      <trkpt lat="36.848560" lon="-3.369320">
        <ele>1028.626</ele>
        <time>2026-07-16T10:57:24.426Z</time>
      </trkpt>
      <trkpt lat="36.848010" lon="-3.369510">
        <ele>1039.862</ele>
        <time>2026-07-16T10:57:44.426Z</time>
      </trkpt>
      <trkpt lat="36.847690" lon="-3.369930">
        <ele>1043.950</ele>
        <time>2026-07-16T10:58:04.426Z</time>
      </trkpt>
      <trkpt lat="36.847420" lon="-3.370170">
        <ele>1046.772</ele>
        <time>2026-07-16T10:58:24.426Z</time>
      </trkpt>
      <trkpt lat="36.847050" lon="-3.370140">
        <ele>1048.513</ele>
        <time>2026-07-16T10:58:44.426Z</time>
      </trkpt>
      <trkpt lat="36.846780" lon="-3.369650">
        <ele>1058.814</ele>
        <time>2026-07-16T10:59:04.426Z</time>
      </trkpt>
      <trkpt lat="36.846290" lon="-3.369450">
        <ele>1062.409</ele>
        <time>2026-07-16T10:59:24.426Z</time>
      </trkpt>
      <trkpt lat="36.846020" lon="-3.369230">
        <ele>1065.129</ele>
        <time>2026-07-16T10:59:44.426Z</time>
      </trkpt>
      <trkpt lat="36.845710" lon="-3.368900">
        <ele>1071.773</ele>
        <time>2026-07-16T11:00:04.426Z</time>
      </trkpt>
      <trkpt lat="36.845150" lon="-3.368820">
        <ele>1074.930</ele>
        <time>2026-07-16T11:00:24.426Z</time>
      </trkpt>
      <trkpt lat="36.845130" lon="-3.368580">
        <ele>1079.730</ele>
        <time>2026-07-16T11:00:44.426Z</time>
      </trkpt>
      <trkpt lat="36.845540" lon="-3.368500">
        <ele>1082.778</ele>
        <time>2026-07-16T11:01:04.426Z</time>
      </trkpt>
      <trkpt lat="36.846260" lon="-3.368650">
        <ele>1081.731</ele>
        <time>2026-07-16T11:01:24.426Z</time>
      </trkpt>
      <trkpt lat="36.846420" lon="-3.368460">
        <ele>1085.956</ele>
        <time>2026-07-16T11:01:44.426Z</time>
      </trkpt>
      <trkpt lat="36.846340" lon="-3.368240">
        <ele>1090.742</ele>
        <time>2026-07-16T11:02:04.426Z</time>
      </trkpt>
      <trkpt lat="36.845980" lon="-3.368240">
        <ele>1090.760</ele>
        <time>2026-07-16T11:02:24.426Z</time>
      </trkpt>
      <trkpt lat="36.845150" lon="-3.367910">
        <ele>1096.354</ele>
        <time>2026-07-16T11:02:44.426Z</time>
      </trkpt>
      <trkpt lat="36.844720" lon="-3.367130">
        <ele>1107.056</ele>
        <time>2026-07-16T11:03:04.426Z</time>
      </trkpt>
      <trkpt lat="36.844450" lon="-3.367120">
        <ele>1107.811</ele>
        <time>2026-07-16T11:03:24.426Z</time>
      </trkpt>
      <trkpt lat="36.844150" lon="-3.367250">
        <ele>1106.509</ele>
        <time>2026-07-16T11:03:44.426Z</time>
      </trkpt>
      <trkpt lat="36.843030" lon="-3.367080">
        <ele>1115.337</ele>
        <time>2026-07-16T11:04:04.426Z</time>
      </trkpt>
      <trkpt lat="36.842340" lon="-3.367390">
        <ele>1120.911</ele>
        <time>2026-07-16T11:04:24.426Z</time>
      </trkpt>
      <trkpt lat="36.842270" lon="-3.367920">
        <ele>1117.298</ele>
        <time>2026-07-16T11:04:44.426Z</time>
      </trkpt>
      <trkpt lat="36.842120" lon="-3.368040">
        <ele>1118.798</ele>
        <time>2026-07-16T11:05:04.426Z</time>
      </trkpt>
      <trkpt lat="36.841700" lon="-3.367850">
        <ele>1124.926</ele>
        <time>2026-07-16T11:05:24.426Z</time>
      </trkpt>
      <trkpt lat="36.841420" lon="-3.367910">
        <ele>1126.889</ele>
        <time>2026-07-16T11:05:44.426Z</time>
      </trkpt>
      <trkpt lat="36.840850" lon="-3.367640">
        <ele>1122.364</ele>
        <time>2026-07-16T11:06:04.426Z</time>
      </trkpt>
      <trkpt lat="36.840680" lon="-3.366860">
        <ele>1118.430</ele>
        <time>2026-07-16T11:06:24.426Z</time>
      </trkpt>
      <trkpt lat="36.840490" lon="-3.366410">
        <ele>1112.538</ele>
        <time>2026-07-16T11:06:44.426Z</time>
      </trkpt>
      <trkpt lat="36.840570" lon="-3.366790">
        <ele>1114.067</ele>
        <time>2026-07-16T11:07:04.426Z</time>
      </trkpt>
      <trkpt lat="36.840640" lon="-3.367570">
        <ele>1116.581</ele>
        <time>2026-07-16T11:07:24.426Z</time>
      </trkpt>
      <trkpt lat="36.840720" lon="-3.368260">
        <ele>1127.319</ele>
        <time>2026-07-16T11:07:44.426Z</time>
      </trkpt>
      <trkpt lat="36.840340" lon="-3.369190">
        <ele>1137.709</ele>
        <time>2026-07-16T11:08:04.426Z</time>
      </trkpt>
      <trkpt lat="36.839310" lon="-3.370150">
        <ele>1131.978</ele>
        <time>2026-07-16T11:08:24.426Z</time>
      </trkpt>
      <trkpt lat="36.838840" lon="-3.370920">
        <ele>1136.832</ele>
        <time>2026-07-16T11:08:44.426Z</time>
      </trkpt>
      <trkpt lat="36.838050" lon="-3.371940">
        <ele>1135.729</ele>
        <time>2026-07-16T11:09:04.426Z</time>
      </trkpt>
      <trkpt lat="36.837750" lon="-3.372310">
        <ele>1135.699</ele>
        <time>2026-07-16T11:09:24.426Z</time>
      </trkpt>
      <trkpt lat="36.837670" lon="-3.372560">
        <ele>1136.347</ele>
        <time>2026-07-16T11:09:44.426Z</time>
      </trkpt>
      <trkpt lat="36.837750" lon="-3.373380">
        <ele>1142.720</ele>
        <time>2026-07-16T11:10:04.426Z</time>
      </trkpt>
      <trkpt lat="36.838020" lon="-3.374270">
        <ele>1146.355</ele>
        <time>2026-07-16T11:10:24.426Z</time>
      </trkpt>
      <trkpt lat="36.838050" lon="-3.374990">
        <ele>1160.771</ele>
        <time>2026-07-16T11:10:44.426Z</time>
      </trkpt>
      <trkpt lat="36.838450" lon="-3.375440">
        <ele>1169.039</ele>
        <time>2026-07-16T11:11:04.426Z</time>
      </trkpt>
      <trkpt lat="36.838400" lon="-3.376020">
        <ele>1171.397</ele>
        <time>2026-07-16T11:11:24.426Z</time>
      </trkpt>
      <trkpt lat="36.838160" lon="-3.376840">
        <ele>1178.923</ele>
        <time>2026-07-16T11:11:44.426Z</time>
      </trkpt>
      <trkpt lat="36.837610" lon="-3.377520">
        <ele>1188.125</ele>
        <time>2026-07-16T11:12:04.426Z</time>
      </trkpt>
      <trkpt lat="36.836770" lon="-3.378100">
        <ele>1189.009</ele>
        <time>2026-07-16T11:12:24.426Z</time>
      </trkpt>
      <trkpt lat="36.836020" lon="-3.378530">
        <ele>1188.571</ele>
        <time>2026-07-16T11:12:44.426Z</time>
      </trkpt>
      <trkpt lat="36.836120" lon="-3.379040">
        <ele>1193.975</ele>
        <time>2026-07-16T11:13:04.426Z</time>
      </trkpt>
      <trkpt lat="36.836090" lon="-3.379300">
        <ele>1195.932</ele>
        <time>2026-07-16T11:13:24.426Z</time>
      </trkpt>
      <trkpt lat="36.835840" lon="-3.379790">
        <ele>1199.112</ele>
        <time>2026-07-16T11:13:44.426Z</time>
      </trkpt>
      <trkpt lat="36.835770" lon="-3.380220">
        <ele>1208.930</ele>
        <time>2026-07-16T11:14:04.426Z</time>
      </trkpt>
      <trkpt lat="36.835450" lon="-3.380430">
        <ele>1212.843</ele>
        <time>2026-07-16T11:14:24.426Z</time>
      </trkpt>
      <trkpt lat="36.835000" lon="-3.380310">
        <ele>1211.858</ele>
        <time>2026-07-16T11:14:44.426Z</time>
      </trkpt>
      <trkpt lat="36.834710" lon="-3.380380">
        <ele>1210.774</ele>
        <time>2026-07-16T11:15:04.426Z</time>
      </trkpt>
      <trkpt lat="36.834300" lon="-3.380540">
        <ele>1212.072</ele>
        <time>2026-07-16T11:15:24.426Z</time>
      </trkpt>
      <trkpt lat="36.833610" lon="-3.380650">
        <ele>1220.461</ele>
        <time>2026-07-16T11:15:44.426Z</time>
      </trkpt>
      <trkpt lat="36.832630" lon="-3.381130">
        <ele>1229.321</ele>
        <time>2026-07-16T11:16:04.426Z</time>
      </trkpt>
      <trkpt lat="36.831630" lon="-3.381460">
        <ele>1240.213</ele>
        <time>2026-07-16T11:16:24.426Z</time>
      </trkpt>
      <trkpt lat="36.831650" lon="-3.381700">
        <ele>1249.309</ele>
        <time>2026-07-16T11:16:44.426Z</time>
      </trkpt>
      <trkpt lat="36.832390" lon="-3.381650">
        <ele>1249.298</ele>
        <time>2026-07-16T11:17:04.426Z</time>
      </trkpt>
      <trkpt lat="36.833300" lon="-3.381580">
        <ele>1258.932</ele>
        <time>2026-07-16T11:17:24.426Z</time>
      </trkpt>
      <trkpt lat="36.833930" lon="-3.381600">
        <ele>1260.969</ele>
        <time>2026-07-16T11:17:44.426Z</time>
      </trkpt>
      <trkpt lat="36.833880" lon="-3.381720">
        <ele>1265.039</ele>
        <time>2026-07-16T11:18:04.426Z</time>
      </trkpt>
      <trkpt lat="36.833520" lon="-3.381780">
        <ele>1268.297</ele>
        <time>2026-07-16T11:18:24.426Z</time>
      </trkpt>
      <trkpt lat="36.832510" lon="-3.382370">
        <ele>1287.680</ele>
        <time>2026-07-16T11:18:44.426Z</time>
      </trkpt>
      <trkpt lat="36.831580" lon="-3.382860">
        <ele>1302.185</ele>
        <time>2026-07-16T11:19:04.426Z</time>
      </trkpt>
      <trkpt lat="36.831230" lon="-3.382950">
        <ele>1305.251</ele>
        <time>2026-07-16T11:19:24.426Z</time>
      </trkpt>
      <trkpt lat="36.831390" lon="-3.383080">
        <ele>1312.439</ele>
        <time>2026-07-16T11:19:44.426Z</time>
      </trkpt>
      <trkpt lat="36.831890" lon="-3.383050">
        <ele>1313.434</ele>
        <time>2026-07-16T11:20:04.426Z</time>
      </trkpt>
      <trkpt lat="36.832200" lon="-3.382940">
        <ele>1312.255</ele>
        <time>2026-07-16T11:20:24.426Z</time>
      </trkpt>
      <trkpt lat="36.833130" lon="-3.382840">
        <ele>1316.210</ele>
        <time>2026-07-16T11:20:44.426Z</time>
      </trkpt>
      <trkpt lat="36.833610" lon="-3.382660">
        <ele>1312.909</ele>
        <time>2026-07-16T11:21:04.426Z</time>
      </trkpt>
      <trkpt lat="36.833600" lon="-3.382830">
        <ele>1320.015</ele>
        <time>2026-07-16T11:21:24.426Z</time>
      </trkpt>
      <trkpt lat="36.832130" lon="-3.383420">
        <ele>1332.279</ele>
        <time>2026-07-16T11:21:44.426Z</time>
      </trkpt>
      <trkpt lat="36.831550" lon="-3.383620">
        <ele>1338.716</ele>
        <time>2026-07-16T11:22:04.426Z</time>
      </trkpt>
      <trkpt lat="36.831560" lon="-3.383790">
        <ele>1346.986</ele>
        <time>2026-07-16T11:22:24.426Z</time>
      </trkpt>
      <trkpt lat="36.832100" lon="-3.383660">
        <ele>1343.634</ele>
        <time>2026-07-16T11:22:44.426Z</time>
      </trkpt>
      <trkpt lat="36.833280" lon="-3.383700">
        <ele>1355.477</ele>
        <time>2026-07-16T11:23:04.426Z</time>
      </trkpt>
      <trkpt lat="36.833650" lon="-3.383730">
        <ele>1359.052</ele>
        <time>2026-07-16T11:23:24.426Z</time>
      </trkpt>
      <trkpt lat="36.833510" lon="-3.383860">
        <ele>1364.968</ele>
        <time>2026-07-16T11:23:44.426Z</time>
      </trkpt>
      <trkpt lat="36.832150" lon="-3.384420">
        <ele>1380.646</ele>
        <time>2026-07-16T11:24:04.426Z</time>
      </trkpt>
      <trkpt lat="36.831430" lon="-3.384660">
        <ele>1386.987</ele>
        <time>2026-07-16T11:24:24.426Z</time>
      </trkpt>
      <trkpt lat="36.831280" lon="-3.384840">
        <ele>1393.442</ele>
        <time>2026-07-16T11:24:44.426Z</time>
      </trkpt>
      <trkpt lat="36.831600" lon="-3.384860">
        <ele>1398.726</ele>
        <time>2026-07-16T11:25:04.426Z</time>
      </trkpt>
      <trkpt lat="36.832540" lon="-3.384720">
        <ele>1401.009</ele>
        <time>2026-07-16T11:25:24.426Z</time>
      </trkpt>
      <trkpt lat="36.833500" lon="-3.384640">
        <ele>1403.890</ele>
        <time>2026-07-16T11:25:44.426Z</time>
      </trkpt>
      <trkpt lat="36.834100" lon="-3.385190">
        <ele>1415.834</ele>
        <time>2026-07-16T11:26:04.426Z</time>
      </trkpt>
      <trkpt lat="36.834350" lon="-3.385290">
        <ele>1418.781</ele>
        <time>2026-07-16T11:26:24.426Z</time>
      </trkpt>
      <trkpt lat="36.834720" lon="-3.385460">
        <ele>1428.591</ele>
        <time>2026-07-16T11:26:44.426Z</time>
      </trkpt>
      <trkpt lat="36.835450" lon="-3.385100">
        <ele>1427.529</ele>
        <time>2026-07-16T11:27:04.426Z</time>
      </trkpt>
      <trkpt lat="36.835760" lon="-3.385240">
        <ele>1432.122</ele>
        <time>2026-07-16T11:27:24.426Z</time>
      </trkpt>
      <trkpt lat="36.836080" lon="-3.385760">
        <ele>1443.527</ele>
        <time>2026-07-16T11:27:44.426Z</time>
      </trkpt>
      <trkpt lat="36.836230" lon="-3.386310">
        <ele>1458.213</ele>
        <time>2026-07-16T11:28:04.426Z</time>
      </trkpt>
      <trkpt lat="36.836400" lon="-3.386320">
        <ele>1456.741</ele>
        <time>2026-07-16T11:28:24.426Z</time>
      </trkpt>
      <trkpt lat="36.837400" lon="-3.385910">
        <ele>1462.171</ele>
        <time>2026-07-16T11:28:44.426Z</time>
      </trkpt>
      <trkpt lat="36.838030" lon="-3.385970">
        <ele>1463.641</ele>
        <time>2026-07-16T11:29:04.426Z</time>
      </trkpt>
      <trkpt lat="36.838340" lon="-3.386390">
        <ele>1471.715</ele>
        <time>2026-07-16T11:29:24.426Z</time>
      </trkpt>
      <trkpt lat="36.838180" lon="-3.386480">
        <ele>1480.409</ele>
        <time>2026-07-16T11:29:44.426Z</time>
      </trkpt>
      <trkpt lat="36.837850" lon="-3.386300">
        <ele>1479.249</ele>
        <time>2026-07-16T11:30:04.426Z</time>
      </trkpt>
      <trkpt lat="36.837450" lon="-3.386410">
        <ele>1485.313</ele>
        <time>2026-07-16T11:30:24.426Z</time>
      </trkpt>
      <trkpt lat="36.836620" lon="-3.387040">
        <ele>1502.090</ele>
        <time>2026-07-16T11:30:44.426Z</time>
      </trkpt>
      <trkpt lat="36.836270" lon="-3.387260">
        <ele>1507.640</ele>
        <time>2026-07-16T11:31:04.426Z</time>
      </trkpt>
      <trkpt lat="36.835990" lon="-3.387300">
        <ele>1507.648</ele>
        <time>2026-07-16T11:31:24.426Z</time>
      </trkpt>
      <trkpt lat="36.835660" lon="-3.387360">
        <ele>1513.871</ele>
        <time>2026-07-16T11:31:44.426Z</time>
      </trkpt>
      <trkpt lat="36.835530" lon="-3.387200">
        <ele>1508.066</ele>
        <time>2026-07-16T11:32:04.426Z</time>
      </trkpt>
      <trkpt lat="36.835370" lon="-3.387190">
        <ele>1507.282</ele>
        <time>2026-07-16T11:32:24.426Z</time>
      </trkpt>
      <trkpt lat="36.834810" lon="-3.387590">
        <ele>1523.050</ele>
        <time>2026-07-16T11:32:44.426Z</time>
      </trkpt>
      <trkpt lat="36.834400" lon="-3.387620">
        <ele>1525.793</ele>
        <time>2026-07-16T11:33:04.426Z</time>
      </trkpt>
      <trkpt lat="36.834050" lon="-3.387660">
        <ele>1537.465</ele>
        <time>2026-07-16T11:33:24.426Z</time>
      </trkpt>
      <trkpt lat="36.833570" lon="-3.387500">
        <ele>1539.321</ele>
        <time>2026-07-16T11:33:44.426Z</time>
      </trkpt>
      <trkpt lat="36.833180" lon="-3.387430">
        <ele>1535.109</ele>
        <time>2026-07-16T11:34:04.426Z</time>
      </trkpt>
      <trkpt lat="36.832420" lon="-3.387830">
        <ele>1547.921</ele>
        <time>2026-07-16T11:34:24.426Z</time>
      </trkpt>
      <trkpt lat="36.832450" lon="-3.387970">
        <ele>1554.545</ele>
        <time>2026-07-16T11:34:44.426Z</time>
      </trkpt>
      <trkpt lat="36.832770" lon="-3.387850">
        <ele>1555.282</ele>
        <time>2026-07-16T11:35:04.426Z</time>
      </trkpt>
      <trkpt lat="36.833260" lon="-3.387920">
        <ele>1561.672</ele>
        <time>2026-07-16T11:35:24.426Z</time>
      </trkpt>
      <trkpt lat="36.833490" lon="-3.388110">
        <ele>1571.290</ele>
        <time>2026-07-16T11:35:44.426Z</time>
      </trkpt>
      <trkpt lat="36.833280" lon="-3.388090">
        <ele>1570.283</ele>
        <time>2026-07-16T11:36:04.426Z</time>
      </trkpt>
      <trkpt lat="36.832990" lon="-3.388130">
        <ele>1568.318</ele>
        <time>2026-07-16T11:36:24.426Z</time>
      </trkpt>
      <trkpt lat="36.832400" lon="-3.388490">
        <ele>1572.964</ele>
        <time>2026-07-16T11:36:44.426Z</time>
      </trkpt>
      <trkpt lat="36.832300" lon="-3.388680">
        <ele>1576.762</ele>
        <time>2026-07-16T11:37:04.426Z</time>
      </trkpt>
      <trkpt lat="36.832560" lon="-3.388630">
        <ele>1583.199</ele>
        <time>2026-07-16T11:37:24.426Z</time>
      </trkpt>
      <trkpt lat="36.833250" lon="-3.388580">
        <ele>1594.807</ele>
        <time>2026-07-16T11:37:44.426Z</time>
      </trkpt>
      <trkpt lat="36.834140" lon="-3.388720">
        <ele>1595.727</ele>
        <time>2026-07-16T11:38:04.426Z</time>
      </trkpt>
      <trkpt lat="36.834890" lon="-3.388870">
        <ele>1597.709</ele>
        <time>2026-07-16T11:38:24.426Z</time>
      </trkpt>
      <trkpt lat="36.835060" lon="-3.389060">
        <ele>1600.221</ele>
        <time>2026-07-16T11:38:44.426Z</time>
      </trkpt>
      <trkpt lat="36.835190" lon="-3.389460">
        <ele>1612.025</ele>
        <time>2026-07-16T11:39:04.426Z</time>
      </trkpt>
      <trkpt lat="36.835780" lon="-3.389450">
        <ele>1608.672</ele>
        <time>2026-07-16T11:39:24.426Z</time>
      </trkpt>
      <trkpt lat="36.836050" lon="-3.389630">
        <ele>1612.282</ele>
        <time>2026-07-16T11:39:44.426Z</time>
      </trkpt>
      <trkpt lat="36.836170" lon="-3.390170">
        <ele>1617.520</ele>
        <time>2026-07-16T11:40:04.426Z</time>
      </trkpt>
      <trkpt lat="36.836150" lon="-3.390590">
        <ele>1621.323</ele>
        <time>2026-07-16T11:40:24.426Z</time>
      </trkpt>
      <trkpt lat="36.836160" lon="-3.390860">
        <ele>1621.928</ele>
        <time>2026-07-16T11:40:44.426Z</time>
      </trkpt>
      <trkpt lat="36.836020" lon="-3.391300">
        <ele>1626.464</ele>
        <time>2026-07-16T11:41:04.426Z</time>
      </trkpt>
      <trkpt lat="36.835980" lon="-3.391690">
        <ele>1628.622</ele>
        <time>2026-07-16T11:41:24.426Z</time>
      </trkpt>
      <trkpt lat="36.835230" lon="-3.392490">
        <ele>1652.434</ele>
        <time>2026-07-16T11:41:44.426Z</time>
      </trkpt>
      <trkpt lat="36.834870" lon="-3.392610">
        <ele>1657.155</ele>
        <time>2026-07-16T11:42:04.426Z</time>
      </trkpt>
      <trkpt lat="36.834390" lon="-3.392680">
        <ele>1663.110</ele>
        <time>2026-07-16T11:42:24.426Z</time>
      </trkpt>
      <trkpt lat="36.833790" lon="-3.393000">
        <ele>1673.409</ele>
        <time>2026-07-16T11:42:44.426Z</time>
      </trkpt>
      <trkpt lat="36.833380" lon="-3.393150">
        <ele>1676.435</ele>
        <time>2026-07-16T11:43:04.426Z</time>
      </trkpt>
      <trkpt lat="36.832960" lon="-3.393220">
        <ele>1684.549</ele>
        <time>2026-07-16T11:43:24.426Z</time>
      </trkpt>
      <trkpt lat="36.832380" lon="-3.393750">
        <ele>1691.746</ele>
        <time>2026-07-16T11:43:44.426Z</time>
      </trkpt>
      <trkpt lat="36.832200" lon="-3.393840">
        <ele>1694.586</ele>
        <time>2026-07-16T11:44:04.426Z</time>
      </trkpt>
      <trkpt lat="36.831930" lon="-3.393760">
        <ele>1698.174</ele>
        <time>2026-07-16T11:44:24.426Z</time>
      </trkpt>
      <trkpt lat="36.831650" lon="-3.393880">
        <ele>1700.677</ele>
        <time>2026-07-16T11:44:44.426Z</time>
      </trkpt>
      <trkpt lat="36.831450" lon="-3.394210">
        <ele>1696.632</ele>
        <time>2026-07-16T11:45:04.426Z</time>
      </trkpt>
      <trkpt lat="36.831500" lon="-3.394410">
        <ele>1703.478</ele>
        <time>2026-07-16T11:45:24.426Z</time>
      </trkpt>
      <trkpt lat="36.832360" lon="-3.394840">
        <ele>1715.186</ele>
        <time>2026-07-16T11:45:44.426Z</time>
      </trkpt>
      <trkpt lat="36.832820" lon="-3.395330">
        <ele>1734.147</ele>
        <time>2026-07-16T11:46:04.426Z</time>
      </trkpt>
      <trkpt lat="36.834030" lon="-3.395950">
        <ele>1750.329</ele>
        <time>2026-07-16T11:46:24.426Z</time>
      </trkpt>
      <trkpt lat="36.834490" lon="-3.396090">
        <ele>1754.321</ele>
        <time>2026-07-16T11:46:44.426Z</time>
      </trkpt>
      <trkpt lat="36.834690" lon="-3.396290">
        <ele>1758.009</ele>
        <time>2026-07-16T11:47:04.426Z</time>
      </trkpt>
      <trkpt lat="36.835190" lon="-3.396910">
        <ele>1761.686</ele>
        <time>2026-07-16T11:47:24.426Z</time>
      </trkpt>
      <trkpt lat="36.835760" lon="-3.397280">
        <ele>1760.390</ele>
        <time>2026-07-16T11:47:44.426Z</time>
      </trkpt>
      <trkpt lat="36.835230" lon="-3.398420">
        <ele>1777.487</ele>
        <time>2026-07-16T11:48:04.426Z</time>
      </trkpt>
      <trkpt lat="36.834470" lon="-3.399150">
        <ele>1787.717</ele>
        <time>2026-07-16T11:48:24.426Z</time>
      </trkpt>
      <trkpt lat="36.834090" lon="-3.399760">
        <ele>1792.475</ele>
        <time>2026-07-16T11:48:44.426Z</time>
      </trkpt>
      <trkpt lat="36.833890" lon="-3.399940">
        <ele>1796.838</ele>
        <time>2026-07-16T11:49:04.426Z</time>
      </trkpt>
      <trkpt lat="36.833780" lon="-3.399350">
        <ele>1803.773</ele>
        <time>2026-07-16T11:49:24.426Z</time>
      </trkpt>
      <trkpt lat="36.833650" lon="-3.399350">
        <ele>1807.329</ele>
        <time>2026-07-16T11:49:44.426Z</time>
      </trkpt>
      <trkpt lat="36.833600" lon="-3.399690">
        <ele>1806.457</ele>
        <time>2026-07-16T11:50:04.426Z</time>
      </trkpt>
      <trkpt lat="36.833260" lon="-3.399980">
        <ele>1810.412</ele>
        <time>2026-07-16T11:50:24.426Z</time>
      </trkpt>
      <trkpt lat="36.832830" lon="-3.400270">
        <ele>1817.932</ele>
        <time>2026-07-16T11:50:44.426Z</time>
      </trkpt>
      <trkpt lat="36.832840" lon="-3.400520">
        <ele>1818.305</ele>
        <time>2026-07-16T11:51:04.426Z</time>
      </trkpt>
      <trkpt lat="36.833210" lon="-3.400870">
        <ele>1816.709</ele>
        <time>2026-07-16T11:51:24.426Z</time>
      </trkpt>
      <trkpt lat="36.833170" lon="-3.401450">
        <ele>1821.673</ele>
        <time>2026-07-16T11:51:44.426Z</time>
      </trkpt>
      <trkpt lat="36.832910" lon="-3.401830">
        <ele>1825.447</ele>
        <time>2026-07-16T11:52:04.426Z</time>
      </trkpt>
      <trkpt lat="36.832620" lon="-3.401980">
        <ele>1830.284</ele>
        <time>2026-07-16T11:52:24.426Z</time>
      </trkpt>
      <trkpt lat="36.832680" lon="-3.402290">
        <ele>1827.464</ele>
        <time>2026-07-16T11:52:44.426Z</time>
      </trkpt>
      <trkpt lat="36.832570" lon="-3.402500">
        <ele>1829.782</ele>
        <time>2026-07-16T11:53:04.426Z</time>
      </trkpt>
      <trkpt lat="36.832100" lon="-3.402590">
        <ele>1835.435</ele>
        <time>2026-07-16T11:53:24.426Z</time>
      </trkpt>
      <trkpt lat="36.831780" lon="-3.402490">
        <ele>1837.240</ele>
        <time>2026-07-16T11:53:44.426Z</time>
      </trkpt>
      <trkpt lat="36.831350" lon="-3.402310">
        <ele>1840.996</ele>
        <time>2026-07-16T11:54:04.426Z</time>
      </trkpt>
      <trkpt lat="36.830790" lon="-3.401510">
        <ele>1856.264</ele>
        <time>2026-07-16T11:54:24.426Z</time>
      </trkpt>
      <trkpt lat="36.830280" lon="-3.401280">
        <ele>1860.456</ele>
        <time>2026-07-16T11:54:44.426Z</time>
      </trkpt>
      <trkpt lat="36.829480" lon="-3.400880">
        <ele>1866.359</ele>
        <time>2026-07-16T11:55:04.426Z</time>
      </trkpt>
    </trkseg>
  </trk></gpx>