<?xml version="1.0" encoding="UTF-8"?>
<gpx creator="Wikiloc - https://www.wikiloc.com" version="1.1" xmlns="http://www.topografix.com/GPX/1/1" xmlns:xsi="http://www.w3.org/2001/XMLSchema-instance" xsi:schemaLocation="http://www.topografix.com/GPX/1/1 http://www.topografix.com/GPX/1/1/gpx.xsd">
  <metadata>
    <name>Wikiloc - ASCENSO A MAROFA (por Figueira de Castelo Rodrigo)</name>
    <link href="https://www.wikiloc.com/cycling-trails/ascenso-a-marofa-por-figueira-de-castelo-rodrigo-274067593">
      <text>ASCENSO A MAROFA (por Figueira de Castelo Rodrigo) - Wikiloc on Wikiloc</text>
    </link>
    <time>2026-07-16T10:58:11.584Z</time>
  </metadata>
  <trk>
    <name>ASCENSO A MAROFA (por Figueira de Castelo Rodrigo) - Wikiloc</name>
    <cmt></cmt>
    <desc></desc>
    <trkseg>
      <trkpt lat="40.896090" lon="-6.962970">
        <ele>639.471</ele>
        <time>2026-07-16T10:58:11.583Z</time>
      </trkpt>
      <trkpt lat="40.896090" lon="-6.962960">
        <ele>639.441</ele>
        <time>2026-07-16T10:58:31.583Z</time>
      </trkpt>
      <trkpt lat="40.896100" lon="-6.962960">
        <ele>639.415</ele>
        <time>2026-07-16T10:58:51.583Z</time>
      </trkpt>
      <trkpt lat="40.896110" lon="-6.962950">
        <ele>639.409</ele>
        <time>2026-07-16T10:59:11.583Z</time>
      </trkpt>
      <trkpt lat="40.896120" lon="-6.962950">
        <ele>639.359</ele>
        <time>2026-07-16T10:59:31.583Z</time>
      </trkpt>
      <trkpt lat="40.896130" lon="-6.962950">
        <ele>639.344</ele>
        <time>2026-07-16T10:59:51.583Z</time>
      </trkpt>
      <trkpt lat="40.896140" lon="-6.962950">
        <ele>639.341</ele>
        <time>2026-07-16T11:00:11.583Z</time>
      </trkpt>
      <trkpt lat="40.896150" lon="-6.962950">
        <ele>639.297</ele>
        <time>2026-07-16T11:00:31.583Z</time>
      </trkpt>
      <trkpt lat="40.896150" lon="-6.962960">
        <ele>639.263</ele>
        <time>2026-07-16T11:00:51.583Z</time>
      </trkpt>
      <trkpt lat="40.896160" lon="-6.962960">
        <ele>639.274</ele>
        <time>2026-07-16T11:01:11.583Z</time>
      </trkpt>
      <trkpt lat="40.896170" lon="-6.962970">
        <ele>639.112</ele>
        <time>2026-07-16T11:01:31.583Z</time>
      </trkpt>
      <trkpt lat="40.896180" lon="-6.962980">
        <ele>639.076</ele>
        <time>2026-07-16T11:01:51.583Z</time>
      </trkpt>
      <trkpt lat="40.896180" lon="-6.962990">
        <ele>639.010</ele>
        <time>2026-07-16T11:02:11.583Z</time>
      </trkpt>
      <trkpt lat="40.896190" lon="-6.963000">
        <ele>638.913</ele>
        <time>2026-07-16T11:02:31.583Z</time>
      </trkpt>
      <trkpt lat="40.896190" lon="-6.963010">
        <ele>638.943</ele>
        <time>2026-07-16T11:02:51.583Z</time>
      </trkpt>
      <trkpt lat="40.896190" lon="-6.963020">
        <ele>638.807</ele>
        <time>2026-07-16T11:03:11.583Z</time>
      </trkpt>
      <trkpt lat="40.896190" lon="-6.963030">
        <ele>638.809</ele>
        <time>2026-07-16T11:03:31.583Z</time>
      </trkpt>
      <trkpt lat="40.896190" lon="-6.963040">
        <ele>638.833</ele>
        <time>2026-07-16T11:03:51.583Z</time>
      </trkpt>
      <trkpt lat="40.896190" lon="-6.963050">
        <ele>638.758</ele>
        <time>2026-07-16T11:04:11.583Z</time>
      </trkpt>
      <trkpt lat="40.896190" lon="-6.963060">
        <ele>638.765</ele>
        <time>2026-07-16T11:04:31.583Z</time>
      </trkpt>
      <trkpt lat="40.896190" lon="-6.963070">
        <ele>638.791</ele>
        <time>2026-07-16T11:04:51.583Z</time>
      </trkpt>
      <trkpt lat="40.896180" lon="-6.963080">
        <ele>638.687</ele>
        <time>2026-07-16T11:05:11.583Z</time>
      </trkpt>
      <trkpt lat="40.896180" lon="-6.963090">
        <ele>638.668</ele>
        <time>2026-07-16T11:05:31.583Z</time>
      </trkpt>
      <trkpt lat="40.896170" lon="-6.963090">
        <ele>638.616</ele>
        <time>2026-07-16T11:05:51.583Z</time>
      </trkpt>
      <trkpt lat="40.896170" lon="-6.963100">
        <ele>638.690</ele>
        <time>2026-07-16T11:06:11.583Z</time>
      </trkpt>
      <trkpt lat="40.896160" lon="-6.963110">
        <ele>638.584</ele>
        <time>2026-07-16T11:06:31.583Z</time>
      </trkpt>
      <trkpt lat="40.896150" lon="-6.963110">
        <ele>638.696</ele>
        <time>2026-07-16T11:06:51.583Z</time>
      </trkpt>
      <trkpt lat="40.896150" lon="-6.963120">
        <ele>638.531</ele>
        <time>2026-07-16T11:07:11.583Z</time>
      </trkpt>
      <trkpt lat="40.896140" lon="-6.963120">
        <ele>638.524</ele>
        <time>2026-07-16T11:07:31.583Z</time>
      </trkpt>
      <trkpt lat="40.896130" lon="-6.963120">
        <ele>638.509</ele>
        <time>2026-07-16T11:07:51.583Z</time>
      </trkpt>
      <trkpt lat="40.896120" lon="-6.963120">
        <ele>638.551</ele>
        <time>2026-07-16T11:08:11.583Z</time>
      </trkpt>
      <trkpt lat="40.896110" lon="-6.963120">
        <ele>638.566</ele>
        <time>2026-07-16T11:08:31.583Z</time>
      </trkpt>
      <trkpt lat="40.896100" lon="-6.963110">
        <ele>638.633</ele>
        <time>2026-07-16T11:08:51.583Z</time>
      </trkpt>
      <trkpt lat="40.896090" lon="-6.963110">
        <ele>638.729</ele>
        <time>2026-07-16T11:09:11.583Z</time>
      </trkpt>
      <trkpt lat="40.896090" lon="-6.963100">
        <ele>638.775</ele>
        <time>2026-07-16T11:09:31.583Z</time>
      </trkpt>
      <trkpt lat="40.896080" lon="-6.963100">
        <ele>638.876</ele>
        <time>2026-07-16T11:09:51.583Z</time>
      </trkpt>
      <trkpt lat="40.896080" lon="-6.963090">
        <ele>638.844</ele>
        <time>2026-07-16T11:10:11.583Z</time>
      </trkpt>
      <trkpt lat="40.896070" lon="-6.963080">
        <ele>638.998</ele>
        <time>2026-07-16T11:10:31.583Z</time>
      </trkpt>
      <trkpt lat="40.896070" lon="-6.963070">
        <ele>639.022</ele>
        <time>2026-07-16T11:10:51.583Z</time>
      </trkpt>
      <trkpt lat="40.896000" lon="-6.963050">
        <ele>639.481</ele>
        <time>2026-07-16T11:11:11.583Z</time>
      </trkpt>
      <trkpt lat="40.895960" lon="-6.963030">
        <ele>639.661</ele>
        <time>2026-07-16T11:11:31.583Z</time>
      </trkpt>
      <trkpt lat="40.895890" lon="-6.963020">
        <ele>639.917</ele>
        <time>2026-07-16T11:11:51.583Z</time>
      </trkpt>
      <trkpt lat="40.895390" lon="-6.962940">
        <ele>639.209</ele>
        <time>2026-07-16T11:12:11.583Z</time>
      </trkpt>
      <trkpt lat="40.895370" lon="-6.962940">
        <ele>639.260</ele>
        <time>2026-07-16T11:12:31.583Z</time>
      </trkpt>
      <trkpt lat="40.894630" lon="-6.962870">
        <ele>640.335</ele>
        <time>2026-07-16T11:12:51.583Z</time>
      </trkpt>
      <trkpt lat="40.894580" lon="-6.962840">
        <ele>640.872</ele>
        <time>2026-07-16T11:13:11.583Z</time>
      </trkpt>
      <trkpt lat="40.894540" lon="-6.962820">
        <ele>641.298</ele>
        <time>2026-07-16T11:13:31.583Z</time>
      </trkpt>
      <trkpt lat="40.894310" lon="-6.962800">
        <ele>641.894</ele>
        <time>2026-07-16T11:13:51.583Z</time>
      </trkpt>
      <trkpt lat="40.894290" lon="-6.962800">
        <ele>641.895</ele>
        <time>2026-07-16T11:14:11.583Z</time>
      </trkpt>
      <trkpt lat="40.894250" lon="-6.962800">
        <ele>641.843</ele>
        <time>2026-07-16T11:14:31.583Z</time>
      </trkpt>
      <trkpt lat="40.894220" lon="-6.962800">
        <ele>641.897</ele>
        <time>2026-07-16T11:14:51.583Z</time>
      </trkpt>
      <trkpt lat="40.893510" lon="-6.962860">
        <ele>642.961</ele>
        <time>2026-07-16T11:15:11.583Z</time>
      </trkpt>
      <trkpt lat="40.893420" lon="-6.962870">
        <ele>643.198</ele>
        <time>2026-07-16T11:15:31.583Z</time>
      </trkpt>
      <trkpt lat="40.892700" lon="-6.962930">
        <ele>645.015</ele>
        <time>2026-07-16T11:15:51.583Z</time>
      </trkpt>
      <trkpt lat="40.892680" lon="-6.962940">
        <ele>645.126</ele>
        <time>2026-07-16T11:16:11.583Z</time>
      </trkpt>
      <trkpt lat="40.892120" lon="-6.962980">
        <ele>647.009</ele>
        <time>2026-07-16T11:16:31.583Z</time>
      </trkpt>
      <trkpt lat="40.891160" lon="-6.963070">
        <ele>648.681</ele>
        <time>2026-07-16T11:16:51.583Z</time>
      </trkpt>
      <trkpt lat="40.890920" lon="-6.963090">
        <ele>650.376</ele>
        <time>2026-07-16T11:17:11.583Z</time>
      </trkpt>
      <trkpt lat="40.890880" lon="-6.963100">
        <ele>650.683</ele>
        <time>2026-07-16T11:17:31.583Z</time>
      </trkpt>
      <trkpt lat="40.890710" lon="-6.963120">
        <ele>652.279</ele>
        <time>2026-07-16T11:17:51.583Z</time>
      </trkpt>
      <trkpt lat="40.890600" lon="-6.963140">
        <ele>653.355</ele>
        <time>2026-07-16T11:18:11.583Z</time>
      </trkpt>
      <trkpt lat="40.890550" lon="-6.963170">
        <ele>653.656</ele>
        <time>2026-07-16T11:18:31.583Z</time>
      </trkpt>
      <trkpt lat="40.890190" lon="-6.963240">
        <ele>654.724</ele>
        <time>2026-07-16T11:18:51.583Z</time>
      </trkpt>
      <trkpt lat="40.889820" lon="-6.963300">
        <ele>654.238</ele>
        <time>2026-07-16T11:19:11.583Z</time>
      </trkpt>
      <trkpt lat="40.889820" lon="-6.963310">
        <ele>654.152</ele>
        <time>2026-07-16T11:19:31.583Z</time>
      </trkpt>
      <trkpt lat="40.889810" lon="-6.963310">
        <ele>654.122</ele>
        <time>2026-07-16T11:19:51.583Z</time>
      </trkpt>
      <trkpt lat="40.889810" lon="-6.963320">
        <ele>654.162</ele>
        <time>2026-07-16T11:20:11.583Z</time>
      </trkpt>
      <trkpt lat="40.889810" lon="-6.963330">
        <ele>654.008</ele>
        <time>2026-07-16T11:20:31.583Z</time>
      </trkpt>
      <trkpt lat="40.889800" lon="-6.963330">
        <ele>654.009</ele>
        <time>2026-07-16T11:20:51.583Z</time>
      </trkpt>
      <trkpt lat="40.889800" lon="-6.963340">
        <ele>654.094</ele>
        <time>2026-07-16T11:21:11.583Z</time>
      </trkpt>
      <trkpt lat="40.889790" lon="-6.963350">
        <ele>654.089</ele>
        <time>2026-07-16T11:21:31.583Z</time>
      </trkpt>
      <trkpt lat="40.889780" lon="-6.963360">
        <ele>654.196</ele>
        <time>2026-07-16T11:21:51.583Z</time>
      </trkpt>
      <trkpt lat="40.889770" lon="-6.963360">
        <ele>654.142</ele>
        <time>2026-07-16T11:22:11.583Z</time>
      </trkpt>
      <trkpt lat="40.889760" lon="-6.963360">
        <ele>654.118</ele>
        <time>2026-07-16T11:22:31.583Z</time>
      </trkpt>
      <trkpt lat="40.889760" lon="-6.963370">
        <ele>654.129</ele>
        <time>2026-07-16T11:22:51.583Z</time>
      </trkpt>
      <trkpt lat="40.889750" lon="-6.963370">
        <ele>654.137</ele>
        <time>2026-07-16T11:23:11.583Z</time>
      </trkpt>
      <trkpt lat="40.889740" lon="-6.963370">
        <ele>654.121</ele>
        <time>2026-07-16T11:23:31.583Z</time>
      </trkpt>
      <trkpt lat="40.889730" lon="-6.963370">
        <ele>654.185</ele>
        <time>2026-07-16T11:23:51.583Z</time>
      </trkpt>
      <trkpt lat="40.889730" lon="-6.963360">
        <ele>654.153</ele>
        <time>2026-07-16T11:24:11.583Z</time>
      </trkpt>
      <trkpt lat="40.889720" lon="-6.963360">
        <ele>654.104</ele>
        <time>2026-07-16T11:24:31.583Z</time>
      </trkpt>
      <trkpt lat="40.889620" lon="-6.963440">
        <ele>655.214</ele>
        <time>2026-07-16T11:24:51.583Z</time>
      </trkpt>
      <trkpt lat="40.889580" lon="-6.963460">
        <ele>655.509</ele>
        <time>2026-07-16T11:25:11.583Z</time>
      </trkpt>
      <trkpt lat="40.889240" lon="-6.963730">
        <ele>657.567</ele>
        <time>2026-07-16T11:25:31.583Z</time>
      </trkpt>
      <trkpt lat="40.888900" lon="-6.964010">
        <ele>659.542</ele>
        <time>2026-07-16T11:25:51.583Z</time>
      </trkpt>
      <trkpt lat="40.888830" lon="-6.964110">
        <ele>659.819</ele>
        <time>2026-07-16T11:26:11.583Z</time>
      </trkpt>
      <trkpt lat="40.888510" lon="-6.964400">
        <ele>662.665</ele>
        <time>2026-07-16T11:26:31.583Z</time>
      </trkpt>
      <trkpt lat="40.888270" lon="-6.964610">
        <ele>664.881</ele>
        <time>2026-07-16T11:26:51.583Z</time>
      </trkpt>
      <trkpt lat="40.888120" lon="-6.964730">
        <ele>665.532</ele>
        <time>2026-07-16T11:27:11.583Z</time>
      </trkpt>
      <trkpt lat="40.888080" lon="-6.964760">
        <ele>665.850</ele>
        <time>2026-07-16T11:27:31.583Z</time>
      </trkpt>
      <trkpt lat="40.887980" lon="-6.964840">
        <ele>666.634</ele>
        <time>2026-07-16T11:27:51.583Z</time>
      </trkpt>
      <trkpt lat="40.887790" lon="-6.964990">
        <ele>669.748</ele>
        <time>2026-07-16T11:28:11.583Z</time>
      </trkpt>
      <trkpt lat="40.887740" lon="-6.965040">
        <ele>669.713</ele>
        <time>2026-07-16T11:28:31.583Z</time>
      </trkpt>
      <trkpt lat="40.887360" lon="-6.965350">
        <ele>669.143</ele>
        <time>2026-07-16T11:28:51.583Z</time>
      </trkpt>
      <trkpt lat="40.887190" lon="-6.965490">
        <ele>669.707</ele>
        <time>2026-07-16T11:29:11.583Z</time>
      </trkpt>
      <trkpt lat="40.886700" lon="-6.965900">
        <ele>674.709</ele>
        <time>2026-07-16T11:29:31.583Z</time>
      </trkpt>
      <trkpt lat="40.885990" lon="-6.966490">
        <ele>680.723</ele>
        <time>2026-07-16T11:29:51.583Z</time>
      </trkpt>
      <trkpt lat="40.885120" lon="-6.967210">
        <ele>685.738</ele>
        <time>2026-07-16T11:30:11.583Z</time>
      </trkpt>
      <trkpt lat="40.884820" lon="-6.967450">
        <ele>689.685</ele>
        <time>2026-07-16T11:30:31.583Z</time>
      </trkpt>
      <trkpt lat="40.884680" lon="-6.967550">
        <ele>689.651</ele>
        <time>2026-07-16T11:30:51.583Z</time>
      </trkpt>
      <trkpt lat="40.884600" lon="-6.967570">
        <ele>689.327</ele>
        <time>2026-07-16T11:31:11.583Z</time>
      </trkpt>
      <trkpt lat="40.884420" lon="-6.967710">
        <ele>686.748</ele>
        <time>2026-07-16T11:31:31.583Z</time>
      </trkpt>
      <trkpt lat="40.882860" lon="-6.969010">
        <ele>685.196</ele>
        <time>2026-07-16T11:31:51.583Z</time>
      </trkpt>
      <trkpt lat="40.882850" lon="-6.969010">
        <ele>685.420</ele>
        <time>2026-07-16T11:32:11.583Z</time>
      </trkpt>
      <trkpt lat="40.881820" lon="-6.969880">
        <ele>691.094</ele>
        <time>2026-07-16T11:32:31.583Z</time>
      </trkpt>
      <trkpt lat="40.880290" lon="-6.971150">
        <ele>692.516</ele>
        <time>2026-07-16T11:32:51.583Z</time>
      </trkpt>
      <trkpt lat="40.879780" lon="-6.971580">
        <ele>694.576</ele>
        <time>2026-07-16T11:33:11.583Z</time>
      </trkpt>
      <trkpt lat="40.879660" lon="-6.971680">
        <ele>694.713</ele>
        <time>2026-07-16T11:33:31.583Z</time>
      </trkpt>
      <trkpt lat="40.879560" lon="-6.971750">
        <ele>695.009</ele>
        <time>2026-07-16T11:33:51.583Z</time>
      </trkpt>
      <trkpt lat="40.879480" lon="-6.971790">
        <ele>695.713</ele>
        <time>2026-07-16T11:34:11.583Z</time>
      </trkpt>
      <trkpt lat="40.879410" lon="-6.971830">
        <ele>696.068</ele>
        <time>2026-07-16T11:34:31.583Z</time>
      </trkpt>
      <trkpt lat="40.879320" lon="-6.971860">
        <ele>696.415</ele>
        <time>2026-07-16T11:34:51.583Z</time>
      </trkpt>
      <trkpt lat="40.879240" lon="-6.971880">
        <ele>697.021</ele>
        <time>2026-07-16T11:35:11.583Z</time>
      </trkpt>
      <trkpt lat="40.878740" lon="-6.971960">
        <ele>699.967</ele>
        <time>2026-07-16T11:35:31.583Z</time>
      </trkpt>
      <trkpt lat="40.877910" lon="-6.972050">
        <ele>702.688</ele>
        <time>2026-07-16T11:35:51.583Z</time>
      </trkpt>
      <trkpt lat="40.876890" lon="-6.972180">
        <ele>704.346</ele>
        <time>2026-07-16T11:36:11.583Z</time>
      </trkpt>
      <trkpt lat="40.876350" lon="-6.972250">
        <ele>706.120</ele>
        <time>2026-07-16T11:36:31.583Z</time>
      </trkpt>
      <trkpt lat="40.876310" lon="-6.972260">
        <ele>706.394</ele>
        <time>2026-07-16T11:36:51.583Z</time>
      </trkpt>
      <trkpt lat="40.876250" lon="-6.972280">
        <ele>706.595</ele>
        <time>2026-07-16T11:37:11.583Z</time>
      </trkpt>
      <trkpt lat="40.876220" lon="-6.972300">
        <ele>706.549</ele>
        <time>2026-07-16T11:37:31.583Z</time>
      </trkpt>
      <trkpt lat="40.876190" lon="-6.972310">
        <ele>706.623</ele>
        <time>2026-07-16T11:37:51.583Z</time>
      </trkpt>
      <trkpt lat="40.876150" lon="-6.972340">
        <ele>706.509</ele>
        <time>2026-07-16T11:38:11.583Z</time>
      </trkpt>
      <trkpt lat="40.876120" lon="-6.972360">
        <ele>706.511</ele>
        <time>2026-07-16T11:38:31.583Z</time>
      </trkpt>
      <trkpt lat="40.876090" lon="-6.972390">
        <ele>706.496</ele>
        <time>2026-07-16T11:38:51.583Z</time>
      </trkpt>
      <trkpt lat="40.875890" lon="-6.972570">
        <ele>707.723</ele>
        <time>2026-07-16T11:39:11.583Z</time>
      </trkpt>
      <trkpt lat="40.875790" lon="-6.972670">
        <ele>708.079</ele>
        <time>2026-07-16T11:39:31.583Z</time>
      </trkpt>
      <trkpt lat="40.875400" lon="-6.973070">
        <ele>708.745</ele>
        <time>2026-07-16T11:39:51.583Z</time>
      </trkpt>
      <trkpt lat="40.874950" lon="-6.973510">
        <ele>713.696</ele>
        <time>2026-07-16T11:40:11.583Z</time>
      </trkpt>
      <trkpt lat="40.874860" lon="-6.973590">
        <ele>713.774</ele>
        <time>2026-07-16T11:40:31.583Z</time>
      </trkpt>
      <trkpt lat="40.873530" lon="-6.974920">
        <ele>719.118</ele>
        <time>2026-07-16T11:40:51.583Z</time>
      </trkpt>
      <trkpt lat="40.872800" lon="-6.975660">
        <ele>722.092</ele>
        <time>2026-07-16T11:41:11.583Z</time>
      </trkpt>
      <trkpt lat="40.872420" lon="-6.976040">
        <ele>724.697</ele>
        <time>2026-07-16T11:41:31.583Z</time>
      </trkpt>
      <trkpt lat="40.872390" lon="-6.976110">
        <ele>724.823</ele>
        <time>2026-07-16T11:41:51.583Z</time>
      </trkpt>
      <trkpt lat="40.872340" lon="-6.976160">
        <ele>725.025</ele>
        <time>2026-07-16T11:42:11.583Z</time>
      </trkpt>
      <trkpt lat="40.872040" lon="-6.976520">
        <ele>725.809</ele>
        <time>2026-07-16T11:42:31.583Z</time>
      </trkpt>
      <trkpt lat="40.872040" lon="-6.976530">
        <ele>725.861</ele>
        <time>2026-07-16T11:42:51.583Z</time>
      </trkpt>
      <trkpt lat="40.872030" lon="-6.976540">
        <ele>725.936</ele>
        <time>2026-07-16T11:43:11.583Z</time>
      </trkpt>
      <trkpt lat="40.872030" lon="-6.976560">
        <ele>725.913</ele>
        <time>2026-07-16T11:43:31.583Z</time>
      </trkpt>
      <trkpt lat="40.872030" lon="-6.976570">
        <ele>725.929</ele>
        <time>2026-07-16T11:43:51.583Z</time>
      </trkpt>
      <trkpt lat="40.872020" lon="-6.976580">
        <ele>725.925</ele>
        <time>2026-07-16T11:44:11.583Z</time>
      </trkpt>
      <trkpt lat="40.872020" lon="-6.976600">
        <ele>725.916</ele>
        <time>2026-07-16T11:44:31.583Z</time>
      </trkpt>
      <trkpt lat="40.872010" lon="-6.976610">
        <ele>726.054</ele>
        <time>2026-07-16T11:44:51.583Z</time>
      </trkpt>
      <trkpt lat="40.872010" lon="-6.976620">
        <ele>726.018</ele>
        <time>2026-07-16T11:45:11.583Z</time>
      </trkpt>
      <trkpt lat="40.872000" lon="-6.976770">
        <ele>726.472</ele>
        <time>2026-07-16T11:45:31.583Z</time>
      </trkpt>
      <trkpt lat="40.872000" lon="-6.976880">
        <ele>726.911</ele>
        <time>2026-07-16T11:45:51.583Z</time>
      </trkpt>
      <trkpt lat="40.872010" lon="-6.976980">
        <ele>727.421</ele>
        <time>2026-07-16T11:46:11.583Z</time>
      </trkpt>
      <trkpt lat="40.872030" lon="-6.977130">
        <ele>728.203</ele>
        <time>2026-07-16T11:46:31.583Z</time>
      </trkpt>
      <trkpt lat="40.872030" lon="-6.977200">
        <ele>728.509</ele>
        <time>2026-07-16T11:46:51.583Z</time>
      </trkpt>
      <trkpt lat="40.872130" lon="-6.977840">
        <ele>732.133</ele>
        <time>2026-07-16T11:47:11.583Z</time>
      </trkpt>
      <trkpt lat="40.872330" lon="-6.978950">
        <ele>735.638</ele>
        <time>2026-07-16T11:47:31.583Z</time>
      </trkpt>
      <trkpt lat="40.872560" lon="-6.980280">
        <ele>742.195</ele>
        <time>2026-07-16T11:47:51.583Z</time>
      </trkpt>
      <trkpt lat="40.872740" lon="-6.981330">
        <ele>747.811</ele>
        <time>2026-07-16T11:48:11.583Z</time>
      </trkpt>
      <trkpt lat="40.873060" lon="-6.983270">
        <ele>765.197</ele>
        <time>2026-07-16T11:48:31.583Z</time>
      </trkpt>
      <trkpt lat="40.873240" lon="-6.984320">
        <ele>774.668</ele>
        <time>2026-07-16T11:48:51.583Z</time>
      </trkpt>
      <trkpt lat="40.873280" lon="-6.984500">
        <ele>774.876</ele>
        <time>2026-07-16T11:49:11.583Z</time>
      </trkpt>
      <trkpt lat="40.873300" lon="-6.984780">
        <ele>775.470</ele>
        <time>2026-07-16T11:49:31.583Z</time>
      </trkpt>
      <trkpt lat="40.873330" lon="-6.985650">
        <ele>781.284</ele>
        <time>2026-07-16T11:49:51.583Z</time>
      </trkpt>
      <trkpt lat="40.873370" lon="-6.986680">
        <ele>782.163</ele>
        <time>2026-07-16T11:50:11.583Z</time>
      </trkpt>
      <trkpt lat="40.873400" lon="-6.987330">
        <ele>783.144</ele>
        <time>2026-07-16T11:50:31.583Z</time>
      </trkpt>
      <trkpt lat="40.873460" lon="-6.988520">
        <ele>780.918</ele>
        <time>2026-07-16T11:50:51.583Z</time>
      </trkpt>
      <trkpt lat="40.873540" lon="-6.990330">
        <ele>786.009</ele>
        <time>2026-07-16T11:51:11.583Z</time>
      </trkpt>
      <trkpt lat="40.873620" lon="-6.991920">
        <ele>789.288</ele>
        <time>2026-07-16T11:51:31.583Z</time>
      </trkpt>
      <trkpt lat="40.873620" lon="-6.992180">
        <ele>788.343</ele>
        <time>2026-07-16T11:51:51.583Z</time>
      </trkpt>
      <trkpt lat="40.873620" lon="-6.992240">
        <ele>788.090</ele>
        <time>2026-07-16T11:52:11.583Z</time>
      </trkpt>
      <trkpt lat="40.873610" lon="-6.992310">
        <ele>787.356</ele>
        <time>2026-07-16T11:52:31.583Z</time>
      </trkpt>
      <trkpt lat="40.873610" lon="-6.992380">
        <ele>786.872</ele>
        <time>2026-07-16T11:52:51.583Z</time>
      </trkpt>
      <trkpt lat="40.873580" lon="-6.992450">
        <ele>785.983</ele>
        <time>2026-07-16T11:53:11.583Z</time>
      </trkpt>
      <trkpt lat="40.873570" lon="-6.992480">
        <ele>785.541</ele>
        <time>2026-07-16T11:53:31.583Z</time>
      </trkpt>
      <trkpt lat="40.873550" lon="-6.992520">
        <ele>785.265</ele>
        <time>2026-07-16T11:53:51.583Z</time>
      </trkpt>
      <trkpt lat="40.873490" lon="-6.992600">
        <ele>784.959</ele>
        <time>2026-07-16T11:54:11.583Z</time>
      </trkpt>
      <trkpt lat="40.872950" lon="-6.993090">
        <ele>789.814</ele>
        <time>2026-07-16T11:54:31.583Z</time>
      </trkpt>
      <trkpt lat="40.871690" lon="-6.994160">
        <ele>797.054</ele>
        <time>2026-07-16T11:54:51.583Z</time>
      </trkpt>
      <trkpt lat="40.870450" lon="-6.995200">
        <ele>804.909</ele>
        <time>2026-07-16T11:55:11.583Z</time>
      </trkpt>
      <trkpt lat="40.869920" lon="-6.995640">
        <ele>809.409</ele>
        <time>2026-07-16T11:55:31.583Z</time>
      </trkpt>
      <trkpt lat="40.869860" lon="-6.995680">
        <ele>810.153</ele>
        <time>2026-07-16T11:55:51.583Z</time>
      </trkpt>
      <trkpt lat="40.869800" lon="-6.995700">
        <ele>810.628</ele>
        <time>2026-07-16T11:56:11.583Z</time>
      </trkpt>
      <trkpt lat="40.869510" lon="-6.995800">
        <ele>812.795</ele>
        <time>2026-07-16T11:56:31.583Z</time>
      </trkpt>
      <trkpt lat="40.868470" lon="-6.996070">
        <ele>820.041</ele>
        <time>2026-07-16T11:56:51.583Z</time>
      </trkpt>
      <trkpt lat="40.866460" lon="-6.996680">
        <ele>844.797</ele>
        <time>2026-07-16T11:57:11.583Z</time>
      </trkpt>
      <trkpt lat="40.865170" lon="-6.996980">
        <ele>852.668</ele>
        <time>2026-07-16T11:57:31.583Z</time>
      </trkpt>
      <trkpt lat="40.865120" lon="-6.996980">
        <ele>852.836</ele>
        <time>2026-07-16T11:57:51.583Z</time>
      </trkpt>
      <trkpt lat="40.865080" lon="-6.996960">
        <ele>853.480</ele>
        <time>2026-07-16T11:58:11.583Z</time>
      </trkpt>
      <trkpt lat="40.865050" lon="-6.996930">
        <ele>854.364</ele>
        <time>2026-07-16T11:58:31.583Z</time>
      </trkpt>
      <trkpt lat="40.865050" lon="-6.996870">
        <ele>856.163</ele>
        <time>2026-07-16T11:58:51.583Z</time>
      </trkpt>
      <trkpt lat="40.865070" lon="-6.996820">
        <ele>857.644</ele>
        <time>2026-07-16T11:59:11.583Z</time>
      </trkpt>
      <trkpt lat="40.865120" lon="-6.996760">
        <ele>859.018</ele>
        <time>2026-07-16T11:59:31.583Z</time>
      </trkpt>
      <trkpt lat="40.865280" lon="-6.996670">
        <ele>859.909</ele>
        <time>2026-07-16T11:59:51.583Z</time>
      </trkpt>
      <trkpt lat="40.865400" lon="-6.996600">
        <ele>860.978</ele>
        <time>2026-07-16T12:00:11.583Z</time>
      </trkpt>
      <trkpt lat="40.865570" lon="-6.996490">
        <ele>863.453</ele>
        <time>2026-07-16T12:00:31.583Z</time>
      </trkpt>
      <trkpt lat="40.865770" lon="-6.996310">
        <ele>865.350</ele>
        <time>2026-07-16T12:00:51.583Z</time>
      </trkpt>
      <trkpt lat="40.865910" lon="-6.996110">
        <ele>866.846</ele>
        <time>2026-07-16T12:01:11.583Z</time>
      </trkpt>
      <trkpt lat="40.866350" lon="-6.995340">
        <ele>873.462</ele>
        <time>2026-07-16T12:01:31.583Z</time>
      </trkpt>
      <trkpt lat="40.866670" lon="-6.994610">
        <ele>878.133</ele>
        <time>2026-07-16T12:01:51.583Z</time>
      </trkpt>
      <trkpt lat="40.866820" lon="-6.994100">
        <ele>881.481</ele>
        <time>2026-07-16T12:02:11.583Z</time>
      </trkpt>
      <trkpt lat="40.866850" lon="-6.993790">
        <ele>883.475</ele>
        <time>2026-07-16T12:02:31.583Z</time>
      </trkpt>
      <trkpt lat="40.866850" lon="-6.993630">
        <ele>884.099</ele>
        <time>2026-07-16T12:02:51.583Z</time>
      </trkpt>
      <trkpt lat="40.866820" lon="-6.993510">
        <ele>884.274</ele>
        <time>2026-07-16T12:03:11.583Z</time>
      </trkpt>
      <trkpt lat="40.866780" lon="-6.993310">
        <ele>883.956</ele>
        <time>2026-07-16T12:03:31.583Z</time>
      </trkpt>
      <trkpt lat="40.866740" lon="-6.993270">
        <ele>884.421</ele>
        <time>2026-07-16T12:03:51.583Z</time>
      </trkpt>
      <trkpt lat="40.866700" lon="-6.993240">
        <ele>885.009</ele>
        <time>2026-07-16T12:04:11.583Z</time>
      </trkpt>
      <trkpt lat="40.866670" lon="-6.993220">
        <ele>885.469</ele>
        <time>2026-07-16T12:04:31.583Z</time>
      </trkpt>
      <trkpt lat="40.866610" lon="-6.993250">
        <ele>886.724</ele>
        <time>2026-07-16T12:04:51.583Z</time>
      </trkpt>
      <trkpt lat="40.866530" lon="-6.993320">
        <ele>888.521</ele>
        <time>2026-07-16T12:05:11.583Z</time>
      </trkpt>
      <trkpt lat="40.866470" lon="-6.993430">
        <ele>890.827</ele>
        <time>2026-07-16T12:05:31.583Z</time>
      </trkpt>
      <trkpt lat="40.866320" lon="-6.993800">
        <ele>894.793</ele>
        <time>2026-07-16T12:05:51.583Z</time>
      </trkpt>
      <trkpt lat="40.866210" lon="-6.994060">
        <ele>894.674</ele>
        <time>2026-07-16T12:06:11.583Z</time>
      </trkpt>
      <trkpt lat="40.866100" lon="-6.994250">
        <ele>894.212</ele>
        <time>2026-07-16T12:06:31.583Z</time>
      </trkpt>
      <trkpt lat="40.865910" lon="-6.994470">
        <ele>897.286</ele>
        <time>2026-07-16T12:06:51.583Z</time>
      </trkpt>
      <trkpt lat="40.865460" lon="-6.994860">
        <ele>904.460</ele>
        <time>2026-07-16T12:07:11.583Z</time>
      </trkpt>
      <trkpt lat="40.865310" lon="-6.994950">
        <ele>905.524</ele>
        <time>2026-07-16T12:07:31.583Z</time>
      </trkpt>
      <trkpt lat="40.865120" lon="-6.995020">
        <ele>907.704</ele>
        <time>2026-07-16T12:07:51.583Z</time>
      </trkpt>
      <trkpt lat="40.865010" lon="-6.995040">
        <ele>909.314</ele>
        <time>2026-07-16T12:08:11.583Z</time>
      </trkpt>
      <trkpt lat="40.864850" lon="-6.995060">
        <ele>909.409</ele>
        <time>2026-07-16T12:08:31.583Z</time>
      </trkpt>
      <trkpt lat="40.864640" lon="-6.995020">
        <ele>911.364</ele>
        <time>2026-07-16T12:08:51.583Z</time>
      </trkpt>
      <trkpt lat="40.864370" lon="-6.994910">
        <ele>916.059</ele>
        <time>2026-07-16T12:09:11.583Z</time>
      </trkpt>
      <trkpt lat="40.864010" lon="-6.994760">
        <ele>920.676</ele>
        <time>2026-07-16T12:09:31.583Z</time>
      </trkpt>
      <trkpt lat="40.863310" lon="-6.994460">
        <ele>923.612</ele>
        <time>2026-07-16T12:09:51.583Z</time>
      </trkpt>
      <trkpt lat="40.863220" lon="-6.994390">
        <ele>923.968</ele>
        <time>2026-07-16T12:10:11.583Z</time>
      </trkpt>
      <trkpt lat="40.863130" lon="-6.994310">
        <ele>924.159</ele>
        <time>2026-07-16T12:10:31.583Z</time>
      </trkpt>
      <trkpt lat="40.863050" lon="-6.994180">
        <ele>924.867</ele>
        <time>2026-07-16T12:10:51.583Z</time>
      </trkpt>
      <trkpt lat="40.862990" lon="-6.994030">
        <ele>926.541</ele>
        <time>2026-07-16T12:11:11.583Z</time>
      </trkpt>
      <trkpt lat="40.862940" lon="-6.993780">
        <ele>928.865</ele>
        <time>2026-07-16T12:11:31.583Z</time>
      </trkpt>
      <trkpt lat="40.862900" lon="-6.993500">
        <ele>929.336</ele>
        <time>2026-07-16T12:11:51.583Z</time>
      </trkpt>
      <trkpt lat="40.862910" lon="-6.993220">
        <ele>930.217</ele>
        <time>2026-07-16T12:12:11.583Z</time>
      </trkpt>
      <trkpt lat="40.862930" lon="-6.992970">
        <ele>931.418</ele>
        <time>2026-07-16T12:12:31.583Z</time>
      </trkpt>
      <trkpt lat="40.862950" lon="-6.992880">
        <ele>932.709</ele>
        <time>2026-07-16T12:12:51.583Z</time>
      </trkpt>
      <trkpt lat="40.863060" lon="-6.992550">
        <ele>937.455</ele>
        <time>2026-07-16T12:13:11.583Z</time>
      </trkpt>
      <trkpt lat="40.863220" lon="-6.992060">
        <ele>943.180</ele>
        <time>2026-07-16T12:13:31.583Z</time>
      </trkpt>
      <trkpt lat="40.863420" lon="-6.991500">
        <ele>946.437</ele>
        <time>2026-07-16T12:13:51.583Z</time>
      </trkpt>
      <trkpt lat="40.863470" lon="-6.991400">
        <ele>946.643</ele>
        <time>2026-07-16T12:14:11.583Z</time>
      </trkpt>
      <trkpt lat="40.863530" lon="-6.991300">
        <ele>947.089</ele>
        <time>2026-07-16T12:14:31.583Z</time>
      </trkpt>
      <trkpt lat="40.863690" lon="-6.991100">
        <ele>950.590</ele>
        <time>2026-07-16T12:14:51.583Z</time>
      </trkpt>
      <trkpt lat="40.863850" lon="-6.990890">
        <ele>953.528</ele>
        <time>2026-07-16T12:15:11.583Z</time>
      </trkpt>
      <trkpt lat="40.863980" lon="-6.990750">
        <ele>954.242</ele>
        <time>2026-07-16T12:15:31.583Z</time>
      </trkpt>
      <trkpt lat="40.864030" lon="-6.990720">
        <ele>954.536</ele>
        <time>2026-07-16T12:15:51.583Z</time>
      </trkpt>
      <trkpt lat="40.864090" lon="-6.990700">
        <ele>955.387</ele>
        <time>2026-07-16T12:16:11.583Z</time>
      </trkpt>
      <trkpt lat="40.864150" lon="-6.990700">
        <ele>956.842</ele>
        <time>2026-07-16T12:16:31.583Z</time>
      </trkpt>
      <trkpt lat="40.864220" lon="-6.990730">
        <ele>958.026</ele>
        <time>2026-07-16T12:16:51.583Z</time>
      </trkpt>
      <trkpt lat="40.864300" lon="-6.990800">
        <ele>960.209</ele>
        <time>2026-07-16T12:17:11.583Z</time>
      </trkpt>
      <trkpt lat="40.864500" lon="-6.991050">
        <ele>962.160</ele>
        <time>2026-07-16T12:17:31.583Z</time>
      </trkpt>
      <trkpt lat="40.864600" lon="-6.991170">
        <ele>959.865</ele>
        <time>2026-07-16T12:17:51.583Z</time>
      </trkpt>
      <trkpt lat="40.864640" lon="-6.991230">
        <ele>959.032</ele>
        <time>2026-07-16T12:18:11.583Z</time>
      </trkpt>
      <trkpt lat="40.864670" lon="-6.991280">
        <ele>958.518</ele>
        <time>2026-07-16T12:18:31.583Z</time>
      </trkpt>
      <trkpt lat="40.864670" lon="-6.991330">
        <ele>959.444</ele>
        <time>2026-07-16T12:18:51.583Z</time>
      </trkpt>
      <trkpt lat="40.864670" lon="-6.991450">
        <ele>961.455</ele>
        <time>2026-07-16T12:19:11.583Z</time>
      </trkpt>
      <trkpt lat="40.864650" lon="-6.991600">
        <ele>964.633</ele>
        <time>2026-07-16T12:19:31.583Z</time>
      </trkpt>
      <trkpt lat="40.864640" lon="-6.991700">
        <ele>966.197</ele>
        <time>2026-07-16T12:19:51.583Z</time>
      </trkpt>
      <trkpt lat="40.864600" lon="-6.992060">
        <ele>966.631</ele>
        <time>2026-07-16T12:20:11.583Z</time>
      </trkpt>
      <trkpt lat="40.864580" lon="-6.992190">
        <ele>966.352</ele>
        <time>2026-07-16T12:20:31.583Z</time>
      </trkpt>
      <trkpt lat="40.864540" lon="-6.992360">
        <ele>965.953</ele>
        <time>2026-07-16T12:20:51.583Z</time>
      </trkpt>
      <trkpt lat="40.864510" lon="-6.992410">
        <ele>966.208</ele>
        <time>2026-07-16T12:21:11.583Z</time>
      </trkpt>
      <trkpt lat="40.864480" lon="-6.992440">
        <ele>966.709</ele>
        <time>2026-07-16T12:21:31.583Z</time>
      </trkpt>
      <trkpt lat="40.864450" lon="-6.992450">
        <ele>967.457</ele>
        <time>2026-07-16T12:21:51.583Z</time>
      </trkpt>
      <trkpt lat="40.864420" lon="-6.992430">
        <ele>968.022</ele>
        <time>2026-07-16T12:22:11.583Z</time>
      </trkpt>
      <trkpt lat="40.864400" lon="-6.992400">
        <ele>968.679</ele>
        <time>2026-07-16T12:22:31.583Z</time>
      </trkpt>
      <trkpt lat="40.864370" lon="-6.992240">
        <ele>970.935</ele>
        <time>2026-07-16T12:22:51.583Z</time>
      </trkpt>
    </trkseg>
  </trk></gpx>