<?xml version="1.0" encoding="UTF-8"?>
<gpx creator="Wikiloc - https://www.wikiloc.com" version="1.1" xmlns="http://www.topografix.com/GPX/1/1" xmlns:xsi="http://www.w3.org/2001/XMLSchema-instance" xsi:schemaLocation="http://www.topografix.com/GPX/1/1 http://www.topografix.com/GPX/1/1/gpx.xsd">
  <metadata>
    <name>Wikiloc - ASCENSO AL MIRADOR DE IGUALEJA/ ALTO DE CASCAJARES (por Rond...</name>
    <link href="https://www.wikiloc.com/cycling-trails/ascenso-al-mirador-de-igualeja-alto-de-cascajares-por-ronda-259609988">
      <text>ASCENSO AL MIRADOR DE IGUALEJA/ ALTO DE CASCAJARES (por Rond... on Wikiloc</text>
    </link>
    <time>2026-07-16T10:04:20.199Z</time>
  </metadata>
  <trk>
    <name>ASCENSO AL MIRADOR DE IGUALEJA/ ALTO DE CASCAJARES (por Rond... - Wikiloc</name>
    <cmt></cmt>
    <desc></desc>
    <trkseg>
      <trkpt lat="36.736670" lon="-5.148220">
        <ele>679.845</ele>
        <time>2026-07-16T10:04:20.198Z</time>
      </trkpt>
      <trkpt lat="36.736200" lon="-5.148060">
        <ele>681.447</ele>
        <time>2026-07-16T10:04:40.198Z</time>
      </trkpt>
      <trkpt lat="36.734580" lon="-5.147350">
        <ele>697.211</ele>
        <time>2026-07-16T10:05:00.198Z</time>
      </trkpt>
      <trkpt lat="36.734200" lon="-5.147220">
        <ele>699.609</ele>
        <time>2026-07-16T10:05:20.198Z</time>
      </trkpt>
      <trkpt lat="36.733720" lon="-5.147100">
        <ele>702.256</ele>
        <time>2026-07-16T10:05:40.198Z</time>
      </trkpt>
      <trkpt lat="36.733220" lon="-5.147040">
        <ele>705.139</ele>
        <time>2026-07-16T10:06:00.198Z</time>
      </trkpt>
      <trkpt lat="36.732580" lon="-5.147060">
        <ele>704.753</ele>
        <time>2026-07-16T10:06:20.198Z</time>
      </trkpt>
      <trkpt lat="36.731710" lon="-5.147190">
        <ele>704.810</ele>
        <time>2026-07-16T10:06:40.198Z</time>
      </trkpt>
      <trkpt lat="36.730530" lon="-5.147400">
        <ele>712.954</ele>
        <time>2026-07-16T10:07:00.198Z</time>
      </trkpt>
      <trkpt lat="36.729770" lon="-5.147450">
        <ele>717.413</ele>
        <time>2026-07-16T10:07:20.198Z</time>
      </trkpt>
      <trkpt lat="36.729230" lon="-5.147450">
        <ele>720.273</ele>
        <time>2026-07-16T10:07:40.198Z</time>
      </trkpt>
      <trkpt lat="36.728680" lon="-5.147410">
        <ele>718.262</ele>
        <time>2026-07-16T10:08:00.198Z</time>
      </trkpt>
      <trkpt lat="36.727770" lon="-5.147260">
        <ele>724.972</ele>
        <time>2026-07-16T10:08:20.198Z</time>
      </trkpt>
      <trkpt lat="36.727350" lon="-5.147160">
        <ele>726.628</ele>
        <time>2026-07-16T10:08:40.198Z</time>
      </trkpt>
      <trkpt lat="36.726470" lon="-5.146880">
        <ele>730.389</ele>
        <time>2026-07-16T10:09:00.198Z</time>
      </trkpt>
      <trkpt lat="36.725790" lon="-5.146630">
        <ele>732.617</ele>
        <time>2026-07-16T10:09:20.198Z</time>
      </trkpt>
      <trkpt lat="36.724640" lon="-5.146270">
        <ele>737.909</ele>
        <time>2026-07-16T10:09:40.198Z</time>
      </trkpt>
      <trkpt lat="36.723510" lon="-5.145960">
        <ele>745.084</ele>
        <time>2026-07-16T10:10:00.198Z</time>
      </trkpt>
      <trkpt lat="36.722080" lon="-5.145660">
        <ele>748.867</ele>
        <time>2026-07-16T10:10:20.198Z</time>
      </trkpt>
      <trkpt lat="36.721870" lon="-5.145610">
        <ele>748.251</ele>
        <time>2026-07-16T10:10:40.198Z</time>
      </trkpt>
      <trkpt lat="36.721670" lon="-5.145510">
        <ele>746.758</ele>
        <time>2026-07-16T10:11:00.198Z</time>
      </trkpt>
      <trkpt lat="36.721320" lon="-5.145310">
        <ele>746.312</ele>
        <time>2026-07-16T10:11:20.198Z</time>
      </trkpt>
      <trkpt lat="36.720960" lon="-5.144950">
        <ele>745.631</ele>
        <time>2026-07-16T10:11:40.198Z</time>
      </trkpt>
      <trkpt lat="36.720750" lon="-5.144630">
        <ele>743.791</ele>
        <time>2026-07-16T10:12:00.198Z</time>
      </trkpt>
      <trkpt lat="36.720580" lon="-5.144240">
        <ele>742.810</ele>
        <time>2026-07-16T10:12:20.198Z</time>
      </trkpt>
      <trkpt lat="36.720460" lon="-5.143840">
        <ele>746.040</ele>
        <time>2026-07-16T10:12:40.198Z</time>
      </trkpt>
      <trkpt lat="36.720130" lon="-5.142230">
        <ele>756.859</ele>
        <time>2026-07-16T10:13:00.198Z</time>
      </trkpt>
      <trkpt lat="36.719910" lon="-5.141340">
        <ele>762.903</ele>
        <time>2026-07-16T10:13:20.198Z</time>
      </trkpt>
      <trkpt lat="36.719780" lon="-5.141000">
        <ele>764.323</ele>
        <time>2026-07-16T10:13:40.198Z</time>
      </trkpt>
      <trkpt lat="36.719610" lon="-5.140690">
        <ele>763.109</ele>
        <time>2026-07-16T10:14:00.198Z</time>
      </trkpt>
      <trkpt lat="36.719390" lon="-5.140380">
        <ele>762.267</ele>
        <time>2026-07-16T10:14:20.198Z</time>
      </trkpt>
      <trkpt lat="36.719040" lon="-5.140040">
        <ele>762.930</ele>
        <time>2026-07-16T10:14:40.198Z</time>
      </trkpt>
      <trkpt lat="36.718810" lon="-5.139880">
        <ele>764.514</ele>
        <time>2026-07-16T10:15:00.198Z</time>
      </trkpt>
      <trkpt lat="36.718530" lon="-5.139750">
        <ele>767.731</ele>
        <time>2026-07-16T10:15:20.198Z</time>
      </trkpt>
      <trkpt lat="36.716140" lon="-5.139100">
        <ele>786.065</ele>
        <time>2026-07-16T10:15:40.198Z</time>
      </trkpt>
      <trkpt lat="36.715370" lon="-5.138870">
        <ele>792.694</ele>
        <time>2026-07-16T10:16:00.198Z</time>
      </trkpt>
      <trkpt lat="36.715030" lon="-5.138670">
        <ele>796.894</ele>
        <time>2026-07-16T10:16:20.198Z</time>
      </trkpt>
      <trkpt lat="36.714900" lon="-5.138550">
        <ele>798.333</ele>
        <time>2026-07-16T10:16:40.198Z</time>
      </trkpt>
      <trkpt lat="36.714550" lon="-5.138150">
        <ele>802.533</ele>
        <time>2026-07-16T10:17:00.198Z</time>
      </trkpt>
      <trkpt lat="36.714410" lon="-5.137910">
        <ele>804.032</ele>
        <time>2026-07-16T10:17:20.198Z</time>
      </trkpt>
      <trkpt lat="36.714150" lon="-5.137260">
        <ele>803.992</ele>
        <time>2026-07-16T10:17:40.198Z</time>
      </trkpt>
      <trkpt lat="36.713980" lon="-5.136600">
        <ele>806.511</ele>
        <time>2026-07-16T10:18:00.198Z</time>
      </trkpt>
      <trkpt lat="36.713920" lon="-5.136200">
        <ele>809.209</ele>
        <time>2026-07-16T10:18:20.198Z</time>
      </trkpt>
      <trkpt lat="36.713880" lon="-5.135480">
        <ele>815.825</ele>
        <time>2026-07-16T10:18:40.198Z</time>
      </trkpt>
      <trkpt lat="36.713900" lon="-5.134670">
        <ele>820.918</ele>
        <time>2026-07-16T10:19:00.198Z</time>
      </trkpt>
      <trkpt lat="36.713890" lon="-5.134360">
        <ele>822.452</ele>
        <time>2026-07-16T10:19:20.198Z</time>
      </trkpt>
      <trkpt lat="36.713830" lon="-5.134080">
        <ele>822.739</ele>
        <time>2026-07-16T10:19:40.198Z</time>
      </trkpt>
      <trkpt lat="36.713740" lon="-5.133810">
        <ele>824.493</ele>
        <time>2026-07-16T10:20:00.198Z</time>
      </trkpt>
      <trkpt lat="36.713190" lon="-5.132810">
        <ele>833.862</ele>
        <time>2026-07-16T10:20:20.198Z</time>
      </trkpt>
      <trkpt lat="36.712600" lon="-5.131780">
        <ele>852.572</ele>
        <time>2026-07-16T10:20:40.198Z</time>
      </trkpt>
      <trkpt lat="36.712300" lon="-5.131410">
        <ele>855.941</ele>
        <time>2026-07-16T10:21:00.198Z</time>
      </trkpt>
      <trkpt lat="36.712090" lon="-5.131260">
        <ele>857.551</ele>
        <time>2026-07-16T10:21:20.198Z</time>
      </trkpt>
      <trkpt lat="36.711890" lon="-5.131140">
        <ele>858.583</ele>
        <time>2026-07-16T10:21:40.198Z</time>
      </trkpt>
      <trkpt lat="36.711760" lon="-5.131080">
        <ele>859.525</ele>
        <time>2026-07-16T10:22:00.198Z</time>
      </trkpt>
      <trkpt lat="36.711430" lon="-5.131040">
        <ele>860.917</ele>
        <time>2026-07-16T10:22:20.198Z</time>
      </trkpt>
      <trkpt lat="36.711250" lon="-5.131040">
        <ele>861.409</ele>
        <time>2026-07-16T10:22:40.198Z</time>
      </trkpt>
      <trkpt lat="36.711100" lon="-5.131080">
        <ele>861.890</ele>
        <time>2026-07-16T10:23:00.198Z</time>
      </trkpt>
      <trkpt lat="36.710830" lon="-5.131190">
        <ele>862.133</ele>
        <time>2026-07-16T10:23:20.198Z</time>
      </trkpt>
      <trkpt lat="36.710550" lon="-5.131400">
        <ele>861.297</ele>
        <time>2026-07-16T10:23:40.198Z</time>
      </trkpt>
      <trkpt lat="36.710350" lon="-5.131600">
        <ele>863.234</ele>
        <time>2026-07-16T10:24:00.198Z</time>
      </trkpt>
      <trkpt lat="36.709710" lon="-5.132480">
        <ele>872.478</ele>
        <time>2026-07-16T10:24:20.198Z</time>
      </trkpt>
      <trkpt lat="36.709500" lon="-5.132720">
        <ele>877.447</ele>
        <time>2026-07-16T10:24:40.198Z</time>
      </trkpt>
      <trkpt lat="36.709390" lon="-5.132810">
        <ele>879.227</ele>
        <time>2026-07-16T10:25:00.198Z</time>
      </trkpt>
      <trkpt lat="36.709160" lon="-5.132910">
        <ele>880.496</ele>
        <time>2026-07-16T10:25:20.198Z</time>
      </trkpt>
      <trkpt lat="36.709040" lon="-5.132930">
        <ele>882.526</ele>
        <time>2026-07-16T10:25:40.198Z</time>
      </trkpt>
      <trkpt lat="36.708840" lon="-5.132910">
        <ele>884.781</ele>
        <time>2026-07-16T10:26:00.198Z</time>
      </trkpt>
      <trkpt lat="36.708650" lon="-5.132840">
        <ele>886.161</ele>
        <time>2026-07-16T10:26:20.198Z</time>
      </trkpt>
      <trkpt lat="36.708460" lon="-5.132710">
        <ele>886.817</ele>
        <time>2026-07-16T10:26:40.198Z</time>
      </trkpt>
      <trkpt lat="36.708310" lon="-5.132520">
        <ele>887.009</ele>
        <time>2026-07-16T10:27:00.198Z</time>
      </trkpt>
      <trkpt lat="36.708190" lon="-5.132290">
        <ele>888.640</ele>
        <time>2026-07-16T10:27:20.198Z</time>
      </trkpt>
      <trkpt lat="36.708120" lon="-5.132000">
        <ele>890.183</ele>
        <time>2026-07-16T10:27:40.198Z</time>
      </trkpt>
      <trkpt lat="36.708110" lon="-5.131900">
        <ele>890.857</ele>
        <time>2026-07-16T10:28:00.198Z</time>
      </trkpt>
      <trkpt lat="36.708130" lon="-5.131180">
        <ele>902.874</ele>
        <time>2026-07-16T10:28:20.198Z</time>
      </trkpt>
      <trkpt lat="36.708110" lon="-5.130980">
        <ele>904.898</ele>
        <time>2026-07-16T10:28:40.198Z</time>
      </trkpt>
      <trkpt lat="36.708080" lon="-5.130860">
        <ele>905.427</ele>
        <time>2026-07-16T10:29:00.198Z</time>
      </trkpt>
      <trkpt lat="36.707970" lon="-5.130590">
        <ele>904.737</ele>
        <time>2026-07-16T10:29:20.198Z</time>
      </trkpt>
      <trkpt lat="36.707870" lon="-5.130450">
        <ele>903.576</ele>
        <time>2026-07-16T10:29:40.198Z</time>
      </trkpt>
      <trkpt lat="36.707770" lon="-5.130350">
        <ele>902.786</ele>
        <time>2026-07-16T10:30:00.198Z</time>
      </trkpt>
      <trkpt lat="36.707640" lon="-5.130260">
        <ele>902.394</ele>
        <time>2026-07-16T10:30:20.198Z</time>
      </trkpt>
      <trkpt lat="36.707510" lon="-5.130210">
        <ele>902.257</ele>
        <time>2026-07-16T10:30:40.198Z</time>
      </trkpt>
      <trkpt lat="36.707320" lon="-5.130200">
        <ele>904.122</ele>
        <time>2026-07-16T10:31:00.198Z</time>
      </trkpt>
      <trkpt lat="36.707200" lon="-5.130210">
        <ele>905.909</ele>
        <time>2026-07-16T10:31:20.198Z</time>
      </trkpt>
      <trkpt lat="36.705450" lon="-5.130570">
        <ele>920.811</ele>
        <time>2026-07-16T10:31:40.198Z</time>
      </trkpt>
      <trkpt lat="36.705190" lon="-5.130590">
        <ele>924.954</ele>
        <time>2026-07-16T10:32:00.198Z</time>
      </trkpt>
      <trkpt lat="36.704890" lon="-5.130510">
        <ele>924.578</ele>
        <time>2026-07-16T10:32:20.198Z</time>
      </trkpt>
      <trkpt lat="36.704730" lon="-5.130430">
        <ele>922.925</ele>
        <time>2026-07-16T10:32:40.198Z</time>
      </trkpt>
      <trkpt lat="36.704550" lon="-5.130310">
        <ele>923.969</ele>
        <time>2026-07-16T10:33:00.198Z</time>
      </trkpt>
      <trkpt lat="36.704340" lon="-5.130080">
        <ele>924.948</ele>
        <time>2026-07-16T10:33:20.198Z</time>
      </trkpt>
      <trkpt lat="36.704040" lon="-5.129690">
        <ele>923.798</ele>
        <time>2026-07-16T10:33:40.198Z</time>
      </trkpt>
      <trkpt lat="36.702120" lon="-5.126960">
        <ele>924.157</ele>
        <time>2026-07-16T10:34:00.198Z</time>
      </trkpt>
      <trkpt lat="36.701990" lon="-5.126750">
        <ele>928.387</ele>
        <time>2026-07-16T10:34:20.198Z</time>
      </trkpt>
      <trkpt lat="36.701880" lon="-5.126500">
        <ele>932.653</ele>
        <time>2026-07-16T10:34:40.198Z</time>
      </trkpt>
      <trkpt lat="36.701810" lon="-5.126260">
        <ele>935.404</ele>
        <time>2026-07-16T10:35:00.198Z</time>
      </trkpt>
      <trkpt lat="36.701760" lon="-5.126000">
        <ele>938.614</ele>
        <time>2026-07-16T10:35:20.198Z</time>
      </trkpt>
      <trkpt lat="36.701650" lon="-5.124450">
        <ele>947.709</ele>
        <time>2026-07-16T10:35:40.198Z</time>
      </trkpt>
      <trkpt lat="36.701630" lon="-5.123410">
        <ele>949.937</ele>
        <time>2026-07-16T10:36:00.198Z</time>
      </trkpt>
      <trkpt lat="36.701740" lon="-5.121070">
        <ele>948.750</ele>
        <time>2026-07-16T10:36:20.198Z</time>
      </trkpt>
      <trkpt lat="36.701740" lon="-5.120830">
        <ele>949.484</ele>
        <time>2026-07-16T10:36:40.198Z</time>
      </trkpt>
      <trkpt lat="36.701700" lon="-5.120360">
        <ele>954.761</ele>
        <time>2026-07-16T10:37:00.198Z</time>
      </trkpt>
      <trkpt lat="36.701620" lon="-5.119950">
        <ele>956.695</ele>
        <time>2026-07-16T10:37:20.198Z</time>
      </trkpt>
      <trkpt lat="36.701460" lon="-5.119430">
        <ele>954.634</ele>
        <time>2026-07-16T10:37:40.198Z</time>
      </trkpt>
      <trkpt lat="36.701290" lon="-5.119110">
        <ele>955.744</ele>
        <time>2026-07-16T10:38:00.198Z</time>
      </trkpt>
      <trkpt lat="36.701160" lon="-5.118970">
        <ele>955.413</ele>
        <time>2026-07-16T10:38:20.198Z</time>
      </trkpt>
      <trkpt lat="36.700540" lon="-5.118420">
        <ele>956.783</ele>
        <time>2026-07-16T10:38:40.198Z</time>
      </trkpt>
      <trkpt lat="36.700370" lon="-5.118210">
        <ele>957.894</ele>
        <time>2026-07-16T10:39:00.198Z</time>
      </trkpt>
      <trkpt lat="36.700040" lon="-5.117580">
        <ele>956.957</ele>
        <time>2026-07-16T10:39:20.198Z</time>
      </trkpt>
      <trkpt lat="36.699860" lon="-5.117300">
        <ele>957.822</ele>
        <time>2026-07-16T10:39:40.198Z</time>
      </trkpt>
      <trkpt lat="36.699730" lon="-5.117200">
        <ele>959.609</ele>
        <time>2026-07-16T10:40:00.198Z</time>
      </trkpt>
      <trkpt lat="36.699460" lon="-5.117100">
        <ele>961.181</ele>
        <time>2026-07-16T10:40:20.198Z</time>
      </trkpt>
      <trkpt lat="36.699300" lon="-5.117090">
        <ele>958.564</ele>
        <time>2026-07-16T10:40:40.198Z</time>
      </trkpt>
      <trkpt lat="36.699170" lon="-5.117120">
        <ele>956.618</ele>
        <time>2026-07-16T10:41:00.198Z</time>
      </trkpt>
      <trkpt lat="36.699040" lon="-5.117180">
        <ele>955.055</ele>
        <time>2026-07-16T10:41:20.198Z</time>
      </trkpt>
      <trkpt lat="36.698820" lon="-5.117330">
        <ele>953.619</ele>
        <time>2026-07-16T10:41:40.198Z</time>
      </trkpt>
      <trkpt lat="36.698700" lon="-5.117490">
        <ele>954.098</ele>
        <time>2026-07-16T10:42:00.198Z</time>
      </trkpt>
      <trkpt lat="36.698390" lon="-5.118110">
        <ele>949.298</ele>
        <time>2026-07-16T10:42:20.198Z</time>
      </trkpt>
      <trkpt lat="36.698170" lon="-5.118450">
        <ele>947.737</ele>
        <time>2026-07-16T10:42:40.198Z</time>
      </trkpt>
      <trkpt lat="36.697890" lon="-5.118710">
        <ele>948.067</ele>
        <time>2026-07-16T10:43:00.198Z</time>
      </trkpt>
      <trkpt lat="36.697630" lon="-5.118860">
        <ele>947.768</ele>
        <time>2026-07-16T10:43:20.198Z</time>
      </trkpt>
      <trkpt lat="36.697350" lon="-5.118980">
        <ele>948.542</ele>
        <time>2026-07-16T10:43:40.198Z</time>
      </trkpt>
      <trkpt lat="36.696580" lon="-5.119200">
        <ele>949.726</ele>
        <time>2026-07-16T10:44:00.198Z</time>
      </trkpt>
      <trkpt lat="36.695570" lon="-5.119300">
        <ele>949.409</ele>
        <time>2026-07-16T10:44:20.198Z</time>
      </trkpt>
      <trkpt lat="36.695110" lon="-5.119370">
        <ele>950.558</ele>
        <time>2026-07-16T10:44:40.198Z</time>
      </trkpt>
      <trkpt lat="36.694880" lon="-5.119430">
        <ele>949.191</ele>
        <time>2026-07-16T10:45:00.198Z</time>
      </trkpt>
      <trkpt lat="36.693980" lon="-5.119800">
        <ele>950.395</ele>
        <time>2026-07-16T10:45:20.198Z</time>
      </trkpt>
      <trkpt lat="36.693690" lon="-5.119870">
        <ele>951.542</ele>
        <time>2026-07-16T10:45:40.198Z</time>
      </trkpt>
      <trkpt lat="36.690450" lon="-5.120540">
        <ele>936.326</ele>
        <time>2026-07-16T10:46:00.198Z</time>
      </trkpt>
      <trkpt lat="36.690220" lon="-5.120550">
        <ele>936.385</ele>
        <time>2026-07-16T10:46:20.198Z</time>
      </trkpt>
      <trkpt lat="36.690060" lon="-5.120520">
        <ele>936.935</ele>
        <time>2026-07-16T10:46:40.198Z</time>
      </trkpt>
      <trkpt lat="36.689830" lon="-5.120410">
        <ele>938.584</ele>
        <time>2026-07-16T10:47:00.198Z</time>
      </trkpt>
      <trkpt lat="36.689670" lon="-5.120270">
        <ele>941.064</ele>
        <time>2026-07-16T10:47:20.198Z</time>
      </trkpt>
      <trkpt lat="36.689570" lon="-5.120130">
        <ele>941.277</ele>
        <time>2026-07-16T10:47:40.198Z</time>
      </trkpt>
      <trkpt lat="36.689500" lon="-5.120000">
        <ele>941.461</ele>
        <time>2026-07-16T10:48:00.198Z</time>
      </trkpt>
      <trkpt lat="36.689430" lon="-5.119820">
        <ele>940.927</ele>
        <time>2026-07-16T10:48:20.198Z</time>
      </trkpt>
      <trkpt lat="36.689400" lon="-5.119690">
        <ele>940.409</ele>
        <time>2026-07-16T10:48:40.198Z</time>
      </trkpt>
      <trkpt lat="36.689250" lon="-5.118440">
        <ele>941.699</ele>
        <time>2026-07-16T10:49:00.198Z</time>
      </trkpt>
      <trkpt lat="36.689210" lon="-5.118240">
        <ele>941.092</ele>
        <time>2026-07-16T10:49:20.198Z</time>
      </trkpt>
      <trkpt lat="36.689150" lon="-5.118080">
        <ele>940.616</ele>
        <time>2026-07-16T10:49:40.198Z</time>
      </trkpt>
      <trkpt lat="36.689010" lon="-5.117850">
        <ele>939.963</ele>
        <time>2026-07-16T10:50:00.198Z</time>
      </trkpt>
      <trkpt lat="36.688030" lon="-5.116570">
        <ele>936.517</ele>
        <time>2026-07-16T10:50:20.198Z</time>
      </trkpt>
      <trkpt lat="36.687870" lon="-5.116380">
        <ele>934.476</ele>
        <time>2026-07-16T10:50:40.198Z</time>
      </trkpt>
      <trkpt lat="36.687510" lon="-5.116070">
        <ele>933.166</ele>
        <time>2026-07-16T10:51:00.198Z</time>
      </trkpt>
      <trkpt lat="36.687200" lon="-5.115900">
        <ele>932.445</ele>
        <time>2026-07-16T10:51:20.198Z</time>
      </trkpt>
      <trkpt lat="36.686960" lon="-5.115800">
        <ele>938.825</ele>
        <time>2026-07-16T10:51:40.198Z</time>
      </trkpt>
      <trkpt lat="36.686660" lon="-5.115710">
        <ele>943.562</ele>
        <time>2026-07-16T10:52:00.198Z</time>
      </trkpt>
      <trkpt lat="36.686470" lon="-5.115670">
        <ele>939.683</ele>
        <time>2026-07-16T10:52:20.198Z</time>
      </trkpt>
      <trkpt lat="36.685960" lon="-5.115650">
        <ele>943.411</ele>
        <time>2026-07-16T10:52:40.198Z</time>
      </trkpt>
      <trkpt lat="36.685670" lon="-5.115620">
        <ele>945.009</ele>
        <time>2026-07-16T10:53:00.198Z</time>
      </trkpt>
      <trkpt lat="36.684020" lon="-5.115240">
        <ele>963.338</ele>
        <time>2026-07-16T10:53:20.198Z</time>
      </trkpt>
      <trkpt lat="36.683470" lon="-5.115140">
        <ele>958.091</ele>
        <time>2026-07-16T10:53:40.198Z</time>
      </trkpt>
      <trkpt lat="36.682520" lon="-5.115010">
        <ele>962.245</ele>
        <time>2026-07-16T10:54:00.198Z</time>
      </trkpt>
      <trkpt lat="36.682180" lon="-5.115030">
        <ele>964.322</ele>
        <time>2026-07-16T10:54:20.198Z</time>
      </trkpt>
      <trkpt lat="36.681940" lon="-5.115100">
        <ele>966.926</ele>
        <time>2026-07-16T10:54:40.198Z</time>
      </trkpt>
      <trkpt lat="36.681720" lon="-5.115210">
        <ele>969.475</ele>
        <time>2026-07-16T10:55:00.198Z</time>
      </trkpt>
      <trkpt lat="36.681490" lon="-5.115350">
        <ele>971.325</ele>
        <time>2026-07-16T10:55:20.198Z</time>
      </trkpt>
      <trkpt lat="36.681200" lon="-5.115580">
        <ele>975.194</ele>
        <time>2026-07-16T10:55:40.198Z</time>
      </trkpt>
      <trkpt lat="36.680910" lon="-5.115850">
        <ele>978.234</ele>
        <time>2026-07-16T10:56:00.198Z</time>
      </trkpt>
      <trkpt lat="36.679230" lon="-5.117610">
        <ele>975.093</ele>
        <time>2026-07-16T10:56:20.198Z</time>
      </trkpt>
      <trkpt lat="36.678890" lon="-5.117920">
        <ele>975.565</ele>
        <time>2026-07-16T10:56:40.198Z</time>
      </trkpt>
      <trkpt lat="36.678690" lon="-5.118060">
        <ele>977.021</ele>
        <time>2026-07-16T10:57:00.198Z</time>
      </trkpt>
      <trkpt lat="36.678410" lon="-5.118210">
        <ele>978.609</ele>
        <time>2026-07-16T10:57:20.198Z</time>
      </trkpt>
      <trkpt lat="36.678080" lon="-5.118330">
        <ele>982.671</ele>
        <time>2026-07-16T10:57:40.198Z</time>
      </trkpt>
      <trkpt lat="36.677780" lon="-5.118390">
        <ele>986.234</ele>
        <time>2026-07-16T10:58:00.198Z</time>
      </trkpt>
      <trkpt lat="36.676790" lon="-5.118520">
        <ele>988.818</ele>
        <time>2026-07-16T10:58:20.198Z</time>
      </trkpt>
      <trkpt lat="36.676440" lon="-5.118650">
        <ele>989.625</ele>
        <time>2026-07-16T10:58:40.198Z</time>
      </trkpt>
      <trkpt lat="36.674640" lon="-5.119580">
        <ele>993.859</ele>
        <time>2026-07-16T10:59:00.198Z</time>
      </trkpt>
      <trkpt lat="36.674620" lon="-5.119620">
        <ele>993.628</ele>
        <time>2026-07-16T10:59:20.198Z</time>
      </trkpt>
      <trkpt lat="36.674390" lon="-5.119730">
        <ele>994.388</ele>
        <time>2026-07-16T10:59:40.198Z</time>
      </trkpt>
      <trkpt lat="36.674230" lon="-5.119850">
        <ele>994.387</ele>
        <time>2026-07-16T11:00:00.198Z</time>
      </trkpt>
      <trkpt lat="36.674010" lon="-5.119970">
        <ele>994.477</ele>
        <time>2026-07-16T11:00:20.198Z</time>
      </trkpt>
      <trkpt lat="36.673800" lon="-5.120040">
        <ele>995.487</ele>
        <time>2026-07-16T11:00:40.198Z</time>
      </trkpt>
      <trkpt lat="36.673590" lon="-5.120090">
        <ele>996.042</ele>
        <time>2026-07-16T11:01:00.198Z</time>
      </trkpt>
      <trkpt lat="36.673080" lon="-5.120130">
        <ele>994.726</ele>
        <time>2026-07-16T11:01:20.198Z</time>
      </trkpt>
      <trkpt lat="36.672990" lon="-5.120160">
        <ele>994.209</ele>
        <time>2026-07-16T11:01:40.198Z</time>
      </trkpt>
      <trkpt lat="36.672910" lon="-5.120310">
        <ele>993.590</ele>
        <time>2026-07-16T11:02:00.198Z</time>
      </trkpt>
      <trkpt lat="36.672880" lon="-5.120250">
        <ele>993.293</ele>
        <time>2026-07-16T11:02:20.198Z</time>
      </trkpt>
      <trkpt lat="36.672870" lon="-5.120170">
        <ele>993.987</ele>
        <time>2026-07-16T11:02:40.198Z</time>
      </trkpt>
      <trkpt lat="36.672820" lon="-5.120090">
        <ele>994.544</ele>
        <time>2026-07-16T11:03:00.198Z</time>
      </trkpt>
      <trkpt lat="36.672360" lon="-5.119910">
        <ele>993.098</ele>
        <time>2026-07-16T11:03:20.198Z</time>
      </trkpt>
      <trkpt lat="36.672210" lon="-5.119830">
        <ele>992.767</ele>
        <time>2026-07-16T11:03:40.198Z</time>
      </trkpt>
      <trkpt lat="36.672060" lon="-5.119690">
        <ele>993.617</ele>
        <time>2026-07-16T11:04:00.198Z</time>
      </trkpt>
      <trkpt lat="36.671760" lon="-5.119470">
        <ele>995.136</ele>
        <time>2026-07-16T11:04:20.198Z</time>
      </trkpt>
      <trkpt lat="36.671540" lon="-5.119260">
        <ele>997.596</ele>
        <time>2026-07-16T11:04:40.198Z</time>
      </trkpt>
      <trkpt lat="36.671440" lon="-5.119120">
        <ele>998.734</ele>
        <time>2026-07-16T11:05:00.198Z</time>
      </trkpt>
      <trkpt lat="36.671210" lon="-5.118730">
        <ele>1001.755</ele>
        <time>2026-07-16T11:05:20.198Z</time>
      </trkpt>
      <trkpt lat="36.671110" lon="-5.118510">
        <ele>1002.010</ele>
        <time>2026-07-16T11:05:40.198Z</time>
      </trkpt>
      <trkpt lat="36.670960" lon="-5.118040">
        <ele>1003.609</ele>
        <time>2026-07-16T11:06:00.198Z</time>
      </trkpt>
      <trkpt lat="36.670880" lon="-5.117690">
        <ele>1006.115</ele>
        <time>2026-07-16T11:06:20.198Z</time>
      </trkpt>
      <trkpt lat="36.670780" lon="-5.116980">
        <ele>1009.398</ele>
        <time>2026-07-16T11:06:40.198Z</time>
      </trkpt>
      <trkpt lat="36.670740" lon="-5.116930">
        <ele>1009.182</ele>
        <time>2026-07-16T11:07:00.198Z</time>
      </trkpt>
      <trkpt lat="36.670640" lon="-5.116330">
        <ele>1009.919</ele>
        <time>2026-07-16T11:07:20.198Z</time>
      </trkpt>
      <trkpt lat="36.670570" lon="-5.116080">
        <ele>1009.273</ele>
        <time>2026-07-16T11:07:40.198Z</time>
      </trkpt>
      <trkpt lat="36.670550" lon="-5.116040">
        <ele>1009.062</ele>
        <time>2026-07-16T11:08:00.198Z</time>
      </trkpt>
      <trkpt lat="36.670480" lon="-5.115980">
        <ele>1008.912</ele>
        <time>2026-07-16T11:08:20.198Z</time>
      </trkpt>
      <trkpt lat="36.670380" lon="-5.115980">
        <ele>1008.751</ele>
        <time>2026-07-16T11:08:40.198Z</time>
      </trkpt>
      <trkpt lat="36.670310" lon="-5.115950">
        <ele>1008.541</ele>
        <time>2026-07-16T11:09:00.198Z</time>
      </trkpt>
      <trkpt lat="36.670340" lon="-5.115880">
        <ele>1008.499</ele>
        <time>2026-07-16T11:09:20.198Z</time>
      </trkpt>
      <trkpt lat="36.670340" lon="-5.115770">
        <ele>1008.307</ele>
        <time>2026-07-16T11:09:40.198Z</time>
      </trkpt>
      <trkpt lat="36.670300" lon="-5.115690">
        <ele>1008.127</ele>
        <time>2026-07-16T11:10:00.198Z</time>
      </trkpt>
      <trkpt lat="36.669980" lon="-5.115400">
        <ele>1009.109</ele>
        <time>2026-07-16T11:10:20.198Z</time>
      </trkpt>
      <trkpt lat="36.669820" lon="-5.115300">
        <ele>1009.841</ele>
        <time>2026-07-16T11:10:40.198Z</time>
      </trkpt>
      <trkpt lat="36.669680" lon="-5.115150">
        <ele>1012.194</ele>
        <time>2026-07-16T11:11:00.198Z</time>
      </trkpt>
      <trkpt lat="36.669360" lon="-5.114880">
        <ele>1016.078</ele>
        <time>2026-07-16T11:11:20.198Z</time>
      </trkpt>
      <trkpt lat="36.669090" lon="-5.114470">
        <ele>1020.485</ele>
        <time>2026-07-16T11:11:40.198Z</time>
      </trkpt>
      <trkpt lat="36.668980" lon="-5.114240">
        <ele>1023.079</ele>
        <time>2026-07-16T11:12:00.198Z</time>
      </trkpt>
      <trkpt lat="36.668650" lon="-5.113400">
        <ele>1026.528</ele>
        <time>2026-07-16T11:12:20.198Z</time>
      </trkpt>
      <trkpt lat="36.668590" lon="-5.113270">
        <ele>1027.168</ele>
        <time>2026-07-16T11:12:40.198Z</time>
      </trkpt>
      <trkpt lat="36.668480" lon="-5.113110">
        <ele>1029.617</ele>
        <time>2026-07-16T11:13:00.198Z</time>
      </trkpt>
      <trkpt lat="36.668310" lon="-5.112960">
        <ele>1032.587</ele>
        <time>2026-07-16T11:13:20.198Z</time>
      </trkpt>
      <trkpt lat="36.667760" lon="-5.112570">
        <ele>1041.791</ele>
        <time>2026-07-16T11:13:40.198Z</time>
      </trkpt>
      <trkpt lat="36.667560" lon="-5.112390">
        <ele>1043.981</ele>
        <time>2026-07-16T11:14:00.198Z</time>
      </trkpt>
      <trkpt lat="36.667400" lon="-5.112150">
        <ele>1045.519</ele>
        <time>2026-07-16T11:14:20.198Z</time>
      </trkpt>
      <trkpt lat="36.667270" lon="-5.111840">
        <ele>1045.209</ele>
        <time>2026-07-16T11:14:40.198Z</time>
      </trkpt>
      <trkpt lat="36.667200" lon="-5.111430">
        <ele>1045.581</ele>
        <time>2026-07-16T11:15:00.198Z</time>
      </trkpt>
      <trkpt lat="36.667000" lon="-5.109760">
        <ele>1048.334</ele>
        <time>2026-07-16T11:15:20.198Z</time>
      </trkpt>
      <trkpt lat="36.666900" lon="-5.109200">
        <ele>1047.288</ele>
        <time>2026-07-16T11:15:40.198Z</time>
      </trkpt>
      <trkpt lat="36.666800" lon="-5.108870">
        <ele>1048.695</ele>
        <time>2026-07-16T11:16:00.198Z</time>
      </trkpt>
      <trkpt lat="36.666680" lon="-5.108540">
        <ele>1051.259</ele>
        <time>2026-07-16T11:16:20.198Z</time>
      </trkpt>
      <trkpt lat="36.666560" lon="-5.108320">
        <ele>1051.988</ele>
        <time>2026-07-16T11:16:40.198Z</time>
      </trkpt>
      <trkpt lat="36.666360" lon="-5.107980">
        <ele>1051.058</ele>
        <time>2026-07-16T11:17:00.198Z</time>
      </trkpt>
      <trkpt lat="36.665810" lon="-5.107400">
        <ele>1051.897</ele>
        <time>2026-07-16T11:17:20.198Z</time>
      </trkpt>
      <trkpt lat="36.664990" lon="-5.106740">
        <ele>1047.687</ele>
        <time>2026-07-16T11:17:40.198Z</time>
      </trkpt>
      <trkpt lat="36.664810" lon="-5.106500">
        <ele>1048.035</ele>
        <time>2026-07-16T11:18:00.198Z</time>
      </trkpt>
      <trkpt lat="36.664640" lon="-5.106150">
        <ele>1048.486</ele>
        <time>2026-07-16T11:18:20.198Z</time>
      </trkpt>
      <trkpt lat="36.664350" lon="-5.105070">
        <ele>1050.814</ele>
        <time>2026-07-16T11:18:40.198Z</time>
      </trkpt>
      <trkpt lat="36.664200" lon="-5.104730">
        <ele>1049.209</ele>
        <time>2026-07-16T11:19:00.198Z</time>
      </trkpt>
      <trkpt lat="36.663990" lon="-5.104490">
        <ele>1046.935</ele>
        <time>2026-07-16T11:19:20.198Z</time>
      </trkpt>
      <trkpt lat="36.663010" lon="-5.103700">
        <ele>1051.198</ele>
        <time>2026-07-16T11:19:40.198Z</time>
      </trkpt>
      <trkpt lat="36.662780" lon="-5.103440">
        <ele>1051.422</ele>
        <time>2026-07-16T11:20:00.198Z</time>
      </trkpt>
      <trkpt lat="36.662600" lon="-5.103160">
        <ele>1050.679</ele>
        <time>2026-07-16T11:20:20.198Z</time>
      </trkpt>
      <trkpt lat="36.662450" lon="-5.102900">
        <ele>1053.693</ele>
        <time>2026-07-16T11:20:40.198Z</time>
      </trkpt>
      <trkpt lat="36.661520" lon="-5.100770">
        <ele>1066.812</ele>
        <time>2026-07-16T11:21:00.198Z</time>
      </trkpt>
      <trkpt lat="36.661120" lon="-5.099910">
        <ele>1070.722</ele>
        <time>2026-07-16T11:21:20.198Z</time>
      </trkpt>
      <trkpt lat="36.660990" lon="-5.099720">
        <ele>1070.751</ele>
        <time>2026-07-16T11:21:40.198Z</time>
      </trkpt>
      <trkpt lat="36.660820" lon="-5.099510">
        <ele>1070.321</ele>
        <time>2026-07-16T11:22:00.198Z</time>
      </trkpt>
      <trkpt lat="36.660710" lon="-5.099410">
        <ele>1069.529</ele>
        <time>2026-07-16T11:22:20.198Z</time>
      </trkpt>
      <trkpt lat="36.660540" lon="-5.099290">
        <ele>1068.600</ele>
        <time>2026-07-16T11:22:40.198Z</time>
      </trkpt>
      <trkpt lat="36.660260" lon="-5.099180">
        <ele>1068.920</ele>
        <time>2026-07-16T11:23:00.198Z</time>
      </trkpt>
      <trkpt lat="36.659980" lon="-5.099130">
        <ele>1070.609</ele>
        <time>2026-07-16T11:23:20.198Z</time>
      </trkpt>
      <trkpt lat="36.659780" lon="-5.099140">
        <ele>1071.134</ele>
        <time>2026-07-16T11:23:40.198Z</time>
      </trkpt>
      <trkpt lat="36.658940" lon="-5.099320">
        <ele>1077.027</ele>
        <time>2026-07-16T11:24:00.198Z</time>
      </trkpt>
      <trkpt lat="36.658660" lon="-5.099360">
        <ele>1079.111</ele>
        <time>2026-07-16T11:24:20.198Z</time>
      </trkpt>
      <trkpt lat="36.658370" lon="-5.099350">
        <ele>1080.638</ele>
        <time>2026-07-16T11:24:40.198Z</time>
      </trkpt>
      <trkpt lat="36.658180" lon="-5.099320">
        <ele>1081.092</ele>
        <time>2026-07-16T11:25:00.198Z</time>
      </trkpt>
      <trkpt lat="36.657810" lon="-5.099200">
        <ele>1081.861</ele>
        <time>2026-07-16T11:25:20.198Z</time>
      </trkpt>
      <trkpt lat="36.657430" lon="-5.098990">
        <ele>1083.431</ele>
        <time>2026-07-16T11:25:40.198Z</time>
      </trkpt>
      <trkpt lat="36.657240" lon="-5.098840">
        <ele>1084.650</ele>
        <time>2026-07-16T11:26:00.198Z</time>
      </trkpt>
      <trkpt lat="36.657030" lon="-5.098630">
        <ele>1086.120</ele>
        <time>2026-07-16T11:26:20.198Z</time>
      </trkpt>
      <trkpt lat="36.656910" lon="-5.098490">
        <ele>1087.922</ele>
        <time>2026-07-16T11:26:40.198Z</time>
      </trkpt>
      <trkpt lat="36.656710" lon="-5.098200">
        <ele>1090.962</ele>
        <time>2026-07-16T11:27:00.198Z</time>
      </trkpt>
      <trkpt lat="36.656550" lon="-5.097880">
        <ele>1090.608</ele>
        <time>2026-07-16T11:27:20.198Z</time>
      </trkpt>
      <trkpt lat="36.656390" lon="-5.097470">
        <ele>1091.409</ele>
        <time>2026-07-16T11:27:40.198Z</time>
      </trkpt>
      <trkpt lat="36.656250" lon="-5.096890">
        <ele>1089.494</ele>
        <time>2026-07-16T11:28:00.198Z</time>
      </trkpt>
      <trkpt lat="36.656240" lon="-5.096580">
        <ele>1088.287</ele>
        <time>2026-07-16T11:28:20.198Z</time>
      </trkpt>
      <trkpt lat="36.656300" lon="-5.094810">
        <ele>1088.681</ele>
        <time>2026-07-16T11:28:40.198Z</time>
      </trkpt>
      <trkpt lat="36.656300" lon="-5.094280">
        <ele>1088.438</ele>
        <time>2026-07-16T11:29:00.198Z</time>
      </trkpt>
      <trkpt lat="36.656240" lon="-5.094000">
        <ele>1086.862</ele>
        <time>2026-07-16T11:29:20.198Z</time>
      </trkpt>
      <trkpt lat="36.656090" lon="-5.093680">
        <ele>1085.851</ele>
        <time>2026-07-16T11:29:40.198Z</time>
      </trkpt>
      <trkpt lat="36.655910" lon="-5.093440">
        <ele>1086.681</ele>
        <time>2026-07-16T11:30:00.198Z</time>
      </trkpt>
      <trkpt lat="36.655740" lon="-5.093300">
        <ele>1086.550</ele>
        <time>2026-07-16T11:30:20.198Z</time>
      </trkpt>
      <trkpt lat="36.655620" lon="-5.093240">
        <ele>1086.110</ele>
        <time>2026-07-16T11:30:40.198Z</time>
      </trkpt>
      <trkpt lat="36.654910" lon="-5.092980">
        <ele>1087.036</ele>
        <time>2026-07-16T11:31:00.198Z</time>
      </trkpt>
      <trkpt lat="36.654760" lon="-5.092900">
        <ele>1087.917</ele>
        <time>2026-07-16T11:31:20.198Z</time>
      </trkpt>
      <trkpt lat="36.654560" lon="-5.092770">
        <ele>1087.518</ele>
        <time>2026-07-16T11:31:40.198Z</time>
      </trkpt>
      <trkpt lat="36.653960" lon="-5.092240">
        <ele>1088.509</ele>
        <time>2026-07-16T11:32:00.198Z</time>
      </trkpt>
      <trkpt lat="36.653680" lon="-5.092040">
        <ele>1088.985</ele>
        <time>2026-07-16T11:32:20.198Z</time>
      </trkpt>
      <trkpt lat="36.653560" lon="-5.091990">
        <ele>1089.058</ele>
        <time>2026-07-16T11:32:40.198Z</time>
      </trkpt>
      <trkpt lat="36.653240" lon="-5.091920">
        <ele>1089.462</ele>
        <time>2026-07-16T11:33:00.198Z</time>
      </trkpt>
      <trkpt lat="36.652650" lon="-5.091840">
        <ele>1091.389</ele>
        <time>2026-07-16T11:33:20.198Z</time>
      </trkpt>
      <trkpt lat="36.649150" lon="-5.091360">
        <ele>1103.223</ele>
        <time>2026-07-16T11:33:40.198Z</time>
      </trkpt>
      <trkpt lat="36.648820" lon="-5.091290">
        <ele>1106.852</ele>
        <time>2026-07-16T11:34:00.198Z</time>
      </trkpt>
      <trkpt lat="36.648240" lon="-5.091090">
        <ele>1108.022</ele>
        <time>2026-07-16T11:34:20.198Z</time>
      </trkpt>
      <trkpt lat="36.647770" lon="-5.090870">
        <ele>1109.281</ele>
        <time>2026-07-16T11:34:40.198Z</time>
      </trkpt>
      <trkpt lat="36.646790" lon="-5.090230">
        <ele>1116.751</ele>
        <time>2026-07-16T11:35:00.198Z</time>
      </trkpt>
      <trkpt lat="36.646310" lon="-5.089900">
        <ele>1117.475</ele>
        <time>2026-07-16T11:35:20.198Z</time>
      </trkpt>
      <trkpt lat="36.646000" lon="-5.089700">
        <ele>1118.628</ele>
        <time>2026-07-16T11:35:40.198Z</time>
      </trkpt>
      <trkpt lat="36.645700" lon="-5.089600">
        <ele>1120.420</ele>
        <time>2026-07-16T11:36:00.198Z</time>
      </trkpt>
      <trkpt lat="36.645440" lon="-5.089560">
        <ele>1121.309</ele>
        <time>2026-07-16T11:36:20.198Z</time>
      </trkpt>
      <trkpt lat="36.645040" lon="-5.089540">
        <ele>1125.579</ele>
        <time>2026-07-16T11:36:40.198Z</time>
      </trkpt>
      <trkpt lat="36.644870" lon="-5.089510">
        <ele>1127.652</ele>
        <time>2026-07-16T11:37:00.198Z</time>
      </trkpt>
      <trkpt lat="36.644690" lon="-5.089450">
        <ele>1129.426</ele>
        <time>2026-07-16T11:37:20.198Z</time>
      </trkpt>
      <trkpt lat="36.644510" lon="-5.089340">
        <ele>1128.883</ele>
        <time>2026-07-16T11:37:40.198Z</time>
      </trkpt>
      <trkpt lat="36.644310" lon="-5.089110">
        <ele>1128.227</ele>
        <time>2026-07-16T11:38:00.198Z</time>
      </trkpt>
      <trkpt lat="36.644000" lon="-5.088540">
        <ele>1126.646</ele>
        <time>2026-07-16T11:38:20.198Z</time>
      </trkpt>
      <trkpt lat="36.643810" lon="-5.088280">
        <ele>1123.916</ele>
        <time>2026-07-16T11:38:40.198Z</time>
      </trkpt>
      <trkpt lat="36.643660" lon="-5.088140">
        <ele>1122.045</ele>
        <time>2026-07-16T11:39:00.198Z</time>
      </trkpt>
      <trkpt lat="36.643490" lon="-5.088060">
        <ele>1119.755</ele>
        <time>2026-07-16T11:39:20.198Z</time>
      </trkpt>
      <trkpt lat="36.643200" lon="-5.088040">
        <ele>1116.766</ele>
        <time>2026-07-16T11:39:40.198Z</time>
      </trkpt>
      <trkpt lat="36.642930" lon="-5.088120">
        <ele>1117.729</ele>
        <time>2026-07-16T11:40:00.198Z</time>
      </trkpt>
      <trkpt lat="36.642780" lon="-5.088200">
        <ele>1119.921</ele>
        <time>2026-07-16T11:40:20.198Z</time>
      </trkpt>
      <trkpt lat="36.642680" lon="-5.088300">
        <ele>1123.109</ele>
        <time>2026-07-16T11:40:40.198Z</time>
      </trkpt>
      <trkpt lat="36.642520" lon="-5.088540">
        <ele>1126.258</ele>
        <time>2026-07-16T11:41:00.198Z</time>
      </trkpt>
      <trkpt lat="36.642270" lon="-5.089140">
        <ele>1123.841</ele>
        <time>2026-07-16T11:41:20.198Z</time>
      </trkpt>
      <trkpt lat="36.642100" lon="-5.089440">
        <ele>1126.765</ele>
        <time>2026-07-16T11:41:40.198Z</time>
      </trkpt>
      <trkpt lat="36.641850" lon="-5.089780">
        <ele>1128.962</ele>
        <time>2026-07-16T11:42:00.198Z</time>
      </trkpt>
      <trkpt lat="36.641550" lon="-5.090120">
        <ele>1126.896</ele>
        <time>2026-07-16T11:42:20.198Z</time>
      </trkpt>
      <trkpt lat="36.641350" lon="-5.090320">
        <ele>1124.255</ele>
        <time>2026-07-16T11:42:40.198Z</time>
      </trkpt>
      <trkpt lat="36.641100" lon="-5.090490">
        <ele>1122.195</ele>
        <time>2026-07-16T11:43:00.198Z</time>
      </trkpt>
      <trkpt lat="36.640930" lon="-5.090560">
        <ele>1123.184</ele>
        <time>2026-07-16T11:43:20.198Z</time>
      </trkpt>
      <trkpt lat="36.640730" lon="-5.090600">
        <ele>1124.224</ele>
        <time>2026-07-16T11:43:40.198Z</time>
      </trkpt>
      <trkpt lat="36.640480" lon="-5.090590">
        <ele>1124.656</ele>
        <time>2026-07-16T11:44:00.198Z</time>
      </trkpt>
      <trkpt lat="36.640330" lon="-5.090560">
        <ele>1124.359</ele>
        <time>2026-07-16T11:44:20.198Z</time>
      </trkpt>
      <trkpt lat="36.640260" lon="-5.090590">
        <ele>1123.414</ele>
        <time>2026-07-16T11:44:40.198Z</time>
      </trkpt>
      <trkpt lat="36.640130" lon="-5.090580">
        <ele>1123.709</ele>
        <time>2026-07-16T11:45:00.198Z</time>
      </trkpt>
      <trkpt lat="36.639730" lon="-5.090460">
        <ele>1125.757</ele>
        <time>2026-07-16T11:45:20.198Z</time>
      </trkpt>
      <trkpt lat="36.639690" lon="-5.090430">
        <ele>1125.610</ele>
        <time>2026-07-16T11:45:40.198Z</time>
      </trkpt>
      <trkpt lat="36.639680" lon="-5.090470">
        <ele>1125.244</ele>
        <time>2026-07-16T11:46:00.198Z</time>
      </trkpt>
    </trkseg>
  </trk></gpx>