<?xml version="1.0" encoding="UTF-8"?>
<gpx creator="Wikiloc - https://www.wikiloc.com" version="1.1" xmlns="http://www.topografix.com/GPX/1/1" xmlns:xsi="http://www.w3.org/2001/XMLSchema-instance" xsi:schemaLocation="http://www.topografix.com/GPX/1/1 http://www.topografix.com/GPX/1/1/gpx.xsd">
  <metadata>
    <name>Wikiloc - ASCENSO AL PICO DE LAS NIEVES (por San Pedro de Maspalomas) ...</name>
    <link href="https://www.wikiloc.com/cycling-trails/ascenso-al-pico-de-las-nieves-por-san-pedro-de-maspalomas-255179746">
      <text>ASCENSO AL PICO DE LAS NIEVES (por San Pedro de Maspalomas) ... on Wikiloc</text>
    </link>
    <time>2026-07-16T10:00:23.548Z</time>
  </metadata>
  <trk>
    <name>ASCENSO AL PICO DE LAS NIEVES (por San Pedro de Maspalomas) ... - Wikiloc</name>
    <cmt></cmt>
    <desc></desc>
    <trkseg>
      <trkpt lat="27.771060" lon="-15.581490">
        <ele>83.229</ele>
        <time>2026-07-16T10:00:23.546Z</time>
      </trkpt>
      <trkpt lat="27.773000" lon="-15.582670">
        <ele>95.800</ele>
        <time>2026-07-16T10:00:43.546Z</time>
      </trkpt>
      <trkpt lat="27.774370" lon="-15.582920">
        <ele>101.920</ele>
        <time>2026-07-16T10:01:03.546Z</time>
      </trkpt>
      <trkpt lat="27.774570" lon="-15.582830">
        <ele>102.709</ele>
        <time>2026-07-16T10:01:23.546Z</time>
      </trkpt>
      <trkpt lat="27.775170" lon="-15.583160">
        <ele>104.624</ele>
        <time>2026-07-16T10:01:43.546Z</time>
      </trkpt>
      <trkpt lat="27.777160" lon="-15.582580">
        <ele>111.017</ele>
        <time>2026-07-16T10:02:03.546Z</time>
      </trkpt>
      <trkpt lat="27.779230" lon="-15.583350">
        <ele>121.687</ele>
        <time>2026-07-16T10:02:23.546Z</time>
      </trkpt>
      <trkpt lat="27.782350" lon="-15.582470">
        <ele>144.113</ele>
        <time>2026-07-16T10:02:43.546Z</time>
      </trkpt>
      <trkpt lat="27.783940" lon="-15.582260">
        <ele>148.179</ele>
        <time>2026-07-16T10:03:03.546Z</time>
      </trkpt>
      <trkpt lat="27.786750" lon="-15.580480">
        <ele>155.651</ele>
        <time>2026-07-16T10:03:23.546Z</time>
      </trkpt>
      <trkpt lat="27.788380" lon="-15.579740">
        <ele>165.459</ele>
        <time>2026-07-16T10:03:43.546Z</time>
      </trkpt>
      <trkpt lat="27.789860" lon="-15.579770">
        <ele>179.096</ele>
        <time>2026-07-16T10:04:03.546Z</time>
      </trkpt>
      <trkpt lat="27.790530" lon="-15.579650">
        <ele>189.268</ele>
        <time>2026-07-16T10:04:23.546Z</time>
      </trkpt>
      <trkpt lat="27.791180" lon="-15.580300">
        <ele>189.013</ele>
        <time>2026-07-16T10:04:43.546Z</time>
      </trkpt>
      <trkpt lat="27.792300" lon="-15.580470">
        <ele>207.543</ele>
        <time>2026-07-16T10:05:03.546Z</time>
      </trkpt>
      <trkpt lat="27.792780" lon="-15.580720">
        <ele>209.707</ele>
        <time>2026-07-16T10:05:23.546Z</time>
      </trkpt>
      <trkpt lat="27.792870" lon="-15.581580">
        <ele>204.609</ele>
        <time>2026-07-16T10:05:43.546Z</time>
      </trkpt>
      <trkpt lat="27.793400" lon="-15.581620">
        <ele>216.193</ele>
        <time>2026-07-16T10:06:03.546Z</time>
      </trkpt>
      <trkpt lat="27.794390" lon="-15.581380">
        <ele>225.736</ele>
        <time>2026-07-16T10:06:23.546Z</time>
      </trkpt>
      <trkpt lat="27.795470" lon="-15.581550">
        <ele>232.566</ele>
        <time>2026-07-16T10:06:43.546Z</time>
      </trkpt>
      <trkpt lat="27.796550" lon="-15.582020">
        <ele>235.842</ele>
        <time>2026-07-16T10:07:03.546Z</time>
      </trkpt>
      <trkpt lat="27.797560" lon="-15.582930">
        <ele>248.178</ele>
        <time>2026-07-16T10:07:23.546Z</time>
      </trkpt>
      <trkpt lat="27.798230" lon="-15.583170">
        <ele>258.550</ele>
        <time>2026-07-16T10:07:43.546Z</time>
      </trkpt>
      <trkpt lat="27.798920" lon="-15.582600">
        <ele>267.448</ele>
        <time>2026-07-16T10:08:03.546Z</time>
      </trkpt>
      <trkpt lat="27.799190" lon="-15.581840">
        <ele>273.335</ele>
        <time>2026-07-16T10:08:23.546Z</time>
      </trkpt>
      <trkpt lat="27.799760" lon="-15.582800">
        <ele>284.337</ele>
        <time>2026-07-16T10:08:43.546Z</time>
      </trkpt>
      <trkpt lat="27.800080" lon="-15.582220">
        <ele>287.793</ele>
        <time>2026-07-16T10:09:03.546Z</time>
      </trkpt>
      <trkpt lat="27.800340" lon="-15.582060">
        <ele>289.365</ele>
        <time>2026-07-16T10:09:23.546Z</time>
      </trkpt>
      <trkpt lat="27.800730" lon="-15.583600">
        <ele>306.421</ele>
        <time>2026-07-16T10:09:43.546Z</time>
      </trkpt>
      <trkpt lat="27.801580" lon="-15.583850">
        <ele>318.009</ele>
        <time>2026-07-16T10:10:03.546Z</time>
      </trkpt>
      <trkpt lat="27.802440" lon="-15.583420">
        <ele>324.921</ele>
        <time>2026-07-16T10:10:23.546Z</time>
      </trkpt>
      <trkpt lat="27.803930" lon="-15.583420">
        <ele>343.484</ele>
        <time>2026-07-16T10:10:43.546Z</time>
      </trkpt>
      <trkpt lat="27.804380" lon="-15.583210">
        <ele>344.814</ele>
        <time>2026-07-16T10:11:03.546Z</time>
      </trkpt>
      <trkpt lat="27.805310" lon="-15.583460">
        <ele>354.710</ele>
        <time>2026-07-16T10:11:23.546Z</time>
      </trkpt>
      <trkpt lat="27.807060" lon="-15.582220">
        <ele>371.256</ele>
        <time>2026-07-16T10:11:43.546Z</time>
      </trkpt>
      <trkpt lat="27.808890" lon="-15.582710">
        <ele>383.618</ele>
        <time>2026-07-16T10:12:03.546Z</time>
      </trkpt>
      <trkpt lat="27.809910" lon="-15.583320">
        <ele>396.066</ele>
        <time>2026-07-16T10:12:23.546Z</time>
      </trkpt>
      <trkpt lat="27.810880" lon="-15.583220">
        <ele>401.133</ele>
        <time>2026-07-16T10:12:43.546Z</time>
      </trkpt>
      <trkpt lat="27.811330" lon="-15.582490">
        <ele>406.965</ele>
        <time>2026-07-16T10:13:03.546Z</time>
      </trkpt>
      <trkpt lat="27.813000" lon="-15.581650">
        <ele>419.046</ele>
        <time>2026-07-16T10:13:23.546Z</time>
      </trkpt>
      <trkpt lat="27.814460" lon="-15.581790">
        <ele>424.988</ele>
        <time>2026-07-16T10:13:43.546Z</time>
      </trkpt>
      <trkpt lat="27.814760" lon="-15.581420">
        <ele>427.816</ele>
        <time>2026-07-16T10:14:03.546Z</time>
      </trkpt>
      <trkpt lat="27.814470" lon="-15.580260">
        <ele>424.809</ele>
        <time>2026-07-16T10:14:23.546Z</time>
      </trkpt>
      <trkpt lat="27.815140" lon="-15.579580">
        <ele>432.436</ele>
        <time>2026-07-16T10:14:43.546Z</time>
      </trkpt>
      <trkpt lat="27.816430" lon="-15.579220">
        <ele>438.349</ele>
        <time>2026-07-16T10:15:03.546Z</time>
      </trkpt>
      <trkpt lat="27.817430" lon="-15.579280">
        <ele>447.039</ele>
        <time>2026-07-16T10:15:23.546Z</time>
      </trkpt>
      <trkpt lat="27.818140" lon="-15.579480">
        <ele>451.725</ele>
        <time>2026-07-16T10:15:43.546Z</time>
      </trkpt>
      <trkpt lat="27.818400" lon="-15.578930">
        <ele>455.311</ele>
        <time>2026-07-16T10:16:03.546Z</time>
      </trkpt>
      <trkpt lat="27.818230" lon="-15.578260">
        <ele>458.933</ele>
        <time>2026-07-16T10:16:23.546Z</time>
      </trkpt>
      <trkpt lat="27.817780" lon="-15.577840">
        <ele>465.431</ele>
        <time>2026-07-16T10:16:43.546Z</time>
      </trkpt>
      <trkpt lat="27.818440" lon="-15.577710">
        <ele>472.528</ele>
        <time>2026-07-16T10:17:03.546Z</time>
      </trkpt>
      <trkpt lat="27.819140" lon="-15.578170">
        <ele>477.590</ele>
        <time>2026-07-16T10:17:23.546Z</time>
      </trkpt>
      <trkpt lat="27.819360" lon="-15.578830">
        <ele>475.738</ele>
        <time>2026-07-16T10:17:43.546Z</time>
      </trkpt>
      <trkpt lat="27.820680" lon="-15.577650">
        <ele>478.770</ele>
        <time>2026-07-16T10:18:03.546Z</time>
      </trkpt>
      <trkpt lat="27.821070" lon="-15.577880">
        <ele>466.617</ele>
        <time>2026-07-16T10:18:23.546Z</time>
      </trkpt>
      <trkpt lat="27.821850" lon="-15.577640">
        <ele>488.009</ele>
        <time>2026-07-16T10:18:43.546Z</time>
      </trkpt>
      <trkpt lat="27.822840" lon="-15.576440">
        <ele>435.625</ele>
        <time>2026-07-16T10:19:03.546Z</time>
      </trkpt>
      <trkpt lat="27.823300" lon="-15.576170">
        <ele>448.048</ele>
        <time>2026-07-16T10:19:23.546Z</time>
      </trkpt>
      <trkpt lat="27.824040" lon="-15.575990">
        <ele>440.198</ele>
        <time>2026-07-16T10:19:43.546Z</time>
      </trkpt>
      <trkpt lat="27.824170" lon="-15.576130">
        <ele>431.114</ele>
        <time>2026-07-16T10:20:03.546Z</time>
      </trkpt>
      <trkpt lat="27.823620" lon="-15.576440">
        <ele>423.040</ele>
        <time>2026-07-16T10:20:23.546Z</time>
      </trkpt>
      <trkpt lat="27.823730" lon="-15.576570">
        <ele>415.032</ele>
        <time>2026-07-16T10:20:43.546Z</time>
      </trkpt>
      <trkpt lat="27.825140" lon="-15.576260">
        <ele>401.130</ele>
        <time>2026-07-16T10:21:03.546Z</time>
      </trkpt>
      <trkpt lat="27.826490" lon="-15.574880">
        <ele>399.537</ele>
        <time>2026-07-16T10:21:23.546Z</time>
      </trkpt>
      <trkpt lat="27.827300" lon="-15.574650">
        <ele>409.929</ele>
        <time>2026-07-16T10:21:43.546Z</time>
      </trkpt>
      <trkpt lat="27.827620" lon="-15.575020">
        <ele>389.083</ele>
        <time>2026-07-16T10:22:03.546Z</time>
      </trkpt>
      <trkpt lat="27.828130" lon="-15.574780">
        <ele>402.525</ele>
        <time>2026-07-16T10:22:23.546Z</time>
      </trkpt>
      <trkpt lat="27.828550" lon="-15.574350">
        <ele>404.417</ele>
        <time>2026-07-16T10:22:43.546Z</time>
      </trkpt>
      <trkpt lat="27.832560" lon="-15.572950">
        <ele>415.109</ele>
        <time>2026-07-16T10:23:03.546Z</time>
      </trkpt>
      <trkpt lat="27.833660" lon="-15.572210">
        <ele>425.550</ele>
        <time>2026-07-16T10:23:23.546Z</time>
      </trkpt>
      <trkpt lat="27.834670" lon="-15.572610">
        <ele>424.023</ele>
        <time>2026-07-16T10:23:43.546Z</time>
      </trkpt>
      <trkpt lat="27.835450" lon="-15.571560">
        <ele>432.733</ele>
        <time>2026-07-16T10:24:03.546Z</time>
      </trkpt>
      <trkpt lat="27.836540" lon="-15.570930">
        <ele>432.599</ele>
        <time>2026-07-16T10:24:23.546Z</time>
      </trkpt>
      <trkpt lat="27.836820" lon="-15.571020">
        <ele>431.885</ele>
        <time>2026-07-16T10:24:43.546Z</time>
      </trkpt>
      <trkpt lat="27.837310" lon="-15.571530">
        <ele>420.347</ele>
        <time>2026-07-16T10:25:03.546Z</time>
      </trkpt>
      <trkpt lat="27.838460" lon="-15.570750">
        <ele>414.665</ele>
        <time>2026-07-16T10:25:23.546Z</time>
      </trkpt>
      <trkpt lat="27.839190" lon="-15.570700">
        <ele>411.612</ele>
        <time>2026-07-16T10:25:43.546Z</time>
      </trkpt>
      <trkpt lat="27.840000" lon="-15.570930">
        <ele>397.294</ele>
        <time>2026-07-16T10:26:03.546Z</time>
      </trkpt>
      <trkpt lat="27.841290" lon="-15.570370">
        <ele>388.934</ele>
        <time>2026-07-16T10:26:23.546Z</time>
      </trkpt>
      <trkpt lat="27.841850" lon="-15.569830">
        <ele>383.355</ele>
        <time>2026-07-16T10:26:43.546Z</time>
      </trkpt>
      <trkpt lat="27.842350" lon="-15.569030">
        <ele>383.510</ele>
        <time>2026-07-16T10:27:03.546Z</time>
      </trkpt>
      <trkpt lat="27.844300" lon="-15.568160">
        <ele>365.209</ele>
        <time>2026-07-16T10:27:23.546Z</time>
      </trkpt>
      <trkpt lat="27.848410" lon="-15.565600">
        <ele>352.385</ele>
        <time>2026-07-16T10:27:43.546Z</time>
      </trkpt>
      <trkpt lat="27.849730" lon="-15.565050">
        <ele>351.718</ele>
        <time>2026-07-16T10:28:03.546Z</time>
      </trkpt>
      <trkpt lat="27.855590" lon="-15.566070">
        <ele>376.678</ele>
        <time>2026-07-16T10:28:23.546Z</time>
      </trkpt>
      <trkpt lat="27.856670" lon="-15.566100">
        <ele>386.334</ele>
        <time>2026-07-16T10:28:43.546Z</time>
      </trkpt>
      <trkpt lat="27.859840" lon="-15.565330">
        <ele>410.650</ele>
        <time>2026-07-16T10:29:03.546Z</time>
      </trkpt>
      <trkpt lat="27.860530" lon="-15.565480">
        <ele>421.312</ele>
        <time>2026-07-16T10:29:23.546Z</time>
      </trkpt>
      <trkpt lat="27.861780" lon="-15.566730">
        <ele>432.070</ele>
        <time>2026-07-16T10:29:43.546Z</time>
      </trkpt>
      <trkpt lat="27.862320" lon="-15.566950">
        <ele>434.637</ele>
        <time>2026-07-16T10:30:03.546Z</time>
      </trkpt>
      <trkpt lat="27.863840" lon="-15.566340">
        <ele>452.879</ele>
        <time>2026-07-16T10:30:23.546Z</time>
      </trkpt>
      <trkpt lat="27.864710" lon="-15.565660">
        <ele>460.029</ele>
        <time>2026-07-16T10:30:43.546Z</time>
      </trkpt>
      <trkpt lat="27.864850" lon="-15.564820">
        <ele>459.500</ele>
        <time>2026-07-16T10:31:03.546Z</time>
      </trkpt>
      <trkpt lat="27.865100" lon="-15.564590">
        <ele>459.620</ele>
        <time>2026-07-16T10:31:23.546Z</time>
      </trkpt>
      <trkpt lat="27.866030" lon="-15.564990">
        <ele>464.909</ele>
        <time>2026-07-16T10:31:43.546Z</time>
      </trkpt>
      <trkpt lat="27.866660" lon="-15.564760">
        <ele>463.654</ele>
        <time>2026-07-16T10:32:03.546Z</time>
      </trkpt>
      <trkpt lat="27.868830" lon="-15.564680">
        <ele>472.687</ele>
        <time>2026-07-16T10:32:23.546Z</time>
      </trkpt>
      <trkpt lat="27.869900" lon="-15.565140">
        <ele>474.797</ele>
        <time>2026-07-16T10:32:43.546Z</time>
      </trkpt>
      <trkpt lat="27.870380" lon="-15.565050">
        <ele>480.523</ele>
        <time>2026-07-16T10:33:03.546Z</time>
      </trkpt>
      <trkpt lat="27.871030" lon="-15.565180">
        <ele>477.229</ele>
        <time>2026-07-16T10:33:23.546Z</time>
      </trkpt>
      <trkpt lat="27.871610" lon="-15.564750">
        <ele>483.411</ele>
        <time>2026-07-16T10:33:43.546Z</time>
      </trkpt>
      <trkpt lat="27.871810" lon="-15.563770">
        <ele>486.969</ele>
        <time>2026-07-16T10:34:03.546Z</time>
      </trkpt>
      <trkpt lat="27.871970" lon="-15.563600">
        <ele>483.486</ele>
        <time>2026-07-16T10:34:23.546Z</time>
      </trkpt>
      <trkpt lat="27.872740" lon="-15.564460">
        <ele>486.898</ele>
        <time>2026-07-16T10:34:43.546Z</time>
      </trkpt>
      <trkpt lat="27.874430" lon="-15.565780">
        <ele>509.721</ele>
        <time>2026-07-16T10:35:03.546Z</time>
      </trkpt>
      <trkpt lat="27.874820" lon="-15.566250">
        <ele>497.741</ele>
        <time>2026-07-16T10:35:23.546Z</time>
      </trkpt>
      <trkpt lat="27.875460" lon="-15.566130">
        <ele>518.105</ele>
        <time>2026-07-16T10:35:43.546Z</time>
      </trkpt>
      <trkpt lat="27.876130" lon="-15.566230">
        <ele>523.309</ele>
        <time>2026-07-16T10:36:03.546Z</time>
      </trkpt>
      <trkpt lat="27.876650" lon="-15.565980">
        <ele>528.574</ele>
        <time>2026-07-16T10:36:23.546Z</time>
      </trkpt>
      <trkpt lat="27.877170" lon="-15.566170">
        <ele>530.437</ele>
        <time>2026-07-16T10:36:43.546Z</time>
      </trkpt>
      <trkpt lat="27.877740" lon="-15.566060">
        <ele>535.377</ele>
        <time>2026-07-16T10:37:03.546Z</time>
      </trkpt>
      <trkpt lat="27.879060" lon="-15.566190">
        <ele>544.463</ele>
        <time>2026-07-16T10:37:23.546Z</time>
      </trkpt>
      <trkpt lat="27.880370" lon="-15.566010">
        <ele>556.369</ele>
        <time>2026-07-16T10:37:43.546Z</time>
      </trkpt>
      <trkpt lat="27.880530" lon="-15.565590">
        <ele>569.971</ele>
        <time>2026-07-16T10:38:03.546Z</time>
      </trkpt>
      <trkpt lat="27.881400" lon="-15.565010">
        <ele>573.889</ele>
        <time>2026-07-16T10:38:23.546Z</time>
      </trkpt>
      <trkpt lat="27.884460" lon="-15.565110">
        <ele>589.476</ele>
        <time>2026-07-16T10:38:43.546Z</time>
      </trkpt>
      <trkpt lat="27.885140" lon="-15.564720">
        <ele>593.018</ele>
        <time>2026-07-16T10:39:03.546Z</time>
      </trkpt>
      <trkpt lat="27.885430" lon="-15.563690">
        <ele>599.249</ele>
        <time>2026-07-16T10:39:23.546Z</time>
      </trkpt>
      <trkpt lat="27.885820" lon="-15.563390">
        <ele>601.502</ele>
        <time>2026-07-16T10:39:43.546Z</time>
      </trkpt>
      <trkpt lat="27.886400" lon="-15.563810">
        <ele>604.722</ele>
        <time>2026-07-16T10:40:03.546Z</time>
      </trkpt>
      <trkpt lat="27.887310" lon="-15.564000">
        <ele>609.209</ele>
        <time>2026-07-16T10:40:23.546Z</time>
      </trkpt>
      <trkpt lat="27.887480" lon="-15.563860">
        <ele>611.166</ele>
        <time>2026-07-16T10:40:43.546Z</time>
      </trkpt>
      <trkpt lat="27.887580" lon="-15.563380">
        <ele>618.039</ele>
        <time>2026-07-16T10:41:03.546Z</time>
      </trkpt>
      <trkpt lat="27.888250" lon="-15.563240">
        <ele>627.469</ele>
        <time>2026-07-16T10:41:23.546Z</time>
      </trkpt>
      <trkpt lat="27.888830" lon="-15.563340">
        <ele>626.395</ele>
        <time>2026-07-16T10:41:43.546Z</time>
      </trkpt>
      <trkpt lat="27.889900" lon="-15.562250">
        <ele>649.371</ele>
        <time>2026-07-16T10:42:03.546Z</time>
      </trkpt>
      <trkpt lat="27.890500" lon="-15.563250">
        <ele>641.363</ele>
        <time>2026-07-16T10:42:23.546Z</time>
      </trkpt>
      <trkpt lat="27.890830" lon="-15.563300">
        <ele>648.671</ele>
        <time>2026-07-16T10:42:43.546Z</time>
      </trkpt>
      <trkpt lat="27.891600" lon="-15.563270">
        <ele>651.918</ele>
        <time>2026-07-16T10:43:03.546Z</time>
      </trkpt>
      <trkpt lat="27.892030" lon="-15.562990">
        <ele>667.540</ele>
        <time>2026-07-16T10:43:23.546Z</time>
      </trkpt>
      <trkpt lat="27.892720" lon="-15.563390">
        <ele>661.674</ele>
        <time>2026-07-16T10:43:43.546Z</time>
      </trkpt>
      <trkpt lat="27.893870" lon="-15.562860">
        <ele>679.656</ele>
        <time>2026-07-16T10:44:03.546Z</time>
      </trkpt>
      <trkpt lat="27.894990" lon="-15.562870">
        <ele>687.521</ele>
        <time>2026-07-16T10:44:23.546Z</time>
      </trkpt>
      <trkpt lat="27.895920" lon="-15.563270">
        <ele>695.309</ele>
        <time>2026-07-16T10:44:43.546Z</time>
      </trkpt>
      <trkpt lat="27.896790" lon="-15.562710">
        <ele>710.239</ele>
        <time>2026-07-16T10:45:03.546Z</time>
      </trkpt>
      <trkpt lat="27.897380" lon="-15.563260">
        <ele>709.092</ele>
        <time>2026-07-16T10:45:23.546Z</time>
      </trkpt>
      <trkpt lat="27.898030" lon="-15.563110">
        <ele>711.862</ele>
        <time>2026-07-16T10:45:43.546Z</time>
      </trkpt>
      <trkpt lat="27.898850" lon="-15.563430">
        <ele>731.158</ele>
        <time>2026-07-16T10:46:03.546Z</time>
      </trkpt>
      <trkpt lat="27.899560" lon="-15.564250">
        <ele>732.454</ele>
        <time>2026-07-16T10:46:23.546Z</time>
      </trkpt>
      <trkpt lat="27.900560" lon="-15.564560">
        <ele>749.596</ele>
        <time>2026-07-16T10:46:43.546Z</time>
      </trkpt>
      <trkpt lat="27.900650" lon="-15.564890">
        <ele>751.884</ele>
        <time>2026-07-16T10:47:03.546Z</time>
      </trkpt>
      <trkpt lat="27.900350" lon="-15.565350">
        <ele>740.671</ele>
        <time>2026-07-16T10:47:23.546Z</time>
      </trkpt>
      <trkpt lat="27.901070" lon="-15.566010">
        <ele>751.223</ele>
        <time>2026-07-16T10:47:43.546Z</time>
      </trkpt>
      <trkpt lat="27.901180" lon="-15.565930">
        <ele>756.563</ele>
        <time>2026-07-16T10:48:03.546Z</time>
      </trkpt>
      <trkpt lat="27.900850" lon="-15.565620">
        <ele>752.944</ele>
        <time>2026-07-16T10:48:23.546Z</time>
      </trkpt>
      <trkpt lat="27.900860" lon="-15.565190">
        <ele>757.418</ele>
        <time>2026-07-16T10:48:43.546Z</time>
      </trkpt>
      <trkpt lat="27.901030" lon="-15.565070">
        <ele>762.309</ele>
        <time>2026-07-16T10:49:03.546Z</time>
      </trkpt>
      <trkpt lat="27.901130" lon="-15.565500">
        <ele>763.338</ele>
        <time>2026-07-16T10:49:23.546Z</time>
      </trkpt>
      <trkpt lat="27.901670" lon="-15.565940">
        <ele>769.131</ele>
        <time>2026-07-16T10:49:43.546Z</time>
      </trkpt>
      <trkpt lat="27.902720" lon="-15.566370">
        <ele>788.821</ele>
        <time>2026-07-16T10:50:03.546Z</time>
      </trkpt>
      <trkpt lat="27.902720" lon="-15.566630">
        <ele>793.377</ele>
        <time>2026-07-16T10:50:23.546Z</time>
      </trkpt>
      <trkpt lat="27.902210" lon="-15.566790">
        <ele>788.833</ele>
        <time>2026-07-16T10:50:43.546Z</time>
      </trkpt>
      <trkpt lat="27.902300" lon="-15.567400">
        <ele>800.555</ele>
        <time>2026-07-16T10:51:03.546Z</time>
      </trkpt>
      <trkpt lat="27.902030" lon="-15.568150">
        <ele>815.823</ele>
        <time>2026-07-16T10:51:23.546Z</time>
      </trkpt>
      <trkpt lat="27.901390" lon="-15.567840">
        <ele>794.650</ele>
        <time>2026-07-16T10:51:43.546Z</time>
      </trkpt>
      <trkpt lat="27.901430" lon="-15.568410">
        <ele>822.322</ele>
        <time>2026-07-16T10:52:03.546Z</time>
      </trkpt>
      <trkpt lat="27.901270" lon="-15.568750">
        <ele>828.934</ele>
        <time>2026-07-16T10:52:23.546Z</time>
      </trkpt>
      <trkpt lat="27.900520" lon="-15.568620">
        <ele>820.555</ele>
        <time>2026-07-16T10:52:43.546Z</time>
      </trkpt>
      <trkpt lat="27.899230" lon="-15.569160">
        <ele>818.010</ele>
        <time>2026-07-16T10:53:03.546Z</time>
      </trkpt>
      <trkpt lat="27.899370" lon="-15.569320">
        <ele>820.409</ele>
        <time>2026-07-16T10:53:23.546Z</time>
      </trkpt>
      <trkpt lat="27.900800" lon="-15.569070">
        <ele>836.435</ele>
        <time>2026-07-16T10:53:43.546Z</time>
      </trkpt>
      <trkpt lat="27.901140" lon="-15.569370">
        <ele>846.988</ele>
        <time>2026-07-16T10:54:03.546Z</time>
      </trkpt>
      <trkpt lat="27.901910" lon="-15.568920">
        <ele>848.258</ele>
        <time>2026-07-16T10:54:23.546Z</time>
      </trkpt>
      <trkpt lat="27.902580" lon="-15.569200">
        <ele>864.234</ele>
        <time>2026-07-16T10:54:43.546Z</time>
      </trkpt>
      <trkpt lat="27.903840" lon="-15.567890">
        <ele>869.850</ele>
        <time>2026-07-16T10:55:03.546Z</time>
      </trkpt>
      <trkpt lat="27.905070" lon="-15.567930">
        <ele>884.932</ele>
        <time>2026-07-16T10:55:23.546Z</time>
      </trkpt>
      <trkpt lat="27.905890" lon="-15.566870">
        <ele>893.670</ele>
        <time>2026-07-16T10:55:43.546Z</time>
      </trkpt>
      <trkpt lat="27.905800" lon="-15.566320">
        <ele>891.337</ele>
        <time>2026-07-16T10:56:03.546Z</time>
      </trkpt>
      <trkpt lat="27.906060" lon="-15.566300">
        <ele>901.059</ele>
        <time>2026-07-16T10:56:23.546Z</time>
      </trkpt>
      <trkpt lat="27.905650" lon="-15.569170">
        <ele>911.725</ele>
        <time>2026-07-16T10:56:43.546Z</time>
      </trkpt>
      <trkpt lat="27.905200" lon="-15.569400">
        <ele>917.126</ele>
        <time>2026-07-16T10:57:03.546Z</time>
      </trkpt>
      <trkpt lat="27.905380" lon="-15.569580">
        <ele>917.808</ele>
        <time>2026-07-16T10:57:23.546Z</time>
      </trkpt>
      <trkpt lat="27.906290" lon="-15.569590">
        <ele>922.209</ele>
        <time>2026-07-16T10:57:43.546Z</time>
      </trkpt>
      <trkpt lat="27.906890" lon="-15.569940">
        <ele>931.934</ele>
        <time>2026-07-16T10:58:03.546Z</time>
      </trkpt>
      <trkpt lat="27.907040" lon="-15.569390">
        <ele>929.597</ele>
        <time>2026-07-16T10:58:23.546Z</time>
      </trkpt>
      <trkpt lat="27.907790" lon="-15.569040">
        <ele>927.867</ele>
        <time>2026-07-16T10:58:43.546Z</time>
      </trkpt>
      <trkpt lat="27.909370" lon="-15.569560">
        <ele>922.353</ele>
        <time>2026-07-16T10:59:03.546Z</time>
      </trkpt>
      <trkpt lat="27.910710" lon="-15.570290">
        <ele>921.629</ele>
        <time>2026-07-16T10:59:23.546Z</time>
      </trkpt>
      <trkpt lat="27.911760" lon="-15.571960">
        <ele>925.091</ele>
        <time>2026-07-16T10:59:43.546Z</time>
      </trkpt>
      <trkpt lat="27.915110" lon="-15.574850">
        <ele>942.199</ele>
        <time>2026-07-16T11:00:03.546Z</time>
      </trkpt>
      <trkpt lat="27.915780" lon="-15.574600">
        <ele>948.126</ele>
        <time>2026-07-16T11:00:23.546Z</time>
      </trkpt>
      <trkpt lat="27.915800" lon="-15.574220">
        <ele>951.068</ele>
        <time>2026-07-16T11:00:43.546Z</time>
      </trkpt>
      <trkpt lat="27.915460" lon="-15.573760">
        <ele>947.588</ele>
        <time>2026-07-16T11:01:03.546Z</time>
      </trkpt>
      <trkpt lat="27.915680" lon="-15.573540">
        <ele>947.124</ele>
        <time>2026-07-16T11:01:23.546Z</time>
      </trkpt>
      <trkpt lat="27.916380" lon="-15.573510">
        <ele>946.126</ele>
        <time>2026-07-16T11:01:43.546Z</time>
      </trkpt>
      <trkpt lat="27.917120" lon="-15.573260">
        <ele>928.709</ele>
        <time>2026-07-16T11:02:03.546Z</time>
      </trkpt>
      <trkpt lat="27.917590" lon="-15.573320">
        <ele>934.610</ele>
        <time>2026-07-16T11:02:23.546Z</time>
      </trkpt>
      <trkpt lat="27.917660" lon="-15.572820">
        <ele>922.083</ele>
        <time>2026-07-16T11:02:43.546Z</time>
      </trkpt>
      <trkpt lat="27.918070" lon="-15.572440">
        <ele>918.693</ele>
        <time>2026-07-16T11:03:03.546Z</time>
      </trkpt>
      <trkpt lat="27.918840" lon="-15.572700">
        <ele>924.149</ele>
        <time>2026-07-16T11:03:23.546Z</time>
      </trkpt>
      <trkpt lat="27.919340" lon="-15.572560">
        <ele>906.225</ele>
        <time>2026-07-16T11:03:43.546Z</time>
      </trkpt>
      <trkpt lat="27.920630" lon="-15.573140">
        <ele>900.947</ele>
        <time>2026-07-16T11:04:03.546Z</time>
      </trkpt>
      <trkpt lat="27.921300" lon="-15.573230">
        <ele>898.645</ele>
        <time>2026-07-16T11:04:23.546Z</time>
      </trkpt>
      <trkpt lat="27.921670" lon="-15.573020">
        <ele>890.462</ele>
        <time>2026-07-16T11:04:43.546Z</time>
      </trkpt>
      <trkpt lat="27.922150" lon="-15.573160">
        <ele>886.444</ele>
        <time>2026-07-16T11:05:03.546Z</time>
      </trkpt>
      <trkpt lat="27.922430" lon="-15.573570">
        <ele>899.414</ele>
        <time>2026-07-16T11:05:23.546Z</time>
      </trkpt>
      <trkpt lat="27.923920" lon="-15.573130">
        <ele>903.154</ele>
        <time>2026-07-16T11:05:43.546Z</time>
      </trkpt>
      <trkpt lat="27.925420" lon="-15.573260">
        <ele>898.809</ele>
        <time>2026-07-16T11:06:03.546Z</time>
      </trkpt>
      <trkpt lat="27.925500" lon="-15.573700">
        <ele>898.009</ele>
        <time>2026-07-16T11:06:23.546Z</time>
      </trkpt>
      <trkpt lat="27.925330" lon="-15.574970">
        <ele>905.123</ele>
        <time>2026-07-16T11:06:43.546Z</time>
      </trkpt>
      <trkpt lat="27.925530" lon="-15.576340">
        <ele>897.196</ele>
        <time>2026-07-16T11:07:03.546Z</time>
      </trkpt>
      <trkpt lat="27.925290" lon="-15.577080">
        <ele>906.886</ele>
        <time>2026-07-16T11:07:23.546Z</time>
      </trkpt>
      <trkpt lat="27.925220" lon="-15.577900">
        <ele>909.052</ele>
        <time>2026-07-16T11:07:43.546Z</time>
      </trkpt>
      <trkpt lat="27.925380" lon="-15.578490">
        <ele>917.338</ele>
        <time>2026-07-16T11:08:03.546Z</time>
      </trkpt>
      <trkpt lat="27.925800" lon="-15.579130">
        <ele>918.670</ele>
        <time>2026-07-16T11:08:23.546Z</time>
      </trkpt>
      <trkpt lat="27.926120" lon="-15.579000">
        <ele>914.778</ele>
        <time>2026-07-16T11:08:43.546Z</time>
      </trkpt>
      <trkpt lat="27.926040" lon="-15.578020">
        <ele>916.895</ele>
        <time>2026-07-16T11:09:03.546Z</time>
      </trkpt>
      <trkpt lat="27.926310" lon="-15.577120">
        <ele>920.317</ele>
        <time>2026-07-16T11:09:23.546Z</time>
      </trkpt>
      <trkpt lat="27.927000" lon="-15.576440">
        <ele>930.868</ele>
        <time>2026-07-16T11:09:43.546Z</time>
      </trkpt>
      <trkpt lat="27.927500" lon="-15.576610">
        <ele>937.242</ele>
        <time>2026-07-16T11:10:03.546Z</time>
      </trkpt>
      <trkpt lat="27.927810" lon="-15.576470">
        <ele>934.126</ele>
        <time>2026-07-16T11:10:23.546Z</time>
      </trkpt>
      <trkpt lat="27.928600" lon="-15.576560">
        <ele>955.909</ele>
        <time>2026-07-16T11:10:43.546Z</time>
      </trkpt>
      <trkpt lat="27.929990" lon="-15.576030">
        <ele>958.888</ele>
        <time>2026-07-16T11:11:03.546Z</time>
      </trkpt>
      <trkpt lat="27.930920" lon="-15.576050">
        <ele>974.391</ele>
        <time>2026-07-16T11:11:23.546Z</time>
      </trkpt>
      <trkpt lat="27.931780" lon="-15.575300">
        <ele>977.271</ele>
        <time>2026-07-16T11:11:43.546Z</time>
      </trkpt>
      <trkpt lat="27.932390" lon="-15.575370">
        <ele>985.167</ele>
        <time>2026-07-16T11:12:03.546Z</time>
      </trkpt>
      <trkpt lat="27.932660" lon="-15.574630">
        <ele>986.613</ele>
        <time>2026-07-16T11:12:23.546Z</time>
      </trkpt>
      <trkpt lat="27.933610" lon="-15.575190">
        <ele>1001.425</ele>
        <time>2026-07-16T11:12:43.546Z</time>
      </trkpt>
      <trkpt lat="27.933620" lon="-15.575490">
        <ele>1005.263</ele>
        <time>2026-07-16T11:13:03.546Z</time>
      </trkpt>
      <trkpt lat="27.932710" lon="-15.576570">
        <ele>1015.350</ele>
        <time>2026-07-16T11:13:23.546Z</time>
      </trkpt>
      <trkpt lat="27.932930" lon="-15.576700">
        <ele>1018.842</ele>
        <time>2026-07-16T11:13:43.546Z</time>
      </trkpt>
      <trkpt lat="27.934870" lon="-15.576230">
        <ele>1038.729</ele>
        <time>2026-07-16T11:14:03.546Z</time>
      </trkpt>
      <trkpt lat="27.936680" lon="-15.577640">
        <ele>1051.700</ele>
        <time>2026-07-16T11:14:23.546Z</time>
      </trkpt>
      <trkpt lat="27.937820" lon="-15.583110">
        <ele>1089.020</ele>
        <time>2026-07-16T11:14:43.546Z</time>
      </trkpt>
      <trkpt lat="27.936960" lon="-15.586660">
        <ele>1108.509</ele>
        <time>2026-07-16T11:15:03.546Z</time>
      </trkpt>
      <trkpt lat="27.936160" lon="-15.587220">
        <ele>1103.754</ele>
        <time>2026-07-16T11:15:23.546Z</time>
      </trkpt>
      <trkpt lat="27.935980" lon="-15.588280">
        <ele>1113.367</ele>
        <time>2026-07-16T11:15:43.546Z</time>
      </trkpt>
      <trkpt lat="27.936760" lon="-15.589730">
        <ele>1124.817</ele>
        <time>2026-07-16T11:16:03.546Z</time>
      </trkpt>
      <trkpt lat="27.937920" lon="-15.590140">
        <ele>1145.993</ele>
        <time>2026-07-16T11:16:23.546Z</time>
      </trkpt>
      <trkpt lat="27.939150" lon="-15.590950">
        <ele>1151.029</ele>
        <time>2026-07-16T11:16:43.546Z</time>
      </trkpt>
      <trkpt lat="27.939240" lon="-15.591780">
        <ele>1168.631</ele>
        <time>2026-07-16T11:17:03.546Z</time>
      </trkpt>
      <trkpt lat="27.938020" lon="-15.592000">
        <ele>1163.959</ele>
        <time>2026-07-16T11:17:23.546Z</time>
      </trkpt>
      <trkpt lat="27.936530" lon="-15.592010">
        <ele>1164.536</ele>
        <time>2026-07-16T11:17:43.546Z</time>
      </trkpt>
      <trkpt lat="27.936370" lon="-15.592510">
        <ele>1180.478</ele>
        <time>2026-07-16T11:18:03.546Z</time>
      </trkpt>
      <trkpt lat="27.936060" lon="-15.592780">
        <ele>1176.622</ele>
        <time>2026-07-16T11:18:23.546Z</time>
      </trkpt>
      <trkpt lat="27.935810" lon="-15.593340">
        <ele>1193.662</ele>
        <time>2026-07-16T11:18:43.546Z</time>
      </trkpt>
      <trkpt lat="27.935100" lon="-15.593040">
        <ele>1178.208</ele>
        <time>2026-07-16T11:19:03.546Z</time>
      </trkpt>
      <trkpt lat="27.935120" lon="-15.593600">
        <ele>1196.409</ele>
        <time>2026-07-16T11:19:23.546Z</time>
      </trkpt>
      <trkpt lat="27.934380" lon="-15.594290">
        <ele>1196.924</ele>
        <time>2026-07-16T11:19:43.546Z</time>
      </trkpt>
      <trkpt lat="27.934530" lon="-15.595020">
        <ele>1212.487</ele>
        <time>2026-07-16T11:20:03.546Z</time>
      </trkpt>
      <trkpt lat="27.934170" lon="-15.594950">
        <ele>1206.827</ele>
        <time>2026-07-16T11:20:23.546Z</time>
      </trkpt>
      <trkpt lat="27.934050" lon="-15.595510">
        <ele>1213.723</ele>
        <time>2026-07-16T11:20:43.546Z</time>
      </trkpt>
      <trkpt lat="27.933610" lon="-15.595600">
        <ele>1201.769</ele>
        <time>2026-07-16T11:21:03.546Z</time>
      </trkpt>
      <trkpt lat="27.933500" lon="-15.596120">
        <ele>1217.591</ele>
        <time>2026-07-16T11:21:23.546Z</time>
      </trkpt>
      <trkpt lat="27.932940" lon="-15.596740">
        <ele>1231.919</ele>
        <time>2026-07-16T11:21:43.546Z</time>
      </trkpt>
      <trkpt lat="27.931840" lon="-15.596580">
        <ele>1222.436</ele>
        <time>2026-07-16T11:22:03.546Z</time>
      </trkpt>
      <trkpt lat="27.931040" lon="-15.596850">
        <ele>1238.878</ele>
        <time>2026-07-16T11:22:23.546Z</time>
      </trkpt>
      <trkpt lat="27.930350" lon="-15.597360">
        <ele>1243.072</ele>
        <time>2026-07-16T11:22:43.546Z</time>
      </trkpt>
      <trkpt lat="27.930030" lon="-15.597880">
        <ele>1256.013</ele>
        <time>2026-07-16T11:23:03.546Z</time>
      </trkpt>
      <trkpt lat="27.929680" lon="-15.597980">
        <ele>1250.914</ele>
        <time>2026-07-16T11:23:23.546Z</time>
      </trkpt>
      <trkpt lat="27.929640" lon="-15.598300">
        <ele>1251.709</ele>
        <time>2026-07-16T11:23:43.546Z</time>
      </trkpt>
      <trkpt lat="27.930580" lon="-15.598560">
        <ele>1253.189</ele>
        <time>2026-07-16T11:24:03.546Z</time>
      </trkpt>
      <trkpt lat="27.930770" lon="-15.599000">
        <ele>1246.192</ele>
        <time>2026-07-16T11:24:23.546Z</time>
      </trkpt>
      <trkpt lat="27.932480" lon="-15.600200">
        <ele>1232.472</ele>
        <time>2026-07-16T11:24:43.546Z</time>
      </trkpt>
      <trkpt lat="27.932800" lon="-15.600600">
        <ele>1228.258</ele>
        <time>2026-07-16T11:25:03.546Z</time>
      </trkpt>
      <trkpt lat="27.933360" lon="-15.600430">
        <ele>1233.174</ele>
        <time>2026-07-16T11:25:23.546Z</time>
      </trkpt>
      <trkpt lat="27.934760" lon="-15.601120">
        <ele>1221.446</ele>
        <time>2026-07-16T11:25:43.546Z</time>
      </trkpt>
      <trkpt lat="27.935670" lon="-15.604140">
        <ele>1209.584</ele>
        <time>2026-07-16T11:26:03.546Z</time>
      </trkpt>
      <trkpt lat="27.936060" lon="-15.604230">
        <ele>1212.221</ele>
        <time>2026-07-16T11:26:23.546Z</time>
      </trkpt>
      <trkpt lat="27.936200" lon="-15.604580">
        <ele>1211.753</ele>
        <time>2026-07-16T11:26:43.546Z</time>
      </trkpt>
      <trkpt lat="27.936030" lon="-15.606560">
        <ele>1196.257</ele>
        <time>2026-07-16T11:27:03.546Z</time>
      </trkpt>
      <trkpt lat="27.936280" lon="-15.606970">
        <ele>1197.900</ele>
        <time>2026-07-16T11:27:23.546Z</time>
      </trkpt>
      <trkpt lat="27.936790" lon="-15.607300">
        <ele>1205.320</ele>
        <time>2026-07-16T11:27:43.546Z</time>
      </trkpt>
      <trkpt lat="27.937060" lon="-15.607970">
        <ele>1201.109</ele>
        <time>2026-07-16T11:28:03.546Z</time>
      </trkpt>
      <trkpt lat="27.938200" lon="-15.608170">
        <ele>1211.837</ele>
        <time>2026-07-16T11:28:23.546Z</time>
      </trkpt>
      <trkpt lat="27.938280" lon="-15.608780">
        <ele>1204.250</ele>
        <time>2026-07-16T11:28:43.546Z</time>
      </trkpt>
      <trkpt lat="27.939250" lon="-15.609670">
        <ele>1219.520</ele>
        <time>2026-07-16T11:29:03.546Z</time>
      </trkpt>
      <trkpt lat="27.939160" lon="-15.610050">
        <ele>1219.066</ele>
        <time>2026-07-16T11:29:23.546Z</time>
      </trkpt>
      <trkpt lat="27.938780" lon="-15.610510">
        <ele>1223.562</ele>
        <time>2026-07-16T11:29:43.546Z</time>
      </trkpt>
      <trkpt lat="27.938370" lon="-15.610680">
        <ele>1221.924</ele>
        <time>2026-07-16T11:30:03.546Z</time>
      </trkpt>
      <trkpt lat="27.937940" lon="-15.611840">
        <ele>1217.622</ele>
        <time>2026-07-16T11:30:23.546Z</time>
      </trkpt>
      <trkpt lat="27.938380" lon="-15.613740">
        <ele>1229.769</ele>
        <time>2026-07-16T11:30:43.546Z</time>
      </trkpt>
      <trkpt lat="27.938330" lon="-15.614100">
        <ele>1225.951</ele>
        <time>2026-07-16T11:31:03.546Z</time>
      </trkpt>
      <trkpt lat="27.939040" lon="-15.614900">
        <ele>1228.262</ele>
        <time>2026-07-16T11:31:23.546Z</time>
      </trkpt>
      <trkpt lat="27.939690" lon="-15.614640">
        <ele>1240.583</ele>
        <time>2026-07-16T11:31:43.546Z</time>
      </trkpt>
      <trkpt lat="27.939980" lon="-15.614670">
        <ele>1239.411</ele>
        <time>2026-07-16T11:32:03.546Z</time>
      </trkpt>
      <trkpt lat="27.940640" lon="-15.615180">
        <ele>1236.409</ele>
        <time>2026-07-16T11:32:23.546Z</time>
      </trkpt>
      <trkpt lat="27.941760" lon="-15.615650">
        <ele>1248.938</ele>
        <time>2026-07-16T11:32:43.546Z</time>
      </trkpt>
      <trkpt lat="27.942520" lon="-15.615200">
        <ele>1251.361</ele>
        <time>2026-07-16T11:33:03.546Z</time>
      </trkpt>
      <trkpt lat="27.943320" lon="-15.615050">
        <ele>1259.561</ele>
        <time>2026-07-16T11:33:23.546Z</time>
      </trkpt>
      <trkpt lat="27.944830" lon="-15.614090">
        <ele>1264.827</ele>
        <time>2026-07-16T11:33:43.546Z</time>
      </trkpt>
      <trkpt lat="27.945400" lon="-15.613190">
        <ele>1272.243</ele>
        <time>2026-07-16T11:34:03.546Z</time>
      </trkpt>
      <trkpt lat="27.946330" lon="-15.612150">
        <ele>1263.655</ele>
        <time>2026-07-16T11:34:23.546Z</time>
      </trkpt>
      <trkpt lat="27.946840" lon="-15.612650">
        <ele>1257.633</ele>
        <time>2026-07-16T11:34:43.546Z</time>
      </trkpt>
      <trkpt lat="27.948980" lon="-15.613840">
        <ele>1267.420</ele>
        <time>2026-07-16T11:35:03.546Z</time>
      </trkpt>
      <trkpt lat="27.949480" lon="-15.613230">
        <ele>1284.992</ele>
        <time>2026-07-16T11:35:23.546Z</time>
      </trkpt>
      <trkpt lat="27.950470" lon="-15.612440">
        <ele>1273.132</ele>
        <time>2026-07-16T11:35:43.546Z</time>
      </trkpt>
      <trkpt lat="27.950740" lon="-15.611890">
        <ele>1281.692</ele>
        <time>2026-07-16T11:36:03.546Z</time>
      </trkpt>
      <trkpt lat="27.951300" lon="-15.611480">
        <ele>1276.911</ele>
        <time>2026-07-16T11:36:23.546Z</time>
      </trkpt>
      <trkpt lat="27.951330" lon="-15.609110">
        <ele>1288.309</ele>
        <time>2026-07-16T11:36:43.546Z</time>
      </trkpt>
      <trkpt lat="27.951640" lon="-15.608350">
        <ele>1289.845</ele>
        <time>2026-07-16T11:37:03.546Z</time>
      </trkpt>
      <trkpt lat="27.952050" lon="-15.608100">
        <ele>1287.638</ele>
        <time>2026-07-16T11:37:23.546Z</time>
      </trkpt>
      <trkpt lat="27.952870" lon="-15.607070">
        <ele>1299.848</ele>
        <time>2026-07-16T11:37:43.546Z</time>
      </trkpt>
      <trkpt lat="27.953290" lon="-15.607120">
        <ele>1299.594</ele>
        <time>2026-07-16T11:38:03.546Z</time>
      </trkpt>
      <trkpt lat="27.953600" lon="-15.607900">
        <ele>1289.680</ele>
        <time>2026-07-16T11:38:23.546Z</time>
      </trkpt>
      <trkpt lat="27.955850" lon="-15.609480">
        <ele>1303.932</ele>
        <time>2026-07-16T11:38:43.546Z</time>
      </trkpt>
      <trkpt lat="27.956640" lon="-15.609200">
        <ele>1305.770</ele>
        <time>2026-07-16T11:39:03.546Z</time>
      </trkpt>
      <trkpt lat="27.957200" lon="-15.608440">
        <ele>1311.567</ele>
        <time>2026-07-16T11:39:23.546Z</time>
      </trkpt>
      <trkpt lat="27.957620" lon="-15.608420">
        <ele>1311.089</ele>
        <time>2026-07-16T11:39:43.546Z</time>
      </trkpt>
      <trkpt lat="27.958110" lon="-15.608120">
        <ele>1318.115</ele>
        <time>2026-07-16T11:40:03.546Z</time>
      </trkpt>
      <trkpt lat="27.957920" lon="-15.607690">
        <ele>1321.665</ele>
        <time>2026-07-16T11:40:23.546Z</time>
      </trkpt>
      <trkpt lat="27.958010" lon="-15.607360">
        <ele>1329.411</ele>
        <time>2026-07-16T11:40:43.546Z</time>
      </trkpt>
      <trkpt lat="27.959020" lon="-15.607420">
        <ele>1338.109</ele>
        <time>2026-07-16T11:41:03.546Z</time>
      </trkpt>
      <trkpt lat="27.959270" lon="-15.607240">
        <ele>1344.053</ele>
        <time>2026-07-16T11:41:23.546Z</time>
      </trkpt>
      <trkpt lat="27.958790" lon="-15.606940">
        <ele>1346.746</ele>
        <time>2026-07-16T11:41:43.546Z</time>
      </trkpt>
      <trkpt lat="27.958250" lon="-15.606320">
        <ele>1365.296</ele>
        <time>2026-07-16T11:42:03.546Z</time>
      </trkpt>
      <trkpt lat="27.957150" lon="-15.605670">
        <ele>1371.712</ele>
        <time>2026-07-16T11:42:23.546Z</time>
      </trkpt>
      <trkpt lat="27.956660" lon="-15.606210">
        <ele>1377.068</ele>
        <time>2026-07-16T11:42:43.546Z</time>
      </trkpt>
      <trkpt lat="27.956850" lon="-15.605350">
        <ele>1384.790</ele>
        <time>2026-07-16T11:43:03.546Z</time>
      </trkpt>
      <trkpt lat="27.957120" lon="-15.605190">
        <ele>1389.558</ele>
        <time>2026-07-16T11:43:23.546Z</time>
      </trkpt>
      <trkpt lat="27.958920" lon="-15.605580">
        <ele>1400.875</ele>
        <time>2026-07-16T11:43:43.546Z</time>
      </trkpt>
      <trkpt lat="27.960570" lon="-15.605010">
        <ele>1421.567</ele>
        <time>2026-07-16T11:44:03.546Z</time>
      </trkpt>
      <trkpt lat="27.961280" lon="-15.604200">
        <ele>1447.433</ele>
        <time>2026-07-16T11:44:23.546Z</time>
      </trkpt>
      <trkpt lat="27.961710" lon="-15.604090">
        <ele>1454.223</ele>
        <time>2026-07-16T11:44:43.546Z</time>
      </trkpt>
      <trkpt lat="27.963490" lon="-15.604940">
        <ele>1457.315</ele>
        <time>2026-07-16T11:45:03.546Z</time>
      </trkpt>
      <trkpt lat="27.964000" lon="-15.604850">
        <ele>1465.309</ele>
        <time>2026-07-16T11:45:23.546Z</time>
      </trkpt>
      <trkpt lat="27.964290" lon="-15.605170">
        <ele>1459.225</ele>
        <time>2026-07-16T11:45:43.546Z</time>
      </trkpt>
      <trkpt lat="27.964690" lon="-15.605110">
        <ele>1469.918</ele>
        <time>2026-07-16T11:46:03.546Z</time>
      </trkpt>
      <trkpt lat="27.964940" lon="-15.605430">
        <ele>1470.418</ele>
        <time>2026-07-16T11:46:23.546Z</time>
      </trkpt>
      <trkpt lat="27.964990" lon="-15.606260">
        <ele>1475.234</ele>
        <time>2026-07-16T11:46:43.546Z</time>
      </trkpt>
      <trkpt lat="27.964650" lon="-15.607780">
        <ele>1493.420</ele>
        <time>2026-07-16T11:47:03.546Z</time>
      </trkpt>
      <trkpt lat="27.965680" lon="-15.606390">
        <ele>1506.862</ele>
        <time>2026-07-16T11:47:23.546Z</time>
      </trkpt>
      <trkpt lat="27.965840" lon="-15.605620">
        <ele>1509.410</ele>
        <time>2026-07-16T11:47:43.546Z</time>
      </trkpt>
      <trkpt lat="27.966090" lon="-15.605450">
        <ele>1522.937</ele>
        <time>2026-07-16T11:48:03.546Z</time>
      </trkpt>
      <trkpt lat="27.966150" lon="-15.604930">
        <ele>1531.279</ele>
        <time>2026-07-16T11:48:23.546Z</time>
      </trkpt>
      <trkpt lat="27.965940" lon="-15.604490">
        <ele>1531.197</ele>
        <time>2026-07-16T11:48:43.546Z</time>
      </trkpt>
      <trkpt lat="27.965990" lon="-15.603670">
        <ele>1548.023</ele>
        <time>2026-07-16T11:49:03.546Z</time>
      </trkpt>
      <trkpt lat="27.965520" lon="-15.603240">
        <ele>1546.325</ele>
        <time>2026-07-16T11:49:23.546Z</time>
      </trkpt>
      <trkpt lat="27.965450" lon="-15.602650">
        <ele>1559.409</ele>
        <time>2026-07-16T11:49:43.546Z</time>
      </trkpt>
      <trkpt lat="27.964950" lon="-15.602390">
        <ele>1557.431</ele>
        <time>2026-07-16T11:50:03.546Z</time>
      </trkpt>
      <trkpt lat="27.964640" lon="-15.602800">
        <ele>1556.694</ele>
        <time>2026-07-16T11:50:23.546Z</time>
      </trkpt>
      <trkpt lat="27.964300" lon="-15.602890">
        <ele>1566.284</ele>
        <time>2026-07-16T11:50:43.546Z</time>
      </trkpt>
      <trkpt lat="27.964250" lon="-15.602750">
        <ele>1572.620</ele>
        <time>2026-07-16T11:51:03.546Z</time>
      </trkpt>
      <trkpt lat="27.964490" lon="-15.602670">
        <ele>1570.276</ele>
        <time>2026-07-16T11:51:23.546Z</time>
      </trkpt>
      <trkpt lat="27.964720" lon="-15.602130">
        <ele>1571.158</ele>
        <time>2026-07-16T11:51:43.546Z</time>
      </trkpt>
      <trkpt lat="27.965340" lon="-15.601860">
        <ele>1579.436</ele>
        <time>2026-07-16T11:52:03.546Z</time>
      </trkpt>
      <trkpt lat="27.965820" lon="-15.600900">
        <ele>1591.063</ele>
        <time>2026-07-16T11:52:23.546Z</time>
      </trkpt>
      <trkpt lat="27.965440" lon="-15.600280">
        <ele>1601.415</ele>
        <time>2026-07-16T11:52:43.546Z</time>
      </trkpt>
      <trkpt lat="27.965260" lon="-15.599570">
        <ele>1603.232</ele>
        <time>2026-07-16T11:53:03.546Z</time>
      </trkpt>
      <trkpt lat="27.966010" lon="-15.597810">
        <ele>1607.392</ele>
        <time>2026-07-16T11:53:23.546Z</time>
      </trkpt>
      <trkpt lat="27.965010" lon="-15.597320">
        <ele>1614.111</ele>
        <time>2026-07-16T11:53:43.546Z</time>
      </trkpt>
      <trkpt lat="27.964680" lon="-15.597950">
        <ele>1628.709</ele>
        <time>2026-07-16T11:54:03.546Z</time>
      </trkpt>
      <trkpt lat="27.964210" lon="-15.597820">
        <ele>1620.645</ele>
        <time>2026-07-16T11:54:23.546Z</time>
      </trkpt>
      <trkpt lat="27.963430" lon="-15.597230">
        <ele>1619.968</ele>
        <time>2026-07-16T11:54:43.546Z</time>
      </trkpt>
      <trkpt lat="27.962610" lon="-15.597790">
        <ele>1621.798</ele>
        <time>2026-07-16T11:55:03.546Z</time>
      </trkpt>
      <trkpt lat="27.962190" lon="-15.597730">
        <ele>1616.944</ele>
        <time>2026-07-16T11:55:23.546Z</time>
      </trkpt>
      <trkpt lat="27.961960" lon="-15.598110">
        <ele>1625.230</ele>
        <time>2026-07-16T11:55:43.546Z</time>
      </trkpt>
      <trkpt lat="27.960740" lon="-15.598280">
        <ele>1633.432</ele>
        <time>2026-07-16T11:56:03.546Z</time>
      </trkpt>
      <trkpt lat="27.960200" lon="-15.597830">
        <ele>1635.280</ele>
        <time>2026-07-16T11:56:23.546Z</time>
      </trkpt>
      <trkpt lat="27.960370" lon="-15.596620">
        <ele>1637.327</ele>
        <time>2026-07-16T11:56:43.546Z</time>
      </trkpt>
      <trkpt lat="27.960250" lon="-15.595910">
        <ele>1638.919</ele>
        <time>2026-07-16T11:57:03.546Z</time>
      </trkpt>
      <trkpt lat="27.959370" lon="-15.594880">
        <ele>1644.359</ele>
        <time>2026-07-16T11:57:23.546Z</time>
      </trkpt>
      <trkpt lat="27.959430" lon="-15.594240">
        <ele>1652.403</ele>
        <time>2026-07-16T11:57:43.546Z</time>
      </trkpt>
      <trkpt lat="27.958800" lon="-15.593610">
        <ele>1656.323</ele>
        <time>2026-07-16T11:58:03.546Z</time>
      </trkpt>
      <trkpt lat="27.958370" lon="-15.592810">
        <ele>1650.409</ele>
        <time>2026-07-16T11:58:23.546Z</time>
      </trkpt>
      <trkpt lat="27.958520" lon="-15.591690">
        <ele>1649.157</ele>
        <time>2026-07-16T11:58:43.546Z</time>
      </trkpt>
      <trkpt lat="27.958840" lon="-15.590830">
        <ele>1656.690</ele>
        <time>2026-07-16T11:59:03.546Z</time>
      </trkpt>
      <trkpt lat="27.959210" lon="-15.590480">
        <ele>1655.330</ele>
        <time>2026-07-16T11:59:23.546Z</time>
      </trkpt>
      <trkpt lat="27.959570" lon="-15.590410">
        <ele>1651.536</ele>
        <time>2026-07-16T11:59:43.546Z</time>
      </trkpt>
      <trkpt lat="27.959890" lon="-15.589780">
        <ele>1646.362</ele>
        <time>2026-07-16T12:00:03.546Z</time>
      </trkpt>
      <trkpt lat="27.963410" lon="-15.589290">
        <ele>1638.864</ele>
        <time>2026-07-16T12:00:23.546Z</time>
      </trkpt>
      <trkpt lat="27.964400" lon="-15.588480">
        <ele>1639.382</ele>
        <time>2026-07-16T12:00:43.546Z</time>
      </trkpt>
      <trkpt lat="27.964900" lon="-15.587820">
        <ele>1648.519</ele>
        <time>2026-07-16T12:01:03.546Z</time>
      </trkpt>
      <trkpt lat="27.965470" lon="-15.585160">
        <ele>1664.681</ele>
        <time>2026-07-16T12:01:23.546Z</time>
      </trkpt>
      <trkpt lat="27.966050" lon="-15.583690">
        <ele>1668.886</ele>
        <time>2026-07-16T12:01:43.546Z</time>
      </trkpt>
      <trkpt lat="27.967240" lon="-15.582120">
        <ele>1679.060</ele>
        <time>2026-07-16T12:02:03.546Z</time>
      </trkpt>
      <trkpt lat="27.967470" lon="-15.582270">
        <ele>1682.026</ele>
        <time>2026-07-16T12:02:23.546Z</time>
      </trkpt>
      <trkpt lat="27.967620" lon="-15.583740">
        <ele>1692.909</ele>
        <time>2026-07-16T12:02:43.546Z</time>
      </trkpt>
      <trkpt lat="27.968030" lon="-15.584070">
        <ele>1693.910</ele>
        <time>2026-07-16T12:03:03.546Z</time>
      </trkpt>
      <trkpt lat="27.970500" lon="-15.584280">
        <ele>1695.373</ele>
        <time>2026-07-16T12:03:23.546Z</time>
      </trkpt>
      <trkpt lat="27.972900" lon="-15.584080">
        <ele>1688.443</ele>
        <time>2026-07-16T12:03:43.546Z</time>
      </trkpt>
      <trkpt lat="27.974130" lon="-15.584130">
        <ele>1693.039</ele>
        <time>2026-07-16T12:04:03.546Z</time>
      </trkpt>
      <trkpt lat="27.976650" lon="-15.580640">
        <ele>1723.115</ele>
        <time>2026-07-16T12:04:23.546Z</time>
      </trkpt>
      <trkpt lat="27.977250" lon="-15.580170">
        <ele>1727.057</ele>
        <time>2026-07-16T12:04:43.546Z</time>
      </trkpt>
      <trkpt lat="27.976550" lon="-15.579030">
        <ele>1726.715</ele>
        <time>2026-07-16T12:05:03.546Z</time>
      </trkpt>
      <trkpt lat="27.975140" lon="-15.578420">
        <ele>1746.332</ele>
        <time>2026-07-16T12:05:23.546Z</time>
      </trkpt>
      <trkpt lat="27.974990" lon="-15.577980">
        <ele>1755.974</ele>
        <time>2026-07-16T12:05:43.546Z</time>
      </trkpt>
      <trkpt lat="27.974430" lon="-15.578120">
        <ele>1758.855</ele>
        <time>2026-07-16T12:06:03.546Z</time>
      </trkpt>
      <trkpt lat="27.974010" lon="-15.579040">
        <ele>1760.607</ele>
        <time>2026-07-16T12:06:23.546Z</time>
      </trkpt>
      <trkpt lat="27.973840" lon="-15.579120">
        <ele>1761.217</ele>
        <time>2026-07-16T12:06:43.546Z</time>
      </trkpt>
      <trkpt lat="27.973590" lon="-15.577970">
        <ele>1773.709</ele>
        <time>2026-07-16T12:07:03.546Z</time>
      </trkpt>
      <trkpt lat="27.973990" lon="-15.577160">
        <ele>1781.517</ele>
        <time>2026-07-16T12:07:23.547Z</time>
      </trkpt>
      <trkpt lat="27.973660" lon="-15.576300">
        <ele>1780.040</ele>
        <time>2026-07-16T12:07:43.547Z</time>
      </trkpt>
      <trkpt lat="27.973260" lon="-15.575730">
        <ele>1784.620</ele>
        <time>2026-07-16T12:08:03.547Z</time>
      </trkpt>
      <trkpt lat="27.973210" lon="-15.574060">
        <ele>1786.156</ele>
        <time>2026-07-16T12:08:23.547Z</time>
      </trkpt>
      <trkpt lat="27.972820" lon="-15.573610">
        <ele>1781.312</ele>
        <time>2026-07-16T12:08:43.547Z</time>
      </trkpt>
      <trkpt lat="27.971850" lon="-15.573400">
        <ele>1782.464</ele>
        <time>2026-07-16T12:09:03.547Z</time>
      </trkpt>
      <trkpt lat="27.971220" lon="-15.572610">
        <ele>1788.412</ele>
        <time>2026-07-16T12:09:23.547Z</time>
      </trkpt>
      <trkpt lat="27.970640" lon="-15.572140">
        <ele>1799.319</ele>
        <time>2026-07-16T12:09:43.547Z</time>
      </trkpt>
      <trkpt lat="27.970210" lon="-15.571440">
        <ele>1812.011</ele>
        <time>2026-07-16T12:10:03.547Z</time>
      </trkpt>
      <trkpt lat="27.970140" lon="-15.569750">
        <ele>1820.926</ele>
        <time>2026-07-16T12:10:23.547Z</time>
      </trkpt>
      <trkpt lat="27.969800" lon="-15.569050">
        <ele>1822.747</ele>
        <time>2026-07-16T12:10:43.547Z</time>
      </trkpt>
      <trkpt lat="27.968660" lon="-15.567910">
        <ele>1841.411</ele>
        <time>2026-07-16T12:11:03.547Z</time>
      </trkpt>
      <trkpt lat="27.968520" lon="-15.567600">
        <ele>1844.409</ele>
        <time>2026-07-16T12:11:23.547Z</time>
      </trkpt>
      <trkpt lat="27.968620" lon="-15.565830">
        <ele>1862.114</ele>
        <time>2026-07-16T12:11:43.547Z</time>
      </trkpt>
      <trkpt lat="27.967270" lon="-15.564950">
        <ele>1874.097</ele>
        <time>2026-07-16T12:12:03.547Z</time>
      </trkpt>
      <trkpt lat="27.966940" lon="-15.564930">
        <ele>1880.677</ele>
        <time>2026-07-16T12:12:23.547Z</time>
      </trkpt>
      <trkpt lat="27.966750" lon="-15.565390">
        <ele>1876.773</ele>
        <time>2026-07-16T12:12:43.547Z</time>
      </trkpt>
      <trkpt lat="27.965150" lon="-15.566470">
        <ele>1886.579</ele>
        <time>2026-07-16T12:13:03.547Z</time>
      </trkpt>
      <trkpt lat="27.964450" lon="-15.566600">
        <ele>1895.131</ele>
        <time>2026-07-16T12:13:23.547Z</time>
      </trkpt>
      <trkpt lat="27.964450" lon="-15.567350">
        <ele>1901.459</ele>
        <time>2026-07-16T12:13:43.547Z</time>
      </trkpt>
      <trkpt lat="27.963910" lon="-15.568690">
        <ele>1915.566</ele>
        <time>2026-07-16T12:14:03.547Z</time>
      </trkpt>
      <trkpt lat="27.963330" lon="-15.569320">
        <ele>1924.418</ele>
        <time>2026-07-16T12:14:23.547Z</time>
      </trkpt>
      <trkpt lat="27.963920" lon="-15.570450">
        <ele>1927.426</ele>
        <time>2026-07-16T12:14:43.547Z</time>
      </trkpt>
      <trkpt lat="27.964320" lon="-15.571700">
        <ele>1921.947</ele>
        <time>2026-07-16T12:15:03.547Z</time>
      </trkpt>
      <trkpt lat="27.964210" lon="-15.571910">
        <ele>1921.111</ele>
        <time>2026-07-16T12:15:23.547Z</time>
      </trkpt>
      <trkpt lat="27.963560" lon="-15.572340">
        <ele>1927.309</ele>
        <time>2026-07-16T12:15:43.547Z</time>
      </trkpt>
      <trkpt lat="27.963100" lon="-15.572060">
        <ele>1943.064</ele>
        <time>2026-07-16T12:16:03.547Z</time>
      </trkpt>
      <trkpt lat="27.962130" lon="-15.571950">
        <ele>1937.377</ele>
        <time>2026-07-16T12:16:23.547Z</time>
      </trkpt>
    </trkseg>
  </trk></gpx>