<?xml version="1.0" encoding="UTF-8"?>
<gpx creator="Wikiloc - https://www.wikiloc.com" version="1.1" xmlns="http://www.topografix.com/GPX/1/1" xmlns:xsi="http://www.w3.org/2001/XMLSchema-instance" xsi:schemaLocation="http://www.topografix.com/GPX/1/1 http://www.topografix.com/GPX/1/1/gpx.xsd">
  <metadata>
    <name>Wikiloc - ASCENSO A O'HARA BATTERY (Peñón de Gibraltar)</name>
    <link href="https://www.wikiloc.com/cycling-trails/ascenso-a-ohara-battery-penon-de-gibraltar-259061144">
      <text>ASCENSO A O'HARA BATTERY (Peñón de Gibraltar) - Wikiloc on Wikiloc</text>
    </link>
    <time>2026-07-16T10:03:56.955Z</time>
  </metadata>
  <trk>
    <name>ASCENSO A O'HARA BATTERY (Peñón de Gibraltar) - Wikiloc</name>
    <cmt></cmt>
    <desc></desc>
    <trkseg>
      <trkpt lat="36.133730" lon="-5.352510">
        <ele>18.183</ele>
        <time>2026-07-16T10:03:56.954Z</time>
      </trkpt>
      <trkpt lat="36.133760" lon="-5.352360">
        <ele>18.725</ele>
        <time>2026-07-16T10:04:16.954Z</time>
      </trkpt>
      <trkpt lat="36.133900" lon="-5.351840">
        <ele>22.917</ele>
        <time>2026-07-16T10:04:36.954Z</time>
      </trkpt>
      <trkpt lat="36.133910" lon="-5.351710">
        <ele>24.009</ele>
        <time>2026-07-16T10:04:56.954Z</time>
      </trkpt>
      <trkpt lat="36.133870" lon="-5.351580">
        <ele>26.050</ele>
        <time>2026-07-16T10:05:16.954Z</time>
      </trkpt>
      <trkpt lat="36.133810" lon="-5.351510">
        <ele>27.273</ele>
        <time>2026-07-16T10:05:36.954Z</time>
      </trkpt>
      <trkpt lat="36.133720" lon="-5.351420">
        <ele>28.557</ele>
        <time>2026-07-16T10:05:56.954Z</time>
      </trkpt>
      <trkpt lat="36.133670" lon="-5.351390">
        <ele>28.658</ele>
        <time>2026-07-16T10:06:16.954Z</time>
      </trkpt>
      <trkpt lat="36.133300" lon="-5.351210">
        <ele>32.764</ele>
        <time>2026-07-16T10:06:36.954Z</time>
      </trkpt>
      <trkpt lat="36.132500" lon="-5.350860">
        <ele>42.259</ele>
        <time>2026-07-16T10:06:56.954Z</time>
      </trkpt>
      <trkpt lat="36.132470" lon="-5.350850">
        <ele>42.729</ele>
        <time>2026-07-16T10:07:16.954Z</time>
      </trkpt>
      <trkpt lat="36.132290" lon="-5.350770">
        <ele>45.812</ele>
        <time>2026-07-16T10:07:36.954Z</time>
      </trkpt>
      <trkpt lat="36.131970" lon="-5.350610">
        <ele>52.532</ele>
        <time>2026-07-16T10:07:56.954Z</time>
      </trkpt>
      <trkpt lat="36.131730" lon="-5.350430">
        <ele>53.129</ele>
        <time>2026-07-16T10:08:16.954Z</time>
      </trkpt>
      <trkpt lat="36.131590" lon="-5.350320">
        <ele>53.400</ele>
        <time>2026-07-16T10:08:36.954Z</time>
      </trkpt>
      <trkpt lat="36.131470" lon="-5.350210">
        <ele>54.120</ele>
        <time>2026-07-16T10:08:56.954Z</time>
      </trkpt>
      <trkpt lat="36.131210" lon="-5.350020">
        <ele>60.409</ele>
        <time>2026-07-16T10:09:16.954Z</time>
      </trkpt>
      <trkpt lat="36.130890" lon="-5.349840">
        <ele>66.564</ele>
        <time>2026-07-16T10:09:36.954Z</time>
      </trkpt>
      <trkpt lat="36.130270" lon="-5.349750">
        <ele>65.147</ele>
        <time>2026-07-16T10:09:56.954Z</time>
      </trkpt>
      <trkpt lat="36.130160" lon="-5.349710">
        <ele>66.831</ele>
        <time>2026-07-16T10:10:16.954Z</time>
      </trkpt>
      <trkpt lat="36.129900" lon="-5.349640">
        <ele>69.832</ele>
        <time>2026-07-16T10:10:36.954Z</time>
      </trkpt>
      <trkpt lat="36.129520" lon="-5.349560">
        <ele>72.568</ele>
        <time>2026-07-16T10:10:56.954Z</time>
      </trkpt>
      <trkpt lat="36.129390" lon="-5.349540">
        <ele>73.613</ele>
        <time>2026-07-16T10:11:16.954Z</time>
      </trkpt>
      <trkpt lat="36.129350" lon="-5.349460">
        <ele>76.223</ele>
        <time>2026-07-16T10:11:36.954Z</time>
      </trkpt>
      <trkpt lat="36.129100" lon="-5.349330">
        <ele>81.336</ele>
        <time>2026-07-16T10:11:56.954Z</time>
      </trkpt>
      <trkpt lat="36.128630" lon="-5.349150">
        <ele>86.946</ele>
        <time>2026-07-16T10:12:16.954Z</time>
      </trkpt>
      <trkpt lat="36.128340" lon="-5.349090">
        <ele>90.112</ele>
        <time>2026-07-16T10:12:36.954Z</time>
      </trkpt>
      <trkpt lat="36.127940" lon="-5.348950">
        <ele>101.232</ele>
        <time>2026-07-16T10:12:56.954Z</time>
      </trkpt>
      <trkpt lat="36.127530" lon="-5.348670">
        <ele>111.105</ele>
        <time>2026-07-16T10:13:16.954Z</time>
      </trkpt>
      <trkpt lat="36.127340" lon="-5.348650">
        <ele>113.209</ele>
        <time>2026-07-16T10:13:36.954Z</time>
      </trkpt>
      <trkpt lat="36.126920" lon="-5.348700">
        <ele>115.383</ele>
        <time>2026-07-16T10:13:56.954Z</time>
      </trkpt>
      <trkpt lat="36.126700" lon="-5.348700">
        <ele>119.816</ele>
        <time>2026-07-16T10:14:16.954Z</time>
      </trkpt>
      <trkpt lat="36.126590" lon="-5.348680">
        <ele>123.190</ele>
        <time>2026-07-16T10:14:36.954Z</time>
      </trkpt>
      <trkpt lat="36.126410" lon="-5.348650">
        <ele>128.751</ele>
        <time>2026-07-16T10:14:56.954Z</time>
      </trkpt>
      <trkpt lat="36.126170" lon="-5.348520">
        <ele>134.497</ele>
        <time>2026-07-16T10:15:16.954Z</time>
      </trkpt>
      <trkpt lat="36.125950" lon="-5.348430">
        <ele>136.822</ele>
        <time>2026-07-16T10:15:36.954Z</time>
      </trkpt>
      <trkpt lat="36.125490" lon="-5.348230">
        <ele>135.482</ele>
        <time>2026-07-16T10:15:56.954Z</time>
      </trkpt>
      <trkpt lat="36.125210" lon="-5.348030">
        <ele>135.225</ele>
        <time>2026-07-16T10:16:16.954Z</time>
      </trkpt>
      <trkpt lat="36.124940" lon="-5.347800">
        <ele>141.175</ele>
        <time>2026-07-16T10:16:36.954Z</time>
      </trkpt>
      <trkpt lat="36.124760" lon="-5.347670">
        <ele>142.714</ele>
        <time>2026-07-16T10:16:56.954Z</time>
      </trkpt>
      <trkpt lat="36.124600" lon="-5.347600">
        <ele>144.654</ele>
        <time>2026-07-16T10:17:16.954Z</time>
      </trkpt>
      <trkpt lat="36.124440" lon="-5.347550">
        <ele>147.109</ele>
        <time>2026-07-16T10:17:36.954Z</time>
      </trkpt>
      <trkpt lat="36.124080" lon="-5.347560">
        <ele>144.909</ele>
        <time>2026-07-16T10:17:56.954Z</time>
      </trkpt>
      <trkpt lat="36.123910" lon="-5.347470">
        <ele>147.643</ele>
        <time>2026-07-16T10:18:16.954Z</time>
      </trkpt>
      <trkpt lat="36.123720" lon="-5.347350">
        <ele>151.596</ele>
        <time>2026-07-16T10:18:36.954Z</time>
      </trkpt>
      <trkpt lat="36.123620" lon="-5.347310">
        <ele>152.380</ele>
        <time>2026-07-16T10:18:56.954Z</time>
      </trkpt>
      <trkpt lat="36.123510" lon="-5.347280">
        <ele>152.921</ele>
        <time>2026-07-16T10:19:16.954Z</time>
      </trkpt>
      <trkpt lat="36.123060" lon="-5.347250">
        <ele>152.717</ele>
        <time>2026-07-16T10:19:36.954Z</time>
      </trkpt>
      <trkpt lat="36.122980" lon="-5.347230">
        <ele>153.482</ele>
        <time>2026-07-16T10:19:56.954Z</time>
      </trkpt>
      <trkpt lat="36.122740" lon="-5.347140">
        <ele>157.332</ele>
        <time>2026-07-16T10:20:16.954Z</time>
      </trkpt>
      <trkpt lat="36.122230" lon="-5.346890">
        <ele>166.065</ele>
        <time>2026-07-16T10:20:36.954Z</time>
      </trkpt>
      <trkpt lat="36.121490" lon="-5.346450">
        <ele>168.775</ele>
        <time>2026-07-16T10:20:56.954Z</time>
      </trkpt>
      <trkpt lat="36.121390" lon="-5.346370">
        <ele>167.769</ele>
        <time>2026-07-16T10:21:16.954Z</time>
      </trkpt>
      <trkpt lat="36.121190" lon="-5.346160">
        <ele>166.404</ele>
        <time>2026-07-16T10:21:36.954Z</time>
      </trkpt>
      <trkpt lat="36.120970" lon="-5.345980">
        <ele>168.024</ele>
        <time>2026-07-16T10:21:56.954Z</time>
      </trkpt>
      <trkpt lat="36.120940" lon="-5.345930">
        <ele>169.509</ele>
        <time>2026-07-16T10:22:16.954Z</time>
      </trkpt>
      <trkpt lat="36.120930" lon="-5.345900">
        <ele>170.698</ele>
        <time>2026-07-16T10:22:36.954Z</time>
      </trkpt>
      <trkpt lat="36.120990" lon="-5.345900">
        <ele>173.251</ele>
        <time>2026-07-16T10:22:56.954Z</time>
      </trkpt>
      <trkpt lat="36.122990" lon="-5.346400">
        <ele>199.955</ele>
        <time>2026-07-16T10:23:16.954Z</time>
      </trkpt>
      <trkpt lat="36.123170" lon="-5.346430">
        <ele>202.936</ele>
        <time>2026-07-16T10:23:36.954Z</time>
      </trkpt>
      <trkpt lat="36.123580" lon="-5.346450">
        <ele>209.532</ele>
        <time>2026-07-16T10:23:56.954Z</time>
      </trkpt>
      <trkpt lat="36.124250" lon="-5.346500">
        <ele>215.067</ele>
        <time>2026-07-16T10:24:16.954Z</time>
      </trkpt>
      <trkpt lat="36.125310" lon="-5.346500">
        <ele>236.767</ele>
        <time>2026-07-16T10:24:36.954Z</time>
      </trkpt>
      <trkpt lat="36.125630" lon="-5.346540">
        <ele>228.660</ele>
        <time>2026-07-16T10:24:56.954Z</time>
      </trkpt>
      <trkpt lat="36.125790" lon="-5.346600">
        <ele>217.820</ele>
        <time>2026-07-16T10:25:16.954Z</time>
      </trkpt>
      <trkpt lat="36.127190" lon="-5.346810">
        <ele>256.973</ele>
        <time>2026-07-16T10:25:36.954Z</time>
      </trkpt>
      <trkpt lat="36.127510" lon="-5.346890">
        <ele>270.185</ele>
        <time>2026-07-16T10:25:56.954Z</time>
      </trkpt>
      <trkpt lat="36.128020" lon="-5.346960">
        <ele>265.013</ele>
        <time>2026-07-16T10:26:16.954Z</time>
      </trkpt>
      <trkpt lat="36.128390" lon="-5.346990">
        <ele>246.309</ele>
        <time>2026-07-16T10:26:36.954Z</time>
      </trkpt>
      <trkpt lat="36.128610" lon="-5.346990">
        <ele>251.429</ele>
        <time>2026-07-16T10:26:56.954Z</time>
      </trkpt>
      <trkpt lat="36.128940" lon="-5.347050">
        <ele>241.282</ele>
        <time>2026-07-16T10:27:16.954Z</time>
      </trkpt>
      <trkpt lat="36.128980" lon="-5.346990">
        <ele>245.336</ele>
        <time>2026-07-16T10:27:36.954Z</time>
      </trkpt>
      <trkpt lat="36.128310" lon="-5.346740">
        <ele>256.477</ele>
        <time>2026-07-16T10:27:56.954Z</time>
      </trkpt>
      <trkpt lat="36.128090" lon="-5.346630">
        <ele>272.893</ele>
        <time>2026-07-16T10:28:16.954Z</time>
      </trkpt>
      <trkpt lat="36.127680" lon="-5.346410">
        <ele>273.018</ele>
        <time>2026-07-16T10:28:36.954Z</time>
      </trkpt>
      <trkpt lat="36.126930" lon="-5.345930">
        <ele>293.618</ele>
        <time>2026-07-16T10:28:56.954Z</time>
      </trkpt>
      <trkpt lat="36.126780" lon="-5.345860">
        <ele>294.341</ele>
        <time>2026-07-16T10:29:16.954Z</time>
      </trkpt>
      <trkpt lat="36.126650" lon="-5.345830">
        <ele>295.341</ele>
        <time>2026-07-16T10:29:36.954Z</time>
      </trkpt>
      <trkpt lat="36.126520" lon="-5.345800">
        <ele>297.119</ele>
        <time>2026-07-16T10:29:56.954Z</time>
      </trkpt>
      <trkpt lat="36.126650" lon="-5.345830">
        <ele>295.309</ele>
        <time>2026-07-16T10:30:16.954Z</time>
      </trkpt>
      <trkpt lat="36.126310" lon="-5.345650">
        <ele>295.219</ele>
        <time>2026-07-16T10:30:36.954Z</time>
      </trkpt>
      <trkpt lat="36.126280" lon="-5.345630">
        <ele>294.409</ele>
        <time>2026-07-16T10:30:56.954Z</time>
      </trkpt>
      <trkpt lat="36.126280" lon="-5.345590">
        <ele>295.243</ele>
        <time>2026-07-16T10:31:16.954Z</time>
      </trkpt>
      <trkpt lat="36.126290" lon="-5.345570">
        <ele>295.916</ele>
        <time>2026-07-16T10:31:36.954Z</time>
      </trkpt>
      <trkpt lat="36.126470" lon="-5.345580">
        <ele>302.290</ele>
        <time>2026-07-16T10:31:56.954Z</time>
      </trkpt>
      <trkpt lat="36.126800" lon="-5.345520">
        <ele>315.761</ele>
        <time>2026-07-16T10:32:16.954Z</time>
      </trkpt>
      <trkpt lat="36.127280" lon="-5.345540">
        <ele>322.987</ele>
        <time>2026-07-16T10:32:36.954Z</time>
      </trkpt>
      <trkpt lat="36.127600" lon="-5.345570">
        <ele>321.642</ele>
        <time>2026-07-16T10:32:56.954Z</time>
      </trkpt>
      <trkpt lat="36.127920" lon="-5.345540">
        <ele>329.572</ele>
        <time>2026-07-16T10:33:16.954Z</time>
      </trkpt>
      <trkpt lat="36.128210" lon="-5.345490">
        <ele>338.555</ele>
        <time>2026-07-16T10:33:36.954Z</time>
      </trkpt>
      <trkpt lat="36.128250" lon="-5.345480">
        <ele>339.785</ele>
        <time>2026-07-16T10:33:56.954Z</time>
      </trkpt>
      <trkpt lat="36.127630" lon="-5.345190">
        <ele>347.152</ele>
        <time>2026-07-16T10:34:16.954Z</time>
      </trkpt>
      <trkpt lat="36.127370" lon="-5.345050">
        <ele>352.053</ele>
        <time>2026-07-16T10:34:36.954Z</time>
      </trkpt>
      <trkpt lat="36.127080" lon="-5.344840">
        <ele>359.808</ele>
        <time>2026-07-16T10:34:56.954Z</time>
      </trkpt>
      <trkpt lat="36.126650" lon="-5.344760">
        <ele>362.809</ele>
        <time>2026-07-16T10:35:16.954Z</time>
      </trkpt>
      <trkpt lat="36.126480" lon="-5.344710">
        <ele>363.047</ele>
        <time>2026-07-16T10:35:36.954Z</time>
      </trkpt>
      <trkpt lat="36.126280" lon="-5.344600">
        <ele>368.830</ele>
        <time>2026-07-16T10:35:56.954Z</time>
      </trkpt>
      <trkpt lat="36.125890" lon="-5.344390">
        <ele>375.594</ele>
        <time>2026-07-16T10:36:16.954Z</time>
      </trkpt>
      <trkpt lat="36.125290" lon="-5.344030">
        <ele>391.585</ele>
        <time>2026-07-16T10:36:36.954Z</time>
      </trkpt>
      <trkpt lat="36.125030" lon="-5.343840">
        <ele>390.251</ele>
        <time>2026-07-16T10:36:56.954Z</time>
      </trkpt>
      <trkpt lat="36.124900" lon="-5.343760">
        <ele>388.236</ele>
        <time>2026-07-16T10:37:16.954Z</time>
      </trkpt>
      <trkpt lat="36.124800" lon="-5.343670">
        <ele>391.486</ele>
        <time>2026-07-16T10:37:36.954Z</time>
      </trkpt>
      <trkpt lat="36.124580" lon="-5.343500">
        <ele>381.859</ele>
        <time>2026-07-16T10:37:56.954Z</time>
      </trkpt>
      <trkpt lat="36.124570" lon="-5.343500">
        <ele>382.259</ele>
        <time>2026-07-16T10:38:16.954Z</time>
      </trkpt>
      <trkpt lat="36.124360" lon="-5.343330">
        <ele>383.134</ele>
        <time>2026-07-16T10:38:36.954Z</time>
      </trkpt>
      <trkpt lat="36.124280" lon="-5.343280">
        <ele>383.055</ele>
        <time>2026-07-16T10:38:56.954Z</time>
      </trkpt>
      <trkpt lat="36.124000" lon="-5.343190">
        <ele>379.310</ele>
        <time>2026-07-16T10:39:16.954Z</time>
      </trkpt>
      <trkpt lat="36.123910" lon="-5.343130">
        <ele>371.809</ele>
        <time>2026-07-16T10:39:36.954Z</time>
      </trkpt>
      <trkpt lat="36.123890" lon="-5.343020">
        <ele>359.775</ele>
        <time>2026-07-16T10:39:56.954Z</time>
      </trkpt>
      <trkpt lat="36.123900" lon="-5.342960">
        <ele>353.798</ele>
        <time>2026-07-16T10:40:16.954Z</time>
      </trkpt>
      <trkpt lat="36.123890" lon="-5.342960">
        <ele>354.062</ele>
        <time>2026-07-16T10:40:36.954Z</time>
      </trkpt>
    </trkseg>
  </trk></gpx>