<?xml version="1.0" encoding="UTF-8"?>
<gpx creator="Wikiloc - https://www.wikiloc.com" version="1.1" xmlns="http://www.topografix.com/GPX/1/1" xmlns:xsi="http://www.w3.org/2001/XMLSchema-instance" xsi:schemaLocation="http://www.topografix.com/GPX/1/1 http://www.topografix.com/GPX/1/1/gpx.xsd">
  <metadata>
    <name>Wikiloc - ASCENSO A GUADAYEQUE (por Agüimes)</name>
    <link href="https://www.wikiloc.com/cycling-trails/ascenso-a-guadayeque-por-aguimes-254895990">
      <text>ASCENSO A GUADAYEQUE (por Agüimes) - Wikiloc on Wikiloc</text>
    </link>
    <time>2026-07-16T10:00:05.162Z</time>
  </metadata>
  <trk>
    <name>ASCENSO A GUADAYEQUE (por Agüimes) - Wikiloc</name>
    <cmt></cmt>
    <desc></desc>
    <trkseg>
      <trkpt lat="27.883680" lon="-15.435870">
        <ele>101.748</ele>
        <time>2026-07-16T10:00:05.161Z</time>
      </trkpt>
      <trkpt lat="27.885820" lon="-15.438810">
        <ele>117.361</ele>
        <time>2026-07-16T10:00:25.161Z</time>
      </trkpt>
      <trkpt lat="27.885990" lon="-15.439050">
        <ele>117.917</ele>
        <time>2026-07-16T10:00:45.161Z</time>
      </trkpt>
      <trkpt lat="27.886160" lon="-15.439150">
        <ele>118.909</ele>
        <time>2026-07-16T10:01:05.161Z</time>
      </trkpt>
      <trkpt lat="27.886230" lon="-15.439180">
        <ele>119.016</ele>
        <time>2026-07-16T10:01:25.161Z</time>
      </trkpt>
      <trkpt lat="27.886270" lon="-15.439250">
        <ele>119.379</ele>
        <time>2026-07-16T10:01:45.161Z</time>
      </trkpt>
      <trkpt lat="27.886290" lon="-15.439400">
        <ele>119.868</ele>
        <time>2026-07-16T10:02:05.161Z</time>
      </trkpt>
      <trkpt lat="27.886340" lon="-15.439530">
        <ele>120.062</ele>
        <time>2026-07-16T10:02:25.161Z</time>
      </trkpt>
      <trkpt lat="27.889240" lon="-15.443510">
        <ele>133.093</ele>
        <time>2026-07-16T10:02:45.161Z</time>
      </trkpt>
      <trkpt lat="27.889720" lon="-15.444120">
        <ele>138.839</ele>
        <time>2026-07-16T10:03:05.161Z</time>
      </trkpt>
      <trkpt lat="27.890000" lon="-15.444430">
        <ele>142.953</ele>
        <time>2026-07-16T10:03:25.161Z</time>
      </trkpt>
      <trkpt lat="27.890400" lon="-15.444810">
        <ele>145.733</ele>
        <time>2026-07-16T10:03:45.161Z</time>
      </trkpt>
      <trkpt lat="27.890690" lon="-15.445040">
        <ele>146.114</ele>
        <time>2026-07-16T10:04:05.161Z</time>
      </trkpt>
      <trkpt lat="27.891010" lon="-15.445270">
        <ele>148.211</ele>
        <time>2026-07-16T10:04:25.161Z</time>
      </trkpt>
      <trkpt lat="27.892850" lon="-15.446310">
        <ele>157.621</ele>
        <time>2026-07-16T10:04:45.161Z</time>
      </trkpt>
      <trkpt lat="27.892970" lon="-15.446380">
        <ele>157.903</ele>
        <time>2026-07-16T10:05:05.161Z</time>
      </trkpt>
      <trkpt lat="27.893460" lon="-15.446700">
        <ele>158.809</ele>
        <time>2026-07-16T10:05:25.161Z</time>
      </trkpt>
      <trkpt lat="27.893570" lon="-15.446720">
        <ele>159.353</ele>
        <time>2026-07-16T10:05:45.161Z</time>
      </trkpt>
      <trkpt lat="27.893680" lon="-15.446710">
        <ele>160.336</ele>
        <time>2026-07-16T10:06:05.161Z</time>
      </trkpt>
      <trkpt lat="27.893780" lon="-15.446670">
        <ele>161.455</ele>
        <time>2026-07-16T10:06:25.161Z</time>
      </trkpt>
      <trkpt lat="27.893840" lon="-15.446620">
        <ele>162.269</ele>
        <time>2026-07-16T10:06:45.161Z</time>
      </trkpt>
      <trkpt lat="27.893920" lon="-15.446490">
        <ele>163.380</ele>
        <time>2026-07-16T10:07:05.161Z</time>
      </trkpt>
      <trkpt lat="27.894060" lon="-15.446000">
        <ele>164.716</ele>
        <time>2026-07-16T10:07:25.161Z</time>
      </trkpt>
      <trkpt lat="27.894120" lon="-15.445900">
        <ele>165.460</ele>
        <time>2026-07-16T10:07:45.161Z</time>
      </trkpt>
      <trkpt lat="27.894250" lon="-15.445870">
        <ele>168.760</ele>
        <time>2026-07-16T10:08:05.161Z</time>
      </trkpt>
      <trkpt lat="27.894330" lon="-15.445890">
        <ele>171.161</ele>
        <time>2026-07-16T10:08:25.161Z</time>
      </trkpt>
      <trkpt lat="27.894370" lon="-15.445940">
        <ele>172.638</ele>
        <time>2026-07-16T10:08:45.161Z</time>
      </trkpt>
      <trkpt lat="27.894410" lon="-15.446080">
        <ele>174.870</ele>
        <time>2026-07-16T10:09:05.161Z</time>
      </trkpt>
      <trkpt lat="27.894360" lon="-15.446280">
        <ele>174.817</ele>
        <time>2026-07-16T10:09:25.161Z</time>
      </trkpt>
      <trkpt lat="27.894300" lon="-15.446450">
        <ele>174.309</ele>
        <time>2026-07-16T10:09:45.161Z</time>
      </trkpt>
      <trkpt lat="27.894280" lon="-15.446610">
        <ele>174.955</ele>
        <time>2026-07-16T10:10:05.161Z</time>
      </trkpt>
      <trkpt lat="27.894320" lon="-15.446900">
        <ele>175.228</ele>
        <time>2026-07-16T10:10:25.161Z</time>
      </trkpt>
      <trkpt lat="27.894360" lon="-15.447050">
        <ele>174.977</ele>
        <time>2026-07-16T10:10:45.161Z</time>
      </trkpt>
      <trkpt lat="27.894450" lon="-15.447240">
        <ele>175.041</ele>
        <time>2026-07-16T10:11:05.161Z</time>
      </trkpt>
      <trkpt lat="27.894540" lon="-15.447390">
        <ele>176.832</ele>
        <time>2026-07-16T10:11:25.161Z</time>
      </trkpt>
      <trkpt lat="27.895230" lon="-15.448350">
        <ele>183.138</ele>
        <time>2026-07-16T10:11:45.161Z</time>
      </trkpt>
      <trkpt lat="27.895800" lon="-15.448850">
        <ele>193.462</ele>
        <time>2026-07-16T10:12:05.161Z</time>
      </trkpt>
      <trkpt lat="27.896030" lon="-15.449110">
        <ele>195.272</ele>
        <time>2026-07-16T10:12:25.161Z</time>
      </trkpt>
      <trkpt lat="27.896310" lon="-15.449470">
        <ele>195.943</ele>
        <time>2026-07-16T10:12:45.161Z</time>
      </trkpt>
      <trkpt lat="27.896740" lon="-15.449890">
        <ele>203.868</ele>
        <time>2026-07-16T10:13:05.161Z</time>
      </trkpt>
      <trkpt lat="27.896920" lon="-15.450130">
        <ele>205.542</ele>
        <time>2026-07-16T10:13:25.161Z</time>
      </trkpt>
      <trkpt lat="27.897050" lon="-15.450540">
        <ele>203.426</ele>
        <time>2026-07-16T10:13:45.161Z</time>
      </trkpt>
      <trkpt lat="27.897140" lon="-15.450630">
        <ele>206.109</ele>
        <time>2026-07-16T10:14:05.161Z</time>
      </trkpt>
      <trkpt lat="27.897210" lon="-15.450650">
        <ele>208.858</ele>
        <time>2026-07-16T10:14:25.161Z</time>
      </trkpt>
      <trkpt lat="27.897290" lon="-15.450620">
        <ele>212.931</ele>
        <time>2026-07-16T10:14:45.161Z</time>
      </trkpt>
      <trkpt lat="27.897330" lon="-15.450550">
        <ele>215.510</ele>
        <time>2026-07-16T10:15:05.161Z</time>
      </trkpt>
      <trkpt lat="27.897340" lon="-15.450460">
        <ele>217.514</ele>
        <time>2026-07-16T10:15:25.161Z</time>
      </trkpt>
      <trkpt lat="27.897300" lon="-15.450350">
        <ele>217.475</ele>
        <time>2026-07-16T10:15:45.161Z</time>
      </trkpt>
      <trkpt lat="27.897100" lon="-15.449980">
        <ele>216.871</ele>
        <time>2026-07-16T10:16:05.161Z</time>
      </trkpt>
      <trkpt lat="27.896390" lon="-15.448330">
        <ele>222.255</ele>
        <time>2026-07-16T10:16:25.161Z</time>
      </trkpt>
      <trkpt lat="27.895930" lon="-15.447180">
        <ele>232.765</ele>
        <time>2026-07-16T10:16:45.161Z</time>
      </trkpt>
      <trkpt lat="27.895890" lon="-15.447020">
        <ele>234.616</ele>
        <time>2026-07-16T10:17:05.161Z</time>
      </trkpt>
      <trkpt lat="27.895850" lon="-15.446740">
        <ele>236.822</ele>
        <time>2026-07-16T10:17:25.161Z</time>
      </trkpt>
      <trkpt lat="27.895870" lon="-15.446590">
        <ele>237.862</ele>
        <time>2026-07-16T10:17:45.161Z</time>
      </trkpt>
      <trkpt lat="27.895920" lon="-15.446330">
        <ele>238.308</ele>
        <time>2026-07-16T10:18:05.161Z</time>
      </trkpt>
      <trkpt lat="27.896140" lon="-15.445460">
        <ele>246.309</ele>
        <time>2026-07-16T10:18:25.161Z</time>
      </trkpt>
      <trkpt lat="27.896190" lon="-15.445210">
        <ele>248.764</ele>
        <time>2026-07-16T10:18:45.161Z</time>
      </trkpt>
      <trkpt lat="27.896240" lon="-15.444890">
        <ele>251.397</ele>
        <time>2026-07-16T10:19:05.161Z</time>
      </trkpt>
      <trkpt lat="27.896270" lon="-15.444530">
        <ele>252.036</ele>
        <time>2026-07-16T10:19:25.161Z</time>
      </trkpt>
      <trkpt lat="27.896280" lon="-15.444110">
        <ele>252.630</ele>
        <time>2026-07-16T10:19:45.161Z</time>
      </trkpt>
      <trkpt lat="27.896320" lon="-15.444000">
        <ele>254.351</ele>
        <time>2026-07-16T10:20:05.161Z</time>
      </trkpt>
      <trkpt lat="27.896380" lon="-15.443950">
        <ele>257.077</ele>
        <time>2026-07-16T10:20:25.161Z</time>
      </trkpt>
      <trkpt lat="27.896480" lon="-15.443930">
        <ele>261.661</ele>
        <time>2026-07-16T10:20:45.161Z</time>
      </trkpt>
      <trkpt lat="27.896520" lon="-15.443930">
        <ele>263.411</ele>
        <time>2026-07-16T10:21:05.161Z</time>
      </trkpt>
      <trkpt lat="27.896570" lon="-15.443970">
        <ele>266.192</ele>
        <time>2026-07-16T10:21:25.161Z</time>
      </trkpt>
      <trkpt lat="27.896600" lon="-15.444010">
        <ele>267.829</ele>
        <time>2026-07-16T10:21:45.161Z</time>
      </trkpt>
      <trkpt lat="27.896630" lon="-15.444150">
        <ele>270.200</ele>
        <time>2026-07-16T10:22:05.161Z</time>
      </trkpt>
      <trkpt lat="27.896560" lon="-15.444510">
        <ele>267.120</ele>
        <time>2026-07-16T10:22:25.161Z</time>
      </trkpt>
      <trkpt lat="27.896560" lon="-15.444660">
        <ele>267.309</ele>
        <time>2026-07-16T10:22:45.161Z</time>
      </trkpt>
      <trkpt lat="27.896600" lon="-15.444840">
        <ele>267.744</ele>
        <time>2026-07-16T10:23:05.161Z</time>
      </trkpt>
      <trkpt lat="27.896650" lon="-15.444950">
        <ele>268.137</ele>
        <time>2026-07-16T10:23:25.161Z</time>
      </trkpt>
      <trkpt lat="27.896750" lon="-15.445060">
        <ele>268.526</ele>
        <time>2026-07-16T10:23:45.161Z</time>
      </trkpt>
      <trkpt lat="27.896910" lon="-15.445170">
        <ele>270.120</ele>
        <time>2026-07-16T10:24:05.161Z</time>
      </trkpt>
      <trkpt lat="27.897050" lon="-15.445200">
        <ele>271.121</ele>
        <time>2026-07-16T10:24:25.161Z</time>
      </trkpt>
      <trkpt lat="27.897470" lon="-15.445230">
        <ele>271.857</ele>
        <time>2026-07-16T10:24:45.161Z</time>
      </trkpt>
      <trkpt lat="27.898970" lon="-15.445180">
        <ele>267.771</ele>
        <time>2026-07-16T10:25:05.161Z</time>
      </trkpt>
      <trkpt lat="27.899660" lon="-15.445140">
        <ele>268.861</ele>
        <time>2026-07-16T10:25:25.161Z</time>
      </trkpt>
      <trkpt lat="27.899840" lon="-15.445110">
        <ele>269.062</ele>
        <time>2026-07-16T10:25:45.161Z</time>
      </trkpt>
      <trkpt lat="27.900080" lon="-15.445030">
        <ele>268.827</ele>
        <time>2026-07-16T10:26:05.161Z</time>
      </trkpt>
      <trkpt lat="27.900870" lon="-15.445000">
        <ele>265.968</ele>
        <time>2026-07-16T10:26:25.161Z</time>
      </trkpt>
      <trkpt lat="27.901240" lon="-15.444910">
        <ele>265.614</ele>
        <time>2026-07-16T10:26:45.161Z</time>
      </trkpt>
      <trkpt lat="27.901800" lon="-15.444830">
        <ele>267.909</ele>
        <time>2026-07-16T10:27:05.161Z</time>
      </trkpt>
      <trkpt lat="27.901940" lon="-15.444840">
        <ele>268.444</ele>
        <time>2026-07-16T10:27:25.161Z</time>
      </trkpt>
      <trkpt lat="27.902250" lon="-15.444950">
        <ele>269.057</ele>
        <time>2026-07-16T10:27:45.161Z</time>
      </trkpt>
      <trkpt lat="27.903060" lon="-15.445120">
        <ele>273.416</ele>
        <time>2026-07-16T10:28:05.161Z</time>
      </trkpt>
      <trkpt lat="27.903660" lon="-15.445390">
        <ele>277.860</ele>
        <time>2026-07-16T10:28:25.161Z</time>
      </trkpt>
      <trkpt lat="27.903770" lon="-15.445380">
        <ele>278.591</ele>
        <time>2026-07-16T10:28:45.161Z</time>
      </trkpt>
      <trkpt lat="27.903850" lon="-15.445350">
        <ele>279.057</ele>
        <time>2026-07-16T10:29:05.161Z</time>
      </trkpt>
      <trkpt lat="27.903980" lon="-15.445250">
        <ele>279.951</ele>
        <time>2026-07-16T10:29:25.161Z</time>
      </trkpt>
      <trkpt lat="27.904160" lon="-15.444820">
        <ele>280.991</ele>
        <time>2026-07-16T10:29:45.161Z</time>
      </trkpt>
      <trkpt lat="27.904220" lon="-15.444700">
        <ele>281.422</ele>
        <time>2026-07-16T10:30:05.161Z</time>
      </trkpt>
      <trkpt lat="27.904580" lon="-15.444140">
        <ele>281.544</ele>
        <time>2026-07-16T10:30:25.161Z</time>
      </trkpt>
      <trkpt lat="27.904810" lon="-15.443880">
        <ele>281.705</ele>
        <time>2026-07-16T10:30:45.161Z</time>
      </trkpt>
      <trkpt lat="27.905230" lon="-15.443480">
        <ele>279.315</ele>
        <time>2026-07-16T10:31:05.161Z</time>
      </trkpt>
      <trkpt lat="27.905510" lon="-15.443400">
        <ele>277.609</ele>
        <time>2026-07-16T10:31:25.161Z</time>
      </trkpt>
      <trkpt lat="27.906190" lon="-15.443440">
        <ele>275.376</ele>
        <time>2026-07-16T10:31:45.161Z</time>
      </trkpt>
      <trkpt lat="27.906360" lon="-15.443420">
        <ele>275.049</ele>
        <time>2026-07-16T10:32:05.161Z</time>
      </trkpt>
      <trkpt lat="27.906800" lon="-15.443280">
        <ele>271.858</ele>
        <time>2026-07-16T10:32:25.161Z</time>
      </trkpt>
      <trkpt lat="27.906920" lon="-15.443250">
        <ele>270.682</ele>
        <time>2026-07-16T10:32:45.161Z</time>
      </trkpt>
      <trkpt lat="27.907130" lon="-15.443930">
        <ele>267.233</ele>
        <time>2026-07-16T10:33:05.161Z</time>
      </trkpt>
      <trkpt lat="27.907290" lon="-15.444400">
        <ele>269.599</ele>
        <time>2026-07-16T10:33:25.161Z</time>
      </trkpt>
      <trkpt lat="27.907310" lon="-15.444530">
        <ele>271.393</ele>
        <time>2026-07-16T10:33:45.161Z</time>
      </trkpt>
      <trkpt lat="27.907280" lon="-15.445320">
        <ele>284.593</ele>
        <time>2026-07-16T10:34:05.161Z</time>
      </trkpt>
      <trkpt lat="27.907440" lon="-15.446040">
        <ele>285.814</ele>
        <time>2026-07-16T10:34:25.161Z</time>
      </trkpt>
      <trkpt lat="27.907580" lon="-15.446540">
        <ele>288.942</ele>
        <time>2026-07-16T10:34:45.161Z</time>
      </trkpt>
      <trkpt lat="27.907710" lon="-15.446930">
        <ele>295.922</ele>
        <time>2026-07-16T10:35:05.161Z</time>
      </trkpt>
      <trkpt lat="27.907930" lon="-15.447460">
        <ele>298.814</ele>
        <time>2026-07-16T10:35:25.161Z</time>
      </trkpt>
      <trkpt lat="27.909090" lon="-15.449080">
        <ele>293.109</ele>
        <time>2026-07-16T10:35:45.161Z</time>
      </trkpt>
      <trkpt lat="27.909170" lon="-15.449340">
        <ele>297.316</ele>
        <time>2026-07-16T10:36:05.161Z</time>
      </trkpt>
      <trkpt lat="27.909220" lon="-15.449430">
        <ele>299.019</ele>
        <time>2026-07-16T10:36:25.161Z</time>
      </trkpt>
      <trkpt lat="27.910120" lon="-15.450300">
        <ele>306.188</ele>
        <time>2026-07-16T10:36:45.161Z</time>
      </trkpt>
      <trkpt lat="27.910600" lon="-15.450820">
        <ele>311.112</ele>
        <time>2026-07-16T10:37:05.161Z</time>
      </trkpt>
      <trkpt lat="27.910710" lon="-15.451150">
        <ele>319.953</ele>
        <time>2026-07-16T10:37:25.161Z</time>
      </trkpt>
      <trkpt lat="27.910820" lon="-15.451350">
        <ele>322.199</ele>
        <time>2026-07-16T10:37:45.161Z</time>
      </trkpt>
      <trkpt lat="27.911490" lon="-15.452090">
        <ele>325.563</ele>
        <time>2026-07-16T10:38:05.161Z</time>
      </trkpt>
      <trkpt lat="27.911630" lon="-15.452190">
        <ele>327.993</ele>
        <time>2026-07-16T10:38:25.161Z</time>
      </trkpt>
      <trkpt lat="27.912280" lon="-15.452420">
        <ele>322.064</ele>
        <time>2026-07-16T10:38:45.161Z</time>
      </trkpt>
      <trkpt lat="27.912440" lon="-15.452530">
        <ele>319.546</ele>
        <time>2026-07-16T10:39:05.161Z</time>
      </trkpt>
      <trkpt lat="27.912630" lon="-15.452890">
        <ele>324.488</ele>
        <time>2026-07-16T10:39:25.161Z</time>
      </trkpt>
      <trkpt lat="27.912810" lon="-15.453390">
        <ele>331.216</ele>
        <time>2026-07-16T10:39:45.161Z</time>
      </trkpt>
      <trkpt lat="27.912930" lon="-15.453650">
        <ele>334.109</ele>
        <time>2026-07-16T10:40:05.161Z</time>
      </trkpt>
      <trkpt lat="27.913140" lon="-15.453840">
        <ele>332.626</ele>
        <time>2026-07-16T10:40:25.161Z</time>
      </trkpt>
      <trkpt lat="27.913880" lon="-15.454320">
        <ele>328.139</ele>
        <time>2026-07-16T10:40:45.161Z</time>
      </trkpt>
      <trkpt lat="27.913970" lon="-15.454320">
        <ele>327.858</ele>
        <time>2026-07-16T10:41:05.161Z</time>
      </trkpt>
      <trkpt lat="27.914060" lon="-15.454250">
        <ele>326.392</ele>
        <time>2026-07-16T10:41:25.161Z</time>
      </trkpt>
      <trkpt lat="27.914030" lon="-15.453980">
        <ele>319.533</ele>
        <time>2026-07-16T10:41:45.161Z</time>
      </trkpt>
      <trkpt lat="27.914080" lon="-15.453950">
        <ele>318.799</ele>
        <time>2026-07-16T10:42:05.161Z</time>
      </trkpt>
      <trkpt lat="27.914300" lon="-15.454020">
        <ele>320.713</ele>
        <time>2026-07-16T10:42:25.161Z</time>
      </trkpt>
      <trkpt lat="27.914780" lon="-15.454100">
        <ele>318.553</ele>
        <time>2026-07-16T10:42:45.161Z</time>
      </trkpt>
      <trkpt lat="27.915010" lon="-15.454160">
        <ele>315.814</ele>
        <time>2026-07-16T10:43:05.161Z</time>
      </trkpt>
      <trkpt lat="27.915300" lon="-15.454270">
        <ele>318.614</ele>
        <time>2026-07-16T10:43:25.161Z</time>
      </trkpt>
      <trkpt lat="27.915710" lon="-15.454520">
        <ele>315.654</ele>
        <time>2026-07-16T10:43:45.161Z</time>
      </trkpt>
      <trkpt lat="27.916430" lon="-15.455000">
        <ele>316.309</ele>
        <time>2026-07-16T10:44:05.161Z</time>
      </trkpt>
      <trkpt lat="27.917280" lon="-15.455620">
        <ele>329.109</ele>
        <time>2026-07-16T10:44:25.161Z</time>
      </trkpt>
      <trkpt lat="27.917960" lon="-15.456160">
        <ele>330.733</ele>
        <time>2026-07-16T10:44:45.161Z</time>
      </trkpt>
      <trkpt lat="27.918490" lon="-15.456810">
        <ele>340.326</ele>
        <time>2026-07-16T10:45:05.161Z</time>
      </trkpt>
      <trkpt lat="27.919320" lon="-15.457450">
        <ele>342.335</ele>
        <time>2026-07-16T10:45:25.161Z</time>
      </trkpt>
      <trkpt lat="27.919920" lon="-15.457890">
        <ele>340.249</ele>
        <time>2026-07-16T10:45:45.161Z</time>
      </trkpt>
      <trkpt lat="27.920360" lon="-15.458380">
        <ele>344.730</ele>
        <time>2026-07-16T10:46:05.161Z</time>
      </trkpt>
      <trkpt lat="27.920530" lon="-15.458540">
        <ele>345.616</ele>
        <time>2026-07-16T10:46:25.161Z</time>
      </trkpt>
      <trkpt lat="27.920730" lon="-15.458670">
        <ele>346.130</ele>
        <time>2026-07-16T10:46:45.161Z</time>
      </trkpt>
      <trkpt lat="27.922650" lon="-15.459720">
        <ele>359.180</ele>
        <time>2026-07-16T10:47:05.161Z</time>
      </trkpt>
      <trkpt lat="27.923230" lon="-15.460070">
        <ele>364.161</ele>
        <time>2026-07-16T10:47:25.161Z</time>
      </trkpt>
      <trkpt lat="27.923420" lon="-15.460250">
        <ele>365.454</ele>
        <time>2026-07-16T10:47:45.161Z</time>
      </trkpt>
      <trkpt lat="27.923660" lon="-15.460590">
        <ele>368.856</ele>
        <time>2026-07-16T10:48:05.161Z</time>
      </trkpt>
      <trkpt lat="27.923850" lon="-15.460760">
        <ele>370.611</ele>
        <time>2026-07-16T10:48:25.161Z</time>
      </trkpt>
      <trkpt lat="27.925880" lon="-15.462030">
        <ele>390.509</ele>
        <time>2026-07-16T10:48:45.161Z</time>
      </trkpt>
      <trkpt lat="27.926030" lon="-15.462180">
        <ele>389.457</ele>
        <time>2026-07-16T10:49:05.161Z</time>
      </trkpt>
      <trkpt lat="27.926120" lon="-15.462330">
        <ele>389.730</ele>
        <time>2026-07-16T10:49:25.161Z</time>
      </trkpt>
      <trkpt lat="27.926300" lon="-15.462880">
        <ele>395.429</ele>
        <time>2026-07-16T10:49:45.161Z</time>
      </trkpt>
      <trkpt lat="27.926520" lon="-15.463370">
        <ele>398.233</ele>
        <time>2026-07-16T10:50:05.161Z</time>
      </trkpt>
      <trkpt lat="27.926640" lon="-15.463560">
        <ele>402.064</ele>
        <time>2026-07-16T10:50:25.161Z</time>
      </trkpt>
      <trkpt lat="27.927650" lon="-15.464490">
        <ele>410.770</ele>
        <time>2026-07-16T10:50:45.161Z</time>
      </trkpt>
      <trkpt lat="27.927850" lon="-15.464620">
        <ele>411.524</ele>
        <time>2026-07-16T10:51:05.161Z</time>
      </trkpt>
      <trkpt lat="27.928760" lon="-15.465070">
        <ele>414.994</ele>
        <time>2026-07-16T10:51:25.161Z</time>
      </trkpt>
      <trkpt lat="27.929830" lon="-15.465760">
        <ele>425.215</ele>
        <time>2026-07-16T10:51:45.161Z</time>
      </trkpt>
      <trkpt lat="27.930080" lon="-15.465920">
        <ele>424.976</ele>
        <time>2026-07-16T10:52:05.161Z</time>
      </trkpt>
      <trkpt lat="27.930290" lon="-15.466070">
        <ele>422.790</ele>
        <time>2026-07-16T10:52:25.161Z</time>
      </trkpt>
      <trkpt lat="27.930850" lon="-15.466570">
        <ele>433.219</ele>
        <time>2026-07-16T10:52:45.161Z</time>
      </trkpt>
      <trkpt lat="27.931070" lon="-15.466700">
        <ele>434.109</ele>
        <time>2026-07-16T10:53:05.161Z</time>
      </trkpt>
      <trkpt lat="27.931640" lon="-15.466930">
        <ele>436.059</ele>
        <time>2026-07-16T10:53:25.161Z</time>
      </trkpt>
      <trkpt lat="27.931810" lon="-15.467010">
        <ele>438.552</ele>
        <time>2026-07-16T10:53:45.161Z</time>
      </trkpt>
      <trkpt lat="27.931980" lon="-15.467150">
        <ele>440.121</ele>
        <time>2026-07-16T10:54:05.161Z</time>
      </trkpt>
      <trkpt lat="27.932050" lon="-15.467240">
        <ele>439.825</ele>
        <time>2026-07-16T10:54:25.161Z</time>
      </trkpt>
      <trkpt lat="27.932200" lon="-15.467470">
        <ele>441.196</ele>
        <time>2026-07-16T10:54:45.161Z</time>
      </trkpt>
      <trkpt lat="27.932500" lon="-15.468090">
        <ele>454.282</ele>
        <time>2026-07-16T10:55:05.161Z</time>
      </trkpt>
      <trkpt lat="27.932810" lon="-15.468630">
        <ele>458.956</ele>
        <time>2026-07-16T10:55:25.161Z</time>
      </trkpt>
      <trkpt lat="27.933200" lon="-15.469240">
        <ele>464.136</ele>
        <time>2026-07-16T10:55:45.161Z</time>
      </trkpt>
      <trkpt lat="27.933360" lon="-15.469580">
        <ele>460.277</ele>
        <time>2026-07-16T10:56:05.161Z</time>
      </trkpt>
      <trkpt lat="27.933470" lon="-15.469890">
        <ele>465.348</ele>
        <time>2026-07-16T10:56:25.161Z</time>
      </trkpt>
      <trkpt lat="27.933520" lon="-15.470100">
        <ele>470.661</ele>
        <time>2026-07-16T10:56:45.161Z</time>
      </trkpt>
      <trkpt lat="27.933690" lon="-15.473510">
        <ele>496.917</ele>
        <time>2026-07-16T10:57:05.161Z</time>
      </trkpt>
      <trkpt lat="27.933720" lon="-15.473800">
        <ele>500.409</ele>
        <time>2026-07-16T10:57:25.161Z</time>
      </trkpt>
      <trkpt lat="27.933880" lon="-15.474710">
        <ele>510.036</ele>
        <time>2026-07-16T10:57:45.161Z</time>
      </trkpt>
      <trkpt lat="27.933880" lon="-15.474820">
        <ele>510.239</ele>
        <time>2026-07-16T10:58:05.161Z</time>
      </trkpt>
      <trkpt lat="27.933570" lon="-15.475600">
        <ele>514.358</ele>
        <time>2026-07-16T10:58:25.161Z</time>
      </trkpt>
      <trkpt lat="27.933520" lon="-15.475790">
        <ele>515.912</ele>
        <time>2026-07-16T10:58:45.161Z</time>
      </trkpt>
      <trkpt lat="27.933430" lon="-15.476320">
        <ele>521.013</ele>
        <time>2026-07-16T10:59:05.161Z</time>
      </trkpt>
      <trkpt lat="27.933160" lon="-15.479010">
        <ele>544.019</ele>
        <time>2026-07-16T10:59:25.161Z</time>
      </trkpt>
      <trkpt lat="27.933000" lon="-15.480440">
        <ele>558.583</ele>
        <time>2026-07-16T10:59:45.161Z</time>
      </trkpt>
      <trkpt lat="27.932970" lon="-15.480600">
        <ele>560.493</ele>
        <time>2026-07-16T11:00:05.161Z</time>
      </trkpt>
      <trkpt lat="27.932820" lon="-15.481020">
        <ele>568.294</ele>
        <time>2026-07-16T11:00:25.161Z</time>
      </trkpt>
      <trkpt lat="27.932750" lon="-15.481340">
        <ele>571.114</ele>
        <time>2026-07-16T11:00:45.161Z</time>
      </trkpt>
      <trkpt lat="27.932750" lon="-15.481530">
        <ele>572.154</ele>
        <time>2026-07-16T11:01:05.161Z</time>
      </trkpt>
      <trkpt lat="27.932780" lon="-15.481700">
        <ele>572.209</ele>
        <time>2026-07-16T11:01:25.161Z</time>
      </trkpt>
      <trkpt lat="27.932880" lon="-15.481880">
        <ele>577.409</ele>
        <time>2026-07-16T11:01:45.161Z</time>
      </trkpt>
      <trkpt lat="27.933090" lon="-15.482160">
        <ele>581.623</ele>
        <time>2026-07-16T11:02:05.161Z</time>
      </trkpt>
      <trkpt lat="27.933200" lon="-15.482280">
        <ele>581.846</ele>
        <time>2026-07-16T11:02:25.161Z</time>
      </trkpt>
      <trkpt lat="27.933390" lon="-15.482420">
        <ele>579.065</ele>
        <time>2026-07-16T11:02:45.161Z</time>
      </trkpt>
      <trkpt lat="27.933570" lon="-15.482660">
        <ele>579.749</ele>
        <time>2026-07-16T11:03:05.161Z</time>
      </trkpt>
      <trkpt lat="27.933720" lon="-15.482780">
        <ele>580.980</ele>
        <time>2026-07-16T11:03:25.161Z</time>
      </trkpt>
      <trkpt lat="27.933950" lon="-15.482880">
        <ele>580.856</ele>
        <time>2026-07-16T11:03:45.161Z</time>
      </trkpt>
      <trkpt lat="27.934280" lon="-15.482980">
        <ele>582.450</ele>
        <time>2026-07-16T11:04:05.161Z</time>
      </trkpt>
      <trkpt lat="27.934440" lon="-15.483060">
        <ele>584.130</ele>
        <time>2026-07-16T11:04:25.161Z</time>
      </trkpt>
      <trkpt lat="27.934580" lon="-15.483170">
        <ele>590.061</ele>
        <time>2026-07-16T11:04:45.161Z</time>
      </trkpt>
      <trkpt lat="27.934890" lon="-15.483500">
        <ele>596.954</ele>
        <time>2026-07-16T11:05:05.161Z</time>
      </trkpt>
      <trkpt lat="27.935000" lon="-15.483660">
        <ele>595.456</ele>
        <time>2026-07-16T11:05:25.161Z</time>
      </trkpt>
      <trkpt lat="27.935040" lon="-15.483800">
        <ele>596.311</ele>
        <time>2026-07-16T11:05:45.161Z</time>
      </trkpt>
      <trkpt lat="27.935030" lon="-15.483940">
        <ele>596.709</ele>
        <time>2026-07-16T11:06:05.161Z</time>
      </trkpt>
      <trkpt lat="27.934950" lon="-15.484360">
        <ele>601.037</ele>
        <time>2026-07-16T11:06:25.161Z</time>
      </trkpt>
      <trkpt lat="27.934960" lon="-15.484510">
        <ele>604.550</ele>
        <time>2026-07-16T11:06:45.161Z</time>
      </trkpt>
      <trkpt lat="27.935030" lon="-15.484690">
        <ele>609.219</ele>
        <time>2026-07-16T11:07:05.161Z</time>
      </trkpt>
      <trkpt lat="27.935160" lon="-15.484940">
        <ele>614.293</ele>
        <time>2026-07-16T11:07:25.161Z</time>
      </trkpt>
      <trkpt lat="27.935450" lon="-15.485400">
        <ele>614.984</ele>
        <time>2026-07-16T11:07:45.161Z</time>
      </trkpt>
      <trkpt lat="27.935720" lon="-15.485960">
        <ele>620.850</ele>
        <time>2026-07-16T11:08:05.161Z</time>
      </trkpt>
      <trkpt lat="27.936180" lon="-15.486620">
        <ele>628.194</ele>
        <time>2026-07-16T11:08:25.161Z</time>
      </trkpt>
      <trkpt lat="27.936290" lon="-15.486830">
        <ele>632.184</ele>
        <time>2026-07-16T11:08:45.161Z</time>
      </trkpt>
      <trkpt lat="27.936390" lon="-15.487130">
        <ele>631.065</ele>
        <time>2026-07-16T11:09:05.161Z</time>
      </trkpt>
      <trkpt lat="27.936410" lon="-15.487240">
        <ele>630.768</ele>
        <time>2026-07-16T11:09:25.161Z</time>
      </trkpt>
      <trkpt lat="27.936440" lon="-15.488240">
        <ele>647.142</ele>
        <time>2026-07-16T11:09:45.161Z</time>
      </trkpt>
      <trkpt lat="27.936410" lon="-15.489050">
        <ele>649.626</ele>
        <time>2026-07-16T11:10:05.161Z</time>
      </trkpt>
      <trkpt lat="27.936370" lon="-15.489190">
        <ele>650.209</ele>
        <time>2026-07-16T11:10:25.161Z</time>
      </trkpt>
      <trkpt lat="27.936290" lon="-15.489320">
        <ele>654.288</ele>
        <time>2026-07-16T11:10:45.161Z</time>
      </trkpt>
      <trkpt lat="27.935990" lon="-15.489700">
        <ele>661.631</ele>
        <time>2026-07-16T11:11:05.161Z</time>
      </trkpt>
      <trkpt lat="27.935920" lon="-15.489830">
        <ele>662.730</ele>
        <time>2026-07-16T11:11:25.161Z</time>
      </trkpt>
      <trkpt lat="27.935890" lon="-15.489980">
        <ele>661.544</ele>
        <time>2026-07-16T11:11:45.161Z</time>
      </trkpt>
      <trkpt lat="27.935840" lon="-15.491040">
        <ele>671.675</ele>
        <time>2026-07-16T11:12:05.161Z</time>
      </trkpt>
      <trkpt lat="27.935840" lon="-15.491200">
        <ele>674.841</ele>
        <time>2026-07-16T11:12:25.161Z</time>
      </trkpt>
      <trkpt lat="27.935940" lon="-15.491840">
        <ele>679.915</ele>
        <time>2026-07-16T11:12:45.161Z</time>
      </trkpt>
      <trkpt lat="27.935940" lon="-15.491990">
        <ele>679.545</ele>
        <time>2026-07-16T11:13:05.161Z</time>
      </trkpt>
      <trkpt lat="27.935870" lon="-15.492480">
        <ele>687.836</ele>
        <time>2026-07-16T11:13:25.161Z</time>
      </trkpt>
      <trkpt lat="27.935850" lon="-15.492790">
        <ele>688.934</ele>
        <time>2026-07-16T11:13:45.161Z</time>
      </trkpt>
      <trkpt lat="27.935870" lon="-15.492950">
        <ele>690.855</ele>
        <time>2026-07-16T11:14:05.161Z</time>
      </trkpt>
      <trkpt lat="27.936010" lon="-15.493420">
        <ele>694.810</ele>
        <time>2026-07-16T11:14:25.161Z</time>
      </trkpt>
      <trkpt lat="27.936060" lon="-15.493680">
        <ele>698.209</ele>
        <time>2026-07-16T11:14:45.161Z</time>
      </trkpt>
      <trkpt lat="27.936090" lon="-15.494040">
        <ele>702.915</ele>
        <time>2026-07-16T11:15:05.161Z</time>
      </trkpt>
      <trkpt lat="27.936180" lon="-15.496060">
        <ele>725.778</ele>
        <time>2026-07-16T11:15:25.161Z</time>
      </trkpt>
      <trkpt lat="27.936300" lon="-15.497580">
        <ele>736.917</ele>
        <time>2026-07-16T11:15:45.161Z</time>
      </trkpt>
      <trkpt lat="27.936290" lon="-15.497710">
        <ele>739.071</ele>
        <time>2026-07-16T11:16:05.161Z</time>
      </trkpt>
      <trkpt lat="27.936070" lon="-15.498450">
        <ele>752.372</ele>
        <time>2026-07-16T11:16:25.161Z</time>
      </trkpt>
      <trkpt lat="27.936020" lon="-15.498710">
        <ele>755.738</ele>
        <time>2026-07-16T11:16:45.161Z</time>
      </trkpt>
      <trkpt lat="27.935960" lon="-15.499360">
        <ele>763.682</ele>
        <time>2026-07-16T11:17:05.161Z</time>
      </trkpt>
      <trkpt lat="27.935600" lon="-15.500400">
        <ele>774.282</ele>
        <time>2026-07-16T11:17:25.161Z</time>
      </trkpt>
      <trkpt lat="27.935600" lon="-15.500590">
        <ele>777.233</ele>
        <time>2026-07-16T11:17:45.161Z</time>
      </trkpt>
      <trkpt lat="27.935650" lon="-15.501050">
        <ele>779.112</ele>
        <time>2026-07-16T11:18:05.161Z</time>
      </trkpt>
      <trkpt lat="27.935700" lon="-15.501280">
        <ele>781.732</ele>
        <time>2026-07-16T11:18:25.161Z</time>
      </trkpt>
      <trkpt lat="27.935870" lon="-15.501770">
        <ele>782.105</ele>
        <time>2026-07-16T11:18:45.161Z</time>
      </trkpt>
      <trkpt lat="27.935980" lon="-15.502170">
        <ele>784.009</ele>
        <time>2026-07-16T11:19:05.161Z</time>
      </trkpt>
      <trkpt lat="27.936050" lon="-15.502350">
        <ele>787.983</ele>
        <time>2026-07-16T11:19:25.161Z</time>
      </trkpt>
      <trkpt lat="27.936240" lon="-15.502670">
        <ele>796.686</ele>
        <time>2026-07-16T11:19:45.161Z</time>
      </trkpt>
      <trkpt lat="27.936630" lon="-15.503410">
        <ele>802.155</ele>
        <time>2026-07-16T11:20:05.161Z</time>
      </trkpt>
      <trkpt lat="27.936760" lon="-15.503600">
        <ele>804.879</ele>
        <time>2026-07-16T11:20:25.161Z</time>
      </trkpt>
      <trkpt lat="27.937050" lon="-15.503950">
        <ele>812.640</ele>
        <time>2026-07-16T11:20:45.161Z</time>
      </trkpt>
      <trkpt lat="27.937220" lon="-15.504230">
        <ele>817.716</ele>
        <time>2026-07-16T11:21:05.161Z</time>
      </trkpt>
      <trkpt lat="27.937280" lon="-15.504400">
        <ele>818.850</ele>
        <time>2026-07-16T11:21:25.161Z</time>
      </trkpt>
      <trkpt lat="27.937300" lon="-15.504560">
        <ele>818.970</ele>
        <time>2026-07-16T11:21:45.161Z</time>
      </trkpt>
      <trkpt lat="27.937270" lon="-15.504750">
        <ele>819.291</ele>
        <time>2026-07-16T11:22:05.161Z</time>
      </trkpt>
      <trkpt lat="27.937130" lon="-15.505310">
        <ele>830.279</ele>
        <time>2026-07-16T11:22:25.161Z</time>
      </trkpt>
      <trkpt lat="27.937100" lon="-15.505480">
        <ele>833.105</ele>
        <time>2026-07-16T11:22:45.161Z</time>
      </trkpt>
      <trkpt lat="27.937070" lon="-15.506200">
        <ele>838.425</ele>
        <time>2026-07-16T11:23:05.161Z</time>
      </trkpt>
      <trkpt lat="27.937020" lon="-15.506740">
        <ele>852.109</ele>
        <time>2026-07-16T11:23:25.161Z</time>
      </trkpt>
      <trkpt lat="27.937090" lon="-15.507470">
        <ele>854.119</ele>
        <time>2026-07-16T11:23:45.161Z</time>
      </trkpt>
      <trkpt lat="27.937040" lon="-15.508040">
        <ele>858.062</ele>
        <time>2026-07-16T11:24:05.161Z</time>
      </trkpt>
      <trkpt lat="27.937000" lon="-15.508180">
        <ele>860.591</ele>
        <time>2026-07-16T11:24:25.161Z</time>
      </trkpt>
      <trkpt lat="27.936910" lon="-15.508400">
        <ele>864.665</ele>
        <time>2026-07-16T11:24:45.161Z</time>
      </trkpt>
      <trkpt lat="27.936810" lon="-15.508590">
        <ele>866.636</ele>
        <time>2026-07-16T11:25:05.161Z</time>
      </trkpt>
      <trkpt lat="27.936680" lon="-15.508720">
        <ele>868.052</ele>
        <time>2026-07-16T11:25:25.161Z</time>
      </trkpt>
      <trkpt lat="27.936530" lon="-15.508790">
        <ele>870.416</ele>
        <time>2026-07-16T11:25:45.161Z</time>
      </trkpt>
      <trkpt lat="27.936070" lon="-15.508910">
        <ele>879.926</ele>
        <time>2026-07-16T11:26:05.161Z</time>
      </trkpt>
      <trkpt lat="27.935940" lon="-15.508920">
        <ele>883.047</ele>
        <time>2026-07-16T11:26:25.161Z</time>
      </trkpt>
      <trkpt lat="27.935840" lon="-15.508900">
        <ele>885.713</ele>
        <time>2026-07-16T11:26:45.161Z</time>
      </trkpt>
      <trkpt lat="27.935540" lon="-15.508770">
        <ele>893.143</ele>
        <time>2026-07-16T11:27:05.161Z</time>
      </trkpt>
      <trkpt lat="27.935420" lon="-15.508750">
        <ele>893.807</ele>
        <time>2026-07-16T11:27:25.161Z</time>
      </trkpt>
      <trkpt lat="27.935320" lon="-15.508770">
        <ele>892.809</ele>
        <time>2026-07-16T11:27:45.161Z</time>
      </trkpt>
      <trkpt lat="27.934470" lon="-15.509190">
        <ele>900.473</ele>
        <time>2026-07-16T11:28:05.161Z</time>
      </trkpt>
      <trkpt lat="27.934310" lon="-15.509300">
        <ele>903.296</ele>
        <time>2026-07-16T11:28:25.161Z</time>
      </trkpt>
      <trkpt lat="27.934060" lon="-15.509520">
        <ele>909.825</ele>
        <time>2026-07-16T11:28:45.161Z</time>
      </trkpt>
      <trkpt lat="27.933950" lon="-15.509640">
        <ele>914.569</ele>
        <time>2026-07-16T11:29:05.161Z</time>
      </trkpt>
      <trkpt lat="27.933880" lon="-15.509830">
        <ele>917.540</ele>
        <time>2026-07-16T11:29:25.161Z</time>
      </trkpt>
      <trkpt lat="27.933840" lon="-15.510010">
        <ele>919.566</ele>
        <time>2026-07-16T11:29:45.161Z</time>
      </trkpt>
      <trkpt lat="27.933870" lon="-15.510190">
        <ele>922.580</ele>
        <time>2026-07-16T11:30:05.161Z</time>
      </trkpt>
      <trkpt lat="27.934050" lon="-15.510530">
        <ele>929.480</ele>
        <time>2026-07-16T11:30:25.161Z</time>
      </trkpt>
      <trkpt lat="27.934120" lon="-15.510700">
        <ele>930.021</ele>
        <time>2026-07-16T11:30:45.161Z</time>
      </trkpt>
      <trkpt lat="27.934230" lon="-15.511270">
        <ele>934.076</ele>
        <time>2026-07-16T11:31:05.161Z</time>
      </trkpt>
      <trkpt lat="27.934220" lon="-15.511400">
        <ele>934.590</ele>
        <time>2026-07-16T11:31:25.161Z</time>
      </trkpt>
      <trkpt lat="27.934140" lon="-15.511720">
        <ele>941.119</ele>
        <time>2026-07-16T11:31:45.161Z</time>
      </trkpt>
      <trkpt lat="27.934130" lon="-15.511900">
        <ele>944.309</ele>
        <time>2026-07-16T11:32:05.161Z</time>
      </trkpt>
      <trkpt lat="27.934190" lon="-15.512200">
        <ele>945.999</ele>
        <time>2026-07-16T11:32:25.161Z</time>
      </trkpt>
      <trkpt lat="27.934300" lon="-15.512460">
        <ele>947.452</ele>
        <time>2026-07-16T11:32:45.161Z</time>
      </trkpt>
      <trkpt lat="27.934450" lon="-15.512660">
        <ele>948.151</ele>
        <time>2026-07-16T11:33:05.161Z</time>
      </trkpt>
      <trkpt lat="27.934660" lon="-15.512810">
        <ele>950.055</ele>
        <time>2026-07-16T11:33:25.161Z</time>
      </trkpt>
      <trkpt lat="27.935000" lon="-15.512920">
        <ele>953.666</ele>
        <time>2026-07-16T11:33:45.161Z</time>
      </trkpt>
      <trkpt lat="27.935320" lon="-15.512990">
        <ele>960.412</ele>
        <time>2026-07-16T11:34:05.161Z</time>
      </trkpt>
      <trkpt lat="27.935420" lon="-15.512970">
        <ele>961.056</ele>
        <time>2026-07-16T11:34:25.161Z</time>
      </trkpt>
      <trkpt lat="27.935490" lon="-15.512920">
        <ele>961.026</ele>
        <time>2026-07-16T11:34:45.161Z</time>
      </trkpt>
      <trkpt lat="27.935530" lon="-15.512850">
        <ele>960.577</ele>
        <time>2026-07-16T11:35:05.161Z</time>
      </trkpt>
      <trkpt lat="27.935550" lon="-15.512760">
        <ele>960.129</ele>
        <time>2026-07-16T11:35:25.161Z</time>
      </trkpt>
      <trkpt lat="27.935530" lon="-15.512670">
        <ele>960.800</ele>
        <time>2026-07-16T11:35:45.161Z</time>
      </trkpt>
      <trkpt lat="27.935450" lon="-15.512570">
        <ele>959.820</ele>
        <time>2026-07-16T11:36:05.161Z</time>
      </trkpt>
      <trkpt lat="27.935320" lon="-15.512450">
        <ele>958.309</ele>
        <time>2026-07-16T11:36:25.161Z</time>
      </trkpt>
      <trkpt lat="27.935260" lon="-15.512360">
        <ele>959.984</ele>
        <time>2026-07-16T11:36:45.161Z</time>
      </trkpt>
      <trkpt lat="27.935230" lon="-15.512270">
        <ele>962.297</ele>
        <time>2026-07-16T11:37:05.161Z</time>
      </trkpt>
      <trkpt lat="27.935520" lon="-15.512380">
        <ele>966.856</ele>
        <time>2026-07-16T11:37:25.161Z</time>
      </trkpt>
      <trkpt lat="27.935730" lon="-15.512330">
        <ele>971.730</ele>
        <time>2026-07-16T11:37:45.161Z</time>
      </trkpt>
      <trkpt lat="27.936410" lon="-15.512020">
        <ele>983.981</ele>
        <time>2026-07-16T11:38:05.161Z</time>
      </trkpt>
      <trkpt lat="27.936480" lon="-15.512010">
        <ele>983.867</ele>
        <time>2026-07-16T11:38:25.161Z</time>
      </trkpt>
      <trkpt lat="27.936980" lon="-15.512070">
        <ele>981.121</ele>
        <time>2026-07-16T11:38:45.161Z</time>
      </trkpt>
      <trkpt lat="27.937080" lon="-15.512100">
        <ele>980.861</ele>
        <time>2026-07-16T11:39:05.161Z</time>
      </trkpt>
    </trkseg>
  </trk></gpx>