<?xml version="1.0" encoding="UTF-8"?>
<gpx creator="Wikiloc - https://www.wikiloc.com" version="1.1" xmlns="http://www.topografix.com/GPX/1/1" xmlns:xsi="http://www.w3.org/2001/XMLSchema-instance" xsi:schemaLocation="http://www.topografix.com/GPX/1/1 http://www.topografix.com/GPX/1/1/gpx.xsd">
  <metadata>
    <name>Wikiloc - Ascension Refuge de l'Abérouat 1.439m</name>
    <link href="https://www.wikiloc.com/cycling-trails/ascension-refuge-de-laberouat-1-439m-260281444">
      <text>Ascension Refuge de l'Abérouat 1.439m - Wikiloc on Wikiloc</text>
    </link>
    <time>2026-04-18T07:55:31Z</time>
  </metadata>
  <trk>
    <name>Ascension Refuge de l'Abérouat 1.439m - Wikiloc</name>
    <cmt></cmt>
    <desc></desc>
    <trkseg>
      <trkpt lat="42.946806" lon="-0.611258">
        <ele>492.784</ele>
        <time>2026-04-18T06:48:15Z</time>
      </trkpt>
      <trkpt lat="42.946611" lon="-0.611689">
        <ele>491.607</ele>
        <time>2026-04-18T06:48:42Z</time>
      </trkpt>
      <trkpt lat="42.946400" lon="-0.611862">
        <ele>492.017</ele>
        <time>2026-04-18T06:48:53Z</time>
      </trkpt>
      <trkpt lat="42.946263" lon="-0.611846">
        <ele>492.009</ele>
        <time>2026-04-18T06:48:56Z</time>
      </trkpt>
      <trkpt lat="42.945956" lon="-0.611375">
        <ele>494.170</ele>
        <time>2026-04-18T06:49:08Z</time>
      </trkpt>
      <trkpt lat="42.945598" lon="-0.611120">
        <ele>496.434</ele>
        <time>2026-04-18T06:49:18Z</time>
      </trkpt>
      <trkpt lat="42.945174" lon="-0.611150">
        <ele>497.978</ele>
        <time>2026-04-18T06:49:28Z</time>
      </trkpt>
      <trkpt lat="42.944460" lon="-0.611445">
        <ele>499.120</ele>
        <time>2026-04-18T06:49:45Z</time>
      </trkpt>
      <trkpt lat="42.943509" lon="-0.612633">
        <ele>503.636</ele>
        <time>2026-04-18T06:50:17Z</time>
      </trkpt>
      <trkpt lat="42.942011" lon="-0.614209">
        <ele>514.499</ele>
        <time>2026-04-18T06:51:16Z</time>
      </trkpt>
      <trkpt lat="42.941100" lon="-0.615345">
        <ele>521.952</ele>
        <time>2026-04-18T06:51:52Z</time>
      </trkpt>
      <trkpt lat="42.940920" lon="-0.615849">
        <ele>524.882</ele>
        <time>2026-04-18T06:52:09Z</time>
      </trkpt>
      <trkpt lat="42.940900" lon="-0.616496">
        <ele>526.882</ele>
        <time>2026-04-18T06:52:28Z</time>
      </trkpt>
      <trkpt lat="42.940623" lon="-0.617298">
        <ele>531.557</ele>
        <time>2026-04-18T06:52:46Z</time>
      </trkpt>
      <trkpt lat="42.940691" lon="-0.617442">
        <ele>532.900</ele>
        <time>2026-04-18T06:52:50Z</time>
      </trkpt>
      <trkpt lat="42.941263" lon="-0.617281">
        <ele>538.320</ele>
        <time>2026-04-18T06:53:09Z</time>
      </trkpt>
      <trkpt lat="42.941340" lon="-0.617307">
        <ele>539.109</ele>
        <time>2026-04-18T06:53:12Z</time>
      </trkpt>
      <trkpt lat="42.941372" lon="-0.617555">
        <ele>541.347</ele>
        <time>2026-04-18T06:53:19Z</time>
      </trkpt>
      <trkpt lat="42.940899" lon="-0.617922">
        <ele>546.321</ele>
        <time>2026-04-18T06:53:38Z</time>
      </trkpt>
      <trkpt lat="42.940335" lon="-0.618200">
        <ele>553.465</ele>
        <time>2026-04-18T06:53:59Z</time>
      </trkpt>
      <trkpt lat="42.940276" lon="-0.618352">
        <ele>554.937</ele>
        <time>2026-04-18T06:54:04Z</time>
      </trkpt>
      <trkpt lat="42.940280" lon="-0.618786">
        <ele>558.453</ele>
        <time>2026-04-18T06:54:16Z</time>
      </trkpt>
      <trkpt lat="42.940131" lon="-0.619229">
        <ele>561.786</ele>
        <time>2026-04-18T06:54:28Z</time>
      </trkpt>
      <trkpt lat="42.939598" lon="-0.619794">
        <ele>568.659</ele>
        <time>2026-04-18T06:54:52Z</time>
      </trkpt>
      <trkpt lat="42.939679" lon="-0.619859">
        <ele>569.869</ele>
        <time>2026-04-18T06:54:56Z</time>
      </trkpt>
      <trkpt lat="42.940184" lon="-0.619393">
        <ele>576.039</ele>
        <time>2026-04-18T06:55:23Z</time>
      </trkpt>
      <trkpt lat="42.940476" lon="-0.618896">
        <ele>581.311</ele>
        <time>2026-04-18T06:55:43Z</time>
      </trkpt>
      <trkpt lat="42.940877" lon="-0.618818">
        <ele>585.221</ele>
        <time>2026-04-18T06:56:00Z</time>
      </trkpt>
      <trkpt lat="42.941279" lon="-0.618593">
        <ele>589.503</ele>
        <time>2026-04-18T06:56:16Z</time>
      </trkpt>
      <trkpt lat="42.941390" lon="-0.618624">
        <ele>590.809</ele>
        <time>2026-04-18T06:56:21Z</time>
      </trkpt>
      <trkpt lat="42.941324" lon="-0.618859">
        <ele>592.533</ele>
        <time>2026-04-18T06:56:32Z</time>
      </trkpt>
      <trkpt lat="42.940878" lon="-0.619273">
        <ele>597.037</ele>
        <time>2026-04-18T06:56:54Z</time>
      </trkpt>
      <trkpt lat="42.940767" lon="-0.619466">
        <ele>599.011</ele>
        <time>2026-04-18T06:57:01Z</time>
      </trkpt>
      <trkpt lat="42.940524" lon="-0.620240">
        <ele>605.573</ele>
        <time>2026-04-18T06:57:26Z</time>
      </trkpt>
      <trkpt lat="42.940328" lon="-0.620498">
        <ele>608.229</ele>
        <time>2026-04-18T06:57:37Z</time>
      </trkpt>
      <trkpt lat="42.940388" lon="-0.620654">
        <ele>609.992</ele>
        <time>2026-04-18T06:57:44Z</time>
      </trkpt>
      <trkpt lat="42.940814" lon="-0.619863">
        <ele>616.085</ele>
        <time>2026-04-18T06:58:15Z</time>
      </trkpt>
      <trkpt lat="42.941313" lon="-0.619663">
        <ele>621.395</ele>
        <time>2026-04-18T06:58:38Z</time>
      </trkpt>
      <trkpt lat="42.941533" lon="-0.619436">
        <ele>624.665</ele>
        <time>2026-04-18T06:58:49Z</time>
      </trkpt>
      <trkpt lat="42.942018" lon="-0.619141">
        <ele>630.987</ele>
        <time>2026-04-18T06:59:10Z</time>
      </trkpt>
      <trkpt lat="42.942263" lon="-0.618723">
        <ele>635.542</ele>
        <time>2026-04-18T06:59:24Z</time>
      </trkpt>
      <trkpt lat="42.942566" lon="-0.618379">
        <ele>639.826</ele>
        <time>2026-04-18T06:59:37Z</time>
      </trkpt>
      <trkpt lat="42.942897" lon="-0.618232">
        <ele>643.609</ele>
        <time>2026-04-18T06:59:51Z</time>
      </trkpt>
      <trkpt lat="42.943052" lon="-0.618289">
        <ele>645.410</ele>
        <time>2026-04-18T06:59:57Z</time>
      </trkpt>
      <trkpt lat="42.943105" lon="-0.618520">
        <ele>646.344</ele>
        <time>2026-04-18T07:00:06Z</time>
      </trkpt>
      <trkpt lat="42.942675" lon="-0.619197">
        <ele>651.088</ele>
        <time>2026-04-18T07:00:35Z</time>
      </trkpt>
      <trkpt lat="42.942422" lon="-0.619971">
        <ele>656.230</ele>
        <time>2026-04-18T07:00:59Z</time>
      </trkpt>
      <trkpt lat="42.941515" lon="-0.621386">
        <ele>668.246</ele>
        <time>2026-04-18T07:01:51Z</time>
      </trkpt>
      <trkpt lat="42.941041" lon="-0.621854">
        <ele>673.789</ele>
        <time>2026-04-18T07:02:11Z</time>
      </trkpt>
      <trkpt lat="42.940001" lon="-0.622459">
        <ele>685.112</ele>
        <time>2026-04-18T07:02:54Z</time>
      </trkpt>
      <trkpt lat="42.939647" lon="-0.622822">
        <ele>688.672</ele>
        <time>2026-04-18T07:03:10Z</time>
      </trkpt>
      <trkpt lat="42.938989" lon="-0.623157">
        <ele>695.622</ele>
        <time>2026-04-18T07:03:43Z</time>
      </trkpt>
      <trkpt lat="42.938867" lon="-0.623536">
        <ele>699.558</ele>
        <time>2026-04-18T07:04:06Z</time>
      </trkpt>
      <trkpt lat="42.938754" lon="-0.623617">
        <ele>699.552</ele>
        <time>2026-04-18T07:04:11Z</time>
      </trkpt>
      <trkpt lat="42.938507" lon="-0.623679">
        <ele>701.417</ele>
        <time>2026-04-18T07:04:20Z</time>
      </trkpt>
      <trkpt lat="42.938395" lon="-0.623631">
        <ele>702.609</ele>
        <time>2026-04-18T07:04:26Z</time>
      </trkpt>
      <trkpt lat="42.937789" lon="-0.624059">
        <ele>710.267</ele>
        <time>2026-04-18T07:04:56Z</time>
      </trkpt>
      <trkpt lat="42.937513" lon="-0.624166">
        <ele>713.411</ele>
        <time>2026-04-18T07:05:07Z</time>
      </trkpt>
      <trkpt lat="42.937184" lon="-0.624075">
        <ele>717.695</ele>
        <time>2026-04-18T07:05:22Z</time>
      </trkpt>
      <trkpt lat="42.936723" lon="-0.624592">
        <ele>724.787</ele>
        <time>2026-04-18T07:05:46Z</time>
      </trkpt>
      <trkpt lat="42.936143" lon="-0.625100">
        <ele>732.943</ele>
        <time>2026-04-18T07:06:16Z</time>
      </trkpt>
      <trkpt lat="42.935588" lon="-0.625261">
        <ele>738.136</ele>
        <time>2026-04-18T07:06:39Z</time>
      </trkpt>
      <trkpt lat="42.935439" lon="-0.625370">
        <ele>739.889</ele>
        <time>2026-04-18T07:06:46Z</time>
      </trkpt>
      <trkpt lat="42.934800" lon="-0.626396">
        <ele>750.469</ele>
        <time>2026-04-18T07:07:27Z</time>
      </trkpt>
      <trkpt lat="42.934519" lon="-0.626584">
        <ele>753.949</ele>
        <time>2026-04-18T07:07:40Z</time>
      </trkpt>
      <trkpt lat="42.934156" lon="-0.626658">
        <ele>758.022</ele>
        <time>2026-04-18T07:07:54Z</time>
      </trkpt>
      <trkpt lat="42.933959" lon="-0.626887">
        <ele>761.362</ele>
        <time>2026-04-18T07:08:04Z</time>
      </trkpt>
      <trkpt lat="42.933679" lon="-0.627833">
        <ele>769.508</ele>
        <time>2026-04-18T07:08:34Z</time>
      </trkpt>
      <trkpt lat="42.933495" lon="-0.628152">
        <ele>772.709</ele>
        <time>2026-04-18T07:08:46Z</time>
      </trkpt>
      <trkpt lat="42.933135" lon="-0.628514">
        <ele>777.044</ele>
        <time>2026-04-18T07:09:03Z</time>
      </trkpt>
      <trkpt lat="42.933007" lon="-0.628852">
        <ele>780.188</ele>
        <time>2026-04-18T07:09:14Z</time>
      </trkpt>
      <trkpt lat="42.933052" lon="-0.629451">
        <ele>785.332</ele>
        <time>2026-04-18T07:09:31Z</time>
      </trkpt>
      <trkpt lat="42.932953" lon="-0.629917">
        <ele>789.494</ele>
        <time>2026-04-18T07:09:46Z</time>
      </trkpt>
      <trkpt lat="42.933013" lon="-0.629966">
        <ele>790.130</ele>
        <time>2026-04-18T07:09:50Z</time>
      </trkpt>
      <trkpt lat="42.933167" lon="-0.629393">
        <ele>793.633</ele>
        <time>2026-04-18T07:10:24Z</time>
      </trkpt>
      <trkpt lat="42.933428" lon="-0.628975">
        <ele>797.936</ele>
        <time>2026-04-18T07:10:42Z</time>
      </trkpt>
      <trkpt lat="42.933967" lon="-0.628314">
        <ele>805.826</ele>
        <time>2026-04-18T07:11:11Z</time>
      </trkpt>
      <trkpt lat="42.934064" lon="-0.628101">
        <ele>807.586</ele>
        <time>2026-04-18T07:11:19Z</time>
      </trkpt>
      <trkpt lat="42.934219" lon="-0.627981">
        <ele>809.145</ele>
        <time>2026-04-18T07:11:37Z</time>
      </trkpt>
      <trkpt lat="42.934268" lon="-0.628248">
        <ele>810.047</ele>
        <time>2026-04-18T07:12:03Z</time>
      </trkpt>
      <trkpt lat="42.933957" lon="-0.628655">
        <ele>811.811</ele>
        <time>2026-04-18T07:12:14Z</time>
      </trkpt>
      <trkpt lat="42.933812" lon="-0.629049">
        <ele>814.209</ele>
        <time>2026-04-18T07:12:23Z</time>
      </trkpt>
      <trkpt lat="42.933911" lon="-0.629668">
        <ele>819.096</ele>
        <time>2026-04-18T07:12:44Z</time>
      </trkpt>
      <trkpt lat="42.933869" lon="-0.630610">
        <ele>826.990</ele>
        <time>2026-04-18T07:13:17Z</time>
      </trkpt>
      <trkpt lat="42.933940" lon="-0.630676">
        <ele>828.324</ele>
        <time>2026-04-18T07:13:22Z</time>
      </trkpt>
      <trkpt lat="42.934046" lon="-0.630664">
        <ele>829.356</ele>
        <time>2026-04-18T07:13:26Z</time>
      </trkpt>
      <trkpt lat="42.934295" lon="-0.630462">
        <ele>832.262</ele>
        <time>2026-04-18T07:13:38Z</time>
      </trkpt>
      <trkpt lat="42.934424" lon="-0.629773">
        <ele>838.725</ele>
        <time>2026-04-18T07:14:00Z</time>
      </trkpt>
      <trkpt lat="42.934431" lon="-0.629336">
        <ele>841.558</ele>
        <time>2026-04-18T07:14:16Z</time>
      </trkpt>
      <trkpt lat="42.934488" lon="-0.629222">
        <ele>842.778</ele>
        <time>2026-04-18T07:14:20Z</time>
      </trkpt>
      <trkpt lat="42.934579" lon="-0.629196">
        <ele>843.888</ele>
        <time>2026-04-18T07:14:24Z</time>
      </trkpt>
      <trkpt lat="42.934593" lon="-0.629583">
        <ele>847.158</ele>
        <time>2026-04-18T07:14:39Z</time>
      </trkpt>
      <trkpt lat="42.934734" lon="-0.630153">
        <ele>851.752</ele>
        <time>2026-04-18T07:14:56Z</time>
      </trkpt>
      <trkpt lat="42.934705" lon="-0.630614">
        <ele>855.317</ele>
        <time>2026-04-18T07:15:11Z</time>
      </trkpt>
      <trkpt lat="42.934781" lon="-0.631487">
        <ele>861.909</ele>
        <time>2026-04-18T07:15:39Z</time>
      </trkpt>
      <trkpt lat="42.934696" lon="-0.631660">
        <ele>863.497</ele>
        <time>2026-04-18T07:15:45Z</time>
      </trkpt>
      <trkpt lat="42.934188" lon="-0.631884">
        <ele>868.771</ele>
        <time>2026-04-18T07:16:06Z</time>
      </trkpt>
      <trkpt lat="42.933925" lon="-0.632405">
        <ele>873.385</ele>
        <time>2026-04-18T07:16:27Z</time>
      </trkpt>
      <trkpt lat="42.933725" lon="-0.633627">
        <ele>880.697</ele>
        <time>2026-04-18T07:17:06Z</time>
      </trkpt>
      <trkpt lat="42.933734" lon="-0.633982">
        <ele>883.563</ele>
        <time>2026-04-18T07:17:16Z</time>
      </trkpt>
      <trkpt lat="42.933820" lon="-0.634762">
        <ele>893.026</ele>
        <time>2026-04-18T07:17:47Z</time>
      </trkpt>
      <trkpt lat="42.934123" lon="-0.635015">
        <ele>895.129</ele>
        <time>2026-04-18T07:18:08Z</time>
      </trkpt>
      <trkpt lat="42.934003" lon="-0.635538">
        <ele>898.189</ele>
        <time>2026-04-18T07:18:32Z</time>
      </trkpt>
      <trkpt lat="42.933721" lon="-0.636160">
        <ele>904.069</ele>
        <time>2026-04-18T07:18:58Z</time>
      </trkpt>
      <trkpt lat="42.933679" lon="-0.636681">
        <ele>904.382</ele>
        <time>2026-04-18T07:19:20Z</time>
      </trkpt>
      <trkpt lat="42.933552" lon="-0.637132">
        <ele>902.843</ele>
        <time>2026-04-18T07:19:33Z</time>
      </trkpt>
      <trkpt lat="42.933213" lon="-0.637533">
        <ele>907.317</ele>
        <time>2026-04-18T07:21:38Z</time>
      </trkpt>
      <trkpt lat="42.932932" lon="-0.638257">
        <ele>914.809</ele>
        <time>2026-04-18T07:22:05Z</time>
      </trkpt>
      <trkpt lat="42.932970" lon="-0.638292">
        <ele>915.330</ele>
        <time>2026-04-18T07:22:08Z</time>
      </trkpt>
      <trkpt lat="42.933300" lon="-0.638070">
        <ele>914.264</ele>
        <time>2026-04-18T07:22:20Z</time>
      </trkpt>
      <trkpt lat="42.933474" lon="-0.638102">
        <ele>914.158</ele>
        <time>2026-04-18T07:22:23Z</time>
      </trkpt>
      <trkpt lat="42.933789" lon="-0.638628">
        <ele>919.710</ele>
        <time>2026-04-18T07:22:41Z</time>
      </trkpt>
      <trkpt lat="42.934198" lon="-0.638909">
        <ele>927.396</ele>
        <time>2026-04-18T07:23:03Z</time>
      </trkpt>
      <trkpt lat="42.934349" lon="-0.638632">
        <ele>931.539</ele>
        <time>2026-04-18T07:23:14Z</time>
      </trkpt>
      <trkpt lat="42.934644" lon="-0.638449">
        <ele>936.732</ele>
        <time>2026-04-18T07:23:30Z</time>
      </trkpt>
      <trkpt lat="42.934773" lon="-0.637950">
        <ele>941.592</ele>
        <time>2026-04-18T07:23:50Z</time>
      </trkpt>
      <trkpt lat="42.934980" lon="-0.637845">
        <ele>944.642</ele>
        <time>2026-04-18T07:24:01Z</time>
      </trkpt>
      <trkpt lat="42.935356" lon="-0.637806">
        <ele>951.425</ele>
        <time>2026-04-18T07:24:24Z</time>
      </trkpt>
      <trkpt lat="42.935456" lon="-0.637940">
        <ele>953.426</ele>
        <time>2026-04-18T07:24:32Z</time>
      </trkpt>
      <trkpt lat="42.935598" lon="-0.638550">
        <ele>956.308</ele>
        <time>2026-04-18T07:24:53Z</time>
      </trkpt>
      <trkpt lat="42.935870" lon="-0.638596">
        <ele>960.209</ele>
        <time>2026-04-18T07:25:05Z</time>
      </trkpt>
      <trkpt lat="42.936086" lon="-0.638353">
        <ele>964.154</ele>
        <time>2026-04-18T07:25:17Z</time>
      </trkpt>
      <trkpt lat="42.936235" lon="-0.638364">
        <ele>965.518</ele>
        <time>2026-04-18T07:25:24Z</time>
      </trkpt>
      <trkpt lat="42.936356" lon="-0.638502">
        <ele>966.752</ele>
        <time>2026-04-18T07:25:31Z</time>
      </trkpt>
      <trkpt lat="42.936428" lon="-0.638875">
        <ele>970.044</ele>
        <time>2026-04-18T07:25:44Z</time>
      </trkpt>
      <trkpt lat="42.936950" lon="-0.639589">
        <ele>979.630</ele>
        <time>2026-04-18T07:26:18Z</time>
      </trkpt>
      <trkpt lat="42.936964" lon="-0.639816">
        <ele>982.613</ele>
        <time>2026-04-18T07:26:24Z</time>
      </trkpt>
      <trkpt lat="42.936740" lon="-0.640518">
        <ele>985.546</ele>
        <time>2026-04-18T07:26:44Z</time>
      </trkpt>
      <trkpt lat="42.935570" lon="-0.641479">
        <ele>986.636</ele>
        <time>2026-04-18T07:27:15Z</time>
      </trkpt>
      <trkpt lat="42.935172" lon="-0.641945">
        <ele>989.326</ele>
        <time>2026-04-18T07:27:28Z</time>
      </trkpt>
      <trkpt lat="42.935020" lon="-0.642220">
        <ele>992.395</ele>
        <time>2026-04-18T07:27:39Z</time>
      </trkpt>
      <trkpt lat="42.934344" lon="-0.642829">
        <ele>1003.749</ele>
        <time>2026-04-18T07:28:11Z</time>
      </trkpt>
      <trkpt lat="42.934233" lon="-0.643334">
        <ele>1009.023</ele>
        <time>2026-04-18T07:28:28Z</time>
      </trkpt>
      <trkpt lat="42.934380" lon="-0.645183">
        <ele>1027.109</ele>
        <time>2026-04-18T07:29:34Z</time>
      </trkpt>
      <trkpt lat="42.934386" lon="-0.646158">
        <ele>1035.371</ele>
        <time>2026-04-18T07:30:04Z</time>
      </trkpt>
      <trkpt lat="42.934596" lon="-0.647361">
        <ele>1046.755</ele>
        <time>2026-04-18T07:30:42Z</time>
      </trkpt>
      <trkpt lat="42.934802" lon="-0.649195">
        <ele>1056.759</ele>
        <time>2026-04-18T07:31:38Z</time>
      </trkpt>
      <trkpt lat="42.935712" lon="-0.652048">
        <ele>1068.161</ele>
        <time>2026-04-18T07:32:48Z</time>
      </trkpt>
      <trkpt lat="42.936051" lon="-0.652803">
        <ele>1071.257</ele>
        <time>2026-04-18T07:33:04Z</time>
      </trkpt>
      <trkpt lat="42.936412" lon="-0.654349">
        <ele>1076.870</ele>
        <time>2026-04-18T07:33:36Z</time>
      </trkpt>
      <trkpt lat="42.936892" lon="-0.654841">
        <ele>1079.743</ele>
        <time>2026-04-18T07:33:53Z</time>
      </trkpt>
      <trkpt lat="42.937588" lon="-0.655009">
        <ele>1088.983</ele>
        <time>2026-04-18T07:34:22Z</time>
      </trkpt>
      <trkpt lat="42.937786" lon="-0.654953">
        <ele>1092.533</ele>
        <time>2026-04-18T07:34:33Z</time>
      </trkpt>
      <trkpt lat="42.937778" lon="-0.654751">
        <ele>1095.064</ele>
        <time>2026-04-18T07:34:41Z</time>
      </trkpt>
      <trkpt lat="42.937455" lon="-0.654233">
        <ele>1101.206</ele>
        <time>2026-04-18T07:35:04Z</time>
      </trkpt>
      <trkpt lat="42.937451" lon="-0.653282">
        <ele>1111.116</ele>
        <time>2026-04-18T07:35:36Z</time>
      </trkpt>
      <trkpt lat="42.937361" lon="-0.653008">
        <ele>1114.509</ele>
        <time>2026-04-18T07:35:45Z</time>
      </trkpt>
      <trkpt lat="42.937189" lon="-0.652755">
        <ele>1118.578</ele>
        <time>2026-04-18T07:36:00Z</time>
      </trkpt>
      <trkpt lat="42.937225" lon="-0.652640">
        <ele>1120.042</ele>
        <time>2026-04-18T07:36:06Z</time>
      </trkpt>
      <trkpt lat="42.937917" lon="-0.653475">
        <ele>1123.336</ele>
        <time>2026-04-18T07:36:41Z</time>
      </trkpt>
      <trkpt lat="42.938142" lon="-0.653892">
        <ele>1127.248</ele>
        <time>2026-04-18T07:36:55Z</time>
      </trkpt>
      <trkpt lat="42.938594" lon="-0.654155">
        <ele>1134.234</ele>
        <time>2026-04-18T07:37:17Z</time>
      </trkpt>
      <trkpt lat="42.939342" lon="-0.655004">
        <ele>1149.787</ele>
        <time>2026-04-18T07:38:01Z</time>
      </trkpt>
      <trkpt lat="42.939585" lon="-0.655157">
        <ele>1153.740</ele>
        <time>2026-04-18T07:38:14Z</time>
      </trkpt>
      <trkpt lat="42.939761" lon="-0.655608">
        <ele>1158.540</ele>
        <time>2026-04-18T07:38:31Z</time>
      </trkpt>
      <trkpt lat="42.940390" lon="-0.656388">
        <ele>1167.190</ele>
        <time>2026-04-18T07:39:07Z</time>
      </trkpt>
      <trkpt lat="42.940588" lon="-0.656904">
        <ele>1173.012</ele>
        <time>2026-04-18T07:39:25Z</time>
      </trkpt>
      <trkpt lat="42.940628" lon="-0.657182">
        <ele>1176.132</ele>
        <time>2026-04-18T07:39:34Z</time>
      </trkpt>
      <trkpt lat="42.940721" lon="-0.657238">
        <ele>1177.805</ele>
        <time>2026-04-18T07:39:39Z</time>
      </trkpt>
      <trkpt lat="42.940975" lon="-0.656746">
        <ele>1183.509</ele>
        <time>2026-04-18T07:40:01Z</time>
      </trkpt>
      <trkpt lat="42.940993" lon="-0.656534">
        <ele>1185.453</ele>
        <time>2026-04-18T07:40:09Z</time>
      </trkpt>
      <trkpt lat="42.940520" lon="-0.655271">
        <ele>1203.667</ele>
        <time>2026-04-18T07:41:42Z</time>
      </trkpt>
      <trkpt lat="42.940532" lon="-0.654141">
        <ele>1214.711</ele>
        <time>2026-04-18T07:42:12Z</time>
      </trkpt>
      <trkpt lat="42.940624" lon="-0.654057">
        <ele>1216.893</ele>
        <time>2026-04-18T07:42:18Z</time>
      </trkpt>
      <trkpt lat="42.941052" lon="-0.655103">
        <ele>1231.029</ele>
        <time>2026-04-18T07:43:05Z</time>
      </trkpt>
      <trkpt lat="42.941439" lon="-0.655376">
        <ele>1237.452</ele>
        <time>2026-04-18T07:43:28Z</time>
      </trkpt>
      <trkpt lat="42.941902" lon="-0.656080">
        <ele>1247.685</ele>
        <time>2026-04-18T07:44:04Z</time>
      </trkpt>
      <trkpt lat="42.942525" lon="-0.656609">
        <ele>1261.795</ele>
        <time>2026-04-18T07:44:43Z</time>
      </trkpt>
      <trkpt lat="42.942873" lon="-0.657156">
        <ele>1271.595</ele>
        <time>2026-04-18T07:45:09Z</time>
      </trkpt>
      <trkpt lat="42.942965" lon="-0.657709">
        <ele>1279.082</ele>
        <time>2026-04-18T07:45:30Z</time>
      </trkpt>
      <trkpt lat="42.942963" lon="-0.658332">
        <ele>1288.043</ele>
        <time>2026-04-18T07:45:55Z</time>
      </trkpt>
      <trkpt lat="42.943100" lon="-0.659132">
        <ele>1299.717</ele>
        <time>2026-04-18T07:46:31Z</time>
      </trkpt>
      <trkpt lat="42.943239" lon="-0.659517">
        <ele>1305.109</ele>
        <time>2026-04-18T07:46:48Z</time>
      </trkpt>
      <trkpt lat="42.943677" lon="-0.659819">
        <ele>1310.050</ele>
        <time>2026-04-18T07:47:14Z</time>
      </trkpt>
      <trkpt lat="42.944292" lon="-0.659940">
        <ele>1321.624</ele>
        <time>2026-04-18T07:47:47Z</time>
      </trkpt>
      <trkpt lat="42.944571" lon="-0.659963">
        <ele>1327.358</ele>
        <time>2026-04-18T07:48:00Z</time>
      </trkpt>
      <trkpt lat="42.944659" lon="-0.659908">
        <ele>1329.360</ele>
        <time>2026-04-18T07:48:06Z</time>
      </trkpt>
      <trkpt lat="42.944566" lon="-0.659526">
        <ele>1334.666</ele>
        <time>2026-04-18T07:48:25Z</time>
      </trkpt>
      <trkpt lat="42.944647" lon="-0.659408">
        <ele>1337.069</ele>
        <time>2026-04-18T07:48:33Z</time>
      </trkpt>
      <trkpt lat="42.944987" lon="-0.659572">
        <ele>1343.542</ele>
        <time>2026-04-18T07:48:56Z</time>
      </trkpt>
      <trkpt lat="42.945267" lon="-0.659525">
        <ele>1348.312</ele>
        <time>2026-04-18T07:49:11Z</time>
      </trkpt>
      <trkpt lat="42.945802" lon="-0.659830">
        <ele>1358.132</ele>
        <time>2026-04-18T07:49:43Z</time>
      </trkpt>
      <trkpt lat="42.946142" lon="-0.660346">
        <ele>1365.949</ele>
        <time>2026-04-18T07:50:08Z</time>
      </trkpt>
      <trkpt lat="42.946439" lon="-0.660991">
        <ele>1372.302</ele>
        <time>2026-04-18T07:50:36Z</time>
      </trkpt>
      <trkpt lat="42.946750" lon="-0.661428">
        <ele>1380.622</ele>
        <time>2026-04-18T07:51:00Z</time>
      </trkpt>
      <trkpt lat="42.947459" lon="-0.661862">
        <ele>1389.109</ele>
        <time>2026-04-18T07:51:35Z</time>
      </trkpt>
      <trkpt lat="42.947846" lon="-0.662550">
        <ele>1399.076</ele>
        <time>2026-04-18T07:52:02Z</time>
      </trkpt>
      <trkpt lat="42.948341" lon="-0.662907">
        <ele>1401.480</ele>
        <time>2026-04-18T07:52:26Z</time>
      </trkpt>
      <trkpt lat="42.948794" lon="-0.663557">
        <ele>1410.524</ele>
        <time>2026-04-18T07:52:55Z</time>
      </trkpt>
      <trkpt lat="42.949097" lon="-0.663758">
        <ele>1414.826</ele>
        <time>2026-04-18T07:53:10Z</time>
      </trkpt>
      <trkpt lat="42.949343" lon="-0.664188">
        <ele>1419.972</ele>
        <time>2026-04-18T07:53:27Z</time>
      </trkpt>
      <trkpt lat="42.950026" lon="-0.664393">
        <ele>1429.185</ele>
        <time>2026-04-18T07:54:01Z</time>
      </trkpt>
      <trkpt lat="42.950264" lon="-0.664546">
        <ele>1433.068</ele>
        <time>2026-04-18T07:54:13Z</time>
      </trkpt>
      <trkpt lat="42.950459" lon="-0.665299">
        <ele>1434.558</ele>
        <time>2026-04-18T07:54:36Z</time>
      </trkpt>
      <trkpt lat="42.950152" lon="-0.666127">
        <ele>1439.848</ele>
        <time>2026-04-18T07:55:15Z</time>
      </trkpt>
      <trkpt lat="42.950264" lon="-0.666395">
        <ele>1439.392</ele>
        <time>2026-04-18T07:55:31Z</time>
      </trkpt>
    </trkseg>
  </trk></gpx>