<?xml version="1.0" encoding="UTF-8"?>
<gpx creator="https://gpx.studio" version="1.1" xmlns="http://www.topografix.com/GPX/1/1" xmlns:xsi="http://www.w3.org/2001/XMLSchema-instance" xsi:schemaLocation="http://www.topografix.com/GPX/1/1 http://www.topografix.com/GPX/1/1/gpx.xsd http://www.garmin.com/xmlschemas/GpxExtensions/v3 http://www.garmin.com/xmlschemas/GpxExtensionsv3.xsd http://www.garmin.com/xmlschemas/TrackPointExtension/v1 http://www.garmin.com/xmlschemas/TrackPointExtensionv1.xsd http://www.garmin.com/xmlschemas/PowerExtension/v1 http://www.garmin.com/xmlschemas/PowerExtensionv1.xsd http://www.topografix.com/GPX/gpx_style/0/2 http://www.topografix.com/GPX/gpx_style/0/2/gpx_style.xsd" xmlns:gpxtpx="http://www.garmin.com/xmlschemas/TrackPointExtension/v1" xmlns:gpxx="http://www.garmin.com/xmlschemas/GpxExtensions/v3" xmlns:gpxpx="http://www.garmin.com/xmlschemas/PowerExtension/v1" xmlns:gpx_style="http://www.topografix.com/GPX/gpx_style/0/2">
  <metadata>
    <name>balneario_panticosa_gpxstudio</name>
    <author>
      <name>gpx.studio</name>
      <link href="https://gpx.studio"/>
    </author>
  </metadata>
  <trk>
    <name>balneario_panticosa_gpxstudio</name>
    <trkseg>
      <trkpt lat="42.727346" lon="-0.307089">
        <ele>1113.48</ele>
      </trkpt>
      <trkpt lat="42.727561" lon="-0.307288">
        <ele>1113.81</ele>
      </trkpt>
      <trkpt lat="42.727741" lon="-0.307431">
        <ele>1114.06</ele>
      </trkpt>
      <trkpt lat="42.727858" lon="-0.307549">
        <ele>1114.25</ele>
      </trkpt>
      <trkpt lat="42.727932" lon="-0.307667">
        <ele>1114.39</ele>
      </trkpt>
      <trkpt lat="42.728013" lon="-0.307872">
        <ele>1114.6</ele>
      </trkpt>
      <trkpt lat="42.728044" lon="-0.307934">
        <ele>1114.67</ele>
      </trkpt>
      <trkpt lat="42.728167" lon="-0.308113">
        <ele>1114.89</ele>
      </trkpt>
      <trkpt lat="42.728372" lon="-0.308474">
        <ele>1115.27</ele>
      </trkpt>
      <trkpt lat="42.728613" lon="-0.308969">
        <ele>1115.65</ele>
      </trkpt>
      <trkpt lat="42.728704" lon="-0.309067">
        <ele>1115.75</ele>
      </trkpt>
      <trkpt lat="42.728786" lon="-0.309115">
        <ele>1115.82</ele>
      </trkpt>
      <trkpt lat="42.728866" lon="-0.309147">
        <ele>1115.89</ele>
      </trkpt>
      <trkpt lat="42.728964" lon="-0.309171">
        <ele>1115.97</ele>
      </trkpt>
      <trkpt lat="42.729372" lon="-0.309158">
        <ele>1116.3</ele>
      </trkpt>
      <trkpt lat="42.729468" lon="-0.309103">
        <ele>1116.39</ele>
      </trkpt>
      <trkpt lat="42.729596" lon="-0.308975">
        <ele>1116.53</ele>
      </trkpt>
      <trkpt lat="42.729729" lon="-0.308917">
        <ele>1116.67</ele>
      </trkpt>
      <trkpt lat="42.729987" lon="-0.308897">
        <ele>1116.93</ele>
      </trkpt>
      <trkpt lat="42.730124" lon="-0.30887">
        <ele>1117.07</ele>
      </trkpt>
      <trkpt lat="42.730233" lon="-0.308813">
        <ele>1117.19</ele>
      </trkpt>
      <trkpt lat="42.730288" lon="-0.30871">
        <ele>1117.55</ele>
      </trkpt>
      <trkpt lat="42.730317" lon="-0.308619">
        <ele>1117.96</ele>
      </trkpt>
      <trkpt lat="42.730333" lon="-0.308481">
        <ele>1118.57</ele>
      </trkpt>
      <trkpt lat="42.730315" lon="-0.308359">
        <ele>1119.04</ele>
      </trkpt>
      <trkpt lat="42.730279" lon="-0.30826">
        <ele>1119.43</ele>
      </trkpt>
      <trkpt lat="42.730212" lon="-0.308171">
        <ele>1119.83</ele>
      </trkpt>
      <trkpt lat="42.729738" lon="-0.307649">
        <ele>1123.61</ele>
      </trkpt>
      <trkpt lat="42.729659" lon="-0.307547">
        <ele>1123.62</ele>
      </trkpt>
      <trkpt lat="42.729611" lon="-0.30743">
        <ele>1123.65</ele>
      </trkpt>
      <trkpt lat="42.729588" lon="-0.307297">
        <ele>1123.72</ele>
      </trkpt>
      <trkpt lat="42.729593" lon="-0.307152">
        <ele>1124.16</ele>
      </trkpt>
      <trkpt lat="42.729623" lon="-0.306857">
        <ele>1123.15</ele>
      </trkpt>
      <trkpt lat="42.729674" lon="-0.306594">
        <ele>1123.22</ele>
      </trkpt>
      <trkpt lat="42.729868" lon="-0.306024">
        <ele>1126.99</ele>
      </trkpt>
      <trkpt lat="42.7299" lon="-0.305866">
        <ele>1126.86</ele>
      </trkpt>
      <trkpt lat="42.729923" lon="-0.305671">
        <ele>1126.26</ele>
      </trkpt>
      <trkpt lat="42.729923" lon="-0.305439">
        <ele>1125.98</ele>
      </trkpt>
      <trkpt lat="42.729898" lon="-0.30522">
        <ele>1126.75</ele>
      </trkpt>
      <trkpt lat="42.729844" lon="-0.304899">
        <ele>1128.92</ele>
      </trkpt>
      <trkpt lat="42.729819" lon="-0.304693">
        <ele>1128.57</ele>
      </trkpt>
      <trkpt lat="42.729814" lon="-0.304554">
        <ele>1128.81</ele>
      </trkpt>
      <trkpt lat="42.729837" lon="-0.304421">
        <ele>1130.2</ele>
      </trkpt>
      <trkpt lat="42.72988" lon="-0.304232">
        <ele>1129.84</ele>
      </trkpt>
      <trkpt lat="42.729931" lon="-0.30408">
        <ele>1129.92</ele>
      </trkpt>
      <trkpt lat="42.729961" lon="-0.303924">
        <ele>1131.05</ele>
      </trkpt>
      <trkpt lat="42.729988" lon="-0.303703">
        <ele>1130.42</ele>
      </trkpt>
      <trkpt lat="42.72999" lon="-0.303581">
        <ele>1131.22</ele>
      </trkpt>
      <trkpt lat="42.729951" lon="-0.303261">
        <ele>1131.79</ele>
      </trkpt>
      <trkpt lat="42.729917" lon="-0.303091">
        <ele>1131.49</ele>
      </trkpt>
      <trkpt lat="42.729869" lon="-0.302925">
        <ele>1133.27</ele>
      </trkpt>
      <trkpt lat="42.729689" lon="-0.30255">
        <ele>1133.22</ele>
      </trkpt>
      <trkpt lat="42.729601" lon="-0.302252">
        <ele>1134.34</ele>
      </trkpt>
      <trkpt lat="42.72955" lon="-0.302014">
        <ele>1135</ele>
      </trkpt>
      <trkpt lat="42.729501" lon="-0.301864">
        <ele>1136.2</ele>
      </trkpt>
      <trkpt lat="42.729431" lon="-0.301777">
        <ele>1135.88</ele>
      </trkpt>
      <trkpt lat="42.729273" lon="-0.3017">
        <ele>1136.45</ele>
      </trkpt>
      <trkpt lat="42.729165" lon="-0.301692">
        <ele>1137.38</ele>
      </trkpt>
      <trkpt lat="42.729083" lon="-0.301743">
        <ele>1138.12</ele>
      </trkpt>
      <trkpt lat="42.729002" lon="-0.301826">
        <ele>1138.29</ele>
      </trkpt>
      <trkpt lat="42.728867" lon="-0.301993">
        <ele>1138.73</ele>
      </trkpt>
      <trkpt lat="42.728707" lon="-0.302116">
        <ele>1139.13</ele>
      </trkpt>
      <trkpt lat="42.728609" lon="-0.302137">
        <ele>1139.25</ele>
      </trkpt>
      <trkpt lat="42.728515" lon="-0.302114">
        <ele>1138.91</ele>
      </trkpt>
      <trkpt lat="42.728343" lon="-0.302004">
        <ele>1139.02</ele>
      </trkpt>
      <trkpt lat="42.728215" lon="-0.301841">
        <ele>1139.61</ele>
      </trkpt>
      <trkpt lat="42.728096" lon="-0.301633">
        <ele>1139.54</ele>
      </trkpt>
      <trkpt lat="42.727977" lon="-0.301444">
        <ele>1141.05</ele>
      </trkpt>
      <trkpt lat="42.727845" lon="-0.301278">
        <ele>1142.27</ele>
      </trkpt>
      <trkpt lat="42.727709" lon="-0.301181">
        <ele>1142.78</ele>
      </trkpt>
      <trkpt lat="42.727544" lon="-0.301113">
        <ele>1143.31</ele>
      </trkpt>
      <trkpt lat="42.727342" lon="-0.301127">
        <ele>1143.4</ele>
      </trkpt>
      <trkpt lat="42.727027" lon="-0.301331">
        <ele>1144.17</ele>
      </trkpt>
      <trkpt lat="42.726032" lon="-0.301391">
        <ele>1146.18</ele>
      </trkpt>
      <trkpt lat="42.725101" lon="-0.301394">
        <ele>1152.18</ele>
      </trkpt>
      <trkpt lat="42.724826" lon="-0.301327">
        <ele>1153.19</ele>
      </trkpt>
      <trkpt lat="42.724552" lon="-0.301183">
        <ele>1152.78</ele>
      </trkpt>
      <trkpt lat="42.724359" lon="-0.301041">
        <ele>1152.62</ele>
      </trkpt>
      <trkpt lat="42.72428" lon="-0.300926">
        <ele>1153.86</ele>
      </trkpt>
      <trkpt lat="42.724231" lon="-0.300804">
        <ele>1153.82</ele>
      </trkpt>
      <trkpt lat="42.724184" lon="-0.300565">
        <ele>1154.39</ele>
      </trkpt>
      <trkpt lat="42.724105" lon="-0.300072">
        <ele>1155.63</ele>
      </trkpt>
      <trkpt lat="42.723961" lon="-0.299333">
        <ele>1157.51</ele>
      </trkpt>
      <trkpt lat="42.723801" lon="-0.298968">
        <ele>1160.05</ele>
      </trkpt>
      <trkpt lat="42.723524" lon="-0.298571">
        <ele>1159.87</ele>
      </trkpt>
      <trkpt lat="42.723123" lon="-0.298116">
        <ele>1162.54</ele>
      </trkpt>
      <trkpt lat="42.722747" lon="-0.29763">
        <ele>1163.23</ele>
      </trkpt>
      <trkpt lat="42.722599" lon="-0.29749">
        <ele>1165.51</ele>
      </trkpt>
      <trkpt lat="42.722116" lon="-0.297177">
        <ele>1167.28</ele>
      </trkpt>
      <trkpt lat="42.721979" lon="-0.296959">
        <ele>1168.15</ele>
      </trkpt>
      <trkpt lat="42.721882" lon="-0.296709">
        <ele>1169.07</ele>
      </trkpt>
      <trkpt lat="42.72183" lon="-0.29636">
        <ele>1170.62</ele>
      </trkpt>
      <trkpt lat="42.72176" lon="-0.295654">
        <ele>1171.45</ele>
      </trkpt>
      <trkpt lat="42.721746" lon="-0.295498">
        <ele>1172.94</ele>
      </trkpt>
      <trkpt lat="42.721739" lon="-0.295216">
        <ele>1174.38</ele>
      </trkpt>
      <trkpt lat="42.721761" lon="-0.295024">
        <ele>1175.27</ele>
      </trkpt>
      <trkpt lat="42.721808" lon="-0.294859">
        <ele>1175.98</ele>
      </trkpt>
      <trkpt lat="42.721904" lon="-0.294711">
        <ele>1177.49</ele>
      </trkpt>
      <trkpt lat="42.722098" lon="-0.294551">
        <ele>1179.62</ele>
      </trkpt>
      <trkpt lat="42.722354" lon="-0.294342">
        <ele>1180.01</ele>
      </trkpt>
      <trkpt lat="42.722419" lon="-0.29424">
        <ele>1179.83</ele>
      </trkpt>
      <trkpt lat="42.722462" lon="-0.294127">
        <ele>1179.49</ele>
      </trkpt>
      <trkpt lat="42.722472" lon="-0.294065">
        <ele>1179.67</ele>
      </trkpt>
      <trkpt lat="42.72249" lon="-0.294024">
        <ele>1180.42</ele>
      </trkpt>
      <trkpt lat="42.722537" lon="-0.293976">
        <ele>1181.53</ele>
      </trkpt>
      <trkpt lat="42.722596" lon="-0.293962">
        <ele>1182.46</ele>
      </trkpt>
      <trkpt lat="42.722633" lon="-0.293974">
        <ele>1183.01</ele>
      </trkpt>
      <trkpt lat="42.72282" lon="-0.293823">
        <ele>1183.95</ele>
      </trkpt>
      <trkpt lat="42.722933" lon="-0.293675">
        <ele>1184.76</ele>
      </trkpt>
      <trkpt lat="42.723065" lon="-0.293475">
        <ele>1185.35</ele>
      </trkpt>
      <trkpt lat="42.723247" lon="-0.293137">
        <ele>1186.6</ele>
      </trkpt>
      <trkpt lat="42.723769" lon="-0.292086">
        <ele>1191.49</ele>
      </trkpt>
      <trkpt lat="42.724067" lon="-0.29146">
        <ele>1194.88</ele>
      </trkpt>
      <trkpt lat="42.724266" lon="-0.290992">
        <ele>1195.6</ele>
      </trkpt>
      <trkpt lat="42.724383" lon="-0.290649">
        <ele>1196.46</ele>
      </trkpt>
      <trkpt lat="42.72448" lon="-0.290304">
        <ele>1197.28</ele>
      </trkpt>
      <trkpt lat="42.724579" lon="-0.289686">
        <ele>1198.84</ele>
      </trkpt>
      <trkpt lat="42.724653" lon="-0.289109">
        <ele>1200.03</ele>
      </trkpt>
      <trkpt lat="42.724695" lon="-0.288678">
        <ele>1201.77</ele>
      </trkpt>
      <trkpt lat="42.72467" lon="-0.288328">
        <ele>1204.09</ele>
      </trkpt>
      <trkpt lat="42.724616" lon="-0.28798">
        <ele>1204.53</ele>
      </trkpt>
      <trkpt lat="42.724509" lon="-0.287282">
        <ele>1209.16</ele>
      </trkpt>
      <trkpt lat="42.724454" lon="-0.28686">
        <ele>1210.91</ele>
      </trkpt>
      <trkpt lat="42.724445" lon="-0.286473">
        <ele>1211.27</ele>
      </trkpt>
      <trkpt lat="42.724455" lon="-0.285952">
        <ele>1213.34</ele>
      </trkpt>
      <trkpt lat="42.72446" lon="-0.285664">
        <ele>1212.94</ele>
      </trkpt>
      <trkpt lat="42.724504" lon="-0.285292">
        <ele>1215.37</ele>
      </trkpt>
      <trkpt lat="42.724654" lon="-0.284679">
        <ele>1217.29</ele>
      </trkpt>
      <trkpt lat="42.724723" lon="-0.284529">
        <ele>1218.45</ele>
      </trkpt>
      <trkpt lat="42.724809" lon="-0.284408">
        <ele>1219.79</ele>
      </trkpt>
      <trkpt lat="42.725129" lon="-0.284052">
        <ele>1219.84</ele>
      </trkpt>
      <trkpt lat="42.725237" lon="-0.283885">
        <ele>1219.89</ele>
      </trkpt>
      <trkpt lat="42.725309" lon="-0.283725">
        <ele>1221.13</ele>
      </trkpt>
      <trkpt lat="42.725407" lon="-0.283435">
        <ele>1222.54</ele>
      </trkpt>
      <trkpt lat="42.725501" lon="-0.283243">
        <ele>1223.3</ele>
      </trkpt>
      <trkpt lat="42.72561" lon="-0.283136">
        <ele>1224.87</ele>
      </trkpt>
      <trkpt lat="42.726152" lon="-0.282859">
        <ele>1225.95</ele>
      </trkpt>
      <trkpt lat="42.726355" lon="-0.282722">
        <ele>1225.85</ele>
      </trkpt>
      <trkpt lat="42.726492" lon="-0.282572">
        <ele>1225.35</ele>
      </trkpt>
      <trkpt lat="42.726561" lon="-0.282452">
        <ele>1225.52</ele>
      </trkpt>
      <trkpt lat="42.726657" lon="-0.282264">
        <ele>1226.7</ele>
      </trkpt>
      <trkpt lat="42.726681" lon="-0.282182">
        <ele>1226.74</ele>
      </trkpt>
      <trkpt lat="42.726725" lon="-0.281954">
        <ele>1226.52</ele>
      </trkpt>
      <trkpt lat="42.726715" lon="-0.281756">
        <ele>1226.61</ele>
      </trkpt>
      <trkpt lat="42.726627" lon="-0.281404">
        <ele>1226.8</ele>
      </trkpt>
      <trkpt lat="42.726482" lon="-0.281059">
        <ele>1227.36</ele>
      </trkpt>
      <trkpt lat="42.72625" lon="-0.280377">
        <ele>1230.79</ele>
      </trkpt>
      <trkpt lat="42.726199" lon="-0.280102">
        <ele>1232.12</ele>
      </trkpt>
      <trkpt lat="42.726199" lon="-0.27978">
        <ele>1232.51</ele>
      </trkpt>
      <trkpt lat="42.726213" lon="-0.279577">
        <ele>1232.66</ele>
      </trkpt>
      <trkpt lat="42.726301" lon="-0.278842">
        <ele>1231.3</ele>
      </trkpt>
      <trkpt lat="42.726416" lon="-0.277487">
        <ele>1232.2</ele>
      </trkpt>
      <trkpt lat="42.726491" lon="-0.27693">
        <ele>1232.75</ele>
      </trkpt>
      <trkpt lat="42.726779" lon="-0.276214">
        <ele>1235.26</ele>
      </trkpt>
      <trkpt lat="42.726962" lon="-0.275938">
        <ele>1236.98</ele>
      </trkpt>
      <trkpt lat="42.727081" lon="-0.275799">
        <ele>1237.46</ele>
      </trkpt>
      <trkpt lat="42.727252" lon="-0.275667">
        <ele>1237.95</ele>
      </trkpt>
      <trkpt lat="42.727733" lon="-0.275461">
        <ele>1239.68</ele>
      </trkpt>
      <trkpt lat="42.728198" lon="-0.275094">
        <ele>1241.87</ele>
      </trkpt>
      <trkpt lat="42.728367" lon="-0.27492">
        <ele>1242.12</ele>
      </trkpt>
      <trkpt lat="42.728483" lon="-0.274753">
        <ele>1241.76</ele>
      </trkpt>
      <trkpt lat="42.728547" lon="-0.274596">
        <ele>1241.17</ele>
      </trkpt>
      <trkpt lat="42.728561" lon="-0.27438">
        <ele>1240.89</ele>
      </trkpt>
      <trkpt lat="42.728537" lon="-0.273685">
        <ele>1241.69</ele>
      </trkpt>
      <trkpt lat="42.728547" lon="-0.273542">
        <ele>1241.83</ele>
      </trkpt>
      <trkpt lat="42.728578" lon="-0.27338">
        <ele>1242.19</ele>
      </trkpt>
      <trkpt lat="42.728655" lon="-0.273166">
        <ele>1242.82</ele>
      </trkpt>
      <trkpt lat="42.72877" lon="-0.272948">
        <ele>1242.44</ele>
      </trkpt>
      <trkpt lat="42.729026" lon="-0.272511">
        <ele>1242.38</ele>
      </trkpt>
      <trkpt lat="42.729323" lon="-0.272009">
        <ele>1244.43</ele>
      </trkpt>
      <trkpt lat="42.72945" lon="-0.271763">
        <ele>1245.94</ele>
      </trkpt>
      <trkpt lat="42.729571" lon="-0.271323">
        <ele>1248.16</ele>
      </trkpt>
      <trkpt lat="42.729659" lon="-0.27091">
        <ele>1248.54</ele>
      </trkpt>
      <trkpt lat="42.72968" lon="-0.270646">
        <ele>1247.79</ele>
      </trkpt>
      <trkpt lat="42.729689" lon="-0.270344">
        <ele>1249.94</ele>
      </trkpt>
      <trkpt lat="42.729735" lon="-0.270154">
        <ele>1251.97</ele>
      </trkpt>
      <trkpt lat="42.729904" lon="-0.269667">
        <ele>1253.41</ele>
      </trkpt>
      <trkpt lat="42.730013" lon="-0.26941">
        <ele>1255.68</ele>
      </trkpt>
      <trkpt lat="42.730146" lon="-0.269163">
        <ele>1258.08</ele>
      </trkpt>
      <trkpt lat="42.73042" lon="-0.268683">
        <ele>1260.86</ele>
      </trkpt>
      <trkpt lat="42.730722" lon="-0.268253">
        <ele>1263.18</ele>
      </trkpt>
      <trkpt lat="42.731005" lon="-0.267874">
        <ele>1265.58</ele>
      </trkpt>
      <trkpt lat="42.731106" lon="-0.267681">
        <ele>1266.48</ele>
      </trkpt>
      <trkpt lat="42.731161" lon="-0.2675">
        <ele>1266.25</ele>
      </trkpt>
      <trkpt lat="42.731239" lon="-0.26715">
        <ele>1269.29</ele>
      </trkpt>
      <trkpt lat="42.731288" lon="-0.266841">
        <ele>1269.23</ele>
      </trkpt>
      <trkpt lat="42.731342" lon="-0.266582">
        <ele>1270.63</ele>
      </trkpt>
      <trkpt lat="42.731508" lon="-0.266105">
        <ele>1272.38</ele>
      </trkpt>
      <trkpt lat="42.7316" lon="-0.265881">
        <ele>1273.47</ele>
      </trkpt>
      <trkpt lat="42.731659" lon="-0.265658">
        <ele>1273.54</ele>
      </trkpt>
      <trkpt lat="42.731837" lon="-0.265179">
        <ele>1277.47</ele>
      </trkpt>
      <trkpt lat="42.732062" lon="-0.264737">
        <ele>1281.13</ele>
      </trkpt>
      <trkpt lat="42.732109" lon="-0.264558">
        <ele>1281.54</ele>
      </trkpt>
      <trkpt lat="42.732116" lon="-0.264308">
        <ele>1282.5</ele>
      </trkpt>
      <trkpt lat="42.732154" lon="-0.264138">
        <ele>1283.54</ele>
      </trkpt>
      <trkpt lat="42.732307" lon="-0.263745">
        <ele>1285.96</ele>
      </trkpt>
      <trkpt lat="42.732497" lon="-0.263372">
        <ele>1288.35</ele>
      </trkpt>
      <trkpt lat="42.732584" lon="-0.263094">
        <ele>1288.6</ele>
      </trkpt>
      <trkpt lat="42.732591" lon="-0.262751">
        <ele>1289.13</ele>
      </trkpt>
      <trkpt lat="42.732572" lon="-0.262464">
        <ele>1290.11</ele>
      </trkpt>
      <trkpt lat="42.732639" lon="-0.262219">
        <ele>1291.55</ele>
      </trkpt>
      <trkpt lat="42.732889" lon="-0.261971">
        <ele>1288.01</ele>
      </trkpt>
      <trkpt lat="42.733392" lon="-0.26168">
        <ele>1297.14</ele>
      </trkpt>
      <trkpt lat="42.733477" lon="-0.261603">
        <ele>1297.36</ele>
      </trkpt>
      <trkpt lat="42.733539" lon="-0.261532">
        <ele>1296.71</ele>
      </trkpt>
      <trkpt lat="42.733633" lon="-0.261394">
        <ele>1298.84</ele>
      </trkpt>
      <trkpt lat="42.733717" lon="-0.26125">
        <ele>1301.54</ele>
      </trkpt>
      <trkpt lat="42.733843" lon="-0.261001">
        <ele>1304.11</ele>
      </trkpt>
      <trkpt lat="42.734469" lon="-0.259798">
        <ele>1308.42</ele>
      </trkpt>
      <trkpt lat="42.734739" lon="-0.259422">
        <ele>1313.02</ele>
      </trkpt>
      <trkpt lat="42.735124" lon="-0.258801">
        <ele>1315.2</ele>
      </trkpt>
      <trkpt lat="42.735488" lon="-0.258549">
        <ele>1320.77</ele>
      </trkpt>
      <trkpt lat="42.735934" lon="-0.258249">
        <ele>1322.72</ele>
      </trkpt>
      <trkpt lat="42.736132" lon="-0.258028">
        <ele>1324.15</ele>
      </trkpt>
      <trkpt lat="42.736293" lon="-0.25776">
        <ele>1323.56</ele>
      </trkpt>
      <trkpt lat="42.736459" lon="-0.257591">
        <ele>1330.17</ele>
      </trkpt>
      <trkpt lat="42.736556" lon="-0.257338">
        <ele>1331.04</ele>
      </trkpt>
      <trkpt lat="42.736664" lon="-0.256984">
        <ele>1327.69</ele>
      </trkpt>
      <trkpt lat="42.736796" lon="-0.256682">
        <ele>1329.98</ele>
      </trkpt>
      <trkpt lat="42.736967" lon="-0.256359">
        <ele>1336.77</ele>
      </trkpt>
      <trkpt lat="42.737101" lon="-0.255943">
        <ele>1339.52</ele>
      </trkpt>
      <trkpt lat="42.737254" lon="-0.255622">
        <ele>1344.52</ele>
      </trkpt>
      <trkpt lat="42.737406" lon="-0.255301">
        <ele>1347.25</ele>
      </trkpt>
      <trkpt lat="42.737739" lon="-0.25491">
        <ele>1349.38</ele>
      </trkpt>
      <trkpt lat="42.737829" lon="-0.254866">
        <ele>1351.4</ele>
      </trkpt>
      <trkpt lat="42.737889" lon="-0.254889">
        <ele>1354.61</ele>
      </trkpt>
      <trkpt lat="42.737925" lon="-0.254982">
        <ele>1356.68</ele>
      </trkpt>
      <trkpt lat="42.737893" lon="-0.255078">
        <ele>1356.72</ele>
      </trkpt>
      <trkpt lat="42.737593" lon="-0.255491">
        <ele>1357.73</ele>
      </trkpt>
      <trkpt lat="42.737408" lon="-0.255902">
        <ele>1359.63</ele>
      </trkpt>
      <trkpt lat="42.737402" lon="-0.256005">
        <ele>1361.54</ele>
      </trkpt>
      <trkpt lat="42.737448" lon="-0.256072">
        <ele>1363.84</ele>
      </trkpt>
      <trkpt lat="42.737533" lon="-0.256085">
        <ele>1364.84</ele>
      </trkpt>
      <trkpt lat="42.737596" lon="-0.255998">
        <ele>1365.74</ele>
      </trkpt>
      <trkpt lat="42.737712" lon="-0.255696">
        <ele>1365.92</ele>
      </trkpt>
      <trkpt lat="42.738078" lon="-0.255165">
        <ele>1367.93</ele>
      </trkpt>
      <trkpt lat="42.738217" lon="-0.254965">
        <ele>1371.35</ele>
      </trkpt>
      <trkpt lat="42.738519" lon="-0.254407">
        <ele>1378.97</ele>
      </trkpt>
      <trkpt lat="42.738824" lon="-0.253883">
        <ele>1383.87</ele>
      </trkpt>
      <trkpt lat="42.73903" lon="-0.25362">
        <ele>1386.54</ele>
      </trkpt>
      <trkpt lat="42.739477" lon="-0.253331">
        <ele>1391.57</ele>
      </trkpt>
      <trkpt lat="42.739592" lon="-0.253227">
        <ele>1391.94</ele>
      </trkpt>
      <trkpt lat="42.739672" lon="-0.253122">
        <ele>1392.73</ele>
      </trkpt>
      <trkpt lat="42.739726" lon="-0.252969">
        <ele>1394.38</ele>
      </trkpt>
      <trkpt lat="42.739764" lon="-0.252785">
        <ele>1396.49</ele>
      </trkpt>
      <trkpt lat="42.739821" lon="-0.252286">
        <ele>1395.58</ele>
      </trkpt>
      <trkpt lat="42.739849" lon="-0.252152">
        <ele>1394.25</ele>
      </trkpt>
      <trkpt lat="42.739915" lon="-0.251996">
        <ele>1396.7</ele>
      </trkpt>
      <trkpt lat="42.740071" lon="-0.251636">
        <ele>1397.1</ele>
      </trkpt>
      <trkpt lat="42.740226" lon="-0.251276">
        <ele>1399.85</ele>
      </trkpt>
      <trkpt lat="42.740321" lon="-0.251034">
        <ele>1407.3</ele>
      </trkpt>
      <trkpt lat="42.740417" lon="-0.250791">
        <ele>1405.7</ele>
      </trkpt>
      <trkpt lat="42.740457" lon="-0.250546">
        <ele>1407.35</ele>
      </trkpt>
      <trkpt lat="42.740474" lon="-0.250104">
        <ele>1417.52</ele>
      </trkpt>
      <trkpt lat="42.74053" lon="-0.249815">
        <ele>1415.96</ele>
      </trkpt>
      <trkpt lat="42.740676" lon="-0.24955">
        <ele>1418.01</ele>
      </trkpt>
      <trkpt lat="42.740982" lon="-0.249242">
        <ele>1421</ele>
      </trkpt>
      <trkpt lat="42.741135" lon="-0.248932">
        <ele>1424.1</ele>
      </trkpt>
      <trkpt lat="42.741289" lon="-0.248622">
        <ele>1425.04</ele>
      </trkpt>
      <trkpt lat="42.741596" lon="-0.248002">
        <ele>1431.88</ele>
      </trkpt>
      <trkpt lat="42.741662" lon="-0.247924">
        <ele>1432.57</ele>
      </trkpt>
      <trkpt lat="42.741724" lon="-0.247894">
        <ele>1434.54</ele>
      </trkpt>
      <trkpt lat="42.741784" lon="-0.24793">
        <ele>1435.69</ele>
      </trkpt>
      <trkpt lat="42.741802" lon="-0.248016">
        <ele>1436.49</ele>
      </trkpt>
      <trkpt lat="42.741764" lon="-0.248133">
        <ele>1436.85</ele>
      </trkpt>
      <trkpt lat="42.741601" lon="-0.248355">
        <ele>1435.57</ele>
      </trkpt>
      <trkpt lat="42.741433" lon="-0.248786">
        <ele>1436.52</ele>
      </trkpt>
      <trkpt lat="42.741351" lon="-0.24904">
        <ele>1437.93</ele>
      </trkpt>
      <trkpt lat="42.741321" lon="-0.249359">
        <ele>1442.71</ele>
      </trkpt>
      <trkpt lat="42.74126" lon="-0.249502">
        <ele>1442.78</ele>
      </trkpt>
      <trkpt lat="42.740946" lon="-0.249987">
        <ele>1444.58</ele>
      </trkpt>
      <trkpt lat="42.740899" lon="-0.250096">
        <ele>1444.72</ele>
      </trkpt>
      <trkpt lat="42.740938" lon="-0.250217">
        <ele>1447.37</ele>
      </trkpt>
      <trkpt lat="42.74102" lon="-0.250246">
        <ele>1448.51</ele>
      </trkpt>
      <trkpt lat="42.741093" lon="-0.250164">
        <ele>1448.81</ele>
      </trkpt>
      <trkpt lat="42.741256" lon="-0.249863">
        <ele>1449.54</ele>
      </trkpt>
      <trkpt lat="42.741478" lon="-0.249505">
        <ele>1451.83</ele>
      </trkpt>
      <trkpt lat="42.741517" lon="-0.249386">
        <ele>1452.39</ele>
      </trkpt>
      <trkpt lat="42.741573" lon="-0.24909">
        <ele>1453.14</ele>
      </trkpt>
      <trkpt lat="42.741687" lon="-0.248838">
        <ele>1454.72</ele>
      </trkpt>
      <trkpt lat="42.741768" lon="-0.248687">
        <ele>1456.38</ele>
      </trkpt>
      <trkpt lat="42.741894" lon="-0.248576">
        <ele>1457.52</ele>
      </trkpt>
      <trkpt lat="42.742215" lon="-0.248361">
        <ele>1460.99</ele>
      </trkpt>
      <trkpt lat="42.742644" lon="-0.24795">
        <ele>1466.81</ele>
      </trkpt>
      <trkpt lat="42.743076" lon="-0.247601">
        <ele>1475.27</ele>
      </trkpt>
      <trkpt lat="42.743226" lon="-0.247464">
        <ele>1476.33</ele>
      </trkpt>
      <trkpt lat="42.743656" lon="-0.246964">
        <ele>1475.68</ele>
      </trkpt>
      <trkpt lat="42.743787" lon="-0.246859">
        <ele>1476.82</ele>
      </trkpt>
      <trkpt lat="42.744016" lon="-0.246727">
        <ele>1478.44</ele>
      </trkpt>
      <trkpt lat="42.744476" lon="-0.246465">
        <ele>1487.01</ele>
      </trkpt>
      <trkpt lat="42.744727" lon="-0.246264">
        <ele>1489.94</ele>
      </trkpt>
      <trkpt lat="42.744953" lon="-0.245958">
        <ele>1493.35</ele>
      </trkpt>
      <trkpt lat="42.745113" lon="-0.245661">
        <ele>1490.15</ele>
      </trkpt>
      <trkpt lat="42.745281" lon="-0.245539">
        <ele>1496.4</ele>
      </trkpt>
      <trkpt lat="42.745464" lon="-0.245413">
        <ele>1497.21</ele>
      </trkpt>
      <trkpt lat="42.745732" lon="-0.245333">
        <ele>1505.19</ele>
      </trkpt>
      <trkpt lat="42.746001" lon="-0.245252">
        <ele>1507.16</ele>
      </trkpt>
      <trkpt lat="42.746348" lon="-0.245163">
        <ele>1512.94</ele>
      </trkpt>
      <trkpt lat="42.74666" lon="-0.245131">
        <ele>1515.86</ele>
      </trkpt>
      <trkpt lat="42.746878" lon="-0.244987">
        <ele>1515.33</ele>
      </trkpt>
      <trkpt lat="42.747095" lon="-0.244843">
        <ele>1522.9</ele>
      </trkpt>
      <trkpt lat="42.747247" lon="-0.244683">
        <ele>1523.9</ele>
      </trkpt>
      <trkpt lat="42.747655" lon="-0.244387">
        <ele>1528.59</ele>
      </trkpt>
      <trkpt lat="42.747853" lon="-0.244257">
        <ele>1530.15</ele>
      </trkpt>
      <trkpt lat="42.748052" lon="-0.244127">
        <ele>1535.23</ele>
      </trkpt>
      <trkpt lat="42.74821" lon="-0.243908">
        <ele>1536.86</ele>
      </trkpt>
      <trkpt lat="42.748466" lon="-0.243643">
        <ele>1539.28</ele>
      </trkpt>
      <trkpt lat="42.74875" lon="-0.243524">
        <ele>1542.58</ele>
      </trkpt>
      <trkpt lat="42.749033" lon="-0.243404">
        <ele>1550.67</ele>
      </trkpt>
      <trkpt lat="42.749152" lon="-0.243327">
        <ele>1551.57</ele>
      </trkpt>
      <trkpt lat="42.749255" lon="-0.243218">
        <ele>1552.51</ele>
      </trkpt>
      <trkpt lat="42.749358" lon="-0.243007">
        <ele>1553.99</ele>
      </trkpt>
      <trkpt lat="42.749474" lon="-0.242672">
        <ele>1555.86</ele>
      </trkpt>
      <trkpt lat="42.749556" lon="-0.242525">
        <ele>1556.5</ele>
      </trkpt>
      <trkpt lat="42.74967" lon="-0.242363">
        <ele>1558.15</ele>
      </trkpt>
      <trkpt lat="42.749727" lon="-0.242335">
        <ele>1558.44</ele>
      </trkpt>
      <trkpt lat="42.749776" lon="-0.242344">
        <ele>1558.88</ele>
      </trkpt>
      <trkpt lat="42.749818" lon="-0.242383">
        <ele>1559.79</ele>
      </trkpt>
      <trkpt lat="42.749836" lon="-0.242457">
        <ele>1560.76</ele>
      </trkpt>
      <trkpt lat="42.749824" lon="-0.242534">
        <ele>1560.83</ele>
      </trkpt>
      <trkpt lat="42.749626" lon="-0.242994">
        <ele>1562.56</ele>
      </trkpt>
      <trkpt lat="42.749514" lon="-0.24325">
        <ele>1565.07</ele>
      </trkpt>
      <trkpt lat="42.749387" lon="-0.243504">
        <ele>1567.1</ele>
      </trkpt>
      <trkpt lat="42.749227" lon="-0.243699">
        <ele>1568.9</ele>
      </trkpt>
      <trkpt lat="42.748958" lon="-0.243877">
        <ele>1566.42</ele>
      </trkpt>
      <trkpt lat="42.748656" lon="-0.244083">
        <ele>1567.59</ele>
      </trkpt>
      <trkpt lat="42.748635" lon="-0.24415">
        <ele>1568.76</ele>
      </trkpt>
      <trkpt lat="42.748638" lon="-0.244204">
        <ele>1570.51</ele>
      </trkpt>
      <trkpt lat="42.74866" lon="-0.244267">
        <ele>1572.43</ele>
      </trkpt>
      <trkpt lat="42.748705" lon="-0.244314">
        <ele>1573.86</ele>
      </trkpt>
      <trkpt lat="42.748754" lon="-0.244318">
        <ele>1574.89</ele>
      </trkpt>
      <trkpt lat="42.749055" lon="-0.244024">
        <ele>1574.79</ele>
      </trkpt>
      <trkpt lat="42.749293" lon="-0.243922">
        <ele>1580.14</ele>
      </trkpt>
      <trkpt lat="42.749478" lon="-0.243828">
        <ele>1581.81</ele>
      </trkpt>
      <trkpt lat="42.749587" lon="-0.243743">
        <ele>1582.9</ele>
      </trkpt>
      <trkpt lat="42.750001" lon="-0.243197">
        <ele>1586.87</ele>
      </trkpt>
      <trkpt lat="42.750509" lon="-0.242572">
        <ele>1593.35</ele>
      </trkpt>
      <trkpt lat="42.75083" lon="-0.242229">
        <ele>1596.46</ele>
      </trkpt>
      <trkpt lat="42.751023" lon="-0.241889">
        <ele>1601.14</ele>
      </trkpt>
      <trkpt lat="42.751176" lon="-0.241515">
        <ele>1603.13</ele>
      </trkpt>
      <trkpt lat="42.751227" lon="-0.241085">
        <ele>1606.02</ele>
      </trkpt>
      <trkpt lat="42.751278" lon="-0.240654">
        <ele>1604.91</ele>
      </trkpt>
      <trkpt lat="42.751343" lon="-0.240469">
        <ele>1605.81</ele>
      </trkpt>
      <trkpt lat="42.751542" lon="-0.240303">
        <ele>1607.33</ele>
      </trkpt>
      <trkpt lat="42.751769" lon="-0.240147">
        <ele>1610.28</ele>
      </trkpt>
      <trkpt lat="42.752213" lon="-0.239954">
        <ele>1616.14</ele>
      </trkpt>
      <trkpt lat="42.752338" lon="-0.239894">
        <ele>1619.59</ele>
      </trkpt>
      <trkpt lat="42.752806" lon="-0.239666">
        <ele>1621.26</ele>
      </trkpt>
      <trkpt lat="42.753117" lon="-0.239415">
        <ele>1621.29</ele>
      </trkpt>
      <trkpt lat="42.753309" lon="-0.239307">
        <ele>1621.34</ele>
      </trkpt>
      <trkpt lat="42.753564" lon="-0.23928">
        <ele>1622.35</ele>
      </trkpt>
      <trkpt lat="42.753707" lon="-0.239284">
        <ele>1623.63</ele>
      </trkpt>
      <trkpt lat="42.753809" lon="-0.239305">
        <ele>1623.99</ele>
      </trkpt>
      <trkpt lat="42.753963" lon="-0.239353">
        <ele>1624.89</ele>
      </trkpt>
      <trkpt lat="42.754042" lon="-0.239362">
        <ele>1626.09</ele>
      </trkpt>
      <trkpt lat="42.754121" lon="-0.239353">
        <ele>1627.18</ele>
      </trkpt>
      <trkpt lat="42.754326" lon="-0.239275">
        <ele>1629.21</ele>
      </trkpt>
      <trkpt lat="42.754764" lon="-0.239153">
        <ele>1630.62</ele>
      </trkpt>
      <trkpt lat="42.755246" lon="-0.239006">
        <ele>1630.26</ele>
      </trkpt>
      <trkpt lat="42.755798" lon="-0.238862">
        <ele>1631.89</ele>
      </trkpt>
      <trkpt lat="42.755953" lon="-0.238812">
        <ele>1632</ele>
      </trkpt>
      <trkpt lat="42.756107" lon="-0.238718">
        <ele>1632</ele>
      </trkpt>
      <trkpt lat="42.756231" lon="-0.238624">
        <ele>1632</ele>
      </trkpt>
      <trkpt lat="42.756376" lon="-0.238494">
        <ele>1632</ele>
      </trkpt>
      <trkpt lat="42.756828" lon="-0.237955">
        <ele>1633.52</ele>
      </trkpt>
      <trkpt lat="42.757054" lon="-0.237686">
        <ele>1632.74</ele>
      </trkpt>
      <trkpt lat="42.757164" lon="-0.237587">
        <ele>1633.13</ele>
      </trkpt>
    </trkseg>
  </trk>
</gpx>
