<?xml version="1.0" encoding="UTF-8"?>
<gpx creator="https://gpx.studio" version="1.1" xmlns="http://www.topografix.com/GPX/1/1" xmlns:xsi="http://www.w3.org/2001/XMLSchema-instance" xsi:schemaLocation="http://www.topografix.com/GPX/1/1 http://www.topografix.com/GPX/1/1/gpx.xsd http://www.garmin.com/xmlschemas/GpxExtensions/v3 http://www.garmin.com/xmlschemas/GpxExtensionsv3.xsd http://www.garmin.com/xmlschemas/TrackPointExtension/v1 http://www.garmin.com/xmlschemas/TrackPointExtensionv1.xsd http://www.garmin.com/xmlschemas/PowerExtension/v1 http://www.garmin.com/xmlschemas/PowerExtensionv1.xsd http://www.topografix.com/GPX/gpx_style/0/2 http://www.topografix.com/GPX/gpx_style/0/2/gpx_style.xsd" xmlns:gpxtpx="http://www.garmin.com/xmlschemas/TrackPointExtension/v1" xmlns:gpxx="http://www.garmin.com/xmlschemas/GpxExtensions/v3" xmlns:gpxpx="http://www.garmin.com/xmlschemas/PowerExtension/v1" xmlns:gpx_style="http://www.topografix.com/GPX/gpx_style/0/2">
  <metadata>
    <name>botaya_gpxstudio</name>
    <author>
      <name>gpx.studio</name>
      <link href="https://gpx.studio"/>
    </author>
  </metadata>
  <trk>
    <name>botaya_gpxstudio</name>
    <trkseg>
      <trkpt lat="42.493452" lon="-0.651984">
        <ele>963.32</ele>
      </trkpt>
      <trkpt lat="42.493736" lon="-0.652078">
        <ele>966.35</ele>
      </trkpt>
      <trkpt lat="42.494149" lon="-0.652063">
        <ele>972.48</ele>
      </trkpt>
      <trkpt lat="42.494312" lon="-0.652024">
        <ele>974.07</ele>
      </trkpt>
      <trkpt lat="42.494402" lon="-0.65195">
        <ele>975.22</ele>
      </trkpt>
      <trkpt lat="42.494592" lon="-0.651668">
        <ele>977.36</ele>
      </trkpt>
      <trkpt lat="42.494614" lon="-0.651545">
        <ele>977.6</ele>
      </trkpt>
      <trkpt lat="42.494594" lon="-0.650983">
        <ele>980.74</ele>
      </trkpt>
      <trkpt lat="42.494637" lon="-0.650869">
        <ele>981.07</ele>
      </trkpt>
      <trkpt lat="42.494749" lon="-0.650707">
        <ele>981.67</ele>
      </trkpt>
      <trkpt lat="42.494885" lon="-0.650598">
        <ele>980.86</ele>
      </trkpt>
      <trkpt lat="42.495241" lon="-0.650552">
        <ele>979.53</ele>
      </trkpt>
      <trkpt lat="42.495503" lon="-0.650259">
        <ele>979.31</ele>
      </trkpt>
      <trkpt lat="42.49577" lon="-0.649795">
        <ele>978.14</ele>
      </trkpt>
      <trkpt lat="42.49584" lon="-0.64974">
        <ele>977.15</ele>
      </trkpt>
      <trkpt lat="42.495992" lon="-0.649749">
        <ele>979.92</ele>
      </trkpt>
      <trkpt lat="42.496101" lon="-0.649699">
        <ele>981.96</ele>
      </trkpt>
      <trkpt lat="42.496236" lon="-0.649489">
        <ele>982.44</ele>
      </trkpt>
      <trkpt lat="42.496371" lon="-0.649278">
        <ele>979.96</ele>
      </trkpt>
      <trkpt lat="42.496471" lon="-0.649199">
        <ele>978.17</ele>
      </trkpt>
      <trkpt lat="42.496588" lon="-0.649208">
        <ele>978.01</ele>
      </trkpt>
      <trkpt lat="42.49673" lon="-0.649279">
        <ele>977.64</ele>
      </trkpt>
      <trkpt lat="42.497083" lon="-0.649644">
        <ele>979.21</ele>
      </trkpt>
      <trkpt lat="42.497243" lon="-0.649697">
        <ele>979.65</ele>
      </trkpt>
      <trkpt lat="42.497595" lon="-0.649655">
        <ele>980.52</ele>
      </trkpt>
      <trkpt lat="42.49774" lon="-0.649672">
        <ele>980.83</ele>
      </trkpt>
      <trkpt lat="42.498493" lon="-0.650057">
        <ele>982.14</ele>
      </trkpt>
      <trkpt lat="42.499429" lon="-0.650311">
        <ele>988.78</ele>
      </trkpt>
      <trkpt lat="42.499852" lon="-0.650639">
        <ele>994.72</ele>
      </trkpt>
      <trkpt lat="42.499943" lon="-0.650662">
        <ele>995.01</ele>
      </trkpt>
      <trkpt lat="42.499997" lon="-0.650647">
        <ele>995.95</ele>
      </trkpt>
      <trkpt lat="42.500025" lon="-0.650609">
        <ele>996.94</ele>
      </trkpt>
      <trkpt lat="42.500049" lon="-0.65056">
        <ele>997.74</ele>
      </trkpt>
      <trkpt lat="42.500051" lon="-0.650491">
        <ele>998.02</ele>
      </trkpt>
      <trkpt lat="42.500021" lon="-0.650394">
        <ele>999.66</ele>
      </trkpt>
      <trkpt lat="42.499843" lon="-0.650183">
        <ele>999.84</ele>
      </trkpt>
      <trkpt lat="42.499486" lon="-0.649761">
        <ele>1003.49</ele>
      </trkpt>
      <trkpt lat="42.499465" lon="-0.649693">
        <ele>1004.06</ele>
      </trkpt>
      <trkpt lat="42.499468" lon="-0.649612">
        <ele>1005.27</ele>
      </trkpt>
      <trkpt lat="42.499495" lon="-0.649425">
        <ele>1007.03</ele>
      </trkpt>
      <trkpt lat="42.499502" lon="-0.649151">
        <ele>1007.26</ele>
      </trkpt>
      <trkpt lat="42.499596" lon="-0.64883">
        <ele>1010.51</ele>
      </trkpt>
      <trkpt lat="42.499646" lon="-0.648547">
        <ele>1012.3</ele>
      </trkpt>
      <trkpt lat="42.49969" lon="-0.648441">
        <ele>1012.45</ele>
      </trkpt>
      <trkpt lat="42.49975" lon="-0.648363">
        <ele>1013.31</ele>
      </trkpt>
      <trkpt lat="42.500106" lon="-0.648125">
        <ele>1018.69</ele>
      </trkpt>
      <trkpt lat="42.500361" lon="-0.647891">
        <ele>1024.27</ele>
      </trkpt>
      <trkpt lat="42.500458" lon="-0.647707">
        <ele>1025.58</ele>
      </trkpt>
      <trkpt lat="42.50051" lon="-0.647433">
        <ele>1028.23</ele>
      </trkpt>
      <trkpt lat="42.500566" lon="-0.646948">
        <ele>1030.93</ele>
      </trkpt>
      <trkpt lat="42.500551" lon="-0.646689">
        <ele>1033.55</ele>
      </trkpt>
      <trkpt lat="42.500404" lon="-0.645679">
        <ele>1044.55</ele>
      </trkpt>
      <trkpt lat="42.500365" lon="-0.645605">
        <ele>1043.54</ele>
      </trkpt>
      <trkpt lat="42.500329" lon="-0.645591">
        <ele>1043.18</ele>
      </trkpt>
      <trkpt lat="42.50029" lon="-0.645606">
        <ele>1043.31</ele>
      </trkpt>
      <trkpt lat="42.500241" lon="-0.645671">
        <ele>1042.94</ele>
      </trkpt>
      <trkpt lat="42.500201" lon="-0.645801">
        <ele>1043.3</ele>
      </trkpt>
      <trkpt lat="42.500138" lon="-0.646242">
        <ele>1044.71</ele>
      </trkpt>
      <trkpt lat="42.500086" lon="-0.646393">
        <ele>1046.85</ele>
      </trkpt>
      <trkpt lat="42.500013" lon="-0.646509">
        <ele>1047.15</ele>
      </trkpt>
      <trkpt lat="42.499839" lon="-0.646633">
        <ele>1047.88</ele>
      </trkpt>
      <trkpt lat="42.499759" lon="-0.646662">
        <ele>1049.11</ele>
      </trkpt>
      <trkpt lat="42.499585" lon="-0.646672">
        <ele>1050.17</ele>
      </trkpt>
      <trkpt lat="42.499506" lon="-0.646691">
        <ele>1050.72</ele>
      </trkpt>
      <trkpt lat="42.499426" lon="-0.646755">
        <ele>1050.89</ele>
      </trkpt>
      <trkpt lat="42.499262" lon="-0.646936">
        <ele>1051.14</ele>
      </trkpt>
      <trkpt lat="42.499194" lon="-0.64696">
        <ele>1052.01</ele>
      </trkpt>
      <trkpt lat="42.499117" lon="-0.646946">
        <ele>1053.67</ele>
      </trkpt>
      <trkpt lat="42.499075" lon="-0.646913">
        <ele>1054.61</ele>
      </trkpt>
      <trkpt lat="42.499028" lon="-0.646824">
        <ele>1055.49</ele>
      </trkpt>
      <trkpt lat="42.498981" lon="-0.646488">
        <ele>1058.55</ele>
      </trkpt>
      <trkpt lat="42.498973" lon="-0.646185">
        <ele>1061.57</ele>
      </trkpt>
      <trkpt lat="42.498993" lon="-0.64614">
        <ele>1062.66</ele>
      </trkpt>
      <trkpt lat="42.499027" lon="-0.646103">
        <ele>1063.69</ele>
      </trkpt>
      <trkpt lat="42.499063" lon="-0.646106">
        <ele>1064.21</ele>
      </trkpt>
      <trkpt lat="42.499106" lon="-0.646122">
        <ele>1064.88</ele>
      </trkpt>
      <trkpt lat="42.499163" lon="-0.646209">
        <ele>1065.07</ele>
      </trkpt>
      <trkpt lat="42.499211" lon="-0.64624">
        <ele>1065.13</ele>
      </trkpt>
      <trkpt lat="42.49926" lon="-0.646232">
        <ele>1064.11</ele>
      </trkpt>
      <trkpt lat="42.499304" lon="-0.646182">
        <ele>1063.99</ele>
      </trkpt>
      <trkpt lat="42.499323" lon="-0.646096">
        <ele>1065.46</ele>
      </trkpt>
      <trkpt lat="42.499311" lon="-0.646009">
        <ele>1067.58</ele>
      </trkpt>
      <trkpt lat="42.49923" lon="-0.645868">
        <ele>1070.23</ele>
      </trkpt>
      <trkpt lat="42.499153" lon="-0.645773">
        <ele>1070.96</ele>
      </trkpt>
      <trkpt lat="42.499096" lon="-0.645735">
        <ele>1070.37</ele>
      </trkpt>
      <trkpt lat="42.498842" lon="-0.645653">
        <ele>1073.45</ele>
      </trkpt>
      <trkpt lat="42.498739" lon="-0.64558">
        <ele>1075.18</ele>
      </trkpt>
      <trkpt lat="42.498669" lon="-0.645453">
        <ele>1077.38</ele>
      </trkpt>
      <trkpt lat="42.498658" lon="-0.645377">
        <ele>1078.25</ele>
      </trkpt>
      <trkpt lat="42.498667" lon="-0.645309">
        <ele>1078.46</ele>
      </trkpt>
      <trkpt lat="42.498701" lon="-0.645247">
        <ele>1078.48</ele>
      </trkpt>
      <trkpt lat="42.498875" lon="-0.645136">
        <ele>1080.08</ele>
      </trkpt>
      <trkpt lat="42.498933" lon="-0.645029">
        <ele>1081.99</ele>
      </trkpt>
      <trkpt lat="42.499049" lon="-0.644517">
        <ele>1087.24</ele>
      </trkpt>
      <trkpt lat="42.499053" lon="-0.644379">
        <ele>1088.73</ele>
      </trkpt>
      <trkpt lat="42.499019" lon="-0.644227">
        <ele>1089.1</ele>
      </trkpt>
      <trkpt lat="42.49887" lon="-0.643897">
        <ele>1090.6</ele>
      </trkpt>
      <trkpt lat="42.498777" lon="-0.643653">
        <ele>1093.32</ele>
      </trkpt>
      <trkpt lat="42.49878" lon="-0.64356">
        <ele>1094.55</ele>
      </trkpt>
      <trkpt lat="42.498813" lon="-0.643491">
        <ele>1095.47</ele>
      </trkpt>
      <trkpt lat="42.498866" lon="-0.64345">
        <ele>1096.87</ele>
      </trkpt>
      <trkpt lat="42.499128" lon="-0.643396">
        <ele>1102.47</ele>
      </trkpt>
      <trkpt lat="42.499374" lon="-0.643359">
        <ele>1106.32</ele>
      </trkpt>
      <trkpt lat="42.499874" lon="-0.643222">
        <ele>1110.92</ele>
      </trkpt>
      <trkpt lat="42.499961" lon="-0.643149">
        <ele>1111.66</ele>
      </trkpt>
      <trkpt lat="42.500009" lon="-0.643045">
        <ele>1112.59</ele>
      </trkpt>
      <trkpt lat="42.500025" lon="-0.642921">
        <ele>1113.27</ele>
      </trkpt>
      <trkpt lat="42.500005" lon="-0.642127">
        <ele>1119.36</ele>
      </trkpt>
      <trkpt lat="42.500075" lon="-0.641176">
        <ele>1125.2</ele>
      </trkpt>
      <trkpt lat="42.500049" lon="-0.640981">
        <ele>1126.57</ele>
      </trkpt>
      <trkpt lat="42.499899" lon="-0.640572">
        <ele>1129.01</ele>
      </trkpt>
      <trkpt lat="42.49986" lon="-0.640303">
        <ele>1130.89</ele>
      </trkpt>
      <trkpt lat="42.499723" lon="-0.639995">
        <ele>1133.42</ele>
      </trkpt>
      <trkpt lat="42.499609" lon="-0.639799">
        <ele>1134.8</ele>
      </trkpt>
      <trkpt lat="42.499598" lon="-0.639722">
        <ele>1135.42</ele>
      </trkpt>
      <trkpt lat="42.499615" lon="-0.639654">
        <ele>1136.36</ele>
      </trkpt>
      <trkpt lat="42.499678" lon="-0.639593">
        <ele>1136.38</ele>
      </trkpt>
      <trkpt lat="42.499992" lon="-0.639504">
        <ele>1138.55</ele>
      </trkpt>
      <trkpt lat="42.500081" lon="-0.639518">
        <ele>1138.25</ele>
      </trkpt>
      <trkpt lat="42.500325" lon="-0.639656">
        <ele>1139.95</ele>
      </trkpt>
      <trkpt lat="42.500412" lon="-0.639662">
        <ele>1140.67</ele>
      </trkpt>
      <trkpt lat="42.500859" lon="-0.639593">
        <ele>1142.48</ele>
      </trkpt>
      <trkpt lat="42.501001" lon="-0.639608">
        <ele>1142.79</ele>
      </trkpt>
      <trkpt lat="42.501462" lon="-0.639751">
        <ele>1144.93</ele>
      </trkpt>
      <trkpt lat="42.501716" lon="-0.639946">
        <ele>1146.31</ele>
      </trkpt>
      <trkpt lat="42.502315" lon="-0.640649">
        <ele>1152.92</ele>
      </trkpt>
      <trkpt lat="42.502536" lon="-0.640824">
        <ele>1154.42</ele>
      </trkpt>
      <trkpt lat="42.502724" lon="-0.640992">
        <ele>1155.63</ele>
      </trkpt>
      <trkpt lat="42.502843" lon="-0.641142">
        <ele>1156.79</ele>
      </trkpt>
      <trkpt lat="42.502993" lon="-0.64148">
        <ele>1159.59</ele>
      </trkpt>
      <trkpt lat="42.503071" lon="-0.641557">
        <ele>1160.08</ele>
      </trkpt>
      <trkpt lat="42.503448" lon="-0.641674">
        <ele>1162.03</ele>
      </trkpt>
      <trkpt lat="42.503598" lon="-0.641645">
        <ele>1162.79</ele>
      </trkpt>
      <trkpt lat="42.50373" lon="-0.641552">
        <ele>1162.34</ele>
      </trkpt>
      <trkpt lat="42.503982" lon="-0.641317">
        <ele>1162.65</ele>
      </trkpt>
      <trkpt lat="42.504031" lon="-0.641307">
        <ele>1162.61</ele>
      </trkpt>
      <trkpt lat="42.504099" lon="-0.641342">
        <ele>1163.56</ele>
      </trkpt>
      <trkpt lat="42.504161" lon="-0.641272">
        <ele>1162.51</ele>
      </trkpt>
    </trkseg>
  </trk>
</gpx>
