<?xml version="1.0" encoding="UTF-8"?><gpx creator="https://climbfinder.com" version="1.1"  xmlns:xsi="http://www.w3.org/2001/XMLSchema-instance"  xmlns="http://www.topografix.com/GPX/1/1" xsi:schemaLocation="http://www.topografix.com/GPX/1/1 http://www.topografix.com/GPX/1/1/gpx.xsd">
  <metadata>
    <name>cabanas-desde-rebordoes</name>
    <author>
      <link href="https://climbfinder.com">
        <text>climbfinder</text>
        <type>text/html</type>
      </link>
    </author>
  </metadata>
  <trk>
    <name>cabanas-desde-rebordoes</name>
    <trkseg>
			<trkpt lat="41.35501" lon="-8.42824">
        <ele>113.1</ele>
        <time>2026-08-03T09:00:00Z</time>
      </trkpt>
			<trkpt lat="41.35495" lon="-8.42827">
        <ele>113.2</ele>
        <time>2026-08-03T09:00:01Z</time>
      </trkpt>
			<trkpt lat="41.35459" lon="-8.42832">
        <ele>114.1</ele>
        <time>2026-08-03T09:00:08Z</time>
      </trkpt>
			<trkpt lat="41.35423" lon="-8.42837">
        <ele>115.2</ele>
        <time>2026-08-03T09:00:16Z</time>
      </trkpt>
			<trkpt lat="41.35386" lon="-8.42842">
        <ele>116.5</ele>
        <time>2026-08-03T09:00:24Z</time>
      </trkpt>
			<trkpt lat="41.3535" lon="-8.42847">
        <ele>118</ele>
        <time>2026-08-03T09:00:33Z</time>
      </trkpt>
			<trkpt lat="41.35337" lon="-8.42848">
        <ele>118.6</ele>
        <time>2026-08-03T09:00:36Z</time>
      </trkpt>
			<trkpt lat="41.35327" lon="-8.42845">
        <ele>119.1</ele>
        <time>2026-08-03T09:00:39Z</time>
      </trkpt>
			<trkpt lat="41.35318" lon="-8.4284">
        <ele>119.5</ele>
        <time>2026-08-03T09:00:41Z</time>
      </trkpt>
			<trkpt lat="41.35293" lon="-8.42817">
        <ele>121.1</ele>
        <time>2026-08-03T09:00:50Z</time>
      </trkpt>
			<trkpt lat="41.35284" lon="-8.42807">
        <ele>121.8</ele>
        <time>2026-08-03T09:00:53Z</time>
      </trkpt>
			<trkpt lat="41.35265" lon="-8.42762">
        <ele>124.1</ele>
        <time>2026-08-03T09:01:04Z</time>
      </trkpt>
			<trkpt lat="41.35245" lon="-8.42718">
        <ele>126.6</ele>
        <time>2026-08-03T09:01:16Z</time>
      </trkpt>
			<trkpt lat="41.35222" lon="-8.42673">
        <ele>129.4</ele>
        <time>2026-08-03T09:01:29Z</time>
      </trkpt>
			<trkpt lat="41.35214" lon="-8.42662">
        <ele>130.3</ele>
        <time>2026-08-03T09:01:33Z</time>
      </trkpt>
			<trkpt lat="41.35191" lon="-8.42644">
        <ele>132.2</ele>
        <time>2026-08-03T09:01:41Z</time>
      </trkpt>
			<trkpt lat="41.35168" lon="-8.42626">
        <ele>134.2</ele>
        <time>2026-08-03T09:01:50Z</time>
      </trkpt>
			<trkpt lat="41.35138" lon="-8.42611">
        <ele>136.6</ele>
        <time>2026-08-03T09:02:00Z</time>
      </trkpt>
			<trkpt lat="41.35108" lon="-8.42597">
        <ele>139</ele>
        <time>2026-08-03T09:02:11Z</time>
      </trkpt>
			<trkpt lat="41.35098" lon="-8.4259">
        <ele>139.9</ele>
        <time>2026-08-03T09:02:15Z</time>
      </trkpt>
			<trkpt lat="41.35077" lon="-8.4256">
        <ele>142.2</ele>
        <time>2026-08-03T09:02:25Z</time>
      </trkpt>
			<trkpt lat="41.35055" lon="-8.42531">
        <ele>144.6</ele>
        <time>2026-08-03T09:02:35Z</time>
      </trkpt>
			<trkpt lat="41.35031" lon="-8.42498">
        <ele>147.3</ele>
        <time>2026-08-03T09:02:47Z</time>
      </trkpt>
			<trkpt lat="41.35006" lon="-8.42464">
        <ele>150</ele>
        <time>2026-08-03T09:02:59Z</time>
      </trkpt>
			<trkpt lat="41.34982" lon="-8.42431">
        <ele>152.7</ele>
        <time>2026-08-03T09:03:10Z</time>
      </trkpt>
			<trkpt lat="41.34965" lon="-8.42406">
        <ele>154.7</ele>
        <time>2026-08-03T09:03:19Z</time>
      </trkpt>
			<trkpt lat="41.34961" lon="-8.42392">
        <ele>155.6</ele>
        <time>2026-08-03T09:03:22Z</time>
      </trkpt>
			<trkpt lat="41.34961" lon="-8.42374">
        <ele>156.6</ele>
        <time>2026-08-03T09:03:27Z</time>
      </trkpt>
			<trkpt lat="41.3497" lon="-8.42331">
        <ele>159.2</ele>
        <time>2026-08-03T09:03:38Z</time>
      </trkpt>
			<trkpt lat="41.34979" lon="-8.42289">
        <ele>161.7</ele>
        <time>2026-08-03T09:03:49Z</time>
      </trkpt>
			<trkpt lat="41.34988" lon="-8.42246">
        <ele>164.1</ele>
        <time>2026-08-03T09:03:59Z</time>
      </trkpt>
			<trkpt lat="41.34986" lon="-8.42223">
        <ele>165.3</ele>
        <time>2026-08-03T09:04:05Z</time>
      </trkpt>
			<trkpt lat="41.34974" lon="-8.42194">
        <ele>167.1</ele>
        <time>2026-08-03T09:04:13Z</time>
      </trkpt>
			<trkpt lat="41.34962" lon="-8.42165">
        <ele>168.7</ele>
        <time>2026-08-03T09:04:21Z</time>
      </trkpt>
			<trkpt lat="41.3496" lon="-8.42149">
        <ele>169.5</ele>
        <time>2026-08-03T09:04:24Z</time>
      </trkpt>
			<trkpt lat="41.3496" lon="-8.42118">
        <ele>171</ele>
        <time>2026-08-03T09:04:32Z</time>
      </trkpt>
			<trkpt lat="41.3496" lon="-8.42087">
        <ele>172.3</ele>
        <time>2026-08-03T09:04:38Z</time>
      </trkpt>
			<trkpt lat="41.34961" lon="-8.42067">
        <ele>173.2</ele>
        <time>2026-08-03T09:04:43Z</time>
      </trkpt>
			<trkpt lat="41.34958" lon="-8.42055">
        <ele>173.8</ele>
        <time>2026-08-03T09:04:46Z</time>
      </trkpt>
			<trkpt lat="41.34952" lon="-8.42041">
        <ele>174.5</ele>
        <time>2026-08-03T09:04:49Z</time>
      </trkpt>
			<trkpt lat="41.34947" lon="-8.42037">
        <ele>174.9</ele>
        <time>2026-08-03T09:04:51Z</time>
      </trkpt>
			<trkpt lat="41.34936" lon="-8.42034">
        <ele>175.5</ele>
        <time>2026-08-03T09:04:54Z</time>
      </trkpt>
			<trkpt lat="41.3491" lon="-8.42038">
        <ele>176.9</ele>
        <time>2026-08-03T09:05:01Z</time>
      </trkpt>
			<trkpt lat="41.34883" lon="-8.42042">
        <ele>178.3</ele>
        <time>2026-08-03T09:05:09Z</time>
      </trkpt>
			<trkpt lat="41.3487" lon="-8.4204">
        <ele>179.1</ele>
        <time>2026-08-03T09:05:13Z</time>
      </trkpt>
			<trkpt lat="41.34863" lon="-8.42034">
        <ele>179.5</ele>
        <time>2026-08-03T09:05:15Z</time>
      </trkpt>
			<trkpt lat="41.34856" lon="-8.42024">
        <ele>180.1</ele>
        <time>2026-08-03T09:05:18Z</time>
      </trkpt>
			<trkpt lat="41.34852" lon="-8.42014">
        <ele>180.5</ele>
        <time>2026-08-03T09:05:20Z</time>
      </trkpt>
			<trkpt lat="41.34851" lon="-8.42">
        <ele>181.1</ele>
        <time>2026-08-03T09:05:23Z</time>
      </trkpt>
			<trkpt lat="41.34851" lon="-8.41984">
        <ele>181.7</ele>
        <time>2026-08-03T09:05:26Z</time>
      </trkpt>
			<trkpt lat="41.34852" lon="-8.41977">
        <ele>181.9</ele>
        <time>2026-08-03T09:05:27Z</time>
      </trkpt>
			<trkpt lat="41.34854" lon="-8.41972">
        <ele>182.2</ele>
        <time>2026-08-03T09:05:29Z</time>
      </trkpt>
			<trkpt lat="41.34872" lon="-8.41951">
        <ele>183.4</ele>
        <time>2026-08-03T09:05:35Z</time>
      </trkpt>
			<trkpt lat="41.34896" lon="-8.41925">
        <ele>185</ele>
        <time>2026-08-03T09:05:44Z</time>
      </trkpt>
			<trkpt lat="41.34918" lon="-8.41898">
        <ele>186.5</ele>
        <time>2026-08-03T09:05:53Z</time>
      </trkpt>
			<trkpt lat="41.34941" lon="-8.41855">
        <ele>188.4</ele>
        <time>2026-08-03T09:06:03Z</time>
      </trkpt>
			<trkpt lat="41.34964" lon="-8.41811">
        <ele>190.1</ele>
        <time>2026-08-03T09:06:13Z</time>
      </trkpt>
			<trkpt lat="41.34977" lon="-8.41781">
        <ele>191.1</ele>
        <time>2026-08-03T09:06:19Z</time>
      </trkpt>
			<trkpt lat="41.34978" lon="-8.41776">
        <ele>191.2</ele>
        <time>2026-08-03T09:06:19Z</time>
      </trkpt>
			<trkpt lat="41.34981" lon="-8.41765">
        <ele>191.5</ele>
        <time>2026-08-03T09:06:21Z</time>
      </trkpt>
			<trkpt lat="41.34983" lon="-8.41749">
        <ele>191.9</ele>
        <time>2026-08-03T09:06:24Z</time>
      </trkpt>
			<trkpt lat="41.34979" lon="-8.41729">
        <ele>192.3</ele>
        <time>2026-08-03T09:06:27Z</time>
      </trkpt>
			<trkpt lat="41.34958" lon="-8.41683">
        <ele>193.2</ele>
        <time>2026-08-03T09:06:35Z</time>
      </trkpt>
			<trkpt lat="41.34952" lon="-8.41663">
        <ele>193.5</ele>
        <time>2026-08-03T09:06:38Z</time>
      </trkpt>
			<trkpt lat="41.34952" lon="-8.41642">
        <ele>193.7</ele>
        <time>2026-08-03T09:06:41Z</time>
      </trkpt>
			<trkpt lat="41.34957" lon="-8.41622">
        <ele>193.9</ele>
        <time>2026-08-03T09:06:43Z</time>
      </trkpt>
			<trkpt lat="41.34951" lon="-8.41619">
        <ele>194</ele>
        <time>2026-08-03T09:06:44Z</time>
      </trkpt>
			<trkpt lat="41.34926" lon="-8.41619">
        <ele>194.1</ele>
        <time>2026-08-03T09:06:48Z</time>
      </trkpt>
			<trkpt lat="41.34923" lon="-8.41622">
        <ele>194.2</ele>
        <time>2026-08-03T09:06:49Z</time>
      </trkpt>
			<trkpt lat="41.34923" lon="-8.41631">
        <ele>194.2</ele>
        <time>2026-08-03T09:06:50Z</time>
      </trkpt>
			<trkpt lat="41.34928" lon="-8.41657">
        <ele>194.2</ele>
        <time>2026-08-03T09:06:53Z</time>
      </trkpt>
			<trkpt lat="41.34926" lon="-8.41676">
        <ele>194.2</ele>
        <time>2026-08-03T09:06:55Z</time>
      </trkpt>
			<trkpt lat="41.34933" lon="-8.41707">
        <ele>194.2</ele>
        <time>2026-08-03T09:06:59Z</time>
      </trkpt>
			<trkpt lat="41.34942" lon="-8.41729">
        <ele>194</ele>
        <time>2026-08-03T09:07:00Z</time>
      </trkpt>
			<trkpt lat="41.34943" lon="-8.4175">
        <ele>193.9</ele>
        <time>2026-08-03T09:07:02Z</time>
      </trkpt>
			<trkpt lat="41.34958" lon="-8.41748">
        <ele>193.7</ele>
        <time>2026-08-03T09:07:03Z</time>
      </trkpt>
			<trkpt lat="41.34961" lon="-8.4173">
        <ele>193.5</ele>
        <time>2026-08-03T09:07:05Z</time>
      </trkpt>
			<trkpt lat="41.34961" lon="-8.41713">
        <ele>193.3</ele>
        <time>2026-08-03T09:07:06Z</time>
      </trkpt>
			<trkpt lat="41.34946" lon="-8.41661">
        <ele>192.4</ele>
        <time>2026-08-03T09:07:10Z</time>
      </trkpt>
			<trkpt lat="41.34947" lon="-8.41649">
        <ele>192.2</ele>
        <time>2026-08-03T09:07:11Z</time>
      </trkpt>
			<trkpt lat="41.34948" lon="-8.41641">
        <ele>192</ele>
        <time>2026-08-03T09:07:12Z</time>
      </trkpt>
			<trkpt lat="41.34952" lon="-8.41642">
        <ele>191.9</ele>
        <time>2026-08-03T09:07:12Z</time>
      </trkpt>
			<trkpt lat="41.34957" lon="-8.41622">
        <ele>191.5</ele>
        <time>2026-08-03T09:07:13Z</time>
      </trkpt>
			<trkpt lat="41.34975" lon="-8.41574">
        <ele>190.2</ele>
        <time>2026-08-03T09:07:17Z</time>
      </trkpt>
			<trkpt lat="41.34992" lon="-8.41525">
        <ele>188.9</ele>
        <time>2026-08-03T09:07:21Z</time>
      </trkpt>
			<trkpt lat="41.35015" lon="-8.41495">
        <ele>188</ele>
        <time>2026-08-03T09:07:25Z</time>
      </trkpt>
			<trkpt lat="41.35032" lon="-8.41469">
        <ele>187.3</ele>
        <time>2026-08-03T09:07:27Z</time>
      </trkpt>
			<trkpt lat="41.35042" lon="-8.41434">
        <ele>186.8</ele>
        <time>2026-08-03T09:07:30Z</time>
      </trkpt>
			<trkpt lat="41.3504" lon="-8.41407">
        <ele>186.5</ele>
        <time>2026-08-03T09:07:32Z</time>
      </trkpt>
			<trkpt lat="41.35031" lon="-8.41386">
        <ele>186.4</ele>
        <time>2026-08-03T09:07:34Z</time>
      </trkpt>
			<trkpt lat="41.35004" lon="-8.41353">
        <ele>186.6</ele>
        <time>2026-08-03T09:07:40Z</time>
      </trkpt>
			<trkpt lat="41.34996" lon="-8.41345">
        <ele>186.7</ele>
        <time>2026-08-03T09:07:42Z</time>
      </trkpt>
			<trkpt lat="41.3498" lon="-8.41337">
        <ele>187.1</ele>
        <time>2026-08-03T09:07:45Z</time>
      </trkpt>
			<trkpt lat="41.34968" lon="-8.41333">
        <ele>187.3</ele>
        <time>2026-08-03T09:07:47Z</time>
      </trkpt>
			<trkpt lat="41.34931" lon="-8.41347">
        <ele>188.7</ele>
        <time>2026-08-03T09:07:56Z</time>
      </trkpt>
			<trkpt lat="41.34895" lon="-8.41362">
        <ele>190.5</ele>
        <time>2026-08-03T09:08:05Z</time>
      </trkpt>
			<trkpt lat="41.34858" lon="-8.41376">
        <ele>192.9</ele>
        <time>2026-08-03T09:08:17Z</time>
      </trkpt>
			<trkpt lat="41.34844" lon="-8.41373">
        <ele>193.9</ele>
        <time>2026-08-03T09:08:21Z</time>
      </trkpt>
			<trkpt lat="41.34822" lon="-8.41351">
        <ele>196</ele>
        <time>2026-08-03T09:08:30Z</time>
      </trkpt>
			<trkpt lat="41.34813" lon="-8.41346">
        <ele>196.8</ele>
        <time>2026-08-03T09:08:34Z</time>
      </trkpt>
			<trkpt lat="41.34789" lon="-8.4134">
        <ele>198.9</ele>
        <time>2026-08-03T09:08:43Z</time>
      </trkpt>
			<trkpt lat="41.34764" lon="-8.41335">
        <ele>201</ele>
        <time>2026-08-03T09:08:52Z</time>
      </trkpt>
			<trkpt lat="41.34744" lon="-8.41334">
        <ele>202.9</ele>
        <time>2026-08-03T09:09:01Z</time>
      </trkpt>
			<trkpt lat="41.34715" lon="-8.41324">
        <ele>205.8</ele>
        <time>2026-08-03T09:09:14Z</time>
      </trkpt>
			<trkpt lat="41.34685" lon="-8.41313">
        <ele>208.8</ele>
        <time>2026-08-03T09:09:28Z</time>
      </trkpt>
			<trkpt lat="41.34656" lon="-8.41303">
        <ele>211.9</ele>
        <time>2026-08-03T09:09:41Z</time>
      </trkpt>
			<trkpt lat="41.34636" lon="-8.41293">
        <ele>214</ele>
        <time>2026-08-03T09:09:51Z</time>
      </trkpt>
			<trkpt lat="41.34616" lon="-8.41267">
        <ele>216.8</ele>
        <time>2026-08-03T09:10:03Z</time>
      </trkpt>
			<trkpt lat="41.34602" lon="-8.41226">
        <ele>220.2</ele>
        <time>2026-08-03T09:10:18Z</time>
      </trkpt>
			<trkpt lat="41.3458" lon="-8.41211">
        <ele>222.6</ele>
        <time>2026-08-03T09:10:29Z</time>
      </trkpt>
			<trkpt lat="41.34558" lon="-8.41196">
        <ele>225</ele>
        <time>2026-08-03T09:10:40Z</time>
      </trkpt>
			<trkpt lat="41.34547" lon="-8.41186">
        <ele>226.3</ele>
        <time>2026-08-03T09:10:46Z</time>
      </trkpt>
			<trkpt lat="41.34542" lon="-8.41163">
        <ele>228.1</ele>
        <time>2026-08-03T09:10:54Z</time>
      </trkpt>
			<trkpt lat="41.34542" lon="-8.4114">
        <ele>229.8</ele>
        <time>2026-08-03T09:11:02Z</time>
      </trkpt>
			<trkpt lat="41.34549" lon="-8.41104">
        <ele>232.5</ele>
        <time>2026-08-03T09:11:14Z</time>
      </trkpt>
			<trkpt lat="41.34555" lon="-8.41067">
        <ele>235.5</ele>
        <time>2026-08-03T09:11:27Z</time>
      </trkpt>
			<trkpt lat="41.34542" lon="-8.41039">
        <ele>238.1</ele>
        <time>2026-08-03T09:11:38Z</time>
      </trkpt>
			<trkpt lat="41.34528" lon="-8.41012">
        <ele>240.8</ele>
        <time>2026-08-03T09:11:50Z</time>
      </trkpt>
			<trkpt lat="41.34518" lon="-8.41001">
        <ele>242.3</ele>
        <time>2026-08-03T09:11:57Z</time>
      </trkpt>
			<trkpt lat="41.34502" lon="-8.40995">
        <ele>244.1</ele>
        <time>2026-08-03T09:12:05Z</time>
      </trkpt>
			<trkpt lat="41.34481" lon="-8.41">
        <ele>246.7</ele>
        <time>2026-08-03T09:12:16Z</time>
      </trkpt>
			<trkpt lat="41.34459" lon="-8.4101">
        <ele>249.7</ele>
        <time>2026-08-03T09:12:29Z</time>
      </trkpt>
			<trkpt lat="41.34441" lon="-8.41024">
        <ele>252.4</ele>
        <time>2026-08-03T09:12:41Z</time>
      </trkpt>
			<trkpt lat="41.34419" lon="-8.41063">
        <ele>257.3</ele>
        <time>2026-08-03T09:13:02Z</time>
      </trkpt>
			<trkpt lat="41.34396" lon="-8.41102">
        <ele>262.5</ele>
        <time>2026-08-03T09:13:27Z</time>
      </trkpt>
			<trkpt lat="41.34374" lon="-8.41131">
        <ele>267.1</ele>
        <time>2026-08-03T09:13:47Z</time>
      </trkpt>
			<trkpt lat="41.34351" lon="-8.41159">
        <ele>271.5</ele>
        <time>2026-08-03T09:14:08Z</time>
      </trkpt>
			<trkpt lat="41.34335" lon="-8.41172">
        <ele>274.2</ele>
        <time>2026-08-03T09:14:21Z</time>
      </trkpt>
			<trkpt lat="41.3431" lon="-8.41187">
        <ele>278.3</ele>
        <time>2026-08-03T09:14:39Z</time>
      </trkpt>
			<trkpt lat="41.34284" lon="-8.41202">
        <ele>282.2</ele>
        <time>2026-08-03T09:14:55Z</time>
      </trkpt>
			<trkpt lat="41.34256" lon="-8.41211">
        <ele>286.3</ele>
        <time>2026-08-03T09:15:14Z</time>
      </trkpt>
			<trkpt lat="41.34228" lon="-8.41219">
        <ele>290.4</ele>
        <time>2026-08-03T09:15:33Z</time>
      </trkpt>
			<trkpt lat="41.34194" lon="-8.41228">
        <ele>295.3</ele>
        <time>2026-08-03T09:15:57Z</time>
      </trkpt>
			<trkpt lat="41.34159" lon="-8.41237">
        <ele>300.2</ele>
        <time>2026-08-03T09:16:17Z</time>
      </trkpt>
			<trkpt lat="41.34125" lon="-8.41246">
        <ele>305.2</ele>
        <time>2026-08-03T09:16:40Z</time>
      </trkpt>
			<trkpt lat="41.34106" lon="-8.41244">
        <ele>307.9</ele>
        <time>2026-08-03T09:16:53Z</time>
      </trkpt>
			<trkpt lat="41.34087" lon="-8.41233">
        <ele>310.9</ele>
        <time>2026-08-03T09:17:07Z</time>
      </trkpt>
			<trkpt lat="41.3407" lon="-8.41214">
        <ele>314.3</ele>
        <time>2026-08-03T09:17:21Z</time>
      </trkpt>
			<trkpt lat="41.34049" lon="-8.41178">
        <ele>319.4</ele>
        <time>2026-08-03T09:17:44Z</time>
      </trkpt>
			<trkpt lat="41.34028" lon="-8.41141">
        <ele>324.6</ele>
        <time>2026-08-03T09:18:07Z</time>
      </trkpt>
			<trkpt lat="41.34007" lon="-8.41105">
        <ele>329.9</ele>
        <time>2026-08-03T09:18:30Z</time>
      </trkpt>
			<trkpt lat="41.33988" lon="-8.41065">
        <ele>334.9</ele>
        <time>2026-08-03T09:18:54Z</time>
      </trkpt>
			<trkpt lat="41.33975" lon="-8.41023">
        <ele>339.5</ele>
        <time>2026-08-03T09:19:14Z</time>
      </trkpt>
			<trkpt lat="41.33962" lon="-8.40982">
        <ele>343.7</ele>
        <time>2026-08-03T09:19:30Z</time>
      </trkpt>
			<trkpt lat="41.33949" lon="-8.4094">
        <ele>347.7</ele>
        <time>2026-08-03T09:19:47Z</time>
      </trkpt>
			<trkpt lat="41.33939" lon="-8.40926">
        <ele>349.3</ele>
        <time>2026-08-03T09:19:55Z</time>
      </trkpt>
			<trkpt lat="41.33926" lon="-8.40918">
        <ele>350.8</ele>
        <time>2026-08-03T09:20:01Z</time>
      </trkpt>
			<trkpt lat="41.3391" lon="-8.40927">
        <ele>352.5</ele>
        <time>2026-08-03T09:20:09Z</time>
      </trkpt>
			<trkpt lat="41.33899" lon="-8.40945">
        <ele>354.3</ele>
        <time>2026-08-03T09:20:16Z</time>
      </trkpt>
			<trkpt lat="41.33891" lon="-8.40986">
        <ele>357.4</ele>
        <time>2026-08-03T09:20:31Z</time>
      </trkpt>
			<trkpt lat="41.33883" lon="-8.41026">
        <ele>360.3</ele>
        <time>2026-08-03T09:20:43Z</time>
      </trkpt>
			<trkpt lat="41.33866" lon="-8.41052">
        <ele>362.7</ele>
        <time>2026-08-03T09:20:53Z</time>
      </trkpt>
			<trkpt lat="41.33847" lon="-8.41065">
        <ele>364.7</ele>
        <time>2026-08-03T09:21:02Z</time>
      </trkpt>
			<trkpt lat="41.33811" lon="-8.41069">
        <ele>368.2</ele>
        <time>2026-08-03T09:21:18Z</time>
      </trkpt>
			<trkpt lat="41.33792" lon="-8.41076">
        <ele>370.1</ele>
        <time>2026-08-03T09:21:27Z</time>
      </trkpt>
			<trkpt lat="41.33774" lon="-8.41088">
        <ele>372.2</ele>
        <time>2026-08-03T09:21:36Z</time>
      </trkpt>
			<trkpt lat="41.3376" lon="-8.41103">
        <ele>374</ele>
        <time>2026-08-03T09:21:44Z</time>
      </trkpt>
			<trkpt lat="41.33748" lon="-8.41139">
        <ele>377</ele>
        <time>2026-08-03T09:21:57Z</time>
      </trkpt>
			<trkpt lat="41.33735" lon="-8.41175">
        <ele>380.2</ele>
        <time>2026-08-03T09:22:12Z</time>
      </trkpt>
			<trkpt lat="41.33715" lon="-8.41203">
        <ele>383.2</ele>
        <time>2026-08-03T09:22:25Z</time>
      </trkpt>
			<trkpt lat="41.33695" lon="-8.4123">
        <ele>386.3</ele>
        <time>2026-08-03T09:22:39Z</time>
      </trkpt>
			<trkpt lat="41.3368" lon="-8.41241">
        <ele>388.2</ele>
        <time>2026-08-03T09:22:48Z</time>
      </trkpt>
			<trkpt lat="41.33662" lon="-8.41242">
        <ele>390.1</ele>
        <time>2026-08-03T09:22:56Z</time>
      </trkpt>
			<trkpt lat="41.33641" lon="-8.41234">
        <ele>392.5</ele>
        <time>2026-08-03T09:23:07Z</time>
      </trkpt>
			<trkpt lat="41.33617" lon="-8.41206">
        <ele>395.9</ele>
        <time>2026-08-03T09:23:22Z</time>
      </trkpt>
			<trkpt lat="41.33593" lon="-8.41179">
        <ele>399.5</ele>
        <time>2026-08-03T09:23:38Z</time>
      </trkpt>
			<trkpt lat="41.3358" lon="-8.41173">
        <ele>400.9</ele>
        <time>2026-08-03T09:23:44Z</time>
      </trkpt>
			<trkpt lat="41.33566" lon="-8.41173">
        <ele>402.4</ele>
        <time>2026-08-03T09:23:51Z</time>
      </trkpt>
			<trkpt lat="41.33551" lon="-8.41182">
        <ele>404.3</ele>
        <time>2026-08-03T09:24:00Z</time>
      </trkpt>
			<trkpt lat="41.33534" lon="-8.41211">
        <ele>407.3</ele>
        <time>2026-08-03T09:24:13Z</time>
      </trkpt>
			<trkpt lat="41.33517" lon="-8.41239">
        <ele>410.3</ele>
        <time>2026-08-03T09:24:27Z</time>
      </trkpt>
			<trkpt lat="41.335" lon="-8.41261">
        <ele>412.9</ele>
        <time>2026-08-03T09:24:39Z</time>
      </trkpt>
			<trkpt lat="41.33482" lon="-8.41283">
        <ele>415.5</ele>
        <time>2026-08-03T09:24:51Z</time>
      </trkpt>
			<trkpt lat="41.3346" lon="-8.41299">
        <ele>418.2</ele>
        <time>2026-08-03T09:25:04Z</time>
      </trkpt>
			<trkpt lat="41.33423" lon="-8.41317">
        <ele>422.2</ele>
        <time>2026-08-03T09:25:21Z</time>
      </trkpt>
			<trkpt lat="41.33386" lon="-8.41335">
        <ele>425.9</ele>
        <time>2026-08-03T09:25:37Z</time>
      </trkpt>
			<trkpt lat="41.3336" lon="-8.41344">
        <ele>428.2</ele>
        <time>2026-08-03T09:25:48Z</time>
      </trkpt>
			<trkpt lat="41.33333" lon="-8.41353">
        <ele>430.3</ele>
        <time>2026-08-03T09:25:57Z</time>
      </trkpt>
			<trkpt lat="41.33297" lon="-8.41369">
        <ele>432.9</ele>
        <time>2026-08-03T09:26:09Z</time>
      </trkpt>
			<trkpt lat="41.33271" lon="-8.41392">
        <ele>434.5</ele>
        <time>2026-08-03T09:26:17Z</time>
      </trkpt>
			<trkpt lat="41.33259" lon="-8.41416">
        <ele>435.6</ele>
        <time>2026-08-03T09:26:24Z</time>
      </trkpt>
			<trkpt lat="41.33246" lon="-8.41454">
        <ele>436.8</ele>
        <time>2026-08-03T09:26:31Z</time>
      </trkpt>
			<trkpt lat="41.33232" lon="-8.41492">
        <ele>437.9</ele>
        <time>2026-08-03T09:26:38Z</time>
      </trkpt>
		</trkseg>
	</trk>
</gpx>
