<?xml version="1.0" encoding="UTF-8"?>
<gpx creator="Wikiloc - https://www.wikiloc.com" version="1.1" xmlns="http://www.topografix.com/GPX/1/1" xmlns:xsi="http://www.w3.org/2001/XMLSchema-instance" xsi:schemaLocation="http://www.topografix.com/GPX/1/1 http://www.topografix.com/GPX/1/1/gpx.xsd">
  <metadata>
    <name>Wikiloc - CIRCO DE TROUMOUSE (por Luz-Saint-Sauveur)</name>
    <link href="https://www.wikiloc.com/cycling-trails/circo-de-troumouse-por-luz-saint-sauveur-268432933">
      <text>CIRCO DE TROUMOUSE (por Luz-Saint-Sauveur) - Wikiloc on Wikiloc</text>
    </link>
    <time>2026-07-16T10:19:25.026Z</time>
  </metadata>
  <trk>
    <name>CIRCO DE TROUMOUSE (por Luz-Saint-Sauveur) - Wikiloc</name>
    <cmt></cmt>
    <desc></desc>
    <trkseg>
      <trkpt lat="42.784360" lon="0.022660">
        <ele>1092.291</ele>
        <time>2026-07-16T10:19:25.025Z</time>
      </trkpt>
      <trkpt lat="42.784740" lon="0.023970">
        <ele>1100.981</ele>
        <time>2026-07-16T10:19:45.025Z</time>
      </trkpt>
      <trkpt lat="42.784470" lon="0.025230">
        <ele>1112.919</ele>
        <time>2026-07-16T10:20:05.025Z</time>
      </trkpt>
      <trkpt lat="42.784740" lon="0.026420">
        <ele>1116.409</ele>
        <time>2026-07-16T10:20:25.025Z</time>
      </trkpt>
      <trkpt lat="42.784580" lon="0.026480">
        <ele>1120.251</ele>
        <time>2026-07-16T10:20:45.025Z</time>
      </trkpt>
      <trkpt lat="42.784380" lon="0.026140">
        <ele>1121.925</ele>
        <time>2026-07-16T10:21:05.025Z</time>
      </trkpt>
      <trkpt lat="42.784010" lon="0.026010">
        <ele>1130.627</ele>
        <time>2026-07-16T10:21:25.025Z</time>
      </trkpt>
      <trkpt lat="42.783900" lon="0.025300">
        <ele>1132.613</ele>
        <time>2026-07-16T10:21:45.025Z</time>
      </trkpt>
      <trkpt lat="42.783710" lon="0.025250">
        <ele>1139.492</ele>
        <time>2026-07-16T10:22:05.025Z</time>
      </trkpt>
      <trkpt lat="42.783530" lon="0.025980">
        <ele>1144.451</ele>
        <time>2026-07-16T10:22:25.025Z</time>
      </trkpt>
      <trkpt lat="42.783500" lon="0.027290">
        <ele>1147.578</ele>
        <time>2026-07-16T10:22:45.025Z</time>
      </trkpt>
      <trkpt lat="42.783260" lon="0.027520">
        <ele>1146.652</ele>
        <time>2026-07-16T10:23:05.025Z</time>
      </trkpt>
      <trkpt lat="42.782660" lon="0.027370">
        <ele>1154.122</ele>
        <time>2026-07-16T10:23:25.025Z</time>
      </trkpt>
      <trkpt lat="42.781990" lon="0.027830">
        <ele>1163.258</ele>
        <time>2026-07-16T10:23:45.025Z</time>
      </trkpt>
      <trkpt lat="42.781500" lon="0.028380">
        <ele>1167.252</ele>
        <time>2026-07-16T10:24:05.025Z</time>
      </trkpt>
      <trkpt lat="42.778650" lon="0.033570">
        <ele>1196.117</ele>
        <time>2026-07-16T10:24:25.025Z</time>
      </trkpt>
      <trkpt lat="42.777740" lon="0.035710">
        <ele>1213.609</ele>
        <time>2026-07-16T10:24:45.025Z</time>
      </trkpt>
      <trkpt lat="42.777160" lon="0.036300">
        <ele>1217.147</ele>
        <time>2026-07-16T10:25:05.025Z</time>
      </trkpt>
      <trkpt lat="42.776760" lon="0.037080">
        <ele>1214.451</ele>
        <time>2026-07-16T10:25:25.025Z</time>
      </trkpt>
      <trkpt lat="42.775550" lon="0.038270">
        <ele>1227.773</ele>
        <time>2026-07-16T10:25:45.025Z</time>
      </trkpt>
      <trkpt lat="42.774420" lon="0.040530">
        <ele>1245.929</ele>
        <time>2026-07-16T10:26:05.025Z</time>
      </trkpt>
      <trkpt lat="42.773500" lon="0.041450">
        <ele>1261.878</ele>
        <time>2026-07-16T10:26:25.025Z</time>
      </trkpt>
      <trkpt lat="42.773010" lon="0.042220">
        <ele>1263.427</ele>
        <time>2026-07-16T10:26:45.025Z</time>
      </trkpt>
      <trkpt lat="42.770770" lon="0.044340">
        <ele>1285.514</ele>
        <time>2026-07-16T10:27:05.025Z</time>
      </trkpt>
      <trkpt lat="42.770010" lon="0.045650">
        <ele>1286.758</ele>
        <time>2026-07-16T10:27:25.025Z</time>
      </trkpt>
      <trkpt lat="42.770100" lon="0.046380">
        <ele>1281.798</ele>
        <time>2026-07-16T10:27:45.025Z</time>
      </trkpt>
      <trkpt lat="42.769640" lon="0.047100">
        <ele>1290.876</ele>
        <time>2026-07-16T10:28:05.025Z</time>
      </trkpt>
      <trkpt lat="42.769350" lon="0.047390">
        <ele>1298.590</ele>
        <time>2026-07-16T10:28:25.025Z</time>
      </trkpt>
      <trkpt lat="42.766670" lon="0.048960">
        <ele>1315.419</ele>
        <time>2026-07-16T10:28:45.025Z</time>
      </trkpt>
      <trkpt lat="42.766230" lon="0.049430">
        <ele>1325.209</ele>
        <time>2026-07-16T10:29:05.025Z</time>
      </trkpt>
      <trkpt lat="42.765400" lon="0.049550">
        <ele>1322.549</ele>
        <time>2026-07-16T10:29:25.025Z</time>
      </trkpt>
      <trkpt lat="42.764000" lon="0.050960">
        <ele>1330.253</ele>
        <time>2026-07-16T10:29:45.025Z</time>
      </trkpt>
      <trkpt lat="42.763470" lon="0.051990">
        <ele>1334.365</ele>
        <time>2026-07-16T10:30:05.025Z</time>
      </trkpt>
      <trkpt lat="42.761890" lon="0.053140">
        <ele>1341.781</ele>
        <time>2026-07-16T10:30:25.025Z</time>
      </trkpt>
      <trkpt lat="42.759030" lon="0.058260">
        <ele>1383.720</ele>
        <time>2026-07-16T10:30:45.025Z</time>
      </trkpt>
      <trkpt lat="42.757890" lon="0.061040">
        <ele>1416.579</ele>
        <time>2026-07-16T10:31:05.025Z</time>
      </trkpt>
      <trkpt lat="42.757800" lon="0.061740">
        <ele>1424.746</ele>
        <time>2026-07-16T10:31:25.025Z</time>
      </trkpt>
      <trkpt lat="42.757690" lon="0.061880">
        <ele>1427.160</ele>
        <time>2026-07-16T10:31:45.025Z</time>
      </trkpt>
      <trkpt lat="42.757260" lon="0.061920">
        <ele>1427.060</ele>
        <time>2026-07-16T10:32:05.025Z</time>
      </trkpt>
      <trkpt lat="42.757430" lon="0.062610">
        <ele>1437.796</ele>
        <time>2026-07-16T10:32:25.025Z</time>
      </trkpt>
      <trkpt lat="42.757380" lon="0.062980">
        <ele>1443.331</ele>
        <time>2026-07-16T10:32:45.025Z</time>
      </trkpt>
      <trkpt lat="42.756680" lon="0.063660">
        <ele>1451.524</ele>
        <time>2026-07-16T10:33:05.025Z</time>
      </trkpt>
      <trkpt lat="42.756570" lon="0.063960">
        <ele>1452.409</ele>
        <time>2026-07-16T10:33:25.025Z</time>
      </trkpt>
      <trkpt lat="42.756710" lon="0.064740">
        <ele>1458.591</ele>
        <time>2026-07-16T10:33:45.025Z</time>
      </trkpt>
      <trkpt lat="42.756570" lon="0.065270">
        <ele>1456.945</ele>
        <time>2026-07-16T10:34:05.025Z</time>
      </trkpt>
      <trkpt lat="42.756620" lon="0.066570">
        <ele>1461.547</ele>
        <time>2026-07-16T10:34:25.025Z</time>
      </trkpt>
      <trkpt lat="42.756780" lon="0.067490">
        <ele>1463.353</ele>
        <time>2026-07-16T10:34:45.025Z</time>
      </trkpt>
      <trkpt lat="42.756480" lon="0.069390">
        <ele>1465.152</ele>
        <time>2026-07-16T10:35:05.025Z</time>
      </trkpt>
      <trkpt lat="42.756330" lon="0.069820">
        <ele>1466.491</ele>
        <time>2026-07-16T10:35:25.025Z</time>
      </trkpt>
      <trkpt lat="42.755860" lon="0.070220">
        <ele>1465.158</ele>
        <time>2026-07-16T10:35:45.025Z</time>
      </trkpt>
      <trkpt lat="42.755160" lon="0.073010">
        <ele>1471.112</ele>
        <time>2026-07-16T10:36:05.025Z</time>
      </trkpt>
      <trkpt lat="42.754950" lon="0.074910">
        <ele>1474.212</ele>
        <time>2026-07-16T10:36:25.025Z</time>
      </trkpt>
      <trkpt lat="42.754340" lon="0.076180">
        <ele>1479.821</ele>
        <time>2026-07-16T10:36:45.025Z</time>
      </trkpt>
      <trkpt lat="42.753930" lon="0.077440">
        <ele>1480.241</ele>
        <time>2026-07-16T10:37:05.025Z</time>
      </trkpt>
      <trkpt lat="42.753940" lon="0.078440">
        <ele>1482.005</ele>
        <time>2026-07-16T10:37:25.025Z</time>
      </trkpt>
      <trkpt lat="42.753690" lon="0.079830">
        <ele>1486.109</ele>
        <time>2026-07-16T10:37:45.025Z</time>
      </trkpt>
      <trkpt lat="42.752730" lon="0.083060">
        <ele>1496.294</ele>
        <time>2026-07-16T10:38:05.025Z</time>
      </trkpt>
      <trkpt lat="42.751400" lon="0.085670">
        <ele>1503.988</ele>
        <time>2026-07-16T10:38:25.025Z</time>
      </trkpt>
      <trkpt lat="42.750180" lon="0.087560">
        <ele>1519.030</ele>
        <time>2026-07-16T10:38:45.025Z</time>
      </trkpt>
      <trkpt lat="42.749400" lon="0.089570">
        <ele>1521.296</ele>
        <time>2026-07-16T10:39:05.025Z</time>
      </trkpt>
      <trkpt lat="42.749220" lon="0.089710">
        <ele>1521.315</ele>
        <time>2026-07-16T10:39:25.025Z</time>
      </trkpt>
      <trkpt lat="42.748350" lon="0.089720">
        <ele>1530.084</ele>
        <time>2026-07-16T10:39:45.025Z</time>
      </trkpt>
      <trkpt lat="42.747690" lon="0.090020">
        <ele>1539.761</ele>
        <time>2026-07-16T10:40:05.025Z</time>
      </trkpt>
      <trkpt lat="42.747450" lon="0.090330">
        <ele>1544.445</ele>
        <time>2026-07-16T10:40:25.025Z</time>
      </trkpt>
      <trkpt lat="42.747080" lon="0.090210">
        <ele>1551.785</ele>
        <time>2026-07-16T10:40:45.025Z</time>
      </trkpt>
      <trkpt lat="42.746950" lon="0.090510">
        <ele>1554.926</ele>
        <time>2026-07-16T10:41:05.025Z</time>
      </trkpt>
      <trkpt lat="42.747280" lon="0.090290">
        <ele>1547.747</ele>
        <time>2026-07-16T10:41:25.025Z</time>
      </trkpt>
      <trkpt lat="42.747020" lon="0.090280">
        <ele>1553.411</ele>
        <time>2026-07-16T10:41:45.025Z</time>
      </trkpt>
      <trkpt lat="42.746560" lon="0.091190">
        <ele>1562.809</ele>
        <time>2026-07-16T10:42:05.025Z</time>
      </trkpt>
      <trkpt lat="42.746650" lon="0.090370">
        <ele>1564.254</ele>
        <time>2026-07-16T10:42:25.025Z</time>
      </trkpt>
      <trkpt lat="42.746540" lon="0.090260">
        <ele>1568.398</ele>
        <time>2026-07-16T10:42:45.025Z</time>
      </trkpt>
      <trkpt lat="42.745850" lon="0.092020">
        <ele>1584.350</ele>
        <time>2026-07-16T10:43:05.025Z</time>
      </trkpt>
      <trkpt lat="42.745650" lon="0.091450">
        <ele>1597.736</ele>
        <time>2026-07-16T10:43:25.025Z</time>
      </trkpt>
      <trkpt lat="42.745870" lon="0.090660">
        <ele>1596.765</ele>
        <time>2026-07-16T10:43:45.025Z</time>
      </trkpt>
      <trkpt lat="42.745040" lon="0.092060">
        <ele>1604.784</ele>
        <time>2026-07-16T10:44:05.025Z</time>
      </trkpt>
      <trkpt lat="42.744710" lon="0.092120">
        <ele>1610.651</ele>
        <time>2026-07-16T10:44:25.025Z</time>
      </trkpt>
      <trkpt lat="42.744370" lon="0.092460">
        <ele>1613.135</ele>
        <time>2026-07-16T10:44:45.025Z</time>
      </trkpt>
      <trkpt lat="42.743680" lon="0.092590">
        <ele>1623.185</ele>
        <time>2026-07-16T10:45:05.025Z</time>
      </trkpt>
      <trkpt lat="42.743240" lon="0.093030">
        <ele>1624.089</ele>
        <time>2026-07-16T10:45:25.025Z</time>
      </trkpt>
      <trkpt lat="42.742830" lon="0.093040">
        <ele>1622.006</ele>
        <time>2026-07-16T10:45:45.025Z</time>
      </trkpt>
      <trkpt lat="42.742530" lon="0.092830">
        <ele>1622.626</ele>
        <time>2026-07-16T10:46:05.025Z</time>
      </trkpt>
      <trkpt lat="42.742540" lon="0.092460">
        <ele>1631.809</ele>
        <time>2026-07-16T10:46:25.025Z</time>
      </trkpt>
      <trkpt lat="42.744020" lon="0.091030">
        <ele>1649.820</ele>
        <time>2026-07-16T10:46:45.025Z</time>
      </trkpt>
      <trkpt lat="42.744970" lon="0.089540">
        <ele>1664.174</ele>
        <time>2026-07-16T10:47:05.025Z</time>
      </trkpt>
      <trkpt lat="42.744760" lon="0.089570">
        <ele>1669.376</ele>
        <time>2026-07-16T10:47:25.025Z</time>
      </trkpt>
      <trkpt lat="42.743940" lon="0.090230">
        <ele>1674.472</ele>
        <time>2026-07-16T10:47:45.025Z</time>
      </trkpt>
      <trkpt lat="42.742180" lon="0.091000">
        <ele>1688.391</ele>
        <time>2026-07-16T10:48:05.025Z</time>
      </trkpt>
      <trkpt lat="42.742040" lon="0.090950">
        <ele>1688.670</ele>
        <time>2026-07-16T10:48:25.025Z</time>
      </trkpt>
      <trkpt lat="42.742020" lon="0.090840">
        <ele>1692.837</ele>
        <time>2026-07-16T10:48:45.025Z</time>
      </trkpt>
      <trkpt lat="42.742550" lon="0.090520">
        <ele>1702.141</ele>
        <time>2026-07-16T10:49:05.025Z</time>
      </trkpt>
      <trkpt lat="42.743320" lon="0.089670">
        <ele>1712.731</ele>
        <time>2026-07-16T10:49:25.025Z</time>
      </trkpt>
      <trkpt lat="42.744100" lon="0.088660">
        <ele>1718.618</ele>
        <time>2026-07-16T10:49:45.025Z</time>
      </trkpt>
      <trkpt lat="42.743340" lon="0.088960">
        <ele>1726.698</ele>
        <time>2026-07-16T10:50:05.025Z</time>
      </trkpt>
      <trkpt lat="42.742900" lon="0.089400">
        <ele>1730.217</ele>
        <time>2026-07-16T10:50:25.025Z</time>
      </trkpt>
      <trkpt lat="42.743000" lon="0.088620">
        <ele>1736.509</ele>
        <time>2026-07-16T10:50:45.025Z</time>
      </trkpt>
      <trkpt lat="42.742630" lon="0.088280">
        <ele>1749.273</ele>
        <time>2026-07-16T10:51:05.025Z</time>
      </trkpt>
      <trkpt lat="42.742210" lon="0.089130">
        <ele>1745.697</ele>
        <time>2026-07-16T10:51:25.025Z</time>
      </trkpt>
      <trkpt lat="42.741910" lon="0.089290">
        <ele>1743.989</ele>
        <time>2026-07-16T10:51:45.025Z</time>
      </trkpt>
      <trkpt lat="42.741640" lon="0.089140">
        <ele>1745.455</ele>
        <time>2026-07-16T10:52:05.025Z</time>
      </trkpt>
      <trkpt lat="42.742560" lon="0.087340">
        <ele>1768.134</ele>
        <time>2026-07-16T10:52:25.025Z</time>
      </trkpt>
      <trkpt lat="42.742650" lon="0.086750">
        <ele>1773.873</ele>
        <time>2026-07-16T10:52:45.025Z</time>
      </trkpt>
      <trkpt lat="42.742560" lon="0.086180">
        <ele>1780.240</ele>
        <time>2026-07-16T10:53:05.025Z</time>
      </trkpt>
      <trkpt lat="42.742720" lon="0.085730">
        <ele>1778.934</ele>
        <time>2026-07-16T10:53:25.025Z</time>
      </trkpt>
      <trkpt lat="42.742170" lon="0.086130">
        <ele>1787.054</ele>
        <time>2026-07-16T10:53:45.025Z</time>
      </trkpt>
      <trkpt lat="42.742070" lon="0.086040">
        <ele>1789.793</ele>
        <time>2026-07-16T10:54:05.025Z</time>
      </trkpt>
      <trkpt lat="42.742300" lon="0.085660">
        <ele>1787.265</ele>
        <time>2026-07-16T10:54:25.025Z</time>
      </trkpt>
      <trkpt lat="42.742310" lon="0.085030">
        <ele>1792.121</ele>
        <time>2026-07-16T10:54:45.025Z</time>
      </trkpt>
      <trkpt lat="42.741880" lon="0.085490">
        <ele>1796.609</ele>
        <time>2026-07-16T10:55:05.025Z</time>
      </trkpt>
      <trkpt lat="42.741270" lon="0.085580">
        <ele>1802.951</ele>
        <time>2026-07-16T10:55:25.025Z</time>
      </trkpt>
      <trkpt lat="42.741220" lon="0.085320">
        <ele>1808.385</ele>
        <time>2026-07-16T10:55:45.025Z</time>
      </trkpt>
      <trkpt lat="42.741580" lon="0.084940">
        <ele>1809.827</ele>
        <time>2026-07-16T10:56:05.025Z</time>
      </trkpt>
      <trkpt lat="42.741430" lon="0.084780">
        <ele>1815.373</ele>
        <time>2026-07-16T10:56:25.025Z</time>
      </trkpt>
      <trkpt lat="42.740590" lon="0.085580">
        <ele>1815.322</ele>
        <time>2026-07-16T10:56:45.025Z</time>
      </trkpt>
      <trkpt lat="42.740260" lon="0.085480">
        <ele>1816.871</ele>
        <time>2026-07-16T10:57:05.025Z</time>
      </trkpt>
      <trkpt lat="42.740000" lon="0.085570">
        <ele>1818.938</ele>
        <time>2026-07-16T10:57:25.025Z</time>
      </trkpt>
      <trkpt lat="42.739280" lon="0.086840">
        <ele>1818.112</ele>
        <time>2026-07-16T10:57:45.025Z</time>
      </trkpt>
      <trkpt lat="42.738750" lon="0.086570">
        <ele>1821.632</ele>
        <time>2026-07-16T10:58:05.025Z</time>
      </trkpt>
      <trkpt lat="42.738620" lon="0.085810">
        <ele>1825.231</ele>
        <time>2026-07-16T10:58:25.025Z</time>
      </trkpt>
      <trkpt lat="42.738210" lon="0.085280">
        <ele>1825.461</ele>
        <time>2026-07-16T10:58:45.025Z</time>
      </trkpt>
      <trkpt lat="42.737730" lon="0.085360">
        <ele>1830.807</ele>
        <time>2026-07-16T10:59:05.025Z</time>
      </trkpt>
      <trkpt lat="42.736960" lon="0.086220">
        <ele>1825.809</ele>
        <time>2026-07-16T10:59:25.025Z</time>
      </trkpt>
      <trkpt lat="42.735620" lon="0.086620">
        <ele>1820.565</ele>
        <time>2026-07-16T10:59:45.025Z</time>
      </trkpt>
      <trkpt lat="42.735560" lon="0.086820">
        <ele>1819.419</ele>
        <time>2026-07-16T11:00:05.025Z</time>
      </trkpt>
      <trkpt lat="42.735800" lon="0.087570">
        <ele>1816.081</ele>
        <time>2026-07-16T11:00:25.026Z</time>
      </trkpt>
      <trkpt lat="42.735350" lon="0.088300">
        <ele>1818.367</ele>
        <time>2026-07-16T11:00:45.026Z</time>
      </trkpt>
      <trkpt lat="42.734960" lon="0.088360">
        <ele>1821.286</ele>
        <time>2026-07-16T11:01:05.026Z</time>
      </trkpt>
      <trkpt lat="42.734520" lon="0.088640">
        <ele>1822.945</ele>
        <time>2026-07-16T11:01:25.026Z</time>
      </trkpt>
      <trkpt lat="42.734360" lon="0.089220">
        <ele>1832.672</ele>
        <time>2026-07-16T11:01:45.026Z</time>
      </trkpt>
      <trkpt lat="42.734190" lon="0.089160">
        <ele>1837.066</ele>
        <time>2026-07-16T11:02:05.026Z</time>
      </trkpt>
      <trkpt lat="42.733950" lon="0.088740">
        <ele>1838.686</ele>
        <time>2026-07-16T11:02:25.026Z</time>
      </trkpt>
      <trkpt lat="42.733830" lon="0.088760">
        <ele>1843.757</ele>
        <time>2026-07-16T11:02:45.026Z</time>
      </trkpt>
      <trkpt lat="42.734100" lon="0.089450">
        <ele>1851.400</ele>
        <time>2026-07-16T11:03:05.026Z</time>
      </trkpt>
      <trkpt lat="42.734430" lon="0.089830">
        <ele>1853.720</ele>
        <time>2026-07-16T11:03:25.026Z</time>
      </trkpt>
      <trkpt lat="42.734370" lon="0.089930">
        <ele>1863.209</ele>
        <time>2026-07-16T11:03:45.026Z</time>
      </trkpt>
      <trkpt lat="42.733160" lon="0.088650">
        <ele>1873.537</ele>
        <time>2026-07-16T11:04:05.026Z</time>
      </trkpt>
      <trkpt lat="42.732300" lon="0.087960">
        <ele>1882.571</ele>
        <time>2026-07-16T11:04:25.026Z</time>
      </trkpt>
      <trkpt lat="42.731750" lon="0.087750">
        <ele>1889.063</ele>
        <time>2026-07-16T11:04:45.026Z</time>
      </trkpt>
      <trkpt lat="42.731400" lon="0.087200">
        <ele>1890.169</ele>
        <time>2026-07-16T11:05:05.026Z</time>
      </trkpt>
      <trkpt lat="42.730750" lon="0.087000">
        <ele>1896.588</ele>
        <time>2026-07-16T11:05:25.026Z</time>
      </trkpt>
      <trkpt lat="42.730820" lon="0.087360">
        <ele>1901.877</ele>
        <time>2026-07-16T11:05:45.026Z</time>
      </trkpt>
      <trkpt lat="42.730610" lon="0.087400">
        <ele>1907.914</ele>
        <time>2026-07-16T11:06:05.026Z</time>
      </trkpt>
      <trkpt lat="42.730180" lon="0.087200">
        <ele>1916.058</ele>
        <time>2026-07-16T11:06:25.026Z</time>
      </trkpt>
      <trkpt lat="42.730020" lon="0.086650">
        <ele>1910.538</ele>
        <time>2026-07-16T11:06:45.026Z</time>
      </trkpt>
      <trkpt lat="42.729510" lon="0.086540">
        <ele>1914.841</ele>
        <time>2026-07-16T11:07:05.026Z</time>
      </trkpt>
      <trkpt lat="42.729460" lon="0.086720">
        <ele>1918.981</ele>
        <time>2026-07-16T11:07:25.026Z</time>
      </trkpt>
      <trkpt lat="42.729840" lon="0.087460">
        <ele>1931.209</ele>
        <time>2026-07-16T11:07:45.026Z</time>
      </trkpt>
      <trkpt lat="42.729490" lon="0.087350">
        <ele>1932.009</ele>
        <time>2026-07-16T11:08:05.026Z</time>
      </trkpt>
      <trkpt lat="42.729120" lon="0.086960">
        <ele>1933.266</ele>
        <time>2026-07-16T11:08:25.026Z</time>
      </trkpt>
      <trkpt lat="42.728920" lon="0.087040">
        <ele>1939.270</ele>
        <time>2026-07-16T11:08:45.026Z</time>
      </trkpt>
      <trkpt lat="42.729300" lon="0.087720">
        <ele>1944.492</ele>
        <time>2026-07-16T11:09:05.026Z</time>
      </trkpt>
      <trkpt lat="42.729870" lon="0.088090">
        <ele>1950.588</ele>
        <time>2026-07-16T11:09:25.026Z</time>
      </trkpt>
      <trkpt lat="42.729860" lon="0.088220">
        <ele>1954.277</ele>
        <time>2026-07-16T11:09:45.026Z</time>
      </trkpt>
      <trkpt lat="42.729120" lon="0.088310">
        <ele>1962.986</ele>
        <time>2026-07-16T11:10:05.026Z</time>
      </trkpt>
      <trkpt lat="42.728730" lon="0.088070">
        <ele>1965.893</ele>
        <time>2026-07-16T11:10:25.026Z</time>
      </trkpt>
      <trkpt lat="42.728720" lon="0.088240">
        <ele>1968.827</ele>
        <time>2026-07-16T11:10:45.026Z</time>
      </trkpt>
      <trkpt lat="42.728920" lon="0.088510">
        <ele>1969.187</ele>
        <time>2026-07-16T11:11:05.026Z</time>
      </trkpt>
      <trkpt lat="42.729480" lon="0.088690">
        <ele>1977.335</ele>
        <time>2026-07-16T11:11:25.026Z</time>
      </trkpt>
      <trkpt lat="42.730590" lon="0.088650">
        <ele>1987.586</ele>
        <time>2026-07-16T11:11:45.026Z</time>
      </trkpt>
      <trkpt lat="42.731000" lon="0.088770">
        <ele>2004.014</ele>
        <time>2026-07-16T11:12:05.026Z</time>
      </trkpt>
      <trkpt lat="42.729650" lon="0.089520">
        <ele>2005.609</ele>
        <time>2026-07-16T11:12:25.026Z</time>
      </trkpt>
      <trkpt lat="42.729640" lon="0.089680">
        <ele>2011.115</ele>
        <time>2026-07-16T11:12:45.026Z</time>
      </trkpt>
      <trkpt lat="42.730970" lon="0.089350">
        <ele>2026.469</ele>
        <time>2026-07-16T11:13:05.026Z</time>
      </trkpt>
      <trkpt lat="42.731030" lon="0.089480">
        <ele>2030.481</ele>
        <time>2026-07-16T11:13:25.026Z</time>
      </trkpt>
      <trkpt lat="42.729660" lon="0.090620">
        <ele>2033.667</ele>
        <time>2026-07-16T11:13:45.026Z</time>
      </trkpt>
      <trkpt lat="42.729570" lon="0.091380">
        <ele>2045.876</ele>
        <time>2026-07-16T11:14:05.026Z</time>
      </trkpt>
      <trkpt lat="42.729080" lon="0.091130">
        <ele>2060.835</ele>
        <time>2026-07-16T11:14:25.026Z</time>
      </trkpt>
      <trkpt lat="42.729180" lon="0.091770">
        <ele>2061.922</ele>
        <time>2026-07-16T11:14:45.026Z</time>
      </trkpt>
      <trkpt lat="42.728740" lon="0.093460">
        <ele>2079.376</ele>
        <time>2026-07-16T11:15:05.026Z</time>
      </trkpt>
      <trkpt lat="42.727920" lon="0.095280">
        <ele>2090.986</ele>
        <time>2026-07-16T11:15:25.026Z</time>
      </trkpt>
      <trkpt lat="42.728000" lon="0.095580">
        <ele>2087.751</ele>
        <time>2026-07-16T11:15:45.026Z</time>
      </trkpt>
    </trkseg>
  </trk></gpx>