<?xml version="1.0" encoding="UTF-8"?>
<gpx creator="Wikiloc - https://www.wikiloc.com" version="1.1" xmlns="http://www.topografix.com/GPX/1/1" xmlns:xsi="http://www.w3.org/2001/XMLSchema-instance" xsi:schemaLocation="http://www.topografix.com/GPX/1/1 http://www.topografix.com/GPX/1/1/gpx.xsd">
  <metadata>
    <name>Wikiloc - COL D'ASPIN (por Sante Marie de Campan)</name>
    <link href="https://www.wikiloc.com/cycling-trails/col-daspin-por-sante-marie-de-campan-273033445">
      <text>COL D'ASPIN (por Sante Marie de Campan) - Wikiloc on Wikiloc</text>
    </link>
    <time>2026-07-16T10:54:34.195Z</time>
  </metadata>
  <trk>
    <name>COL D'ASPIN (por Sante Marie de Campan) - Wikiloc</name>
    <cmt></cmt>
    <desc></desc>
    <trkseg>
      <trkpt lat="42.982370" lon="0.228930">
        <ele>848.197</ele>
        <time>2026-07-16T10:54:34.194Z</time>
      </trkpt>
      <trkpt lat="42.982600" lon="0.229040">
        <ele>848.123</ele>
        <time>2026-07-16T10:54:54.194Z</time>
      </trkpt>
      <trkpt lat="42.982720" lon="0.229130">
        <ele>848.725</ele>
        <time>2026-07-16T10:55:14.194Z</time>
      </trkpt>
      <trkpt lat="42.983160" lon="0.229650">
        <ele>851.509</ele>
        <time>2026-07-16T10:55:34.194Z</time>
      </trkpt>
      <trkpt lat="42.983220" lon="0.229750">
        <ele>852.171</ele>
        <time>2026-07-16T10:55:54.194Z</time>
      </trkpt>
      <trkpt lat="42.983270" lon="0.229930">
        <ele>853.156</ele>
        <time>2026-07-16T10:56:14.194Z</time>
      </trkpt>
      <trkpt lat="42.983360" lon="0.230490">
        <ele>856.212</ele>
        <time>2026-07-16T10:56:34.194Z</time>
      </trkpt>
      <trkpt lat="42.983510" lon="0.231090">
        <ele>860.659</ele>
        <time>2026-07-16T10:56:54.194Z</time>
      </trkpt>
      <trkpt lat="42.983610" lon="0.231360">
        <ele>860.862</ele>
        <time>2026-07-16T10:57:14.194Z</time>
      </trkpt>
      <trkpt lat="42.983830" lon="0.232120">
        <ele>862.152</ele>
        <time>2026-07-16T10:57:34.194Z</time>
      </trkpt>
      <trkpt lat="42.983830" lon="0.232380">
        <ele>863.573</ele>
        <time>2026-07-16T10:57:54.194Z</time>
      </trkpt>
      <trkpt lat="42.983790" lon="0.232510">
        <ele>864.853</ele>
        <time>2026-07-16T10:58:14.194Z</time>
      </trkpt>
      <trkpt lat="42.983640" lon="0.232890">
        <ele>868.914</ele>
        <time>2026-07-16T10:58:34.194Z</time>
      </trkpt>
      <trkpt lat="42.983490" lon="0.233200">
        <ele>870.977</ele>
        <time>2026-07-16T10:58:54.194Z</time>
      </trkpt>
      <trkpt lat="42.983360" lon="0.233400">
        <ele>872.361</ele>
        <time>2026-07-16T10:59:14.194Z</time>
      </trkpt>
      <trkpt lat="42.983230" lon="0.233530">
        <ele>873.827</ele>
        <time>2026-07-16T10:59:34.194Z</time>
      </trkpt>
      <trkpt lat="42.982940" lon="0.233750">
        <ele>876.209</ele>
        <time>2026-07-16T10:59:54.194Z</time>
      </trkpt>
      <trkpt lat="42.982840" lon="0.233850">
        <ele>876.669</ele>
        <time>2026-07-16T11:00:14.194Z</time>
      </trkpt>
      <trkpt lat="42.982750" lon="0.233970">
        <ele>876.924</ele>
        <time>2026-07-16T11:00:34.194Z</time>
      </trkpt>
      <trkpt lat="42.982650" lon="0.234190">
        <ele>877.210</ele>
        <time>2026-07-16T11:00:54.194Z</time>
      </trkpt>
      <trkpt lat="42.982420" lon="0.234940">
        <ele>877.727</ele>
        <time>2026-07-16T11:01:14.194Z</time>
      </trkpt>
      <trkpt lat="42.982300" lon="0.235580">
        <ele>878.620</ele>
        <time>2026-07-16T11:01:34.194Z</time>
      </trkpt>
      <trkpt lat="42.982190" lon="0.235860">
        <ele>879.780</ele>
        <time>2026-07-16T11:01:54.194Z</time>
      </trkpt>
      <trkpt lat="42.981890" lon="0.236360">
        <ele>884.591</ele>
        <time>2026-07-16T11:02:14.194Z</time>
      </trkpt>
      <trkpt lat="42.980160" lon="0.238360">
        <ele>892.531</ele>
        <time>2026-07-16T11:02:34.194Z</time>
      </trkpt>
      <trkpt lat="42.979440" lon="0.239460">
        <ele>898.582</ele>
        <time>2026-07-16T11:02:54.194Z</time>
      </trkpt>
      <trkpt lat="42.979320" lon="0.239570">
        <ele>897.279</ele>
        <time>2026-07-16T11:03:14.194Z</time>
      </trkpt>
      <trkpt lat="42.978830" lon="0.239820">
        <ele>898.805</ele>
        <time>2026-07-16T11:03:34.194Z</time>
      </trkpt>
      <trkpt lat="42.978630" lon="0.239940">
        <ele>898.025</ele>
        <time>2026-07-16T11:03:54.194Z</time>
      </trkpt>
      <trkpt lat="42.978500" lon="0.240090">
        <ele>896.909</ele>
        <time>2026-07-16T11:04:14.194Z</time>
      </trkpt>
      <trkpt lat="42.978400" lon="0.240240">
        <ele>895.169</ele>
        <time>2026-07-16T11:04:34.194Z</time>
      </trkpt>
      <trkpt lat="42.978340" lon="0.240380">
        <ele>893.634</ele>
        <time>2026-07-16T11:04:54.194Z</time>
      </trkpt>
      <trkpt lat="42.977710" lon="0.242060">
        <ele>894.590</ele>
        <time>2026-07-16T11:05:14.194Z</time>
      </trkpt>
      <trkpt lat="42.977510" lon="0.242360">
        <ele>892.997</ele>
        <time>2026-07-16T11:05:34.194Z</time>
      </trkpt>
      <trkpt lat="42.977370" lon="0.242450">
        <ele>893.150</ele>
        <time>2026-07-16T11:05:54.194Z</time>
      </trkpt>
      <trkpt lat="42.977170" lon="0.242540">
        <ele>894.040</ele>
        <time>2026-07-16T11:06:14.194Z</time>
      </trkpt>
      <trkpt lat="42.976770" lon="0.242680">
        <ele>896.541</ele>
        <time>2026-07-16T11:06:34.194Z</time>
      </trkpt>
      <trkpt lat="42.976440" lon="0.242760">
        <ele>898.051</ele>
        <time>2026-07-16T11:06:54.194Z</time>
      </trkpt>
      <trkpt lat="42.975880" lon="0.242850">
        <ele>901.542</ele>
        <time>2026-07-16T11:07:14.194Z</time>
      </trkpt>
      <trkpt lat="42.975590" lon="0.242950">
        <ele>904.714</ele>
        <time>2026-07-16T11:07:34.194Z</time>
      </trkpt>
      <trkpt lat="42.975310" lon="0.243090">
        <ele>903.354</ele>
        <time>2026-07-16T11:07:54.194Z</time>
      </trkpt>
      <trkpt lat="42.975160" lon="0.243140">
        <ele>903.609</ele>
        <time>2026-07-16T11:08:14.194Z</time>
      </trkpt>
      <trkpt lat="42.974910" lon="0.243190">
        <ele>905.209</ele>
        <time>2026-07-16T11:08:34.194Z</time>
      </trkpt>
      <trkpt lat="42.974150" lon="0.243180">
        <ele>910.023</ele>
        <time>2026-07-16T11:08:54.194Z</time>
      </trkpt>
      <trkpt lat="42.973850" lon="0.243230">
        <ele>910.078</ele>
        <time>2026-07-16T11:09:14.194Z</time>
      </trkpt>
      <trkpt lat="42.973470" lon="0.243330">
        <ele>910.064</ele>
        <time>2026-07-16T11:09:34.194Z</time>
      </trkpt>
      <trkpt lat="42.972750" lon="0.243590">
        <ele>911.061</ele>
        <time>2026-07-16T11:09:54.194Z</time>
      </trkpt>
      <trkpt lat="42.972330" lon="0.243710">
        <ele>915.824</ele>
        <time>2026-07-16T11:10:14.194Z</time>
      </trkpt>
      <trkpt lat="42.971800" lon="0.243980">
        <ele>915.484</ele>
        <time>2026-07-16T11:10:34.194Z</time>
      </trkpt>
      <trkpt lat="42.971690" lon="0.244020">
        <ele>915.935</ele>
        <time>2026-07-16T11:10:54.194Z</time>
      </trkpt>
      <trkpt lat="42.970340" lon="0.244120">
        <ele>925.915</ele>
        <time>2026-07-16T11:11:14.194Z</time>
      </trkpt>
      <trkpt lat="42.969890" lon="0.244200">
        <ele>926.366</ele>
        <time>2026-07-16T11:11:34.194Z</time>
      </trkpt>
      <trkpt lat="42.969150" lon="0.244210">
        <ele>932.554</ele>
        <time>2026-07-16T11:11:54.194Z</time>
      </trkpt>
      <trkpt lat="42.968850" lon="0.244300">
        <ele>933.756</ele>
        <time>2026-07-16T11:12:14.194Z</time>
      </trkpt>
      <trkpt lat="42.967760" lon="0.244820">
        <ele>938.111</ele>
        <time>2026-07-16T11:12:34.194Z</time>
      </trkpt>
      <trkpt lat="42.967520" lon="0.244910">
        <ele>939.409</ele>
        <time>2026-07-16T11:12:54.194Z</time>
      </trkpt>
      <trkpt lat="42.967110" lon="0.244980">
        <ele>941.787</ele>
        <time>2026-07-16T11:13:14.194Z</time>
      </trkpt>
      <trkpt lat="42.966360" lon="0.245050">
        <ele>941.022</ele>
        <time>2026-07-16T11:13:34.194Z</time>
      </trkpt>
      <trkpt lat="42.966140" lon="0.245110">
        <ele>943.128</ele>
        <time>2026-07-16T11:13:54.194Z</time>
      </trkpt>
      <trkpt lat="42.965380" lon="0.245660">
        <ele>948.135</ele>
        <time>2026-07-16T11:14:14.194Z</time>
      </trkpt>
      <trkpt lat="42.964820" lon="0.246150">
        <ele>948.658</ele>
        <time>2026-07-16T11:14:34.194Z</time>
      </trkpt>
      <trkpt lat="42.964130" lon="0.246990">
        <ele>951.258</ele>
        <time>2026-07-16T11:14:54.194Z</time>
      </trkpt>
      <trkpt lat="42.963840" lon="0.247620">
        <ele>952.019</ele>
        <time>2026-07-16T11:15:14.194Z</time>
      </trkpt>
      <trkpt lat="42.963580" lon="0.248080">
        <ele>953.159</ele>
        <time>2026-07-16T11:15:34.194Z</time>
      </trkpt>
      <trkpt lat="42.963380" lon="0.248570">
        <ele>952.810</ele>
        <time>2026-07-16T11:15:54.194Z</time>
      </trkpt>
      <trkpt lat="42.963200" lon="0.248870">
        <ele>954.547</ele>
        <time>2026-07-16T11:16:14.194Z</time>
      </trkpt>
      <trkpt lat="42.962910" lon="0.249410">
        <ele>956.229</ele>
        <time>2026-07-16T11:16:34.194Z</time>
      </trkpt>
      <trkpt lat="42.962610" lon="0.250120">
        <ele>958.421</ele>
        <time>2026-07-16T11:16:54.194Z</time>
      </trkpt>
      <trkpt lat="42.961900" lon="0.251330">
        <ele>964.709</ele>
        <time>2026-07-16T11:17:14.194Z</time>
      </trkpt>
      <trkpt lat="42.961760" lon="0.251530">
        <ele>965.556</ele>
        <time>2026-07-16T11:17:34.194Z</time>
      </trkpt>
      <trkpt lat="42.960790" lon="0.252770">
        <ele>974.711</ele>
        <time>2026-07-16T11:17:54.194Z</time>
      </trkpt>
      <trkpt lat="42.960390" lon="0.253320">
        <ele>976.567</ele>
        <time>2026-07-16T11:18:14.194Z</time>
      </trkpt>
      <trkpt lat="42.960020" lon="0.253880">
        <ele>977.954</ele>
        <time>2026-07-16T11:18:34.194Z</time>
      </trkpt>
      <trkpt lat="42.959340" lon="0.254640">
        <ele>982.287</ele>
        <time>2026-07-16T11:18:54.194Z</time>
      </trkpt>
      <trkpt lat="42.958850" lon="0.255040">
        <ele>985.937</ele>
        <time>2026-07-16T11:19:14.194Z</time>
      </trkpt>
      <trkpt lat="42.957960" lon="0.255980">
        <ele>988.678</ele>
        <time>2026-07-16T11:19:34.194Z</time>
      </trkpt>
      <trkpt lat="42.957560" lon="0.256490">
        <ele>989.298</ele>
        <time>2026-07-16T11:19:54.194Z</time>
      </trkpt>
      <trkpt lat="42.957300" lon="0.256800">
        <ele>990.369</ele>
        <time>2026-07-16T11:20:14.194Z</time>
      </trkpt>
      <trkpt lat="42.956740" lon="0.257370">
        <ele>994.431</ele>
        <time>2026-07-16T11:20:34.194Z</time>
      </trkpt>
      <trkpt lat="42.956370" lon="0.257720">
        <ele>995.661</ele>
        <time>2026-07-16T11:20:54.194Z</time>
      </trkpt>
      <trkpt lat="42.956100" lon="0.258050">
        <ele>995.207</ele>
        <time>2026-07-16T11:21:14.194Z</time>
      </trkpt>
      <trkpt lat="42.955970" lon="0.258270">
        <ele>995.009</ele>
        <time>2026-07-16T11:21:34.194Z</time>
      </trkpt>
      <trkpt lat="42.955810" lon="0.258650">
        <ele>997.385</ele>
        <time>2026-07-16T11:21:54.194Z</time>
      </trkpt>
      <trkpt lat="42.955620" lon="0.259220">
        <ele>998.870</ele>
        <time>2026-07-16T11:22:14.194Z</time>
      </trkpt>
      <trkpt lat="42.955530" lon="0.259400">
        <ele>999.026</ele>
        <time>2026-07-16T11:22:34.194Z</time>
      </trkpt>
      <trkpt lat="42.955450" lon="0.259500">
        <ele>999.063</ele>
        <time>2026-07-16T11:22:54.194Z</time>
      </trkpt>
      <trkpt lat="42.955300" lon="0.259590">
        <ele>999.086</ele>
        <time>2026-07-16T11:23:14.194Z</time>
      </trkpt>
      <trkpt lat="42.955110" lon="0.259710">
        <ele>999.036</ele>
        <time>2026-07-16T11:23:34.194Z</time>
      </trkpt>
      <trkpt lat="42.954440" lon="0.259970">
        <ele>1003.177</ele>
        <time>2026-07-16T11:23:54.194Z</time>
      </trkpt>
      <trkpt lat="42.953910" lon="0.260250">
        <ele>1007.977</ele>
        <time>2026-07-16T11:24:14.194Z</time>
      </trkpt>
      <trkpt lat="42.953660" lon="0.260440">
        <ele>1010.068</ele>
        <time>2026-07-16T11:24:34.194Z</time>
      </trkpt>
      <trkpt lat="42.953460" lon="0.260780">
        <ele>1012.389</ele>
        <time>2026-07-16T11:24:54.194Z</time>
      </trkpt>
      <trkpt lat="42.952910" lon="0.261820">
        <ele>1014.006</ele>
        <time>2026-07-16T11:25:14.194Z</time>
      </trkpt>
      <trkpt lat="42.952520" lon="0.262730">
        <ele>1022.626</ele>
        <time>2026-07-16T11:25:34.194Z</time>
      </trkpt>
      <trkpt lat="42.952370" lon="0.263160">
        <ele>1026.109</ele>
        <time>2026-07-16T11:25:54.194Z</time>
      </trkpt>
      <trkpt lat="42.952110" lon="0.264070">
        <ele>1031.530</ele>
        <time>2026-07-16T11:26:14.194Z</time>
      </trkpt>
      <trkpt lat="42.952050" lon="0.264210">
        <ele>1032.595</ele>
        <time>2026-07-16T11:26:34.194Z</time>
      </trkpt>
      <trkpt lat="42.951920" lon="0.264380">
        <ele>1033.761</ele>
        <time>2026-07-16T11:26:54.194Z</time>
      </trkpt>
      <trkpt lat="42.951620" lon="0.264720">
        <ele>1037.458</ele>
        <time>2026-07-16T11:27:14.194Z</time>
      </trkpt>
      <trkpt lat="42.951540" lon="0.264900">
        <ele>1039.481</ele>
        <time>2026-07-16T11:27:34.194Z</time>
      </trkpt>
      <trkpt lat="42.951440" lon="0.265170">
        <ele>1042.421</ele>
        <time>2026-07-16T11:27:54.194Z</time>
      </trkpt>
      <trkpt lat="42.951400" lon="0.265360">
        <ele>1043.262</ele>
        <time>2026-07-16T11:28:14.194Z</time>
      </trkpt>
      <trkpt lat="42.951370" lon="0.266080">
        <ele>1041.992</ele>
        <time>2026-07-16T11:28:34.194Z</time>
      </trkpt>
      <trkpt lat="42.951340" lon="0.266270">
        <ele>1041.793</ele>
        <time>2026-07-16T11:28:54.194Z</time>
      </trkpt>
      <trkpt lat="42.951260" lon="0.266530">
        <ele>1042.041</ele>
        <time>2026-07-16T11:29:14.194Z</time>
      </trkpt>
      <trkpt lat="42.951180" lon="0.266700">
        <ele>1041.281</ele>
        <time>2026-07-16T11:29:34.194Z</time>
      </trkpt>
      <trkpt lat="42.951080" lon="0.266800">
        <ele>1041.709</ele>
        <time>2026-07-16T11:29:54.194Z</time>
      </trkpt>
      <trkpt lat="42.950690" lon="0.267080">
        <ele>1045.409</ele>
        <time>2026-07-16T11:30:14.194Z</time>
      </trkpt>
      <trkpt lat="42.950230" lon="0.267560">
        <ele>1052.016</ele>
        <time>2026-07-16T11:30:34.194Z</time>
      </trkpt>
      <trkpt lat="42.949950" lon="0.267730">
        <ele>1056.661</ele>
        <time>2026-07-16T11:30:54.194Z</time>
      </trkpt>
      <trkpt lat="42.949840" lon="0.267900">
        <ele>1058.337</ele>
        <time>2026-07-16T11:31:14.194Z</time>
      </trkpt>
      <trkpt lat="42.949780" lon="0.268110">
        <ele>1059.344</ele>
        <time>2026-07-16T11:31:34.194Z</time>
      </trkpt>
      <trkpt lat="42.949770" lon="0.268270">
        <ele>1061.387</ele>
        <time>2026-07-16T11:31:54.194Z</time>
      </trkpt>
      <trkpt lat="42.949840" lon="0.268700">
        <ele>1061.897</ele>
        <time>2026-07-16T11:32:14.194Z</time>
      </trkpt>
      <trkpt lat="42.949840" lon="0.268880">
        <ele>1062.728</ele>
        <time>2026-07-16T11:32:34.194Z</time>
      </trkpt>
      <trkpt lat="42.949790" lon="0.269040">
        <ele>1064.838</ele>
        <time>2026-07-16T11:32:54.194Z</time>
      </trkpt>
      <trkpt lat="42.949480" lon="0.269680">
        <ele>1067.389</ele>
        <time>2026-07-16T11:33:14.194Z</time>
      </trkpt>
      <trkpt lat="42.949150" lon="0.270260">
        <ele>1069.452</ele>
        <time>2026-07-16T11:33:34.194Z</time>
      </trkpt>
      <trkpt lat="42.948980" lon="0.270450">
        <ele>1069.853</ele>
        <time>2026-07-16T11:33:54.194Z</time>
      </trkpt>
      <trkpt lat="42.948880" lon="0.270510">
        <ele>1070.608</ele>
        <time>2026-07-16T11:34:14.194Z</time>
      </trkpt>
      <trkpt lat="42.948730" lon="0.270550">
        <ele>1071.309</ele>
        <time>2026-07-16T11:34:34.194Z</time>
      </trkpt>
      <trkpt lat="42.948180" lon="0.270580">
        <ele>1073.247</ele>
        <time>2026-07-16T11:34:54.194Z</time>
      </trkpt>
      <trkpt lat="42.948020" lon="0.270610">
        <ele>1073.652</ele>
        <time>2026-07-16T11:35:14.194Z</time>
      </trkpt>
      <trkpt lat="42.947670" lon="0.270720">
        <ele>1074.578</ele>
        <time>2026-07-16T11:35:34.194Z</time>
      </trkpt>
      <trkpt lat="42.947310" lon="0.270900">
        <ele>1073.715</ele>
        <time>2026-07-16T11:35:54.194Z</time>
      </trkpt>
      <trkpt lat="42.946890" lon="0.271200">
        <ele>1073.988</ele>
        <time>2026-07-16T11:36:14.194Z</time>
      </trkpt>
      <trkpt lat="42.946370" lon="0.271700">
        <ele>1074.018</ele>
        <time>2026-07-16T11:36:34.194Z</time>
      </trkpt>
      <trkpt lat="42.946150" lon="0.271890">
        <ele>1074.989</ele>
        <time>2026-07-16T11:36:54.194Z</time>
      </trkpt>
      <trkpt lat="42.945880" lon="0.272080">
        <ele>1079.389</ele>
        <time>2026-07-16T11:37:14.194Z</time>
      </trkpt>
      <trkpt lat="42.945780" lon="0.272180">
        <ele>1080.710</ele>
        <time>2026-07-16T11:37:34.194Z</time>
      </trkpt>
      <trkpt lat="42.945580" lon="0.272510">
        <ele>1082.579</ele>
        <time>2026-07-16T11:37:54.194Z</time>
      </trkpt>
      <trkpt lat="42.945460" lon="0.272860">
        <ele>1082.705</ele>
        <time>2026-07-16T11:38:14.194Z</time>
      </trkpt>
      <trkpt lat="42.945220" lon="0.273750">
        <ele>1080.025</ele>
        <time>2026-07-16T11:38:34.194Z</time>
      </trkpt>
      <trkpt lat="42.945140" lon="0.273980">
        <ele>1080.209</ele>
        <time>2026-07-16T11:38:54.194Z</time>
      </trkpt>
      <trkpt lat="42.944780" lon="0.274940">
        <ele>1082.599</ele>
        <time>2026-07-16T11:39:14.194Z</time>
      </trkpt>
      <trkpt lat="42.944700" lon="0.275240">
        <ele>1082.544</ele>
        <time>2026-07-16T11:39:34.194Z</time>
      </trkpt>
      <trkpt lat="42.944580" lon="0.275890">
        <ele>1087.970</ele>
        <time>2026-07-16T11:39:54.194Z</time>
      </trkpt>
      <trkpt lat="42.944550" lon="0.275950">
        <ele>1088.377</ele>
        <time>2026-07-16T11:40:14.194Z</time>
      </trkpt>
      <trkpt lat="42.944430" lon="0.276210">
        <ele>1091.070</ele>
        <time>2026-07-16T11:40:34.194Z</time>
      </trkpt>
      <trkpt lat="42.944050" lon="0.276700">
        <ele>1091.010</ele>
        <time>2026-07-16T11:40:54.194Z</time>
      </trkpt>
      <trkpt lat="42.943930" lon="0.276930">
        <ele>1090.021</ele>
        <time>2026-07-16T11:41:14.194Z</time>
      </trkpt>
      <trkpt lat="42.943660" lon="0.277700">
        <ele>1090.131</ele>
        <time>2026-07-16T11:41:34.194Z</time>
      </trkpt>
      <trkpt lat="42.943590" lon="0.277980">
        <ele>1090.032</ele>
        <time>2026-07-16T11:41:54.194Z</time>
      </trkpt>
      <trkpt lat="42.943570" lon="0.278190">
        <ele>1090.097</ele>
        <time>2026-07-16T11:42:14.194Z</time>
      </trkpt>
      <trkpt lat="42.943640" lon="0.279410">
        <ele>1090.923</ele>
        <time>2026-07-16T11:42:34.194Z</time>
      </trkpt>
      <trkpt lat="42.943620" lon="0.279760">
        <ele>1090.425</ele>
        <time>2026-07-16T11:42:54.194Z</time>
      </trkpt>
      <trkpt lat="42.943430" lon="0.280430">
        <ele>1092.209</ele>
        <time>2026-07-16T11:43:14.194Z</time>
      </trkpt>
      <trkpt lat="42.943390" lon="0.280770">
        <ele>1092.931</ele>
        <time>2026-07-16T11:43:34.194Z</time>
      </trkpt>
      <trkpt lat="42.943310" lon="0.281190">
        <ele>1093.866</ele>
        <time>2026-07-16T11:43:54.194Z</time>
      </trkpt>
      <trkpt lat="42.943160" lon="0.281500">
        <ele>1093.862</ele>
        <time>2026-07-16T11:44:14.194Z</time>
      </trkpt>
      <trkpt lat="42.942870" lon="0.282070">
        <ele>1091.679</ele>
        <time>2026-07-16T11:44:34.194Z</time>
      </trkpt>
      <trkpt lat="42.942800" lon="0.282350">
        <ele>1090.632</ele>
        <time>2026-07-16T11:44:54.194Z</time>
      </trkpt>
      <trkpt lat="42.942760" lon="0.282740">
        <ele>1090.022</ele>
        <time>2026-07-16T11:45:14.194Z</time>
      </trkpt>
      <trkpt lat="42.942780" lon="0.283440">
        <ele>1091.923</ele>
        <time>2026-07-16T11:45:34.194Z</time>
      </trkpt>
      <trkpt lat="42.942830" lon="0.284900">
        <ele>1097.633</ele>
        <time>2026-07-16T11:45:54.194Z</time>
      </trkpt>
      <trkpt lat="42.942860" lon="0.285140">
        <ele>1098.214</ele>
        <time>2026-07-16T11:46:14.194Z</time>
      </trkpt>
      <trkpt lat="42.942910" lon="0.285360">
        <ele>1099.081</ele>
        <time>2026-07-16T11:46:34.194Z</time>
      </trkpt>
      <trkpt lat="42.942990" lon="0.285550">
        <ele>1099.561</ele>
        <time>2026-07-16T11:46:54.194Z</time>
      </trkpt>
      <trkpt lat="42.943470" lon="0.286450">
        <ele>1100.017</ele>
        <time>2026-07-16T11:47:14.194Z</time>
      </trkpt>
      <trkpt lat="42.943540" lon="0.286570">
        <ele>1100.009</ele>
        <time>2026-07-16T11:47:34.194Z</time>
      </trkpt>
      <trkpt lat="42.943970" lon="0.287300">
        <ele>1101.870</ele>
        <time>2026-07-16T11:47:54.194Z</time>
      </trkpt>
      <trkpt lat="42.944240" lon="0.287830">
        <ele>1105.375</ele>
        <time>2026-07-16T11:48:14.194Z</time>
      </trkpt>
      <trkpt lat="42.944290" lon="0.288040">
        <ele>1106.861</ele>
        <time>2026-07-16T11:48:34.194Z</time>
      </trkpt>
      <trkpt lat="42.944300" lon="0.288530">
        <ele>1108.778</ele>
        <time>2026-07-16T11:48:54.194Z</time>
      </trkpt>
      <trkpt lat="42.944270" lon="0.288730">
        <ele>1109.821</ele>
        <time>2026-07-16T11:49:14.194Z</time>
      </trkpt>
      <trkpt lat="42.944210" lon="0.288890">
        <ele>1110.551</ele>
        <time>2026-07-16T11:49:34.194Z</time>
      </trkpt>
      <trkpt lat="42.944130" lon="0.289000">
        <ele>1112.022</ele>
        <time>2026-07-16T11:49:54.194Z</time>
      </trkpt>
      <trkpt lat="42.944050" lon="0.289050">
        <ele>1113.562</ele>
        <time>2026-07-16T11:50:14.194Z</time>
      </trkpt>
      <trkpt lat="42.943950" lon="0.289030">
        <ele>1114.443</ele>
        <time>2026-07-16T11:50:34.194Z</time>
      </trkpt>
      <trkpt lat="42.943870" lon="0.288980">
        <ele>1115.019</ele>
        <time>2026-07-16T11:50:54.194Z</time>
      </trkpt>
      <trkpt lat="42.943610" lon="0.288720">
        <ele>1117.209</ele>
        <time>2026-07-16T11:51:14.194Z</time>
      </trkpt>
      <trkpt lat="42.943380" lon="0.288550">
        <ele>1118.919</ele>
        <time>2026-07-16T11:51:34.194Z</time>
      </trkpt>
      <trkpt lat="42.943100" lon="0.288470">
        <ele>1121.709</ele>
        <time>2026-07-16T11:51:54.194Z</time>
      </trkpt>
      <trkpt lat="42.942560" lon="0.288380">
        <ele>1125.383</ele>
        <time>2026-07-16T11:52:14.194Z</time>
      </trkpt>
      <trkpt lat="42.942340" lon="0.288400">
        <ele>1126.978</ele>
        <time>2026-07-16T11:52:34.194Z</time>
      </trkpt>
      <trkpt lat="42.942140" lon="0.288460">
        <ele>1129.214</ele>
        <time>2026-07-16T11:52:54.194Z</time>
      </trkpt>
      <trkpt lat="42.941670" lon="0.288700">
        <ele>1135.371</ele>
        <time>2026-07-16T11:53:14.194Z</time>
      </trkpt>
      <trkpt lat="42.941330" lon="0.288920">
        <ele>1138.384</ele>
        <time>2026-07-16T11:53:34.194Z</time>
      </trkpt>
      <trkpt lat="42.941170" lon="0.289060">
        <ele>1140.214</ele>
        <time>2026-07-16T11:53:54.194Z</time>
      </trkpt>
      <trkpt lat="42.941060" lon="0.289210">
        <ele>1141.595</ele>
        <time>2026-07-16T11:54:14.194Z</time>
      </trkpt>
      <trkpt lat="42.940960" lon="0.289410">
        <ele>1142.235</ele>
        <time>2026-07-16T11:54:34.194Z</time>
      </trkpt>
      <trkpt lat="42.940660" lon="0.290240">
        <ele>1145.666</ele>
        <time>2026-07-16T11:54:54.194Z</time>
      </trkpt>
      <trkpt lat="42.940640" lon="0.290380">
        <ele>1146.815</ele>
        <time>2026-07-16T11:55:14.194Z</time>
      </trkpt>
      <trkpt lat="42.940660" lon="0.290450">
        <ele>1148.665</ele>
        <time>2026-07-16T11:55:34.194Z</time>
      </trkpt>
      <trkpt lat="42.940710" lon="0.290490">
        <ele>1151.211</ele>
        <time>2026-07-16T11:55:54.194Z</time>
      </trkpt>
      <trkpt lat="42.940830" lon="0.290480">
        <ele>1155.809</ele>
        <time>2026-07-16T11:56:14.194Z</time>
      </trkpt>
      <trkpt lat="42.941020" lon="0.290160">
        <ele>1154.743</ele>
        <time>2026-07-16T11:56:34.194Z</time>
      </trkpt>
      <trkpt lat="42.941110" lon="0.290110">
        <ele>1155.618</ele>
        <time>2026-07-16T11:56:54.194Z</time>
      </trkpt>
      <trkpt lat="42.941270" lon="0.290080">
        <ele>1156.544</ele>
        <time>2026-07-16T11:57:14.194Z</time>
      </trkpt>
      <trkpt lat="42.941600" lon="0.290080">
        <ele>1159.411</ele>
        <time>2026-07-16T11:57:34.194Z</time>
      </trkpt>
      <trkpt lat="42.942650" lon="0.290170">
        <ele>1168.544</ele>
        <time>2026-07-16T11:57:54.194Z</time>
      </trkpt>
      <trkpt lat="42.942710" lon="0.290230">
        <ele>1169.954</ele>
        <time>2026-07-16T11:58:14.194Z</time>
      </trkpt>
      <trkpt lat="42.942740" lon="0.290300">
        <ele>1171.935</ele>
        <time>2026-07-16T11:58:34.194Z</time>
      </trkpt>
      <trkpt lat="42.942730" lon="0.290380">
        <ele>1174.845</ele>
        <time>2026-07-16T11:58:54.194Z</time>
      </trkpt>
      <trkpt lat="42.942650" lon="0.290470">
        <ele>1178.176</ele>
        <time>2026-07-16T11:59:14.194Z</time>
      </trkpt>
      <trkpt lat="42.942210" lon="0.290520">
        <ele>1177.026</ele>
        <time>2026-07-16T11:59:34.194Z</time>
      </trkpt>
      <trkpt lat="42.942000" lon="0.290630">
        <ele>1177.647</ele>
        <time>2026-07-16T11:59:54.194Z</time>
      </trkpt>
      <trkpt lat="42.941700" lon="0.290920">
        <ele>1180.411</ele>
        <time>2026-07-16T12:00:14.194Z</time>
      </trkpt>
      <trkpt lat="42.941530" lon="0.291160">
        <ele>1183.509</ele>
        <time>2026-07-16T12:00:34.194Z</time>
      </trkpt>
      <trkpt lat="42.941380" lon="0.291420">
        <ele>1187.454</ele>
        <time>2026-07-16T12:00:54.194Z</time>
      </trkpt>
      <trkpt lat="42.940680" lon="0.292710">
        <ele>1196.149</ele>
        <time>2026-07-16T12:01:14.194Z</time>
      </trkpt>
      <trkpt lat="42.940440" lon="0.292970">
        <ele>1194.045</ele>
        <time>2026-07-16T12:01:34.194Z</time>
      </trkpt>
      <trkpt lat="42.940380" lon="0.293050">
        <ele>1194.272</ele>
        <time>2026-07-16T12:01:54.194Z</time>
      </trkpt>
      <trkpt lat="42.940350" lon="0.293160">
        <ele>1196.295</ele>
        <time>2026-07-16T12:02:14.194Z</time>
      </trkpt>
      <trkpt lat="42.940380" lon="0.293250">
        <ele>1199.435</ele>
        <time>2026-07-16T12:02:34.194Z</time>
      </trkpt>
      <trkpt lat="42.940430" lon="0.293280">
        <ele>1201.536</ele>
        <time>2026-07-16T12:02:54.194Z</time>
      </trkpt>
      <trkpt lat="42.940510" lon="0.293280">
        <ele>1203.636</ele>
        <time>2026-07-16T12:03:14.194Z</time>
      </trkpt>
      <trkpt lat="42.940580" lon="0.293190">
        <ele>1203.687</ele>
        <time>2026-07-16T12:03:34.194Z</time>
      </trkpt>
      <trkpt lat="42.940700" lon="0.293050">
        <ele>1203.586</ele>
        <time>2026-07-16T12:03:54.194Z</time>
      </trkpt>
      <trkpt lat="42.940870" lon="0.292930">
        <ele>1205.760</ele>
        <time>2026-07-16T12:04:14.194Z</time>
      </trkpt>
      <trkpt lat="42.941730" lon="0.292560">
        <ele>1213.626</ele>
        <time>2026-07-16T12:04:34.194Z</time>
      </trkpt>
      <trkpt lat="42.942320" lon="0.292410">
        <ele>1219.209</ele>
        <time>2026-07-16T12:04:54.194Z</time>
      </trkpt>
      <trkpt lat="42.942390" lon="0.292420">
        <ele>1219.680</ele>
        <time>2026-07-16T12:05:14.194Z</time>
      </trkpt>
      <trkpt lat="42.942460" lon="0.292490">
        <ele>1220.745</ele>
        <time>2026-07-16T12:05:34.194Z</time>
      </trkpt>
      <trkpt lat="42.942480" lon="0.292610">
        <ele>1222.271</ele>
        <time>2026-07-16T12:05:54.194Z</time>
      </trkpt>
      <trkpt lat="42.942470" lon="0.292720">
        <ele>1223.448</ele>
        <time>2026-07-16T12:06:14.194Z</time>
      </trkpt>
      <trkpt lat="42.942400" lon="0.292840">
        <ele>1225.341</ele>
        <time>2026-07-16T12:06:34.194Z</time>
      </trkpt>
      <trkpt lat="42.942040" lon="0.293040">
        <ele>1226.881</ele>
        <time>2026-07-16T12:06:54.194Z</time>
      </trkpt>
      <trkpt lat="42.941860" lon="0.293200">
        <ele>1227.042</ele>
        <time>2026-07-16T12:07:14.194Z</time>
      </trkpt>
      <trkpt lat="42.941160" lon="0.294180">
        <ele>1236.112</ele>
        <time>2026-07-16T12:07:34.194Z</time>
      </trkpt>
      <trkpt lat="42.941000" lon="0.294510">
        <ele>1239.283</ele>
        <time>2026-07-16T12:07:54.194Z</time>
      </trkpt>
      <trkpt lat="42.940830" lon="0.295040">
        <ele>1243.642</ele>
        <time>2026-07-16T12:08:14.194Z</time>
      </trkpt>
      <trkpt lat="42.940480" lon="0.295800">
        <ele>1248.522</ele>
        <time>2026-07-16T12:08:34.194Z</time>
      </trkpt>
      <trkpt lat="42.940400" lon="0.296010">
        <ele>1250.314</ele>
        <time>2026-07-16T12:08:54.194Z</time>
      </trkpt>
      <trkpt lat="42.940360" lon="0.296190">
        <ele>1253.109</ele>
        <time>2026-07-16T12:09:14.194Z</time>
      </trkpt>
      <trkpt lat="42.940340" lon="0.296430">
        <ele>1259.426</ele>
        <time>2026-07-16T12:09:34.194Z</time>
      </trkpt>
      <trkpt lat="42.940300" lon="0.296560">
        <ele>1264.551</ele>
        <time>2026-07-16T12:09:54.194Z</time>
      </trkpt>
      <trkpt lat="42.940190" lon="0.296630">
        <ele>1265.227</ele>
        <time>2026-07-16T12:10:14.194Z</time>
      </trkpt>
      <trkpt lat="42.939810" lon="0.296790">
        <ele>1262.614</ele>
        <time>2026-07-16T12:10:34.194Z</time>
      </trkpt>
      <trkpt lat="42.939650" lon="0.296930">
        <ele>1263.377</ele>
        <time>2026-07-16T12:10:54.194Z</time>
      </trkpt>
      <trkpt lat="42.939540" lon="0.297100">
        <ele>1265.127</ele>
        <time>2026-07-16T12:11:14.194Z</time>
      </trkpt>
      <trkpt lat="42.939250" lon="0.297820">
        <ele>1271.798</ele>
        <time>2026-07-16T12:11:34.194Z</time>
      </trkpt>
      <trkpt lat="42.939080" lon="0.298350">
        <ele>1271.568</ele>
        <time>2026-07-16T12:11:54.194Z</time>
      </trkpt>
      <trkpt lat="42.939050" lon="0.298850">
        <ele>1261.489</ele>
        <time>2026-07-16T12:12:14.194Z</time>
      </trkpt>
      <trkpt lat="42.939140" lon="0.299090">
        <ele>1263.769</ele>
        <time>2026-07-16T12:12:34.194Z</time>
      </trkpt>
      <trkpt lat="42.939380" lon="0.299280">
        <ele>1274.904</ele>
        <time>2026-07-16T12:12:54.194Z</time>
      </trkpt>
      <trkpt lat="42.939440" lon="0.299390">
        <ele>1277.924</ele>
        <time>2026-07-16T12:13:14.194Z</time>
      </trkpt>
      <trkpt lat="42.939480" lon="0.299560">
        <ele>1280.809</ele>
        <time>2026-07-16T12:13:34.194Z</time>
      </trkpt>
      <trkpt lat="42.939480" lon="0.299980">
        <ele>1279.688</ele>
        <time>2026-07-16T12:13:54.194Z</time>
      </trkpt>
      <trkpt lat="42.939520" lon="0.300170">
        <ele>1276.063</ele>
        <time>2026-07-16T12:14:14.194Z</time>
      </trkpt>
      <trkpt lat="42.939570" lon="0.300290">
        <ele>1273.549</ele>
        <time>2026-07-16T12:14:34.194Z</time>
      </trkpt>
      <trkpt lat="42.939680" lon="0.300360">
        <ele>1273.096</ele>
        <time>2026-07-16T12:14:54.194Z</time>
      </trkpt>
      <trkpt lat="42.939890" lon="0.300390">
        <ele>1278.749</ele>
        <time>2026-07-16T12:15:14.194Z</time>
      </trkpt>
      <trkpt lat="42.939970" lon="0.300430">
        <ele>1280.539</ele>
        <time>2026-07-16T12:15:34.194Z</time>
      </trkpt>
      <trkpt lat="42.940050" lon="0.300550">
        <ele>1283.160</ele>
        <time>2026-07-16T12:15:54.194Z</time>
      </trkpt>
      <trkpt lat="42.940100" lon="0.300670">
        <ele>1284.740</ele>
        <time>2026-07-16T12:16:14.194Z</time>
      </trkpt>
      <trkpt lat="42.940210" lon="0.300980">
        <ele>1287.091</ele>
        <time>2026-07-16T12:16:34.194Z</time>
      </trkpt>
      <trkpt lat="42.940580" lon="0.301840">
        <ele>1294.857</ele>
        <time>2026-07-16T12:16:54.194Z</time>
      </trkpt>
      <trkpt lat="42.940790" lon="0.302060">
        <ele>1294.800</ele>
        <time>2026-07-16T12:17:14.194Z</time>
      </trkpt>
      <trkpt lat="42.941150" lon="0.302310">
        <ele>1297.520</ele>
        <time>2026-07-16T12:17:34.194Z</time>
      </trkpt>
      <trkpt lat="42.941370" lon="0.302550">
        <ele>1309.009</ele>
        <time>2026-07-16T12:17:54.194Z</time>
      </trkpt>
      <trkpt lat="42.941440" lon="0.302700">
        <ele>1312.567</ele>
        <time>2026-07-16T12:18:14.194Z</time>
      </trkpt>
      <trkpt lat="42.941510" lon="0.303000">
        <ele>1314.052</ele>
        <time>2026-07-16T12:18:34.194Z</time>
      </trkpt>
      <trkpt lat="42.941740" lon="0.303590">
        <ele>1317.728</ele>
        <time>2026-07-16T12:18:54.194Z</time>
      </trkpt>
      <trkpt lat="42.941960" lon="0.304230">
        <ele>1319.485</ele>
        <time>2026-07-16T12:19:14.194Z</time>
      </trkpt>
      <trkpt lat="42.942190" lon="0.304720">
        <ele>1326.868</ele>
        <time>2026-07-16T12:19:34.194Z</time>
      </trkpt>
      <trkpt lat="42.942320" lon="0.305250">
        <ele>1325.878</ele>
        <time>2026-07-16T12:19:54.194Z</time>
      </trkpt>
      <trkpt lat="42.942370" lon="0.305330">
        <ele>1326.169</ele>
        <time>2026-07-16T12:20:14.194Z</time>
      </trkpt>
      <trkpt lat="42.942450" lon="0.305380">
        <ele>1328.379</ele>
        <time>2026-07-16T12:20:34.194Z</time>
      </trkpt>
      <trkpt lat="42.942730" lon="0.305460">
        <ele>1335.330</ele>
        <time>2026-07-16T12:20:54.194Z</time>
      </trkpt>
      <trkpt lat="42.942780" lon="0.305510">
        <ele>1336.484</ele>
        <time>2026-07-16T12:21:14.194Z</time>
      </trkpt>
      <trkpt lat="42.942800" lon="0.305590">
        <ele>1337.007</ele>
        <time>2026-07-16T12:21:34.194Z</time>
      </trkpt>
      <trkpt lat="42.942830" lon="0.306760">
        <ele>1342.617</ele>
        <time>2026-07-16T12:21:54.194Z</time>
      </trkpt>
      <trkpt lat="42.942880" lon="0.306860">
        <ele>1343.209</ele>
        <time>2026-07-16T12:22:14.194Z</time>
      </trkpt>
      <trkpt lat="42.943040" lon="0.306960">
        <ele>1346.940</ele>
        <time>2026-07-16T12:22:34.194Z</time>
      </trkpt>
      <trkpt lat="42.943090" lon="0.307070">
        <ele>1350.765</ele>
        <time>2026-07-16T12:22:54.194Z</time>
      </trkpt>
      <trkpt lat="42.943070" lon="0.307210">
        <ele>1352.491</ele>
        <time>2026-07-16T12:23:14.194Z</time>
      </trkpt>
      <trkpt lat="42.942820" lon="0.307950">
        <ele>1357.148</ele>
        <time>2026-07-16T12:23:34.194Z</time>
      </trkpt>
      <trkpt lat="42.942620" lon="0.308820">
        <ele>1360.691</ele>
        <time>2026-07-16T12:23:54.194Z</time>
      </trkpt>
      <trkpt lat="42.942520" lon="0.309610">
        <ele>1364.891</ele>
        <time>2026-07-16T12:24:14.194Z</time>
      </trkpt>
      <trkpt lat="42.942440" lon="0.310850">
        <ele>1374.592</ele>
        <time>2026-07-16T12:24:34.194Z</time>
      </trkpt>
      <trkpt lat="42.942420" lon="0.311190">
        <ele>1373.882</ele>
        <time>2026-07-16T12:24:54.194Z</time>
      </trkpt>
      <trkpt lat="42.942430" lon="0.311280">
        <ele>1372.923</ele>
        <time>2026-07-16T12:25:14.194Z</time>
      </trkpt>
      <trkpt lat="42.942470" lon="0.311350">
        <ele>1373.596</ele>
        <time>2026-07-16T12:25:34.194Z</time>
      </trkpt>
      <trkpt lat="42.942850" lon="0.311530">
        <ele>1378.431</ele>
        <time>2026-07-16T12:25:54.194Z</time>
      </trkpt>
      <trkpt lat="42.943000" lon="0.311640">
        <ele>1381.124</ele>
        <time>2026-07-16T12:26:14.194Z</time>
      </trkpt>
      <trkpt lat="42.943220" lon="0.311900">
        <ele>1383.309</ele>
        <time>2026-07-16T12:26:34.194Z</time>
      </trkpt>
      <trkpt lat="42.943520" lon="0.312350">
        <ele>1384.451</ele>
        <time>2026-07-16T12:26:54.194Z</time>
      </trkpt>
      <trkpt lat="42.943840" lon="0.312630">
        <ele>1389.326</ele>
        <time>2026-07-16T12:27:14.194Z</time>
      </trkpt>
      <trkpt lat="42.944150" lon="0.313120">
        <ele>1392.912</ele>
        <time>2026-07-16T12:27:34.194Z</time>
      </trkpt>
      <trkpt lat="42.944660" lon="0.314250">
        <ele>1399.519</ele>
        <time>2026-07-16T12:27:54.194Z</time>
      </trkpt>
      <trkpt lat="42.944770" lon="0.314630">
        <ele>1401.122</ele>
        <time>2026-07-16T12:28:14.194Z</time>
      </trkpt>
      <trkpt lat="42.944900" lon="0.314940">
        <ele>1402.842</ele>
        <time>2026-07-16T12:28:34.194Z</time>
      </trkpt>
      <trkpt lat="42.945620" lon="0.315940">
        <ele>1411.623</ele>
        <time>2026-07-16T12:28:54.194Z</time>
      </trkpt>
      <trkpt lat="42.945830" lon="0.316180">
        <ele>1412.943</ele>
        <time>2026-07-16T12:29:14.194Z</time>
      </trkpt>
      <trkpt lat="42.945980" lon="0.316260">
        <ele>1416.264</ele>
        <time>2026-07-16T12:29:34.194Z</time>
      </trkpt>
      <trkpt lat="42.946110" lon="0.316360">
        <ele>1418.982</ele>
        <time>2026-07-16T12:29:54.194Z</time>
      </trkpt>
      <trkpt lat="42.946230" lon="0.316510">
        <ele>1419.543</ele>
        <time>2026-07-16T12:30:14.194Z</time>
      </trkpt>
      <trkpt lat="42.946370" lon="0.316770">
        <ele>1421.917</ele>
        <time>2026-07-16T12:30:34.194Z</time>
      </trkpt>
      <trkpt lat="42.946470" lon="0.316890">
        <ele>1424.409</ele>
        <time>2026-07-16T12:30:54.194Z</time>
      </trkpt>
      <trkpt lat="42.946500" lon="0.317040">
        <ele>1425.780</ele>
        <time>2026-07-16T12:31:14.194Z</time>
      </trkpt>
      <trkpt lat="42.946500" lon="0.317170">
        <ele>1427.215</ele>
        <time>2026-07-16T12:31:34.194Z</time>
      </trkpt>
      <trkpt lat="42.946440" lon="0.317310">
        <ele>1428.421</ele>
        <time>2026-07-16T12:31:54.194Z</time>
      </trkpt>
      <trkpt lat="42.946220" lon="0.317480">
        <ele>1426.628</ele>
        <time>2026-07-16T12:32:14.194Z</time>
      </trkpt>
      <trkpt lat="42.946070" lon="0.317670">
        <ele>1427.061</ele>
        <time>2026-07-16T12:32:34.194Z</time>
      </trkpt>
      <trkpt lat="42.945880" lon="0.318110">
        <ele>1430.611</ele>
        <time>2026-07-16T12:32:54.194Z</time>
      </trkpt>
      <trkpt lat="42.945750" lon="0.318480">
        <ele>1431.822</ele>
        <time>2026-07-16T12:33:14.194Z</time>
      </trkpt>
      <trkpt lat="42.945600" lon="0.319030">
        <ele>1438.282</ele>
        <time>2026-07-16T12:33:34.194Z</time>
      </trkpt>
      <trkpt lat="42.945590" lon="0.319080">
        <ele>1439.133</ele>
        <time>2026-07-16T12:33:54.194Z</time>
      </trkpt>
      <trkpt lat="42.945260" lon="0.319610">
        <ele>1441.521</ele>
        <time>2026-07-16T12:34:14.194Z</time>
      </trkpt>
      <trkpt lat="42.945020" lon="0.320080">
        <ele>1444.441</ele>
        <time>2026-07-16T12:34:34.194Z</time>
      </trkpt>
      <trkpt lat="42.944030" lon="0.322410">
        <ele>1458.605</ele>
        <time>2026-07-16T12:34:54.194Z</time>
      </trkpt>
      <trkpt lat="42.943770" lon="0.322880">
        <ele>1459.609</ele>
        <time>2026-07-16T12:35:14.194Z</time>
      </trkpt>
      <trkpt lat="42.943670" lon="0.323120">
        <ele>1460.094</ele>
        <time>2026-07-16T12:35:34.194Z</time>
      </trkpt>
      <trkpt lat="42.943600" lon="0.323410">
        <ele>1461.799</ele>
        <time>2026-07-16T12:35:54.194Z</time>
      </trkpt>
      <trkpt lat="42.943540" lon="0.324230">
        <ele>1467.885</ele>
        <time>2026-07-16T12:36:14.194Z</time>
      </trkpt>
      <trkpt lat="42.943430" lon="0.324710">
        <ele>1470.072</ele>
        <time>2026-07-16T12:36:34.194Z</time>
      </trkpt>
      <trkpt lat="42.943280" lon="0.325690">
        <ele>1478.035</ele>
        <time>2026-07-16T12:36:54.194Z</time>
      </trkpt>
      <trkpt lat="42.943180" lon="0.326100">
        <ele>1480.325</ele>
        <time>2026-07-16T12:37:14.194Z</time>
      </trkpt>
      <trkpt lat="42.943090" lon="0.326340">
        <ele>1481.916</ele>
        <time>2026-07-16T12:37:34.194Z</time>
      </trkpt>
      <trkpt lat="42.942940" lon="0.326610">
        <ele>1483.956</ele>
        <time>2026-07-16T12:37:54.194Z</time>
      </trkpt>
      <trkpt lat="42.942430" lon="0.327200">
        <ele>1487.157</ele>
        <time>2026-07-16T12:38:14.194Z</time>
      </trkpt>
      <trkpt lat="42.942350" lon="0.327330">
        <ele>1487.743</ele>
        <time>2026-07-16T12:38:34.194Z</time>
      </trkpt>
      <trkpt lat="42.942290" lon="0.327480">
        <ele>1487.564</ele>
        <time>2026-07-16T12:38:54.194Z</time>
      </trkpt>
    </trkseg>
  </trk></gpx>