<?xml version="1.0" encoding="UTF-8"?><gpx creator="https://climbfinder.com" version="1.1"  xmlns:xsi="http://www.w3.org/2001/XMLSchema-instance"  xmlns="http://www.topografix.com/GPX/1/1" xsi:schemaLocation="http://www.topografix.com/GPX/1/1 http://www.topografix.com/GPX/1/1/gpx.xsd">
  <metadata>
    <name>col-du-pertus-desde-mandailles</name>
    <author>
      <link href="https://climbfinder.com">
        <text>climbfinder</text>
        <type>text/html</type>
      </link>
    </author>
  </metadata>
  <trk>
    <name>col-du-pertus-desde-mandailles</name>
    <trkseg>
			<trkpt lat="45.06733" lon="2.65524">
        <ele>960.1</ele>
        <time>2026-08-05T09:00:00Z</time>
      </trkpt>
			<trkpt lat="45.06731" lon="2.65541">
        <ele>960.2</ele>
        <time>2026-08-05T09:00:02Z</time>
      </trkpt>
			<trkpt lat="45.06729" lon="2.65578">
        <ele>960.4</ele>
        <time>2026-08-05T09:00:06Z</time>
      </trkpt>
			<trkpt lat="45.06735" lon="2.6562">
        <ele>960.7</ele>
        <time>2026-08-05T09:00:11Z</time>
      </trkpt>
			<trkpt lat="45.0674" lon="2.65662">
        <ele>961.3</ele>
        <time>2026-08-05T09:00:17Z</time>
      </trkpt>
			<trkpt lat="45.06744" lon="2.65694">
        <ele>961.8</ele>
        <time>2026-08-05T09:00:22Z</time>
      </trkpt>
			<trkpt lat="45.06748" lon="2.65727">
        <ele>962.5</ele>
        <time>2026-08-05T09:00:27Z</time>
      </trkpt>
			<trkpt lat="45.06752" lon="2.65759">
        <ele>963.3</ele>
        <time>2026-08-05T09:00:32Z</time>
      </trkpt>
			<trkpt lat="45.06755" lon="2.65791">
        <ele>964.2</ele>
        <time>2026-08-05T09:00:38Z</time>
      </trkpt>
			<trkpt lat="45.06764" lon="2.65828">
        <ele>965.6</ele>
        <time>2026-08-05T09:00:46Z</time>
      </trkpt>
			<trkpt lat="45.06767" lon="2.6584">
        <ele>966.1</ele>
        <time>2026-08-05T09:00:48Z</time>
      </trkpt>
			<trkpt lat="45.06766" lon="2.65851">
        <ele>966.5</ele>
        <time>2026-08-05T09:00:50Z</time>
      </trkpt>
			<trkpt lat="45.06764" lon="2.65862">
        <ele>967</ele>
        <time>2026-08-05T09:00:53Z</time>
      </trkpt>
			<trkpt lat="45.06761" lon="2.65867">
        <ele>967.3</ele>
        <time>2026-08-05T09:00:54Z</time>
      </trkpt>
			<trkpt lat="45.06758" lon="2.6587">
        <ele>967.5</ele>
        <time>2026-08-05T09:00:55Z</time>
      </trkpt>
			<trkpt lat="45.06755" lon="2.65871">
        <ele>967.7</ele>
        <time>2026-08-05T09:00:56Z</time>
      </trkpt>
			<trkpt lat="45.06746" lon="2.6587">
        <ele>968.2</ele>
        <time>2026-08-05T09:00:59Z</time>
      </trkpt>
			<trkpt lat="45.06739" lon="2.65861">
        <ele>968.9</ele>
        <time>2026-08-05T09:01:02Z</time>
      </trkpt>
			<trkpt lat="45.06726" lon="2.65826">
        <ele>970.8</ele>
        <time>2026-08-05T09:01:11Z</time>
      </trkpt>
			<trkpt lat="45.06703" lon="2.65772">
        <ele>974.3</ele>
        <time>2026-08-05T09:01:25Z</time>
      </trkpt>
			<trkpt lat="45.06687" lon="2.65735">
        <ele>976.8</ele>
        <time>2026-08-05T09:01:36Z</time>
      </trkpt>
			<trkpt lat="45.06675" lon="2.65713">
        <ele>978.4</ele>
        <time>2026-08-05T09:01:42Z</time>
      </trkpt>
			<trkpt lat="45.06667" lon="2.65703">
        <ele>979.3</ele>
        <time>2026-08-05T09:01:46Z</time>
      </trkpt>
			<trkpt lat="45.06661" lon="2.65698">
        <ele>979.9</ele>
        <time>2026-08-05T09:01:49Z</time>
      </trkpt>
			<trkpt lat="45.06655" lon="2.65698">
        <ele>980.4</ele>
        <time>2026-08-05T09:01:51Z</time>
      </trkpt>
			<trkpt lat="45.06649" lon="2.65704">
        <ele>981.1</ele>
        <time>2026-08-05T09:01:55Z</time>
      </trkpt>
			<trkpt lat="45.06644" lon="2.65712">
        <ele>981.7</ele>
        <time>2026-08-05T09:01:57Z</time>
      </trkpt>
			<trkpt lat="45.06641" lon="2.65721">
        <ele>982.3</ele>
        <time>2026-08-05T09:02:00Z</time>
      </trkpt>
			<trkpt lat="45.06642" lon="2.65729">
        <ele>982.9</ele>
        <time>2026-08-05T09:02:02Z</time>
      </trkpt>
			<trkpt lat="45.06647" lon="2.65741">
        <ele>983.7</ele>
        <time>2026-08-05T09:02:06Z</time>
      </trkpt>
			<trkpt lat="45.06655" lon="2.65753">
        <ele>984.7</ele>
        <time>2026-08-05T09:02:10Z</time>
      </trkpt>
			<trkpt lat="45.06662" lon="2.65767">
        <ele>985.9</ele>
        <time>2026-08-05T09:02:16Z</time>
      </trkpt>
			<trkpt lat="45.06668" lon="2.65788">
        <ele>987.3</ele>
        <time>2026-08-05T09:02:22Z</time>
      </trkpt>
			<trkpt lat="45.06672" lon="2.65808">
        <ele>988.6</ele>
        <time>2026-08-05T09:02:28Z</time>
      </trkpt>
			<trkpt lat="45.06673" lon="2.65833">
        <ele>990.3</ele>
        <time>2026-08-05T09:02:36Z</time>
      </trkpt>
			<trkpt lat="45.06671" lon="2.65848">
        <ele>991.3</ele>
        <time>2026-08-05T09:02:40Z</time>
      </trkpt>
			<trkpt lat="45.06666" lon="2.65873">
        <ele>992.9</ele>
        <time>2026-08-05T09:02:48Z</time>
      </trkpt>
			<trkpt lat="45.06655" lon="2.65934">
        <ele>996.9</ele>
        <time>2026-08-05T09:03:05Z</time>
      </trkpt>
			<trkpt lat="45.06643" lon="2.65994">
        <ele>1000.8</ele>
        <time>2026-08-05T09:03:23Z</time>
      </trkpt>
			<trkpt lat="45.06636" lon="2.66003">
        <ele>1001.7</ele>
        <time>2026-08-05T09:03:27Z</time>
      </trkpt>
			<trkpt lat="45.06628" lon="2.66008">
        <ele>1002.5</ele>
        <time>2026-08-05T09:03:31Z</time>
      </trkpt>
			<trkpt lat="45.06621" lon="2.66004">
        <ele>1003.1</ele>
        <time>2026-08-05T09:03:33Z</time>
      </trkpt>
			<trkpt lat="45.06618" lon="2.66">
        <ele>1003.5</ele>
        <time>2026-08-05T09:03:35Z</time>
      </trkpt>
			<trkpt lat="45.06616" lon="2.65993">
        <ele>1004</ele>
        <time>2026-08-05T09:03:37Z</time>
      </trkpt>
			<trkpt lat="45.06614" lon="2.65984">
        <ele>1004.5</ele>
        <time>2026-08-05T09:03:39Z</time>
      </trkpt>
			<trkpt lat="45.06617" lon="2.65974">
        <ele>1005.2</ele>
        <time>2026-08-05T09:03:42Z</time>
      </trkpt>
			<trkpt lat="45.06622" lon="2.6594">
        <ele>1007.4</ele>
        <time>2026-08-05T09:03:52Z</time>
      </trkpt>
			<trkpt lat="45.06622" lon="2.6588">
        <ele>1011.2</ele>
        <time>2026-08-05T09:04:09Z</time>
      </trkpt>
			<trkpt lat="45.06619" lon="2.65856">
        <ele>1012.8</ele>
        <time>2026-08-05T09:04:16Z</time>
      </trkpt>
			<trkpt lat="45.06616" lon="2.65848">
        <ele>1013.4</ele>
        <time>2026-08-05T09:04:19Z</time>
      </trkpt>
			<trkpt lat="45.0661" lon="2.65843">
        <ele>1014.1</ele>
        <time>2026-08-05T09:04:22Z</time>
      </trkpt>
			<trkpt lat="45.06597" lon="2.65843">
        <ele>1015.3</ele>
        <time>2026-08-05T09:04:27Z</time>
      </trkpt>
			<trkpt lat="45.06559" lon="2.65863">
        <ele>1019.6</ele>
        <time>2026-08-05T09:04:47Z</time>
      </trkpt>
			<trkpt lat="45.0654" lon="2.65867">
        <ele>1021.9</ele>
        <time>2026-08-05T09:04:57Z</time>
      </trkpt>
			<trkpt lat="45.06527" lon="2.65864">
        <ele>1023.3</ele>
        <time>2026-08-05T09:05:03Z</time>
      </trkpt>
			<trkpt lat="45.06507" lon="2.65852">
        <ele>1026.1</ele>
        <time>2026-08-05T09:05:16Z</time>
      </trkpt>
			<trkpt lat="45.06492" lon="2.65835">
        <ele>1028.4</ele>
        <time>2026-08-05T09:05:26Z</time>
      </trkpt>
			<trkpt lat="45.06476" lon="2.65806">
        <ele>1031.7</ele>
        <time>2026-08-05T09:05:39Z</time>
      </trkpt>
			<trkpt lat="45.0645" lon="2.65763">
        <ele>1036.7</ele>
        <time>2026-08-05T09:05:59Z</time>
      </trkpt>
			<trkpt lat="45.06423" lon="2.65721">
        <ele>1041.8</ele>
        <time>2026-08-05T09:06:19Z</time>
      </trkpt>
			<trkpt lat="45.06417" lon="2.65704">
        <ele>1043.4</ele>
        <time>2026-08-05T09:06:25Z</time>
      </trkpt>
			<trkpt lat="45.06416" lon="2.65689">
        <ele>1044.7</ele>
        <time>2026-08-05T09:06:31Z</time>
      </trkpt>
			<trkpt lat="45.06421" lon="2.65678">
        <ele>1045.8</ele>
        <time>2026-08-05T09:06:35Z</time>
      </trkpt>
			<trkpt lat="45.06431" lon="2.6566">
        <ele>1047.7</ele>
        <time>2026-08-05T09:06:43Z</time>
      </trkpt>
			<trkpt lat="45.06434" lon="2.65646">
        <ele>1048.9</ele>
        <time>2026-08-05T09:06:49Z</time>
      </trkpt>
			<trkpt lat="45.06432" lon="2.65633">
        <ele>1050</ele>
        <time>2026-08-05T09:06:53Z</time>
      </trkpt>
			<trkpt lat="45.06424" lon="2.65614">
        <ele>1051.8</ele>
        <time>2026-08-05T09:07:01Z</time>
      </trkpt>
			<trkpt lat="45.06398" lon="2.65578">
        <ele>1055.9</ele>
        <time>2026-08-05T09:07:19Z</time>
      </trkpt>
			<trkpt lat="45.06372" lon="2.65543">
        <ele>1060.3</ele>
        <time>2026-08-05T09:07:37Z</time>
      </trkpt>
			<trkpt lat="45.06351" lon="2.6552">
        <ele>1063.4</ele>
        <time>2026-08-05T09:07:50Z</time>
      </trkpt>
			<trkpt lat="45.06341" lon="2.65514">
        <ele>1064.8</ele>
        <time>2026-08-05T09:07:57Z</time>
      </trkpt>
			<trkpt lat="45.06329" lon="2.65512">
        <ele>1066.4</ele>
        <time>2026-08-05T09:08:04Z</time>
      </trkpt>
			<trkpt lat="45.06322" lon="2.65514">
        <ele>1067.3</ele>
        <time>2026-08-05T09:08:07Z</time>
      </trkpt>
			<trkpt lat="45.06317" lon="2.65519">
        <ele>1068</ele>
        <time>2026-08-05T09:08:10Z</time>
      </trkpt>
			<trkpt lat="45.06309" lon="2.65538">
        <ele>1070.2</ele>
        <time>2026-08-05T09:08:21Z</time>
      </trkpt>
			<trkpt lat="45.06301" lon="2.65575">
        <ele>1073.9</ele>
        <time>2026-08-05T09:08:36Z</time>
      </trkpt>
			<trkpt lat="45.06294" lon="2.65596">
        <ele>1076.3</ele>
        <time>2026-08-05T09:08:47Z</time>
      </trkpt>
			<trkpt lat="45.06272" lon="2.65632">
        <ele>1081.6</ele>
        <time>2026-08-05T09:09:10Z</time>
      </trkpt>
			<trkpt lat="45.06253" lon="2.65674">
        <ele>1087.5</ele>
        <time>2026-08-05T09:09:38Z</time>
      </trkpt>
			<trkpt lat="45.06246" lon="2.65698">
        <ele>1090.7</ele>
        <time>2026-08-05T09:09:53Z</time>
      </trkpt>
			<trkpt lat="45.06243" lon="2.65747">
        <ele>1097.2</ele>
        <time>2026-08-05T09:10:20Z</time>
      </trkpt>
			<trkpt lat="45.06241" lon="2.65804">
        <ele>1104.9</ele>
        <time>2026-08-05T09:10:53Z</time>
      </trkpt>
			<trkpt lat="45.0624" lon="2.65862">
        <ele>1112.7</ele>
        <time>2026-08-05T09:11:25Z</time>
      </trkpt>
			<trkpt lat="45.06238" lon="2.65919">
        <ele>1120.2</ele>
        <time>2026-08-05T09:11:58Z</time>
      </trkpt>
			<trkpt lat="45.06233" lon="2.65953">
        <ele>1124.6</ele>
        <time>2026-08-05T09:12:17Z</time>
      </trkpt>
			<trkpt lat="45.06227" lon="2.6598">
        <ele>1128.2</ele>
        <time>2026-08-05T09:12:33Z</time>
      </trkpt>
			<trkpt lat="45.06212" lon="2.66017">
        <ele>1133.2</ele>
        <time>2026-08-05T09:12:57Z</time>
      </trkpt>
			<trkpt lat="45.06185" lon="2.66054">
        <ele>1139.2</ele>
        <time>2026-08-05T09:13:23Z</time>
      </trkpt>
			<trkpt lat="45.06158" lon="2.6609">
        <ele>1144.9</ele>
        <time>2026-08-05T09:13:47Z</time>
      </trkpt>
			<trkpt lat="45.06135" lon="2.66114">
        <ele>1149.1</ele>
        <time>2026-08-05T09:14:06Z</time>
      </trkpt>
			<trkpt lat="45.06104" lon="2.66137">
        <ele>1154.1</ele>
        <time>2026-08-05T09:14:30Z</time>
      </trkpt>
			<trkpt lat="45.06083" lon="2.66154">
        <ele>1157.4</ele>
        <time>2026-08-05T09:14:44Z</time>
      </trkpt>
			<trkpt lat="45.06054" lon="2.66197">
        <ele>1162.6</ele>
        <time>2026-08-05T09:15:05Z</time>
      </trkpt>
			<trkpt lat="45.06044" lon="2.66209">
        <ele>1164.1</ele>
        <time>2026-08-05T09:15:11Z</time>
      </trkpt>
			<trkpt lat="45.06024" lon="2.66225">
        <ele>1166.7</ele>
        <time>2026-08-05T09:15:23Z</time>
      </trkpt>
			<trkpt lat="45.05997" lon="2.66254">
        <ele>1169.9</ele>
        <time>2026-08-05T09:15:36Z</time>
      </trkpt>
			<trkpt lat="45.0597" lon="2.66276">
        <ele>1172.5</ele>
        <time>2026-08-05T09:15:49Z</time>
      </trkpt>
			<trkpt lat="45.05957" lon="2.66294">
        <ele>1173.8</ele>
        <time>2026-08-05T09:15:54Z</time>
      </trkpt>
			<trkpt lat="45.05956" lon="2.66312">
        <ele>1174.5</ele>
        <time>2026-08-05T09:15:58Z</time>
      </trkpt>
			<trkpt lat="45.05965" lon="2.66356">
        <ele>1176.1</ele>
        <time>2026-08-05T09:16:06Z</time>
      </trkpt>
			<trkpt lat="45.05964" lon="2.66364">
        <ele>1176.3</ele>
        <time>2026-08-05T09:16:07Z</time>
      </trkpt>
			<trkpt lat="45.05961" lon="2.66372">
        <ele>1176.5</ele>
        <time>2026-08-05T09:16:09Z</time>
      </trkpt>
			<trkpt lat="45.05929" lon="2.66397">
        <ele>1177.1</ele>
        <time>2026-08-05T09:16:15Z</time>
      </trkpt>
			<trkpt lat="45.05913" lon="2.66427">
        <ele>1177.1</ele>
        <time>2026-08-05T09:16:19Z</time>
      </trkpt>
			<trkpt lat="45.05897" lon="2.66457">
        <ele>1176.6</ele>
        <time>2026-08-05T09:16:22Z</time>
      </trkpt>
			<trkpt lat="45.05889" lon="2.66509">
        <ele>1175.2</ele>
        <time>2026-08-05T09:16:25Z</time>
      </trkpt>
			<trkpt lat="45.0588" lon="2.66561">
        <ele>1173.2</ele>
        <time>2026-08-05T09:16:29Z</time>
      </trkpt>
			<trkpt lat="45.05863" lon="2.66606">
        <ele>1170.9</ele>
        <time>2026-08-05T09:16:32Z</time>
      </trkpt>
			<trkpt lat="45.05861" lon="2.66613">
        <ele>1170.6</ele>
        <time>2026-08-05T09:16:33Z</time>
      </trkpt>
			<trkpt lat="45.05863" lon="2.66622">
        <ele>1170.1</ele>
        <time>2026-08-05T09:16:34Z</time>
      </trkpt>
			<trkpt lat="45.05867" lon="2.66629">
        <ele>1169.7</ele>
        <time>2026-08-05T09:16:34Z</time>
      </trkpt>
			<trkpt lat="45.05873" lon="2.66634">
        <ele>1169.2</ele>
        <time>2026-08-05T09:16:35Z</time>
      </trkpt>
			<trkpt lat="45.05884" lon="2.66639">
        <ele>1168.5</ele>
        <time>2026-08-05T09:16:36Z</time>
      </trkpt>
			<trkpt lat="45.05911" lon="2.66636">
        <ele>1166.7</ele>
        <time>2026-08-05T09:16:39Z</time>
      </trkpt>
			<trkpt lat="45.05922" lon="2.66646">
        <ele>1165.9</ele>
        <time>2026-08-05T09:16:40Z</time>
      </trkpt>
			<trkpt lat="45.05928" lon="2.66661">
        <ele>1165.1</ele>
        <time>2026-08-05T09:16:41Z</time>
      </trkpt>
			<trkpt lat="45.05925" lon="2.66692">
        <ele>1164</ele>
        <time>2026-08-05T09:16:43Z</time>
      </trkpt>
			<trkpt lat="45.05926" lon="2.66702">
        <ele>1163.6</ele>
        <time>2026-08-05T09:16:44Z</time>
      </trkpt>
			<trkpt lat="45.0593" lon="2.66714">
        <ele>1163.2</ele>
        <time>2026-08-05T09:16:45Z</time>
      </trkpt>
			<trkpt lat="45.05937" lon="2.6672">
        <ele>1162.9</ele>
        <time>2026-08-05T09:16:46Z</time>
      </trkpt>
			<trkpt lat="45.05958" lon="2.66718">
        <ele>1162.1</ele>
        <time>2026-08-05T09:16:48Z</time>
      </trkpt>
			<trkpt lat="45.05975" lon="2.66711">
        <ele>1161.7</ele>
        <time>2026-08-05T09:16:49Z</time>
      </trkpt>
			<trkpt lat="45.06013" lon="2.66681">
        <ele>1161.6</ele>
        <time>2026-08-05T09:16:56Z</time>
      </trkpt>
			<trkpt lat="45.06023" lon="2.66681">
        <ele>1161.7</ele>
        <time>2026-08-05T09:16:58Z</time>
      </trkpt>
			<trkpt lat="45.06034" lon="2.66686">
        <ele>1162</ele>
        <time>2026-08-05T09:17:00Z</time>
      </trkpt>
			<trkpt lat="45.06055" lon="2.66716">
        <ele>1163.2</ele>
        <time>2026-08-05T09:17:07Z</time>
      </trkpt>
			<trkpt lat="45.06059" lon="2.66729">
        <ele>1163.8</ele>
        <time>2026-08-05T09:17:10Z</time>
      </trkpt>
			<trkpt lat="45.06061" lon="2.66745">
        <ele>1164.5</ele>
        <time>2026-08-05T09:17:14Z</time>
      </trkpt>
			<trkpt lat="45.06057" lon="2.66777">
        <ele>1166.2</ele>
        <time>2026-08-05T09:17:21Z</time>
      </trkpt>
			<trkpt lat="45.06053" lon="2.66809">
        <ele>1168.1</ele>
        <time>2026-08-05T09:17:29Z</time>
      </trkpt>
			<trkpt lat="45.06047" lon="2.66865">
        <ele>1171.8</ele>
        <time>2026-08-05T09:17:45Z</time>
      </trkpt>
			<trkpt lat="45.06042" lon="2.66921">
        <ele>1175.5</ele>
        <time>2026-08-05T09:18:01Z</time>
      </trkpt>
			<trkpt lat="45.06036" lon="2.66977">
        <ele>1178.6</ele>
        <time>2026-08-05T09:18:14Z</time>
      </trkpt>
			<trkpt lat="45.06042" lon="2.66994">
        <ele>1179.6</ele>
        <time>2026-08-05T09:18:19Z</time>
      </trkpt>
			<trkpt lat="45.0606" lon="2.67018">
        <ele>1181.1</ele>
        <time>2026-08-05T09:18:26Z</time>
      </trkpt>
			<trkpt lat="45.06065" lon="2.67036">
        <ele>1181.8</ele>
        <time>2026-08-05T09:18:30Z</time>
      </trkpt>
			<trkpt lat="45.06065" lon="2.67054">
        <ele>1182.3</ele>
        <time>2026-08-05T09:18:33Z</time>
      </trkpt>
			<trkpt lat="45.06068" lon="2.67062">
        <ele>1182.6</ele>
        <time>2026-08-05T09:18:34Z</time>
      </trkpt>
			<trkpt lat="45.06073" lon="2.67066">
        <ele>1182.9</ele>
        <time>2026-08-05T09:18:36Z</time>
      </trkpt>
			<trkpt lat="45.06078" lon="2.67068">
        <ele>1183.1</ele>
        <time>2026-08-05T09:18:37Z</time>
      </trkpt>
			<trkpt lat="45.06088" lon="2.67065">
        <ele>1183.5</ele>
        <time>2026-08-05T09:18:40Z</time>
      </trkpt>
			<trkpt lat="45.06109" lon="2.67032">
        <ele>1184.5</ele>
        <time>2026-08-05T09:18:47Z</time>
      </trkpt>
			<trkpt lat="45.06113" lon="2.67005">
        <ele>1185.2</ele>
        <time>2026-08-05T09:18:51Z</time>
      </trkpt>
			<trkpt lat="45.06119" lon="2.66984">
        <ele>1185.7</ele>
        <time>2026-08-05T09:18:55Z</time>
      </trkpt>
			<trkpt lat="45.06144" lon="2.66958">
        <ele>1186.8</ele>
        <time>2026-08-05T09:19:01Z</time>
      </trkpt>
			<trkpt lat="45.06156" lon="2.66954">
        <ele>1187.2</ele>
        <time>2026-08-05T09:19:04Z</time>
      </trkpt>
			<trkpt lat="45.06166" lon="2.6696">
        <ele>1187.6</ele>
        <time>2026-08-05T09:19:07Z</time>
      </trkpt>
			<trkpt lat="45.06182" lon="2.66986">
        <ele>1188.7</ele>
        <time>2026-08-05T09:19:13Z</time>
      </trkpt>
			<trkpt lat="45.06188" lon="2.67013">
        <ele>1189.7</ele>
        <time>2026-08-05T09:19:18Z</time>
      </trkpt>
			<trkpt lat="45.06207" lon="2.67028">
        <ele>1190.8</ele>
        <time>2026-08-05T09:19:24Z</time>
      </trkpt>
			<trkpt lat="45.06226" lon="2.67046">
        <ele>1192</ele>
        <time>2026-08-05T09:19:31Z</time>
      </trkpt>
			<trkpt lat="45.0624" lon="2.67077">
        <ele>1193.6</ele>
        <time>2026-08-05T09:19:39Z</time>
      </trkpt>
			<trkpt lat="45.06248" lon="2.67092">
        <ele>1194.4</ele>
        <time>2026-08-05T09:19:42Z</time>
      </trkpt>
			<trkpt lat="45.06257" lon="2.671">
        <ele>1195</ele>
        <time>2026-08-05T09:19:45Z</time>
      </trkpt>
			<trkpt lat="45.06267" lon="2.67101">
        <ele>1195.6</ele>
        <time>2026-08-05T09:19:48Z</time>
      </trkpt>
			<trkpt lat="45.06277" lon="2.67099">
        <ele>1196.3</ele>
        <time>2026-08-05T09:19:51Z</time>
      </trkpt>
			<trkpt lat="45.06291" lon="2.67086">
        <ele>1197.3</ele>
        <time>2026-08-05T09:19:56Z</time>
      </trkpt>
			<trkpt lat="45.06299" lon="2.67061">
        <ele>1198.5</ele>
        <time>2026-08-05T09:20:02Z</time>
      </trkpt>
			<trkpt lat="45.0631" lon="2.6704">
        <ele>1199.7</ele>
        <time>2026-08-05T09:20:08Z</time>
      </trkpt>
			<trkpt lat="45.06313" lon="2.67004">
        <ele>1201.3</ele>
        <time>2026-08-05T09:20:16Z</time>
      </trkpt>
			<trkpt lat="45.06316" lon="2.66968">
        <ele>1203</ele>
        <time>2026-08-05T09:20:24Z</time>
      </trkpt>
			<trkpt lat="45.06326" lon="2.6695">
        <ele>1204.1</ele>
        <time>2026-08-05T09:20:29Z</time>
      </trkpt>
			<trkpt lat="45.06334" lon="2.66944">
        <ele>1204.7</ele>
        <time>2026-08-05T09:20:31Z</time>
      </trkpt>
			<trkpt lat="45.06341" lon="2.66942">
        <ele>1205.2</ele>
        <time>2026-08-05T09:20:33Z</time>
      </trkpt>
			<trkpt lat="45.06347" lon="2.66944">
        <ele>1205.7</ele>
        <time>2026-08-05T09:20:36Z</time>
      </trkpt>
			<trkpt lat="45.06351" lon="2.66949">
        <ele>1206</ele>
        <time>2026-08-05T09:20:37Z</time>
      </trkpt>
			<trkpt lat="45.06354" lon="2.66957">
        <ele>1206.5</ele>
        <time>2026-08-05T09:20:39Z</time>
      </trkpt>
			<trkpt lat="45.06353" lon="2.66972">
        <ele>1207.3</ele>
        <time>2026-08-05T09:20:43Z</time>
      </trkpt>
			<trkpt lat="45.06352" lon="2.66976">
        <ele>1207.5</ele>
        <time>2026-08-05T09:20:44Z</time>
      </trkpt>
			<trkpt lat="45.06343" lon="2.67008">
        <ele>1209.4</ele>
        <time>2026-08-05T09:20:52Z</time>
      </trkpt>
			<trkpt lat="45.06341" lon="2.67046">
        <ele>1211.7</ele>
        <time>2026-08-05T09:21:03Z</time>
      </trkpt>
			<trkpt lat="45.06337" lon="2.67081">
        <ele>1214</ele>
        <time>2026-08-05T09:21:13Z</time>
      </trkpt>
			<trkpt lat="45.06332" lon="2.67116">
        <ele>1216.4</ele>
        <time>2026-08-05T09:21:24Z</time>
      </trkpt>
			<trkpt lat="45.06321" lon="2.67149">
        <ele>1219</ele>
        <time>2026-08-05T09:21:35Z</time>
      </trkpt>
			<trkpt lat="45.06308" lon="2.67189">
        <ele>1222.4</ele>
        <time>2026-08-05T09:21:51Z</time>
      </trkpt>
			<trkpt lat="45.063" lon="2.67203">
        <ele>1223.8</ele>
        <time>2026-08-05T09:21:57Z</time>
      </trkpt>
			<trkpt lat="45.06283" lon="2.67211">
        <ele>1225.8</ele>
        <time>2026-08-05T09:22:06Z</time>
      </trkpt>
			<trkpt lat="45.06253" lon="2.67216">
        <ele>1229.3</ele>
        <time>2026-08-05T09:22:21Z</time>
      </trkpt>
			<trkpt lat="45.06223" lon="2.6722">
        <ele>1232.7</ele>
        <time>2026-08-05T09:22:36Z</time>
      </trkpt>
			<trkpt lat="45.06209" lon="2.67229">
        <ele>1234.5</ele>
        <time>2026-08-05T09:22:44Z</time>
      </trkpt>
			<trkpt lat="45.06197" lon="2.67245">
        <ele>1236.6</ele>
        <time>2026-08-05T09:22:52Z</time>
      </trkpt>
			<trkpt lat="45.06192" lon="2.67254">
        <ele>1237.5</ele>
        <time>2026-08-05T09:22:56Z</time>
      </trkpt>
			<trkpt lat="45.0619" lon="2.67275">
        <ele>1239.3</ele>
        <time>2026-08-05T09:23:04Z</time>
      </trkpt>
			<trkpt lat="45.06191" lon="2.67293">
        <ele>1240.8</ele>
        <time>2026-08-05T09:23:10Z</time>
      </trkpt>
			<trkpt lat="45.06187" lon="2.67308">
        <ele>1242.3</ele>
        <time>2026-08-05T09:23:17Z</time>
      </trkpt>
			<trkpt lat="45.06169" lon="2.67329">
        <ele>1245.3</ele>
        <time>2026-08-05T09:23:30Z</time>
      </trkpt>
			<trkpt lat="45.06151" lon="2.6735">
        <ele>1248.4</ele>
        <time>2026-08-05T09:23:43Z</time>
      </trkpt>
			<trkpt lat="45.06138" lon="2.67377">
        <ele>1251.6</ele>
        <time>2026-08-05T09:23:57Z</time>
      </trkpt>
			<trkpt lat="45.06124" lon="2.67403">
        <ele>1254.8</ele>
        <time>2026-08-05T09:24:10Z</time>
      </trkpt>
			<trkpt lat="45.06101" lon="2.67408">
        <ele>1258.2</ele>
        <time>2026-08-05T09:24:25Z</time>
      </trkpt>
			<trkpt lat="45.06087" lon="2.67416">
        <ele>1260.5</ele>
        <time>2026-08-05T09:24:35Z</time>
      </trkpt>
			<trkpt lat="45.06064" lon="2.67433">
        <ele>1264.5</ele>
        <time>2026-08-05T09:24:53Z</time>
      </trkpt>
			<trkpt lat="45.06034" lon="2.67436">
        <ele>1268.9</ele>
        <time>2026-08-05T09:25:13Z</time>
      </trkpt>
			<trkpt lat="45.0601" lon="2.67444">
        <ele>1272.6</ele>
        <time>2026-08-05T09:25:29Z</time>
      </trkpt>
			<trkpt lat="45.05984" lon="2.67442">
        <ele>1276.1</ele>
        <time>2026-08-05T09:25:44Z</time>
      </trkpt>
			<trkpt lat="45.0596" lon="2.67434">
        <ele>1279.3</ele>
        <time>2026-08-05T09:25:58Z</time>
      </trkpt>
			<trkpt lat="45.05945" lon="2.67413">
        <ele>1281.8</ele>
        <time>2026-08-05T09:26:09Z</time>
      </trkpt>
			<trkpt lat="45.05937" lon="2.67388">
        <ele>1284</ele>
        <time>2026-08-05T09:26:18Z</time>
      </trkpt>
			<trkpt lat="45.05925" lon="2.67339">
        <ele>1287.5</ele>
        <time>2026-08-05T09:26:35Z</time>
      </trkpt>
			<trkpt lat="45.05914" lon="2.67319">
        <ele>1289</ele>
        <time>2026-08-05T09:26:42Z</time>
      </trkpt>
			<trkpt lat="45.059" lon="2.67312">
        <ele>1290</ele>
        <time>2026-08-05T09:26:46Z</time>
      </trkpt>
			<trkpt lat="45.05881" lon="2.67313">
        <ele>1291.3</ele>
        <time>2026-08-05T09:26:52Z</time>
      </trkpt>
			<trkpt lat="45.05852" lon="2.67325">
        <ele>1293.1</ele>
        <time>2026-08-05T09:27:01Z</time>
      </trkpt>
			<trkpt lat="45.05831" lon="2.67336">
        <ele>1294.2</ele>
        <time>2026-08-05T09:27:07Z</time>
      </trkpt>
			<trkpt lat="45.05818" lon="2.67347">
        <ele>1294.9</ele>
        <time>2026-08-05T09:27:10Z</time>
      </trkpt>
			<trkpt lat="45.05813" lon="2.67356">
        <ele>1295.2</ele>
        <time>2026-08-05T09:27:12Z</time>
      </trkpt>
		</trkseg>
	</trk>
</gpx>
