<?xml version="1.0" encoding="UTF-8"?>
<gpx creator="Wikiloc - https://www.wikiloc.com" version="1.1" xmlns="http://www.topografix.com/GPX/1/1" xmlns:xsi="http://www.w3.org/2001/XMLSchema-instance" xsi:schemaLocation="http://www.topografix.com/GPX/1/1 http://www.topografix.com/GPX/1/1/gpx.xsd">
  <metadata>
    <name>Wikiloc - Col de Labays 1.354m desde Lourdios-Ichère</name>
    <link href="https://www.wikiloc.com/cycling-trails/col-de-labays-1-354m-desde-lourdios-ichere-260273658">
      <text>Col de Labays 1.354m desde Lourdios-Ichère - Wikiloc on Wikiloc</text>
    </link>
    <time>2026-04-19T08:49:28Z</time>
  </metadata>
  <trk>
    <name>Col de Labays 1.354m desde Lourdios-Ichère - Wikiloc</name>
    <cmt></cmt>
    <desc></desc>
    <trkseg>
      <trkpt lat="43.050081" lon="-0.675865">
        <ele>399.991</ele>
        <time>2026-04-19T07:29:55Z</time>
      </trkpt>
      <trkpt lat="43.049427" lon="-0.676207">
        <ele>397.981</ele>
        <time>2026-04-19T07:30:26Z</time>
      </trkpt>
      <trkpt lat="43.048700" lon="-0.676331">
        <ele>402.019</ele>
        <time>2026-04-19T07:30:49Z</time>
      </trkpt>
      <trkpt lat="43.048336" lon="-0.676601">
        <ele>406.709</ele>
        <time>2026-04-19T07:31:04Z</time>
      </trkpt>
      <trkpt lat="43.048182" lon="-0.676538">
        <ele>408.811</ele>
        <time>2026-04-19T07:31:11Z</time>
      </trkpt>
      <trkpt lat="43.048004" lon="-0.676264">
        <ele>412.195</ele>
        <time>2026-04-19T07:31:19Z</time>
      </trkpt>
      <trkpt lat="43.047838" lon="-0.676220">
        <ele>414.069</ele>
        <time>2026-04-19T07:31:26Z</time>
      </trkpt>
      <trkpt lat="43.047425" lon="-0.676377">
        <ele>419.331</ele>
        <time>2026-04-19T07:31:46Z</time>
      </trkpt>
      <trkpt lat="43.046931" lon="-0.676422">
        <ele>422.926</ele>
        <time>2026-04-19T07:32:06Z</time>
      </trkpt>
      <trkpt lat="43.046302" lon="-0.676832">
        <ele>427.052</ele>
        <time>2026-04-19T07:32:29Z</time>
      </trkpt>
      <trkpt lat="43.045092" lon="-0.677836">
        <ele>434.715</ele>
        <time>2026-04-19T07:33:09Z</time>
      </trkpt>
      <trkpt lat="43.044653" lon="-0.678023">
        <ele>432.914</ele>
        <time>2026-04-19T07:33:15Z</time>
      </trkpt>
      <trkpt lat="43.044233" lon="-0.677910">
        <ele>429.327</ele>
        <time>2026-04-19T07:33:20Z</time>
      </trkpt>
      <trkpt lat="43.044113" lon="-0.678037">
        <ele>428.329</ele>
        <time>2026-04-19T07:33:22Z</time>
      </trkpt>
      <trkpt lat="43.044023" lon="-0.678445">
        <ele>426.100</ele>
        <time>2026-04-19T07:33:26Z</time>
      </trkpt>
      <trkpt lat="43.043785" lon="-0.678889">
        <ele>424.220</ele>
        <time>2026-04-19T07:33:31Z</time>
      </trkpt>
      <trkpt lat="43.042962" lon="-0.679591">
        <ele>429.509</ele>
        <time>2026-04-19T07:33:50Z</time>
      </trkpt>
      <trkpt lat="43.042682" lon="-0.679648">
        <ele>432.414</ele>
        <time>2026-04-19T07:33:57Z</time>
      </trkpt>
      <trkpt lat="43.042386" lon="-0.679363">
        <ele>435.948</ele>
        <time>2026-04-19T07:34:08Z</time>
      </trkpt>
      <trkpt lat="43.042175" lon="-0.679322">
        <ele>438.172</ele>
        <time>2026-04-19T07:34:15Z</time>
      </trkpt>
      <trkpt lat="43.042163" lon="-0.679813">
        <ele>441.864</ele>
        <time>2026-04-19T07:34:29Z</time>
      </trkpt>
      <trkpt lat="43.041782" lon="-0.679975">
        <ele>445.829</ele>
        <time>2026-04-19T07:34:46Z</time>
      </trkpt>
      <trkpt lat="43.041355" lon="-0.680720">
        <ele>442.565</ele>
        <time>2026-04-19T07:34:58Z</time>
      </trkpt>
      <trkpt lat="43.041137" lon="-0.681803">
        <ele>436.928</ele>
        <time>2026-04-19T07:35:09Z</time>
      </trkpt>
      <trkpt lat="43.040717" lon="-0.682087">
        <ele>435.367</ele>
        <time>2026-04-19T07:35:16Z</time>
      </trkpt>
      <trkpt lat="43.040070" lon="-0.682317">
        <ele>436.040</ele>
        <time>2026-04-19T07:35:27Z</time>
      </trkpt>
      <trkpt lat="43.039634" lon="-0.682576">
        <ele>438.391</ele>
        <time>2026-04-19T07:35:35Z</time>
      </trkpt>
      <trkpt lat="43.038351" lon="-0.683554">
        <ele>455.481</ele>
        <time>2026-04-19T07:36:27Z</time>
      </trkpt>
      <trkpt lat="43.037969" lon="-0.683948">
        <ele>460.819</ele>
        <time>2026-04-19T07:36:46Z</time>
      </trkpt>
      <trkpt lat="43.037469" lon="-0.683649">
        <ele>466.309</ele>
        <time>2026-04-19T07:37:13Z</time>
      </trkpt>
      <trkpt lat="43.037083" lon="-0.683672">
        <ele>470.251</ele>
        <time>2026-04-19T07:37:31Z</time>
      </trkpt>
      <trkpt lat="43.036280" lon="-0.683910">
        <ele>479.985</ele>
        <time>2026-04-19T07:38:04Z</time>
      </trkpt>
      <trkpt lat="43.035642" lon="-0.684253">
        <ele>488.779</ele>
        <time>2026-04-19T07:38:27Z</time>
      </trkpt>
      <trkpt lat="43.034894" lon="-0.685645">
        <ele>503.591</ele>
        <time>2026-04-19T07:39:15Z</time>
      </trkpt>
      <trkpt lat="43.033548" lon="-0.687297">
        <ele>526.966</ele>
        <time>2026-04-19T07:40:34Z</time>
      </trkpt>
      <trkpt lat="43.033349" lon="-0.688969">
        <ele>542.382</ele>
        <time>2026-04-19T07:41:24Z</time>
      </trkpt>
      <trkpt lat="43.033061" lon="-0.689591">
        <ele>548.635</ele>
        <time>2026-04-19T07:41:46Z</time>
      </trkpt>
      <trkpt lat="43.032872" lon="-0.690584">
        <ele>557.494</ele>
        <time>2026-04-19T07:42:16Z</time>
      </trkpt>
      <trkpt lat="43.032188" lon="-0.691602">
        <ele>562.757</ele>
        <time>2026-04-19T07:42:49Z</time>
      </trkpt>
      <trkpt lat="43.031725" lon="-0.692576">
        <ele>563.923</ele>
        <time>2026-04-19T07:43:12Z</time>
      </trkpt>
      <trkpt lat="43.031556" lon="-0.692554">
        <ele>564.183</ele>
        <time>2026-04-19T07:43:16Z</time>
      </trkpt>
      <trkpt lat="43.030898" lon="-0.691989">
        <ele>562.711</ele>
        <time>2026-04-19T07:43:30Z</time>
      </trkpt>
      <trkpt lat="43.030516" lon="-0.691798">
        <ele>565.509</ele>
        <time>2026-04-19T07:43:41Z</time>
      </trkpt>
      <trkpt lat="43.029914" lon="-0.691109">
        <ele>574.054</ele>
        <time>2026-04-19T07:44:06Z</time>
      </trkpt>
      <trkpt lat="43.029150" lon="-0.690588">
        <ele>582.198</ele>
        <time>2026-04-19T07:44:35Z</time>
      </trkpt>
      <trkpt lat="43.028180" lon="-0.691337">
        <ele>582.342</ele>
        <time>2026-04-19T07:45:02Z</time>
      </trkpt>
      <trkpt lat="43.027559" lon="-0.691673">
        <ele>582.624</ele>
        <time>2026-04-19T07:45:12Z</time>
      </trkpt>
      <trkpt lat="43.026964" lon="-0.691858">
        <ele>582.779</ele>
        <time>2026-04-19T07:45:23Z</time>
      </trkpt>
      <trkpt lat="43.026747" lon="-0.691830">
        <ele>583.265</ele>
        <time>2026-04-19T07:45:27Z</time>
      </trkpt>
      <trkpt lat="43.026038" lon="-0.691395">
        <ele>589.078</ele>
        <time>2026-04-19T07:45:46Z</time>
      </trkpt>
      <trkpt lat="43.025622" lon="-0.690913">
        <ele>595.057</ele>
        <time>2026-04-19T07:46:05Z</time>
      </trkpt>
      <trkpt lat="43.025308" lon="-0.690765">
        <ele>598.410</ele>
        <time>2026-04-19T07:46:20Z</time>
      </trkpt>
      <trkpt lat="43.024966" lon="-0.690739">
        <ele>601.564</ele>
        <time>2026-04-19T07:46:36Z</time>
      </trkpt>
      <trkpt lat="43.024552" lon="-0.690908">
        <ele>604.406</ele>
        <time>2026-04-19T07:46:53Z</time>
      </trkpt>
      <trkpt lat="43.023967" lon="-0.690934">
        <ele>607.616</ele>
        <time>2026-04-19T07:47:11Z</time>
      </trkpt>
      <trkpt lat="43.023601" lon="-0.691089">
        <ele>610.909</ele>
        <time>2026-04-19T07:47:26Z</time>
      </trkpt>
      <trkpt lat="43.023107" lon="-0.690819">
        <ele>615.268</ele>
        <time>2026-04-19T07:47:47Z</time>
      </trkpt>
      <trkpt lat="43.022580" lon="-0.691024">
        <ele>617.712</ele>
        <time>2026-04-19T07:48:00Z</time>
      </trkpt>
      <trkpt lat="43.021987" lon="-0.691058">
        <ele>617.356</ele>
        <time>2026-04-19T07:48:11Z</time>
      </trkpt>
      <trkpt lat="43.021688" lon="-0.690864">
        <ele>616.088</ele>
        <time>2026-04-19T07:48:16Z</time>
      </trkpt>
      <trkpt lat="43.021472" lon="-0.690449">
        <ele>614.893</ele>
        <time>2026-04-19T07:48:21Z</time>
      </trkpt>
      <trkpt lat="43.021207" lon="-0.690207">
        <ele>614.289</ele>
        <time>2026-04-19T07:48:25Z</time>
      </trkpt>
      <trkpt lat="43.019504" lon="-0.689911">
        <ele>619.022</ele>
        <time>2026-04-19T07:48:56Z</time>
      </trkpt>
      <trkpt lat="43.018974" lon="-0.689907">
        <ele>620.691</ele>
        <time>2026-04-19T07:49:08Z</time>
      </trkpt>
      <trkpt lat="43.018219" lon="-0.689093">
        <ele>621.644</ele>
        <time>2026-04-19T07:49:28Z</time>
      </trkpt>
      <trkpt lat="43.017163" lon="-0.688577">
        <ele>623.882</ele>
        <time>2026-04-19T07:49:54Z</time>
      </trkpt>
      <trkpt lat="43.016195" lon="-0.687512">
        <ele>630.843</ele>
        <time>2026-04-19T07:50:26Z</time>
      </trkpt>
      <trkpt lat="43.015810" lon="-0.687227">
        <ele>632.717</ele>
        <time>2026-04-19T07:50:38Z</time>
      </trkpt>
      <trkpt lat="43.014974" lon="-0.687264">
        <ele>636.009</ele>
        <time>2026-04-19T07:51:00Z</time>
      </trkpt>
      <trkpt lat="43.013966" lon="-0.686637">
        <ele>638.230</ele>
        <time>2026-04-19T07:51:26Z</time>
      </trkpt>
      <trkpt lat="43.013564" lon="-0.686547">
        <ele>638.744</ele>
        <time>2026-04-19T07:51:35Z</time>
      </trkpt>
      <trkpt lat="43.012696" lon="-0.685874">
        <ele>638.918</ele>
        <time>2026-04-19T07:51:55Z</time>
      </trkpt>
      <trkpt lat="43.011823" lon="-0.685564">
        <ele>638.260</ele>
        <time>2026-04-19T07:52:12Z</time>
      </trkpt>
      <trkpt lat="43.010253" lon="-0.686158">
        <ele>642.615</ele>
        <time>2026-04-19T07:52:46Z</time>
      </trkpt>
      <trkpt lat="43.009763" lon="-0.686739">
        <ele>645.221</ele>
        <time>2026-04-19T07:53:02Z</time>
      </trkpt>
      <trkpt lat="43.009540" lon="-0.686862">
        <ele>646.244</ele>
        <time>2026-04-19T07:53:08Z</time>
      </trkpt>
      <trkpt lat="43.009229" lon="-0.686727">
        <ele>646.793</ele>
        <time>2026-04-19T07:53:15Z</time>
      </trkpt>
      <trkpt lat="43.008862" lon="-0.686783">
        <ele>646.946</ele>
        <time>2026-04-19T07:53:23Z</time>
      </trkpt>
      <trkpt lat="43.008558" lon="-0.686603">
        <ele>648.515</ele>
        <time>2026-04-19T07:53:31Z</time>
      </trkpt>
      <trkpt lat="43.008371" lon="-0.686697">
        <ele>649.765</ele>
        <time>2026-04-19T07:53:36Z</time>
      </trkpt>
      <trkpt lat="43.008078" lon="-0.687066">
        <ele>651.811</ele>
        <time>2026-04-19T07:53:47Z</time>
      </trkpt>
      <trkpt lat="43.007996" lon="-0.686952">
        <ele>652.709</ele>
        <time>2026-04-19T07:53:50Z</time>
      </trkpt>
      <trkpt lat="43.007989" lon="-0.686404">
        <ele>657.433</ele>
        <time>2026-04-19T07:54:04Z</time>
      </trkpt>
      <trkpt lat="43.007840" lon="-0.686278">
        <ele>659.787</ele>
        <time>2026-04-19T07:54:11Z</time>
      </trkpt>
      <trkpt lat="43.007647" lon="-0.686269">
        <ele>662.671</ele>
        <time>2026-04-19T07:54:21Z</time>
      </trkpt>
      <trkpt lat="43.007350" lon="-0.686502">
        <ele>668.113</ele>
        <time>2026-04-19T07:54:35Z</time>
      </trkpt>
      <trkpt lat="43.007309" lon="-0.687139">
        <ele>673.938</ele>
        <time>2026-04-19T07:54:57Z</time>
      </trkpt>
      <trkpt lat="43.007170" lon="-0.687292">
        <ele>675.954</ele>
        <time>2026-04-19T07:55:04Z</time>
      </trkpt>
      <trkpt lat="43.007016" lon="-0.687324">
        <ele>677.667</ele>
        <time>2026-04-19T07:55:10Z</time>
      </trkpt>
      <trkpt lat="43.006742" lon="-0.687013">
        <ele>681.336</ele>
        <time>2026-04-19T07:55:25Z</time>
      </trkpt>
      <trkpt lat="43.006435" lon="-0.686381">
        <ele>686.099</ele>
        <time>2026-04-19T07:55:46Z</time>
      </trkpt>
      <trkpt lat="43.005863" lon="-0.685924">
        <ele>693.991</ele>
        <time>2026-04-19T07:56:15Z</time>
      </trkpt>
      <trkpt lat="43.005765" lon="-0.687154">
        <ele>704.781</ele>
        <time>2026-04-19T07:56:56Z</time>
      </trkpt>
      <trkpt lat="43.005546" lon="-0.687865">
        <ele>712.319</ele>
        <time>2026-04-19T07:57:20Z</time>
      </trkpt>
      <trkpt lat="43.005559" lon="-0.688363">
        <ele>717.309</ele>
        <time>2026-04-19T07:57:35Z</time>
      </trkpt>
      <trkpt lat="43.005474" lon="-0.688561">
        <ele>719.741</ele>
        <time>2026-04-19T07:57:43Z</time>
      </trkpt>
      <trkpt lat="43.005182" lon="-0.688723">
        <ele>723.975</ele>
        <time>2026-04-19T07:57:57Z</time>
      </trkpt>
      <trkpt lat="43.004680" lon="-0.688777">
        <ele>730.539</ele>
        <time>2026-04-19T07:58:22Z</time>
      </trkpt>
      <trkpt lat="43.004562" lon="-0.688527">
        <ele>733.681</ele>
        <time>2026-04-19T07:58:31Z</time>
      </trkpt>
      <trkpt lat="43.004585" lon="-0.688076">
        <ele>738.366</ele>
        <time>2026-04-19T07:58:47Z</time>
      </trkpt>
      <trkpt lat="43.004469" lon="-0.687893">
        <ele>740.992</ele>
        <time>2026-04-19T07:58:54Z</time>
      </trkpt>
      <trkpt lat="43.004295" lon="-0.687843">
        <ele>743.595</ele>
        <time>2026-04-19T07:59:04Z</time>
      </trkpt>
      <trkpt lat="43.003626" lon="-0.688913">
        <ele>758.264</ele>
        <time>2026-04-19T07:59:55Z</time>
      </trkpt>
      <trkpt lat="43.003139" lon="-0.689261">
        <ele>767.197</ele>
        <time>2026-04-19T08:00:19Z</time>
      </trkpt>
      <trkpt lat="43.003059" lon="-0.690615">
        <ele>779.831</ele>
        <time>2026-04-19T08:01:04Z</time>
      </trkpt>
      <trkpt lat="43.002756" lon="-0.692636">
        <ele>797.861</ele>
        <time>2026-04-19T08:02:08Z</time>
      </trkpt>
      <trkpt lat="43.002180" lon="-0.693976">
        <ele>808.807</ele>
        <time>2026-04-19T08:02:56Z</time>
      </trkpt>
      <trkpt lat="43.002040" lon="-0.693961">
        <ele>810.009</ele>
        <time>2026-04-19T08:03:04Z</time>
      </trkpt>
      <trkpt lat="43.002141" lon="-0.693293">
        <ele>812.245</ele>
        <time>2026-04-19T08:03:26Z</time>
      </trkpt>
      <trkpt lat="43.002139" lon="-0.692088">
        <ele>822.289</ele>
        <time>2026-04-19T08:04:02Z</time>
      </trkpt>
      <trkpt lat="43.001951" lon="-0.692575">
        <ele>827.093</ele>
        <time>2026-04-19T08:04:22Z</time>
      </trkpt>
      <trkpt lat="43.001441" lon="-0.693342">
        <ele>838.265</ele>
        <time>2026-04-19T08:04:57Z</time>
      </trkpt>
      <trkpt lat="43.001012" lon="-0.694336">
        <ele>847.060</ele>
        <time>2026-04-19T08:05:31Z</time>
      </trkpt>
      <trkpt lat="43.000931" lon="-0.694099">
        <ele>847.866</ele>
        <time>2026-04-19T08:05:42Z</time>
      </trkpt>
      <trkpt lat="43.001026" lon="-0.693237">
        <ele>851.419</ele>
        <time>2026-04-19T08:06:05Z</time>
      </trkpt>
      <trkpt lat="43.000964" lon="-0.693097">
        <ele>852.618</ele>
        <time>2026-04-19T08:06:10Z</time>
      </trkpt>
      <trkpt lat="43.000559" lon="-0.693917">
        <ele>860.661</ele>
        <time>2026-04-19T08:06:43Z</time>
      </trkpt>
      <trkpt lat="43.000157" lon="-0.694484">
        <ele>867.631</ele>
        <time>2026-04-19T08:07:03Z</time>
      </trkpt>
      <trkpt lat="42.998189" lon="-0.695310">
        <ele>890.561</ele>
        <time>2026-04-19T08:08:18Z</time>
      </trkpt>
      <trkpt lat="42.997992" lon="-0.695306">
        <ele>892.207</ele>
        <time>2026-04-19T08:08:25Z</time>
      </trkpt>
      <trkpt lat="42.997951" lon="-0.695176">
        <ele>892.909</ele>
        <time>2026-04-19T08:08:29Z</time>
      </trkpt>
      <trkpt lat="42.998279" lon="-0.695033">
        <ele>894.955</ele>
        <time>2026-04-19T08:08:46Z</time>
      </trkpt>
      <trkpt lat="42.998315" lon="-0.694860">
        <ele>896.129</ele>
        <time>2026-04-19T08:08:53Z</time>
      </trkpt>
      <trkpt lat="42.997854" lon="-0.694876">
        <ele>900.493</ele>
        <time>2026-04-19T08:09:13Z</time>
      </trkpt>
      <trkpt lat="42.997350" lon="-0.694363">
        <ele>906.275</ele>
        <time>2026-04-19T08:09:46Z</time>
      </trkpt>
      <trkpt lat="42.996675" lon="-0.694198">
        <ele>912.150</ele>
        <time>2026-04-19T08:10:14Z</time>
      </trkpt>
      <trkpt lat="42.996545" lon="-0.694244">
        <ele>912.796</ele>
        <time>2026-04-19T08:10:19Z</time>
      </trkpt>
      <trkpt lat="42.996509" lon="-0.694420">
        <ele>913.019</ele>
        <time>2026-04-19T08:10:23Z</time>
      </trkpt>
      <trkpt lat="42.996774" lon="-0.694755">
        <ele>910.848</ele>
        <time>2026-04-19T08:10:33Z</time>
      </trkpt>
      <trkpt lat="42.996844" lon="-0.694986">
        <ele>909.531</ele>
        <time>2026-04-19T08:10:36Z</time>
      </trkpt>
      <trkpt lat="42.997319" lon="-0.697240">
        <ele>903.972</ele>
        <time>2026-04-19T08:10:59Z</time>
      </trkpt>
      <trkpt lat="42.997770" lon="-0.697879">
        <ele>903.913</ele>
        <time>2026-04-19T08:11:08Z</time>
      </trkpt>
      <trkpt lat="42.998048" lon="-0.698537">
        <ele>902.914</ele>
        <time>2026-04-19T08:11:17Z</time>
      </trkpt>
      <trkpt lat="42.999193" lon="-0.699464">
        <ele>900.009</ele>
        <time>2026-04-19T08:11:36Z</time>
      </trkpt>
      <trkpt lat="42.999220" lon="-0.699712">
        <ele>899.679</ele>
        <time>2026-04-19T08:11:39Z</time>
      </trkpt>
      <trkpt lat="42.999062" lon="-0.700319">
        <ele>897.813</ele>
        <time>2026-04-19T08:11:46Z</time>
      </trkpt>
      <trkpt lat="42.999190" lon="-0.701457">
        <ele>895.087</ele>
        <time>2026-04-19T08:11:58Z</time>
      </trkpt>
      <trkpt lat="42.999059" lon="-0.702118">
        <ele>893.459</ele>
        <time>2026-04-19T08:12:05Z</time>
      </trkpt>
      <trkpt lat="42.999085" lon="-0.702521">
        <ele>891.894</ele>
        <time>2026-04-19T08:12:09Z</time>
      </trkpt>
      <trkpt lat="42.999230" lon="-0.702655">
        <ele>891.220</ele>
        <time>2026-04-19T08:12:11Z</time>
      </trkpt>
      <trkpt lat="42.999393" lon="-0.702637">
        <ele>891.483</ele>
        <time>2026-04-19T08:12:13Z</time>
      </trkpt>
      <trkpt lat="42.999854" lon="-0.701877">
        <ele>888.412</ele>
        <time>2026-04-19T08:12:24Z</time>
      </trkpt>
      <trkpt lat="43.000255" lon="-0.701519">
        <ele>884.745</ele>
        <time>2026-04-19T08:12:29Z</time>
      </trkpt>
      <trkpt lat="43.000559" lon="-0.701490">
        <ele>882.013</ele>
        <time>2026-04-19T08:12:32Z</time>
      </trkpt>
      <trkpt lat="43.001137" lon="-0.701881">
        <ele>875.943</ele>
        <time>2026-04-19T08:12:38Z</time>
      </trkpt>
      <trkpt lat="43.001537" lon="-0.703327">
        <ele>865.007</ele>
        <time>2026-04-19T08:12:48Z</time>
      </trkpt>
      <trkpt lat="43.001844" lon="-0.703794">
        <ele>863.309</ele>
        <time>2026-04-19T08:12:52Z</time>
      </trkpt>
      <trkpt lat="43.002029" lon="-0.703892">
        <ele>864.243</ele>
        <time>2026-04-19T08:12:54Z</time>
      </trkpt>
      <trkpt lat="43.002244" lon="-0.703810">
        <ele>866.477</ele>
        <time>2026-04-19T08:12:57Z</time>
      </trkpt>
      <trkpt lat="43.002597" lon="-0.702932">
        <ele>876.281</ele>
        <time>2026-04-19T08:13:27Z</time>
      </trkpt>
      <trkpt lat="43.002854" lon="-0.703005">
        <ele>879.083</ele>
        <time>2026-04-19T08:13:37Z</time>
      </trkpt>
      <trkpt lat="43.003008" lon="-0.703266">
        <ele>880.678</ele>
        <time>2026-04-19T08:13:48Z</time>
      </trkpt>
      <trkpt lat="43.003042" lon="-0.704188">
        <ele>883.684</ele>
        <time>2026-04-19T08:14:12Z</time>
      </trkpt>
      <trkpt lat="43.002911" lon="-0.704679">
        <ele>884.987</ele>
        <time>2026-04-19T08:14:23Z</time>
      </trkpt>
      <trkpt lat="43.003021" lon="-0.705633">
        <ele>889.976</ele>
        <time>2026-04-19T08:14:45Z</time>
      </trkpt>
      <trkpt lat="43.002808" lon="-0.706316">
        <ele>896.129</ele>
        <time>2026-04-19T08:15:04Z</time>
      </trkpt>
      <trkpt lat="43.002791" lon="-0.706894">
        <ele>901.255</ele>
        <time>2026-04-19T08:15:19Z</time>
      </trkpt>
      <trkpt lat="43.002501" lon="-0.707783">
        <ele>905.007</ele>
        <time>2026-04-19T08:15:42Z</time>
      </trkpt>
      <trkpt lat="43.002610" lon="-0.710197">
        <ele>917.717</ele>
        <time>2026-04-19T08:16:30Z</time>
      </trkpt>
      <trkpt lat="43.002448" lon="-0.710409">
        <ele>920.909</ele>
        <time>2026-04-19T08:16:39Z</time>
      </trkpt>
      <trkpt lat="43.002074" lon="-0.710003">
        <ele>924.857</ele>
        <time>2026-04-19T08:17:00Z</time>
      </trkpt>
      <trkpt lat="43.001577" lon="-0.710155">
        <ele>930.381</ele>
        <time>2026-04-19T08:17:21Z</time>
      </trkpt>
      <trkpt lat="43.001476" lon="-0.711276">
        <ele>941.525</ele>
        <time>2026-04-19T08:17:57Z</time>
      </trkpt>
      <trkpt lat="43.001564" lon="-0.711718">
        <ele>944.787</ele>
        <time>2026-04-19T08:18:10Z</time>
      </trkpt>
      <trkpt lat="43.001525" lon="-0.711953">
        <ele>946.822</ele>
        <time>2026-04-19T08:18:17Z</time>
      </trkpt>
      <trkpt lat="43.001382" lon="-0.712114">
        <ele>949.428</ele>
        <time>2026-04-19T08:18:24Z</time>
      </trkpt>
      <trkpt lat="43.001177" lon="-0.712181">
        <ele>952.181</ele>
        <time>2026-04-19T08:18:35Z</time>
      </trkpt>
      <trkpt lat="43.000815" lon="-0.712145">
        <ele>955.970</ele>
        <time>2026-04-19T08:18:50Z</time>
      </trkpt>
      <trkpt lat="43.000679" lon="-0.712421">
        <ele>958.273</ele>
        <time>2026-04-19T08:18:58Z</time>
      </trkpt>
      <trkpt lat="43.001113" lon="-0.713940">
        <ele>973.623</ele>
        <time>2026-04-19T08:19:49Z</time>
      </trkpt>
      <trkpt lat="43.000977" lon="-0.714381">
        <ele>978.983</ele>
        <time>2026-04-19T08:20:06Z</time>
      </trkpt>
      <trkpt lat="43.000558" lon="-0.714555">
        <ele>985.211</ele>
        <time>2026-04-19T08:20:26Z</time>
      </trkpt>
      <trkpt lat="43.000517" lon="-0.714977">
        <ele>989.909</ele>
        <time>2026-04-19T08:20:41Z</time>
      </trkpt>
      <trkpt lat="43.000632" lon="-0.715731">
        <ele>997.554</ele>
        <time>2026-04-19T08:21:10Z</time>
      </trkpt>
      <trkpt lat="43.001007" lon="-0.716157">
        <ele>1004.678</ele>
        <time>2026-04-19T08:21:36Z</time>
      </trkpt>
      <trkpt lat="43.001090" lon="-0.716874">
        <ele>1010.772</ele>
        <time>2026-04-19T08:21:58Z</time>
      </trkpt>
      <trkpt lat="43.001194" lon="-0.717090">
        <ele>1012.324</ele>
        <time>2026-04-19T08:22:06Z</time>
      </trkpt>
      <trkpt lat="43.001306" lon="-0.717080">
        <ele>1013.069</ele>
        <time>2026-04-19T08:22:11Z</time>
      </trkpt>
      <trkpt lat="43.001496" lon="-0.716770">
        <ele>1014.735</ele>
        <time>2026-04-19T08:22:24Z</time>
      </trkpt>
      <trkpt lat="43.001957" lon="-0.716802">
        <ele>1018.898</ele>
        <time>2026-04-19T08:22:43Z</time>
      </trkpt>
      <trkpt lat="43.002233" lon="-0.716616">
        <ele>1021.417</ele>
        <time>2026-04-19T08:22:56Z</time>
      </trkpt>
      <trkpt lat="43.002284" lon="-0.716386">
        <ele>1022.510</ele>
        <time>2026-04-19T08:23:04Z</time>
      </trkpt>
      <trkpt lat="43.002158" lon="-0.715703">
        <ele>1026.878</ele>
        <time>2026-04-19T08:23:27Z</time>
      </trkpt>
      <trkpt lat="43.002873" lon="-0.714502">
        <ele>1037.633</ele>
        <time>2026-04-19T08:24:25Z</time>
      </trkpt>
      <trkpt lat="43.003226" lon="-0.714378">
        <ele>1041.526</ele>
        <time>2026-04-19T08:24:40Z</time>
      </trkpt>
      <trkpt lat="43.003809" lon="-0.713995">
        <ele>1048.509</ele>
        <time>2026-04-19T08:25:08Z</time>
      </trkpt>
      <trkpt lat="43.004791" lon="-0.712730">
        <ele>1062.979</ele>
        <time>2026-04-19T08:26:04Z</time>
      </trkpt>
      <trkpt lat="43.005355" lon="-0.712608">
        <ele>1069.073</ele>
        <time>2026-04-19T08:26:27Z</time>
      </trkpt>
      <trkpt lat="43.006231" lon="-0.712129">
        <ele>1079.637</ele>
        <time>2026-04-19T08:27:05Z</time>
      </trkpt>
      <trkpt lat="43.006961" lon="-0.711265">
        <ele>1090.339</ele>
        <time>2026-04-19T08:27:44Z</time>
      </trkpt>
      <trkpt lat="43.007368" lon="-0.710927">
        <ele>1094.444</ele>
        <time>2026-04-19T08:28:02Z</time>
      </trkpt>
      <trkpt lat="43.007658" lon="-0.710447">
        <ele>1098.040</ele>
        <time>2026-04-19T08:28:20Z</time>
      </trkpt>
      <trkpt lat="43.007780" lon="-0.710480">
        <ele>1099.083</ele>
        <time>2026-04-19T08:28:26Z</time>
      </trkpt>
      <trkpt lat="43.007545" lon="-0.711438">
        <ele>1106.342</ele>
        <time>2026-04-19T08:29:00Z</time>
      </trkpt>
      <trkpt lat="43.007197" lon="-0.711879">
        <ele>1111.015</ele>
        <time>2026-04-19T08:29:20Z</time>
      </trkpt>
      <trkpt lat="43.006649" lon="-0.713641">
        <ele>1127.637</ele>
        <time>2026-04-19T08:30:18Z</time>
      </trkpt>
      <trkpt lat="43.006260" lon="-0.714027">
        <ele>1133.049</ele>
        <time>2026-04-19T08:30:40Z</time>
      </trkpt>
      <trkpt lat="43.005632" lon="-0.714248">
        <ele>1139.913</ele>
        <time>2026-04-19T08:31:07Z</time>
      </trkpt>
      <trkpt lat="43.005468" lon="-0.714400">
        <ele>1142.309</ele>
        <time>2026-04-19T08:31:15Z</time>
      </trkpt>
      <trkpt lat="43.005188" lon="-0.714962">
        <ele>1147.965</ele>
        <time>2026-04-19T08:31:36Z</time>
      </trkpt>
      <trkpt lat="43.004804" lon="-0.716314">
        <ele>1157.199</ele>
        <time>2026-04-19T08:32:19Z</time>
      </trkpt>
      <trkpt lat="43.004853" lon="-0.716441">
        <ele>1158.323</ele>
        <time>2026-04-19T08:32:24Z</time>
      </trkpt>
      <trkpt lat="43.005158" lon="-0.715651">
        <ele>1164.715</ele>
        <time>2026-04-19T08:32:55Z</time>
      </trkpt>
      <trkpt lat="43.005356" lon="-0.715371">
        <ele>1167.260</ele>
        <time>2026-04-19T08:33:06Z</time>
      </trkpt>
      <trkpt lat="43.005536" lon="-0.715286">
        <ele>1168.836</ele>
        <time>2026-04-19T08:33:13Z</time>
      </trkpt>
      <trkpt lat="43.006148" lon="-0.715295">
        <ele>1174.129</ele>
        <time>2026-04-19T08:33:38Z</time>
      </trkpt>
      <trkpt lat="43.006139" lon="-0.715430">
        <ele>1175.528</ele>
        <time>2026-04-19T08:33:44Z</time>
      </trkpt>
      <trkpt lat="43.005615" lon="-0.715942">
        <ele>1181.121</ele>
        <time>2026-04-19T08:34:19Z</time>
      </trkpt>
      <trkpt lat="43.005246" lon="-0.716928">
        <ele>1188.449</ele>
        <time>2026-04-19T08:34:52Z</time>
      </trkpt>
      <trkpt lat="43.005333" lon="-0.717192">
        <ele>1190.602</ele>
        <time>2026-04-19T08:35:00Z</time>
      </trkpt>
      <trkpt lat="43.005556" lon="-0.716868">
        <ele>1193.522</ele>
        <time>2026-04-19T08:35:16Z</time>
      </trkpt>
      <trkpt lat="43.005988" lon="-0.716606">
        <ele>1197.109</ele>
        <time>2026-04-19T08:35:35Z</time>
      </trkpt>
      <trkpt lat="43.006119" lon="-0.716428">
        <ele>1199.016</ele>
        <time>2026-04-19T08:35:42Z</time>
      </trkpt>
      <trkpt lat="43.006231" lon="-0.716439">
        <ele>1200.390</ele>
        <time>2026-04-19T08:35:47Z</time>
      </trkpt>
      <trkpt lat="43.006227" lon="-0.716680">
        <ele>1202.444</ele>
        <time>2026-04-19T08:35:56Z</time>
      </trkpt>
      <trkpt lat="43.005878" lon="-0.717702">
        <ele>1209.186</ele>
        <time>2026-04-19T08:36:29Z</time>
      </trkpt>
      <trkpt lat="43.006023" lon="-0.718528">
        <ele>1215.521</ele>
        <time>2026-04-19T08:36:52Z</time>
      </trkpt>
      <trkpt lat="43.005659" lon="-0.718886">
        <ele>1220.827</ele>
        <time>2026-04-19T08:37:09Z</time>
      </trkpt>
      <trkpt lat="43.005521" lon="-0.719167">
        <ele>1223.650</ele>
        <time>2026-04-19T08:37:18Z</time>
      </trkpt>
      <trkpt lat="43.005972" lon="-0.719992">
        <ele>1233.229</ele>
        <time>2026-04-19T08:37:52Z</time>
      </trkpt>
      <trkpt lat="43.005991" lon="-0.720284">
        <ele>1235.392</ele>
        <time>2026-04-19T08:38:01Z</time>
      </trkpt>
      <trkpt lat="43.005847" lon="-0.720659">
        <ele>1237.828</ele>
        <time>2026-04-19T08:38:13Z</time>
      </trkpt>
      <trkpt lat="43.006007" lon="-0.721330">
        <ele>1241.989</ele>
        <time>2026-04-19T08:38:31Z</time>
      </trkpt>
      <trkpt lat="43.005987" lon="-0.722391">
        <ele>1248.717</ele>
        <time>2026-04-19T08:39:01Z</time>
      </trkpt>
      <trkpt lat="43.005374" lon="-0.723333">
        <ele>1257.909</ele>
        <time>2026-04-19T08:39:48Z</time>
      </trkpt>
      <trkpt lat="43.005142" lon="-0.723874">
        <ele>1262.644</ele>
        <time>2026-04-19T08:40:04Z</time>
      </trkpt>
      <trkpt lat="43.004524" lon="-0.724199">
        <ele>1268.338</ele>
        <time>2026-04-19T08:40:26Z</time>
      </trkpt>
      <trkpt lat="43.004172" lon="-0.724645">
        <ele>1273.362</ele>
        <time>2026-04-19T08:40:44Z</time>
      </trkpt>
      <trkpt lat="43.003976" lon="-0.724694">
        <ele>1275.344</ele>
        <time>2026-04-19T08:40:53Z</time>
      </trkpt>
      <trkpt lat="43.003623" lon="-0.724529">
        <ele>1278.719</ele>
        <time>2026-04-19T08:41:07Z</time>
      </trkpt>
      <trkpt lat="43.003275" lon="-0.724597">
        <ele>1281.815</ele>
        <time>2026-04-19T08:41:16Z</time>
      </trkpt>
      <trkpt lat="43.002440" lon="-0.725165">
        <ele>1289.088</ele>
        <time>2026-04-19T08:41:50Z</time>
      </trkpt>
      <trkpt lat="43.002455" lon="-0.725273">
        <ele>1289.327</ele>
        <time>2026-04-19T08:41:53Z</time>
      </trkpt>
      <trkpt lat="43.002574" lon="-0.725310">
        <ele>1289.760</ele>
        <time>2026-04-19T08:41:57Z</time>
      </trkpt>
      <trkpt lat="43.003522" lon="-0.725163">
        <ele>1294.841</ele>
        <time>2026-04-19T08:42:27Z</time>
      </trkpt>
      <trkpt lat="43.003727" lon="-0.725201">
        <ele>1296.381</ele>
        <time>2026-04-19T08:42:33Z</time>
      </trkpt>
      <trkpt lat="43.003814" lon="-0.725313">
        <ele>1297.709</ele>
        <time>2026-04-19T08:44:34Z</time>
      </trkpt>
      <trkpt lat="43.003468" lon="-0.726264">
        <ele>1302.709</ele>
        <time>2026-04-19T08:45:02Z</time>
      </trkpt>
      <trkpt lat="43.003557" lon="-0.726548">
        <ele>1304.056</ele>
        <time>2026-04-19T08:45:11Z</time>
      </trkpt>
      <trkpt lat="43.004355" lon="-0.727096">
        <ele>1311.320</ele>
        <time>2026-04-19T08:45:43Z</time>
      </trkpt>
      <trkpt lat="43.004848" lon="-0.727362">
        <ele>1315.624</ele>
        <time>2026-04-19T08:46:10Z</time>
      </trkpt>
      <trkpt lat="43.005554" lon="-0.727569">
        <ele>1322.236</ele>
        <time>2026-04-19T08:46:36Z</time>
      </trkpt>
      <trkpt lat="43.005618" lon="-0.727701">
        <ele>1323.731</ele>
        <time>2026-04-19T08:46:40Z</time>
      </trkpt>
      <trkpt lat="43.005521" lon="-0.728317">
        <ele>1327.857</ele>
        <time>2026-04-19T08:46:55Z</time>
      </trkpt>
      <trkpt lat="43.005291" lon="-0.728665">
        <ele>1330.030</ele>
        <time>2026-04-19T08:47:08Z</time>
      </trkpt>
      <trkpt lat="43.004823" lon="-0.728781">
        <ele>1334.819</ele>
        <time>2026-04-19T08:47:23Z</time>
      </trkpt>
      <trkpt lat="43.004464" lon="-0.729017">
        <ele>1338.072</ele>
        <time>2026-04-19T08:47:37Z</time>
      </trkpt>
      <trkpt lat="43.004267" lon="-0.729271">
        <ele>1340.233</ele>
        <time>2026-04-19T08:47:46Z</time>
      </trkpt>
      <trkpt lat="43.004101" lon="-0.729772">
        <ele>1343.323</ele>
        <time>2026-04-19T08:47:59Z</time>
      </trkpt>
      <trkpt lat="43.003995" lon="-0.730580">
        <ele>1348.515</ele>
        <time>2026-04-19T08:48:20Z</time>
      </trkpt>
      <trkpt lat="43.003693" lon="-0.731032">
        <ele>1351.209</ele>
        <time>2026-04-19T08:49:05Z</time>
      </trkpt>
      <trkpt lat="43.003649" lon="-0.731245">
        <ele>1351.895</ele>
        <time>2026-04-19T08:49:28Z</time>
      </trkpt>
    </trkseg>
  </trk></gpx>