<?xml version="1.0" encoding="UTF-8"?>
<gpx creator="Wikiloc - https://www.wikiloc.com" version="1.1" xmlns="http://www.topografix.com/GPX/1/1" xmlns:xsi="http://www.w3.org/2001/XMLSchema-instance" xsi:schemaLocation="http://www.topografix.com/GPX/1/1 http://www.topografix.com/GPX/1/1/gpx.xsd">
  <metadata>
    <name>Wikiloc - COL DE MENTÉ (por Saint-Béat)</name>
    <link href="https://www.wikiloc.com/cycling-trails/col-de-mente-por-saint-beat-268434101">
      <text>COL DE MENTÉ (por Saint-Béat) - Wikiloc on Wikiloc</text>
    </link>
    <time>2026-07-16T10:19:37.638Z</time>
  </metadata>
  <trk>
    <name>COL DE MENTÉ (por Saint-Béat) - Wikiloc</name>
    <cmt></cmt>
    <desc></desc>
    <trkseg>
      <trkpt lat="42.912130" lon="0.693000">
        <ele>502.828</ele>
        <time>2026-07-16T10:19:37.637Z</time>
      </trkpt>
      <trkpt lat="42.911350" lon="0.695500">
        <ele>507.789</ele>
        <time>2026-07-16T10:19:57.637Z</time>
      </trkpt>
      <trkpt lat="42.911290" lon="0.695770">
        <ele>508.617</ele>
        <time>2026-07-16T10:20:17.637Z</time>
      </trkpt>
      <trkpt lat="42.911280" lon="0.696010">
        <ele>509.509</ele>
        <time>2026-07-16T10:20:37.637Z</time>
      </trkpt>
      <trkpt lat="42.911450" lon="0.696610">
        <ele>519.084</ele>
        <time>2026-07-16T10:20:57.637Z</time>
      </trkpt>
      <trkpt lat="42.911470" lon="0.697010">
        <ele>529.828</ele>
        <time>2026-07-16T10:21:17.637Z</time>
      </trkpt>
      <trkpt lat="42.911420" lon="0.697350">
        <ele>537.660</ele>
        <time>2026-07-16T10:21:37.637Z</time>
      </trkpt>
      <trkpt lat="42.911140" lon="0.698090">
        <ele>540.496</ele>
        <time>2026-07-16T10:21:57.637Z</time>
      </trkpt>
      <trkpt lat="42.911120" lon="0.698200">
        <ele>541.155</ele>
        <time>2026-07-16T10:22:17.637Z</time>
      </trkpt>
      <trkpt lat="42.911090" lon="0.698710">
        <ele>549.166</ele>
        <time>2026-07-16T10:22:37.637Z</time>
      </trkpt>
      <trkpt lat="42.911060" lon="0.698900">
        <ele>551.573</ele>
        <time>2026-07-16T10:22:57.637Z</time>
      </trkpt>
      <trkpt lat="42.910920" lon="0.699310">
        <ele>550.032</ele>
        <time>2026-07-16T10:23:17.637Z</time>
      </trkpt>
      <trkpt lat="42.910890" lon="0.699450">
        <ele>549.713</ele>
        <time>2026-07-16T10:23:37.637Z</time>
      </trkpt>
      <trkpt lat="42.910900" lon="0.699600">
        <ele>552.069</ele>
        <time>2026-07-16T10:23:57.637Z</time>
      </trkpt>
      <trkpt lat="42.910900" lon="0.699870">
        <ele>554.104</ele>
        <time>2026-07-16T10:24:17.637Z</time>
      </trkpt>
      <trkpt lat="42.910890" lon="0.700130">
        <ele>555.424</ele>
        <time>2026-07-16T10:24:37.637Z</time>
      </trkpt>
      <trkpt lat="42.910730" lon="0.700700">
        <ele>562.809</ele>
        <time>2026-07-16T10:24:57.637Z</time>
      </trkpt>
      <trkpt lat="42.910640" lon="0.700970">
        <ele>566.598</ele>
        <time>2026-07-16T10:25:17.637Z</time>
      </trkpt>
      <trkpt lat="42.910460" lon="0.701290">
        <ele>562.362</ele>
        <time>2026-07-16T10:25:37.637Z</time>
      </trkpt>
      <trkpt lat="42.910440" lon="0.701350">
        <ele>562.324</ele>
        <time>2026-07-16T10:25:57.637Z</time>
      </trkpt>
      <trkpt lat="42.910410" lon="0.701540">
        <ele>561.380</ele>
        <time>2026-07-16T10:26:17.637Z</time>
      </trkpt>
      <trkpt lat="42.910420" lon="0.701890">
        <ele>561.089</ele>
        <time>2026-07-16T10:26:37.637Z</time>
      </trkpt>
      <trkpt lat="42.910440" lon="0.702060">
        <ele>561.240</ele>
        <time>2026-07-16T10:26:57.637Z</time>
      </trkpt>
      <trkpt lat="42.910530" lon="0.702350">
        <ele>564.167</ele>
        <time>2026-07-16T10:27:17.637Z</time>
      </trkpt>
      <trkpt lat="42.910620" lon="0.702980">
        <ele>562.686</ele>
        <time>2026-07-16T10:27:37.637Z</time>
      </trkpt>
      <trkpt lat="42.910700" lon="0.703200">
        <ele>565.347</ele>
        <time>2026-07-16T10:27:57.637Z</time>
      </trkpt>
      <trkpt lat="42.910890" lon="0.703570">
        <ele>576.691</ele>
        <time>2026-07-16T10:28:17.637Z</time>
      </trkpt>
      <trkpt lat="42.910970" lon="0.703810">
        <ele>582.081</ele>
        <time>2026-07-16T10:28:37.637Z</time>
      </trkpt>
      <trkpt lat="42.911160" lon="0.705670">
        <ele>594.119</ele>
        <time>2026-07-16T10:28:57.637Z</time>
      </trkpt>
      <trkpt lat="42.911230" lon="0.705970">
        <ele>597.109</ele>
        <time>2026-07-16T10:29:17.637Z</time>
      </trkpt>
      <trkpt lat="42.911290" lon="0.706140">
        <ele>598.961</ele>
        <time>2026-07-16T10:29:37.637Z</time>
      </trkpt>
      <trkpt lat="42.911590" lon="0.706730">
        <ele>605.465</ele>
        <time>2026-07-16T10:29:57.637Z</time>
      </trkpt>
      <trkpt lat="42.911690" lon="0.706930">
        <ele>608.627</ele>
        <time>2026-07-16T10:30:17.637Z</time>
      </trkpt>
      <trkpt lat="42.911750" lon="0.707100">
        <ele>610.413</ele>
        <time>2026-07-16T10:30:37.637Z</time>
      </trkpt>
      <trkpt lat="42.911940" lon="0.707930">
        <ele>612.832</ele>
        <time>2026-07-16T10:30:57.637Z</time>
      </trkpt>
      <trkpt lat="42.912030" lon="0.708130">
        <ele>612.753</ele>
        <time>2026-07-16T10:31:17.637Z</time>
      </trkpt>
      <trkpt lat="42.912080" lon="0.708180">
        <ele>612.940</ele>
        <time>2026-07-16T10:31:37.637Z</time>
      </trkpt>
      <trkpt lat="42.912140" lon="0.708220">
        <ele>613.439</ele>
        <time>2026-07-16T10:31:57.637Z</time>
      </trkpt>
      <trkpt lat="42.912420" lon="0.708340">
        <ele>617.370</ele>
        <time>2026-07-16T10:32:17.637Z</time>
      </trkpt>
      <trkpt lat="42.912530" lon="0.708420">
        <ele>621.115</ele>
        <time>2026-07-16T10:32:37.637Z</time>
      </trkpt>
      <trkpt lat="42.912630" lon="0.708540">
        <ele>625.765</ele>
        <time>2026-07-16T10:32:57.637Z</time>
      </trkpt>
      <trkpt lat="42.912640" lon="0.708600">
        <ele>626.511</ele>
        <time>2026-07-16T10:33:17.637Z</time>
      </trkpt>
      <trkpt lat="42.912640" lon="0.708770">
        <ele>631.409</ele>
        <time>2026-07-16T10:33:37.637Z</time>
      </trkpt>
      <trkpt lat="42.912480" lon="0.709390">
        <ele>636.423</ele>
        <time>2026-07-16T10:33:57.637Z</time>
      </trkpt>
      <trkpt lat="42.912450" lon="0.709700">
        <ele>639.117</ele>
        <time>2026-07-16T10:34:17.637Z</time>
      </trkpt>
      <trkpt lat="42.912450" lon="0.709820">
        <ele>640.459</ele>
        <time>2026-07-16T10:34:37.637Z</time>
      </trkpt>
      <trkpt lat="42.912620" lon="0.710950">
        <ele>649.375</ele>
        <time>2026-07-16T10:34:57.637Z</time>
      </trkpt>
      <trkpt lat="42.912670" lon="0.711180">
        <ele>649.254</ele>
        <time>2026-07-16T10:35:17.637Z</time>
      </trkpt>
      <trkpt lat="42.912880" lon="0.711490">
        <ele>649.585</ele>
        <time>2026-07-16T10:35:37.637Z</time>
      </trkpt>
      <trkpt lat="42.913540" lon="0.712230">
        <ele>654.182</ele>
        <time>2026-07-16T10:35:57.637Z</time>
      </trkpt>
      <trkpt lat="42.913740" lon="0.712540">
        <ele>656.691</ele>
        <time>2026-07-16T10:36:17.637Z</time>
      </trkpt>
      <trkpt lat="42.913960" lon="0.712980">
        <ele>657.432</ele>
        <time>2026-07-16T10:36:37.637Z</time>
      </trkpt>
      <trkpt lat="42.914040" lon="0.713120">
        <ele>657.563</ele>
        <time>2026-07-16T10:36:57.637Z</time>
      </trkpt>
      <trkpt lat="42.914130" lon="0.713220">
        <ele>658.044</ele>
        <time>2026-07-16T10:37:17.637Z</time>
      </trkpt>
      <trkpt lat="42.914220" lon="0.713290">
        <ele>658.618</ele>
        <time>2026-07-16T10:37:37.637Z</time>
      </trkpt>
      <trkpt lat="42.914750" lon="0.713600">
        <ele>666.009</ele>
        <time>2026-07-16T10:37:57.637Z</time>
      </trkpt>
      <trkpt lat="42.915270" lon="0.713840">
        <ele>674.028</ele>
        <time>2026-07-16T10:38:17.637Z</time>
      </trkpt>
      <trkpt lat="42.915410" lon="0.713920">
        <ele>676.912</ele>
        <time>2026-07-16T10:38:37.637Z</time>
      </trkpt>
      <trkpt lat="42.916050" lon="0.714500">
        <ele>687.734</ele>
        <time>2026-07-16T10:38:57.637Z</time>
      </trkpt>
      <trkpt lat="42.916130" lon="0.714600">
        <ele>689.890</ele>
        <time>2026-07-16T10:39:17.637Z</time>
      </trkpt>
      <trkpt lat="42.916200" lon="0.714810">
        <ele>690.029</ele>
        <time>2026-07-16T10:39:37.637Z</time>
      </trkpt>
      <trkpt lat="42.916230" lon="0.715020">
        <ele>689.150</ele>
        <time>2026-07-16T10:39:57.637Z</time>
      </trkpt>
      <trkpt lat="42.916280" lon="0.715360">
        <ele>688.147</ele>
        <time>2026-07-16T10:40:17.637Z</time>
      </trkpt>
      <trkpt lat="42.916320" lon="0.715520">
        <ele>688.236</ele>
        <time>2026-07-16T10:40:37.637Z</time>
      </trkpt>
      <trkpt lat="42.917110" lon="0.717470">
        <ele>697.227</ele>
        <time>2026-07-16T10:40:57.637Z</time>
      </trkpt>
      <trkpt lat="42.917220" lon="0.717660">
        <ele>700.359</ele>
        <time>2026-07-16T10:41:17.637Z</time>
      </trkpt>
      <trkpt lat="42.917350" lon="0.717800">
        <ele>703.303</ele>
        <time>2026-07-16T10:41:37.637Z</time>
      </trkpt>
      <trkpt lat="42.917510" lon="0.717940">
        <ele>706.423</ele>
        <time>2026-07-16T10:41:57.637Z</time>
      </trkpt>
      <trkpt lat="42.918230" lon="0.718060">
        <ele>713.609</ele>
        <time>2026-07-16T10:42:17.637Z</time>
      </trkpt>
      <trkpt lat="42.918380" lon="0.718010">
        <ele>714.677</ele>
        <time>2026-07-16T10:42:37.637Z</time>
      </trkpt>
      <trkpt lat="42.918650" lon="0.717880">
        <ele>715.641</ele>
        <time>2026-07-16T10:42:57.637Z</time>
      </trkpt>
      <trkpt lat="42.919190" lon="0.717980">
        <ele>722.863</ele>
        <time>2026-07-16T10:43:17.637Z</time>
      </trkpt>
      <trkpt lat="42.919420" lon="0.718070">
        <ele>727.529</ele>
        <time>2026-07-16T10:43:37.637Z</time>
      </trkpt>
      <trkpt lat="42.919770" lon="0.718290">
        <ele>732.748</ele>
        <time>2026-07-16T10:43:57.637Z</time>
      </trkpt>
      <trkpt lat="42.919970" lon="0.718480">
        <ele>735.769</ele>
        <time>2026-07-16T10:44:17.637Z</time>
      </trkpt>
      <trkpt lat="42.920110" lon="0.718660">
        <ele>737.826</ele>
        <time>2026-07-16T10:44:37.637Z</time>
      </trkpt>
      <trkpt lat="42.920200" lon="0.718810">
        <ele>739.655</ele>
        <time>2026-07-16T10:44:57.637Z</time>
      </trkpt>
      <trkpt lat="42.920520" lon="0.719440">
        <ele>749.426</ele>
        <time>2026-07-16T10:45:17.637Z</time>
      </trkpt>
      <trkpt lat="42.920760" lon="0.719960">
        <ele>753.936</ele>
        <time>2026-07-16T10:45:37.637Z</time>
      </trkpt>
      <trkpt lat="42.920820" lon="0.720190">
        <ele>755.517</ele>
        <time>2026-07-16T10:45:57.637Z</time>
      </trkpt>
      <trkpt lat="42.920850" lon="0.720410">
        <ele>757.218</ele>
        <time>2026-07-16T10:46:17.637Z</time>
      </trkpt>
      <trkpt lat="42.920820" lon="0.720690">
        <ele>758.809</ele>
        <time>2026-07-16T10:46:37.637Z</time>
      </trkpt>
      <trkpt lat="42.920770" lon="0.720870">
        <ele>759.565</ele>
        <time>2026-07-16T10:46:57.637Z</time>
      </trkpt>
      <trkpt lat="42.920700" lon="0.721050">
        <ele>760.079</ele>
        <time>2026-07-16T10:47:17.637Z</time>
      </trkpt>
      <trkpt lat="42.920280" lon="0.721590">
        <ele>760.971</ele>
        <time>2026-07-16T10:47:37.637Z</time>
      </trkpt>
      <trkpt lat="42.920260" lon="0.721690">
        <ele>762.457</ele>
        <time>2026-07-16T10:47:57.637Z</time>
      </trkpt>
      <trkpt lat="42.920270" lon="0.721760">
        <ele>764.016</ele>
        <time>2026-07-16T10:48:17.637Z</time>
      </trkpt>
      <trkpt lat="42.920310" lon="0.721820">
        <ele>765.847</ele>
        <time>2026-07-16T10:48:37.637Z</time>
      </trkpt>
      <trkpt lat="42.920370" lon="0.721850">
        <ele>767.464</ele>
        <time>2026-07-16T10:48:57.637Z</time>
      </trkpt>
      <trkpt lat="42.920690" lon="0.721840">
        <ele>772.563</ele>
        <time>2026-07-16T10:49:17.637Z</time>
      </trkpt>
      <trkpt lat="42.921020" lon="0.721780">
        <ele>777.944</ele>
        <time>2026-07-16T10:49:37.637Z</time>
      </trkpt>
      <trkpt lat="42.921250" lon="0.721700">
        <ele>780.587</ele>
        <time>2026-07-16T10:49:57.637Z</time>
      </trkpt>
      <trkpt lat="42.921450" lon="0.721600">
        <ele>781.642</ele>
        <time>2026-07-16T10:50:17.637Z</time>
      </trkpt>
      <trkpt lat="42.922010" lon="0.721170">
        <ele>787.226</ele>
        <time>2026-07-16T10:50:37.637Z</time>
      </trkpt>
      <trkpt lat="42.922160" lon="0.720970">
        <ele>791.509</ele>
        <time>2026-07-16T10:50:57.637Z</time>
      </trkpt>
      <trkpt lat="42.922200" lon="0.720870">
        <ele>793.120</ele>
        <time>2026-07-16T10:51:17.637Z</time>
      </trkpt>
      <trkpt lat="42.922220" lon="0.720310">
        <ele>792.114</ele>
        <time>2026-07-16T10:51:37.637Z</time>
      </trkpt>
      <trkpt lat="42.922250" lon="0.720180">
        <ele>792.656</ele>
        <time>2026-07-16T10:51:57.637Z</time>
      </trkpt>
      <trkpt lat="42.922330" lon="0.720060">
        <ele>794.172</ele>
        <time>2026-07-16T10:52:17.637Z</time>
      </trkpt>
      <trkpt lat="42.922400" lon="0.719990">
        <ele>795.241</ele>
        <time>2026-07-16T10:52:37.637Z</time>
      </trkpt>
      <trkpt lat="42.922490" lon="0.719940">
        <ele>796.642</ele>
        <time>2026-07-16T10:52:57.637Z</time>
      </trkpt>
      <trkpt lat="42.922580" lon="0.719950">
        <ele>797.419</ele>
        <time>2026-07-16T10:53:17.637Z</time>
      </trkpt>
      <trkpt lat="42.922650" lon="0.720010">
        <ele>798.298</ele>
        <time>2026-07-16T10:53:37.637Z</time>
      </trkpt>
      <trkpt lat="42.922700" lon="0.720120">
        <ele>799.639</ele>
        <time>2026-07-16T10:53:57.637Z</time>
      </trkpt>
      <trkpt lat="42.922740" lon="0.720550">
        <ele>805.269</ele>
        <time>2026-07-16T10:54:17.637Z</time>
      </trkpt>
      <trkpt lat="42.922780" lon="0.720790">
        <ele>808.604</ele>
        <time>2026-07-16T10:54:37.637Z</time>
      </trkpt>
      <trkpt lat="42.922780" lon="0.721140">
        <ele>813.624</ele>
        <time>2026-07-16T10:54:57.637Z</time>
      </trkpt>
      <trkpt lat="42.922720" lon="0.721310">
        <ele>814.609</ele>
        <time>2026-07-16T10:55:17.637Z</time>
      </trkpt>
      <trkpt lat="42.922540" lon="0.721530">
        <ele>813.158</ele>
        <time>2026-07-16T10:55:37.637Z</time>
      </trkpt>
      <trkpt lat="42.922330" lon="0.721840">
        <ele>814.162</ele>
        <time>2026-07-16T10:55:57.637Z</time>
      </trkpt>
      <trkpt lat="42.922110" lon="0.722120">
        <ele>816.034</ele>
        <time>2026-07-16T10:56:17.637Z</time>
      </trkpt>
      <trkpt lat="42.921950" lon="0.722250">
        <ele>815.760</ele>
        <time>2026-07-16T10:56:37.637Z</time>
      </trkpt>
      <trkpt lat="42.921760" lon="0.722470">
        <ele>820.419</ele>
        <time>2026-07-16T10:56:57.637Z</time>
      </trkpt>
      <trkpt lat="42.921680" lon="0.722650">
        <ele>822.380</ele>
        <time>2026-07-16T10:57:17.637Z</time>
      </trkpt>
      <trkpt lat="42.921640" lon="0.722860">
        <ele>826.257</ele>
        <time>2026-07-16T10:57:37.637Z</time>
      </trkpt>
      <trkpt lat="42.921570" lon="0.723020">
        <ele>828.056</ele>
        <time>2026-07-16T10:57:57.637Z</time>
      </trkpt>
      <trkpt lat="42.921290" lon="0.723360">
        <ele>827.487</ele>
        <time>2026-07-16T10:58:17.637Z</time>
      </trkpt>
      <trkpt lat="42.921180" lon="0.723610">
        <ele>828.771</ele>
        <time>2026-07-16T10:58:37.637Z</time>
      </trkpt>
      <trkpt lat="42.921140" lon="0.723750">
        <ele>831.041</ele>
        <time>2026-07-16T10:58:57.637Z</time>
      </trkpt>
      <trkpt lat="42.921070" lon="0.723890">
        <ele>833.515</ele>
        <time>2026-07-16T10:59:17.637Z</time>
      </trkpt>
      <trkpt lat="42.920760" lon="0.724090">
        <ele>836.309</ele>
        <time>2026-07-16T10:59:37.637Z</time>
      </trkpt>
      <trkpt lat="42.920110" lon="0.724670">
        <ele>848.099</ele>
        <time>2026-07-16T10:59:57.637Z</time>
      </trkpt>
      <trkpt lat="42.919860" lon="0.724920">
        <ele>850.223</ele>
        <time>2026-07-16T11:00:17.637Z</time>
      </trkpt>
      <trkpt lat="42.919540" lon="0.725300">
        <ele>851.875</ele>
        <time>2026-07-16T11:00:37.637Z</time>
      </trkpt>
      <trkpt lat="42.919200" lon="0.725990">
        <ele>857.611</ele>
        <time>2026-07-16T11:00:57.637Z</time>
      </trkpt>
      <trkpt lat="42.919100" lon="0.726370">
        <ele>861.350</ele>
        <time>2026-07-16T11:01:17.637Z</time>
      </trkpt>
      <trkpt lat="42.919060" lon="0.726840">
        <ele>866.131</ele>
        <time>2026-07-16T11:01:37.637Z</time>
      </trkpt>
      <trkpt lat="42.919090" lon="0.727560">
        <ele>873.728</ele>
        <time>2026-07-16T11:01:57.637Z</time>
      </trkpt>
      <trkpt lat="42.919070" lon="0.727660">
        <ele>873.537</ele>
        <time>2026-07-16T11:02:17.637Z</time>
      </trkpt>
      <trkpt lat="42.918800" lon="0.728390">
        <ele>871.898</ele>
        <time>2026-07-16T11:02:37.637Z</time>
      </trkpt>
      <trkpt lat="42.918430" lon="0.729550">
        <ele>881.456</ele>
        <time>2026-07-16T11:02:57.637Z</time>
      </trkpt>
      <trkpt lat="42.918390" lon="0.729760">
        <ele>884.559</ele>
        <time>2026-07-16T11:03:17.637Z</time>
      </trkpt>
      <trkpt lat="42.918350" lon="0.730120">
        <ele>890.414</ele>
        <time>2026-07-16T11:03:37.637Z</time>
      </trkpt>
      <trkpt lat="42.918290" lon="0.730350">
        <ele>891.709</ele>
        <time>2026-07-16T11:03:57.637Z</time>
      </trkpt>
      <trkpt lat="42.918160" lon="0.730880">
        <ele>894.497</ele>
        <time>2026-07-16T11:04:17.637Z</time>
      </trkpt>
      <trkpt lat="42.917870" lon="0.732580">
        <ele>906.241</ele>
        <time>2026-07-16T11:04:37.637Z</time>
      </trkpt>
      <trkpt lat="42.917820" lon="0.732710">
        <ele>905.373</ele>
        <time>2026-07-16T11:04:57.637Z</time>
      </trkpt>
      <trkpt lat="42.917720" lon="0.732850">
        <ele>903.789</ele>
        <time>2026-07-16T11:05:17.637Z</time>
      </trkpt>
      <trkpt lat="42.917630" lon="0.733100">
        <ele>906.188</ele>
        <time>2026-07-16T11:05:37.637Z</time>
      </trkpt>
      <trkpt lat="42.917510" lon="0.734010">
        <ele>917.439</ele>
        <time>2026-07-16T11:05:57.637Z</time>
      </trkpt>
      <trkpt lat="42.917320" lon="0.734700">
        <ele>924.036</ele>
        <time>2026-07-16T11:06:17.637Z</time>
      </trkpt>
      <trkpt lat="42.917200" lon="0.735250">
        <ele>928.825</ele>
        <time>2026-07-16T11:06:37.637Z</time>
      </trkpt>
      <trkpt lat="42.917100" lon="0.735900">
        <ele>935.126</ele>
        <time>2026-07-16T11:06:57.637Z</time>
      </trkpt>
      <trkpt lat="42.917000" lon="0.736380">
        <ele>940.684</ele>
        <time>2026-07-16T11:07:17.637Z</time>
      </trkpt>
      <trkpt lat="42.916950" lon="0.736510">
        <ele>941.807</ele>
        <time>2026-07-16T11:07:37.637Z</time>
      </trkpt>
      <trkpt lat="42.916880" lon="0.736620">
        <ele>943.217</ele>
        <time>2026-07-16T11:07:57.637Z</time>
      </trkpt>
      <trkpt lat="42.916650" lon="0.736900">
        <ele>944.609</ele>
        <time>2026-07-16T11:08:17.637Z</time>
      </trkpt>
      <trkpt lat="42.916620" lon="0.737000">
        <ele>944.090</ele>
        <time>2026-07-16T11:08:37.637Z</time>
      </trkpt>
      <trkpt lat="42.916620" lon="0.737120">
        <ele>944.484</ele>
        <time>2026-07-16T11:08:57.637Z</time>
      </trkpt>
      <trkpt lat="42.916640" lon="0.737250">
        <ele>945.776</ele>
        <time>2026-07-16T11:09:17.637Z</time>
      </trkpt>
      <trkpt lat="42.916780" lon="0.737570">
        <ele>951.362</ele>
        <time>2026-07-16T11:09:37.637Z</time>
      </trkpt>
      <trkpt lat="42.917110" lon="0.738170">
        <ele>963.851</ele>
        <time>2026-07-16T11:09:57.637Z</time>
      </trkpt>
      <trkpt lat="42.917200" lon="0.738470">
        <ele>964.022</ele>
        <time>2026-07-16T11:10:17.637Z</time>
      </trkpt>
      <trkpt lat="42.917200" lon="0.738590">
        <ele>962.659</ele>
        <time>2026-07-16T11:10:37.637Z</time>
      </trkpt>
      <trkpt lat="42.917160" lon="0.738700">
        <ele>962.738</ele>
        <time>2026-07-16T11:10:57.637Z</time>
      </trkpt>
      <trkpt lat="42.917060" lon="0.738800">
        <ele>963.139</ele>
        <time>2026-07-16T11:11:17.637Z</time>
      </trkpt>
      <trkpt lat="42.916930" lon="0.738850">
        <ele>964.038</ele>
        <time>2026-07-16T11:11:37.637Z</time>
      </trkpt>
      <trkpt lat="42.916530" lon="0.738740">
        <ele>970.970</ele>
        <time>2026-07-16T11:11:57.637Z</time>
      </trkpt>
      <trkpt lat="42.916270" lon="0.738700">
        <ele>972.517</ele>
        <time>2026-07-16T11:12:17.637Z</time>
      </trkpt>
      <trkpt lat="42.916210" lon="0.738720">
        <ele>972.909</ele>
        <time>2026-07-16T11:12:37.637Z</time>
      </trkpt>
      <trkpt lat="42.916050" lon="0.738890">
        <ele>976.165</ele>
        <time>2026-07-16T11:12:57.637Z</time>
      </trkpt>
      <trkpt lat="42.915750" lon="0.739650">
        <ele>981.959</ele>
        <time>2026-07-16T11:13:17.637Z</time>
      </trkpt>
      <trkpt lat="42.915710" lon="0.739850">
        <ele>980.911</ele>
        <time>2026-07-16T11:13:37.637Z</time>
      </trkpt>
      <trkpt lat="42.915700" lon="0.740030">
        <ele>981.087</ele>
        <time>2026-07-16T11:13:57.637Z</time>
      </trkpt>
      <trkpt lat="42.915780" lon="0.740340">
        <ele>987.316</ele>
        <time>2026-07-16T11:14:17.637Z</time>
      </trkpt>
      <trkpt lat="42.915900" lon="0.741080">
        <ele>993.177</ele>
        <time>2026-07-16T11:14:37.637Z</time>
      </trkpt>
      <trkpt lat="42.915890" lon="0.741160">
        <ele>993.544</ele>
        <time>2026-07-16T11:14:57.637Z</time>
      </trkpt>
      <trkpt lat="42.915870" lon="0.741410">
        <ele>998.873</ele>
        <time>2026-07-16T11:15:17.637Z</time>
      </trkpt>
      <trkpt lat="42.915840" lon="0.741480">
        <ele>1001.584</ele>
        <time>2026-07-16T11:15:37.637Z</time>
      </trkpt>
      <trkpt lat="42.915770" lon="0.741540">
        <ele>1002.895</ele>
        <time>2026-07-16T11:15:57.637Z</time>
      </trkpt>
      <trkpt lat="42.915640" lon="0.741590">
        <ele>1001.149</ele>
        <time>2026-07-16T11:16:17.637Z</time>
      </trkpt>
      <trkpt lat="42.915490" lon="0.741740">
        <ele>1002.323</ele>
        <time>2026-07-16T11:16:37.637Z</time>
      </trkpt>
      <trkpt lat="42.915280" lon="0.742280">
        <ele>1012.309</ele>
        <time>2026-07-16T11:16:57.637Z</time>
      </trkpt>
      <trkpt lat="42.915180" lon="0.742750">
        <ele>1015.971</ele>
        <time>2026-07-16T11:17:17.637Z</time>
      </trkpt>
      <trkpt lat="42.915150" lon="0.742970">
        <ele>1017.045</ele>
        <time>2026-07-16T11:17:37.637Z</time>
      </trkpt>
      <trkpt lat="42.915060" lon="0.743410">
        <ele>1017.137</ele>
        <time>2026-07-16T11:17:57.637Z</time>
      </trkpt>
      <trkpt lat="42.915010" lon="0.744230">
        <ele>1025.153</ele>
        <time>2026-07-16T11:18:17.637Z</time>
      </trkpt>
      <trkpt lat="42.914890" lon="0.744750">
        <ele>1026.352</ele>
        <time>2026-07-16T11:18:37.637Z</time>
      </trkpt>
      <trkpt lat="42.914880" lon="0.744920">
        <ele>1027.473</ele>
        <time>2026-07-16T11:18:57.637Z</time>
      </trkpt>
      <trkpt lat="42.914910" lon="0.745590">
        <ele>1033.790</ele>
        <time>2026-07-16T11:19:17.637Z</time>
      </trkpt>
      <trkpt lat="42.914940" lon="0.745660">
        <ele>1035.359</ele>
        <time>2026-07-16T11:19:37.637Z</time>
      </trkpt>
      <trkpt lat="42.915010" lon="0.745660">
        <ele>1037.480</ele>
        <time>2026-07-16T11:19:57.637Z</time>
      </trkpt>
      <trkpt lat="42.915030" lon="0.745640">
        <ele>1037.837</ele>
        <time>2026-07-16T11:20:17.637Z</time>
      </trkpt>
      <trkpt lat="42.915050" lon="0.745600">
        <ele>1037.949</ele>
        <time>2026-07-16T11:20:37.637Z</time>
      </trkpt>
      <trkpt lat="42.915060" lon="0.745350">
        <ele>1036.413</ele>
        <time>2026-07-16T11:20:57.637Z</time>
      </trkpt>
      <trkpt lat="42.915100" lon="0.745090">
        <ele>1035.909</ele>
        <time>2026-07-16T11:21:17.637Z</time>
      </trkpt>
      <trkpt lat="42.915300" lon="0.744650">
        <ele>1040.825</ele>
        <time>2026-07-16T11:21:37.637Z</time>
      </trkpt>
      <trkpt lat="42.915420" lon="0.744180">
        <ele>1045.819</ele>
        <time>2026-07-16T11:21:57.637Z</time>
      </trkpt>
      <trkpt lat="42.915480" lon="0.743850">
        <ele>1047.171</ele>
        <time>2026-07-16T11:22:17.637Z</time>
      </trkpt>
      <trkpt lat="42.915540" lon="0.743780">
        <ele>1050.377</ele>
        <time>2026-07-16T11:22:37.637Z</time>
      </trkpt>
      <trkpt lat="42.915580" lon="0.743790">
        <ele>1052.916</ele>
        <time>2026-07-16T11:22:57.637Z</time>
      </trkpt>
      <trkpt lat="42.915610" lon="0.743820">
        <ele>1055.277</ele>
        <time>2026-07-16T11:23:17.637Z</time>
      </trkpt>
      <trkpt lat="42.915620" lon="0.743890">
        <ele>1056.444</ele>
        <time>2026-07-16T11:23:37.637Z</time>
      </trkpt>
      <trkpt lat="42.915580" lon="0.744200">
        <ele>1055.973</ele>
        <time>2026-07-16T11:23:57.637Z</time>
      </trkpt>
      <trkpt lat="42.915560" lon="0.744970">
        <ele>1058.264</ele>
        <time>2026-07-16T11:24:17.637Z</time>
      </trkpt>
      <trkpt lat="42.915540" lon="0.745290">
        <ele>1058.148</ele>
        <time>2026-07-16T11:24:37.637Z</time>
      </trkpt>
      <trkpt lat="42.915540" lon="0.745570">
        <ele>1058.261</ele>
        <time>2026-07-16T11:24:57.637Z</time>
      </trkpt>
      <trkpt lat="42.915610" lon="0.746110">
        <ele>1066.717</ele>
        <time>2026-07-16T11:25:17.637Z</time>
      </trkpt>
      <trkpt lat="42.915590" lon="0.746280">
        <ele>1069.209</ele>
        <time>2026-07-16T11:25:37.637Z</time>
      </trkpt>
      <trkpt lat="42.915450" lon="0.746680">
        <ele>1069.266</ele>
        <time>2026-07-16T11:25:57.637Z</time>
      </trkpt>
      <trkpt lat="42.915430" lon="0.747170">
        <ele>1072.390</ele>
        <time>2026-07-16T11:26:17.637Z</time>
      </trkpt>
      <trkpt lat="42.915370" lon="0.747660">
        <ele>1073.852</ele>
        <time>2026-07-16T11:26:37.637Z</time>
      </trkpt>
      <trkpt lat="42.915360" lon="0.748100">
        <ele>1078.288</ele>
        <time>2026-07-16T11:26:57.637Z</time>
      </trkpt>
      <trkpt lat="42.915250" lon="0.749170">
        <ele>1084.567</ele>
        <time>2026-07-16T11:27:17.637Z</time>
      </trkpt>
      <trkpt lat="42.915250" lon="0.749370">
        <ele>1086.078</ele>
        <time>2026-07-16T11:27:37.637Z</time>
      </trkpt>
      <trkpt lat="42.915310" lon="0.749670">
        <ele>1090.965</ele>
        <time>2026-07-16T11:27:57.637Z</time>
      </trkpt>
      <trkpt lat="42.915280" lon="0.750140">
        <ele>1089.644</ele>
        <time>2026-07-16T11:28:17.637Z</time>
      </trkpt>
      <trkpt lat="42.915290" lon="0.750300">
        <ele>1090.975</ele>
        <time>2026-07-16T11:28:37.637Z</time>
      </trkpt>
      <trkpt lat="42.915410" lon="0.750800">
        <ele>1098.725</ele>
        <time>2026-07-16T11:28:57.637Z</time>
      </trkpt>
      <trkpt lat="42.915430" lon="0.751020">
        <ele>1100.426</ele>
        <time>2026-07-16T11:29:17.637Z</time>
      </trkpt>
      <trkpt lat="42.915400" lon="0.751570">
        <ele>1108.108</ele>
        <time>2026-07-16T11:29:37.637Z</time>
      </trkpt>
      <trkpt lat="42.915370" lon="0.751670">
        <ele>1111.109</ele>
        <time>2026-07-16T11:29:57.637Z</time>
      </trkpt>
      <trkpt lat="42.915310" lon="0.751750">
        <ele>1114.064</ele>
        <time>2026-07-16T11:30:17.637Z</time>
      </trkpt>
      <trkpt lat="42.915240" lon="0.751770">
        <ele>1115.328</ele>
        <time>2026-07-16T11:30:37.637Z</time>
      </trkpt>
      <trkpt lat="42.914870" lon="0.751810">
        <ele>1118.960</ele>
        <time>2026-07-16T11:30:57.637Z</time>
      </trkpt>
      <trkpt lat="42.914470" lon="0.751990">
        <ele>1124.096</ele>
        <time>2026-07-16T11:31:17.637Z</time>
      </trkpt>
      <trkpt lat="42.914060" lon="0.752140">
        <ele>1123.575</ele>
        <time>2026-07-16T11:31:37.637Z</time>
      </trkpt>
      <trkpt lat="42.913940" lon="0.752220">
        <ele>1124.326</ele>
        <time>2026-07-16T11:31:57.637Z</time>
      </trkpt>
      <trkpt lat="42.913820" lon="0.752330">
        <ele>1125.173</ele>
        <time>2026-07-16T11:32:17.637Z</time>
      </trkpt>
      <trkpt lat="42.913730" lon="0.752450">
        <ele>1125.872</ele>
        <time>2026-07-16T11:32:37.637Z</time>
      </trkpt>
      <trkpt lat="42.913660" lon="0.752580">
        <ele>1127.133</ele>
        <time>2026-07-16T11:32:57.637Z</time>
      </trkpt>
      <trkpt lat="42.913600" lon="0.752740">
        <ele>1128.736</ele>
        <time>2026-07-16T11:33:17.637Z</time>
      </trkpt>
      <trkpt lat="42.913410" lon="0.753550">
        <ele>1135.417</ele>
        <time>2026-07-16T11:33:37.637Z</time>
      </trkpt>
      <trkpt lat="42.913370" lon="0.753680">
        <ele>1136.318</ele>
        <time>2026-07-16T11:33:57.637Z</time>
      </trkpt>
      <trkpt lat="42.913220" lon="0.754020">
        <ele>1133.009</ele>
        <time>2026-07-16T11:34:17.637Z</time>
      </trkpt>
      <trkpt lat="42.913230" lon="0.754070">
        <ele>1134.155</ele>
        <time>2026-07-16T11:34:37.637Z</time>
      </trkpt>
      <trkpt lat="42.913270" lon="0.754120">
        <ele>1136.679</ele>
        <time>2026-07-16T11:34:57.637Z</time>
      </trkpt>
      <trkpt lat="42.913330" lon="0.754120">
        <ele>1139.581</ele>
        <time>2026-07-16T11:35:17.637Z</time>
      </trkpt>
      <trkpt lat="42.913600" lon="0.753680">
        <ele>1144.467</ele>
        <time>2026-07-16T11:35:37.637Z</time>
      </trkpt>
      <trkpt lat="42.914000" lon="0.753130">
        <ele>1146.726</ele>
        <time>2026-07-16T11:35:57.637Z</time>
      </trkpt>
      <trkpt lat="42.914070" lon="0.753050">
        <ele>1146.827</ele>
        <time>2026-07-16T11:36:17.637Z</time>
      </trkpt>
      <trkpt lat="42.914120" lon="0.753030">
        <ele>1147.544</ele>
        <time>2026-07-16T11:36:37.637Z</time>
      </trkpt>
      <trkpt lat="42.914160" lon="0.753030">
        <ele>1148.333</ele>
        <time>2026-07-16T11:36:57.637Z</time>
      </trkpt>
      <trkpt lat="42.914200" lon="0.753100">
        <ele>1151.064</ele>
        <time>2026-07-16T11:37:17.637Z</time>
      </trkpt>
      <trkpt lat="42.914200" lon="0.753150">
        <ele>1151.853</ele>
        <time>2026-07-16T11:37:37.637Z</time>
      </trkpt>
      <trkpt lat="42.914180" lon="0.753200">
        <ele>1152.004</ele>
        <time>2026-07-16T11:37:57.637Z</time>
      </trkpt>
      <trkpt lat="42.914080" lon="0.753370">
        <ele>1152.614</ele>
        <time>2026-07-16T11:38:17.637Z</time>
      </trkpt>
      <trkpt lat="42.914040" lon="0.753570">
        <ele>1154.209</ele>
        <time>2026-07-16T11:38:37.637Z</time>
      </trkpt>
      <trkpt lat="42.914040" lon="0.754060">
        <ele>1160.057</ele>
        <time>2026-07-16T11:38:57.637Z</time>
      </trkpt>
      <trkpt lat="42.914010" lon="0.754380">
        <ele>1163.061</ele>
        <time>2026-07-16T11:39:17.637Z</time>
      </trkpt>
      <trkpt lat="42.913930" lon="0.754670">
        <ele>1164.453</ele>
        <time>2026-07-16T11:39:37.637Z</time>
      </trkpt>
      <trkpt lat="42.913710" lon="0.755000">
        <ele>1161.239</ele>
        <time>2026-07-16T11:39:57.637Z</time>
      </trkpt>
      <trkpt lat="42.913680" lon="0.755120">
        <ele>1161.488</ele>
        <time>2026-07-16T11:40:17.637Z</time>
      </trkpt>
      <trkpt lat="42.913700" lon="0.755160">
        <ele>1162.439</ele>
        <time>2026-07-16T11:40:37.637Z</time>
      </trkpt>
      <trkpt lat="42.913760" lon="0.755210">
        <ele>1164.736</ele>
        <time>2026-07-16T11:40:57.637Z</time>
      </trkpt>
      <trkpt lat="42.913830" lon="0.755180">
        <ele>1166.585</ele>
        <time>2026-07-16T11:41:17.637Z</time>
      </trkpt>
      <trkpt lat="42.914030" lon="0.754940">
        <ele>1169.916</ele>
        <time>2026-07-16T11:41:37.637Z</time>
      </trkpt>
      <trkpt lat="42.914340" lon="0.754670">
        <ele>1172.969</ele>
        <time>2026-07-16T11:41:57.637Z</time>
      </trkpt>
      <trkpt lat="42.914520" lon="0.754470">
        <ele>1173.704</ele>
        <time>2026-07-16T11:42:17.637Z</time>
      </trkpt>
      <trkpt lat="42.914560" lon="0.754450">
        <ele>1174.124</ele>
        <time>2026-07-16T11:42:37.637Z</time>
      </trkpt>
      <trkpt lat="42.914600" lon="0.754450">
        <ele>1174.909</ele>
        <time>2026-07-16T11:42:57.637Z</time>
      </trkpt>
      <trkpt lat="42.914650" lon="0.754510">
        <ele>1176.698</ele>
        <time>2026-07-16T11:43:17.637Z</time>
      </trkpt>
      <trkpt lat="42.914650" lon="0.754610">
        <ele>1177.942</ele>
        <time>2026-07-16T11:43:37.637Z</time>
      </trkpt>
      <trkpt lat="42.914500" lon="0.754790">
        <ele>1177.224</ele>
        <time>2026-07-16T11:43:57.637Z</time>
      </trkpt>
      <trkpt lat="42.914430" lon="0.754970">
        <ele>1178.390</ele>
        <time>2026-07-16T11:44:17.637Z</time>
      </trkpt>
      <trkpt lat="42.914280" lon="0.755840">
        <ele>1184.569</ele>
        <time>2026-07-16T11:44:37.637Z</time>
      </trkpt>
      <trkpt lat="42.914220" lon="0.756130">
        <ele>1186.460</ele>
        <time>2026-07-16T11:44:57.637Z</time>
      </trkpt>
      <trkpt lat="42.914130" lon="0.756380">
        <ele>1187.087</ele>
        <time>2026-07-16T11:45:17.637Z</time>
      </trkpt>
      <trkpt lat="42.914020" lon="0.756590">
        <ele>1187.646</ele>
        <time>2026-07-16T11:45:37.637Z</time>
      </trkpt>
      <trkpt lat="42.914000" lon="0.756700">
        <ele>1189.027</ele>
        <time>2026-07-16T11:45:57.637Z</time>
      </trkpt>
      <trkpt lat="42.914010" lon="0.756750">
        <ele>1190.134</ele>
        <time>2026-07-16T11:46:17.637Z</time>
      </trkpt>
      <trkpt lat="42.914070" lon="0.756820">
        <ele>1192.755</ele>
        <time>2026-07-16T11:46:37.637Z</time>
      </trkpt>
      <trkpt lat="42.914160" lon="0.756800">
        <ele>1194.310</ele>
        <time>2026-07-16T11:46:57.637Z</time>
      </trkpt>
      <trkpt lat="42.914210" lon="0.756750">
        <ele>1194.409</ele>
        <time>2026-07-16T11:47:17.637Z</time>
      </trkpt>
      <trkpt lat="42.914470" lon="0.756440">
        <ele>1195.595</ele>
        <time>2026-07-16T11:47:37.637Z</time>
      </trkpt>
      <trkpt lat="42.914600" lon="0.756240">
        <ele>1197.229</ele>
        <time>2026-07-16T11:47:57.637Z</time>
      </trkpt>
      <trkpt lat="42.914770" lon="0.755900">
        <ele>1198.811</ele>
        <time>2026-07-16T11:48:17.637Z</time>
      </trkpt>
      <trkpt lat="42.914810" lon="0.755870">
        <ele>1199.377</ele>
        <time>2026-07-16T11:48:37.637Z</time>
      </trkpt>
      <trkpt lat="42.914880" lon="0.755890">
        <ele>1201.016</ele>
        <time>2026-07-16T11:48:57.637Z</time>
      </trkpt>
      <trkpt lat="42.914910" lon="0.755920">
        <ele>1202.037</ele>
        <time>2026-07-16T11:49:17.637Z</time>
      </trkpt>
      <trkpt lat="42.914920" lon="0.756010">
        <ele>1203.274</ele>
        <time>2026-07-16T11:49:37.637Z</time>
      </trkpt>
      <trkpt lat="42.914850" lon="0.756310">
        <ele>1204.563</ele>
        <time>2026-07-16T11:49:57.637Z</time>
      </trkpt>
      <trkpt lat="42.914820" lon="0.756670">
        <ele>1207.544</ele>
        <time>2026-07-16T11:50:17.637Z</time>
      </trkpt>
      <trkpt lat="42.914790" lon="0.756880">
        <ele>1209.265</ele>
        <time>2026-07-16T11:50:37.637Z</time>
      </trkpt>
      <trkpt lat="42.914680" lon="0.757140">
        <ele>1210.768</ele>
        <time>2026-07-16T11:50:57.637Z</time>
      </trkpt>
      <trkpt lat="42.914670" lon="0.757180">
        <ele>1211.114</ele>
        <time>2026-07-16T11:51:17.637Z</time>
      </trkpt>
      <trkpt lat="42.914690" lon="0.757250">
        <ele>1212.909</ele>
        <time>2026-07-16T11:51:37.637Z</time>
      </trkpt>
      <trkpt lat="42.914720" lon="0.757280">
        <ele>1214.248</ele>
        <time>2026-07-16T11:51:57.637Z</time>
      </trkpt>
      <trkpt lat="42.914760" lon="0.757300">
        <ele>1215.652</ele>
        <time>2026-07-16T11:52:17.637Z</time>
      </trkpt>
      <trkpt lat="42.914850" lon="0.757240">
        <ele>1216.654</ele>
        <time>2026-07-16T11:52:37.637Z</time>
      </trkpt>
      <trkpt lat="42.915100" lon="0.756730">
        <ele>1214.430</ele>
        <time>2026-07-16T11:52:57.637Z</time>
      </trkpt>
      <trkpt lat="42.915160" lon="0.756650">
        <ele>1214.149</ele>
        <time>2026-07-16T11:53:17.637Z</time>
      </trkpt>
      <trkpt lat="42.915220" lon="0.756610">
        <ele>1214.230</ele>
        <time>2026-07-16T11:53:37.637Z</time>
      </trkpt>
      <trkpt lat="42.915340" lon="0.756580">
        <ele>1214.187</ele>
        <time>2026-07-16T11:53:57.637Z</time>
      </trkpt>
      <trkpt lat="42.915410" lon="0.756610">
        <ele>1214.426</ele>
        <time>2026-07-16T11:54:17.637Z</time>
      </trkpt>
      <trkpt lat="42.915540" lon="0.756730">
        <ele>1216.467</ele>
        <time>2026-07-16T11:54:37.637Z</time>
      </trkpt>
      <trkpt lat="42.915840" lon="0.757190">
        <ele>1224.038</ele>
        <time>2026-07-16T11:54:57.637Z</time>
      </trkpt>
      <trkpt lat="42.915950" lon="0.757330">
        <ele>1226.570</ele>
        <time>2026-07-16T11:55:17.637Z</time>
      </trkpt>
      <trkpt lat="42.916160" lon="0.757520">
        <ele>1228.517</ele>
        <time>2026-07-16T11:55:37.637Z</time>
      </trkpt>
      <trkpt lat="42.916260" lon="0.757570">
        <ele>1230.009</ele>
        <time>2026-07-16T11:55:57.637Z</time>
      </trkpt>
      <trkpt lat="42.916460" lon="0.757640">
        <ele>1232.415</ele>
        <time>2026-07-16T11:56:17.637Z</time>
      </trkpt>
      <trkpt lat="42.916550" lon="0.757650">
        <ele>1233.319</ele>
        <time>2026-07-16T11:56:37.637Z</time>
      </trkpt>
      <trkpt lat="42.916700" lon="0.757620">
        <ele>1233.371</ele>
        <time>2026-07-16T11:56:57.637Z</time>
      </trkpt>
      <trkpt lat="42.916810" lon="0.757540">
        <ele>1233.127</ele>
        <time>2026-07-16T11:57:17.637Z</time>
      </trkpt>
      <trkpt lat="42.916860" lon="0.757430">
        <ele>1233.756</ele>
        <time>2026-07-16T11:57:37.637Z</time>
      </trkpt>
      <trkpt lat="42.916860" lon="0.757300">
        <ele>1234.047</ele>
        <time>2026-07-16T11:57:57.637Z</time>
      </trkpt>
      <trkpt lat="42.916800" lon="0.756980">
        <ele>1231.554</ele>
        <time>2026-07-16T11:58:17.637Z</time>
      </trkpt>
      <trkpt lat="42.916790" lon="0.756220">
        <ele>1232.413</ele>
        <time>2026-07-16T11:58:37.637Z</time>
      </trkpt>
      <trkpt lat="42.916830" lon="0.756100">
        <ele>1235.454</ele>
        <time>2026-07-16T11:58:57.637Z</time>
      </trkpt>
      <trkpt lat="42.916890" lon="0.756090">
        <ele>1240.373</ele>
        <time>2026-07-16T11:59:17.637Z</time>
      </trkpt>
      <trkpt lat="42.916960" lon="0.756150">
        <ele>1246.285</ele>
        <time>2026-07-16T11:59:37.637Z</time>
      </trkpt>
      <trkpt lat="42.916980" lon="0.756260">
        <ele>1247.713</ele>
        <time>2026-07-16T11:59:57.637Z</time>
      </trkpt>
      <trkpt lat="42.916940" lon="0.756610">
        <ele>1243.909</ele>
        <time>2026-07-16T12:00:17.637Z</time>
      </trkpt>
      <trkpt lat="42.916940" lon="0.756730">
        <ele>1243.289</ele>
        <time>2026-07-16T12:00:37.637Z</time>
      </trkpt>
      <trkpt lat="42.916990" lon="0.756950">
        <ele>1244.723</ele>
        <time>2026-07-16T12:00:57.637Z</time>
      </trkpt>
      <trkpt lat="42.917050" lon="0.757110">
        <ele>1246.465</ele>
        <time>2026-07-16T12:01:17.637Z</time>
      </trkpt>
      <trkpt lat="42.917190" lon="0.757380">
        <ele>1250.971</ele>
        <time>2026-07-16T12:01:37.637Z</time>
      </trkpt>
      <trkpt lat="42.917460" lon="0.757860">
        <ele>1257.020</ele>
        <time>2026-07-16T12:01:57.637Z</time>
      </trkpt>
      <trkpt lat="42.917500" lon="0.757980">
        <ele>1257.561</ele>
        <time>2026-07-16T12:02:17.637Z</time>
      </trkpt>
      <trkpt lat="42.917530" lon="0.758100">
        <ele>1258.268</ele>
        <time>2026-07-16T12:02:37.637Z</time>
      </trkpt>
      <trkpt lat="42.917530" lon="0.758390">
        <ele>1259.697</ele>
        <time>2026-07-16T12:02:57.637Z</time>
      </trkpt>
      <trkpt lat="42.917550" lon="0.758460">
        <ele>1261.048</ele>
        <time>2026-07-16T12:03:17.637Z</time>
      </trkpt>
      <trkpt lat="42.917580" lon="0.758510">
        <ele>1262.256</ele>
        <time>2026-07-16T12:03:37.637Z</time>
      </trkpt>
      <trkpt lat="42.917650" lon="0.758550">
        <ele>1263.559</ele>
        <time>2026-07-16T12:03:57.637Z</time>
      </trkpt>
      <trkpt lat="42.917700" lon="0.758540">
        <ele>1263.914</ele>
        <time>2026-07-16T12:04:17.637Z</time>
      </trkpt>
      <trkpt lat="42.917720" lon="0.758510">
        <ele>1263.909</ele>
        <time>2026-07-16T12:04:37.637Z</time>
      </trkpt>
      <trkpt lat="42.917750" lon="0.758450">
        <ele>1264.087</ele>
        <time>2026-07-16T12:04:57.637Z</time>
      </trkpt>
      <trkpt lat="42.917730" lon="0.758250">
        <ele>1263.711</ele>
        <time>2026-07-16T12:05:17.637Z</time>
      </trkpt>
      <trkpt lat="42.917670" lon="0.757890">
        <ele>1265.413</ele>
        <time>2026-07-16T12:05:37.637Z</time>
      </trkpt>
      <trkpt lat="42.917560" lon="0.757590">
        <ele>1265.649</ele>
        <time>2026-07-16T12:05:57.637Z</time>
      </trkpt>
      <trkpt lat="42.917570" lon="0.757510">
        <ele>1267.868</ele>
        <time>2026-07-16T12:06:17.637Z</time>
      </trkpt>
      <trkpt lat="42.917600" lon="0.757470">
        <ele>1270.619</ele>
        <time>2026-07-16T12:06:37.637Z</time>
      </trkpt>
      <trkpt lat="42.917670" lon="0.757460">
        <ele>1275.066</ele>
        <time>2026-07-16T12:06:57.637Z</time>
      </trkpt>
      <trkpt lat="42.917710" lon="0.757480">
        <ele>1276.795</ele>
        <time>2026-07-16T12:07:17.637Z</time>
      </trkpt>
      <trkpt lat="42.917740" lon="0.757520">
        <ele>1277.376</ele>
        <time>2026-07-16T12:07:37.637Z</time>
      </trkpt>
      <trkpt lat="42.917760" lon="0.757590">
        <ele>1276.437</ele>
        <time>2026-07-16T12:07:57.637Z</time>
      </trkpt>
      <trkpt lat="42.917800" lon="0.757800">
        <ele>1272.949</ele>
        <time>2026-07-16T12:08:17.637Z</time>
      </trkpt>
      <trkpt lat="42.918030" lon="0.758700">
        <ele>1272.713</ele>
        <time>2026-07-16T12:08:37.637Z</time>
      </trkpt>
      <trkpt lat="42.918060" lon="0.759110">
        <ele>1278.109</ele>
        <time>2026-07-16T12:08:57.637Z</time>
      </trkpt>
      <trkpt lat="42.918120" lon="0.759210">
        <ele>1281.725</ele>
        <time>2026-07-16T12:09:17.637Z</time>
      </trkpt>
      <trkpt lat="42.918160" lon="0.759220">
        <ele>1282.999</ele>
        <time>2026-07-16T12:09:37.637Z</time>
      </trkpt>
      <trkpt lat="42.918230" lon="0.759180">
        <ele>1283.721</ele>
        <time>2026-07-16T12:09:57.637Z</time>
      </trkpt>
      <trkpt lat="42.918250" lon="0.759080">
        <ele>1283.457</ele>
        <time>2026-07-16T12:10:17.637Z</time>
      </trkpt>
      <trkpt lat="42.918160" lon="0.758630">
        <ele>1279.336</ele>
        <time>2026-07-16T12:10:37.637Z</time>
      </trkpt>
      <trkpt lat="42.918140" lon="0.758470">
        <ele>1280.417</ele>
        <time>2026-07-16T12:10:57.637Z</time>
      </trkpt>
      <trkpt lat="42.918140" lon="0.758000">
        <ele>1288.624</ele>
        <time>2026-07-16T12:11:17.637Z</time>
      </trkpt>
      <trkpt lat="42.918120" lon="0.757880">
        <ele>1289.853</ele>
        <time>2026-07-16T12:11:37.637Z</time>
      </trkpt>
      <trkpt lat="42.917980" lon="0.757510">
        <ele>1291.464</ele>
        <time>2026-07-16T12:11:57.637Z</time>
      </trkpt>
      <trkpt lat="42.917710" lon="0.756980">
        <ele>1290.198</ele>
        <time>2026-07-16T12:12:17.637Z</time>
      </trkpt>
      <trkpt lat="42.917660" lon="0.756860">
        <ele>1289.015</ele>
        <time>2026-07-16T12:12:37.637Z</time>
      </trkpt>
      <trkpt lat="42.917650" lon="0.756780">
        <ele>1289.526</ele>
        <time>2026-07-16T12:12:57.637Z</time>
      </trkpt>
      <trkpt lat="42.917660" lon="0.756720">
        <ele>1290.909</ele>
        <time>2026-07-16T12:13:17.637Z</time>
      </trkpt>
      <trkpt lat="42.917700" lon="0.756680">
        <ele>1293.631</ele>
        <time>2026-07-16T12:13:37.637Z</time>
      </trkpt>
      <trkpt lat="42.917770" lon="0.756680">
        <ele>1297.455</ele>
        <time>2026-07-16T12:13:57.637Z</time>
      </trkpt>
      <trkpt lat="42.917830" lon="0.756770">
        <ele>1299.037</ele>
        <time>2026-07-16T12:14:17.637Z</time>
      </trkpt>
      <trkpt lat="42.917870" lon="0.756950">
        <ele>1299.293</ele>
        <time>2026-07-16T12:14:37.637Z</time>
      </trkpt>
      <trkpt lat="42.918020" lon="0.757230">
        <ele>1301.932</ele>
        <time>2026-07-16T12:14:57.637Z</time>
      </trkpt>
      <trkpt lat="42.918330" lon="0.757610">
        <ele>1308.443</ele>
        <time>2026-07-16T12:15:17.637Z</time>
      </trkpt>
      <trkpt lat="42.918500" lon="0.757840">
        <ele>1312.930</ele>
        <time>2026-07-16T12:15:37.637Z</time>
      </trkpt>
      <trkpt lat="42.918550" lon="0.757970">
        <ele>1313.249</ele>
        <time>2026-07-16T12:15:57.637Z</time>
      </trkpt>
      <trkpt lat="42.918670" lon="0.758380">
        <ele>1313.950</ele>
        <time>2026-07-16T12:16:17.637Z</time>
      </trkpt>
      <trkpt lat="42.918730" lon="0.758500">
        <ele>1315.693</ele>
        <time>2026-07-16T12:16:37.637Z</time>
      </trkpt>
      <trkpt lat="42.918780" lon="0.758590">
        <ele>1317.165</ele>
        <time>2026-07-16T12:16:57.637Z</time>
      </trkpt>
      <trkpt lat="42.919050" lon="0.758960">
        <ele>1326.521</ele>
        <time>2026-07-16T12:17:17.637Z</time>
      </trkpt>
      <trkpt lat="42.919070" lon="0.759050">
        <ele>1326.709</ele>
        <time>2026-07-16T12:17:37.637Z</time>
      </trkpt>
      <trkpt lat="42.919070" lon="0.759280">
        <ele>1325.651</ele>
        <time>2026-07-16T12:17:57.637Z</time>
      </trkpt>
      <trkpt lat="42.919000" lon="0.759780">
        <ele>1323.875</ele>
        <time>2026-07-16T12:18:17.637Z</time>
      </trkpt>
      <trkpt lat="42.918990" lon="0.760120">
        <ele>1324.347</ele>
        <time>2026-07-16T12:18:37.637Z</time>
      </trkpt>
      <trkpt lat="42.918990" lon="0.760300">
        <ele>1324.663</ele>
        <time>2026-07-16T12:18:57.637Z</time>
      </trkpt>
      <trkpt lat="42.919010" lon="0.760470">
        <ele>1327.032</ele>
        <time>2026-07-16T12:19:17.637Z</time>
      </trkpt>
      <trkpt lat="42.919070" lon="0.760780">
        <ele>1332.933</ele>
        <time>2026-07-16T12:19:37.637Z</time>
      </trkpt>
      <trkpt lat="42.919190" lon="0.761270">
        <ele>1340.130</ele>
        <time>2026-07-16T12:19:57.637Z</time>
      </trkpt>
      <trkpt lat="42.919270" lon="0.761530">
        <ele>1341.759</ele>
        <time>2026-07-16T12:20:17.637Z</time>
      </trkpt>
    </trkseg>
  </trk></gpx>