<?xml version="1.0" encoding="UTF-8"?><gpx creator="https://climbfinder.com" version="1.1"  xmlns:xsi="http://www.w3.org/2001/XMLSchema-instance"  xmlns="http://www.topografix.com/GPX/1/1" xsi:schemaLocation="http://www.topografix.com/GPX/1/1 http://www.topografix.com/GPX/1/1/gpx.xsd">
  <metadata>
    <name>col-de-sarenne-desde-lac-du-chambon</name>
    <author>
      <link href="https://climbfinder.com">
        <text>climbfinder</text>
        <type>text/html</type>
      </link>
    </author>
  </metadata>
  <trk>
    <name>col-de-sarenne-desde-lac-du-chambon</name>
    <trkseg>
			<trkpt lat="45.04758" lon="6.14111">
        <ele>1049.1</ele>
        <time>2026-08-05T09:00:00Z</time>
      </trkpt>
			<trkpt lat="45.04762" lon="6.14108">
        <ele>1049.1</ele>
        <time>2026-08-05T09:00:00Z</time>
      </trkpt>
			<trkpt lat="45.04763" lon="6.14105">
        <ele>1049.1</ele>
        <time>2026-08-05T09:00:01Z</time>
      </trkpt>
			<trkpt lat="45.04761" lon="6.14067">
        <ele>1049.2</ele>
        <time>2026-08-05T09:00:05Z</time>
      </trkpt>
			<trkpt lat="45.0476" lon="6.14014">
        <ele>1049.5</ele>
        <time>2026-08-05T09:00:11Z</time>
      </trkpt>
			<trkpt lat="45.04763" lon="6.1397">
        <ele>1049.9</ele>
        <time>2026-08-05T09:00:16Z</time>
      </trkpt>
			<trkpt lat="45.04761" lon="6.13937">
        <ele>1050.4</ele>
        <time>2026-08-05T09:00:21Z</time>
      </trkpt>
			<trkpt lat="45.0475" lon="6.13893">
        <ele>1051.3</ele>
        <time>2026-08-05T09:00:27Z</time>
      </trkpt>
			<trkpt lat="45.04749" lon="6.13883">
        <ele>1051.5</ele>
        <time>2026-08-05T09:00:29Z</time>
      </trkpt>
			<trkpt lat="45.04748" lon="6.13864">
        <ele>1052</ele>
        <time>2026-08-05T09:00:32Z</time>
      </trkpt>
			<trkpt lat="45.04749" lon="6.13857">
        <ele>1052.2</ele>
        <time>2026-08-05T09:00:33Z</time>
      </trkpt>
			<trkpt lat="45.04752" lon="6.13853">
        <ele>1052.4</ele>
        <time>2026-08-05T09:00:34Z</time>
      </trkpt>
			<trkpt lat="45.04757" lon="6.13852">
        <ele>1052.6</ele>
        <time>2026-08-05T09:00:35Z</time>
      </trkpt>
			<trkpt lat="45.04761" lon="6.13854">
        <ele>1052.8</ele>
        <time>2026-08-05T09:00:36Z</time>
      </trkpt>
			<trkpt lat="45.04763" lon="6.13859">
        <ele>1053</ele>
        <time>2026-08-05T09:00:37Z</time>
      </trkpt>
			<trkpt lat="45.04764" lon="6.13866">
        <ele>1053.2</ele>
        <time>2026-08-05T09:00:39Z</time>
      </trkpt>
			<trkpt lat="45.04764" lon="6.13884">
        <ele>1053.8</ele>
        <time>2026-08-05T09:00:42Z</time>
      </trkpt>
			<trkpt lat="45.04765" lon="6.13892">
        <ele>1054.2</ele>
        <time>2026-08-05T09:00:44Z</time>
      </trkpt>
			<trkpt lat="45.04767" lon="6.13899">
        <ele>1054.5</ele>
        <time>2026-08-05T09:00:45Z</time>
      </trkpt>
			<trkpt lat="45.04783" lon="6.1393">
        <ele>1056.3</ele>
        <time>2026-08-05T09:00:54Z</time>
      </trkpt>
			<trkpt lat="45.04788" lon="6.13942">
        <ele>1057</ele>
        <time>2026-08-05T09:00:57Z</time>
      </trkpt>
			<trkpt lat="45.0479" lon="6.13952">
        <ele>1057.6</ele>
        <time>2026-08-05T09:00:59Z</time>
      </trkpt>
			<trkpt lat="45.04794" lon="6.13987">
        <ele>1059.8</ele>
        <time>2026-08-05T09:01:09Z</time>
      </trkpt>
			<trkpt lat="45.04799" lon="6.14011">
        <ele>1061.5</ele>
        <time>2026-08-05T09:01:17Z</time>
      </trkpt>
			<trkpt lat="45.04807" lon="6.14037">
        <ele>1063.8</ele>
        <time>2026-08-05T09:01:27Z</time>
      </trkpt>
			<trkpt lat="45.04809" lon="6.14046">
        <ele>1064.5</ele>
        <time>2026-08-05T09:01:30Z</time>
      </trkpt>
			<trkpt lat="45.0481" lon="6.14054">
        <ele>1065.2</ele>
        <time>2026-08-05T09:01:33Z</time>
      </trkpt>
			<trkpt lat="45.0481" lon="6.14093">
        <ele>1068.8</ele>
        <time>2026-08-05T09:01:49Z</time>
      </trkpt>
			<trkpt lat="45.04812" lon="6.14108">
        <ele>1070.2</ele>
        <time>2026-08-05T09:01:55Z</time>
      </trkpt>
			<trkpt lat="45.04819" lon="6.14131">
        <ele>1072.8</ele>
        <time>2026-08-05T09:02:06Z</time>
      </trkpt>
			<trkpt lat="45.04838" lon="6.14167">
        <ele>1077.6</ele>
        <time>2026-08-05T09:02:28Z</time>
      </trkpt>
			<trkpt lat="45.04846" lon="6.14189">
        <ele>1080.3</ele>
        <time>2026-08-05T09:02:39Z</time>
      </trkpt>
			<trkpt lat="45.04859" lon="6.14234">
        <ele>1085.7</ele>
        <time>2026-08-05T09:03:02Z</time>
      </trkpt>
			<trkpt lat="45.04871" lon="6.14279">
        <ele>1090.8</ele>
        <time>2026-08-05T09:03:25Z</time>
      </trkpt>
			<trkpt lat="45.04876" lon="6.14302">
        <ele>1093.4</ele>
        <time>2026-08-05T09:03:36Z</time>
      </trkpt>
			<trkpt lat="45.04875" lon="6.14325">
        <ele>1096</ele>
        <time>2026-08-05T09:03:47Z</time>
      </trkpt>
			<trkpt lat="45.04876" lon="6.14333">
        <ele>1096.8</ele>
        <time>2026-08-05T09:03:51Z</time>
      </trkpt>
			<trkpt lat="45.04878" lon="6.14337">
        <ele>1097.3</ele>
        <time>2026-08-05T09:03:53Z</time>
      </trkpt>
			<trkpt lat="45.04881" lon="6.1434">
        <ele>1097.9</ele>
        <time>2026-08-05T09:03:56Z</time>
      </trkpt>
			<trkpt lat="45.04885" lon="6.14341">
        <ele>1098.4</ele>
        <time>2026-08-05T09:03:58Z</time>
      </trkpt>
			<trkpt lat="45.04888" lon="6.1434">
        <ele>1099</ele>
        <time>2026-08-05T09:04:01Z</time>
      </trkpt>
			<trkpt lat="45.04889" lon="6.14335">
        <ele>1099.5</ele>
        <time>2026-08-05T09:04:03Z</time>
      </trkpt>
			<trkpt lat="45.0489" lon="6.14327">
        <ele>1100.3</ele>
        <time>2026-08-05T09:04:07Z</time>
      </trkpt>
			<trkpt lat="45.04888" lon="6.1427">
        <ele>1106.4</ele>
        <time>2026-08-05T09:04:34Z</time>
      </trkpt>
			<trkpt lat="45.04886" lon="6.14237">
        <ele>1109.9</ele>
        <time>2026-08-05T09:04:49Z</time>
      </trkpt>
			<trkpt lat="45.04884" lon="6.14205">
        <ele>1113.4</ele>
        <time>2026-08-05T09:05:04Z</time>
      </trkpt>
			<trkpt lat="45.04885" lon="6.1417">
        <ele>1117.4</ele>
        <time>2026-08-05T09:05:24Z</time>
      </trkpt>
			<trkpt lat="45.04886" lon="6.14135">
        <ele>1121.3</ele>
        <time>2026-08-05T09:05:41Z</time>
      </trkpt>
			<trkpt lat="45.04887" lon="6.14124">
        <ele>1122.6</ele>
        <time>2026-08-05T09:05:47Z</time>
      </trkpt>
			<trkpt lat="45.04891" lon="6.14109">
        <ele>1124.5</ele>
        <time>2026-08-05T09:05:56Z</time>
      </trkpt>
			<trkpt lat="45.04904" lon="6.14068">
        <ele>1129.5</ele>
        <time>2026-08-05T09:06:17Z</time>
      </trkpt>
			<trkpt lat="45.04913" lon="6.14044">
        <ele>1132.5</ele>
        <time>2026-08-05T09:06:30Z</time>
      </trkpt>
			<trkpt lat="45.04921" lon="6.14031">
        <ele>1134.4</ele>
        <time>2026-08-05T09:06:38Z</time>
      </trkpt>
			<trkpt lat="45.04946" lon="6.14002">
        <ele>1139.4</ele>
        <time>2026-08-05T09:07:00Z</time>
      </trkpt>
			<trkpt lat="45.04951" lon="6.13999">
        <ele>1140.2</ele>
        <time>2026-08-05T09:07:03Z</time>
      </trkpt>
			<trkpt lat="45.04956" lon="6.14001">
        <ele>1140.9</ele>
        <time>2026-08-05T09:07:06Z</time>
      </trkpt>
			<trkpt lat="45.04958" lon="6.14007">
        <ele>1141.6</ele>
        <time>2026-08-05T09:07:09Z</time>
      </trkpt>
			<trkpt lat="45.04958" lon="6.14013">
        <ele>1142.2</ele>
        <time>2026-08-05T09:07:12Z</time>
      </trkpt>
			<trkpt lat="45.04955" lon="6.1402">
        <ele>1143</ele>
        <time>2026-08-05T09:07:15Z</time>
      </trkpt>
			<trkpt lat="45.0494" lon="6.14045">
        <ele>1146.3</ele>
        <time>2026-08-05T09:07:31Z</time>
      </trkpt>
			<trkpt lat="45.04934" lon="6.14058">
        <ele>1147.8</ele>
        <time>2026-08-05T09:07:37Z</time>
      </trkpt>
			<trkpt lat="45.0493" lon="6.14071">
        <ele>1149.1</ele>
        <time>2026-08-05T09:07:43Z</time>
      </trkpt>
			<trkpt lat="45.04926" lon="6.14093">
        <ele>1151.2</ele>
        <time>2026-08-05T09:07:52Z</time>
      </trkpt>
			<trkpt lat="45.04927" lon="6.14108">
        <ele>1152.5</ele>
        <time>2026-08-05T09:07:57Z</time>
      </trkpt>
			<trkpt lat="45.04928" lon="6.14117">
        <ele>1153.3</ele>
        <time>2026-08-05T09:08:01Z</time>
      </trkpt>
			<trkpt lat="45.04932" lon="6.14131">
        <ele>1154.7</ele>
        <time>2026-08-05T09:08:07Z</time>
      </trkpt>
			<trkpt lat="45.04945" lon="6.14164">
        <ele>1157.9</ele>
        <time>2026-08-05T09:08:20Z</time>
      </trkpt>
			<trkpt lat="45.04958" lon="6.14198">
        <ele>1160.9</ele>
        <time>2026-08-05T09:08:34Z</time>
      </trkpt>
			<trkpt lat="45.04982" lon="6.14235">
        <ele>1164.6</ele>
        <time>2026-08-05T09:08:50Z</time>
      </trkpt>
			<trkpt lat="45.04987" lon="6.14245">
        <ele>1165.5</ele>
        <time>2026-08-05T09:08:53Z</time>
      </trkpt>
			<trkpt lat="45.04996" lon="6.14266">
        <ele>1167.2</ele>
        <time>2026-08-05T09:09:01Z</time>
      </trkpt>
			<trkpt lat="45.04998" lon="6.1427">
        <ele>1167.5</ele>
        <time>2026-08-05T09:09:03Z</time>
      </trkpt>
			<trkpt lat="45.05" lon="6.14272">
        <ele>1167.8</ele>
        <time>2026-08-05T09:09:04Z</time>
      </trkpt>
			<trkpt lat="45.0502" lon="6.14279">
        <ele>1169.7</ele>
        <time>2026-08-05T09:09:12Z</time>
      </trkpt>
			<trkpt lat="45.05042" lon="6.14291">
        <ele>1171.7</ele>
        <time>2026-08-05T09:09:21Z</time>
      </trkpt>
			<trkpt lat="45.05063" lon="6.14306">
        <ele>1173.5</ele>
        <time>2026-08-05T09:09:29Z</time>
      </trkpt>
			<trkpt lat="45.05067" lon="6.14308">
        <ele>1173.9</ele>
        <time>2026-08-05T09:09:31Z</time>
      </trkpt>
			<trkpt lat="45.05075" lon="6.14309">
        <ele>1174.5</ele>
        <time>2026-08-05T09:09:34Z</time>
      </trkpt>
			<trkpt lat="45.0509" lon="6.14309">
        <ele>1175.5</ele>
        <time>2026-08-05T09:09:38Z</time>
      </trkpt>
			<trkpt lat="45.05098" lon="6.14307">
        <ele>1176</ele>
        <time>2026-08-05T09:09:41Z</time>
      </trkpt>
			<trkpt lat="45.05123" lon="6.143">
        <ele>1177.7</ele>
        <time>2026-08-05T09:09:49Z</time>
      </trkpt>
			<trkpt lat="45.05159" lon="6.14286">
        <ele>1179.8</ele>
        <time>2026-08-05T09:09:59Z</time>
      </trkpt>
			<trkpt lat="45.05194" lon="6.14272">
        <ele>1181.6</ele>
        <time>2026-08-05T09:10:08Z</time>
      </trkpt>
			<trkpt lat="45.05205" lon="6.1427">
        <ele>1182.1</ele>
        <time>2026-08-05T09:10:11Z</time>
      </trkpt>
			<trkpt lat="45.05212" lon="6.14272">
        <ele>1182.4</ele>
        <time>2026-08-05T09:10:13Z</time>
      </trkpt>
			<trkpt lat="45.05225" lon="6.14278">
        <ele>1182.9</ele>
        <time>2026-08-05T09:10:16Z</time>
      </trkpt>
			<trkpt lat="45.05237" lon="6.14286">
        <ele>1183.5</ele>
        <time>2026-08-05T09:10:19Z</time>
      </trkpt>
			<trkpt lat="45.05259" lon="6.14309">
        <ele>1184.4</ele>
        <time>2026-08-05T09:10:25Z</time>
      </trkpt>
			<trkpt lat="45.0528" lon="6.14333">
        <ele>1185.2</ele>
        <time>2026-08-05T09:10:31Z</time>
      </trkpt>
			<trkpt lat="45.05306" lon="6.14369">
        <ele>1186</ele>
        <time>2026-08-05T09:10:38Z</time>
      </trkpt>
			<trkpt lat="45.05324" lon="6.14399">
        <ele>1186.5</ele>
        <time>2026-08-05T09:10:44Z</time>
      </trkpt>
			<trkpt lat="45.0534" lon="6.14418">
        <ele>1186.7</ele>
        <time>2026-08-05T09:10:47Z</time>
      </trkpt>
			<trkpt lat="45.05362" lon="6.14434">
        <ele>1186.9</ele>
        <time>2026-08-05T09:10:52Z</time>
      </trkpt>
			<trkpt lat="45.05384" lon="6.14451">
        <ele>1187</ele>
        <time>2026-08-05T09:10:55Z</time>
      </trkpt>
			<trkpt lat="45.05417" lon="6.14455">
        <ele>1187</ele>
        <time>2026-08-05T09:11:00Z</time>
      </trkpt>
			<trkpt lat="45.05427" lon="6.1446">
        <ele>1186.9</ele>
        <time>2026-08-05T09:11:01Z</time>
      </trkpt>
			<trkpt lat="45.05433" lon="6.14464">
        <ele>1186.9</ele>
        <time>2026-08-05T09:11:02Z</time>
      </trkpt>
			<trkpt lat="45.05444" lon="6.14481">
        <ele>1186.9</ele>
        <time>2026-08-05T09:11:05Z</time>
      </trkpt>
			<trkpt lat="45.05461" lon="6.145">
        <ele>1186.8</ele>
        <time>2026-08-05T09:11:08Z</time>
      </trkpt>
			<trkpt lat="45.05485" lon="6.14514">
        <ele>1186.6</ele>
        <time>2026-08-05T09:11:10Z</time>
      </trkpt>
			<trkpt lat="45.05508" lon="6.14528">
        <ele>1186.5</ele>
        <time>2026-08-05T09:11:14Z</time>
      </trkpt>
			<trkpt lat="45.0552" lon="6.14538">
        <ele>1186.5</ele>
        <time>2026-08-05T09:11:16Z</time>
      </trkpt>
			<trkpt lat="45.05544" lon="6.14546">
        <ele>1186.4</ele>
        <time>2026-08-05T09:11:20Z</time>
      </trkpt>
			<trkpt lat="45.05567" lon="6.14555">
        <ele>1186.4</ele>
        <time>2026-08-05T09:11:23Z</time>
      </trkpt>
			<trkpt lat="45.05579" lon="6.14562">
        <ele>1186.4</ele>
        <time>2026-08-05T09:11:25Z</time>
      </trkpt>
			<trkpt lat="45.05591" lon="6.14563">
        <ele>1186.4</ele>
        <time>2026-08-05T09:11:27Z</time>
      </trkpt>
			<trkpt lat="45.05618" lon="6.14562">
        <ele>1186.5</ele>
        <time>2026-08-05T09:11:31Z</time>
      </trkpt>
			<trkpt lat="45.05646" lon="6.14567">
        <ele>1186.6</ele>
        <time>2026-08-05T09:11:35Z</time>
      </trkpt>
			<trkpt lat="45.0566" lon="6.14578">
        <ele>1186.6</ele>
        <time>2026-08-05T09:11:38Z</time>
      </trkpt>
			<trkpt lat="45.05678" lon="6.14612">
        <ele>1186.8</ele>
        <time>2026-08-05T09:11:43Z</time>
      </trkpt>
			<trkpt lat="45.05696" lon="6.14647">
        <ele>1186.9</ele>
        <time>2026-08-05T09:11:47Z</time>
      </trkpt>
			<trkpt lat="45.05705" lon="6.14657">
        <ele>1186.9</ele>
        <time>2026-08-05T09:11:49Z</time>
      </trkpt>
			<trkpt lat="45.05719" lon="6.14667">
        <ele>1186.9</ele>
        <time>2026-08-05T09:11:51Z</time>
      </trkpt>
			<trkpt lat="45.05727" lon="6.14675">
        <ele>1187</ele>
        <time>2026-08-05T09:11:53Z</time>
      </trkpt>
			<trkpt lat="45.05733" lon="6.14689">
        <ele>1187</ele>
        <time>2026-08-05T09:11:55Z</time>
      </trkpt>
			<trkpt lat="45.05741" lon="6.14705">
        <ele>1187</ele>
        <time>2026-08-05T09:11:57Z</time>
      </trkpt>
			<trkpt lat="45.05752" lon="6.14715">
        <ele>1187</ele>
        <time>2026-08-05T09:11:59Z</time>
      </trkpt>
			<trkpt lat="45.05765" lon="6.14719">
        <ele>1187</ele>
        <time>2026-08-05T09:12:01Z</time>
      </trkpt>
			<trkpt lat="45.05783" lon="6.14721">
        <ele>1187</ele>
        <time>2026-08-05T09:12:03Z</time>
      </trkpt>
			<trkpt lat="45.05794" lon="6.14728">
        <ele>1187</ele>
        <time>2026-08-05T09:12:05Z</time>
      </trkpt>
			<trkpt lat="45.05822" lon="6.1476">
        <ele>1187.1</ele>
        <time>2026-08-05T09:12:11Z</time>
      </trkpt>
			<trkpt lat="45.05851" lon="6.14786">
        <ele>1187.2</ele>
        <time>2026-08-05T09:12:16Z</time>
      </trkpt>
			<trkpt lat="45.05873" lon="6.14799">
        <ele>1187.4</ele>
        <time>2026-08-05T09:12:20Z</time>
      </trkpt>
			<trkpt lat="45.05894" lon="6.14815">
        <ele>1187.7</ele>
        <time>2026-08-05T09:12:24Z</time>
      </trkpt>
			<trkpt lat="45.05914" lon="6.14832">
        <ele>1188.1</ele>
        <time>2026-08-05T09:12:28Z</time>
      </trkpt>
			<trkpt lat="45.05942" lon="6.14863">
        <ele>1189.1</ele>
        <time>2026-08-05T09:12:36Z</time>
      </trkpt>
			<trkpt lat="45.05958" lon="6.14888">
        <ele>1189.9</ele>
        <time>2026-08-05T09:12:42Z</time>
      </trkpt>
			<trkpt lat="45.0598" lon="6.14933">
        <ele>1191.5</ele>
        <time>2026-08-05T09:12:51Z</time>
      </trkpt>
			<trkpt lat="45.05984" lon="6.14947">
        <ele>1192.1</ele>
        <time>2026-08-05T09:12:54Z</time>
      </trkpt>
			<trkpt lat="45.05988" lon="6.14954">
        <ele>1192.4</ele>
        <time>2026-08-05T09:12:56Z</time>
      </trkpt>
			<trkpt lat="45.05994" lon="6.14958">
        <ele>1192.8</ele>
        <time>2026-08-05T09:12:58Z</time>
      </trkpt>
			<trkpt lat="45.05999" lon="6.14951">
        <ele>1193.2</ele>
        <time>2026-08-05T09:13:00Z</time>
      </trkpt>
			<trkpt lat="45.05999" lon="6.14943">
        <ele>1193.5</ele>
        <time>2026-08-05T09:13:01Z</time>
      </trkpt>
			<trkpt lat="45.0598" lon="6.14892">
        <ele>1196.2</ele>
        <time>2026-08-05T09:13:14Z</time>
      </trkpt>
			<trkpt lat="45.0596" lon="6.14841">
        <ele>1199.5</ele>
        <time>2026-08-05T09:13:28Z</time>
      </trkpt>
			<trkpt lat="45.05952" lon="6.14804">
        <ele>1201.9</ele>
        <time>2026-08-05T09:13:39Z</time>
      </trkpt>
			<trkpt lat="45.05943" lon="6.14767">
        <ele>1204.6</ele>
        <time>2026-08-05T09:13:51Z</time>
      </trkpt>
			<trkpt lat="45.05925" lon="6.14719">
        <ele>1208.6</ele>
        <time>2026-08-05T09:14:08Z</time>
      </trkpt>
			<trkpt lat="45.05906" lon="6.14671">
        <ele>1213.1</ele>
        <time>2026-08-05T09:14:27Z</time>
      </trkpt>
			<trkpt lat="45.05903" lon="6.14659">
        <ele>1214.2</ele>
        <time>2026-08-05T09:14:32Z</time>
      </trkpt>
			<trkpt lat="45.05902" lon="6.14648">
        <ele>1215</ele>
        <time>2026-08-05T09:14:35Z</time>
      </trkpt>
			<trkpt lat="45.05908" lon="6.14646">
        <ele>1215.8</ele>
        <time>2026-08-05T09:14:39Z</time>
      </trkpt>
			<trkpt lat="45.05913" lon="6.14653">
        <ele>1216.7</ele>
        <time>2026-08-05T09:14:43Z</time>
      </trkpt>
			<trkpt lat="45.05932" lon="6.14686">
        <ele>1220.8</ele>
        <time>2026-08-05T09:15:00Z</time>
      </trkpt>
			<trkpt lat="45.05957" lon="6.14706">
        <ele>1224.6</ele>
        <time>2026-08-05T09:15:17Z</time>
      </trkpt>
			<trkpt lat="45.05981" lon="6.14726">
        <ele>1228.7</ele>
        <time>2026-08-05T09:15:35Z</time>
      </trkpt>
			<trkpt lat="45.06009" lon="6.14745">
        <ele>1233.5</ele>
        <time>2026-08-05T09:15:56Z</time>
      </trkpt>
			<trkpt lat="45.06042" lon="6.14775">
        <ele>1239.5</ele>
        <time>2026-08-05T09:16:22Z</time>
      </trkpt>
			<trkpt lat="45.06074" lon="6.14806">
        <ele>1245.7</ele>
        <time>2026-08-05T09:16:48Z</time>
      </trkpt>
			<trkpt lat="45.06095" lon="6.14821">
        <ele>1249.3</ele>
        <time>2026-08-05T09:17:04Z</time>
      </trkpt>
			<trkpt lat="45.06125" lon="6.14838">
        <ele>1254</ele>
        <time>2026-08-05T09:17:25Z</time>
      </trkpt>
			<trkpt lat="45.06154" lon="6.14856">
        <ele>1258.5</ele>
        <time>2026-08-05T09:17:46Z</time>
      </trkpt>
			<trkpt lat="45.06184" lon="6.14869">
        <ele>1262.6</ele>
        <time>2026-08-05T09:18:04Z</time>
      </trkpt>
			<trkpt lat="45.06214" lon="6.14883">
        <ele>1266.4</ele>
        <time>2026-08-05T09:18:20Z</time>
      </trkpt>
			<trkpt lat="45.06224" lon="6.1489">
        <ele>1267.6</ele>
        <time>2026-08-05T09:18:26Z</time>
      </trkpt>
			<trkpt lat="45.06241" lon="6.14909">
        <ele>1270</ele>
        <time>2026-08-05T09:18:36Z</time>
      </trkpt>
			<trkpt lat="45.06259" lon="6.14925">
        <ele>1272.3</ele>
        <time>2026-08-05T09:18:47Z</time>
      </trkpt>
			<trkpt lat="45.063" lon="6.1494">
        <ele>1276.5</ele>
        <time>2026-08-05T09:19:06Z</time>
      </trkpt>
			<trkpt lat="45.06314" lon="6.14951">
        <ele>1278</ele>
        <time>2026-08-05T09:19:12Z</time>
      </trkpt>
			<trkpt lat="45.06351" lon="6.14985">
        <ele>1282</ele>
        <time>2026-08-05T09:19:30Z</time>
      </trkpt>
			<trkpt lat="45.06372" lon="6.15005">
        <ele>1284.2</ele>
        <time>2026-08-05T09:19:40Z</time>
      </trkpt>
			<trkpt lat="45.06393" lon="6.15026">
        <ele>1286.4</ele>
        <time>2026-08-05T09:19:50Z</time>
      </trkpt>
			<trkpt lat="45.06413" lon="6.15048">
        <ele>1288.4</ele>
        <time>2026-08-05T09:19:59Z</time>
      </trkpt>
			<trkpt lat="45.06433" lon="6.1507">
        <ele>1290.4</ele>
        <time>2026-08-05T09:20:07Z</time>
      </trkpt>
			<trkpt lat="45.06465" lon="6.151">
        <ele>1293.5</ele>
        <time>2026-08-05T09:20:20Z</time>
      </trkpt>
			<trkpt lat="45.06476" lon="6.15112">
        <ele>1294.5</ele>
        <time>2026-08-05T09:20:24Z</time>
      </trkpt>
			<trkpt lat="45.06478" lon="6.1511">
        <ele>1294.8</ele>
        <time>2026-08-05T09:20:26Z</time>
      </trkpt>
			<trkpt lat="45.06482" lon="6.15109">
        <ele>1295</ele>
        <time>2026-08-05T09:20:27Z</time>
      </trkpt>
			<trkpt lat="45.06487" lon="6.15113">
        <ele>1295.5</ele>
        <time>2026-08-05T09:20:29Z</time>
      </trkpt>
			<trkpt lat="45.06511" lon="6.15139">
        <ele>1297.9</ele>
        <time>2026-08-05T09:20:39Z</time>
      </trkpt>
			<trkpt lat="45.06537" lon="6.15163">
        <ele>1300.5</ele>
        <time>2026-08-05T09:20:51Z</time>
      </trkpt>
			<trkpt lat="45.06562" lon="6.15187">
        <ele>1303.1</ele>
        <time>2026-08-05T09:21:04Z</time>
      </trkpt>
			<trkpt lat="45.06588" lon="6.15211">
        <ele>1305.8</ele>
        <time>2026-08-05T09:21:16Z</time>
      </trkpt>
			<trkpt lat="45.06623" lon="6.15244">
        <ele>1309.7</ele>
        <time>2026-08-05T09:21:33Z</time>
      </trkpt>
			<trkpt lat="45.0664" lon="6.15255">
        <ele>1311.4</ele>
        <time>2026-08-05T09:21:40Z</time>
      </trkpt>
			<trkpt lat="45.06657" lon="6.15263">
        <ele>1313.1</ele>
        <time>2026-08-05T09:21:48Z</time>
      </trkpt>
			<trkpt lat="45.06666" lon="6.1527">
        <ele>1314.2</ele>
        <time>2026-08-05T09:21:53Z</time>
      </trkpt>
			<trkpt lat="45.0669" lon="6.15291">
        <ele>1317</ele>
        <time>2026-08-05T09:22:06Z</time>
      </trkpt>
			<trkpt lat="45.06714" lon="6.15312">
        <ele>1320</ele>
        <time>2026-08-05T09:22:20Z</time>
      </trkpt>
			<trkpt lat="45.06738" lon="6.15334">
        <ele>1323</ele>
        <time>2026-08-05T09:22:33Z</time>
      </trkpt>
			<trkpt lat="45.06752" lon="6.15341">
        <ele>1324.7</ele>
        <time>2026-08-05T09:22:40Z</time>
      </trkpt>
			<trkpt lat="45.06771" lon="6.15343">
        <ele>1326.9</ele>
        <time>2026-08-05T09:22:50Z</time>
      </trkpt>
			<trkpt lat="45.06797" lon="6.15343">
        <ele>1329.9</ele>
        <time>2026-08-05T09:23:03Z</time>
      </trkpt>
			<trkpt lat="45.06823" lon="6.15344">
        <ele>1333</ele>
        <time>2026-08-05T09:23:16Z</time>
      </trkpt>
			<trkpt lat="45.06838" lon="6.15348">
        <ele>1334.9</ele>
        <time>2026-08-05T09:23:23Z</time>
      </trkpt>
			<trkpt lat="45.06858" lon="6.15357">
        <ele>1337.4</ele>
        <time>2026-08-05T09:23:34Z</time>
      </trkpt>
			<trkpt lat="45.06879" lon="6.1537">
        <ele>1340.3</ele>
        <time>2026-08-05T09:23:45Z</time>
      </trkpt>
			<trkpt lat="45.06899" lon="6.1538">
        <ele>1342.8</ele>
        <time>2026-08-05T09:23:56Z</time>
      </trkpt>
			<trkpt lat="45.06916" lon="6.15383">
        <ele>1344.9</ele>
        <time>2026-08-05T09:24:05Z</time>
      </trkpt>
			<trkpt lat="45.0693" lon="6.15381">
        <ele>1346.6</ele>
        <time>2026-08-05T09:24:12Z</time>
      </trkpt>
			<trkpt lat="45.06945" lon="6.15377">
        <ele>1348.3</ele>
        <time>2026-08-05T09:24:19Z</time>
      </trkpt>
			<trkpt lat="45.06972" lon="6.15365">
        <ele>1351.4</ele>
        <time>2026-08-05T09:24:33Z</time>
      </trkpt>
			<trkpt lat="45.07" lon="6.15363">
        <ele>1354.3</ele>
        <time>2026-08-05T09:24:46Z</time>
      </trkpt>
			<trkpt lat="45.07027" lon="6.1536">
        <ele>1356.9</ele>
        <time>2026-08-05T09:24:58Z</time>
      </trkpt>
			<trkpt lat="45.0706" lon="6.1537">
        <ele>1359.5</ele>
        <time>2026-08-05T09:25:09Z</time>
      </trkpt>
			<trkpt lat="45.07083" lon="6.15389">
        <ele>1361.3</ele>
        <time>2026-08-05T09:25:17Z</time>
      </trkpt>
			<trkpt lat="45.07106" lon="6.15408">
        <ele>1362.9</ele>
        <time>2026-08-05T09:25:25Z</time>
      </trkpt>
			<trkpt lat="45.07121" lon="6.15424">
        <ele>1363.8</ele>
        <time>2026-08-05T09:25:30Z</time>
      </trkpt>
			<trkpt lat="45.07127" lon="6.15437">
        <ele>1364.4</ele>
        <time>2026-08-05T09:25:33Z</time>
      </trkpt>
			<trkpt lat="45.07132" lon="6.15466">
        <ele>1365.3</ele>
        <time>2026-08-05T09:25:38Z</time>
      </trkpt>
			<trkpt lat="45.07135" lon="6.1548">
        <ele>1365.7</ele>
        <time>2026-08-05T09:25:40Z</time>
      </trkpt>
			<trkpt lat="45.07143" lon="6.15496">
        <ele>1366.2</ele>
        <time>2026-08-05T09:25:43Z</time>
      </trkpt>
			<trkpt lat="45.07146" lon="6.15516">
        <ele>1366.8</ele>
        <time>2026-08-05T09:25:47Z</time>
      </trkpt>
			<trkpt lat="45.0715" lon="6.15527">
        <ele>1367.1</ele>
        <time>2026-08-05T09:25:49Z</time>
      </trkpt>
			<trkpt lat="45.07161" lon="6.15548">
        <ele>1367.8</ele>
        <time>2026-08-05T09:25:53Z</time>
      </trkpt>
			<trkpt lat="45.07166" lon="6.15552">
        <ele>1368.1</ele>
        <time>2026-08-05T09:25:55Z</time>
      </trkpt>
			<trkpt lat="45.0717" lon="6.15558">
        <ele>1368.3</ele>
        <time>2026-08-05T09:25:56Z</time>
      </trkpt>
			<trkpt lat="45.07185" lon="6.15575">
        <ele>1369.1</ele>
        <time>2026-08-05T09:26:01Z</time>
      </trkpt>
			<trkpt lat="45.07189" lon="6.15577">
        <ele>1369.3</ele>
        <time>2026-08-05T09:26:02Z</time>
      </trkpt>
			<trkpt lat="45.07198" lon="6.15588">
        <ele>1369.8</ele>
        <time>2026-08-05T09:26:05Z</time>
      </trkpt>
			<trkpt lat="45.07234" lon="6.1562">
        <ele>1371.8</ele>
        <time>2026-08-05T09:26:16Z</time>
      </trkpt>
			<trkpt lat="45.0727" lon="6.15652">
        <ele>1374.1</ele>
        <time>2026-08-05T09:26:28Z</time>
      </trkpt>
			<trkpt lat="45.07295" lon="6.1567">
        <ele>1375.8</ele>
        <time>2026-08-05T09:26:36Z</time>
      </trkpt>
			<trkpt lat="45.07334" lon="6.15692">
        <ele>1378.4</ele>
        <time>2026-08-05T09:26:49Z</time>
      </trkpt>
			<trkpt lat="45.07346" lon="6.15701">
        <ele>1379.2</ele>
        <time>2026-08-05T09:26:53Z</time>
      </trkpt>
			<trkpt lat="45.07358" lon="6.15712">
        <ele>1380.1</ele>
        <time>2026-08-05T09:26:57Z</time>
      </trkpt>
			<trkpt lat="45.07381" lon="6.15738">
        <ele>1381.8</ele>
        <time>2026-08-05T09:27:05Z</time>
      </trkpt>
			<trkpt lat="45.07388" lon="6.15745">
        <ele>1382.3</ele>
        <time>2026-08-05T09:27:08Z</time>
      </trkpt>
			<trkpt lat="45.07394" lon="6.15749">
        <ele>1382.7</ele>
        <time>2026-08-05T09:27:10Z</time>
      </trkpt>
			<trkpt lat="45.07418" lon="6.15761">
        <ele>1384.1</ele>
        <time>2026-08-05T09:27:17Z</time>
      </trkpt>
			<trkpt lat="45.07425" lon="6.15767">
        <ele>1384.6</ele>
        <time>2026-08-05T09:27:19Z</time>
      </trkpt>
			<trkpt lat="45.07452" lon="6.158">
        <ele>1386.4</ele>
        <time>2026-08-05T09:27:29Z</time>
      </trkpt>
			<trkpt lat="45.07463" lon="6.15809">
        <ele>1387</ele>
        <time>2026-08-05T09:27:33Z</time>
      </trkpt>
			<trkpt lat="45.07471" lon="6.15811">
        <ele>1387.4</ele>
        <time>2026-08-05T09:27:35Z</time>
      </trkpt>
			<trkpt lat="45.0748" lon="6.15812">
        <ele>1387.8</ele>
        <time>2026-08-05T09:27:37Z</time>
      </trkpt>
			<trkpt lat="45.07508" lon="6.15807">
        <ele>1389.1</ele>
        <time>2026-08-05T09:27:44Z</time>
      </trkpt>
			<trkpt lat="45.0752" lon="6.15806">
        <ele>1389.6</ele>
        <time>2026-08-05T09:27:47Z</time>
      </trkpt>
			<trkpt lat="45.07529" lon="6.15807">
        <ele>1390</ele>
        <time>2026-08-05T09:27:49Z</time>
      </trkpt>
			<trkpt lat="45.07541" lon="6.15809">
        <ele>1390.6</ele>
        <time>2026-08-05T09:27:52Z</time>
      </trkpt>
			<trkpt lat="45.07553" lon="6.15814">
        <ele>1391.1</ele>
        <time>2026-08-05T09:27:55Z</time>
      </trkpt>
			<trkpt lat="45.07588" lon="6.1583">
        <ele>1392.6</ele>
        <time>2026-08-05T09:28:05Z</time>
      </trkpt>
			<trkpt lat="45.07603" lon="6.15835">
        <ele>1393.1</ele>
        <time>2026-08-05T09:28:08Z</time>
      </trkpt>
			<trkpt lat="45.07614" lon="6.15835">
        <ele>1393.5</ele>
        <time>2026-08-05T09:28:11Z</time>
      </trkpt>
			<trkpt lat="45.07627" lon="6.15834">
        <ele>1394</ele>
        <time>2026-08-05T09:28:13Z</time>
      </trkpt>
			<trkpt lat="45.07642" lon="6.1583">
        <ele>1394.5</ele>
        <time>2026-08-05T09:28:17Z</time>
      </trkpt>
			<trkpt lat="45.07652" lon="6.15825">
        <ele>1394.9</ele>
        <time>2026-08-05T09:28:19Z</time>
      </trkpt>
			<trkpt lat="45.07659" lon="6.1582">
        <ele>1395.1</ele>
        <time>2026-08-05T09:28:21Z</time>
      </trkpt>
			<trkpt lat="45.0767" lon="6.15809">
        <ele>1395.5</ele>
        <time>2026-08-05T09:28:24Z</time>
      </trkpt>
			<trkpt lat="45.0768" lon="6.158">
        <ele>1395.9</ele>
        <time>2026-08-05T09:28:26Z</time>
      </trkpt>
			<trkpt lat="45.07687" lon="6.15795">
        <ele>1396.1</ele>
        <time>2026-08-05T09:28:28Z</time>
      </trkpt>
			<trkpt lat="45.07695" lon="6.15793">
        <ele>1396.3</ele>
        <time>2026-08-05T09:28:29Z</time>
      </trkpt>
			<trkpt lat="45.07707" lon="6.15792">
        <ele>1396.6</ele>
        <time>2026-08-05T09:28:32Z</time>
      </trkpt>
			<trkpt lat="45.07745" lon="6.15796">
        <ele>1397.5</ele>
        <time>2026-08-05T09:28:39Z</time>
      </trkpt>
			<trkpt lat="45.07782" lon="6.15801">
        <ele>1398.1</ele>
        <time>2026-08-05T09:28:45Z</time>
      </trkpt>
			<trkpt lat="45.07804" lon="6.158">
        <ele>1398.3</ele>
        <time>2026-08-05T09:28:49Z</time>
      </trkpt>
			<trkpt lat="45.07817" lon="6.15804">
        <ele>1398.4</ele>
        <time>2026-08-05T09:28:51Z</time>
      </trkpt>
			<trkpt lat="45.07833" lon="6.15813">
        <ele>1398.5</ele>
        <time>2026-08-05T09:28:54Z</time>
      </trkpt>
			<trkpt lat="45.0786" lon="6.15832">
        <ele>1398.5</ele>
        <time>2026-08-05T09:28:59Z</time>
      </trkpt>
			<trkpt lat="45.07886" lon="6.15852">
        <ele>1398.3</ele>
        <time>2026-08-05T09:29:02Z</time>
      </trkpt>
			<trkpt lat="45.07911" lon="6.15872">
        <ele>1398.1</ele>
        <time>2026-08-05T09:29:05Z</time>
      </trkpt>
			<trkpt lat="45.07923" lon="6.15878">
        <ele>1397.9</ele>
        <time>2026-08-05T09:29:06Z</time>
      </trkpt>
			<trkpt lat="45.07953" lon="6.15887">
        <ele>1397.6</ele>
        <time>2026-08-05T09:29:09Z</time>
      </trkpt>
			<trkpt lat="45.07971" lon="6.15898">
        <ele>1397.3</ele>
        <time>2026-08-05T09:29:11Z</time>
      </trkpt>
			<trkpt lat="45.07977" lon="6.15903">
        <ele>1397.2</ele>
        <time>2026-08-05T09:29:11Z</time>
      </trkpt>
			<trkpt lat="45.08013" lon="6.15938">
        <ele>1396.7</ele>
        <time>2026-08-05T09:29:16Z</time>
      </trkpt>
			<trkpt lat="45.08045" lon="6.15965">
        <ele>1396.3</ele>
        <time>2026-08-05T09:29:19Z</time>
      </trkpt>
			<trkpt lat="45.08058" lon="6.15978">
        <ele>1396.2</ele>
        <time>2026-08-05T09:29:21Z</time>
      </trkpt>
			<trkpt lat="45.08072" lon="6.15993">
        <ele>1396.2</ele>
        <time>2026-08-05T09:29:24Z</time>
      </trkpt>
			<trkpt lat="45.08096" lon="6.1602">
        <ele>1396.2</ele>
        <time>2026-08-05T09:29:28Z</time>
      </trkpt>
			<trkpt lat="45.08119" lon="6.16048">
        <ele>1396.5</ele>
        <time>2026-08-05T09:29:33Z</time>
      </trkpt>
			<trkpt lat="45.08142" lon="6.16072">
        <ele>1397</ele>
        <time>2026-08-05T09:29:39Z</time>
      </trkpt>
			<trkpt lat="45.08154" lon="6.16083">
        <ele>1397.3</ele>
        <time>2026-08-05T09:29:42Z</time>
      </trkpt>
			<trkpt lat="45.08181" lon="6.16103">
        <ele>1398.2</ele>
        <time>2026-08-05T09:29:48Z</time>
      </trkpt>
			<trkpt lat="45.08208" lon="6.16124">
        <ele>1399.3</ele>
        <time>2026-08-05T09:29:55Z</time>
      </trkpt>
			<trkpt lat="45.08223" lon="6.16136">
        <ele>1400</ele>
        <time>2026-08-05T09:29:59Z</time>
      </trkpt>
			<trkpt lat="45.08241" lon="6.16147">
        <ele>1400.8</ele>
        <time>2026-08-05T09:30:04Z</time>
      </trkpt>
			<trkpt lat="45.08242" lon="6.16141">
        <ele>1401</ele>
        <time>2026-08-05T09:30:05Z</time>
      </trkpt>
			<trkpt lat="45.08241" lon="6.16138">
        <ele>1401.2</ele>
        <time>2026-08-05T09:30:06Z</time>
      </trkpt>
			<trkpt lat="45.0824" lon="6.16134">
        <ele>1401.3</ele>
        <time>2026-08-05T09:30:07Z</time>
      </trkpt>
			<trkpt lat="45.08235" lon="6.16127">
        <ele>1401.6</ele>
        <time>2026-08-05T09:30:09Z</time>
      </trkpt>
			<trkpt lat="45.082" lon="6.16097">
        <ele>1403.6</ele>
        <time>2026-08-05T09:30:19Z</time>
      </trkpt>
			<trkpt lat="45.0819" lon="6.16087">
        <ele>1404.3</ele>
        <time>2026-08-05T09:30:23Z</time>
      </trkpt>
			<trkpt lat="45.08176" lon="6.16067">
        <ele>1405.3</ele>
        <time>2026-08-05T09:30:28Z</time>
      </trkpt>
			<trkpt lat="45.08165" lon="6.16047">
        <ele>1406.3</ele>
        <time>2026-08-05T09:30:33Z</time>
      </trkpt>
			<trkpt lat="45.0816" lon="6.16033">
        <ele>1406.8</ele>
        <time>2026-08-05T09:30:36Z</time>
      </trkpt>
			<trkpt lat="45.08149" lon="6.15996">
        <ele>1408.4</ele>
        <time>2026-08-05T09:30:44Z</time>
      </trkpt>
			<trkpt lat="45.08142" lon="6.1598">
        <ele>1409</ele>
        <time>2026-08-05T09:30:48Z</time>
      </trkpt>
			<trkpt lat="45.08139" lon="6.15973">
        <ele>1409.4</ele>
        <time>2026-08-05T09:30:49Z</time>
      </trkpt>
			<trkpt lat="45.08125" lon="6.15956">
        <ele>1410.3</ele>
        <time>2026-08-05T09:30:54Z</time>
      </trkpt>
			<trkpt lat="45.08125" lon="6.15952">
        <ele>1410.5</ele>
        <time>2026-08-05T09:30:55Z</time>
      </trkpt>
			<trkpt lat="45.08126" lon="6.15948">
        <ele>1410.7</ele>
        <time>2026-08-05T09:30:56Z</time>
      </trkpt>
			<trkpt lat="45.08127" lon="6.15946">
        <ele>1410.8</ele>
        <time>2026-08-05T09:30:56Z</time>
      </trkpt>
			<trkpt lat="45.0813" lon="6.15945">
        <ele>1410.9</ele>
        <time>2026-08-05T09:30:57Z</time>
      </trkpt>
			<trkpt lat="45.08134" lon="6.15946">
        <ele>1411.2</ele>
        <time>2026-08-05T09:30:58Z</time>
      </trkpt>
			<trkpt lat="45.08137" lon="6.15948">
        <ele>1411.3</ele>
        <time>2026-08-05T09:30:59Z</time>
      </trkpt>
			<trkpt lat="45.08142" lon="6.15954">
        <ele>1411.7</ele>
        <time>2026-08-05T09:31:01Z</time>
      </trkpt>
			<trkpt lat="45.08164" lon="6.15993">
        <ele>1413.6</ele>
        <time>2026-08-05T09:31:11Z</time>
      </trkpt>
			<trkpt lat="45.08168" lon="6.15999">
        <ele>1413.9</ele>
        <time>2026-08-05T09:31:13Z</time>
      </trkpt>
			<trkpt lat="45.08177" lon="6.16009">
        <ele>1414.5</ele>
        <time>2026-08-05T09:31:16Z</time>
      </trkpt>
			<trkpt lat="45.08185" lon="6.16015">
        <ele>1415.1</ele>
        <time>2026-08-05T09:31:19Z</time>
      </trkpt>
			<trkpt lat="45.08204" lon="6.16027">
        <ele>1416.3</ele>
        <time>2026-08-05T09:31:25Z</time>
      </trkpt>
			<trkpt lat="45.08217" lon="6.16031">
        <ele>1417.1</ele>
        <time>2026-08-05T09:31:28Z</time>
      </trkpt>
			<trkpt lat="45.08236" lon="6.16033">
        <ele>1418.3</ele>
        <time>2026-08-05T09:31:34Z</time>
      </trkpt>
			<trkpt lat="45.08263" lon="6.16032">
        <ele>1420.1</ele>
        <time>2026-08-05T09:31:43Z</time>
      </trkpt>
			<trkpt lat="45.08271" lon="6.16033">
        <ele>1420.7</ele>
        <time>2026-08-05T09:31:45Z</time>
      </trkpt>
			<trkpt lat="45.08277" lon="6.16034">
        <ele>1421.1</ele>
        <time>2026-08-05T09:31:47Z</time>
      </trkpt>
			<trkpt lat="45.08289" lon="6.16039">
        <ele>1422.1</ele>
        <time>2026-08-05T09:31:51Z</time>
      </trkpt>
			<trkpt lat="45.08304" lon="6.1605">
        <ele>1423.4</ele>
        <time>2026-08-05T09:31:57Z</time>
      </trkpt>
			<trkpt lat="45.08322" lon="6.16064">
        <ele>1425.1</ele>
        <time>2026-08-05T09:32:04Z</time>
      </trkpt>
			<trkpt lat="45.08351" lon="6.16095">
        <ele>1428.6</ele>
        <time>2026-08-05T09:32:20Z</time>
      </trkpt>
			<trkpt lat="45.08358" lon="6.16102">
        <ele>1429.4</ele>
        <time>2026-08-05T09:32:23Z</time>
      </trkpt>
			<trkpt lat="45.08374" lon="6.16116">
        <ele>1431.4</ele>
        <time>2026-08-05T09:32:33Z</time>
      </trkpt>
			<trkpt lat="45.08388" lon="6.16123">
        <ele>1433.1</ele>
        <time>2026-08-05T09:32:40Z</time>
      </trkpt>
			<trkpt lat="45.08412" lon="6.1613">
        <ele>1436</ele>
        <time>2026-08-05T09:32:53Z</time>
      </trkpt>
			<trkpt lat="45.08425" lon="6.16131">
        <ele>1437.5</ele>
        <time>2026-08-05T09:32:59Z</time>
      </trkpt>
			<trkpt lat="45.08436" lon="6.16132">
        <ele>1439</ele>
        <time>2026-08-05T09:33:05Z</time>
      </trkpt>
			<trkpt lat="45.08457" lon="6.16129">
        <ele>1441.6</ele>
        <time>2026-08-05T09:33:16Z</time>
      </trkpt>
			<trkpt lat="45.08499" lon="6.16121">
        <ele>1446.9</ele>
        <time>2026-08-05T09:33:37Z</time>
      </trkpt>
			<trkpt lat="45.0854" lon="6.16112">
        <ele>1451.9</ele>
        <time>2026-08-05T09:33:58Z</time>
      </trkpt>
			<trkpt lat="45.08554" lon="6.16111">
        <ele>1453.6</ele>
        <time>2026-08-05T09:34:05Z</time>
      </trkpt>
			<trkpt lat="45.08573" lon="6.16115">
        <ele>1455.6</ele>
        <time>2026-08-05T09:34:13Z</time>
      </trkpt>
			<trkpt lat="45.08597" lon="6.16122">
        <ele>1458.2</ele>
        <time>2026-08-05T09:34:26Z</time>
      </trkpt>
			<trkpt lat="45.08612" lon="6.16132">
        <ele>1459.7</ele>
        <time>2026-08-05T09:34:32Z</time>
      </trkpt>
			<trkpt lat="45.08621" lon="6.1614">
        <ele>1460.7</ele>
        <time>2026-08-05T09:34:37Z</time>
      </trkpt>
			<trkpt lat="45.08628" lon="6.16143">
        <ele>1461.3</ele>
        <time>2026-08-05T09:34:39Z</time>
      </trkpt>
			<trkpt lat="45.0864" lon="6.1614">
        <ele>1462.4</ele>
        <time>2026-08-05T09:34:44Z</time>
      </trkpt>
			<trkpt lat="45.08661" lon="6.16124">
        <ele>1464.3</ele>
        <time>2026-08-05T09:34:52Z</time>
      </trkpt>
			<trkpt lat="45.08664" lon="6.16122">
        <ele>1464.6</ele>
        <time>2026-08-05T09:34:53Z</time>
      </trkpt>
			<trkpt lat="45.08668" lon="6.16121">
        <ele>1464.9</ele>
        <time>2026-08-05T09:34:55Z</time>
      </trkpt>
			<trkpt lat="45.08681" lon="6.16121">
        <ele>1465.9</ele>
        <time>2026-08-05T09:34:59Z</time>
      </trkpt>
			<trkpt lat="45.08698" lon="6.16123">
        <ele>1467.2</ele>
        <time>2026-08-05T09:35:05Z</time>
      </trkpt>
			<trkpt lat="45.08726" lon="6.16134">
        <ele>1469.3</ele>
        <time>2026-08-05T09:35:13Z</time>
      </trkpt>
			<trkpt lat="45.0873" lon="6.16135">
        <ele>1469.6</ele>
        <time>2026-08-05T09:35:15Z</time>
      </trkpt>
			<trkpt lat="45.0874" lon="6.16134">
        <ele>1470.3</ele>
        <time>2026-08-05T09:35:18Z</time>
      </trkpt>
			<trkpt lat="45.08745" lon="6.16135">
        <ele>1470.7</ele>
        <time>2026-08-05T09:35:20Z</time>
      </trkpt>
			<trkpt lat="45.08764" lon="6.16146">
        <ele>1472.2</ele>
        <time>2026-08-05T09:35:26Z</time>
      </trkpt>
			<trkpt lat="45.08784" lon="6.16153">
        <ele>1473.7</ele>
        <time>2026-08-05T09:35:33Z</time>
      </trkpt>
			<trkpt lat="45.08803" lon="6.16167">
        <ele>1475.3</ele>
        <time>2026-08-05T09:35:40Z</time>
      </trkpt>
			<trkpt lat="45.08819" lon="6.16182">
        <ele>1476.8</ele>
        <time>2026-08-05T09:35:47Z</time>
      </trkpt>
			<trkpt lat="45.08853" lon="6.16216">
        <ele>1480.1</ele>
        <time>2026-08-05T09:36:01Z</time>
      </trkpt>
			<trkpt lat="45.08861" lon="6.16226">
        <ele>1481</ele>
        <time>2026-08-05T09:36:05Z</time>
      </trkpt>
			<trkpt lat="45.08878" lon="6.16254">
        <ele>1483.2</ele>
        <time>2026-08-05T09:36:15Z</time>
      </trkpt>
			<trkpt lat="45.08887" lon="6.16265">
        <ele>1484.3</ele>
        <time>2026-08-05T09:36:20Z</time>
      </trkpt>
			<trkpt lat="45.08911" lon="6.16282">
        <ele>1486.5</ele>
        <time>2026-08-05T09:36:29Z</time>
      </trkpt>
			<trkpt lat="45.08925" lon="6.16294">
        <ele>1487.9</ele>
        <time>2026-08-05T09:36:36Z</time>
      </trkpt>
			<trkpt lat="45.08946" lon="6.16318">
        <ele>1490.1</ele>
        <time>2026-08-05T09:36:45Z</time>
      </trkpt>
			<trkpt lat="45.08952" lon="6.16324">
        <ele>1490.7</ele>
        <time>2026-08-05T09:36:47Z</time>
      </trkpt>
			<trkpt lat="45.08957" lon="6.16327">
        <ele>1491.1</ele>
        <time>2026-08-05T09:36:49Z</time>
      </trkpt>
			<trkpt lat="45.08967" lon="6.16331">
        <ele>1491.9</ele>
        <time>2026-08-05T09:36:52Z</time>
      </trkpt>
			<trkpt lat="45.08985" lon="6.16336">
        <ele>1493.3</ele>
        <time>2026-08-05T09:36:59Z</time>
      </trkpt>
			<trkpt lat="45.08992" lon="6.16341">
        <ele>1493.9</ele>
        <time>2026-08-05T09:37:01Z</time>
      </trkpt>
			<trkpt lat="45.0901" lon="6.16365">
        <ele>1495.8</ele>
        <time>2026-08-05T09:37:09Z</time>
      </trkpt>
			<trkpt lat="45.09016" lon="6.16369">
        <ele>1496.3</ele>
        <time>2026-08-05T09:37:12Z</time>
      </trkpt>
			<trkpt lat="45.09021" lon="6.1637">
        <ele>1496.7</ele>
        <time>2026-08-05T09:37:13Z</time>
      </trkpt>
			<trkpt lat="45.09025" lon="6.16368">
        <ele>1497</ele>
        <time>2026-08-05T09:37:15Z</time>
      </trkpt>
			<trkpt lat="45.09029" lon="6.16365">
        <ele>1497.3</ele>
        <time>2026-08-05T09:37:16Z</time>
      </trkpt>
			<trkpt lat="45.09051" lon="6.16335">
        <ele>1499.5</ele>
        <time>2026-08-05T09:37:25Z</time>
      </trkpt>
			<trkpt lat="45.09056" lon="6.16329">
        <ele>1500</ele>
        <time>2026-08-05T09:37:28Z</time>
      </trkpt>
			<trkpt lat="45.09059" lon="6.16327">
        <ele>1500.3</ele>
        <time>2026-08-05T09:37:29Z</time>
      </trkpt>
			<trkpt lat="45.09063" lon="6.16326">
        <ele>1500.5</ele>
        <time>2026-08-05T09:37:30Z</time>
      </trkpt>
			<trkpt lat="45.09068" lon="6.16325">
        <ele>1500.9</ele>
        <time>2026-08-05T09:37:32Z</time>
      </trkpt>
			<trkpt lat="45.09072" lon="6.16326">
        <ele>1501.2</ele>
        <time>2026-08-05T09:37:33Z</time>
      </trkpt>
			<trkpt lat="45.09076" lon="6.16328">
        <ele>1501.5</ele>
        <time>2026-08-05T09:37:34Z</time>
      </trkpt>
			<trkpt lat="45.09086" lon="6.16334">
        <ele>1502.3</ele>
        <time>2026-08-05T09:37:38Z</time>
      </trkpt>
			<trkpt lat="45.09101" lon="6.16346">
        <ele>1503.5</ele>
        <time>2026-08-05T09:37:43Z</time>
      </trkpt>
			<trkpt lat="45.09107" lon="6.1635">
        <ele>1504.1</ele>
        <time>2026-08-05T09:37:46Z</time>
      </trkpt>
			<trkpt lat="45.09137" lon="6.16365">
        <ele>1506.4</ele>
        <time>2026-08-05T09:37:57Z</time>
      </trkpt>
			<trkpt lat="45.09144" lon="6.1637">
        <ele>1507</ele>
        <time>2026-08-05T09:37:59Z</time>
      </trkpt>
			<trkpt lat="45.09172" lon="6.16392">
        <ele>1509.5</ele>
        <time>2026-08-05T09:38:10Z</time>
      </trkpt>
			<trkpt lat="45.0919" lon="6.16411">
        <ele>1511.3</ele>
        <time>2026-08-05T09:38:17Z</time>
      </trkpt>
			<trkpt lat="45.09194" lon="6.16414">
        <ele>1511.6</ele>
        <time>2026-08-05T09:38:19Z</time>
      </trkpt>
			<trkpt lat="45.09201" lon="6.16417">
        <ele>1512.2</ele>
        <time>2026-08-05T09:38:21Z</time>
      </trkpt>
			<trkpt lat="45.09216" lon="6.16419">
        <ele>1513.5</ele>
        <time>2026-08-05T09:38:27Z</time>
      </trkpt>
			<trkpt lat="45.09218" lon="6.16417">
        <ele>1513.8</ele>
        <time>2026-08-05T09:38:28Z</time>
      </trkpt>
			<trkpt lat="45.09222" lon="6.16414">
        <ele>1514.2</ele>
        <time>2026-08-05T09:38:30Z</time>
      </trkpt>
			<trkpt lat="45.0923" lon="6.16376">
        <ele>1516.6</ele>
        <time>2026-08-05T09:38:41Z</time>
      </trkpt>
			<trkpt lat="45.09233" lon="6.16342">
        <ele>1518.9</ele>
        <time>2026-08-05T09:38:52Z</time>
      </trkpt>
			<trkpt lat="45.09232" lon="6.16305">
        <ele>1521.4</ele>
        <time>2026-08-05T09:39:04Z</time>
      </trkpt>
			<trkpt lat="45.09232" lon="6.163">
        <ele>1521.7</ele>
        <time>2026-08-05T09:39:05Z</time>
      </trkpt>
			<trkpt lat="45.09235" lon="6.16294">
        <ele>1522.3</ele>
        <time>2026-08-05T09:39:08Z</time>
      </trkpt>
			<trkpt lat="45.09239" lon="6.16291">
        <ele>1522.7</ele>
        <time>2026-08-05T09:39:10Z</time>
      </trkpt>
			<trkpt lat="45.09242" lon="6.16291">
        <ele>1523</ele>
        <time>2026-08-05T09:39:11Z</time>
      </trkpt>
			<trkpt lat="45.09245" lon="6.16293">
        <ele>1523.4</ele>
        <time>2026-08-05T09:39:13Z</time>
      </trkpt>
			<trkpt lat="45.09264" lon="6.16313">
        <ele>1525.8</ele>
        <time>2026-08-05T09:39:23Z</time>
      </trkpt>
			<trkpt lat="45.09287" lon="6.1633">
        <ele>1528.6</ele>
        <time>2026-08-05T09:39:36Z</time>
      </trkpt>
			<trkpt lat="45.09317" lon="6.16335">
        <ele>1531.8</ele>
        <time>2026-08-05T09:39:51Z</time>
      </trkpt>
			<trkpt lat="45.09347" lon="6.1634">
        <ele>1535.3</ele>
        <time>2026-08-05T09:40:06Z</time>
      </trkpt>
			<trkpt lat="45.09385" lon="6.16353">
        <ele>1539.7</ele>
        <time>2026-08-05T09:40:26Z</time>
      </trkpt>
			<trkpt lat="45.09393" lon="6.16354">
        <ele>1540.5</ele>
        <time>2026-08-05T09:40:29Z</time>
      </trkpt>
			<trkpt lat="45.09399" lon="6.16351">
        <ele>1541.3</ele>
        <time>2026-08-05T09:40:33Z</time>
      </trkpt>
			<trkpt lat="45.09421" lon="6.16327">
        <ele>1544.2</ele>
        <time>2026-08-05T09:40:45Z</time>
      </trkpt>
			<trkpt lat="45.0943" lon="6.16319">
        <ele>1545.4</ele>
        <time>2026-08-05T09:40:50Z</time>
      </trkpt>
			<trkpt lat="45.09442" lon="6.16312">
        <ele>1546.8</ele>
        <time>2026-08-05T09:40:57Z</time>
      </trkpt>
			<trkpt lat="45.09454" lon="6.1631">
        <ele>1547.9</ele>
        <time>2026-08-05T09:41:02Z</time>
      </trkpt>
			<trkpt lat="45.09461" lon="6.1631">
        <ele>1548.6</ele>
        <time>2026-08-05T09:41:05Z</time>
      </trkpt>
			<trkpt lat="45.09488" lon="6.16315">
        <ele>1551.2</ele>
        <time>2026-08-05T09:41:17Z</time>
      </trkpt>
			<trkpt lat="45.09514" lon="6.1632">
        <ele>1553.4</ele>
        <time>2026-08-05T09:41:27Z</time>
      </trkpt>
			<trkpt lat="45.09544" lon="6.16324">
        <ele>1555.8</ele>
        <time>2026-08-05T09:41:37Z</time>
      </trkpt>
			<trkpt lat="45.0956" lon="6.16324">
        <ele>1557</ele>
        <time>2026-08-05T09:41:43Z</time>
      </trkpt>
			<trkpt lat="45.09576" lon="6.16327">
        <ele>1558.2</ele>
        <time>2026-08-05T09:41:48Z</time>
      </trkpt>
			<trkpt lat="45.09581" lon="6.16329">
        <ele>1558.5</ele>
        <time>2026-08-05T09:41:50Z</time>
      </trkpt>
			<trkpt lat="45.09611" lon="6.1635">
        <ele>1560.7</ele>
        <time>2026-08-05T09:42:00Z</time>
      </trkpt>
			<trkpt lat="45.09618" lon="6.16355">
        <ele>1561.2</ele>
        <time>2026-08-05T09:42:02Z</time>
      </trkpt>
			<trkpt lat="45.09638" lon="6.16372">
        <ele>1562.6</ele>
        <time>2026-08-05T09:42:09Z</time>
      </trkpt>
			<trkpt lat="45.09646" lon="6.16382">
        <ele>1563.2</ele>
        <time>2026-08-05T09:42:12Z</time>
      </trkpt>
			<trkpt lat="45.09653" lon="6.16398">
        <ele>1564</ele>
        <time>2026-08-05T09:42:16Z</time>
      </trkpt>
			<trkpt lat="45.09656" lon="6.16402">
        <ele>1564.2</ele>
        <time>2026-08-05T09:42:17Z</time>
      </trkpt>
			<trkpt lat="45.09662" lon="6.16406">
        <ele>1564.6</ele>
        <time>2026-08-05T09:42:19Z</time>
      </trkpt>
			<trkpt lat="45.09668" lon="6.16405">
        <ele>1565</ele>
        <time>2026-08-05T09:42:21Z</time>
      </trkpt>
			<trkpt lat="45.09672" lon="6.16403">
        <ele>1565.2</ele>
        <time>2026-08-05T09:42:22Z</time>
      </trkpt>
			<trkpt lat="45.09706" lon="6.16381">
        <ele>1567.4</ele>
        <time>2026-08-05T09:42:32Z</time>
      </trkpt>
			<trkpt lat="45.09715" lon="6.16377">
        <ele>1567.9</ele>
        <time>2026-08-05T09:42:35Z</time>
      </trkpt>
			<trkpt lat="45.09722" lon="6.16376">
        <ele>1568.3</ele>
        <time>2026-08-05T09:42:37Z</time>
      </trkpt>
			<trkpt lat="45.09726" lon="6.16378">
        <ele>1568.6</ele>
        <time>2026-08-05T09:42:38Z</time>
      </trkpt>
			<trkpt lat="45.09732" lon="6.16384">
        <ele>1569</ele>
        <time>2026-08-05T09:42:41Z</time>
      </trkpt>
			<trkpt lat="45.09739" lon="6.16393">
        <ele>1569.6</ele>
        <time>2026-08-05T09:42:43Z</time>
      </trkpt>
			<trkpt lat="45.09755" lon="6.16425">
        <ele>1571.3</ele>
        <time>2026-08-05T09:42:52Z</time>
      </trkpt>
			<trkpt lat="45.0976" lon="6.16431">
        <ele>1571.7</ele>
        <time>2026-08-05T09:42:54Z</time>
      </trkpt>
			<trkpt lat="45.09762" lon="6.16431">
        <ele>1571.8</ele>
        <time>2026-08-05T09:42:54Z</time>
      </trkpt>
			<trkpt lat="45.09764" lon="6.1643">
        <ele>1571.9</ele>
        <time>2026-08-05T09:42:55Z</time>
      </trkpt>
			<trkpt lat="45.09766" lon="6.16428">
        <ele>1572.1</ele>
        <time>2026-08-05T09:42:56Z</time>
      </trkpt>
			<trkpt lat="45.09766" lon="6.16422">
        <ele>1572.4</ele>
        <time>2026-08-05T09:42:57Z</time>
      </trkpt>
			<trkpt lat="45.09765" lon="6.16418">
        <ele>1572.6</ele>
        <time>2026-08-05T09:42:58Z</time>
      </trkpt>
			<trkpt lat="45.09759" lon="6.1641">
        <ele>1573.1</ele>
        <time>2026-08-05T09:43:00Z</time>
      </trkpt>
			<trkpt lat="45.09757" lon="6.16403">
        <ele>1573.4</ele>
        <time>2026-08-05T09:43:02Z</time>
      </trkpt>
			<trkpt lat="45.09743" lon="6.16353">
        <ele>1576</ele>
        <time>2026-08-05T09:43:13Z</time>
      </trkpt>
			<trkpt lat="45.09733" lon="6.16324">
        <ele>1577.6</ele>
        <time>2026-08-05T09:43:20Z</time>
      </trkpt>
			<trkpt lat="45.09717" lon="6.16288">
        <ele>1579.9</ele>
        <time>2026-08-05T09:43:30Z</time>
      </trkpt>
			<trkpt lat="45.09711" lon="6.16278">
        <ele>1580.6</ele>
        <time>2026-08-05T09:43:34Z</time>
      </trkpt>
			<trkpt lat="45.09694" lon="6.16255">
        <ele>1582.5</ele>
        <time>2026-08-05T09:43:41Z</time>
      </trkpt>
			<trkpt lat="45.09693" lon="6.16252">
        <ele>1582.8</ele>
        <time>2026-08-05T09:43:43Z</time>
      </trkpt>
			<trkpt lat="45.09693" lon="6.16249">
        <ele>1582.9</ele>
        <time>2026-08-05T09:43:43Z</time>
      </trkpt>
			<trkpt lat="45.09694" lon="6.16247">
        <ele>1583.1</ele>
        <time>2026-08-05T09:43:44Z</time>
      </trkpt>
			<trkpt lat="45.09695" lon="6.16245">
        <ele>1583.2</ele>
        <time>2026-08-05T09:43:45Z</time>
      </trkpt>
			<trkpt lat="45.097" lon="6.16244">
        <ele>1583.7</ele>
        <time>2026-08-05T09:43:47Z</time>
      </trkpt>
			<trkpt lat="45.09704" lon="6.16246">
        <ele>1584</ele>
        <time>2026-08-05T09:43:48Z</time>
      </trkpt>
			<trkpt lat="45.09733" lon="6.16285">
        <ele>1587.9</ele>
        <time>2026-08-05T09:44:06Z</time>
      </trkpt>
			<trkpt lat="45.09753" lon="6.16315">
        <ele>1590.8</ele>
        <time>2026-08-05T09:44:19Z</time>
      </trkpt>
			<trkpt lat="45.0976" lon="6.16324">
        <ele>1591.9</ele>
        <time>2026-08-05T09:44:24Z</time>
      </trkpt>
			<trkpt lat="45.09794" lon="6.16358">
        <ele>1596.6</ele>
        <time>2026-08-05T09:44:45Z</time>
      </trkpt>
			<trkpt lat="45.09816" lon="6.16386">
        <ele>1600</ele>
        <time>2026-08-05T09:44:59Z</time>
      </trkpt>
			<trkpt lat="45.09843" lon="6.16412">
        <ele>1603.5</ele>
        <time>2026-08-05T09:45:16Z</time>
      </trkpt>
			<trkpt lat="45.09863" lon="6.16429">
        <ele>1605.9</ele>
        <time>2026-08-05T09:45:26Z</time>
      </trkpt>
			<trkpt lat="45.09883" lon="6.16446">
        <ele>1608.1</ele>
        <time>2026-08-05T09:45:35Z</time>
      </trkpt>
			<trkpt lat="45.09917" lon="6.16469">
        <ele>1611</ele>
        <time>2026-08-05T09:45:48Z</time>
      </trkpt>
			<trkpt lat="45.09925" lon="6.16473">
        <ele>1611.6</ele>
        <time>2026-08-05T09:45:51Z</time>
      </trkpt>
			<trkpt lat="45.09931" lon="6.16476">
        <ele>1612</ele>
        <time>2026-08-05T09:45:52Z</time>
      </trkpt>
			<trkpt lat="45.09949" lon="6.16477">
        <ele>1613.1</ele>
        <time>2026-08-05T09:45:58Z</time>
      </trkpt>
			<trkpt lat="45.09966" lon="6.16473">
        <ele>1614</ele>
        <time>2026-08-05T09:46:03Z</time>
      </trkpt>
			<trkpt lat="45.09978" lon="6.16471">
        <ele>1614.5</ele>
        <time>2026-08-05T09:46:06Z</time>
      </trkpt>
			<trkpt lat="45.10003" lon="6.16471">
        <ele>1615.6</ele>
        <time>2026-08-05T09:46:12Z</time>
      </trkpt>
			<trkpt lat="45.10009" lon="6.16467">
        <ele>1615.8</ele>
        <time>2026-08-05T09:46:13Z</time>
      </trkpt>
			<trkpt lat="45.1001" lon="6.16463">
        <ele>1615.9</ele>
        <time>2026-08-05T09:46:14Z</time>
      </trkpt>
			<trkpt lat="45.10008" lon="6.16458">
        <ele>1616.1</ele>
        <time>2026-08-05T09:46:15Z</time>
      </trkpt>
			<trkpt lat="45.10006" lon="6.16455">
        <ele>1616.2</ele>
        <time>2026-08-05T09:46:16Z</time>
      </trkpt>
			<trkpt lat="45.09996" lon="6.16451">
        <ele>1616.5</ele>
        <time>2026-08-05T09:46:18Z</time>
      </trkpt>
			<trkpt lat="45.09976" lon="6.16448">
        <ele>1617.2</ele>
        <time>2026-08-05T09:46:22Z</time>
      </trkpt>
			<trkpt lat="45.09956" lon="6.16449">
        <ele>1617.9</ele>
        <time>2026-08-05T09:46:27Z</time>
      </trkpt>
			<trkpt lat="45.09943" lon="6.16446">
        <ele>1618.3</ele>
        <time>2026-08-05T09:46:30Z</time>
      </trkpt>
			<trkpt lat="45.09929" lon="6.16438">
        <ele>1618.8</ele>
        <time>2026-08-05T09:46:33Z</time>
      </trkpt>
			<trkpt lat="45.09915" lon="6.16428">
        <ele>1619.4</ele>
        <time>2026-08-05T09:46:37Z</time>
      </trkpt>
			<trkpt lat="45.09908" lon="6.1642">
        <ele>1619.8</ele>
        <time>2026-08-05T09:46:39Z</time>
      </trkpt>
			<trkpt lat="45.09902" lon="6.16408">
        <ele>1620.2</ele>
        <time>2026-08-05T09:46:41Z</time>
      </trkpt>
			<trkpt lat="45.099" lon="6.16395">
        <ele>1620.6</ele>
        <time>2026-08-05T09:46:44Z</time>
      </trkpt>
			<trkpt lat="45.099" lon="6.16372">
        <ele>1621.5</ele>
        <time>2026-08-05T09:46:48Z</time>
      </trkpt>
			<trkpt lat="45.09899" lon="6.16363">
        <ele>1621.8</ele>
        <time>2026-08-05T09:46:50Z</time>
      </trkpt>
			<trkpt lat="45.09892" lon="6.16346">
        <ele>1622.6</ele>
        <time>2026-08-05T09:46:54Z</time>
      </trkpt>
			<trkpt lat="45.09879" lon="6.16328">
        <ele>1623.7</ele>
        <time>2026-08-05T09:46:59Z</time>
      </trkpt>
			<trkpt lat="45.09866" lon="6.16308">
        <ele>1625</ele>
        <time>2026-08-05T09:47:05Z</time>
      </trkpt>
			<trkpt lat="45.09851" lon="6.16281">
        <ele>1626.8</ele>
        <time>2026-08-05T09:47:13Z</time>
      </trkpt>
			<trkpt lat="45.09828" lon="6.16234">
        <ele>1630.3</ele>
        <time>2026-08-05T09:47:29Z</time>
      </trkpt>
			<trkpt lat="45.09823" lon="6.16219">
        <ele>1631.4</ele>
        <time>2026-08-05T09:47:34Z</time>
      </trkpt>
			<trkpt lat="45.09818" lon="6.16201">
        <ele>1632.7</ele>
        <time>2026-08-05T09:47:40Z</time>
      </trkpt>
			<trkpt lat="45.09811" lon="6.16158">
        <ele>1635.8</ele>
        <time>2026-08-05T09:47:54Z</time>
      </trkpt>
			<trkpt lat="45.09803" lon="6.16134">
        <ele>1637.8</ele>
        <time>2026-08-05T09:48:03Z</time>
      </trkpt>
			<trkpt lat="45.09802" lon="6.16128">
        <ele>1638.3</ele>
        <time>2026-08-05T09:48:05Z</time>
      </trkpt>
			<trkpt lat="45.09804" lon="6.16121">
        <ele>1638.9</ele>
        <time>2026-08-05T09:48:08Z</time>
      </trkpt>
			<trkpt lat="45.09806" lon="6.16117">
        <ele>1639.3</ele>
        <time>2026-08-05T09:48:10Z</time>
      </trkpt>
			<trkpt lat="45.09811" lon="6.16115">
        <ele>1639.9</ele>
        <time>2026-08-05T09:48:12Z</time>
      </trkpt>
			<trkpt lat="45.09815" lon="6.16116">
        <ele>1640.3</ele>
        <time>2026-08-05T09:48:14Z</time>
      </trkpt>
			<trkpt lat="45.09819" lon="6.16119">
        <ele>1640.8</ele>
        <time>2026-08-05T09:48:16Z</time>
      </trkpt>
			<trkpt lat="45.09822" lon="6.16127">
        <ele>1641.5</ele>
        <time>2026-08-05T09:48:20Z</time>
      </trkpt>
			<trkpt lat="45.09828" lon="6.16167">
        <ele>1644.8</ele>
        <time>2026-08-05T09:48:34Z</time>
      </trkpt>
			<trkpt lat="45.09833" lon="6.16181">
        <ele>1646.2</ele>
        <time>2026-08-05T09:48:40Z</time>
      </trkpt>
			<trkpt lat="45.09838" lon="6.16189">
        <ele>1647.1</ele>
        <time>2026-08-05T09:48:43Z</time>
      </trkpt>
			<trkpt lat="45.09853" lon="6.16205">
        <ele>1649.3</ele>
        <time>2026-08-05T09:48:53Z</time>
      </trkpt>
			<trkpt lat="45.09867" lon="6.16215">
        <ele>1651.2</ele>
        <time>2026-08-05T09:49:01Z</time>
      </trkpt>
			<trkpt lat="45.09877" lon="6.16219">
        <ele>1652.5</ele>
        <time>2026-08-05T09:49:06Z</time>
      </trkpt>
			<trkpt lat="45.09886" lon="6.1622">
        <ele>1653.7</ele>
        <time>2026-08-05T09:49:11Z</time>
      </trkpt>
			<trkpt lat="45.09901" lon="6.16219">
        <ele>1655.6</ele>
        <time>2026-08-05T09:49:18Z</time>
      </trkpt>
			<trkpt lat="45.09905" lon="6.16217">
        <ele>1656</ele>
        <time>2026-08-05T09:49:20Z</time>
      </trkpt>
			<trkpt lat="45.09942" lon="6.16193">
        <ele>1661.3</ele>
        <time>2026-08-05T09:49:43Z</time>
      </trkpt>
			<trkpt lat="45.09947" lon="6.1619">
        <ele>1662</ele>
        <time>2026-08-05T09:49:47Z</time>
      </trkpt>
			<trkpt lat="45.09957" lon="6.16189">
        <ele>1663.3</ele>
        <time>2026-08-05T09:49:52Z</time>
      </trkpt>
			<trkpt lat="45.0997" lon="6.16191">
        <ele>1664.9</ele>
        <time>2026-08-05T09:49:59Z</time>
      </trkpt>
			<trkpt lat="45.09976" lon="6.1619">
        <ele>1665.7</ele>
        <time>2026-08-05T09:50:02Z</time>
      </trkpt>
			<trkpt lat="45.09979" lon="6.16186">
        <ele>1666.3</ele>
        <time>2026-08-05T09:50:05Z</time>
      </trkpt>
			<trkpt lat="45.09981" lon="6.16182">
        <ele>1666.6</ele>
        <time>2026-08-05T09:50:06Z</time>
      </trkpt>
			<trkpt lat="45.09979" lon="6.16175">
        <ele>1667.3</ele>
        <time>2026-08-05T09:50:09Z</time>
      </trkpt>
			<trkpt lat="45.09977" lon="6.16172">
        <ele>1667.8</ele>
        <time>2026-08-05T09:50:12Z</time>
      </trkpt>
			<trkpt lat="45.09972" lon="6.16169">
        <ele>1668.5</ele>
        <time>2026-08-05T09:50:15Z</time>
      </trkpt>
			<trkpt lat="45.09963" lon="6.16167">
        <ele>1669.6</ele>
        <time>2026-08-05T09:50:19Z</time>
      </trkpt>
			<trkpt lat="45.09955" lon="6.16164">
        <ele>1670.6</ele>
        <time>2026-08-05T09:50:24Z</time>
      </trkpt>
			<trkpt lat="45.09943" lon="6.16153">
        <ele>1672.5</ele>
        <time>2026-08-05T09:50:32Z</time>
      </trkpt>
			<trkpt lat="45.09928" lon="6.16138">
        <ele>1674.7</ele>
        <time>2026-08-05T09:50:41Z</time>
      </trkpt>
			<trkpt lat="45.0992" lon="6.16129">
        <ele>1676.1</ele>
        <time>2026-08-05T09:50:47Z</time>
      </trkpt>
			<trkpt lat="45.09902" lon="6.16097">
        <ele>1679.6</ele>
        <time>2026-08-05T09:51:01Z</time>
      </trkpt>
			<trkpt lat="45.09897" lon="6.1609">
        <ele>1680.5</ele>
        <time>2026-08-05T09:51:05Z</time>
      </trkpt>
			<trkpt lat="45.09888" lon="6.16083">
        <ele>1681.7</ele>
        <time>2026-08-05T09:51:10Z</time>
      </trkpt>
			<trkpt lat="45.0987" lon="6.16075">
        <ele>1684</ele>
        <time>2026-08-05T09:51:20Z</time>
      </trkpt>
			<trkpt lat="45.09859" lon="6.16068">
        <ele>1685.4</ele>
        <time>2026-08-05T09:51:26Z</time>
      </trkpt>
			<trkpt lat="45.09854" lon="6.16062">
        <ele>1686.2</ele>
        <time>2026-08-05T09:51:29Z</time>
      </trkpt>
			<trkpt lat="45.09853" lon="6.16056">
        <ele>1686.8</ele>
        <time>2026-08-05T09:51:32Z</time>
      </trkpt>
			<trkpt lat="45.09855" lon="6.1605">
        <ele>1687.3</ele>
        <time>2026-08-05T09:51:34Z</time>
      </trkpt>
			<trkpt lat="45.09858" lon="6.16049">
        <ele>1687.6</ele>
        <time>2026-08-05T09:51:35Z</time>
      </trkpt>
			<trkpt lat="45.09861" lon="6.16049">
        <ele>1688</ele>
        <time>2026-08-05T09:51:37Z</time>
      </trkpt>
			<trkpt lat="45.09864" lon="6.16051">
        <ele>1688.3</ele>
        <time>2026-08-05T09:51:38Z</time>
      </trkpt>
			<trkpt lat="45.09873" lon="6.1606">
        <ele>1689.6</ele>
        <time>2026-08-05T09:51:44Z</time>
      </trkpt>
			<trkpt lat="45.09877" lon="6.16062">
        <ele>1690.1</ele>
        <time>2026-08-05T09:51:46Z</time>
      </trkpt>
			<trkpt lat="45.09882" lon="6.16062">
        <ele>1690.7</ele>
        <time>2026-08-05T09:51:49Z</time>
      </trkpt>
			<trkpt lat="45.09889" lon="6.1606">
        <ele>1691.6</ele>
        <time>2026-08-05T09:51:52Z</time>
      </trkpt>
			<trkpt lat="45.09909" lon="6.1605">
        <ele>1693.9</ele>
        <time>2026-08-05T09:52:03Z</time>
      </trkpt>
			<trkpt lat="45.09919" lon="6.16046">
        <ele>1695.1</ele>
        <time>2026-08-05T09:52:08Z</time>
      </trkpt>
			<trkpt lat="45.09929" lon="6.16044">
        <ele>1696.2</ele>
        <time>2026-08-05T09:52:13Z</time>
      </trkpt>
			<trkpt lat="45.0994" lon="6.16044">
        <ele>1697.4</ele>
        <time>2026-08-05T09:52:18Z</time>
      </trkpt>
			<trkpt lat="45.09947" lon="6.16046">
        <ele>1698.2</ele>
        <time>2026-08-05T09:52:22Z</time>
      </trkpt>
			<trkpt lat="45.09966" lon="6.16055">
        <ele>1700.3</ele>
        <time>2026-08-05T09:52:31Z</time>
      </trkpt>
			<trkpt lat="45.09987" lon="6.16067">
        <ele>1702.8</ele>
        <time>2026-08-05T09:52:42Z</time>
      </trkpt>
			<trkpt lat="45.09991" lon="6.16067">
        <ele>1703.2</ele>
        <time>2026-08-05T09:52:44Z</time>
      </trkpt>
			<trkpt lat="45.09993" lon="6.16066">
        <ele>1703.3</ele>
        <time>2026-08-05T09:52:45Z</time>
      </trkpt>
			<trkpt lat="45.09995" lon="6.16064">
        <ele>1703.6</ele>
        <time>2026-08-05T09:52:46Z</time>
      </trkpt>
			<trkpt lat="45.09995" lon="6.1606">
        <ele>1703.9</ele>
        <time>2026-08-05T09:52:47Z</time>
      </trkpt>
			<trkpt lat="45.09995" lon="6.16055">
        <ele>1704.3</ele>
        <time>2026-08-05T09:52:49Z</time>
      </trkpt>
			<trkpt lat="45.09992" lon="6.16052">
        <ele>1704.6</ele>
        <time>2026-08-05T09:52:50Z</time>
      </trkpt>
			<trkpt lat="45.09965" lon="6.16033">
        <ele>1707.7</ele>
        <time>2026-08-05T09:53:04Z</time>
      </trkpt>
			<trkpt lat="45.09952" lon="6.16018">
        <ele>1709.2</ele>
        <time>2026-08-05T09:53:10Z</time>
      </trkpt>
			<trkpt lat="45.09944" lon="6.16011">
        <ele>1710.1</ele>
        <time>2026-08-05T09:53:15Z</time>
      </trkpt>
			<trkpt lat="45.09928" lon="6.16006">
        <ele>1711.6</ele>
        <time>2026-08-05T09:53:21Z</time>
      </trkpt>
			<trkpt lat="45.09923" lon="6.16002">
        <ele>1712.2</ele>
        <time>2026-08-05T09:53:24Z</time>
      </trkpt>
			<trkpt lat="45.09921" lon="6.15997">
        <ele>1712.5</ele>
        <time>2026-08-05T09:53:25Z</time>
      </trkpt>
			<trkpt lat="45.09921" lon="6.1599">
        <ele>1713</ele>
        <time>2026-08-05T09:53:27Z</time>
      </trkpt>
			<trkpt lat="45.09922" lon="6.15986">
        <ele>1713.3</ele>
        <time>2026-08-05T09:53:29Z</time>
      </trkpt>
			<trkpt lat="45.09926" lon="6.15982">
        <ele>1713.7</ele>
        <time>2026-08-05T09:53:30Z</time>
      </trkpt>
			<trkpt lat="45.09933" lon="6.15983">
        <ele>1714.3</ele>
        <time>2026-08-05T09:53:33Z</time>
      </trkpt>
			<trkpt lat="45.0995" lon="6.15993">
        <ele>1716</ele>
        <time>2026-08-05T09:53:40Z</time>
      </trkpt>
			<trkpt lat="45.09958" lon="6.15997">
        <ele>1716.7</ele>
        <time>2026-08-05T09:53:43Z</time>
      </trkpt>
			<trkpt lat="45.09981" lon="6.16004">
        <ele>1718.7</ele>
        <time>2026-08-05T09:53:53Z</time>
      </trkpt>
			<trkpt lat="45.09986" lon="6.16007">
        <ele>1719.1</ele>
        <time>2026-08-05T09:53:54Z</time>
      </trkpt>
			<trkpt lat="45.10001" lon="6.16019">
        <ele>1720.6</ele>
        <time>2026-08-05T09:54:01Z</time>
      </trkpt>
			<trkpt lat="45.10006" lon="6.16019">
        <ele>1721.1</ele>
        <time>2026-08-05T09:54:03Z</time>
      </trkpt>
			<trkpt lat="45.10009" lon="6.16015">
        <ele>1721.4</ele>
        <time>2026-08-05T09:54:05Z</time>
      </trkpt>
			<trkpt lat="45.10011" lon="6.16009">
        <ele>1721.8</ele>
        <time>2026-08-05T09:54:07Z</time>
      </trkpt>
			<trkpt lat="45.1001" lon="6.16004">
        <ele>1722.1</ele>
        <time>2026-08-05T09:54:08Z</time>
      </trkpt>
			<trkpt lat="45.10007" lon="6.15996">
        <ele>1722.7</ele>
        <time>2026-08-05T09:54:11Z</time>
      </trkpt>
			<trkpt lat="45.10004" lon="6.15992">
        <ele>1723.1</ele>
        <time>2026-08-05T09:54:12Z</time>
      </trkpt>
			<trkpt lat="45.09999" lon="6.15988">
        <ele>1723.6</ele>
        <time>2026-08-05T09:54:15Z</time>
      </trkpt>
			<trkpt lat="45.09985" lon="6.1598">
        <ele>1725</ele>
        <time>2026-08-05T09:54:21Z</time>
      </trkpt>
			<trkpt lat="45.09974" lon="6.15972">
        <ele>1726.1</ele>
        <time>2026-08-05T09:54:26Z</time>
      </trkpt>
			<trkpt lat="45.09943" lon="6.15935">
        <ele>1730.1</ele>
        <time>2026-08-05T09:54:44Z</time>
      </trkpt>
			<trkpt lat="45.09912" lon="6.15898">
        <ele>1734.6</ele>
        <time>2026-08-05T09:55:04Z</time>
      </trkpt>
			<trkpt lat="45.09901" lon="6.15891">
        <ele>1736</ele>
        <time>2026-08-05T09:55:10Z</time>
      </trkpt>
			<trkpt lat="45.09884" lon="6.15886">
        <ele>1738.1</ele>
        <time>2026-08-05T09:55:19Z</time>
      </trkpt>
			<trkpt lat="45.09878" lon="6.15879">
        <ele>1739.2</ele>
        <time>2026-08-05T09:55:24Z</time>
      </trkpt>
			<trkpt lat="45.09871" lon="6.15867">
        <ele>1740.6</ele>
        <time>2026-08-05T09:55:29Z</time>
      </trkpt>
			<trkpt lat="45.09859" lon="6.15822">
        <ele>1745.2</ele>
        <time>2026-08-05T09:55:49Z</time>
      </trkpt>
			<trkpt lat="45.09855" lon="6.15814">
        <ele>1746.2</ele>
        <time>2026-08-05T09:55:53Z</time>
      </trkpt>
			<trkpt lat="45.09848" lon="6.15802">
        <ele>1747.7</ele>
        <time>2026-08-05T09:56:00Z</time>
      </trkpt>
			<trkpt lat="45.09834" lon="6.15783">
        <ele>1750.3</ele>
        <time>2026-08-05T09:56:11Z</time>
      </trkpt>
			<trkpt lat="45.09799" lon="6.15751">
        <ele>1756.2</ele>
        <time>2026-08-05T09:56:39Z</time>
      </trkpt>
			<trkpt lat="45.09791" lon="6.1574">
        <ele>1757.6</ele>
        <time>2026-08-05T09:56:44Z</time>
      </trkpt>
			<trkpt lat="45.09771" lon="6.1571">
        <ele>1761.3</ele>
        <time>2026-08-05T09:56:59Z</time>
      </trkpt>
			<trkpt lat="45.09758" lon="6.15695">
        <ele>1763.4</ele>
        <time>2026-08-05T09:57:07Z</time>
      </trkpt>
			<trkpt lat="45.09744" lon="6.15683">
        <ele>1765.2</ele>
        <time>2026-08-05T09:57:15Z</time>
      </trkpt>
			<trkpt lat="45.09728" lon="6.15673">
        <ele>1767.2</ele>
        <time>2026-08-05T09:57:24Z</time>
      </trkpt>
			<trkpt lat="45.09693" lon="6.15648">
        <ele>1771</ele>
        <time>2026-08-05T09:57:41Z</time>
      </trkpt>
			<trkpt lat="45.09685" lon="6.15644">
        <ele>1771.8</ele>
        <time>2026-08-05T09:57:45Z</time>
      </trkpt>
			<trkpt lat="45.09667" lon="6.1564">
        <ele>1773.4</ele>
        <time>2026-08-05T09:57:52Z</time>
      </trkpt>
			<trkpt lat="45.0965" lon="6.15636">
        <ele>1774.9</ele>
        <time>2026-08-05T09:57:59Z</time>
      </trkpt>
			<trkpt lat="45.09632" lon="6.15626">
        <ele>1776.6</ele>
        <time>2026-08-05T09:58:07Z</time>
      </trkpt>
			<trkpt lat="45.09615" lon="6.15614">
        <ele>1778.2</ele>
        <time>2026-08-05T09:58:14Z</time>
      </trkpt>
			<trkpt lat="45.09605" lon="6.15605">
        <ele>1779.2</ele>
        <time>2026-08-05T09:58:19Z</time>
      </trkpt>
			<trkpt lat="45.09595" lon="6.15592">
        <ele>1780.4</ele>
        <time>2026-08-05T09:58:25Z</time>
      </trkpt>
			<trkpt lat="45.09591" lon="6.15584">
        <ele>1781.1</ele>
        <time>2026-08-05T09:58:28Z</time>
      </trkpt>
			<trkpt lat="45.09581" lon="6.15562">
        <ele>1782.8</ele>
        <time>2026-08-05T09:58:35Z</time>
      </trkpt>
			<trkpt lat="45.09569" lon="6.1554">
        <ele>1784.8</ele>
        <time>2026-08-05T09:58:44Z</time>
      </trkpt>
			<trkpt lat="45.09553" lon="6.15516">
        <ele>1787.3</ele>
        <time>2026-08-05T09:58:55Z</time>
      </trkpt>
			<trkpt lat="45.09538" lon="6.155">
        <ele>1789.6</ele>
        <time>2026-08-05T09:59:05Z</time>
      </trkpt>
			<trkpt lat="45.09518" lon="6.15483">
        <ele>1792.5</ele>
        <time>2026-08-05T09:59:17Z</time>
      </trkpt>
			<trkpt lat="45.09497" lon="6.15467">
        <ele>1795.6</ele>
        <time>2026-08-05T09:59:30Z</time>
      </trkpt>
			<trkpt lat="45.09477" lon="6.15445">
        <ele>1799.2</ele>
        <time>2026-08-05T09:59:47Z</time>
      </trkpt>
			<trkpt lat="45.09448" lon="6.15416">
        <ele>1804.2</ele>
        <time>2026-08-05T10:00:11Z</time>
      </trkpt>
			<trkpt lat="45.09437" lon="6.15401">
        <ele>1806.3</ele>
        <time>2026-08-05T10:00:19Z</time>
      </trkpt>
			<trkpt lat="45.09418" lon="6.1537">
        <ele>1810.1</ele>
        <time>2026-08-05T10:00:36Z</time>
      </trkpt>
			<trkpt lat="45.09391" lon="6.15333">
        <ele>1814.7</ele>
        <time>2026-08-05T10:00:55Z</time>
      </trkpt>
			<trkpt lat="45.09381" lon="6.1532">
        <ele>1816.1</ele>
        <time>2026-08-05T10:01:01Z</time>
      </trkpt>
			<trkpt lat="45.0936" lon="6.15303">
        <ele>1818.6</ele>
        <time>2026-08-05T10:01:12Z</time>
      </trkpt>
			<trkpt lat="45.09339" lon="6.15286">
        <ele>1820.8</ele>
        <time>2026-08-05T10:01:21Z</time>
      </trkpt>
			<trkpt lat="45.09324" lon="6.1528">
        <ele>1822.1</ele>
        <time>2026-08-05T10:01:28Z</time>
      </trkpt>
			<trkpt lat="45.09303" lon="6.15276">
        <ele>1823.9</ele>
        <time>2026-08-05T10:01:36Z</time>
      </trkpt>
			<trkpt lat="45.09298" lon="6.15274">
        <ele>1824.3</ele>
        <time>2026-08-05T10:01:38Z</time>
      </trkpt>
			<trkpt lat="45.09297" lon="6.15271">
        <ele>1824.5</ele>
        <time>2026-08-05T10:01:39Z</time>
      </trkpt>
			<trkpt lat="45.09297" lon="6.15268">
        <ele>1824.6</ele>
        <time>2026-08-05T10:01:39Z</time>
      </trkpt>
			<trkpt lat="45.09297" lon="6.15266">
        <ele>1824.8</ele>
        <time>2026-08-05T10:01:40Z</time>
      </trkpt>
			<trkpt lat="45.093" lon="6.15262">
        <ele>1825.1</ele>
        <time>2026-08-05T10:01:42Z</time>
      </trkpt>
			<trkpt lat="45.09305" lon="6.1526">
        <ele>1825.5</ele>
        <time>2026-08-05T10:01:43Z</time>
      </trkpt>
			<trkpt lat="45.09333" lon="6.15267">
        <ele>1827.8</ele>
        <time>2026-08-05T10:01:53Z</time>
      </trkpt>
			<trkpt lat="45.0936" lon="6.15275">
        <ele>1830.1</ele>
        <time>2026-08-05T10:02:02Z</time>
      </trkpt>
			<trkpt lat="45.09387" lon="6.15279">
        <ele>1832.4</ele>
        <time>2026-08-05T10:02:13Z</time>
      </trkpt>
			<trkpt lat="45.09399" lon="6.15282">
        <ele>1833.5</ele>
        <time>2026-08-05T10:02:18Z</time>
      </trkpt>
			<trkpt lat="45.09424" lon="6.15292">
        <ele>1836.1</ele>
        <time>2026-08-05T10:02:29Z</time>
      </trkpt>
			<trkpt lat="45.09449" lon="6.15302">
        <ele>1839</ele>
        <time>2026-08-05T10:02:42Z</time>
      </trkpt>
			<trkpt lat="45.0948" lon="6.1532">
        <ele>1842.9</ele>
        <time>2026-08-05T10:02:59Z</time>
      </trkpt>
			<trkpt lat="45.09509" lon="6.15333">
        <ele>1846.7</ele>
        <time>2026-08-05T10:03:14Z</time>
      </trkpt>
			<trkpt lat="45.09537" lon="6.15347">
        <ele>1850.4</ele>
        <time>2026-08-05T10:03:29Z</time>
      </trkpt>
			<trkpt lat="45.09563" lon="6.15357">
        <ele>1853.7</ele>
        <time>2026-08-05T10:03:43Z</time>
      </trkpt>
			<trkpt lat="45.09587" lon="6.15367">
        <ele>1856.5</ele>
        <time>2026-08-05T10:03:55Z</time>
      </trkpt>
			<trkpt lat="45.0961" lon="6.15377">
        <ele>1859.3</ele>
        <time>2026-08-05T10:04:07Z</time>
      </trkpt>
			<trkpt lat="45.09625" lon="6.15385">
        <ele>1861</ele>
        <time>2026-08-05T10:04:15Z</time>
      </trkpt>
			<trkpt lat="45.09639" lon="6.15394">
        <ele>1862.6</ele>
        <time>2026-08-05T10:04:22Z</time>
      </trkpt>
			<trkpt lat="45.09661" lon="6.15414">
        <ele>1865.2</ele>
        <time>2026-08-05T10:04:34Z</time>
      </trkpt>
			<trkpt lat="45.09671" lon="6.1542">
        <ele>1866.2</ele>
        <time>2026-08-05T10:04:38Z</time>
      </trkpt>
			<trkpt lat="45.09699" lon="6.15434">
        <ele>1869.1</ele>
        <time>2026-08-05T10:04:51Z</time>
      </trkpt>
			<trkpt lat="45.09707" lon="6.15439">
        <ele>1869.9</ele>
        <time>2026-08-05T10:04:55Z</time>
      </trkpt>
			<trkpt lat="45.09724" lon="6.15452">
        <ele>1871.8</ele>
        <time>2026-08-05T10:05:03Z</time>
      </trkpt>
			<trkpt lat="45.09728" lon="6.15452">
        <ele>1872.2</ele>
        <time>2026-08-05T10:05:05Z</time>
      </trkpt>
			<trkpt lat="45.09731" lon="6.1545">
        <ele>1872.5</ele>
        <time>2026-08-05T10:05:06Z</time>
      </trkpt>
			<trkpt lat="45.09733" lon="6.15444">
        <ele>1873</ele>
        <time>2026-08-05T10:05:09Z</time>
      </trkpt>
			<trkpt lat="45.09732" lon="6.1544">
        <ele>1873.4</ele>
        <time>2026-08-05T10:05:10Z</time>
      </trkpt>
			<trkpt lat="45.09726" lon="6.15434">
        <ele>1874.1</ele>
        <time>2026-08-05T10:05:14Z</time>
      </trkpt>
			<trkpt lat="45.09709" lon="6.15422">
        <ele>1876.2</ele>
        <time>2026-08-05T10:05:23Z</time>
      </trkpt>
			<trkpt lat="45.09699" lon="6.15413">
        <ele>1877.5</ele>
        <time>2026-08-05T10:05:29Z</time>
      </trkpt>
			<trkpt lat="45.09684" lon="6.15398">
        <ele>1879.8</ele>
        <time>2026-08-05T10:05:38Z</time>
      </trkpt>
			<trkpt lat="45.09672" lon="6.15382">
        <ele>1882</ele>
        <time>2026-08-05T10:05:48Z</time>
      </trkpt>
			<trkpt lat="45.09663" lon="6.1537">
        <ele>1883.7</ele>
        <time>2026-08-05T10:05:55Z</time>
      </trkpt>
			<trkpt lat="45.09643" lon="6.15356">
        <ele>1886.9</ele>
        <time>2026-08-05T10:06:10Z</time>
      </trkpt>
			<trkpt lat="45.09608" lon="6.15321">
        <ele>1893.8</ele>
        <time>2026-08-05T10:06:38Z</time>
      </trkpt>
			<trkpt lat="45.09599" lon="6.15307">
        <ele>1896.2</ele>
        <time>2026-08-05T10:06:49Z</time>
      </trkpt>
			<trkpt lat="45.09584" lon="6.15278">
        <ele>1900.6</ele>
        <time>2026-08-05T10:07:09Z</time>
      </trkpt>
			<trkpt lat="45.09578" lon="6.15268">
        <ele>1902.2</ele>
        <time>2026-08-05T10:07:17Z</time>
      </trkpt>
			<trkpt lat="45.09558" lon="6.15247">
        <ele>1906.6</ele>
        <time>2026-08-05T10:07:37Z</time>
      </trkpt>
			<trkpt lat="45.0953" lon="6.15206">
        <ele>1913.3</ele>
        <time>2026-08-05T10:08:09Z</time>
      </trkpt>
			<trkpt lat="45.09521" lon="6.15196">
        <ele>1915.1</ele>
        <time>2026-08-05T10:08:16Z</time>
      </trkpt>
			<trkpt lat="45.09514" lon="6.15189">
        <ele>1916.3</ele>
        <time>2026-08-05T10:08:22Z</time>
      </trkpt>
			<trkpt lat="45.09506" lon="6.15184">
        <ele>1917.6</ele>
        <time>2026-08-05T10:08:28Z</time>
      </trkpt>
			<trkpt lat="45.09481" lon="6.15176">
        <ele>1921</ele>
        <time>2026-08-05T10:08:43Z</time>
      </trkpt>
			<trkpt lat="45.09475" lon="6.15172">
        <ele>1921.9</ele>
        <time>2026-08-05T10:08:46Z</time>
      </trkpt>
			<trkpt lat="45.09459" lon="6.15155">
        <ele>1924.2</ele>
        <time>2026-08-05T10:08:56Z</time>
      </trkpt>
			<trkpt lat="45.09456" lon="6.15153">
        <ele>1924.7</ele>
        <time>2026-08-05T10:08:59Z</time>
      </trkpt>
			<trkpt lat="45.09429" lon="6.15145">
        <ele>1927.5</ele>
        <time>2026-08-05T10:09:11Z</time>
      </trkpt>
			<trkpt lat="45.09421" lon="6.15141">
        <ele>1928.4</ele>
        <time>2026-08-05T10:09:15Z</time>
      </trkpt>
			<trkpt lat="45.09414" lon="6.15136">
        <ele>1929.2</ele>
        <time>2026-08-05T10:09:19Z</time>
      </trkpt>
			<trkpt lat="45.09401" lon="6.15117">
        <ele>1930.9</ele>
        <time>2026-08-05T10:09:26Z</time>
      </trkpt>
			<trkpt lat="45.09391" lon="6.15107">
        <ele>1932</ele>
        <time>2026-08-05T10:09:31Z</time>
      </trkpt>
			<trkpt lat="45.09385" lon="6.15106">
        <ele>1932.6</ele>
        <time>2026-08-05T10:09:34Z</time>
      </trkpt>
			<trkpt lat="45.0938" lon="6.15106">
        <ele>1933</ele>
        <time>2026-08-05T10:09:35Z</time>
      </trkpt>
			<trkpt lat="45.09374" lon="6.15108">
        <ele>1933.5</ele>
        <time>2026-08-05T10:09:37Z</time>
      </trkpt>
			<trkpt lat="45.09367" lon="6.15115">
        <ele>1934.3</ele>
        <time>2026-08-05T10:09:41Z</time>
      </trkpt>
			<trkpt lat="45.09361" lon="6.15116">
        <ele>1934.8</ele>
        <time>2026-08-05T10:09:43Z</time>
      </trkpt>
			<trkpt lat="45.09357" lon="6.15113">
        <ele>1935.1</ele>
        <time>2026-08-05T10:09:44Z</time>
      </trkpt>
			<trkpt lat="45.09353" lon="6.15109">
        <ele>1935.6</ele>
        <time>2026-08-05T10:09:47Z</time>
      </trkpt>
			<trkpt lat="45.09348" lon="6.15102">
        <ele>1936.2</ele>
        <time>2026-08-05T10:09:49Z</time>
      </trkpt>
			<trkpt lat="45.09341" lon="6.15087">
        <ele>1937.3</ele>
        <time>2026-08-05T10:09:54Z</time>
      </trkpt>
			<trkpt lat="45.09338" lon="6.15084">
        <ele>1937.6</ele>
        <time>2026-08-05T10:09:56Z</time>
      </trkpt>
			<trkpt lat="45.09333" lon="6.15082">
        <ele>1938</ele>
        <time>2026-08-05T10:09:57Z</time>
      </trkpt>
			<trkpt lat="45.0933" lon="6.15081">
        <ele>1938.3</ele>
        <time>2026-08-05T10:09:59Z</time>
      </trkpt>
			<trkpt lat="45.09324" lon="6.15082">
        <ele>1938.8</ele>
        <time>2026-08-05T10:10:01Z</time>
      </trkpt>
			<trkpt lat="45.09314" lon="6.15086">
        <ele>1939.7</ele>
        <time>2026-08-05T10:10:05Z</time>
      </trkpt>
			<trkpt lat="45.09307" lon="6.15085">
        <ele>1940.3</ele>
        <time>2026-08-05T10:10:08Z</time>
      </trkpt>
			<trkpt lat="45.09302" lon="6.15079">
        <ele>1940.9</ele>
        <time>2026-08-05T10:10:10Z</time>
      </trkpt>
			<trkpt lat="45.09295" lon="6.15066">
        <ele>1941.9</ele>
        <time>2026-08-05T10:10:15Z</time>
      </trkpt>
			<trkpt lat="45.09291" lon="6.15062">
        <ele>1942.4</ele>
        <time>2026-08-05T10:10:17Z</time>
      </trkpt>
			<trkpt lat="45.09288" lon="6.1506">
        <ele>1942.7</ele>
        <time>2026-08-05T10:10:18Z</time>
      </trkpt>
			<trkpt lat="45.09278" lon="6.15056">
        <ele>1943.7</ele>
        <time>2026-08-05T10:10:23Z</time>
      </trkpt>
			<trkpt lat="45.09272" lon="6.15055">
        <ele>1944.3</ele>
        <time>2026-08-05T10:10:26Z</time>
      </trkpt>
			<trkpt lat="45.09257" lon="6.1506">
        <ele>1945.9</ele>
        <time>2026-08-05T10:10:33Z</time>
      </trkpt>
			<trkpt lat="45.09242" lon="6.1506">
        <ele>1947.4</ele>
        <time>2026-08-05T10:10:39Z</time>
      </trkpt>
			<trkpt lat="45.09235" lon="6.15057">
        <ele>1948.3</ele>
        <time>2026-08-05T10:10:43Z</time>
      </trkpt>
			<trkpt lat="45.09221" lon="6.15047">
        <ele>1950.1</ele>
        <time>2026-08-05T10:10:51Z</time>
      </trkpt>
			<trkpt lat="45.09199" lon="6.15039">
        <ele>1952.7</ele>
        <time>2026-08-05T10:11:02Z</time>
      </trkpt>
			<trkpt lat="45.09197" lon="6.15037">
        <ele>1953.1</ele>
        <time>2026-08-05T10:11:04Z</time>
      </trkpt>
			<trkpt lat="45.09194" lon="6.15032">
        <ele>1953.6</ele>
        <time>2026-08-05T10:11:06Z</time>
      </trkpt>
			<trkpt lat="45.09186" lon="6.15003">
        <ele>1956.5</ele>
        <time>2026-08-05T10:11:19Z</time>
      </trkpt>
			<trkpt lat="45.09181" lon="6.1499">
        <ele>1957.8</ele>
        <time>2026-08-05T10:11:24Z</time>
      </trkpt>
			<trkpt lat="45.09174" lon="6.14974">
        <ele>1959.6</ele>
        <time>2026-08-05T10:11:32Z</time>
      </trkpt>
			<trkpt lat="45.09167" lon="6.14962">
        <ele>1961</ele>
        <time>2026-08-05T10:11:37Z</time>
      </trkpt>
			<trkpt lat="45.09163" lon="6.14957">
        <ele>1961.7</ele>
        <time>2026-08-05T10:11:40Z</time>
      </trkpt>
			<trkpt lat="45.09146" lon="6.14943">
        <ele>1964.3</ele>
        <time>2026-08-05T10:11:52Z</time>
      </trkpt>
			<trkpt lat="45.09138" lon="6.14931">
        <ele>1965.8</ele>
        <time>2026-08-05T10:11:58Z</time>
      </trkpt>
			<trkpt lat="45.09134" lon="6.14925">
        <ele>1966.5</ele>
        <time>2026-08-05T10:12:01Z</time>
      </trkpt>
			<trkpt lat="45.09127" lon="6.14916">
        <ele>1967.8</ele>
        <time>2026-08-05T10:12:07Z</time>
      </trkpt>
			<trkpt lat="45.09105" lon="6.14899">
        <ele>1970.8</ele>
        <time>2026-08-05T10:12:19Z</time>
      </trkpt>
			<trkpt lat="45.09094" lon="6.14894">
        <ele>1972.1</ele>
        <time>2026-08-05T10:12:25Z</time>
      </trkpt>
			<trkpt lat="45.09088" lon="6.14893">
        <ele>1972.7</ele>
        <time>2026-08-05T10:12:28Z</time>
      </trkpt>
			<trkpt lat="45.09083" lon="6.14895">
        <ele>1973.3</ele>
        <time>2026-08-05T10:12:30Z</time>
      </trkpt>
			<trkpt lat="45.09067" lon="6.14905">
        <ele>1975.2</ele>
        <time>2026-08-05T10:12:39Z</time>
      </trkpt>
			<trkpt lat="45.09062" lon="6.14907">
        <ele>1975.6</ele>
        <time>2026-08-05T10:12:41Z</time>
      </trkpt>
			<trkpt lat="45.0904" lon="6.14911">
        <ele>1977.7</ele>
        <time>2026-08-05T10:12:51Z</time>
      </trkpt>
			<trkpt lat="45.09031" lon="6.14915">
        <ele>1978.5</ele>
        <time>2026-08-05T10:12:54Z</time>
      </trkpt>
			<trkpt lat="45.09025" lon="6.14919">
        <ele>1979.1</ele>
        <time>2026-08-05T10:12:57Z</time>
      </trkpt>
			<trkpt lat="45.09022" lon="6.14923">
        <ele>1979.4</ele>
        <time>2026-08-05T10:12:58Z</time>
      </trkpt>
			<trkpt lat="45.09012" lon="6.14941">
        <ele>1980.6</ele>
        <time>2026-08-05T10:13:04Z</time>
      </trkpt>
			<trkpt lat="45.09009" lon="6.14947">
        <ele>1981</ele>
        <time>2026-08-05T10:13:06Z</time>
      </trkpt>
			<trkpt lat="45.09004" lon="6.1495">
        <ele>1981.4</ele>
        <time>2026-08-05T10:13:07Z</time>
      </trkpt>
			<trkpt lat="45.09002" lon="6.14951">
        <ele>1981.6</ele>
        <time>2026-08-05T10:13:08Z</time>
      </trkpt>
			<trkpt lat="45.08998" lon="6.1495">
        <ele>1981.8</ele>
        <time>2026-08-05T10:13:09Z</time>
      </trkpt>
			<trkpt lat="45.08996" lon="6.14947">
        <ele>1982</ele>
        <time>2026-08-05T10:13:10Z</time>
      </trkpt>
			<trkpt lat="45.08995" lon="6.14945">
        <ele>1982.1</ele>
        <time>2026-08-05T10:13:11Z</time>
      </trkpt>
			<trkpt lat="45.08994" lon="6.14936">
        <ele>1982.5</ele>
        <time>2026-08-05T10:13:13Z</time>
      </trkpt>
			<trkpt lat="45.08996" lon="6.14929">
        <ele>1982.9</ele>
        <time>2026-08-05T10:13:14Z</time>
      </trkpt>
			<trkpt lat="45.09001" lon="6.1492">
        <ele>1983.4</ele>
        <time>2026-08-05T10:13:17Z</time>
      </trkpt>
			<trkpt lat="45.09004" lon="6.14914">
        <ele>1983.7</ele>
        <time>2026-08-05T10:13:18Z</time>
      </trkpt>
			<trkpt lat="45.09014" lon="6.14901">
        <ele>1984.4</ele>
        <time>2026-08-05T10:13:22Z</time>
      </trkpt>
			<trkpt lat="45.09023" lon="6.14891">
        <ele>1985</ele>
        <time>2026-08-05T10:13:25Z</time>
      </trkpt>
			<trkpt lat="45.09038" lon="6.14877">
        <ele>1985.9</ele>
        <time>2026-08-05T10:13:31Z</time>
      </trkpt>
			<trkpt lat="45.09041" lon="6.14873">
        <ele>1986</ele>
        <time>2026-08-05T10:13:31Z</time>
      </trkpt>
			<trkpt lat="45.09041" lon="6.14868">
        <ele>1986.2</ele>
        <time>2026-08-05T10:13:32Z</time>
      </trkpt>
			<trkpt lat="45.09039" lon="6.14865">
        <ele>1986.3</ele>
        <time>2026-08-05T10:13:33Z</time>
      </trkpt>
			<trkpt lat="45.09035" lon="6.14865">
        <ele>1986.5</ele>
        <time>2026-08-05T10:13:34Z</time>
      </trkpt>
			<trkpt lat="45.09026" lon="6.1487">
        <ele>1986.9</ele>
        <time>2026-08-05T10:13:36Z</time>
      </trkpt>
			<trkpt lat="45.09002" lon="6.14888">
        <ele>1987.9</ele>
        <time>2026-08-05T10:13:42Z</time>
      </trkpt>
			<trkpt lat="45.08986" lon="6.14898">
        <ele>1988.5</ele>
        <time>2026-08-05T10:13:46Z</time>
      </trkpt>
			<trkpt lat="45.08977" lon="6.14906">
        <ele>1988.8</ele>
        <time>2026-08-05T10:13:49Z</time>
      </trkpt>
			<trkpt lat="45.08963" lon="6.1492">
        <ele>1989.3</ele>
        <time>2026-08-05T10:13:53Z</time>
      </trkpt>
			<trkpt lat="45.08955" lon="6.14924">
        <ele>1989.6</ele>
        <time>2026-08-05T10:13:54Z</time>
      </trkpt>
			<trkpt lat="45.08951" lon="6.14925">
        <ele>1989.6</ele>
        <time>2026-08-05T10:13:55Z</time>
      </trkpt>
			<trkpt lat="45.08943" lon="6.14925">
        <ele>1989.9</ele>
        <time>2026-08-05T10:13:57Z</time>
      </trkpt>
			<trkpt lat="45.08925" lon="6.14917">
        <ele>1990.3</ele>
        <time>2026-08-05T10:14:00Z</time>
      </trkpt>
			<trkpt lat="45.08914" lon="6.14916">
        <ele>1990.6</ele>
        <time>2026-08-05T10:14:03Z</time>
      </trkpt>
			<trkpt lat="45.08901" lon="6.14918">
        <ele>1990.9</ele>
        <time>2026-08-05T10:14:05Z</time>
      </trkpt>
			<trkpt lat="45.08895" lon="6.14922">
        <ele>1991</ele>
        <time>2026-08-05T10:14:06Z</time>
      </trkpt>
			<trkpt lat="45.08882" lon="6.14937">
        <ele>1991.4</ele>
        <time>2026-08-05T10:14:09Z</time>
      </trkpt>
			<trkpt lat="45.08875" lon="6.1494">
        <ele>1991.6</ele>
        <time>2026-08-05T10:14:11Z</time>
      </trkpt>
			<trkpt lat="45.0886" lon="6.1494">
        <ele>1991.9</ele>
        <time>2026-08-05T10:14:14Z</time>
      </trkpt>
			<trkpt lat="45.08849" lon="6.14937">
        <ele>1992.1</ele>
        <time>2026-08-05T10:14:16Z</time>
      </trkpt>
			<trkpt lat="45.08837" lon="6.14933">
        <ele>1992.3</ele>
        <time>2026-08-05T10:14:18Z</time>
      </trkpt>
			<trkpt lat="45.08801" lon="6.14915">
        <ele>1992.9</ele>
        <time>2026-08-05T10:14:25Z</time>
      </trkpt>
			<trkpt lat="45.08783" lon="6.14909">
        <ele>1993.2</ele>
        <time>2026-08-05T10:14:28Z</time>
      </trkpt>
			<trkpt lat="45.08766" lon="6.14906">
        <ele>1993.5</ele>
        <time>2026-08-05T10:14:31Z</time>
      </trkpt>
			<trkpt lat="45.08753" lon="6.14906">
        <ele>1993.7</ele>
        <time>2026-08-05T10:14:33Z</time>
      </trkpt>
			<trkpt lat="45.08748" lon="6.14906">
        <ele>1993.7</ele>
        <time>2026-08-05T10:14:34Z</time>
      </trkpt>
		</trkseg>
	</trk>
</gpx>
