<?xml version="1.0" encoding="UTF-8"?>
<gpx creator="Wikiloc - https://www.wikiloc.com" version="1.1" xmlns="http://www.topografix.com/GPX/1/1" xmlns:xsi="http://www.w3.org/2001/XMLSchema-instance" xsi:schemaLocation="http://www.topografix.com/GPX/1/1 http://www.topografix.com/GPX/1/1/gpx.xsd">
  <metadata>
    <name>Wikiloc - Col Marie Blanque 1.035m desde Bielle (France)</name>
    <link href="https://www.wikiloc.com/cycling-trails/col-marie-blanque-1-035m-desde-bielle-france-218515761">
      <text>Col Marie Blanque 1.035m desde Bielle (France) - Wikiloc on Wikiloc</text>
    </link>
    <time>2025-04-06T09:34:49Z</time>
  </metadata>
  <trk>
    <name>Col Marie Blanque 1.035m desde Bielle (France) - Wikiloc</name>
    <cmt></cmt>
    <desc></desc>
    <trkseg>
      <trkpt lat="43.057764" lon="-0.429620">
        <ele>451.982</ele>
        <time>2025-04-06T08:49:33Z</time>
      </trkpt>
      <trkpt lat="43.057844" lon="-0.429599">
        <ele>451.943</ele>
        <time>2025-04-06T08:49:48Z</time>
      </trkpt>
      <trkpt lat="43.057782" lon="-0.429945">
        <ele>452.517</ele>
        <time>2025-04-06T08:49:58Z</time>
      </trkpt>
      <trkpt lat="43.058032" lon="-0.430681">
        <ele>453.009</ele>
        <time>2025-04-06T08:50:13Z</time>
      </trkpt>
      <trkpt lat="43.058145" lon="-0.432781">
        <ele>457.740</ele>
        <time>2025-04-06T08:50:49Z</time>
      </trkpt>
      <trkpt lat="43.057975" lon="-0.435149">
        <ele>466.269</ele>
        <time>2025-04-06T08:51:28Z</time>
      </trkpt>
      <trkpt lat="43.057520" lon="-0.436201">
        <ele>475.596</ele>
        <time>2025-04-06T08:51:53Z</time>
      </trkpt>
      <trkpt lat="43.057312" lon="-0.437001">
        <ele>483.133</ele>
        <time>2025-04-06T08:52:15Z</time>
      </trkpt>
      <trkpt lat="43.057291" lon="-0.437652">
        <ele>485.319</ele>
        <time>2025-04-06T08:52:31Z</time>
      </trkpt>
      <trkpt lat="43.057534" lon="-0.439509">
        <ele>501.223</ele>
        <time>2025-04-06T08:53:22Z</time>
      </trkpt>
      <trkpt lat="43.057724" lon="-0.439830">
        <ele>508.125</ele>
        <time>2025-04-06T08:53:35Z</time>
      </trkpt>
      <trkpt lat="43.058029" lon="-0.439753">
        <ele>509.114</ele>
        <time>2025-04-06T08:53:48Z</time>
      </trkpt>
      <trkpt lat="43.058594" lon="-0.439070">
        <ele>517.799</ele>
        <time>2025-04-06T08:54:21Z</time>
      </trkpt>
      <trkpt lat="43.059082" lon="-0.438232">
        <ele>527.338</ele>
        <time>2025-04-06T08:54:51Z</time>
      </trkpt>
      <trkpt lat="43.060148" lon="-0.437952">
        <ele>540.170</ele>
        <time>2025-04-06T08:55:33Z</time>
      </trkpt>
      <trkpt lat="43.061027" lon="-0.437866">
        <ele>551.817</ele>
        <time>2025-04-06T08:56:07Z</time>
      </trkpt>
      <trkpt lat="43.061457" lon="-0.437574">
        <ele>558.309</ele>
        <time>2025-04-06T08:56:25Z</time>
      </trkpt>
      <trkpt lat="43.061629" lon="-0.437695">
        <ele>561.475</ele>
        <time>2025-04-06T08:56:33Z</time>
      </trkpt>
      <trkpt lat="43.061617" lon="-0.437872">
        <ele>562.644</ele>
        <time>2025-04-06T08:56:39Z</time>
      </trkpt>
      <trkpt lat="43.061314" lon="-0.438370">
        <ele>565.131</ele>
        <time>2025-04-06T08:56:57Z</time>
      </trkpt>
      <trkpt lat="43.060564" lon="-0.439214">
        <ele>573.988</ele>
        <time>2025-04-06T08:57:38Z</time>
      </trkpt>
      <trkpt lat="43.060468" lon="-0.439572">
        <ele>576.264</ele>
        <time>2025-04-06T08:57:49Z</time>
      </trkpt>
      <trkpt lat="43.060426" lon="-0.440297">
        <ele>580.678</ele>
        <time>2025-04-06T08:58:06Z</time>
      </trkpt>
      <trkpt lat="43.060577" lon="-0.441306">
        <ele>589.890</ele>
        <time>2025-04-06T08:58:30Z</time>
      </trkpt>
      <trkpt lat="43.060506" lon="-0.442747">
        <ele>602.729</ele>
        <time>2025-04-06T08:59:09Z</time>
      </trkpt>
      <trkpt lat="43.060628" lon="-0.443527">
        <ele>610.324</ele>
        <time>2025-04-06T08:59:31Z</time>
      </trkpt>
      <trkpt lat="43.060649" lon="-0.444871">
        <ele>622.798</ele>
        <time>2025-04-06T09:00:09Z</time>
      </trkpt>
      <trkpt lat="43.060663" lon="-0.444958">
        <ele>623.515</ele>
        <time>2025-04-06T09:00:12Z</time>
      </trkpt>
      <trkpt lat="43.060782" lon="-0.444956">
        <ele>624.726</ele>
        <time>2025-04-06T09:00:18Z</time>
      </trkpt>
      <trkpt lat="43.061649" lon="-0.443355">
        <ele>631.809</ele>
        <time>2025-04-06T09:01:13Z</time>
      </trkpt>
      <trkpt lat="43.062234" lon="-0.441372">
        <ele>644.341</ele>
        <time>2025-04-06T09:02:05Z</time>
      </trkpt>
      <trkpt lat="43.062292" lon="-0.440520">
        <ele>649.980</ele>
        <time>2025-04-06T09:02:27Z</time>
      </trkpt>
      <trkpt lat="43.062383" lon="-0.440384">
        <ele>651.297</ele>
        <time>2025-04-06T09:02:32Z</time>
      </trkpt>
      <trkpt lat="43.062522" lon="-0.440372">
        <ele>652.584</ele>
        <time>2025-04-06T09:02:38Z</time>
      </trkpt>
      <trkpt lat="43.062620" lon="-0.440592">
        <ele>654.050</ele>
        <time>2025-04-06T09:02:45Z</time>
      </trkpt>
      <trkpt lat="43.062489" lon="-0.441017">
        <ele>655.924</ele>
        <time>2025-04-06T09:02:59Z</time>
      </trkpt>
      <trkpt lat="43.062616" lon="-0.441812">
        <ele>660.196</ele>
        <time>2025-04-06T09:03:49Z</time>
      </trkpt>
      <trkpt lat="43.062641" lon="-0.446119">
        <ele>689.385</ele>
        <time>2025-04-06T09:05:37Z</time>
      </trkpt>
      <trkpt lat="43.062922" lon="-0.447522">
        <ele>699.270</ele>
        <time>2025-04-06T09:06:11Z</time>
      </trkpt>
      <trkpt lat="43.063030" lon="-0.449147">
        <ele>709.946</ele>
        <time>2025-04-06T09:06:48Z</time>
      </trkpt>
      <trkpt lat="43.062962" lon="-0.450476">
        <ele>715.988</ele>
        <time>2025-04-06T09:07:17Z</time>
      </trkpt>
      <trkpt lat="43.062159" lon="-0.452211">
        <ele>729.316</ele>
        <time>2025-04-06T09:08:11Z</time>
      </trkpt>
      <trkpt lat="43.061229" lon="-0.453011">
        <ele>736.609</ele>
        <time>2025-04-06T09:08:51Z</time>
      </trkpt>
      <trkpt lat="43.060421" lon="-0.453487">
        <ele>743.226</ele>
        <time>2025-04-06T09:09:19Z</time>
      </trkpt>
      <trkpt lat="43.059931" lon="-0.454137">
        <ele>752.235</ele>
        <time>2025-04-06T09:09:42Z</time>
      </trkpt>
      <trkpt lat="43.059558" lon="-0.454258">
        <ele>754.412</ele>
        <time>2025-04-06T09:09:54Z</time>
      </trkpt>
      <trkpt lat="43.058850" lon="-0.454247">
        <ele>761.959</ele>
        <time>2025-04-06T09:10:15Z</time>
      </trkpt>
      <trkpt lat="43.058625" lon="-0.454365">
        <ele>765.085</ele>
        <time>2025-04-06T09:10:24Z</time>
      </trkpt>
      <trkpt lat="43.058557" lon="-0.454644">
        <ele>768.199</ele>
        <time>2025-04-06T09:10:33Z</time>
      </trkpt>
      <trkpt lat="43.060615" lon="-0.455555">
        <ele>787.031</ele>
        <time>2025-04-06T09:11:59Z</time>
      </trkpt>
      <trkpt lat="43.061784" lon="-0.455742">
        <ele>800.930</ele>
        <time>2025-04-06T09:12:40Z</time>
      </trkpt>
      <trkpt lat="43.061957" lon="-0.456053">
        <ele>805.035</ele>
        <time>2025-04-06T09:12:50Z</time>
      </trkpt>
      <trkpt lat="43.061997" lon="-0.456414">
        <ele>807.575</ele>
        <time>2025-04-06T09:13:00Z</time>
      </trkpt>
      <trkpt lat="43.061896" lon="-0.456678">
        <ele>809.128</ele>
        <time>2025-04-06T09:13:08Z</time>
      </trkpt>
      <trkpt lat="43.061555" lon="-0.457021">
        <ele>813.720</ele>
        <time>2025-04-06T09:13:23Z</time>
      </trkpt>
      <trkpt lat="43.061614" lon="-0.457299">
        <ele>816.409</ele>
        <time>2025-04-06T09:13:32Z</time>
      </trkpt>
      <trkpt lat="43.061971" lon="-0.457554">
        <ele>820.599</ele>
        <time>2025-04-06T09:13:46Z</time>
      </trkpt>
      <trkpt lat="43.062376" lon="-0.457585">
        <ele>824.738</ele>
        <time>2025-04-06T09:13:58Z</time>
      </trkpt>
      <trkpt lat="43.062887" lon="-0.457838">
        <ele>831.655</ele>
        <time>2025-04-06T09:14:15Z</time>
      </trkpt>
      <trkpt lat="43.063423" lon="-0.457721">
        <ele>834.152</ele>
        <time>2025-04-06T09:14:32Z</time>
      </trkpt>
      <trkpt lat="43.063799" lon="-0.458016">
        <ele>834.388</ele>
        <time>2025-04-06T09:14:45Z</time>
      </trkpt>
      <trkpt lat="43.064507" lon="-0.458231">
        <ele>839.832</ele>
        <time>2025-04-06T09:15:07Z</time>
      </trkpt>
      <trkpt lat="43.065406" lon="-0.458868">
        <ele>847.824</ele>
        <time>2025-04-06T09:15:37Z</time>
      </trkpt>
      <trkpt lat="43.065645" lon="-0.459385">
        <ele>850.953</ele>
        <time>2025-04-06T09:15:49Z</time>
      </trkpt>
      <trkpt lat="43.066144" lon="-0.459798">
        <ele>854.838</ele>
        <time>2025-04-06T09:16:04Z</time>
      </trkpt>
      <trkpt lat="43.066292" lon="-0.460064">
        <ele>856.172</ele>
        <time>2025-04-06T09:16:10Z</time>
      </trkpt>
      <trkpt lat="43.066334" lon="-0.461113">
        <ele>861.013</ele>
        <time>2025-04-06T09:16:30Z</time>
      </trkpt>
      <trkpt lat="43.066255" lon="-0.461612">
        <ele>863.414</ele>
        <time>2025-04-06T09:16:40Z</time>
      </trkpt>
      <trkpt lat="43.065360" lon="-0.464111">
        <ele>876.709</ele>
        <time>2025-04-06T09:17:30Z</time>
      </trkpt>
      <trkpt lat="43.065441" lon="-0.466473">
        <ele>879.049</ele>
        <time>2025-04-06T09:18:01Z</time>
      </trkpt>
      <trkpt lat="43.065330" lon="-0.468419">
        <ele>877.068</ele>
        <time>2025-04-06T09:18:19Z</time>
      </trkpt>
      <trkpt lat="43.065061" lon="-0.469686">
        <ele>876.755</ele>
        <time>2025-04-06T09:18:30Z</time>
      </trkpt>
      <trkpt lat="43.065042" lon="-0.470499">
        <ele>876.682</ele>
        <time>2025-04-06T09:18:37Z</time>
      </trkpt>
      <trkpt lat="43.064223" lon="-0.471506">
        <ele>877.858</ele>
        <time>2025-04-06T09:18:51Z</time>
      </trkpt>
      <trkpt lat="43.063763" lon="-0.473114">
        <ele>878.392</ele>
        <time>2025-04-06T09:19:07Z</time>
      </trkpt>
      <trkpt lat="43.063438" lon="-0.473836">
        <ele>878.864</ele>
        <time>2025-04-06T09:19:15Z</time>
      </trkpt>
      <trkpt lat="43.063247" lon="-0.474006">
        <ele>878.953</ele>
        <time>2025-04-06T09:19:18Z</time>
      </trkpt>
      <trkpt lat="43.062736" lon="-0.474226">
        <ele>879.178</ele>
        <time>2025-04-06T09:19:25Z</time>
      </trkpt>
      <trkpt lat="43.062631" lon="-0.474364">
        <ele>879.165</ele>
        <time>2025-04-06T09:19:27Z</time>
      </trkpt>
      <trkpt lat="43.061735" lon="-0.477332">
        <ele>879.568</ele>
        <time>2025-04-06T09:19:58Z</time>
      </trkpt>
      <trkpt lat="43.061118" lon="-0.478768">
        <ele>878.914</ele>
        <time>2025-04-06T09:20:14Z</time>
      </trkpt>
      <trkpt lat="43.060764" lon="-0.480311">
        <ele>880.309</ele>
        <time>2025-04-06T09:20:30Z</time>
      </trkpt>
      <trkpt lat="43.060560" lon="-0.482205">
        <ele>885.778</ele>
        <time>2025-04-06T09:20:54Z</time>
      </trkpt>
      <trkpt lat="43.059996" lon="-0.485788">
        <ele>902.527</ele>
        <time>2025-04-06T09:22:01Z</time>
      </trkpt>
      <trkpt lat="43.059605" lon="-0.486871">
        <ele>910.124</ele>
        <time>2025-04-06T09:22:28Z</time>
      </trkpt>
      <trkpt lat="43.059032" lon="-0.489029">
        <ele>930.751</ele>
        <time>2025-04-06T09:23:26Z</time>
      </trkpt>
      <trkpt lat="43.059143" lon="-0.489092">
        <ele>931.947</ele>
        <time>2025-04-06T09:23:31Z</time>
      </trkpt>
      <trkpt lat="43.059444" lon="-0.489012">
        <ele>933.051</ele>
        <time>2025-04-06T09:23:43Z</time>
      </trkpt>
      <trkpt lat="43.060239" lon="-0.488307">
        <ele>945.383</ele>
        <time>2025-04-06T09:24:21Z</time>
      </trkpt>
      <trkpt lat="43.060317" lon="-0.488281">
        <ele>946.772</ele>
        <time>2025-04-06T09:24:24Z</time>
      </trkpt>
      <trkpt lat="43.060400" lon="-0.488384">
        <ele>948.877</ele>
        <time>2025-04-06T09:24:29Z</time>
      </trkpt>
      <trkpt lat="43.059743" lon="-0.489836">
        <ele>962.274</ele>
        <time>2025-04-06T09:25:29Z</time>
      </trkpt>
      <trkpt lat="43.059569" lon="-0.490489">
        <ele>968.256</ele>
        <time>2025-04-06T09:25:50Z</time>
      </trkpt>
      <trkpt lat="43.059205" lon="-0.491018">
        <ele>973.221</ele>
        <time>2025-04-06T09:26:07Z</time>
      </trkpt>
      <trkpt lat="43.059016" lon="-0.491910">
        <ele>978.309</ele>
        <time>2025-04-06T09:26:29Z</time>
      </trkpt>
      <trkpt lat="43.058660" lon="-0.492511">
        <ele>983.379</ele>
        <time>2025-04-06T09:26:46Z</time>
      </trkpt>
      <trkpt lat="43.058427" lon="-0.493106">
        <ele>989.688</ele>
        <time>2025-04-06T09:26:53Z</time>
      </trkpt>
      <trkpt lat="43.058809" lon="-0.493444">
        <ele>993.165</ele>
        <time>2025-04-06T09:27:07Z</time>
      </trkpt>
      <trkpt lat="43.058972" lon="-0.493412">
        <ele>994.722</ele>
        <time>2025-04-06T09:27:13Z</time>
      </trkpt>
      <trkpt lat="43.059116" lon="-0.493257">
        <ele>996.668</ele>
        <time>2025-04-06T09:27:18Z</time>
      </trkpt>
      <trkpt lat="43.059292" lon="-0.492800">
        <ele>1000.262</ele>
        <time>2025-04-06T09:27:29Z</time>
      </trkpt>
      <trkpt lat="43.059426" lon="-0.491699">
        <ele>1000.524</ele>
        <time>2025-04-06T09:27:51Z</time>
      </trkpt>
      <trkpt lat="43.059839" lon="-0.491010">
        <ele>999.693</ele>
        <time>2025-04-06T09:28:00Z</time>
      </trkpt>
      <trkpt lat="43.060021" lon="-0.490973">
        <ele>999.388</ele>
        <time>2025-04-06T09:28:03Z</time>
      </trkpt>
      <trkpt lat="43.060545" lon="-0.492338">
        <ele>997.753</ele>
        <time>2025-04-06T09:28:21Z</time>
      </trkpt>
      <trkpt lat="43.060506" lon="-0.493056">
        <ele>997.304</ele>
        <time>2025-04-06T09:28:29Z</time>
      </trkpt>
      <trkpt lat="43.060047" lon="-0.494000">
        <ele>996.214</ele>
        <time>2025-04-06T09:28:40Z</time>
      </trkpt>
      <trkpt lat="43.060000" lon="-0.494398">
        <ele>996.409</ele>
        <time>2025-04-06T09:28:44Z</time>
      </trkpt>
      <trkpt lat="43.060439" lon="-0.495984">
        <ele>996.347</ele>
        <time>2025-04-06T09:29:01Z</time>
      </trkpt>
      <trkpt lat="43.060596" lon="-0.496169">
        <ele>996.556</ele>
        <time>2025-04-06T09:29:04Z</time>
      </trkpt>
      <trkpt lat="43.061190" lon="-0.496365">
        <ele>996.863</ele>
        <time>2025-04-06T09:29:13Z</time>
      </trkpt>
      <trkpt lat="43.061604" lon="-0.496336">
        <ele>997.030</ele>
        <time>2025-04-06T09:29:19Z</time>
      </trkpt>
      <trkpt lat="43.061939" lon="-0.496529">
        <ele>997.456</ele>
        <time>2025-04-06T09:29:24Z</time>
      </trkpt>
      <trkpt lat="43.062282" lon="-0.496901">
        <ele>997.540</ele>
        <time>2025-04-06T09:29:30Z</time>
      </trkpt>
      <trkpt lat="43.062783" lon="-0.497221">
        <ele>997.422</ele>
        <time>2025-04-06T09:29:38Z</time>
      </trkpt>
      <trkpt lat="43.063877" lon="-0.498644">
        <ele>997.691</ele>
        <time>2025-04-06T09:29:59Z</time>
      </trkpt>
      <trkpt lat="43.064215" lon="-0.498652">
        <ele>997.766</ele>
        <time>2025-04-06T09:30:04Z</time>
      </trkpt>
      <trkpt lat="43.064750" lon="-0.498187">
        <ele>998.052</ele>
        <time>2025-04-06T09:30:14Z</time>
      </trkpt>
      <trkpt lat="43.064985" lon="-0.498267">
        <ele>997.653</ele>
        <time>2025-04-06T09:30:18Z</time>
      </trkpt>
      <trkpt lat="43.065253" lon="-0.499289">
        <ele>997.408</ele>
        <time>2025-04-06T09:30:30Z</time>
      </trkpt>
      <trkpt lat="43.064980" lon="-0.501060">
        <ele>997.409</ele>
        <time>2025-04-06T09:30:50Z</time>
      </trkpt>
      <trkpt lat="43.065014" lon="-0.501791">
        <ele>998.287</ele>
        <time>2025-04-06T09:30:59Z</time>
      </trkpt>
      <trkpt lat="43.065094" lon="-0.501971">
        <ele>998.266</ele>
        <time>2025-04-06T09:31:02Z</time>
      </trkpt>
      <trkpt lat="43.065355" lon="-0.501892">
        <ele>997.683</ele>
        <time>2025-04-06T09:31:07Z</time>
      </trkpt>
      <trkpt lat="43.066238" lon="-0.500993">
        <ele>996.150</ele>
        <time>2025-04-06T09:31:25Z</time>
      </trkpt>
      <trkpt lat="43.066928" lon="-0.500491">
        <ele>995.546</ele>
        <time>2025-04-06T09:31:37Z</time>
      </trkpt>
      <trkpt lat="43.067118" lon="-0.500434">
        <ele>995.740</ele>
        <time>2025-04-06T09:31:40Z</time>
      </trkpt>
      <trkpt lat="43.067862" lon="-0.500529">
        <ele>997.392</ele>
        <time>2025-04-06T09:31:52Z</time>
      </trkpt>
      <trkpt lat="43.068458" lon="-0.500937">
        <ele>1001.911</ele>
        <time>2025-04-06T09:32:08Z</time>
      </trkpt>
      <trkpt lat="43.068771" lon="-0.501414">
        <ele>1004.916</ele>
        <time>2025-04-06T09:32:20Z</time>
      </trkpt>
      <trkpt lat="43.069150" lon="-0.501731">
        <ele>1007.459</ele>
        <time>2025-04-06T09:32:31Z</time>
      </trkpt>
      <trkpt lat="43.069307" lon="-0.502152">
        <ele>1009.603</ele>
        <time>2025-04-06T09:32:39Z</time>
      </trkpt>
      <trkpt lat="43.069437" lon="-0.502926">
        <ele>1012.923</ele>
        <time>2025-04-06T09:32:53Z</time>
      </trkpt>
      <trkpt lat="43.069376" lon="-0.503815">
        <ele>1016.809</ele>
        <time>2025-04-06T09:33:08Z</time>
      </trkpt>
      <trkpt lat="43.069170" lon="-0.504504">
        <ele>1020.487</ele>
        <time>2025-04-06T09:33:21Z</time>
      </trkpt>
      <trkpt lat="43.069182" lon="-0.504862">
        <ele>1022.046</ele>
        <time>2025-04-06T09:33:27Z</time>
      </trkpt>
      <trkpt lat="43.069695" lon="-0.506085">
        <ele>1028.383</ele>
        <time>2025-04-06T09:33:54Z</time>
      </trkpt>
      <trkpt lat="43.070054" lon="-0.506270">
        <ele>1030.950</ele>
        <time>2025-04-06T09:34:04Z</time>
      </trkpt>
      <trkpt lat="43.070198" lon="-0.506523">
        <ele>1032.556</ele>
        <time>2025-04-06T09:34:10Z</time>
      </trkpt>
      <trkpt lat="43.070414" lon="-0.507239">
        <ele>1035.960</ele>
        <time>2025-04-06T09:34:24Z</time>
      </trkpt>
      <trkpt lat="43.070482" lon="-0.507808">
        <ele>1034.772</ele>
        <time>2025-04-06T09:34:49Z</time>
      </trkpt>
    </trkseg>
  </trk></gpx>