<?xml version="1.0" encoding="UTF-8"?>
<gpx creator="Wikiloc - https://www.wikiloc.com" version="1.1" xmlns="http://www.topografix.com/GPX/1/1" xmlns:xsi="http://www.w3.org/2001/XMLSchema-instance" xsi:schemaLocation="http://www.topografix.com/GPX/1/1 http://www.topografix.com/GPX/1/1/gpx.xsd">
  <metadata>
    <name>Wikiloc - Col du Pourtalet 1.794m (Laruns, FR)</name>
    <link href="https://www.wikiloc.com/cycling-trails/col-du-pourtalet-1-794m-laruns-fr-114315556">
      <text>Col du Pourtalet 1.794m (Laruns, FR) - Wikiloc on Wikiloc</text>
    </link>
    <time>2022-09-08T08:18:27Z</time>
  </metadata>
  <trk>
    <name>Col du Pourtalet 1.794m (Laruns, FR) - Wikiloc</name>
    <cmt></cmt>
    <desc></desc>
    <trkseg>
      <trkpt lat="42.980081" lon="-0.420678">
        <ele>544.616</ele>
        <time>2022-09-08T06:20:22Z</time>
      </trkpt>
      <trkpt lat="42.979341" lon="-0.420476">
        <ele>545.276</ele>
        <time>2022-09-08T06:20:38Z</time>
      </trkpt>
      <trkpt lat="42.979066" lon="-0.420033">
        <ele>546.813</ele>
        <time>2022-09-08T06:20:46Z</time>
      </trkpt>
      <trkpt lat="42.978860" lon="-0.418938">
        <ele>550.009</ele>
        <time>2022-09-08T06:21:06Z</time>
      </trkpt>
      <trkpt lat="42.978536" lon="-0.418813">
        <ele>553.072</ele>
        <time>2022-09-08T06:21:18Z</time>
      </trkpt>
      <trkpt lat="42.978366" lon="-0.419076">
        <ele>554.272</ele>
        <time>2022-09-08T06:21:26Z</time>
      </trkpt>
      <trkpt lat="42.978151" lon="-0.420810">
        <ele>561.645</ele>
        <time>2022-09-08T06:22:06Z</time>
      </trkpt>
      <trkpt lat="42.979283" lon="-0.421651">
        <ele>569.664</ele>
        <time>2022-09-08T06:22:46Z</time>
      </trkpt>
      <trkpt lat="42.979415" lon="-0.421980">
        <ele>571.012</ele>
        <time>2022-09-08T06:22:54Z</time>
      </trkpt>
      <trkpt lat="42.979065" lon="-0.423423">
        <ele>575.616</ele>
        <time>2022-09-08T06:23:26Z</time>
      </trkpt>
      <trkpt lat="42.978725" lon="-0.423293">
        <ele>577.296</ele>
        <time>2022-09-08T06:23:34Z</time>
      </trkpt>
      <trkpt lat="42.978921" lon="-0.424086">
        <ele>579.016</ele>
        <time>2022-09-08T06:23:42Z</time>
      </trkpt>
      <trkpt lat="42.978403" lon="-0.424618">
        <ele>582.637</ele>
        <time>2022-09-08T06:23:58Z</time>
      </trkpt>
      <trkpt lat="42.978223" lon="-0.425103">
        <ele>586.223</ele>
        <time>2022-09-08T06:24:18Z</time>
      </trkpt>
      <trkpt lat="42.977395" lon="-0.425806">
        <ele>590.683</ele>
        <time>2022-09-08T06:24:42Z</time>
      </trkpt>
      <trkpt lat="42.977118" lon="-0.426378">
        <ele>593.811</ele>
        <time>2022-09-08T06:24:58Z</time>
      </trkpt>
      <trkpt lat="42.977196" lon="-0.427245">
        <ele>598.609</ele>
        <time>2022-09-08T06:25:18Z</time>
      </trkpt>
      <trkpt lat="42.976800" lon="-0.428108">
        <ele>602.223</ele>
        <time>2022-09-08T06:25:38Z</time>
      </trkpt>
      <trkpt lat="42.974205" lon="-0.431388">
        <ele>616.483</ele>
        <time>2022-09-08T06:27:18Z</time>
      </trkpt>
      <trkpt lat="42.971891" lon="-0.435805">
        <ele>631.466</ele>
        <time>2022-09-08T06:28:58Z</time>
      </trkpt>
      <trkpt lat="42.971341" lon="-0.436330">
        <ele>631.665</ele>
        <time>2022-09-08T06:29:14Z</time>
      </trkpt>
      <trkpt lat="42.970985" lon="-0.436306">
        <ele>632.473</ele>
        <time>2022-09-08T06:29:22Z</time>
      </trkpt>
      <trkpt lat="42.970688" lon="-0.436475">
        <ele>633.487</ele>
        <time>2022-09-08T06:29:30Z</time>
      </trkpt>
      <trkpt lat="42.969456" lon="-0.437910">
        <ele>638.437</ele>
        <time>2022-09-08T06:30:06Z</time>
      </trkpt>
      <trkpt lat="42.968245" lon="-0.437985">
        <ele>642.447</ele>
        <time>2022-09-08T06:30:34Z</time>
      </trkpt>
      <trkpt lat="42.967411" lon="-0.438221">
        <ele>645.678</ele>
        <time>2022-09-08T06:30:54Z</time>
      </trkpt>
      <trkpt lat="42.966546" lon="-0.439310">
        <ele>647.296</ele>
        <time>2022-09-08T06:31:22Z</time>
      </trkpt>
      <trkpt lat="42.965966" lon="-0.439726">
        <ele>647.231</ele>
        <time>2022-09-08T06:31:34Z</time>
      </trkpt>
      <trkpt lat="42.964075" lon="-0.440331">
        <ele>648.824</ele>
        <time>2022-09-08T06:32:06Z</time>
      </trkpt>
      <trkpt lat="42.962578" lon="-0.440131">
        <ele>652.209</ele>
        <time>2022-09-08T06:32:34Z</time>
      </trkpt>
      <trkpt lat="42.961603" lon="-0.440310">
        <ele>655.490</ele>
        <time>2022-09-08T06:32:54Z</time>
      </trkpt>
      <trkpt lat="42.959646" lon="-0.439785">
        <ele>665.470</ele>
        <time>2022-09-08T06:33:42Z</time>
      </trkpt>
      <trkpt lat="42.957878" lon="-0.439996">
        <ele>671.623</ele>
        <time>2022-09-08T06:34:26Z</time>
      </trkpt>
      <trkpt lat="42.956408" lon="-0.438995">
        <ele>677.612</ele>
        <time>2022-09-08T06:35:06Z</time>
      </trkpt>
      <trkpt lat="42.955411" lon="-0.438643">
        <ele>682.220</ele>
        <time>2022-09-08T06:35:30Z</time>
      </trkpt>
      <trkpt lat="42.954880" lon="-0.439060">
        <ele>684.264</ele>
        <time>2022-09-08T06:35:46Z</time>
      </trkpt>
      <trkpt lat="42.953721" lon="-0.438923">
        <ele>687.614</ele>
        <time>2022-09-08T06:36:18Z</time>
      </trkpt>
      <trkpt lat="42.953118" lon="-0.439125">
        <ele>688.674</ele>
        <time>2022-09-08T06:36:30Z</time>
      </trkpt>
      <trkpt lat="42.952681" lon="-0.439520">
        <ele>691.025</ele>
        <time>2022-09-08T06:36:42Z</time>
      </trkpt>
      <trkpt lat="42.952058" lon="-0.440443">
        <ele>692.845</ele>
        <time>2022-09-08T06:37:02Z</time>
      </trkpt>
      <trkpt lat="42.950755" lon="-0.441323">
        <ele>697.847</ele>
        <time>2022-09-08T06:37:34Z</time>
      </trkpt>
      <trkpt lat="42.950463" lon="-0.441930">
        <ele>699.611</ele>
        <time>2022-09-08T06:37:46Z</time>
      </trkpt>
      <trkpt lat="42.949316" lon="-0.443283">
        <ele>700.209</ele>
        <time>2022-09-08T06:38:14Z</time>
      </trkpt>
      <trkpt lat="42.948808" lon="-0.443255">
        <ele>701.265</ele>
        <time>2022-09-08T06:38:22Z</time>
      </trkpt>
      <trkpt lat="42.947818" lon="-0.442831">
        <ele>704.665</ele>
        <time>2022-09-08T06:38:46Z</time>
      </trkpt>
      <trkpt lat="42.946800" lon="-0.442886">
        <ele>705.868</ele>
        <time>2022-09-08T06:39:06Z</time>
      </trkpt>
      <trkpt lat="42.945970" lon="-0.442341">
        <ele>708.837</ele>
        <time>2022-09-08T06:39:22Z</time>
      </trkpt>
      <trkpt lat="42.945253" lon="-0.442326">
        <ele>714.445</ele>
        <time>2022-09-08T06:39:38Z</time>
      </trkpt>
      <trkpt lat="42.943903" lon="-0.442831">
        <ele>716.889</ele>
        <time>2022-09-08T06:40:06Z</time>
      </trkpt>
      <trkpt lat="42.941568" lon="-0.443155">
        <ele>718.099</ele>
        <time>2022-09-08T06:40:46Z</time>
      </trkpt>
      <trkpt lat="42.940738" lon="-0.443721">
        <ele>723.049</ele>
        <time>2022-09-08T06:41:06Z</time>
      </trkpt>
      <trkpt lat="42.940226" lon="-0.443828">
        <ele>725.690</ele>
        <time>2022-09-08T06:41:18Z</time>
      </trkpt>
      <trkpt lat="42.938908" lon="-0.443503">
        <ele>734.288</ele>
        <time>2022-09-08T06:41:54Z</time>
      </trkpt>
      <trkpt lat="42.938145" lon="-0.443133">
        <ele>740.024</ele>
        <time>2022-09-08T06:42:18Z</time>
      </trkpt>
      <trkpt lat="42.936720" lon="-0.443358">
        <ele>752.026</ele>
        <time>2022-09-08T06:42:58Z</time>
      </trkpt>
      <trkpt lat="42.936288" lon="-0.444166">
        <ele>754.209</ele>
        <time>2022-09-08T06:43:18Z</time>
      </trkpt>
      <trkpt lat="42.936060" lon="-0.445121">
        <ele>757.279</ele>
        <time>2022-09-08T06:43:38Z</time>
      </trkpt>
      <trkpt lat="42.935618" lon="-0.445755">
        <ele>757.679</ele>
        <time>2022-09-08T06:43:54Z</time>
      </trkpt>
      <trkpt lat="42.933640" lon="-0.446633">
        <ele>762.092</ele>
        <time>2022-09-08T06:44:38Z</time>
      </trkpt>
      <trkpt lat="42.931795" lon="-0.447178">
        <ele>765.451</ele>
        <time>2022-09-08T06:45:18Z</time>
      </trkpt>
      <trkpt lat="42.930755" lon="-0.448248">
        <ele>771.449</ele>
        <time>2022-09-08T06:45:50Z</time>
      </trkpt>
      <trkpt lat="42.929710" lon="-0.448278">
        <ele>775.493</ele>
        <time>2022-09-08T06:46:18Z</time>
      </trkpt>
      <trkpt lat="42.928316" lon="-0.447378">
        <ele>778.813</ele>
        <time>2022-09-08T06:46:54Z</time>
      </trkpt>
      <trkpt lat="42.927590" lon="-0.447171">
        <ele>781.893</ele>
        <time>2022-09-08T06:47:10Z</time>
      </trkpt>
      <trkpt lat="42.927223" lon="-0.447213">
        <ele>783.664</ele>
        <time>2022-09-08T06:47:18Z</time>
      </trkpt>
      <trkpt lat="42.926823" lon="-0.447561">
        <ele>787.471</ele>
        <time>2022-09-08T06:47:30Z</time>
      </trkpt>
      <trkpt lat="42.926411" lon="-0.447653">
        <ele>790.641</ele>
        <time>2022-09-08T06:47:42Z</time>
      </trkpt>
      <trkpt lat="42.925535" lon="-0.447066">
        <ele>799.615</ele>
        <time>2022-09-08T06:48:14Z</time>
      </trkpt>
      <trkpt lat="42.924695" lon="-0.446791">
        <ele>803.609</ele>
        <time>2022-09-08T06:48:38Z</time>
      </trkpt>
      <trkpt lat="42.923975" lon="-0.446075">
        <ele>806.888</ele>
        <time>2022-09-08T06:49:02Z</time>
      </trkpt>
      <trkpt lat="42.922453" lon="-0.445286">
        <ele>818.818</ele>
        <time>2022-09-08T06:49:50Z</time>
      </trkpt>
      <trkpt lat="42.921648" lon="-0.445030">
        <ele>822.241</ele>
        <time>2022-09-08T06:50:14Z</time>
      </trkpt>
      <trkpt lat="42.920770" lon="-0.444271">
        <ele>824.640</ele>
        <time>2022-09-08T06:50:42Z</time>
      </trkpt>
      <trkpt lat="42.919958" lon="-0.443903">
        <ele>824.838</ele>
        <time>2022-09-08T06:50:58Z</time>
      </trkpt>
      <trkpt lat="42.918268" lon="-0.442336">
        <ele>834.862</ele>
        <time>2022-09-08T06:51:46Z</time>
      </trkpt>
      <trkpt lat="42.917805" lon="-0.441670">
        <ele>839.432</ele>
        <time>2022-09-08T06:52:06Z</time>
      </trkpt>
      <trkpt lat="42.917311" lon="-0.440366">
        <ele>849.082</ele>
        <time>2022-09-08T06:52:42Z</time>
      </trkpt>
      <trkpt lat="42.916676" lon="-0.439758">
        <ele>853.893</ele>
        <time>2022-09-08T06:53:06Z</time>
      </trkpt>
      <trkpt lat="42.915323" lon="-0.439355">
        <ele>866.083</ele>
        <time>2022-09-08T06:53:50Z</time>
      </trkpt>
      <trkpt lat="42.913891" lon="-0.439458">
        <ele>877.025</ele>
        <time>2022-09-08T06:54:38Z</time>
      </trkpt>
      <trkpt lat="42.913595" lon="-0.439696">
        <ele>880.017</ele>
        <time>2022-09-08T06:54:50Z</time>
      </trkpt>
      <trkpt lat="42.913360" lon="-0.439698">
        <ele>882.009</ele>
        <time>2022-09-08T06:54:58Z</time>
      </trkpt>
      <trkpt lat="42.912005" lon="-0.438525">
        <ele>895.869</ele>
        <time>2022-09-08T06:55:54Z</time>
      </trkpt>
      <trkpt lat="42.911421" lon="-0.438376">
        <ele>900.689</ele>
        <time>2022-09-08T06:56:14Z</time>
      </trkpt>
      <trkpt lat="42.910660" lon="-0.437868">
        <ele>908.442</ele>
        <time>2022-09-08T06:56:46Z</time>
      </trkpt>
      <trkpt lat="42.910175" lon="-0.436753">
        <ele>915.031</ele>
        <time>2022-09-08T06:57:18Z</time>
      </trkpt>
      <trkpt lat="42.909950" lon="-0.437041">
        <ele>917.699</ele>
        <time>2022-09-08T06:57:30Z</time>
      </trkpt>
      <trkpt lat="42.910146" lon="-0.437916">
        <ele>922.823</ele>
        <time>2022-09-08T06:57:54Z</time>
      </trkpt>
      <trkpt lat="42.909900" lon="-0.438120">
        <ele>924.833</ele>
        <time>2022-09-08T06:58:06Z</time>
      </trkpt>
      <trkpt lat="42.909428" lon="-0.437181">
        <ele>932.043</ele>
        <time>2022-09-08T06:58:34Z</time>
      </trkpt>
      <trkpt lat="42.909270" lon="-0.436215">
        <ele>938.244</ele>
        <time>2022-09-08T06:58:58Z</time>
      </trkpt>
      <trkpt lat="42.908566" lon="-0.435485">
        <ele>945.031</ele>
        <time>2022-09-08T06:59:26Z</time>
      </trkpt>
      <trkpt lat="42.907645" lon="-0.433535">
        <ele>960.061</ele>
        <time>2022-09-08T07:00:22Z</time>
      </trkpt>
      <trkpt lat="42.907405" lon="-0.431516">
        <ele>972.207</ele>
        <time>2022-09-08T07:01:10Z</time>
      </trkpt>
      <trkpt lat="42.907158" lon="-0.431103">
        <ele>975.409</ele>
        <time>2022-09-08T07:01:22Z</time>
      </trkpt>
      <trkpt lat="42.906440" lon="-0.431096">
        <ele>981.814</ele>
        <time>2022-09-08T07:01:46Z</time>
      </trkpt>
      <trkpt lat="42.905548" lon="-0.430763">
        <ele>989.484</ele>
        <time>2022-09-08T07:02:18Z</time>
      </trkpt>
      <trkpt lat="42.904970" lon="-0.430795">
        <ele>994.017</ele>
        <time>2022-09-08T07:02:38Z</time>
      </trkpt>
      <trkpt lat="42.903805" lon="-0.431995">
        <ele>996.076</ele>
        <time>2022-09-08T07:03:22Z</time>
      </trkpt>
      <trkpt lat="42.901958" lon="-0.432420">
        <ele>994.044</ele>
        <time>2022-09-08T07:03:54Z</time>
      </trkpt>
      <trkpt lat="42.900555" lon="-0.433381">
        <ele>995.088</ele>
        <time>2022-09-08T07:04:22Z</time>
      </trkpt>
      <trkpt lat="42.899620" lon="-0.433571">
        <ele>997.088</ele>
        <time>2022-09-08T07:04:38Z</time>
      </trkpt>
      <trkpt lat="42.898303" lon="-0.432815">
        <ele>1003.458</ele>
        <time>2022-09-08T07:05:10Z</time>
      </trkpt>
      <trkpt lat="42.897438" lon="-0.431686">
        <ele>1012.249</ele>
        <time>2022-09-08T07:05:46Z</time>
      </trkpt>
      <trkpt lat="42.896430" lon="-0.430781">
        <ele>1021.618</ele>
        <time>2022-09-08T07:06:26Z</time>
      </trkpt>
      <trkpt lat="42.895640" lon="-0.429153">
        <ele>1030.098</ele>
        <time>2022-09-08T07:07:10Z</time>
      </trkpt>
      <trkpt lat="42.895210" lon="-0.429166">
        <ele>1032.217</ele>
        <time>2022-09-08T07:07:22Z</time>
      </trkpt>
      <trkpt lat="42.894446" lon="-0.429716">
        <ele>1035.809</ele>
        <time>2022-09-08T07:07:46Z</time>
      </trkpt>
      <trkpt lat="42.892771" lon="-0.429681">
        <ele>1040.892</ele>
        <time>2022-09-08T07:08:30Z</time>
      </trkpt>
      <trkpt lat="42.892283" lon="-0.429486">
        <ele>1042.462</ele>
        <time>2022-09-08T07:08:42Z</time>
      </trkpt>
      <trkpt lat="42.891731" lon="-0.428913">
        <ele>1045.215</ele>
        <time>2022-09-08T07:08:58Z</time>
      </trkpt>
      <trkpt lat="42.890080" lon="-0.427986">
        <ele>1052.074</ele>
        <time>2022-09-08T07:09:42Z</time>
      </trkpt>
      <trkpt lat="42.888448" lon="-0.427470">
        <ele>1049.652</ele>
        <time>2022-09-08T07:10:14Z</time>
      </trkpt>
      <trkpt lat="42.887170" lon="-0.427421">
        <ele>1057.226</ele>
        <time>2022-09-08T07:10:46Z</time>
      </trkpt>
      <trkpt lat="42.886875" lon="-0.426970">
        <ele>1059.256</ele>
        <time>2022-09-08T07:10:58Z</time>
      </trkpt>
      <trkpt lat="42.886875" lon="-0.426436">
        <ele>1062.296</ele>
        <time>2022-09-08T07:11:10Z</time>
      </trkpt>
      <trkpt lat="42.887245" lon="-0.425961">
        <ele>1066.047</ele>
        <time>2022-09-08T07:11:26Z</time>
      </trkpt>
      <trkpt lat="42.887558" lon="-0.425086">
        <ele>1071.818</ele>
        <time>2022-09-08T07:11:50Z</time>
      </trkpt>
      <trkpt lat="42.888038" lon="-0.424893">
        <ele>1075.298</ele>
        <time>2022-09-08T07:12:06Z</time>
      </trkpt>
      <trkpt lat="42.888176" lon="-0.424655">
        <ele>1077.217</ele>
        <time>2022-09-08T07:12:14Z</time>
      </trkpt>
      <trkpt lat="42.888058" lon="-0.424421">
        <ele>1078.609</ele>
        <time>2022-09-08T07:12:22Z</time>
      </trkpt>
      <trkpt lat="42.887333" lon="-0.424696">
        <ele>1084.282</ele>
        <time>2022-09-08T07:12:46Z</time>
      </trkpt>
      <trkpt lat="42.887088" lon="-0.425053">
        <ele>1087.272</ele>
        <time>2022-09-08T07:12:58Z</time>
      </trkpt>
      <trkpt lat="42.886851" lon="-0.425030">
        <ele>1089.265</ele>
        <time>2022-09-08T07:13:06Z</time>
      </trkpt>
      <trkpt lat="42.886785" lon="-0.424871">
        <ele>1089.424</ele>
        <time>2022-09-08T07:13:10Z</time>
      </trkpt>
      <trkpt lat="42.886793" lon="-0.424613">
        <ele>1090.072</ele>
        <time>2022-09-08T07:13:18Z</time>
      </trkpt>
      <trkpt lat="42.887161" lon="-0.424373">
        <ele>1092.856</ele>
        <time>2022-09-08T07:13:30Z</time>
      </trkpt>
      <trkpt lat="42.887310" lon="-0.424051">
        <ele>1095.046</ele>
        <time>2022-09-08T07:13:38Z</time>
      </trkpt>
      <trkpt lat="42.887713" lon="-0.422006">
        <ele>1106.876</ele>
        <time>2022-09-08T07:14:26Z</time>
      </trkpt>
      <trkpt lat="42.887740" lon="-0.421366">
        <ele>1110.067</ele>
        <time>2022-09-08T07:14:42Z</time>
      </trkpt>
      <trkpt lat="42.887383" lon="-0.420000">
        <ele>1118.467</ele>
        <time>2022-09-08T07:15:18Z</time>
      </trkpt>
      <trkpt lat="42.887638" lon="-0.418053">
        <ele>1129.481</ele>
        <time>2022-09-08T07:16:06Z</time>
      </trkpt>
      <trkpt lat="42.887096" lon="-0.416346">
        <ele>1138.619</ele>
        <time>2022-09-08T07:16:50Z</time>
      </trkpt>
      <trkpt lat="42.887043" lon="-0.415441">
        <ele>1143.609</ele>
        <time>2022-09-08T07:17:10Z</time>
      </trkpt>
      <trkpt lat="42.887165" lon="-0.415008">
        <ele>1146.047</ele>
        <time>2022-09-08T07:17:22Z</time>
      </trkpt>
      <trkpt lat="42.886005" lon="-0.412445">
        <ele>1159.677</ele>
        <time>2022-09-08T07:18:30Z</time>
      </trkpt>
      <trkpt lat="42.885963" lon="-0.411688">
        <ele>1161.470</ele>
        <time>2022-09-08T07:18:46Z</time>
      </trkpt>
      <trkpt lat="42.885728" lon="-0.411065">
        <ele>1165.699</ele>
        <time>2022-09-08T07:19:02Z</time>
      </trkpt>
      <trkpt lat="42.885746" lon="-0.410741">
        <ele>1167.027</ele>
        <time>2022-09-08T07:19:10Z</time>
      </trkpt>
      <trkpt lat="42.886106" lon="-0.410133">
        <ele>1171.031</ele>
        <time>2022-09-08T07:19:30Z</time>
      </trkpt>
      <trkpt lat="42.886116" lon="-0.409665">
        <ele>1175.031</ele>
        <time>2022-09-08T07:19:42Z</time>
      </trkpt>
      <trkpt lat="42.884830" lon="-0.407113">
        <ele>1188.261</ele>
        <time>2022-09-08T07:20:54Z</time>
      </trkpt>
      <trkpt lat="42.884690" lon="-0.406058">
        <ele>1190.672</ele>
        <time>2022-09-08T07:21:14Z</time>
      </trkpt>
      <trkpt lat="42.884783" lon="-0.404646">
        <ele>1198.816</ele>
        <time>2022-09-08T07:21:46Z</time>
      </trkpt>
      <trkpt lat="42.883515" lon="-0.402986">
        <ele>1214.076</ele>
        <time>2022-09-08T07:22:46Z</time>
      </trkpt>
      <trkpt lat="42.883325" lon="-0.402395">
        <ele>1215.813</ele>
        <time>2022-09-08T07:23:02Z</time>
      </trkpt>
      <trkpt lat="42.883123" lon="-0.402373">
        <ele>1218.609</ele>
        <time>2022-09-08T07:23:10Z</time>
      </trkpt>
      <trkpt lat="42.883100" lon="-0.402620">
        <ele>1219.872</ele>
        <time>2022-09-08T07:23:18Z</time>
      </trkpt>
      <trkpt lat="42.883826" lon="-0.403556">
        <ele>1227.082</ele>
        <time>2022-09-08T07:24:16Z</time>
      </trkpt>
      <trkpt lat="42.884073" lon="-0.405513">
        <ele>1237.085</ele>
        <time>2022-09-08T07:25:21Z</time>
      </trkpt>
      <trkpt lat="42.883798" lon="-0.405340">
        <ele>1239.484</ele>
        <time>2022-09-08T07:25:33Z</time>
      </trkpt>
      <trkpt lat="42.883421" lon="-0.403826">
        <ele>1248.062</ele>
        <time>2022-09-08T07:26:13Z</time>
      </trkpt>
      <trkpt lat="42.882443" lon="-0.402740">
        <ele>1257.686</ele>
        <time>2022-09-08T07:26:57Z</time>
      </trkpt>
      <trkpt lat="42.882471" lon="-0.402850">
        <ele>1257.226</ele>
        <time>2022-09-08T07:27:05Z</time>
      </trkpt>
      <trkpt lat="42.882090" lon="-0.402221">
        <ele>1261.246</ele>
        <time>2022-09-08T07:28:46Z</time>
      </trkpt>
      <trkpt lat="42.881181" lon="-0.402295">
        <ele>1265.817</ele>
        <time>2022-09-08T07:29:14Z</time>
      </trkpt>
      <trkpt lat="42.880618" lon="-0.402583">
        <ele>1267.669</ele>
        <time>2022-09-08T07:29:30Z</time>
      </trkpt>
      <trkpt lat="42.880048" lon="-0.402543">
        <ele>1267.404</ele>
        <time>2022-09-08T07:29:42Z</time>
      </trkpt>
      <trkpt lat="42.879098" lon="-0.401418">
        <ele>1265.624</ele>
        <time>2022-09-08T07:30:06Z</time>
      </trkpt>
      <trkpt lat="42.877708" lon="-0.400130">
        <ele>1267.009</ele>
        <time>2022-09-08T07:30:34Z</time>
      </trkpt>
      <trkpt lat="42.876361" lon="-0.399225">
        <ele>1265.657</ele>
        <time>2022-09-08T07:30:58Z</time>
      </trkpt>
      <trkpt lat="42.871933" lon="-0.396918">
        <ele>1263.817</ele>
        <time>2022-09-08T07:32:10Z</time>
      </trkpt>
      <trkpt lat="42.871158" lon="-0.396888">
        <ele>1264.280</ele>
        <time>2022-09-08T07:32:22Z</time>
      </trkpt>
      <trkpt lat="42.870091" lon="-0.396328">
        <ele>1262.429</ele>
        <time>2022-09-08T07:32:38Z</time>
      </trkpt>
      <trkpt lat="42.867815" lon="-0.394226">
        <ele>1261.497</ele>
        <time>2022-09-08T07:33:18Z</time>
      </trkpt>
      <trkpt lat="42.867365" lon="-0.394141">
        <ele>1263.641</ele>
        <time>2022-09-08T07:33:26Z</time>
      </trkpt>
      <trkpt lat="42.866665" lon="-0.394438">
        <ele>1264.491</ele>
        <time>2022-09-08T07:33:42Z</time>
      </trkpt>
      <trkpt lat="42.866280" lon="-0.394350">
        <ele>1265.031</ele>
        <time>2022-09-08T07:33:50Z</time>
      </trkpt>
      <trkpt lat="42.865371" lon="-0.393583">
        <ele>1268.632</ele>
        <time>2022-09-08T07:34:14Z</time>
      </trkpt>
      <trkpt lat="42.864741" lon="-0.393426">
        <ele>1269.623</ele>
        <time>2022-09-08T07:34:30Z</time>
      </trkpt>
      <trkpt lat="42.864230" lon="-0.393081">
        <ele>1269.683</ele>
        <time>2022-09-08T07:34:42Z</time>
      </trkpt>
      <trkpt lat="42.863336" lon="-0.391796">
        <ele>1273.411</ele>
        <time>2022-09-08T07:35:10Z</time>
      </trkpt>
      <trkpt lat="42.861991" lon="-0.391685">
        <ele>1281.009</ele>
        <time>2022-09-08T07:35:46Z</time>
      </trkpt>
      <trkpt lat="42.861363" lon="-0.391301">
        <ele>1284.893</ele>
        <time>2022-09-08T07:36:06Z</time>
      </trkpt>
      <trkpt lat="42.860778" lon="-0.391296">
        <ele>1287.233</ele>
        <time>2022-09-08T07:36:22Z</time>
      </trkpt>
      <trkpt lat="42.859908" lon="-0.391946">
        <ele>1292.846</ele>
        <time>2022-09-08T07:36:50Z</time>
      </trkpt>
      <trkpt lat="42.859115" lon="-0.392070">
        <ele>1295.615</ele>
        <time>2022-09-08T07:37:10Z</time>
      </trkpt>
      <trkpt lat="42.858160" lon="-0.390988">
        <ele>1300.693</ele>
        <time>2022-09-08T07:37:46Z</time>
      </trkpt>
      <trkpt lat="42.857386" lon="-0.390743">
        <ele>1302.677</ele>
        <time>2022-09-08T07:38:06Z</time>
      </trkpt>
      <trkpt lat="42.856553" lon="-0.390711">
        <ele>1306.637</ele>
        <time>2022-09-08T07:38:30Z</time>
      </trkpt>
      <trkpt lat="42.855416" lon="-0.389806">
        <ele>1312.467</ele>
        <time>2022-09-08T07:39:06Z</time>
      </trkpt>
      <trkpt lat="42.853570" lon="-0.389815">
        <ele>1319.048</ele>
        <time>2022-09-08T07:39:54Z</time>
      </trkpt>
      <trkpt lat="42.851771" lon="-0.388783">
        <ele>1326.668</ele>
        <time>2022-09-08T07:40:42Z</time>
      </trkpt>
      <trkpt lat="42.850721" lon="-0.388701">
        <ele>1332.242</ele>
        <time>2022-09-08T07:41:14Z</time>
      </trkpt>
      <trkpt lat="42.848228" lon="-0.387738">
        <ele>1345.426</ele>
        <time>2022-09-08T07:42:30Z</time>
      </trkpt>
      <trkpt lat="42.846856" lon="-0.387481">
        <ele>1352.409</ele>
        <time>2022-09-08T07:43:10Z</time>
      </trkpt>
      <trkpt lat="42.845610" lon="-0.386336">
        <ele>1360.667</ele>
        <time>2022-09-08T07:43:54Z</time>
      </trkpt>
      <trkpt lat="42.842996" lon="-0.385245">
        <ele>1374.837</ele>
        <time>2022-09-08T07:45:10Z</time>
      </trkpt>
      <trkpt lat="42.842210" lon="-0.384521">
        <ele>1379.890</ele>
        <time>2022-09-08T07:45:38Z</time>
      </trkpt>
      <trkpt lat="42.840208" lon="-0.383565">
        <ele>1390.489</ele>
        <time>2022-09-08T07:46:34Z</time>
      </trkpt>
      <trkpt lat="42.839661" lon="-0.383148">
        <ele>1392.247</ele>
        <time>2022-09-08T07:46:50Z</time>
      </trkpt>
      <trkpt lat="42.838440" lon="-0.383086">
        <ele>1400.251</ele>
        <time>2022-09-08T07:47:26Z</time>
      </trkpt>
      <trkpt lat="42.837943" lon="-0.382893">
        <ele>1402.431</ele>
        <time>2022-09-08T07:47:42Z</time>
      </trkpt>
      <trkpt lat="42.836851" lon="-0.382988">
        <ele>1406.891</ele>
        <time>2022-09-08T07:48:10Z</time>
      </trkpt>
      <trkpt lat="42.835511" lon="-0.384058">
        <ele>1416.092</ele>
        <time>2022-09-08T07:48:54Z</time>
      </trkpt>
      <trkpt lat="42.834645" lon="-0.383151">
        <ele>1426.443</ele>
        <time>2022-09-08T07:49:34Z</time>
      </trkpt>
      <trkpt lat="42.832118" lon="-0.383928">
        <ele>1445.864</ele>
        <time>2022-09-08T07:50:58Z</time>
      </trkpt>
      <trkpt lat="42.830346" lon="-0.384880">
        <ele>1460.610</ele>
        <time>2022-09-08T07:51:58Z</time>
      </trkpt>
      <trkpt lat="42.827558" lon="-0.385771">
        <ele>1481.609</ele>
        <time>2022-09-08T07:53:30Z</time>
      </trkpt>
      <trkpt lat="42.825525" lon="-0.387393">
        <ele>1501.445</ele>
        <time>2022-09-08T07:54:54Z</time>
      </trkpt>
      <trkpt lat="42.825088" lon="-0.388016">
        <ele>1506.675</ele>
        <time>2022-09-08T07:55:14Z</time>
      </trkpt>
      <trkpt lat="42.824728" lon="-0.388128">
        <ele>1508.648</ele>
        <time>2022-09-08T07:55:26Z</time>
      </trkpt>
      <trkpt lat="42.823250" lon="-0.391696">
        <ele>1530.097</ele>
        <time>2022-09-08T07:56:58Z</time>
      </trkpt>
      <trkpt lat="42.822556" lon="-0.392735">
        <ele>1537.445</ele>
        <time>2022-09-08T07:57:30Z</time>
      </trkpt>
      <trkpt lat="42.822488" lon="-0.393118">
        <ele>1540.629</ele>
        <time>2022-09-08T07:57:42Z</time>
      </trkpt>
      <trkpt lat="42.822618" lon="-0.393238">
        <ele>1541.679</ele>
        <time>2022-09-08T07:57:46Z</time>
      </trkpt>
      <trkpt lat="42.822371" lon="-0.393628">
        <ele>1543.489</ele>
        <time>2022-09-08T07:57:54Z</time>
      </trkpt>
      <trkpt lat="42.822700" lon="-0.394173">
        <ele>1547.880</ele>
        <time>2022-09-08T07:58:14Z</time>
      </trkpt>
      <trkpt lat="42.822701" lon="-0.394601">
        <ele>1550.864</ele>
        <time>2022-09-08T07:58:26Z</time>
      </trkpt>
      <trkpt lat="42.821055" lon="-0.395581">
        <ele>1563.406</ele>
        <time>2022-09-08T07:59:30Z</time>
      </trkpt>
      <trkpt lat="42.819650" lon="-0.397743">
        <ele>1579.416</ele>
        <time>2022-09-08T08:00:42Z</time>
      </trkpt>
      <trkpt lat="42.818786" lon="-0.398603">
        <ele>1586.809</ele>
        <time>2022-09-08T08:01:18Z</time>
      </trkpt>
      <trkpt lat="42.818140" lon="-0.399903">
        <ele>1595.877</ele>
        <time>2022-09-08T08:01:58Z</time>
      </trkpt>
      <trkpt lat="42.817968" lon="-0.401685">
        <ele>1605.047</ele>
        <time>2022-09-08T08:02:42Z</time>
      </trkpt>
      <trkpt lat="42.818071" lon="-0.403091">
        <ele>1613.660</ele>
        <time>2022-09-08T08:03:18Z</time>
      </trkpt>
      <trkpt lat="42.818543" lon="-0.403791">
        <ele>1620.639</ele>
        <time>2022-09-08T08:03:42Z</time>
      </trkpt>
      <trkpt lat="42.819561" lon="-0.403755">
        <ele>1629.867</ele>
        <time>2022-09-08T08:04:22Z</time>
      </trkpt>
      <trkpt lat="42.820028" lon="-0.404140">
        <ele>1634.271</ele>
        <time>2022-09-08T08:04:42Z</time>
      </trkpt>
      <trkpt lat="42.820228" lon="-0.404980">
        <ele>1639.621</ele>
        <time>2022-09-08T08:05:06Z</time>
      </trkpt>
      <trkpt lat="42.819831" lon="-0.405831">
        <ele>1646.011</ele>
        <time>2022-09-08T08:05:34Z</time>
      </trkpt>
      <trkpt lat="42.819905" lon="-0.405933">
        <ele>1646.072</ele>
        <time>2022-09-08T08:05:38Z</time>
      </trkpt>
      <trkpt lat="42.820088" lon="-0.405861">
        <ele>1646.453</ele>
        <time>2022-09-08T08:05:42Z</time>
      </trkpt>
      <trkpt lat="42.821545" lon="-0.404890">
        <ele>1658.604</ele>
        <time>2022-09-08T08:06:51Z</time>
      </trkpt>
      <trkpt lat="42.821906" lon="-0.405121">
        <ele>1661.614</ele>
        <time>2022-09-08T08:07:07Z</time>
      </trkpt>
      <trkpt lat="42.821958" lon="-0.405433">
        <ele>1663.809</ele>
        <time>2022-09-08T08:07:15Z</time>
      </trkpt>
      <trkpt lat="42.821553" lon="-0.407420">
        <ele>1673.826</ele>
        <time>2022-09-08T08:08:03Z</time>
      </trkpt>
      <trkpt lat="42.820288" lon="-0.409395">
        <ele>1686.826</ele>
        <time>2022-09-08T08:09:03Z</time>
      </trkpt>
      <trkpt lat="42.820030" lon="-0.410048">
        <ele>1689.069</ele>
        <time>2022-09-08T08:09:19Z</time>
      </trkpt>
      <trkpt lat="42.819793" lon="-0.411458">
        <ele>1695.678</ele>
        <time>2022-09-08T08:09:47Z</time>
      </trkpt>
      <trkpt lat="42.819268" lon="-0.412243">
        <ele>1697.836</ele>
        <time>2022-09-08T08:10:07Z</time>
      </trkpt>
      <trkpt lat="42.818896" lon="-0.413765">
        <ele>1701.460</ele>
        <time>2022-09-08T08:10:35Z</time>
      </trkpt>
      <trkpt lat="42.818813" lon="-0.415363">
        <ele>1705.430</ele>
        <time>2022-09-08T08:11:03Z</time>
      </trkpt>
      <trkpt lat="42.818563" lon="-0.415948">
        <ele>1707.260</ele>
        <time>2022-09-08T08:11:15Z</time>
      </trkpt>
      <trkpt lat="42.817883" lon="-0.416020">
        <ele>1709.051</ele>
        <time>2022-09-08T08:11:31Z</time>
      </trkpt>
      <trkpt lat="42.817096" lon="-0.416383">
        <ele>1713.032</ele>
        <time>2022-09-08T08:11:51Z</time>
      </trkpt>
      <trkpt lat="42.816315" lon="-0.416443">
        <ele>1714.892</ele>
        <time>2022-09-08T08:12:11Z</time>
      </trkpt>
      <trkpt lat="42.815236" lon="-0.418030">
        <ele>1724.611</ele>
        <time>2022-09-08T08:12:55Z</time>
      </trkpt>
      <trkpt lat="42.814171" lon="-0.418223">
        <ele>1733.009</ele>
        <time>2022-09-08T08:13:35Z</time>
      </trkpt>
      <trkpt lat="42.812656" lon="-0.419190">
        <ele>1746.064</ele>
        <time>2022-09-08T08:14:31Z</time>
      </trkpt>
      <trkpt lat="42.811865" lon="-0.419181">
        <ele>1751.034</ele>
        <time>2022-09-08T08:14:55Z</time>
      </trkpt>
      <trkpt lat="42.809885" lon="-0.418828">
        <ele>1765.677</ele>
        <time>2022-09-08T08:15:55Z</time>
      </trkpt>
      <trkpt lat="42.809511" lon="-0.418651">
        <ele>1768.626</ele>
        <time>2022-09-08T08:16:07Z</time>
      </trkpt>
      <trkpt lat="42.808786" lon="-0.417958">
        <ele>1773.474</ele>
        <time>2022-09-08T08:16:35Z</time>
      </trkpt>
      <trkpt lat="42.807890" lon="-0.419046">
        <ele>1782.418</ele>
        <time>2022-09-08T08:17:11Z</time>
      </trkpt>
      <trkpt lat="42.807261" lon="-0.419375">
        <ele>1786.438</ele>
        <time>2022-09-08T08:17:31Z</time>
      </trkpt>
      <trkpt lat="42.806898" lon="-0.419191">
        <ele>1787.618</ele>
        <time>2022-09-08T08:17:43Z</time>
      </trkpt>
      <trkpt lat="42.806385" lon="-0.418535">
        <ele>1789.839</ele>
        <time>2022-09-08T08:18:03Z</time>
      </trkpt>
      <trkpt lat="42.806053" lon="-0.418461">
        <ele>1789.882</ele>
        <time>2022-09-08T08:18:11Z</time>
      </trkpt>
      <trkpt lat="42.805380" lon="-0.418616">
        <ele>1787.843</ele>
        <time>2022-09-08T08:18:27Z</time>
      </trkpt>
    </trkseg>
  </trk></gpx>