<?xml version="1.0" encoding="UTF-8"?><gpx creator="https://climbfinder.com" version="1.1"  xmlns:xsi="http://www.w3.org/2001/XMLSchema-instance"  xmlns="http://www.topografix.com/GPX/1/1" xsi:schemaLocation="http://www.topografix.com/GPX/1/1 http://www.topografix.com/GPX/1/1/gpx.xsd">
  <metadata>
    <name>col-de-la-griffoul-desde-lustrande</name>
    <author>
      <link href="https://climbfinder.com">
        <text>climbfinder</text>
        <type>text/html</type>
      </link>
    </author>
  </metadata>
  <trk>
    <name>col-de-la-griffoul-desde-lustrande</name>
    <trkseg>
			<trkpt lat="45.01088" lon="2.78107">
        <ele>935.2</ele>
        <time>2026-08-05T09:00:00Z</time>
      </trkpt>
			<trkpt lat="45.01091" lon="2.781">
        <ele>935.3</ele>
        <time>2026-08-05T09:00:01Z</time>
      </trkpt>
			<trkpt lat="45.01116" lon="2.78074">
        <ele>936</ele>
        <time>2026-08-05T09:00:07Z</time>
      </trkpt>
			<trkpt lat="45.01154" lon="2.78044">
        <ele>937.1</ele>
        <time>2026-08-05T09:00:15Z</time>
      </trkpt>
			<trkpt lat="45.01191" lon="2.78013">
        <ele>938.4</ele>
        <time>2026-08-05T09:00:24Z</time>
      </trkpt>
			<trkpt lat="45.01198" lon="2.77998">
        <ele>938.8</ele>
        <time>2026-08-05T09:00:27Z</time>
      </trkpt>
			<trkpt lat="45.01203" lon="2.77983">
        <ele>939.1</ele>
        <time>2026-08-05T09:00:29Z</time>
      </trkpt>
			<trkpt lat="45.01212" lon="2.77966">
        <ele>939.6</ele>
        <time>2026-08-05T09:00:33Z</time>
      </trkpt>
			<trkpt lat="45.01242" lon="2.77936">
        <ele>940.9</ele>
        <time>2026-08-05T09:00:41Z</time>
      </trkpt>
			<trkpt lat="45.01271" lon="2.77906">
        <ele>942.2</ele>
        <time>2026-08-05T09:00:49Z</time>
      </trkpt>
			<trkpt lat="45.01275" lon="2.77886">
        <ele>942.7</ele>
        <time>2026-08-05T09:00:52Z</time>
      </trkpt>
			<trkpt lat="45.01281" lon="2.77869">
        <ele>943.2</ele>
        <time>2026-08-05T09:00:55Z</time>
      </trkpt>
			<trkpt lat="45.01298" lon="2.77861">
        <ele>943.9</ele>
        <time>2026-08-05T09:01:00Z</time>
      </trkpt>
			<trkpt lat="45.01311" lon="2.77847">
        <ele>944.5</ele>
        <time>2026-08-05T09:01:03Z</time>
      </trkpt>
			<trkpt lat="45.01323" lon="2.77838">
        <ele>945</ele>
        <time>2026-08-05T09:01:06Z</time>
      </trkpt>
			<trkpt lat="45.01338" lon="2.77831">
        <ele>945.6</ele>
        <time>2026-08-05T09:01:10Z</time>
      </trkpt>
			<trkpt lat="45.0136" lon="2.77829">
        <ele>946.5</ele>
        <time>2026-08-05T09:01:15Z</time>
      </trkpt>
			<trkpt lat="45.01372" lon="2.77832">
        <ele>947</ele>
        <time>2026-08-05T09:01:18Z</time>
      </trkpt>
			<trkpt lat="45.01386" lon="2.77845">
        <ele>947.6</ele>
        <time>2026-08-05T09:01:22Z</time>
      </trkpt>
			<trkpt lat="45.01386" lon="2.77864">
        <ele>948.2</ele>
        <time>2026-08-05T09:01:25Z</time>
      </trkpt>
			<trkpt lat="45.0138" lon="2.77877">
        <ele>948.6</ele>
        <time>2026-08-05T09:01:28Z</time>
      </trkpt>
			<trkpt lat="45.01367" lon="2.77896">
        <ele>949.4</ele>
        <time>2026-08-05T09:01:33Z</time>
      </trkpt>
			<trkpt lat="45.01347" lon="2.77931">
        <ele>950.8</ele>
        <time>2026-08-05T09:01:41Z</time>
      </trkpt>
			<trkpt lat="45.01331" lon="2.77965">
        <ele>952.2</ele>
        <time>2026-08-05T09:01:48Z</time>
      </trkpt>
			<trkpt lat="45.01327" lon="2.77984">
        <ele>952.8</ele>
        <time>2026-08-05T09:01:51Z</time>
      </trkpt>
			<trkpt lat="45.01325" lon="2.78006">
        <ele>953.6</ele>
        <time>2026-08-05T09:01:56Z</time>
      </trkpt>
			<trkpt lat="45.01326" lon="2.78025">
        <ele>954.3</ele>
        <time>2026-08-05T09:02:00Z</time>
      </trkpt>
			<trkpt lat="45.01318" lon="2.78055">
        <ele>955.5</ele>
        <time>2026-08-05T09:02:06Z</time>
      </trkpt>
			<trkpt lat="45.01309" lon="2.78085">
        <ele>956.8</ele>
        <time>2026-08-05T09:02:13Z</time>
      </trkpt>
			<trkpt lat="45.013" lon="2.78115">
        <ele>958.1</ele>
        <time>2026-08-05T09:02:19Z</time>
      </trkpt>
			<trkpt lat="45.01287" lon="2.78168">
        <ele>960.4</ele>
        <time>2026-08-05T09:02:31Z</time>
      </trkpt>
			<trkpt lat="45.01274" lon="2.78221">
        <ele>962.8</ele>
        <time>2026-08-05T09:02:42Z</time>
      </trkpt>
			<trkpt lat="45.01264" lon="2.78268">
        <ele>964.7</ele>
        <time>2026-08-05T09:02:52Z</time>
      </trkpt>
			<trkpt lat="45.01253" lon="2.78314">
        <ele>966.6</ele>
        <time>2026-08-05T09:03:02Z</time>
      </trkpt>
			<trkpt lat="45.01241" lon="2.78348">
        <ele>968</ele>
        <time>2026-08-05T09:03:09Z</time>
      </trkpt>
			<trkpt lat="45.01237" lon="2.78374">
        <ele>969</ele>
        <time>2026-08-05T09:03:15Z</time>
      </trkpt>
			<trkpt lat="45.01235" lon="2.78393">
        <ele>969.6</ele>
        <time>2026-08-05T09:03:18Z</time>
      </trkpt>
			<trkpt lat="45.01229" lon="2.78444">
        <ele>971.5</ele>
        <time>2026-08-05T09:03:29Z</time>
      </trkpt>
			<trkpt lat="45.01222" lon="2.78494">
        <ele>973.3</ele>
        <time>2026-08-05T09:03:38Z</time>
      </trkpt>
			<trkpt lat="45.01221" lon="2.78515">
        <ele>974.1</ele>
        <time>2026-08-05T09:03:42Z</time>
      </trkpt>
			<trkpt lat="45.01225" lon="2.78552">
        <ele>975.6</ele>
        <time>2026-08-05T09:03:49Z</time>
      </trkpt>
			<trkpt lat="45.0121" lon="2.78587">
        <ele>977.4</ele>
        <time>2026-08-05T09:03:58Z</time>
      </trkpt>
			<trkpt lat="45.01195" lon="2.78622">
        <ele>979.3</ele>
        <time>2026-08-05T09:04:07Z</time>
      </trkpt>
			<trkpt lat="45.01177" lon="2.78658">
        <ele>981.6</ele>
        <time>2026-08-05T09:04:18Z</time>
      </trkpt>
			<trkpt lat="45.01151" lon="2.78703">
        <ele>985</ele>
        <time>2026-08-05T09:04:31Z</time>
      </trkpt>
			<trkpt lat="45.01124" lon="2.78747">
        <ele>988.6</ele>
        <time>2026-08-05T09:04:48Z</time>
      </trkpt>
			<trkpt lat="45.01102" lon="2.78787">
        <ele>991.9</ele>
        <time>2026-08-05T09:05:02Z</time>
      </trkpt>
			<trkpt lat="45.0109" lon="2.78815">
        <ele>994</ele>
        <time>2026-08-05T09:05:11Z</time>
      </trkpt>
			<trkpt lat="45.01075" lon="2.78864">
        <ele>997.4</ele>
        <time>2026-08-05T09:05:27Z</time>
      </trkpt>
			<trkpt lat="45.01059" lon="2.78913">
        <ele>1000.7</ele>
        <time>2026-08-05T09:05:42Z</time>
      </trkpt>
			<trkpt lat="45.01049" lon="2.78949">
        <ele>1002.9</ele>
        <time>2026-08-05T09:05:51Z</time>
      </trkpt>
			<trkpt lat="45.01038" lon="2.78984">
        <ele>1005</ele>
        <time>2026-08-05T09:06:00Z</time>
      </trkpt>
			<trkpt lat="45.01032" lon="2.79019">
        <ele>1006.8</ele>
        <time>2026-08-05T09:06:08Z</time>
      </trkpt>
			<trkpt lat="45.01024" lon="2.79054">
        <ele>1008.6</ele>
        <time>2026-08-05T09:06:16Z</time>
      </trkpt>
			<trkpt lat="45.01016" lon="2.79088">
        <ele>1010.3</ele>
        <time>2026-08-05T09:06:24Z</time>
      </trkpt>
			<trkpt lat="45.01007" lon="2.79126">
        <ele>1012.1</ele>
        <time>2026-08-05T09:06:32Z</time>
      </trkpt>
			<trkpt lat="45.00998" lon="2.79153">
        <ele>1013.4</ele>
        <time>2026-08-05T09:06:39Z</time>
      </trkpt>
			<trkpt lat="45.0099" lon="2.79184">
        <ele>1014.8</ele>
        <time>2026-08-05T09:06:46Z</time>
      </trkpt>
			<trkpt lat="45.00976" lon="2.79219">
        <ele>1016.6</ele>
        <time>2026-08-05T09:06:54Z</time>
      </trkpt>
			<trkpt lat="45.00963" lon="2.79261">
        <ele>1018.8</ele>
        <time>2026-08-05T09:07:04Z</time>
      </trkpt>
			<trkpt lat="45.00949" lon="2.79303">
        <ele>1021</ele>
        <time>2026-08-05T09:07:14Z</time>
      </trkpt>
			<trkpt lat="45.00938" lon="2.79347">
        <ele>1023.4</ele>
        <time>2026-08-05T09:07:25Z</time>
      </trkpt>
			<trkpt lat="45.00927" lon="2.7939">
        <ele>1026</ele>
        <time>2026-08-05T09:07:36Z</time>
      </trkpt>
			<trkpt lat="45.00917" lon="2.79443">
        <ele>1029.2</ele>
        <time>2026-08-05T09:07:49Z</time>
      </trkpt>
			<trkpt lat="45.00907" lon="2.79496">
        <ele>1032.5</ele>
        <time>2026-08-05T09:08:05Z</time>
      </trkpt>
			<trkpt lat="45.00901" lon="2.79519">
        <ele>1033.9</ele>
        <time>2026-08-05T09:08:10Z</time>
      </trkpt>
			<trkpt lat="45.00887" lon="2.7955">
        <ele>1036.1</ele>
        <time>2026-08-05T09:08:21Z</time>
      </trkpt>
			<trkpt lat="45.00874" lon="2.79582">
        <ele>1038.2</ele>
        <time>2026-08-05T09:08:30Z</time>
      </trkpt>
			<trkpt lat="45.00858" lon="2.79639">
        <ele>1041.7</ele>
        <time>2026-08-05T09:08:44Z</time>
      </trkpt>
			<trkpt lat="45.00851" lon="2.79671">
        <ele>1043.4</ele>
        <time>2026-08-05T09:08:51Z</time>
      </trkpt>
			<trkpt lat="45.00843" lon="2.79703">
        <ele>1045.2</ele>
        <time>2026-08-05T09:08:59Z</time>
      </trkpt>
			<trkpt lat="45.00839" lon="2.79724">
        <ele>1046.4</ele>
        <time>2026-08-05T09:09:04Z</time>
      </trkpt>
			<trkpt lat="45.00839" lon="2.79754">
        <ele>1047.9</ele>
        <time>2026-08-05T09:09:11Z</time>
      </trkpt>
			<trkpt lat="45.00838" lon="2.79778">
        <ele>1049.3</ele>
        <time>2026-08-05T09:09:17Z</time>
      </trkpt>
			<trkpt lat="45.00833" lon="2.79799">
        <ele>1050.6</ele>
        <time>2026-08-05T09:09:22Z</time>
      </trkpt>
			<trkpt lat="45.00829" lon="2.79824">
        <ele>1052.2</ele>
        <time>2026-08-05T09:09:29Z</time>
      </trkpt>
			<trkpt lat="45.00829" lon="2.79845">
        <ele>1053.5</ele>
        <time>2026-08-05T09:09:35Z</time>
      </trkpt>
			<trkpt lat="45.0083" lon="2.79867">
        <ele>1055.1</ele>
        <time>2026-08-05T09:09:42Z</time>
      </trkpt>
			<trkpt lat="45.00826" lon="2.79894">
        <ele>1057.1</ele>
        <time>2026-08-05T09:09:51Z</time>
      </trkpt>
			<trkpt lat="45.00821" lon="2.7995">
        <ele>1062.1</ele>
        <time>2026-08-05T09:10:11Z</time>
      </trkpt>
			<trkpt lat="45.00821" lon="2.79973">
        <ele>1064.4</ele>
        <time>2026-08-05T09:10:21Z</time>
      </trkpt>
			<trkpt lat="45.00824" lon="2.80004">
        <ele>1067.7</ele>
        <time>2026-08-05T09:10:36Z</time>
      </trkpt>
			<trkpt lat="45.00832" lon="2.80026">
        <ele>1070.6</ele>
        <time>2026-08-05T09:10:50Z</time>
      </trkpt>
			<trkpt lat="45.00855" lon="2.80072">
        <ele>1077.6</ele>
        <time>2026-08-05T09:11:22Z</time>
      </trkpt>
			<trkpt lat="45.00869" lon="2.80085">
        <ele>1080.7</ele>
        <time>2026-08-05T09:11:36Z</time>
      </trkpt>
			<trkpt lat="45.00882" lon="2.80091">
        <ele>1083.3</ele>
        <time>2026-08-05T09:11:46Z</time>
      </trkpt>
			<trkpt lat="45.00922" lon="2.80104">
        <ele>1090.9</ele>
        <time>2026-08-05T09:12:19Z</time>
      </trkpt>
			<trkpt lat="45.00942" lon="2.80117">
        <ele>1095.1</ele>
        <time>2026-08-05T09:12:37Z</time>
      </trkpt>
			<trkpt lat="45.00965" lon="2.80134">
        <ele>1099.5</ele>
        <time>2026-08-05T09:12:58Z</time>
      </trkpt>
			<trkpt lat="45.00987" lon="2.80152">
        <ele>1103.9</ele>
        <time>2026-08-05T09:13:18Z</time>
      </trkpt>
			<trkpt lat="45.01016" lon="2.80165">
        <ele>1108.6</ele>
        <time>2026-08-05T09:13:38Z</time>
      </trkpt>
			<trkpt lat="45.01043" lon="2.8018">
        <ele>1112.7</ele>
        <time>2026-08-05T09:13:58Z</time>
      </trkpt>
			<trkpt lat="45.01061" lon="2.80194">
        <ele>1115.4</ele>
        <time>2026-08-05T09:14:09Z</time>
      </trkpt>
			<trkpt lat="45.0107" lon="2.80207">
        <ele>1117</ele>
        <time>2026-08-05T09:14:16Z</time>
      </trkpt>
			<trkpt lat="45.01081" lon="2.80226">
        <ele>1119.2</ele>
        <time>2026-08-05T09:14:25Z</time>
      </trkpt>
			<trkpt lat="45.01095" lon="2.80236">
        <ele>1121</ele>
        <time>2026-08-05T09:14:32Z</time>
      </trkpt>
			<trkpt lat="45.01108" lon="2.8024">
        <ele>1122.5</ele>
        <time>2026-08-05T09:14:39Z</time>
      </trkpt>
			<trkpt lat="45.01124" lon="2.80234">
        <ele>1124.3</ele>
        <time>2026-08-05T09:14:47Z</time>
      </trkpt>
			<trkpt lat="45.01147" lon="2.80221">
        <ele>1127</ele>
        <time>2026-08-05T09:15:00Z</time>
      </trkpt>
			<trkpt lat="45.01169" lon="2.80207">
        <ele>1129.6</ele>
        <time>2026-08-05T09:15:12Z</time>
      </trkpt>
			<trkpt lat="45.01191" lon="2.80194">
        <ele>1131.9</ele>
        <time>2026-08-05T09:15:22Z</time>
      </trkpt>
			<trkpt lat="45.01212" lon="2.8018">
        <ele>1134.2</ele>
        <time>2026-08-05T09:15:33Z</time>
      </trkpt>
			<trkpt lat="45.01237" lon="2.80167">
        <ele>1136.5</ele>
        <time>2026-08-05T09:15:43Z</time>
      </trkpt>
			<trkpt lat="45.01262" lon="2.8016">
        <ele>1138.7</ele>
        <time>2026-08-05T09:15:54Z</time>
      </trkpt>
			<trkpt lat="45.01285" lon="2.8016">
        <ele>1140.5</ele>
        <time>2026-08-05T09:16:01Z</time>
      </trkpt>
			<trkpt lat="45.01307" lon="2.80161">
        <ele>1142.2</ele>
        <time>2026-08-05T09:16:09Z</time>
      </trkpt>
			<trkpt lat="45.0133" lon="2.80172">
        <ele>1143.9</ele>
        <time>2026-08-05T09:16:16Z</time>
      </trkpt>
			<trkpt lat="45.01354" lon="2.80187">
        <ele>1145.6</ele>
        <time>2026-08-05T09:16:24Z</time>
      </trkpt>
			<trkpt lat="45.01378" lon="2.80204">
        <ele>1147.3</ele>
        <time>2026-08-05T09:16:32Z</time>
      </trkpt>
			<trkpt lat="45.014" lon="2.80218">
        <ele>1148.8</ele>
        <time>2026-08-05T09:16:40Z</time>
      </trkpt>
			<trkpt lat="45.01427" lon="2.80224">
        <ele>1150.5</ele>
        <time>2026-08-05T09:16:48Z</time>
      </trkpt>
			<trkpt lat="45.01456" lon="2.8023">
        <ele>1152.4</ele>
        <time>2026-08-05T09:16:57Z</time>
      </trkpt>
			<trkpt lat="45.01473" lon="2.80235">
        <ele>1153.5</ele>
        <time>2026-08-05T09:17:03Z</time>
      </trkpt>
			<trkpt lat="45.01486" lon="2.80242">
        <ele>1154.4</ele>
        <time>2026-08-05T09:17:07Z</time>
      </trkpt>
			<trkpt lat="45.01515" lon="2.80264">
        <ele>1156.6</ele>
        <time>2026-08-05T09:17:17Z</time>
      </trkpt>
			<trkpt lat="45.01526" lon="2.80267">
        <ele>1157.3</ele>
        <time>2026-08-05T09:17:21Z</time>
      </trkpt>
			<trkpt lat="45.01537" lon="2.80266">
        <ele>1158.1</ele>
        <time>2026-08-05T09:17:24Z</time>
      </trkpt>
			<trkpt lat="45.0156" lon="2.80257">
        <ele>1159.5</ele>
        <time>2026-08-05T09:17:31Z</time>
      </trkpt>
			<trkpt lat="45.01586" lon="2.80251">
        <ele>1161.1</ele>
        <time>2026-08-05T09:17:39Z</time>
      </trkpt>
			<trkpt lat="45.01612" lon="2.80244">
        <ele>1162.5</ele>
        <time>2026-08-05T09:17:46Z</time>
      </trkpt>
			<trkpt lat="45.01641" lon="2.80239">
        <ele>1163.7</ele>
        <time>2026-08-05T09:17:53Z</time>
      </trkpt>
			<trkpt lat="45.01669" lon="2.80234">
        <ele>1164.6</ele>
        <time>2026-08-05T09:18:00Z</time>
      </trkpt>
			<trkpt lat="45.01691" lon="2.80229">
        <ele>1165.1</ele>
        <time>2026-08-05T09:18:04Z</time>
      </trkpt>
			<trkpt lat="45.01702" lon="2.80232">
        <ele>1165.2</ele>
        <time>2026-08-05T09:18:06Z</time>
      </trkpt>
			<trkpt lat="45.01711" lon="2.80239">
        <ele>1165.3</ele>
        <time>2026-08-05T09:18:08Z</time>
      </trkpt>
			<trkpt lat="45.01716" lon="2.80253">
        <ele>1165.4</ele>
        <time>2026-08-05T09:18:10Z</time>
      </trkpt>
			<trkpt lat="45.01716" lon="2.80272">
        <ele>1165.4</ele>
        <time>2026-08-05T09:18:12Z</time>
      </trkpt>
			<trkpt lat="45.01709" lon="2.80287">
        <ele>1165.3</ele>
        <time>2026-08-05T09:18:13Z</time>
      </trkpt>
			<trkpt lat="45.01692" lon="2.80308">
        <ele>1165.1</ele>
        <time>2026-08-05T09:18:15Z</time>
      </trkpt>
			<trkpt lat="45.01675" lon="2.80329">
        <ele>1164.7</ele>
        <time>2026-08-05T09:18:17Z</time>
      </trkpt>
			<trkpt lat="45.01646" lon="2.80356">
        <ele>1163.9</ele>
        <time>2026-08-05T09:18:21Z</time>
      </trkpt>
			<trkpt lat="45.01621" lon="2.80379">
        <ele>1163.2</ele>
        <time>2026-08-05T09:18:24Z</time>
      </trkpt>
			<trkpt lat="45.01583" lon="2.80407">
        <ele>1162.3</ele>
        <time>2026-08-05T09:18:28Z</time>
      </trkpt>
			<trkpt lat="45.0156" lon="2.8042">
        <ele>1162</ele>
        <time>2026-08-05T09:18:30Z</time>
      </trkpt>
			<trkpt lat="45.01537" lon="2.80432">
        <ele>1161.9</ele>
        <time>2026-08-05T09:18:34Z</time>
      </trkpt>
			<trkpt lat="45.01502" lon="2.80453">
        <ele>1162.2</ele>
        <time>2026-08-05T09:18:40Z</time>
      </trkpt>
			<trkpt lat="45.01478" lon="2.80472">
        <ele>1162.9</ele>
        <time>2026-08-05T09:18:46Z</time>
      </trkpt>
			<trkpt lat="45.01447" lon="2.80486">
        <ele>1164.3</ele>
        <time>2026-08-05T09:18:54Z</time>
      </trkpt>
			<trkpt lat="45.01417" lon="2.80498">
        <ele>1166.1</ele>
        <time>2026-08-05T09:19:03Z</time>
      </trkpt>
			<trkpt lat="45.01395" lon="2.80515">
        <ele>1168</ele>
        <time>2026-08-05T09:19:11Z</time>
      </trkpt>
			<trkpt lat="45.01372" lon="2.80531">
        <ele>1170.1</ele>
        <time>2026-08-05T09:19:20Z</time>
      </trkpt>
			<trkpt lat="45.0135" lon="2.80556">
        <ele>1172.9</ele>
        <time>2026-08-05T09:19:32Z</time>
      </trkpt>
			<trkpt lat="45.01328" lon="2.80592">
        <ele>1176.4</ele>
        <time>2026-08-05T09:19:47Z</time>
      </trkpt>
			<trkpt lat="45.01303" lon="2.80641">
        <ele>1181.3</ele>
        <time>2026-08-05T09:20:09Z</time>
      </trkpt>
			<trkpt lat="45.01287" lon="2.8068">
        <ele>1185</ele>
        <time>2026-08-05T09:20:24Z</time>
      </trkpt>
			<trkpt lat="45.01271" lon="2.80718">
        <ele>1188.6</ele>
        <time>2026-08-05T09:20:40Z</time>
      </trkpt>
			<trkpt lat="45.01259" lon="2.80759">
        <ele>1192.2</ele>
        <time>2026-08-05T09:20:56Z</time>
      </trkpt>
			<trkpt lat="45.01255" lon="2.80777">
        <ele>1193.7</ele>
        <time>2026-08-05T09:21:02Z</time>
      </trkpt>
			<trkpt lat="45.01255" lon="2.80794">
        <ele>1195</ele>
        <time>2026-08-05T09:21:08Z</time>
      </trkpt>
			<trkpt lat="45.01264" lon="2.80825">
        <ele>1197.4</ele>
        <time>2026-08-05T09:21:19Z</time>
      </trkpt>
			<trkpt lat="45.01279" lon="2.80857">
        <ele>1200.2</ele>
        <time>2026-08-05T09:21:31Z</time>
      </trkpt>
			<trkpt lat="45.0129" lon="2.80872">
        <ele>1201.7</ele>
        <time>2026-08-05T09:21:38Z</time>
      </trkpt>
			<trkpt lat="45.01323" lon="2.80893">
        <ele>1205.3</ele>
        <time>2026-08-05T09:21:54Z</time>
      </trkpt>
			<trkpt lat="45.01333" lon="2.80903">
        <ele>1206.4</ele>
        <time>2026-08-05T09:21:59Z</time>
      </trkpt>
			<trkpt lat="45.01353" lon="2.80931">
        <ele>1209</ele>
        <time>2026-08-05T09:22:10Z</time>
      </trkpt>
			<trkpt lat="45.01373" lon="2.8096">
        <ele>1211.6</ele>
        <time>2026-08-05T09:22:22Z</time>
      </trkpt>
			<trkpt lat="45.01379" lon="2.80973">
        <ele>1212.6</ele>
        <time>2026-08-05T09:22:26Z</time>
      </trkpt>
			<trkpt lat="45.01379" lon="2.81">
        <ele>1214.3</ele>
        <time>2026-08-05T09:22:34Z</time>
      </trkpt>
			<trkpt lat="45.01375" lon="2.81025">
        <ele>1216</ele>
        <time>2026-08-05T09:22:41Z</time>
      </trkpt>
			<trkpt lat="45.01371" lon="2.81054">
        <ele>1217.8</ele>
        <time>2026-08-05T09:22:49Z</time>
      </trkpt>
			<trkpt lat="45.01371" lon="2.81083">
        <ele>1219.7</ele>
        <time>2026-08-05T09:22:57Z</time>
      </trkpt>
			<trkpt lat="45.01374" lon="2.81142">
        <ele>1223.6</ele>
        <time>2026-08-05T09:23:14Z</time>
      </trkpt>
			<trkpt lat="45.01377" lon="2.81174">
        <ele>1225.8</ele>
        <time>2026-08-05T09:23:24Z</time>
      </trkpt>
			<trkpt lat="45.01379" lon="2.81207">
        <ele>1228.1</ele>
        <time>2026-08-05T09:23:35Z</time>
      </trkpt>
			<trkpt lat="45.01379" lon="2.81231">
        <ele>1229.8</ele>
        <time>2026-08-05T09:23:42Z</time>
      </trkpt>
			<trkpt lat="45.01375" lon="2.81249">
        <ele>1231.1</ele>
        <time>2026-08-05T09:23:48Z</time>
      </trkpt>
			<trkpt lat="45.01363" lon="2.81282">
        <ele>1233.7</ele>
        <time>2026-08-05T09:24:00Z</time>
      </trkpt>
			<trkpt lat="45.01351" lon="2.81315">
        <ele>1236.4</ele>
        <time>2026-08-05T09:24:12Z</time>
      </trkpt>
			<trkpt lat="45.01341" lon="2.81332">
        <ele>1237.9</ele>
        <time>2026-08-05T09:24:19Z</time>
      </trkpt>
			<trkpt lat="45.01328" lon="2.81335">
        <ele>1239.3</ele>
        <time>2026-08-05T09:24:25Z</time>
      </trkpt>
			<trkpt lat="45.01289" lon="2.81329">
        <ele>1243.4</ele>
        <time>2026-08-05T09:24:43Z</time>
      </trkpt>
			<trkpt lat="45.01255" lon="2.81331">
        <ele>1246.9</ele>
        <time>2026-08-05T09:24:58Z</time>
      </trkpt>
			<trkpt lat="45.01235" lon="2.81321">
        <ele>1249.1</ele>
        <time>2026-08-05T09:25:07Z</time>
      </trkpt>
			<trkpt lat="45.01219" lon="2.81307">
        <ele>1251.1</ele>
        <time>2026-08-05T09:25:17Z</time>
      </trkpt>
			<trkpt lat="45.01202" lon="2.81297">
        <ele>1252.9</ele>
        <time>2026-08-05T09:25:25Z</time>
      </trkpt>
			<trkpt lat="45.01193" lon="2.81296">
        <ele>1253.9</ele>
        <time>2026-08-05T09:25:29Z</time>
      </trkpt>
			<trkpt lat="45.01183" lon="2.81299">
        <ele>1254.9</ele>
        <time>2026-08-05T09:25:34Z</time>
      </trkpt>
			<trkpt lat="45.01152" lon="2.8132">
        <ele>1258.4</ele>
        <time>2026-08-05T09:25:49Z</time>
      </trkpt>
			<trkpt lat="45.01138" lon="2.81319">
        <ele>1259.8</ele>
        <time>2026-08-05T09:25:55Z</time>
      </trkpt>
			<trkpt lat="45.01101" lon="2.81303">
        <ele>1263.5</ele>
        <time>2026-08-05T09:26:13Z</time>
      </trkpt>
			<trkpt lat="45.0108" lon="2.81305">
        <ele>1265.4</ele>
        <time>2026-08-05T09:26:21Z</time>
      </trkpt>
			<trkpt lat="45.01061" lon="2.81322">
        <ele>1267.5</ele>
        <time>2026-08-05T09:26:30Z</time>
      </trkpt>
			<trkpt lat="45.01051" lon="2.81343">
        <ele>1269.1</ele>
        <time>2026-08-05T09:26:37Z</time>
      </trkpt>
			<trkpt lat="45.01049" lon="2.81363">
        <ele>1270.3</ele>
        <time>2026-08-05T09:26:43Z</time>
      </trkpt>
			<trkpt lat="45.01049" lon="2.81377">
        <ele>1271.2</ele>
        <time>2026-08-05T09:26:47Z</time>
      </trkpt>
			<trkpt lat="45.01053" lon="2.81393">
        <ele>1272.1</ele>
        <time>2026-08-05T09:26:51Z</time>
      </trkpt>
			<trkpt lat="45.01062" lon="2.81419">
        <ele>1273.8</ele>
        <time>2026-08-05T09:26:58Z</time>
      </trkpt>
			<trkpt lat="45.01065" lon="2.81441">
        <ele>1275.1</ele>
        <time>2026-08-05T09:27:03Z</time>
      </trkpt>
			<trkpt lat="45.01063" lon="2.8147">
        <ele>1276.7</ele>
        <time>2026-08-05T09:27:10Z</time>
      </trkpt>
			<trkpt lat="45.01069" lon="2.81494">
        <ele>1278.1</ele>
        <time>2026-08-05T09:27:16Z</time>
      </trkpt>
			<trkpt lat="45.01081" lon="2.81518">
        <ele>1279.7</ele>
        <time>2026-08-05T09:27:23Z</time>
      </trkpt>
			<trkpt lat="45.01106" lon="2.81545">
        <ele>1281.9</ele>
        <time>2026-08-05T09:27:32Z</time>
      </trkpt>
			<trkpt lat="45.01122" lon="2.8157">
        <ele>1283.6</ele>
        <time>2026-08-05T09:27:40Z</time>
      </trkpt>
			<trkpt lat="45.01137" lon="2.81596">
        <ele>1285.2</ele>
        <time>2026-08-05T09:27:47Z</time>
      </trkpt>
			<trkpt lat="45.01161" lon="2.81644">
        <ele>1288</ele>
        <time>2026-08-05T09:28:00Z</time>
      </trkpt>
			<trkpt lat="45.0117" lon="2.81664">
        <ele>1289.1</ele>
        <time>2026-08-05T09:28:05Z</time>
      </trkpt>
			<trkpt lat="45.01188" lon="2.81692">
        <ele>1290.8</ele>
        <time>2026-08-05T09:28:13Z</time>
      </trkpt>
			<trkpt lat="45.01205" lon="2.81704">
        <ele>1292.1</ele>
        <time>2026-08-05T09:28:19Z</time>
      </trkpt>
			<trkpt lat="45.01227" lon="2.81711">
        <ele>1293.6</ele>
        <time>2026-08-05T09:28:26Z</time>
      </trkpt>
			<trkpt lat="45.01257" lon="2.81717">
        <ele>1295.6</ele>
        <time>2026-08-05T09:28:35Z</time>
      </trkpt>
			<trkpt lat="45.01286" lon="2.81724">
        <ele>1297.8</ele>
        <time>2026-08-05T09:28:45Z</time>
      </trkpt>
			<trkpt lat="45.01317" lon="2.81727">
        <ele>1300</ele>
        <time>2026-08-05T09:28:55Z</time>
      </trkpt>
			<trkpt lat="45.01352" lon="2.81725">
        <ele>1302.6</ele>
        <time>2026-08-05T09:29:06Z</time>
      </trkpt>
			<trkpt lat="45.01386" lon="2.81724">
        <ele>1305.2</ele>
        <time>2026-08-05T09:29:18Z</time>
      </trkpt>
			<trkpt lat="45.01421" lon="2.81722">
        <ele>1307.7</ele>
        <time>2026-08-05T09:29:29Z</time>
      </trkpt>
			<trkpt lat="45.01461" lon="2.81725">
        <ele>1310.4</ele>
        <time>2026-08-05T09:29:41Z</time>
      </trkpt>
			<trkpt lat="45.01479" lon="2.81731">
        <ele>1311.7</ele>
        <time>2026-08-05T09:29:47Z</time>
      </trkpt>
			<trkpt lat="45.01502" lon="2.81736">
        <ele>1313.2</ele>
        <time>2026-08-05T09:29:54Z</time>
      </trkpt>
			<trkpt lat="45.01518" lon="2.81741">
        <ele>1314.1</ele>
        <time>2026-08-05T09:29:58Z</time>
      </trkpt>
			<trkpt lat="45.01532" lon="2.81751">
        <ele>1315</ele>
        <time>2026-08-05T09:30:03Z</time>
      </trkpt>
			<trkpt lat="45.01551" lon="2.81773">
        <ele>1316.5</ele>
        <time>2026-08-05T09:30:10Z</time>
      </trkpt>
			<trkpt lat="45.0157" lon="2.81796">
        <ele>1317.9</ele>
        <time>2026-08-05T09:30:17Z</time>
      </trkpt>
			<trkpt lat="45.01587" lon="2.8181">
        <ele>1319</ele>
        <time>2026-08-05T09:30:23Z</time>
      </trkpt>
			<trkpt lat="45.01606" lon="2.81814">
        <ele>1320</ele>
        <time>2026-08-05T09:30:28Z</time>
      </trkpt>
			<trkpt lat="45.01621" lon="2.81813">
        <ele>1320.8</ele>
        <time>2026-08-05T09:30:33Z</time>
      </trkpt>
			<trkpt lat="45.01662" lon="2.81799">
        <ele>1323.2</ele>
        <time>2026-08-05T09:30:45Z</time>
      </trkpt>
			<trkpt lat="45.01682" lon="2.81795">
        <ele>1324.3</ele>
        <time>2026-08-05T09:30:50Z</time>
      </trkpt>
			<trkpt lat="45.01725" lon="2.81794">
        <ele>1326.7</ele>
        <time>2026-08-05T09:31:03Z</time>
      </trkpt>
			<trkpt lat="45.01745" lon="2.81792">
        <ele>1327.8</ele>
        <time>2026-08-05T09:31:08Z</time>
      </trkpt>
			<trkpt lat="45.01781" lon="2.81781">
        <ele>1329.7</ele>
        <time>2026-08-05T09:31:19Z</time>
      </trkpt>
			<trkpt lat="45.01794" lon="2.81783">
        <ele>1330.4</ele>
        <time>2026-08-05T09:31:23Z</time>
      </trkpt>
			<trkpt lat="45.01826" lon="2.81795">
        <ele>1332</ele>
        <time>2026-08-05T09:31:31Z</time>
      </trkpt>
			<trkpt lat="45.01857" lon="2.81808">
        <ele>1333.3</ele>
        <time>2026-08-05T09:31:39Z</time>
      </trkpt>
			<trkpt lat="45.01878" lon="2.81814">
        <ele>1334.1</ele>
        <time>2026-08-05T09:31:44Z</time>
      </trkpt>
			<trkpt lat="45.01902" lon="2.81818">
        <ele>1335</ele>
        <time>2026-08-05T09:31:49Z</time>
      </trkpt>
			<trkpt lat="45.01926" lon="2.81822">
        <ele>1335.7</ele>
        <time>2026-08-05T09:31:55Z</time>
      </trkpt>
			<trkpt lat="45.01948" lon="2.81828">
        <ele>1336.3</ele>
        <time>2026-08-05T09:31:59Z</time>
      </trkpt>
			<trkpt lat="45.01974" lon="2.81841">
        <ele>1336.9</ele>
        <time>2026-08-05T09:32:04Z</time>
      </trkpt>
			<trkpt lat="45.02003" lon="2.81859">
        <ele>1337.7</ele>
        <time>2026-08-05T09:32:10Z</time>
      </trkpt>
			<trkpt lat="45.02026" lon="2.81878">
        <ele>1338.2</ele>
        <time>2026-08-05T09:32:15Z</time>
      </trkpt>
			<trkpt lat="45.02043" lon="2.81896">
        <ele>1338.7</ele>
        <time>2026-08-05T09:32:19Z</time>
      </trkpt>
			<trkpt lat="45.02055" lon="2.81906">
        <ele>1339</ele>
        <time>2026-08-05T09:32:22Z</time>
      </trkpt>
			<trkpt lat="45.02066" lon="2.81909">
        <ele>1339.3</ele>
        <time>2026-08-05T09:32:24Z</time>
      </trkpt>
			<trkpt lat="45.02078" lon="2.8191">
        <ele>1339.7</ele>
        <time>2026-08-05T09:32:27Z</time>
      </trkpt>
			<trkpt lat="45.02102" lon="2.8191">
        <ele>1340.4</ele>
        <time>2026-08-05T09:32:32Z</time>
      </trkpt>
			<trkpt lat="45.02117" lon="2.81912">
        <ele>1340.8</ele>
        <time>2026-08-05T09:32:35Z</time>
      </trkpt>
			<trkpt lat="45.02142" lon="2.81924">
        <ele>1341.7</ele>
        <time>2026-08-05T09:32:41Z</time>
      </trkpt>
			<trkpt lat="45.02166" lon="2.81937">
        <ele>1342.8</ele>
        <time>2026-08-05T09:32:47Z</time>
      </trkpt>
			<trkpt lat="45.02198" lon="2.81948">
        <ele>1344.3</ele>
        <time>2026-08-05T09:32:55Z</time>
      </trkpt>
			<trkpt lat="45.0223" lon="2.81958">
        <ele>1346</ele>
        <time>2026-08-05T09:33:05Z</time>
      </trkpt>
			<trkpt lat="45.02262" lon="2.81969">
        <ele>1347.8</ele>
        <time>2026-08-05T09:33:14Z</time>
      </trkpt>
			<trkpt lat="45.02299" lon="2.81984">
        <ele>1350</ele>
        <time>2026-08-05T09:33:25Z</time>
      </trkpt>
			<trkpt lat="45.02314" lon="2.81986">
        <ele>1350.8</ele>
        <time>2026-08-05T09:33:30Z</time>
      </trkpt>
			<trkpt lat="45.02335" lon="2.81984">
        <ele>1352</ele>
        <time>2026-08-05T09:33:36Z</time>
      </trkpt>
			<trkpt lat="45.02363" lon="2.81978">
        <ele>1353.4</ele>
        <time>2026-08-05T09:33:43Z</time>
      </trkpt>
			<trkpt lat="45.0239" lon="2.81972">
        <ele>1354.8</ele>
        <time>2026-08-05T09:33:50Z</time>
      </trkpt>
			<trkpt lat="45.02432" lon="2.8196">
        <ele>1356.6</ele>
        <time>2026-08-05T09:34:01Z</time>
      </trkpt>
			<trkpt lat="45.0245" lon="2.8196">
        <ele>1357.3</ele>
        <time>2026-08-05T09:34:05Z</time>
      </trkpt>
			<trkpt lat="45.02467" lon="2.81965">
        <ele>1357.9</ele>
        <time>2026-08-05T09:34:09Z</time>
      </trkpt>
			<trkpt lat="45.02483" lon="2.81975">
        <ele>1358.5</ele>
        <time>2026-08-05T09:34:13Z</time>
      </trkpt>
			<trkpt lat="45.02497" lon="2.81992">
        <ele>1359.1</ele>
        <time>2026-08-05T09:34:17Z</time>
      </trkpt>
			<trkpt lat="45.02518" lon="2.82029">
        <ele>1360</ele>
        <time>2026-08-05T09:34:23Z</time>
      </trkpt>
			<trkpt lat="45.02538" lon="2.82067">
        <ele>1360.8</ele>
        <time>2026-08-05T09:34:30Z</time>
      </trkpt>
			<trkpt lat="45.02559" lon="2.82104">
        <ele>1361.5</ele>
        <time>2026-08-05T09:34:36Z</time>
      </trkpt>
			<trkpt lat="45.02585" lon="2.82133">
        <ele>1362.2</ele>
        <time>2026-08-05T09:34:43Z</time>
      </trkpt>
		</trkseg>
	</trk>
</gpx>
