<?xml version="1.0" encoding="UTF-8"?>
<gpx creator="Wikiloc - https://www.wikiloc.com" version="1.1" xmlns="http://www.topografix.com/GPX/1/1" xmlns:xsi="http://www.w3.org/2001/XMLSchema-instance" xsi:schemaLocation="http://www.topografix.com/GPX/1/1 http://www.topografix.com/GPX/1/1/gpx.xsd">
  <metadata>
    <name>Wikiloc - Col Marie Blanque 1.035m , Escot , Pyrenees</name>
    <link href="https://www.wikiloc.com/cycling-trails/col-marie-blanque-1-035m-escot-pyrenees-191014072">
      <text>Col Marie Blanque 1.035m , Escot , Pyrenees - Wikiloc on Wikiloc</text>
    </link>
    <time>2024-06-24T07:20:36Z</time>
  </metadata>
  <trk>
    <name>Col Marie Blanque 1.035m , Escot , Pyrenees - Wikiloc</name>
    <cmt></cmt>
    <desc></desc>
    <trkseg>
      <trkpt lat="43.076687" lon="-0.606068">
        <ele>336.858</ele>
        <time>2024-06-24T06:31:41Z</time>
      </trkpt>
      <trkpt lat="43.076803" lon="-0.605827">
        <ele>338.052</ele>
        <time>2024-06-24T06:31:50Z</time>
      </trkpt>
      <trkpt lat="43.076909" lon="-0.605214">
        <ele>339.417</ele>
        <time>2024-06-24T06:32:07Z</time>
      </trkpt>
      <trkpt lat="43.076851" lon="-0.604136">
        <ele>340.409</ele>
        <time>2024-06-24T06:32:26Z</time>
      </trkpt>
      <trkpt lat="43.076919" lon="-0.603113">
        <ele>341.086</ele>
        <time>2024-06-24T06:32:42Z</time>
      </trkpt>
      <trkpt lat="43.076883" lon="-0.602513">
        <ele>341.064</ele>
        <time>2024-06-24T06:32:51Z</time>
      </trkpt>
      <trkpt lat="43.077031" lon="-0.600935">
        <ele>340.346</ele>
        <time>2024-06-24T06:33:11Z</time>
      </trkpt>
      <trkpt lat="43.076954" lon="-0.600106">
        <ele>341.965</ele>
        <time>2024-06-24T06:33:22Z</time>
      </trkpt>
      <trkpt lat="43.077202" lon="-0.598611">
        <ele>345.466</ele>
        <time>2024-06-24T06:33:44Z</time>
      </trkpt>
      <trkpt lat="43.077214" lon="-0.597314">
        <ele>348.619</ele>
        <time>2024-06-24T06:34:04Z</time>
      </trkpt>
      <trkpt lat="43.077326" lon="-0.596930">
        <ele>350.055</ele>
        <time>2024-06-24T06:34:11Z</time>
      </trkpt>
      <trkpt lat="43.077683" lon="-0.596387">
        <ele>351.492</ele>
        <time>2024-06-24T06:34:23Z</time>
      </trkpt>
      <trkpt lat="43.077881" lon="-0.595881">
        <ele>352.197</ele>
        <time>2024-06-24T06:34:32Z</time>
      </trkpt>
      <trkpt lat="43.077897" lon="-0.594566">
        <ele>356.445</ele>
        <time>2024-06-24T06:34:54Z</time>
      </trkpt>
      <trkpt lat="43.078256" lon="-0.593499">
        <ele>362.447</ele>
        <time>2024-06-24T06:35:16Z</time>
      </trkpt>
      <trkpt lat="43.078364" lon="-0.592912">
        <ele>364.711</ele>
        <time>2024-06-24T06:35:27Z</time>
      </trkpt>
      <trkpt lat="43.078500" lon="-0.590966">
        <ele>367.009</ele>
        <time>2024-06-24T06:36:00Z</time>
      </trkpt>
      <trkpt lat="43.078428" lon="-0.590109">
        <ele>367.865</ele>
        <time>2024-06-24T06:36:13Z</time>
      </trkpt>
      <trkpt lat="43.078489" lon="-0.588438">
        <ele>374.763</ele>
        <time>2024-06-24T06:36:43Z</time>
      </trkpt>
      <trkpt lat="43.078887" lon="-0.586939">
        <ele>381.365</ele>
        <time>2024-06-24T06:37:13Z</time>
      </trkpt>
      <trkpt lat="43.078976" lon="-0.586268">
        <ele>382.874</ele>
        <time>2024-06-24T06:37:26Z</time>
      </trkpt>
      <trkpt lat="43.078964" lon="-0.585164">
        <ele>385.315</ele>
        <time>2024-06-24T06:37:45Z</time>
      </trkpt>
      <trkpt lat="43.078669" lon="-0.583812">
        <ele>388.998</ele>
        <time>2024-06-24T06:38:09Z</time>
      </trkpt>
      <trkpt lat="43.078618" lon="-0.582400">
        <ele>394.014</ele>
        <time>2024-06-24T06:38:35Z</time>
      </trkpt>
      <trkpt lat="43.078802" lon="-0.581767">
        <ele>396.221</ele>
        <time>2024-06-24T06:38:47Z</time>
      </trkpt>
      <trkpt lat="43.078847" lon="-0.581026">
        <ele>398.936</ele>
        <time>2024-06-24T06:39:01Z</time>
      </trkpt>
      <trkpt lat="43.079065" lon="-0.580003">
        <ele>403.518</ele>
        <time>2024-06-24T06:39:21Z</time>
      </trkpt>
      <trkpt lat="43.079093" lon="-0.579241">
        <ele>406.398</ele>
        <time>2024-06-24T06:39:36Z</time>
      </trkpt>
      <trkpt lat="43.079372" lon="-0.578627">
        <ele>409.917</ele>
        <time>2024-06-24T06:39:50Z</time>
      </trkpt>
      <trkpt lat="43.079666" lon="-0.578166">
        <ele>413.009</ele>
        <time>2024-06-24T06:40:03Z</time>
      </trkpt>
      <trkpt lat="43.079862" lon="-0.578078">
        <ele>414.682</ele>
        <time>2024-06-24T06:40:09Z</time>
      </trkpt>
      <trkpt lat="43.079998" lon="-0.578219">
        <ele>415.880</ele>
        <time>2024-06-24T06:40:14Z</time>
      </trkpt>
      <trkpt lat="43.080188" lon="-0.578760">
        <ele>418.372</ele>
        <time>2024-06-24T06:40:28Z</time>
      </trkpt>
      <trkpt lat="43.080301" lon="-0.578852">
        <ele>419.081</ele>
        <time>2024-06-24T06:40:33Z</time>
      </trkpt>
      <trkpt lat="43.080628" lon="-0.578870">
        <ele>420.752</ele>
        <time>2024-06-24T06:40:44Z</time>
      </trkpt>
      <trkpt lat="43.080831" lon="-0.578656">
        <ele>422.145</ele>
        <time>2024-06-24T06:40:52Z</time>
      </trkpt>
      <trkpt lat="43.080870" lon="-0.578508">
        <ele>422.771</ele>
        <time>2024-06-24T06:40:57Z</time>
      </trkpt>
      <trkpt lat="43.081066" lon="-0.577062">
        <ele>428.078</ele>
        <time>2024-06-24T06:41:29Z</time>
      </trkpt>
      <trkpt lat="43.080830" lon="-0.576245">
        <ele>431.423</ele>
        <time>2024-06-24T06:41:49Z</time>
      </trkpt>
      <trkpt lat="43.080562" lon="-0.575700">
        <ele>435.955</ele>
        <time>2024-06-24T06:42:05Z</time>
      </trkpt>
      <trkpt lat="43.080541" lon="-0.575166">
        <ele>439.207</ele>
        <time>2024-06-24T06:42:17Z</time>
      </trkpt>
      <trkpt lat="43.080687" lon="-0.574371">
        <ele>442.417</ele>
        <time>2024-06-24T06:42:35Z</time>
      </trkpt>
      <trkpt lat="43.081154" lon="-0.573223">
        <ele>450.109</ele>
        <time>2024-06-24T06:43:01Z</time>
      </trkpt>
      <trkpt lat="43.081187" lon="-0.572377">
        <ele>455.246</ele>
        <time>2024-06-24T06:43:19Z</time>
      </trkpt>
      <trkpt lat="43.081058" lon="-0.571628">
        <ele>457.394</ele>
        <time>2024-06-24T06:43:37Z</time>
      </trkpt>
      <trkpt lat="43.080652" lon="-0.570901">
        <ele>462.446</ele>
        <time>2024-06-24T06:43:57Z</time>
      </trkpt>
      <trkpt lat="43.080537" lon="-0.570439">
        <ele>464.785</ele>
        <time>2024-06-24T06:44:07Z</time>
      </trkpt>
      <trkpt lat="43.080537" lon="-0.569224">
        <ele>469.246</ele>
        <time>2024-06-24T06:44:32Z</time>
      </trkpt>
      <trkpt lat="43.080117" lon="-0.567453">
        <ele>479.629</ele>
        <time>2024-06-24T06:45:17Z</time>
      </trkpt>
      <trkpt lat="43.080283" lon="-0.565967">
        <ele>484.375</ele>
        <time>2024-06-24T06:45:48Z</time>
      </trkpt>
      <trkpt lat="43.079961" lon="-0.563929">
        <ele>488.542</ele>
        <time>2024-06-24T06:46:24Z</time>
      </trkpt>
      <trkpt lat="43.079869" lon="-0.563712">
        <ele>489.697</ele>
        <time>2024-06-24T06:46:29Z</time>
      </trkpt>
      <trkpt lat="43.079638" lon="-0.563494">
        <ele>490.584</ele>
        <time>2024-06-24T06:46:37Z</time>
      </trkpt>
      <trkpt lat="43.078801" lon="-0.563370">
        <ele>495.907</ele>
        <time>2024-06-24T06:47:00Z</time>
      </trkpt>
      <trkpt lat="43.078270" lon="-0.562778">
        <ele>500.117</ele>
        <time>2024-06-24T06:47:20Z</time>
      </trkpt>
      <trkpt lat="43.077999" lon="-0.560823">
        <ele>507.809</ele>
        <time>2024-06-24T06:48:08Z</time>
      </trkpt>
      <trkpt lat="43.077804" lon="-0.560304">
        <ele>509.719</ele>
        <time>2024-06-24T06:48:16Z</time>
      </trkpt>
      <trkpt lat="43.077361" lon="-0.559591">
        <ele>512.897</ele>
        <time>2024-06-24T06:48:33Z</time>
      </trkpt>
      <trkpt lat="43.076927" lon="-0.558053">
        <ele>522.289</ele>
        <time>2024-06-24T06:49:08Z</time>
      </trkpt>
      <trkpt lat="43.076852" lon="-0.556980">
        <ele>527.538</ele>
        <time>2024-06-24T06:49:34Z</time>
      </trkpt>
      <trkpt lat="43.076263" lon="-0.554213">
        <ele>542.979</ele>
        <time>2024-06-24T06:50:46Z</time>
      </trkpt>
      <trkpt lat="43.076108" lon="-0.553835">
        <ele>545.622</ele>
        <time>2024-06-24T06:50:57Z</time>
      </trkpt>
      <trkpt lat="43.075639" lon="-0.553112">
        <ele>551.838</ele>
        <time>2024-06-24T06:51:22Z</time>
      </trkpt>
      <trkpt lat="43.075322" lon="-0.552213">
        <ele>556.755</ele>
        <time>2024-06-24T06:51:46Z</time>
      </trkpt>
      <trkpt lat="43.075322" lon="-0.551114">
        <ele>563.080</ele>
        <time>2024-06-24T06:52:13Z</time>
      </trkpt>
      <trkpt lat="43.074872" lon="-0.546636">
        <ele>601.495</ele>
        <time>2024-06-24T06:54:21Z</time>
      </trkpt>
      <trkpt lat="43.074592" lon="-0.545286">
        <ele>614.249</ele>
        <time>2024-06-24T06:55:08Z</time>
      </trkpt>
      <trkpt lat="43.074714" lon="-0.544242">
        <ele>624.623</ele>
        <time>2024-06-24T06:55:43Z</time>
      </trkpt>
      <trkpt lat="43.074483" lon="-0.542927">
        <ele>637.309</ele>
        <time>2024-06-24T06:56:25Z</time>
      </trkpt>
      <trkpt lat="43.074568" lon="-0.541807">
        <ele>646.710</ele>
        <time>2024-06-24T06:57:02Z</time>
      </trkpt>
      <trkpt lat="43.074283" lon="-0.540814">
        <ele>657.088</ele>
        <time>2024-06-24T06:57:37Z</time>
      </trkpt>
      <trkpt lat="43.073515" lon="-0.539332">
        <ele>672.420</ele>
        <time>2024-06-24T06:58:31Z</time>
      </trkpt>
      <trkpt lat="43.073559" lon="-0.539398">
        <ele>673.159</ele>
        <time>2024-06-24T06:58:32Z</time>
      </trkpt>
      <trkpt lat="43.073385" lon="-0.538953">
        <ele>678.250</ele>
        <time>2024-06-24T06:58:46Z</time>
      </trkpt>
      <trkpt lat="43.073197" lon="-0.537835">
        <ele>689.343</ele>
        <time>2024-06-24T06:59:23Z</time>
      </trkpt>
      <trkpt lat="43.073193" lon="-0.537303">
        <ele>693.859</ele>
        <time>2024-06-24T06:59:41Z</time>
      </trkpt>
      <trkpt lat="43.073353" lon="-0.536029">
        <ele>705.796</ele>
        <time>2024-06-24T07:00:22Z</time>
      </trkpt>
      <trkpt lat="43.073309" lon="-0.535242">
        <ele>713.791</ele>
        <time>2024-06-24T07:00:46Z</time>
      </trkpt>
      <trkpt lat="43.073232" lon="-0.534748">
        <ele>718.449</ele>
        <time>2024-06-24T07:01:02Z</time>
      </trkpt>
      <trkpt lat="43.072925" lon="-0.533939">
        <ele>726.502</ele>
        <time>2024-06-24T07:01:33Z</time>
      </trkpt>
      <trkpt lat="43.072815" lon="-0.532929">
        <ele>737.222</ele>
        <time>2024-06-24T07:02:08Z</time>
      </trkpt>
      <trkpt lat="43.072934" lon="-0.532357">
        <ele>743.009</ele>
        <time>2024-06-24T07:02:27Z</time>
      </trkpt>
      <trkpt lat="43.073372" lon="-0.531479">
        <ele>753.015</ele>
        <time>2024-06-24T07:03:04Z</time>
      </trkpt>
      <trkpt lat="43.073441" lon="-0.530779">
        <ele>759.373</ele>
        <time>2024-06-24T07:03:29Z</time>
      </trkpt>
      <trkpt lat="43.073404" lon="-0.530358">
        <ele>763.485</ele>
        <time>2024-06-24T07:03:44Z</time>
      </trkpt>
      <trkpt lat="43.072578" lon="-0.529248">
        <ele>777.914</ele>
        <time>2024-06-24T07:04:38Z</time>
      </trkpt>
      <trkpt lat="43.072221" lon="-0.528298">
        <ele>789.345</ele>
        <time>2024-06-24T07:05:15Z</time>
      </trkpt>
      <trkpt lat="43.071924" lon="-0.528086">
        <ele>794.528</ele>
        <time>2024-06-24T07:05:33Z</time>
      </trkpt>
      <trkpt lat="43.071638" lon="-0.528053">
        <ele>798.744</ele>
        <time>2024-06-24T07:05:48Z</time>
      </trkpt>
      <trkpt lat="43.071542" lon="-0.527858">
        <ele>800.921</ele>
        <time>2024-06-24T07:05:55Z</time>
      </trkpt>
      <trkpt lat="43.071218" lon="-0.526437">
        <ele>814.856</ele>
        <time>2024-06-24T07:06:47Z</time>
      </trkpt>
      <trkpt lat="43.070296" lon="-0.523565">
        <ele>845.257</ele>
        <time>2024-06-24T07:08:39Z</time>
      </trkpt>
      <trkpt lat="43.070063" lon="-0.522572">
        <ele>855.900</ele>
        <time>2024-06-24T07:09:17Z</time>
      </trkpt>
      <trkpt lat="43.070044" lon="-0.522097">
        <ele>860.720</ele>
        <time>2024-06-24T07:09:34Z</time>
      </trkpt>
      <trkpt lat="43.069967" lon="-0.521919">
        <ele>862.709</ele>
        <time>2024-06-24T07:09:41Z</time>
      </trkpt>
      <trkpt lat="43.070093" lon="-0.520354">
        <ele>877.266</ele>
        <time>2024-06-24T07:10:34Z</time>
      </trkpt>
      <trkpt lat="43.069999" lon="-0.519643">
        <ele>884.864</ele>
        <time>2024-06-24T07:10:58Z</time>
      </trkpt>
      <trkpt lat="43.070142" lon="-0.518749">
        <ele>893.576</ele>
        <time>2024-06-24T07:11:29Z</time>
      </trkpt>
      <trkpt lat="43.070403" lon="-0.517993">
        <ele>901.375</ele>
        <time>2024-06-24T07:11:58Z</time>
      </trkpt>
      <trkpt lat="43.070481" lon="-0.517387">
        <ele>907.046</ele>
        <time>2024-06-24T07:12:18Z</time>
      </trkpt>
      <trkpt lat="43.070521" lon="-0.516618">
        <ele>915.259</ele>
        <time>2024-06-24T07:12:47Z</time>
      </trkpt>
      <trkpt lat="43.070443" lon="-0.516069">
        <ele>920.895</ele>
        <time>2024-06-24T07:13:05Z</time>
      </trkpt>
      <trkpt lat="43.070564" lon="-0.515321">
        <ele>927.662</ele>
        <time>2024-06-24T07:13:32Z</time>
      </trkpt>
      <trkpt lat="43.070565" lon="-0.514473">
        <ele>935.827</ele>
        <time>2024-06-24T07:14:02Z</time>
      </trkpt>
      <trkpt lat="43.070742" lon="-0.513529">
        <ele>945.721</ele>
        <time>2024-06-24T07:14:35Z</time>
      </trkpt>
      <trkpt lat="43.070735" lon="-0.513091">
        <ele>950.041</ele>
        <time>2024-06-24T07:14:49Z</time>
      </trkpt>
      <trkpt lat="43.070539" lon="-0.512587">
        <ele>955.905</ele>
        <time>2024-06-24T07:15:08Z</time>
      </trkpt>
      <trkpt lat="43.070367" lon="-0.512339">
        <ele>959.709</ele>
        <time>2024-06-24T07:15:21Z</time>
      </trkpt>
      <trkpt lat="43.070293" lon="-0.511566">
        <ele>968.073</ele>
        <time>2024-06-24T07:15:50Z</time>
      </trkpt>
      <trkpt lat="43.069986" lon="-0.510795">
        <ele>975.831</ele>
        <time>2024-06-24T07:16:19Z</time>
      </trkpt>
      <trkpt lat="43.069442" lon="-0.510372">
        <ele>984.443</ele>
        <time>2024-06-24T07:16:47Z</time>
      </trkpt>
      <trkpt lat="43.068700" lon="-0.510074">
        <ele>996.372</ele>
        <time>2024-06-24T07:17:26Z</time>
      </trkpt>
      <trkpt lat="43.068548" lon="-0.509931">
        <ele>999.483</ele>
        <time>2024-06-24T07:17:39Z</time>
      </trkpt>
      <trkpt lat="43.068564" lon="-0.509743">
        <ele>1001.246</ele>
        <time>2024-06-24T07:18:13Z</time>
      </trkpt>
      <trkpt lat="43.069062" lon="-0.509453">
        <ele>1007.942</ele>
        <time>2024-06-24T07:18:40Z</time>
      </trkpt>
      <trkpt lat="43.069461" lon="-0.509118">
        <ele>1014.449</ele>
        <time>2024-06-24T07:18:58Z</time>
      </trkpt>
      <trkpt lat="43.070258" lon="-0.508178">
        <ele>1027.284</ele>
        <time>2024-06-24T07:19:43Z</time>
      </trkpt>
      <trkpt lat="43.070447" lon="-0.507805">
        <ele>1031.398</ele>
        <time>2024-06-24T07:19:59Z</time>
      </trkpt>
      <trkpt lat="43.070408" lon="-0.507177">
        <ele>1032.615</ele>
        <time>2024-06-24T07:20:23Z</time>
      </trkpt>
      <trkpt lat="43.070451" lon="-0.507203">
        <ele>1032.326</ele>
        <time>2024-06-24T07:20:36Z</time>
      </trkpt>
    </trkseg>
  </trk></gpx>