<?xml version="1.0" encoding="UTF-8"?>
<gpx creator="Wikiloc - https://www.wikiloc.com" version="1.1" xmlns="http://www.topografix.com/GPX/1/1" xmlns:xsi="http://www.w3.org/2001/XMLSchema-instance" xsi:schemaLocation="http://www.topografix.com/GPX/1/1 http://www.topografix.com/GPX/1/1/gpx.xsd">
  <metadata>
    <name>Wikiloc - COL DE LA CORE (por Audressein)</name>
    <link href="https://www.wikiloc.com/cycling-trails/col-de-la-core-por-audressein-251772958">
      <text>COL DE LA CORE (por Audressein) - Wikiloc on Wikiloc</text>
    </link>
    <time>2026-07-16T09:52:27.929Z</time>
  </metadata>
  <trk>
    <name>COL DE LA CORE (por Audressein) - Wikiloc</name>
    <cmt></cmt>
    <desc></desc>
    <trkseg>
      <trkpt lat="42.905910" lon="1.028330">
        <ele>556.139</ele>
        <time>2026-07-16T09:52:27.927Z</time>
      </trkpt>
      <trkpt lat="42.905690" lon="1.028250">
        <ele>553.701</ele>
        <time>2026-07-16T09:52:47.927Z</time>
      </trkpt>
      <trkpt lat="42.905410" lon="1.028320">
        <ele>552.221</ele>
        <time>2026-07-16T09:53:07.927Z</time>
      </trkpt>
      <trkpt lat="42.905130" lon="1.028490">
        <ele>551.409</ele>
        <time>2026-07-16T09:53:27.927Z</time>
      </trkpt>
      <trkpt lat="42.904880" lon="1.028690">
        <ele>551.625</ele>
        <time>2026-07-16T09:53:47.927Z</time>
      </trkpt>
      <trkpt lat="42.904510" lon="1.029090">
        <ele>555.138</ele>
        <time>2026-07-16T09:54:07.927Z</time>
      </trkpt>
      <trkpt lat="42.904160" lon="1.029380">
        <ele>557.874</ele>
        <time>2026-07-16T09:54:27.927Z</time>
      </trkpt>
      <trkpt lat="42.903930" lon="1.029440">
        <ele>558.970</ele>
        <time>2026-07-16T09:54:47.927Z</time>
      </trkpt>
      <trkpt lat="42.903460" lon="1.029440">
        <ele>558.970</ele>
        <time>2026-07-16T09:55:07.927Z</time>
      </trkpt>
      <trkpt lat="42.903110" lon="1.029400">
        <ele>558.925</ele>
        <time>2026-07-16T09:55:27.927Z</time>
      </trkpt>
      <trkpt lat="42.903020" lon="1.029570">
        <ele>561.532</ele>
        <time>2026-07-16T09:55:47.927Z</time>
      </trkpt>
      <trkpt lat="42.902790" lon="1.029790">
        <ele>565.948</ele>
        <time>2026-07-16T09:56:07.927Z</time>
      </trkpt>
      <trkpt lat="42.902100" lon="1.030010">
        <ele>575.011</ele>
        <time>2026-07-16T09:56:27.927Z</time>
      </trkpt>
      <trkpt lat="42.901890" lon="1.030150">
        <ele>577.234</ele>
        <time>2026-07-16T09:56:47.927Z</time>
      </trkpt>
      <trkpt lat="42.901620" lon="1.030530">
        <ele>578.955</ele>
        <time>2026-07-16T09:57:07.927Z</time>
      </trkpt>
      <trkpt lat="42.901510" lon="1.030820">
        <ele>579.110</ele>
        <time>2026-07-16T09:57:27.927Z</time>
      </trkpt>
      <trkpt lat="42.901490" lon="1.032150">
        <ele>586.409</ele>
        <time>2026-07-16T09:57:47.927Z</time>
      </trkpt>
      <trkpt lat="42.901450" lon="1.032450">
        <ele>587.675</ele>
        <time>2026-07-16T09:58:07.927Z</time>
      </trkpt>
      <trkpt lat="42.901380" lon="1.032520">
        <ele>586.428</ele>
        <time>2026-07-16T09:58:27.927Z</time>
      </trkpt>
      <trkpt lat="42.901300" lon="1.032550">
        <ele>589.634</ele>
        <time>2026-07-16T09:58:47.927Z</time>
      </trkpt>
      <trkpt lat="42.901260" lon="1.032530">
        <ele>590.930</ele>
        <time>2026-07-16T09:59:07.927Z</time>
      </trkpt>
      <trkpt lat="42.901100" lon="1.032170">
        <ele>590.350</ele>
        <time>2026-07-16T09:59:27.927Z</time>
      </trkpt>
      <trkpt lat="42.900990" lon="1.031750">
        <ele>589.315</ele>
        <time>2026-07-16T09:59:47.927Z</time>
      </trkpt>
      <trkpt lat="42.900900" lon="1.031530">
        <ele>590.412</ele>
        <time>2026-07-16T10:00:07.927Z</time>
      </trkpt>
      <trkpt lat="42.900510" lon="1.031380">
        <ele>597.788</ele>
        <time>2026-07-16T10:00:27.927Z</time>
      </trkpt>
      <trkpt lat="42.900200" lon="1.031200">
        <ele>598.171</ele>
        <time>2026-07-16T10:00:47.927Z</time>
      </trkpt>
      <trkpt lat="42.899980" lon="1.031040">
        <ele>598.888</ele>
        <time>2026-07-16T10:01:07.927Z</time>
      </trkpt>
      <trkpt lat="42.899570" lon="1.030660">
        <ele>602.824</ele>
        <time>2026-07-16T10:01:27.927Z</time>
      </trkpt>
      <trkpt lat="42.899400" lon="1.030620">
        <ele>605.826</ele>
        <time>2026-07-16T10:01:47.927Z</time>
      </trkpt>
      <trkpt lat="42.899330" lon="1.030680">
        <ele>606.409</ele>
        <time>2026-07-16T10:02:07.927Z</time>
      </trkpt>
      <trkpt lat="42.899270" lon="1.030830">
        <ele>608.320</ele>
        <time>2026-07-16T10:02:27.927Z</time>
      </trkpt>
      <trkpt lat="42.899230" lon="1.031590">
        <ele>616.873</ele>
        <time>2026-07-16T10:02:47.927Z</time>
      </trkpt>
      <trkpt lat="42.898960" lon="1.032680">
        <ele>624.929</ele>
        <time>2026-07-16T10:03:07.927Z</time>
      </trkpt>
      <trkpt lat="42.898710" lon="1.033860">
        <ele>634.745</ele>
        <time>2026-07-16T10:03:27.927Z</time>
      </trkpt>
      <trkpt lat="42.898580" lon="1.034330">
        <ele>636.115</ele>
        <time>2026-07-16T10:03:47.927Z</time>
      </trkpt>
      <trkpt lat="42.898550" lon="1.034690">
        <ele>638.820</ele>
        <time>2026-07-16T10:04:07.927Z</time>
      </trkpt>
      <trkpt lat="42.898690" lon="1.035300">
        <ele>641.387</ele>
        <time>2026-07-16T10:04:27.927Z</time>
      </trkpt>
      <trkpt lat="42.898660" lon="1.035540">
        <ele>640.183</ele>
        <time>2026-07-16T10:04:47.927Z</time>
      </trkpt>
      <trkpt lat="42.898410" lon="1.035880">
        <ele>638.076</ele>
        <time>2026-07-16T10:05:07.927Z</time>
      </trkpt>
      <trkpt lat="42.898150" lon="1.036130">
        <ele>639.816</ele>
        <time>2026-07-16T10:05:27.927Z</time>
      </trkpt>
      <trkpt lat="42.897870" lon="1.036520">
        <ele>643.576</ele>
        <time>2026-07-16T10:05:47.927Z</time>
      </trkpt>
      <trkpt lat="42.897770" lon="1.036760">
        <ele>645.213</ele>
        <time>2026-07-16T10:06:07.927Z</time>
      </trkpt>
      <trkpt lat="42.897730" lon="1.037040">
        <ele>647.809</ele>
        <time>2026-07-16T10:06:27.927Z</time>
      </trkpt>
      <trkpt lat="42.897700" lon="1.037600">
        <ele>652.173</ele>
        <time>2026-07-16T10:06:47.927Z</time>
      </trkpt>
      <trkpt lat="42.897600" lon="1.037750">
        <ele>651.266</ele>
        <time>2026-07-16T10:07:07.927Z</time>
      </trkpt>
      <trkpt lat="42.897180" lon="1.038020">
        <ele>651.752</ele>
        <time>2026-07-16T10:07:27.927Z</time>
      </trkpt>
      <trkpt lat="42.896650" lon="1.038500">
        <ele>654.118</ele>
        <time>2026-07-16T10:07:47.927Z</time>
      </trkpt>
      <trkpt lat="42.896540" lon="1.038630">
        <ele>654.028</ele>
        <time>2026-07-16T10:08:07.927Z</time>
      </trkpt>
      <trkpt lat="42.896430" lon="1.038930">
        <ele>655.223</ele>
        <time>2026-07-16T10:08:27.927Z</time>
      </trkpt>
      <trkpt lat="42.896400" lon="1.039140">
        <ele>656.090</ele>
        <time>2026-07-16T10:08:47.927Z</time>
      </trkpt>
      <trkpt lat="42.896460" lon="1.039600">
        <ele>658.176</ele>
        <time>2026-07-16T10:09:07.927Z</time>
      </trkpt>
      <trkpt lat="42.896520" lon="1.039820">
        <ele>659.229</ele>
        <time>2026-07-16T10:09:27.927Z</time>
      </trkpt>
      <trkpt lat="42.896550" lon="1.040070">
        <ele>659.199</ele>
        <time>2026-07-16T10:09:47.927Z</time>
      </trkpt>
      <trkpt lat="42.896500" lon="1.040230">
        <ele>656.707</ele>
        <time>2026-07-16T10:10:07.927Z</time>
      </trkpt>
      <trkpt lat="42.896390" lon="1.040420">
        <ele>654.627</ele>
        <time>2026-07-16T10:10:27.927Z</time>
      </trkpt>
      <trkpt lat="42.895910" lon="1.040660">
        <ele>654.409</ele>
        <time>2026-07-16T10:10:47.927Z</time>
      </trkpt>
      <trkpt lat="42.895770" lon="1.040760">
        <ele>655.121</ele>
        <time>2026-07-16T10:11:07.927Z</time>
      </trkpt>
      <trkpt lat="42.895650" lon="1.040930">
        <ele>656.424</ele>
        <time>2026-07-16T10:11:27.927Z</time>
      </trkpt>
      <trkpt lat="42.895600" lon="1.041040">
        <ele>657.520</ele>
        <time>2026-07-16T10:11:47.927Z</time>
      </trkpt>
      <trkpt lat="42.895590" lon="1.041250">
        <ele>659.546</ele>
        <time>2026-07-16T10:12:07.927Z</time>
      </trkpt>
      <trkpt lat="42.895640" lon="1.041510">
        <ele>662.196</ele>
        <time>2026-07-16T10:12:27.927Z</time>
      </trkpt>
      <trkpt lat="42.896050" lon="1.042510">
        <ele>669.921</ele>
        <time>2026-07-16T10:12:47.927Z</time>
      </trkpt>
      <trkpt lat="42.896220" lon="1.042850">
        <ele>673.638</ele>
        <time>2026-07-16T10:13:07.927Z</time>
      </trkpt>
      <trkpt lat="42.896400" lon="1.043570">
        <ele>676.894</ele>
        <time>2026-07-16T10:13:27.927Z</time>
      </trkpt>
      <trkpt lat="42.896490" lon="1.043780">
        <ele>680.047</ele>
        <time>2026-07-16T10:13:47.927Z</time>
      </trkpt>
      <trkpt lat="42.896630" lon="1.044010">
        <ele>685.032</ele>
        <time>2026-07-16T10:14:07.927Z</time>
      </trkpt>
      <trkpt lat="42.896680" lon="1.044150">
        <ele>685.992</ele>
        <time>2026-07-16T10:14:27.927Z</time>
      </trkpt>
      <trkpt lat="42.896700" lon="1.044290">
        <ele>686.811</ele>
        <time>2026-07-16T10:14:47.927Z</time>
      </trkpt>
      <trkpt lat="42.896650" lon="1.044430">
        <ele>685.409</ele>
        <time>2026-07-16T10:15:07.927Z</time>
      </trkpt>
      <trkpt lat="42.896590" lon="1.044550">
        <ele>685.675</ele>
        <time>2026-07-16T10:15:27.927Z</time>
      </trkpt>
      <trkpt lat="42.896510" lon="1.044640">
        <ele>685.748</ele>
        <time>2026-07-16T10:15:47.927Z</time>
      </trkpt>
      <trkpt lat="42.896420" lon="1.044700">
        <ele>685.844</ele>
        <time>2026-07-16T10:16:07.927Z</time>
      </trkpt>
      <trkpt lat="42.896270" lon="1.044750">
        <ele>684.670</ele>
        <time>2026-07-16T10:16:27.927Z</time>
      </trkpt>
      <trkpt lat="42.896160" lon="1.044650">
        <ele>680.050</ele>
        <time>2026-07-16T10:16:47.927Z</time>
      </trkpt>
      <trkpt lat="42.895830" lon="1.044080">
        <ele>674.125</ele>
        <time>2026-07-16T10:17:07.927Z</time>
      </trkpt>
      <trkpt lat="42.895750" lon="1.043990">
        <ele>676.212</ele>
        <time>2026-07-16T10:17:27.927Z</time>
      </trkpt>
      <trkpt lat="42.895640" lon="1.043960">
        <ele>682.868</ele>
        <time>2026-07-16T10:17:47.927Z</time>
      </trkpt>
      <trkpt lat="42.895430" lon="1.044100">
        <ele>693.981</ele>
        <time>2026-07-16T10:18:07.927Z</time>
      </trkpt>
      <trkpt lat="42.895260" lon="1.044360">
        <ele>700.592</ele>
        <time>2026-07-16T10:18:27.927Z</time>
      </trkpt>
      <trkpt lat="42.894900" lon="1.045260">
        <ele>706.373</ele>
        <time>2026-07-16T10:18:47.927Z</time>
      </trkpt>
      <trkpt lat="42.894580" lon="1.046440">
        <ele>710.320</ele>
        <time>2026-07-16T10:19:07.927Z</time>
      </trkpt>
      <trkpt lat="42.894580" lon="1.046900">
        <ele>713.609</ele>
        <time>2026-07-16T10:19:27.927Z</time>
      </trkpt>
      <trkpt lat="42.894600" lon="1.047110">
        <ele>714.051</ele>
        <time>2026-07-16T10:19:47.927Z</time>
      </trkpt>
      <trkpt lat="42.894680" lon="1.047310">
        <ele>716.544</ele>
        <time>2026-07-16T10:20:07.927Z</time>
      </trkpt>
      <trkpt lat="42.894800" lon="1.047750">
        <ele>714.610</ele>
        <time>2026-07-16T10:20:27.927Z</time>
      </trkpt>
      <trkpt lat="42.894820" lon="1.047890">
        <ele>714.246</ele>
        <time>2026-07-16T10:20:47.927Z</time>
      </trkpt>
      <trkpt lat="42.894750" lon="1.048020">
        <ele>711.136</ele>
        <time>2026-07-16T10:21:07.927Z</time>
      </trkpt>
      <trkpt lat="42.894550" lon="1.048060">
        <ele>708.361</ele>
        <time>2026-07-16T10:21:27.927Z</time>
      </trkpt>
      <trkpt lat="42.894180" lon="1.048170">
        <ele>712.438</ele>
        <time>2026-07-16T10:21:47.927Z</time>
      </trkpt>
      <trkpt lat="42.893880" lon="1.048310">
        <ele>714.614</ele>
        <time>2026-07-16T10:22:07.927Z</time>
      </trkpt>
      <trkpt lat="42.893800" lon="1.048460">
        <ele>715.377</ele>
        <time>2026-07-16T10:22:27.927Z</time>
      </trkpt>
      <trkpt lat="42.893790" lon="1.048670">
        <ele>716.775</ele>
        <time>2026-07-16T10:22:47.927Z</time>
      </trkpt>
      <trkpt lat="42.894090" lon="1.049350">
        <ele>718.828</ele>
        <time>2026-07-16T10:23:07.927Z</time>
      </trkpt>
      <trkpt lat="42.894490" lon="1.049790">
        <ele>730.320</ele>
        <time>2026-07-16T10:23:27.927Z</time>
      </trkpt>
      <trkpt lat="42.894550" lon="1.050020">
        <ele>731.209</ele>
        <time>2026-07-16T10:23:47.927Z</time>
      </trkpt>
      <trkpt lat="42.894660" lon="1.050820">
        <ele>733.069</ele>
        <time>2026-07-16T10:24:07.927Z</time>
      </trkpt>
      <trkpt lat="42.894650" lon="1.050910">
        <ele>733.072</ele>
        <time>2026-07-16T10:24:27.927Z</time>
      </trkpt>
      <trkpt lat="42.894630" lon="1.050970">
        <ele>732.368</ele>
        <time>2026-07-16T10:24:47.927Z</time>
      </trkpt>
      <trkpt lat="42.894560" lon="1.051040">
        <ele>729.424</ele>
        <time>2026-07-16T10:25:07.927Z</time>
      </trkpt>
      <trkpt lat="42.894460" lon="1.051040">
        <ele>724.394</ele>
        <time>2026-07-16T10:25:27.927Z</time>
      </trkpt>
      <trkpt lat="42.894020" lon="1.050800">
        <ele>724.189</ele>
        <time>2026-07-16T10:25:47.927Z</time>
      </trkpt>
      <trkpt lat="42.893740" lon="1.050720">
        <ele>727.136</ele>
        <time>2026-07-16T10:26:07.927Z</time>
      </trkpt>
      <trkpt lat="42.893530" lon="1.050700">
        <ele>729.282</ele>
        <time>2026-07-16T10:26:27.927Z</time>
      </trkpt>
      <trkpt lat="42.893330" lon="1.050700">
        <ele>731.875</ele>
        <time>2026-07-16T10:26:47.927Z</time>
      </trkpt>
      <trkpt lat="42.893120" lon="1.050770">
        <ele>736.293</ele>
        <time>2026-07-16T10:27:07.927Z</time>
      </trkpt>
      <trkpt lat="42.892910" lon="1.050870">
        <ele>739.665</ele>
        <time>2026-07-16T10:27:27.927Z</time>
      </trkpt>
      <trkpt lat="42.892720" lon="1.051030">
        <ele>742.021</ele>
        <time>2026-07-16T10:27:47.927Z</time>
      </trkpt>
      <trkpt lat="42.892630" lon="1.051140">
        <ele>742.909</ele>
        <time>2026-07-16T10:28:07.927Z</time>
      </trkpt>
      <trkpt lat="42.892460" lon="1.051450">
        <ele>745.321</ele>
        <time>2026-07-16T10:28:27.927Z</time>
      </trkpt>
      <trkpt lat="42.892400" lon="1.051650">
        <ele>746.974</ele>
        <time>2026-07-16T10:28:47.927Z</time>
      </trkpt>
      <trkpt lat="42.892360" lon="1.051880">
        <ele>747.970</ele>
        <time>2026-07-16T10:29:07.927Z</time>
      </trkpt>
      <trkpt lat="42.892320" lon="1.052520">
        <ele>749.556</ele>
        <time>2026-07-16T10:29:27.927Z</time>
      </trkpt>
      <trkpt lat="42.892240" lon="1.052750">
        <ele>748.536</ele>
        <time>2026-07-16T10:29:47.927Z</time>
      </trkpt>
      <trkpt lat="42.892170" lon="1.052820">
        <ele>745.971</ele>
        <time>2026-07-16T10:30:07.927Z</time>
      </trkpt>
      <trkpt lat="42.891970" lon="1.052950">
        <ele>739.468</ele>
        <time>2026-07-16T10:30:27.927Z</time>
      </trkpt>
      <trkpt lat="42.891710" lon="1.053270">
        <ele>741.444</ele>
        <time>2026-07-16T10:30:47.927Z</time>
      </trkpt>
      <trkpt lat="42.891580" lon="1.053360">
        <ele>740.587</ele>
        <time>2026-07-16T10:31:07.927Z</time>
      </trkpt>
      <trkpt lat="42.891260" lon="1.053480">
        <ele>739.132</ele>
        <time>2026-07-16T10:31:27.927Z</time>
      </trkpt>
      <trkpt lat="42.891090" lon="1.053580">
        <ele>740.092</ele>
        <time>2026-07-16T10:31:47.927Z</time>
      </trkpt>
      <trkpt lat="42.890940" lon="1.053730">
        <ele>743.211</ele>
        <time>2026-07-16T10:32:07.927Z</time>
      </trkpt>
      <trkpt lat="42.890820" lon="1.053920">
        <ele>746.509</ele>
        <time>2026-07-16T10:32:27.927Z</time>
      </trkpt>
      <trkpt lat="42.890730" lon="1.054180">
        <ele>750.655</ele>
        <time>2026-07-16T10:32:47.927Z</time>
      </trkpt>
      <trkpt lat="42.890710" lon="1.054340">
        <ele>752.178</ele>
        <time>2026-07-16T10:33:07.927Z</time>
      </trkpt>
      <trkpt lat="42.890710" lon="1.054500">
        <ele>753.754</ele>
        <time>2026-07-16T10:33:27.927Z</time>
      </trkpt>
      <trkpt lat="42.890770" lon="1.055630">
        <ele>746.040</ele>
        <time>2026-07-16T10:33:47.927Z</time>
      </trkpt>
      <trkpt lat="42.890790" lon="1.055750">
        <ele>745.210</ele>
        <time>2026-07-16T10:34:07.927Z</time>
      </trkpt>
      <trkpt lat="42.890900" lon="1.055960">
        <ele>746.255</ele>
        <time>2026-07-16T10:34:27.927Z</time>
      </trkpt>
      <trkpt lat="42.890940" lon="1.056120">
        <ele>745.562</ele>
        <time>2026-07-16T10:34:47.927Z</time>
      </trkpt>
      <trkpt lat="42.890950" lon="1.056240">
        <ele>746.548</ele>
        <time>2026-07-16T10:35:07.927Z</time>
      </trkpt>
      <trkpt lat="42.890920" lon="1.056340">
        <ele>746.611</ele>
        <time>2026-07-16T10:35:27.927Z</time>
      </trkpt>
      <trkpt lat="42.890850" lon="1.056390">
        <ele>746.288</ele>
        <time>2026-07-16T10:35:47.927Z</time>
      </trkpt>
      <trkpt lat="42.890770" lon="1.056400">
        <ele>747.324</ele>
        <time>2026-07-16T10:36:07.927Z</time>
      </trkpt>
      <trkpt lat="42.890560" lon="1.056350">
        <ele>748.326</ele>
        <time>2026-07-16T10:36:27.927Z</time>
      </trkpt>
      <trkpt lat="42.890220" lon="1.056170">
        <ele>749.609</ele>
        <time>2026-07-16T10:36:47.927Z</time>
      </trkpt>
      <trkpt lat="42.889970" lon="1.056090">
        <ele>751.460</ele>
        <time>2026-07-16T10:37:07.927Z</time>
      </trkpt>
      <trkpt lat="42.889870" lon="1.056090">
        <ele>751.913</ele>
        <time>2026-07-16T10:37:27.927Z</time>
      </trkpt>
      <trkpt lat="42.889670" lon="1.056240">
        <ele>755.269</ele>
        <time>2026-07-16T10:37:47.927Z</time>
      </trkpt>
      <trkpt lat="42.889590" lon="1.056350">
        <ele>756.465</ele>
        <time>2026-07-16T10:38:07.927Z</time>
      </trkpt>
      <trkpt lat="42.889440" lon="1.056670">
        <ele>758.965</ele>
        <time>2026-07-16T10:38:27.927Z</time>
      </trkpt>
      <trkpt lat="42.889350" lon="1.056910">
        <ele>759.320</ele>
        <time>2026-07-16T10:38:47.927Z</time>
      </trkpt>
      <trkpt lat="42.889240" lon="1.057400">
        <ele>760.797</ele>
        <time>2026-07-16T10:39:07.927Z</time>
      </trkpt>
      <trkpt lat="42.889210" lon="1.057550">
        <ele>761.163</ele>
        <time>2026-07-16T10:39:27.927Z</time>
      </trkpt>
      <trkpt lat="42.889160" lon="1.058180">
        <ele>765.626</ele>
        <time>2026-07-16T10:39:47.927Z</time>
      </trkpt>
      <trkpt lat="42.889150" lon="1.058820">
        <ele>767.922</ele>
        <time>2026-07-16T10:40:07.927Z</time>
      </trkpt>
      <trkpt lat="42.889090" lon="1.059090">
        <ele>765.262</ele>
        <time>2026-07-16T10:40:27.927Z</time>
      </trkpt>
      <trkpt lat="42.888910" lon="1.059180">
        <ele>759.208</ele>
        <time>2026-07-16T10:40:47.927Z</time>
      </trkpt>
      <trkpt lat="42.888710" lon="1.059140">
        <ele>757.509</ele>
        <time>2026-07-16T10:41:07.927Z</time>
      </trkpt>
      <trkpt lat="42.888260" lon="1.058940">
        <ele>757.474</ele>
        <time>2026-07-16T10:41:27.927Z</time>
      </trkpt>
      <trkpt lat="42.888130" lon="1.058900">
        <ele>758.917</ele>
        <time>2026-07-16T10:41:47.927Z</time>
      </trkpt>
      <trkpt lat="42.887970" lon="1.058880">
        <ele>760.453</ele>
        <time>2026-07-16T10:42:07.927Z</time>
      </trkpt>
      <trkpt lat="42.887790" lon="1.058920">
        <ele>762.349</ele>
        <time>2026-07-16T10:42:27.927Z</time>
      </trkpt>
      <trkpt lat="42.887650" lon="1.058980">
        <ele>762.189</ele>
        <time>2026-07-16T10:42:47.927Z</time>
      </trkpt>
      <trkpt lat="42.887490" lon="1.059110">
        <ele>762.354</ele>
        <time>2026-07-16T10:43:07.927Z</time>
      </trkpt>
      <trkpt lat="42.887390" lon="1.059250">
        <ele>762.761</ele>
        <time>2026-07-16T10:43:27.927Z</time>
      </trkpt>
      <trkpt lat="42.887280" lon="1.059460">
        <ele>763.847</ele>
        <time>2026-07-16T10:43:47.927Z</time>
      </trkpt>
      <trkpt lat="42.887200" lon="1.059810">
        <ele>766.830</ele>
        <time>2026-07-16T10:44:07.927Z</time>
      </trkpt>
      <trkpt lat="42.887230" lon="1.060510">
        <ele>775.948</ele>
        <time>2026-07-16T10:44:27.927Z</time>
      </trkpt>
      <trkpt lat="42.887200" lon="1.060780">
        <ele>779.361</ele>
        <time>2026-07-16T10:44:47.927Z</time>
      </trkpt>
      <trkpt lat="42.886810" lon="1.061150">
        <ele>774.017</ele>
        <time>2026-07-16T10:45:07.927Z</time>
      </trkpt>
      <trkpt lat="42.886620" lon="1.061290">
        <ele>772.709</ele>
        <time>2026-07-16T10:45:27.927Z</time>
      </trkpt>
      <trkpt lat="42.886510" lon="1.061450">
        <ele>773.286</ele>
        <time>2026-07-16T10:45:47.927Z</time>
      </trkpt>
      <trkpt lat="42.886450" lon="1.061610">
        <ele>774.289</ele>
        <time>2026-07-16T10:46:07.927Z</time>
      </trkpt>
      <trkpt lat="42.886410" lon="1.061950">
        <ele>778.085</ele>
        <time>2026-07-16T10:46:27.927Z</time>
      </trkpt>
      <trkpt lat="42.886460" lon="1.062550">
        <ele>784.871</ele>
        <time>2026-07-16T10:46:47.927Z</time>
      </trkpt>
      <trkpt lat="42.886700" lon="1.063900">
        <ele>789.081</ele>
        <time>2026-07-16T10:47:07.927Z</time>
      </trkpt>
      <trkpt lat="42.886710" lon="1.064120">
        <ele>786.946</ele>
        <time>2026-07-16T10:47:27.927Z</time>
      </trkpt>
      <trkpt lat="42.886680" lon="1.064250">
        <ele>783.753</ele>
        <time>2026-07-16T10:47:47.927Z</time>
      </trkpt>
      <trkpt lat="42.886620" lon="1.064330">
        <ele>780.969</ele>
        <time>2026-07-16T10:48:07.927Z</time>
      </trkpt>
      <trkpt lat="42.886490" lon="1.064410">
        <ele>777.812</ele>
        <time>2026-07-16T10:48:27.927Z</time>
      </trkpt>
      <trkpt lat="42.886410" lon="1.064410">
        <ele>775.854</ele>
        <time>2026-07-16T10:48:47.927Z</time>
      </trkpt>
      <trkpt lat="42.886350" lon="1.064350">
        <ele>776.056</ele>
        <time>2026-07-16T10:49:07.927Z</time>
      </trkpt>
      <trkpt lat="42.885920" lon="1.063810">
        <ele>769.611</ele>
        <time>2026-07-16T10:49:27.927Z</time>
      </trkpt>
      <trkpt lat="42.885780" lon="1.063730">
        <ele>770.809</ele>
        <time>2026-07-16T10:49:47.927Z</time>
      </trkpt>
      <trkpt lat="42.885560" lon="1.063710">
        <ele>774.577</ele>
        <time>2026-07-16T10:50:07.927Z</time>
      </trkpt>
      <trkpt lat="42.885470" lon="1.063750">
        <ele>775.460</ele>
        <time>2026-07-16T10:50:27.927Z</time>
      </trkpt>
      <trkpt lat="42.885310" lon="1.063900">
        <ele>778.026</ele>
        <time>2026-07-16T10:50:47.927Z</time>
      </trkpt>
      <trkpt lat="42.884130" lon="1.065880">
        <ele>779.192</ele>
        <time>2026-07-16T10:51:07.927Z</time>
      </trkpt>
      <trkpt lat="42.883560" lon="1.067120">
        <ele>781.372</ele>
        <time>2026-07-16T10:51:27.927Z</time>
      </trkpt>
      <trkpt lat="42.883390" lon="1.067540">
        <ele>782.467</ele>
        <time>2026-07-16T10:51:47.927Z</time>
      </trkpt>
      <trkpt lat="42.883260" lon="1.067900">
        <ele>786.084</ele>
        <time>2026-07-16T10:52:07.927Z</time>
      </trkpt>
      <trkpt lat="42.883170" lon="1.068020">
        <ele>788.310</ele>
        <time>2026-07-16T10:52:27.927Z</time>
      </trkpt>
      <trkpt lat="42.883060" lon="1.068100">
        <ele>791.133</ele>
        <time>2026-07-16T10:52:47.927Z</time>
      </trkpt>
      <trkpt lat="42.882440" lon="1.068390">
        <ele>792.541</ele>
        <time>2026-07-16T10:53:07.927Z</time>
      </trkpt>
      <trkpt lat="42.881680" lon="1.068870">
        <ele>793.881</ele>
        <time>2026-07-16T10:53:27.927Z</time>
      </trkpt>
      <trkpt lat="42.881560" lon="1.068970">
        <ele>794.309</ele>
        <time>2026-07-16T10:53:47.927Z</time>
      </trkpt>
      <trkpt lat="42.881470" lon="1.069090">
        <ele>795.209</ele>
        <time>2026-07-16T10:54:07.927Z</time>
      </trkpt>
      <trkpt lat="42.881440" lon="1.069300">
        <ele>795.836</ele>
        <time>2026-07-16T10:54:27.927Z</time>
      </trkpt>
      <trkpt lat="42.881450" lon="1.069390">
        <ele>795.949</ele>
        <time>2026-07-16T10:54:47.927Z</time>
      </trkpt>
      <trkpt lat="42.881470" lon="1.069490">
        <ele>795.165</ele>
        <time>2026-07-16T10:55:07.927Z</time>
      </trkpt>
      <trkpt lat="42.881570" lon="1.069710">
        <ele>792.281</ele>
        <time>2026-07-16T10:55:27.927Z</time>
      </trkpt>
      <trkpt lat="42.881810" lon="1.069860">
        <ele>795.921</ele>
        <time>2026-07-16T10:55:47.927Z</time>
      </trkpt>
      <trkpt lat="42.881920" lon="1.069910">
        <ele>798.556</ele>
        <time>2026-07-16T10:56:07.927Z</time>
      </trkpt>
      <trkpt lat="42.881980" lon="1.070000">
        <ele>798.353</ele>
        <time>2026-07-16T10:56:27.927Z</time>
      </trkpt>
      <trkpt lat="42.882010" lon="1.070110">
        <ele>799.459</ele>
        <time>2026-07-16T10:56:47.927Z</time>
      </trkpt>
      <trkpt lat="42.881990" lon="1.070240">
        <ele>800.242</ele>
        <time>2026-07-16T10:57:07.927Z</time>
      </trkpt>
      <trkpt lat="42.881930" lon="1.070330">
        <ele>801.748</ele>
        <time>2026-07-16T10:57:27.927Z</time>
      </trkpt>
      <trkpt lat="42.881870" lon="1.070400">
        <ele>803.261</ele>
        <time>2026-07-16T10:57:47.927Z</time>
      </trkpt>
      <trkpt lat="42.881530" lon="1.070650">
        <ele>806.317</ele>
        <time>2026-07-16T10:58:07.927Z</time>
      </trkpt>
      <trkpt lat="42.881390" lon="1.070840">
        <ele>806.209</ele>
        <time>2026-07-16T10:58:27.927Z</time>
      </trkpt>
      <trkpt lat="42.881320" lon="1.071050">
        <ele>808.216</ele>
        <time>2026-07-16T10:58:47.927Z</time>
      </trkpt>
      <trkpt lat="42.881250" lon="1.071140">
        <ele>808.049</ele>
        <time>2026-07-16T10:59:07.927Z</time>
      </trkpt>
      <trkpt lat="42.881170" lon="1.071200">
        <ele>807.045</ele>
        <time>2026-07-16T10:59:27.927Z</time>
      </trkpt>
      <trkpt lat="42.881000" lon="1.071220">
        <ele>811.661</ele>
        <time>2026-07-16T10:59:47.927Z</time>
      </trkpt>
      <trkpt lat="42.880830" lon="1.071140">
        <ele>818.581</ele>
        <time>2026-07-16T11:00:07.927Z</time>
      </trkpt>
      <trkpt lat="42.880710" lon="1.071140">
        <ele>818.196</ele>
        <time>2026-07-16T11:00:27.927Z</time>
      </trkpt>
      <trkpt lat="42.880390" lon="1.071270">
        <ele>814.593</ele>
        <time>2026-07-16T11:00:47.927Z</time>
      </trkpt>
      <trkpt lat="42.880280" lon="1.071270">
        <ele>810.519</ele>
        <time>2026-07-16T11:01:07.927Z</time>
      </trkpt>
      <trkpt lat="42.880180" lon="1.071200">
        <ele>813.682</ele>
        <time>2026-07-16T11:01:27.927Z</time>
      </trkpt>
      <trkpt lat="42.879970" lon="1.070900">
        <ele>817.616</ele>
        <time>2026-07-16T11:01:47.927Z</time>
      </trkpt>
      <trkpt lat="42.879830" lon="1.070860">
        <ele>818.276</ele>
        <time>2026-07-16T11:02:07.927Z</time>
      </trkpt>
      <trkpt lat="42.879700" lon="1.070910">
        <ele>820.813</ele>
        <time>2026-07-16T11:02:27.927Z</time>
      </trkpt>
      <trkpt lat="42.879380" lon="1.071250">
        <ele>825.509</ele>
        <time>2026-07-16T11:02:47.927Z</time>
      </trkpt>
      <trkpt lat="42.879200" lon="1.071540">
        <ele>828.263</ele>
        <time>2026-07-16T11:03:07.927Z</time>
      </trkpt>
      <trkpt lat="42.879130" lon="1.071760">
        <ele>833.226</ele>
        <time>2026-07-16T11:03:27.927Z</time>
      </trkpt>
      <trkpt lat="42.879000" lon="1.071980">
        <ele>834.442</ele>
        <time>2026-07-16T11:03:47.927Z</time>
      </trkpt>
      <trkpt lat="42.878510" lon="1.072700">
        <ele>837.418</ele>
        <time>2026-07-16T11:04:07.927Z</time>
      </trkpt>
      <trkpt lat="42.878160" lon="1.073790">
        <ele>842.918</ele>
        <time>2026-07-16T11:04:27.927Z</time>
      </trkpt>
      <trkpt lat="42.877960" lon="1.074570">
        <ele>844.053</ele>
        <time>2026-07-16T11:04:47.927Z</time>
      </trkpt>
      <trkpt lat="42.877810" lon="1.075350">
        <ele>845.270</ele>
        <time>2026-07-16T11:05:07.927Z</time>
      </trkpt>
      <trkpt lat="42.877810" lon="1.075540">
        <ele>843.646</ele>
        <time>2026-07-16T11:05:27.927Z</time>
      </trkpt>
      <trkpt lat="42.877850" lon="1.075650">
        <ele>843.229</ele>
        <time>2026-07-16T11:05:47.927Z</time>
      </trkpt>
      <trkpt lat="42.877970" lon="1.075800">
        <ele>844.529</ele>
        <time>2026-07-16T11:06:07.927Z</time>
      </trkpt>
      <trkpt lat="42.877990" lon="1.075860">
        <ele>844.600</ele>
        <time>2026-07-16T11:06:27.927Z</time>
      </trkpt>
      <trkpt lat="42.877990" lon="1.075960">
        <ele>845.420</ele>
        <time>2026-07-16T11:06:47.927Z</time>
      </trkpt>
      <trkpt lat="42.877960" lon="1.076060">
        <ele>845.709</ele>
        <time>2026-07-16T11:07:07.927Z</time>
      </trkpt>
      <trkpt lat="42.877920" lon="1.076130">
        <ele>847.074</ele>
        <time>2026-07-16T11:07:27.927Z</time>
      </trkpt>
      <trkpt lat="42.877850" lon="1.076170">
        <ele>848.787</ele>
        <time>2026-07-16T11:07:47.927Z</time>
      </trkpt>
      <trkpt lat="42.877770" lon="1.076200">
        <ele>850.383</ele>
        <time>2026-07-16T11:08:07.927Z</time>
      </trkpt>
      <trkpt lat="42.877660" lon="1.076200">
        <ele>852.769</ele>
        <time>2026-07-16T11:08:27.927Z</time>
      </trkpt>
      <trkpt lat="42.877530" lon="1.076170">
        <ele>853.759</ele>
        <time>2026-07-16T11:08:47.927Z</time>
      </trkpt>
      <trkpt lat="42.877020" lon="1.075940">
        <ele>853.824</ele>
        <time>2026-07-16T11:09:07.927Z</time>
      </trkpt>
      <trkpt lat="42.876910" lon="1.075920">
        <ele>855.131</ele>
        <time>2026-07-16T11:09:27.927Z</time>
      </trkpt>
      <trkpt lat="42.876810" lon="1.075930">
        <ele>856.317</ele>
        <time>2026-07-16T11:09:47.927Z</time>
      </trkpt>
      <trkpt lat="42.876710" lon="1.075970">
        <ele>858.590</ele>
        <time>2026-07-16T11:10:07.927Z</time>
      </trkpt>
      <trkpt lat="42.876290" lon="1.076250">
        <ele>866.781</ele>
        <time>2026-07-16T11:10:27.927Z</time>
      </trkpt>
      <trkpt lat="42.875680" lon="1.076720">
        <ele>868.561</ele>
        <time>2026-07-16T11:10:47.927Z</time>
      </trkpt>
      <trkpt lat="42.875560" lon="1.076860">
        <ele>869.017</ele>
        <time>2026-07-16T11:11:07.927Z</time>
      </trkpt>
      <trkpt lat="42.875490" lon="1.076980">
        <ele>869.109</ele>
        <time>2026-07-16T11:11:27.927Z</time>
      </trkpt>
      <trkpt lat="42.875420" lon="1.077170">
        <ele>870.170</ele>
        <time>2026-07-16T11:11:47.927Z</time>
      </trkpt>
      <trkpt lat="42.875370" lon="1.077360">
        <ele>873.513</ele>
        <time>2026-07-16T11:12:07.927Z</time>
      </trkpt>
      <trkpt lat="42.875230" lon="1.077670">
        <ele>878.139</ele>
        <time>2026-07-16T11:12:27.927Z</time>
      </trkpt>
      <trkpt lat="42.875130" lon="1.077800">
        <ele>879.325</ele>
        <time>2026-07-16T11:12:47.927Z</time>
      </trkpt>
      <trkpt lat="42.874660" lon="1.078150">
        <ele>873.755</ele>
        <time>2026-07-16T11:13:07.927Z</time>
      </trkpt>
      <trkpt lat="42.874520" lon="1.078340">
        <ele>875.520</ele>
        <time>2026-07-16T11:13:27.927Z</time>
      </trkpt>
      <trkpt lat="42.874220" lon="1.078620">
        <ele>879.787</ele>
        <time>2026-07-16T11:13:47.927Z</time>
      </trkpt>
      <trkpt lat="42.874080" lon="1.078790">
        <ele>883.653</ele>
        <time>2026-07-16T11:14:07.927Z</time>
      </trkpt>
      <trkpt lat="42.873990" lon="1.078960">
        <ele>887.496</ele>
        <time>2026-07-16T11:14:27.927Z</time>
      </trkpt>
      <trkpt lat="42.873890" lon="1.079220">
        <ele>894.217</ele>
        <time>2026-07-16T11:14:47.927Z</time>
      </trkpt>
      <trkpt lat="42.873480" lon="1.079920">
        <ele>890.687</ele>
        <time>2026-07-16T11:15:07.927Z</time>
      </trkpt>
      <trkpt lat="42.873170" lon="1.080500">
        <ele>896.915</ele>
        <time>2026-07-16T11:15:27.927Z</time>
      </trkpt>
      <trkpt lat="42.873060" lon="1.080820">
        <ele>903.809</ele>
        <time>2026-07-16T11:15:47.927Z</time>
      </trkpt>
      <trkpt lat="42.872780" lon="1.081310">
        <ele>906.263</ele>
        <time>2026-07-16T11:16:07.927Z</time>
      </trkpt>
      <trkpt lat="42.872300" lon="1.081980">
        <ele>903.746</ele>
        <time>2026-07-16T11:16:27.927Z</time>
      </trkpt>
      <trkpt lat="42.872150" lon="1.082300">
        <ele>905.372</ele>
        <time>2026-07-16T11:16:47.927Z</time>
      </trkpt>
      <trkpt lat="42.872050" lon="1.082580">
        <ele>906.828</ele>
        <time>2026-07-16T11:17:07.927Z</time>
      </trkpt>
      <trkpt lat="42.871880" lon="1.082880">
        <ele>908.118</ele>
        <time>2026-07-16T11:17:27.927Z</time>
      </trkpt>
      <trkpt lat="42.871340" lon="1.083740">
        <ele>918.573</ele>
        <time>2026-07-16T11:17:47.927Z</time>
      </trkpt>
      <trkpt lat="42.871060" lon="1.084260">
        <ele>922.890</ele>
        <time>2026-07-16T11:18:07.927Z</time>
      </trkpt>
      <trkpt lat="42.870880" lon="1.084610">
        <ele>926.156</ele>
        <time>2026-07-16T11:18:27.927Z</time>
      </trkpt>
      <trkpt lat="42.870720" lon="1.085030">
        <ele>931.659</ele>
        <time>2026-07-16T11:18:47.927Z</time>
      </trkpt>
      <trkpt lat="42.870660" lon="1.085210">
        <ele>931.618</ele>
        <time>2026-07-16T11:19:07.927Z</time>
      </trkpt>
      <trkpt lat="42.870650" lon="1.085410">
        <ele>933.398</ele>
        <time>2026-07-16T11:19:27.927Z</time>
      </trkpt>
      <trkpt lat="42.870680" lon="1.085670">
        <ele>937.117</ele>
        <time>2026-07-16T11:19:47.927Z</time>
      </trkpt>
      <trkpt lat="42.870650" lon="1.085750">
        <ele>936.609</ele>
        <time>2026-07-16T11:20:07.927Z</time>
      </trkpt>
      <trkpt lat="42.870550" lon="1.085860">
        <ele>935.943</ele>
        <time>2026-07-16T11:20:27.927Z</time>
      </trkpt>
      <trkpt lat="42.870330" lon="1.086000">
        <ele>937.356</ele>
        <time>2026-07-16T11:20:47.927Z</time>
      </trkpt>
      <trkpt lat="42.870180" lon="1.086180">
        <ele>938.972</ele>
        <time>2026-07-16T11:21:07.927Z</time>
      </trkpt>
      <trkpt lat="42.869920" lon="1.086790">
        <ele>945.418</ele>
        <time>2026-07-16T11:21:27.927Z</time>
      </trkpt>
      <trkpt lat="42.869620" lon="1.087300">
        <ele>945.778</ele>
        <time>2026-07-16T11:21:47.927Z</time>
      </trkpt>
      <trkpt lat="42.869570" lon="1.087430">
        <ele>946.583</ele>
        <time>2026-07-16T11:22:07.927Z</time>
      </trkpt>
      <trkpt lat="42.869420" lon="1.088090">
        <ele>954.450</ele>
        <time>2026-07-16T11:22:27.927Z</time>
      </trkpt>
      <trkpt lat="42.869350" lon="1.088260">
        <ele>955.846</ele>
        <time>2026-07-16T11:22:47.927Z</time>
      </trkpt>
      <trkpt lat="42.869290" lon="1.088360">
        <ele>956.699</ele>
        <time>2026-07-16T11:23:07.927Z</time>
      </trkpt>
      <trkpt lat="42.868940" lon="1.088690">
        <ele>961.161</ele>
        <time>2026-07-16T11:23:27.927Z</time>
      </trkpt>
      <trkpt lat="42.868580" lon="1.088990">
        <ele>964.321</ele>
        <time>2026-07-16T11:23:47.927Z</time>
      </trkpt>
      <trkpt lat="42.867810" lon="1.089830">
        <ele>970.713</ele>
        <time>2026-07-16T11:24:07.927Z</time>
      </trkpt>
      <trkpt lat="42.867650" lon="1.090040">
        <ele>973.709</ele>
        <time>2026-07-16T11:24:27.927Z</time>
      </trkpt>
      <trkpt lat="42.866960" lon="1.091310">
        <ele>989.448</ele>
        <time>2026-07-16T11:24:47.927Z</time>
      </trkpt>
      <trkpt lat="42.866700" lon="1.091690">
        <ele>995.371</ele>
        <time>2026-07-16T11:25:07.927Z</time>
      </trkpt>
      <trkpt lat="42.866340" lon="1.092120">
        <ele>998.337</ele>
        <time>2026-07-16T11:25:27.927Z</time>
      </trkpt>
      <trkpt lat="42.865800" lon="1.092630">
        <ele>1002.693</ele>
        <time>2026-07-16T11:25:47.927Z</time>
      </trkpt>
      <trkpt lat="42.865610" lon="1.092750">
        <ele>1005.623</ele>
        <time>2026-07-16T11:26:07.927Z</time>
      </trkpt>
      <trkpt lat="42.865500" lon="1.092770">
        <ele>1005.858</ele>
        <time>2026-07-16T11:26:27.927Z</time>
      </trkpt>
      <trkpt lat="42.865390" lon="1.092760">
        <ele>1005.625</ele>
        <time>2026-07-16T11:26:47.927Z</time>
      </trkpt>
      <trkpt lat="42.865310" lon="1.092690">
        <ele>1004.171</ele>
        <time>2026-07-16T11:27:07.927Z</time>
      </trkpt>
      <trkpt lat="42.865290" lon="1.092610">
        <ele>1002.394</ele>
        <time>2026-07-16T11:27:27.927Z</time>
      </trkpt>
      <trkpt lat="42.865280" lon="1.092470">
        <ele>1000.387</ele>
        <time>2026-07-16T11:27:47.927Z</time>
      </trkpt>
      <trkpt lat="42.865270" lon="1.092410">
        <ele>1001.242</ele>
        <time>2026-07-16T11:28:07.927Z</time>
      </trkpt>
      <trkpt lat="42.865270" lon="1.092180">
        <ele>1004.026</ele>
        <time>2026-07-16T11:28:27.927Z</time>
      </trkpt>
      <trkpt lat="42.865230" lon="1.091970">
        <ele>1008.809</ele>
        <time>2026-07-16T11:28:47.927Z</time>
      </trkpt>
      <trkpt lat="42.865080" lon="1.091700">
        <ele>1011.260</ele>
        <time>2026-07-16T11:29:07.927Z</time>
      </trkpt>
      <trkpt lat="42.864950" lon="1.091500">
        <ele>1012.353</ele>
        <time>2026-07-16T11:29:27.927Z</time>
      </trkpt>
      <trkpt lat="42.864850" lon="1.091230">
        <ele>1012.739</ele>
        <time>2026-07-16T11:29:47.927Z</time>
      </trkpt>
      <trkpt lat="42.864790" lon="1.090900">
        <ele>1013.615</ele>
        <time>2026-07-16T11:30:07.928Z</time>
      </trkpt>
      <trkpt lat="42.864750" lon="1.090430">
        <ele>1017.985</ele>
        <time>2026-07-16T11:30:27.928Z</time>
      </trkpt>
      <trkpt lat="42.864750" lon="1.090230">
        <ele>1019.340</ele>
        <time>2026-07-16T11:30:47.928Z</time>
      </trkpt>
      <trkpt lat="42.864790" lon="1.090020">
        <ele>1019.447</ele>
        <time>2026-07-16T11:31:07.928Z</time>
      </trkpt>
      <trkpt lat="42.865040" lon="1.088830">
        <ele>1026.173</ele>
        <time>2026-07-16T11:31:27.928Z</time>
      </trkpt>
      <trkpt lat="42.865100" lon="1.088630">
        <ele>1028.846</ele>
        <time>2026-07-16T11:31:47.928Z</time>
      </trkpt>
      <trkpt lat="42.865170" lon="1.088450">
        <ele>1030.566</ele>
        <time>2026-07-16T11:32:07.928Z</time>
      </trkpt>
      <trkpt lat="42.865300" lon="1.088230">
        <ele>1031.529</ele>
        <time>2026-07-16T11:32:27.928Z</time>
      </trkpt>
      <trkpt lat="42.865770" lon="1.087560">
        <ele>1033.621</ele>
        <time>2026-07-16T11:32:47.928Z</time>
      </trkpt>
      <trkpt lat="42.865790" lon="1.087480">
        <ele>1034.509</ele>
        <time>2026-07-16T11:33:07.928Z</time>
      </trkpt>
      <trkpt lat="42.865790" lon="1.087400">
        <ele>1034.188</ele>
        <time>2026-07-16T11:33:27.928Z</time>
      </trkpt>
      <trkpt lat="42.865760" lon="1.087350">
        <ele>1035.091</ele>
        <time>2026-07-16T11:33:47.928Z</time>
      </trkpt>
      <trkpt lat="42.865620" lon="1.087270">
        <ele>1039.237</ele>
        <time>2026-07-16T11:34:07.928Z</time>
      </trkpt>
      <trkpt lat="42.865130" lon="1.087040">
        <ele>1044.753</ele>
        <time>2026-07-16T11:34:27.928Z</time>
      </trkpt>
      <trkpt lat="42.864790" lon="1.086850">
        <ele>1051.263</ele>
        <time>2026-07-16T11:34:47.928Z</time>
      </trkpt>
      <trkpt lat="42.864660" lon="1.086730">
        <ele>1054.718</ele>
        <time>2026-07-16T11:35:07.928Z</time>
      </trkpt>
      <trkpt lat="42.864430" lon="1.086120">
        <ele>1051.415</ele>
        <time>2026-07-16T11:35:27.928Z</time>
      </trkpt>
      <trkpt lat="42.864100" lon="1.085500">
        <ele>1051.771</ele>
        <time>2026-07-16T11:35:47.928Z</time>
      </trkpt>
      <trkpt lat="42.864030" lon="1.085420">
        <ele>1051.884</ele>
        <time>2026-07-16T11:36:07.928Z</time>
      </trkpt>
      <trkpt lat="42.863910" lon="1.085360">
        <ele>1053.746</ele>
        <time>2026-07-16T11:36:27.928Z</time>
      </trkpt>
      <trkpt lat="42.863860" lon="1.085350">
        <ele>1054.888</ele>
        <time>2026-07-16T11:36:47.928Z</time>
      </trkpt>
      <trkpt lat="42.863830" lon="1.085380">
        <ele>1056.516</ele>
        <time>2026-07-16T11:37:07.928Z</time>
      </trkpt>
      <trkpt lat="42.863820" lon="1.085420">
        <ele>1058.009</ele>
        <time>2026-07-16T11:37:27.928Z</time>
      </trkpt>
      <trkpt lat="42.863850" lon="1.085530">
        <ele>1060.426</ele>
        <time>2026-07-16T11:37:47.928Z</time>
      </trkpt>
      <trkpt lat="42.864150" lon="1.085890">
        <ele>1063.759</ele>
        <time>2026-07-16T11:38:07.928Z</time>
      </trkpt>
      <trkpt lat="42.864300" lon="1.086130">
        <ele>1061.575</ele>
        <time>2026-07-16T11:38:27.928Z</time>
      </trkpt>
      <trkpt lat="42.864380" lon="1.086360">
        <ele>1062.751</ele>
        <time>2026-07-16T11:38:47.928Z</time>
      </trkpt>
      <trkpt lat="42.864560" lon="1.087070">
        <ele>1072.121</ele>
        <time>2026-07-16T11:39:07.928Z</time>
      </trkpt>
      <trkpt lat="42.864610" lon="1.087190">
        <ele>1072.586</ele>
        <time>2026-07-16T11:39:27.928Z</time>
      </trkpt>
      <trkpt lat="42.864790" lon="1.087380">
        <ele>1066.623</ele>
        <time>2026-07-16T11:39:47.928Z</time>
      </trkpt>
      <trkpt lat="42.864860" lon="1.087540">
        <ele>1065.249</ele>
        <time>2026-07-16T11:40:07.928Z</time>
      </trkpt>
      <trkpt lat="42.864860" lon="1.087600">
        <ele>1064.622</ele>
        <time>2026-07-16T11:40:27.928Z</time>
      </trkpt>
      <trkpt lat="42.864800" lon="1.087760">
        <ele>1066.252</ele>
        <time>2026-07-16T11:40:47.928Z</time>
      </trkpt>
      <trkpt lat="42.864080" lon="1.088980">
        <ele>1077.453</ele>
        <time>2026-07-16T11:41:07.928Z</time>
      </trkpt>
      <trkpt lat="42.863530" lon="1.090010">
        <ele>1079.808</ele>
        <time>2026-07-16T11:41:27.928Z</time>
      </trkpt>
      <trkpt lat="42.863140" lon="1.090790">
        <ele>1084.709</ele>
        <time>2026-07-16T11:41:47.928Z</time>
      </trkpt>
      <trkpt lat="42.862810" lon="1.091660">
        <ele>1094.247</ele>
        <time>2026-07-16T11:42:07.928Z</time>
      </trkpt>
      <trkpt lat="42.862580" lon="1.092390">
        <ele>1095.110</ele>
        <time>2026-07-16T11:42:27.928Z</time>
      </trkpt>
      <trkpt lat="42.862260" lon="1.093190">
        <ele>1099.056</ele>
        <time>2026-07-16T11:42:47.928Z</time>
      </trkpt>
      <trkpt lat="42.862040" lon="1.093610">
        <ele>1102.222</ele>
        <time>2026-07-16T11:43:07.928Z</time>
      </trkpt>
      <trkpt lat="42.861850" lon="1.093890">
        <ele>1103.742</ele>
        <time>2026-07-16T11:43:27.928Z</time>
      </trkpt>
      <trkpt lat="42.861720" lon="1.094020">
        <ele>1106.077</ele>
        <time>2026-07-16T11:43:47.928Z</time>
      </trkpt>
      <trkpt lat="42.861680" lon="1.094050">
        <ele>1106.734</ele>
        <time>2026-07-16T11:44:07.928Z</time>
      </trkpt>
      <trkpt lat="42.861580" lon="1.094130">
        <ele>1107.680</ele>
        <time>2026-07-16T11:44:27.928Z</time>
      </trkpt>
      <trkpt lat="42.861300" lon="1.094300">
        <ele>1110.543</ele>
        <time>2026-07-16T11:44:47.928Z</time>
      </trkpt>
      <trkpt lat="42.860940" lon="1.094390">
        <ele>1114.674</ele>
        <time>2026-07-16T11:45:07.928Z</time>
      </trkpt>
      <trkpt lat="42.860570" lon="1.094440">
        <ele>1118.056</ele>
        <time>2026-07-16T11:45:27.928Z</time>
      </trkpt>
      <trkpt lat="42.860030" lon="1.094350">
        <ele>1124.221</ele>
        <time>2026-07-16T11:45:47.928Z</time>
      </trkpt>
      <trkpt lat="42.859500" lon="1.094220">
        <ele>1123.309</ele>
        <time>2026-07-16T11:46:07.928Z</time>
      </trkpt>
      <trkpt lat="42.859150" lon="1.094090">
        <ele>1122.299</ele>
        <time>2026-07-16T11:46:27.928Z</time>
      </trkpt>
      <trkpt lat="42.858790" lon="1.093890">
        <ele>1122.242</ele>
        <time>2026-07-16T11:46:47.928Z</time>
      </trkpt>
      <trkpt lat="42.857720" lon="1.093130">
        <ele>1131.358</ele>
        <time>2026-07-16T11:47:07.928Z</time>
      </trkpt>
      <trkpt lat="42.856770" lon="1.092330">
        <ele>1143.164</ele>
        <time>2026-07-16T11:47:27.928Z</time>
      </trkpt>
      <trkpt lat="42.856390" lon="1.092120">
        <ele>1147.684</ele>
        <time>2026-07-16T11:47:47.928Z</time>
      </trkpt>
      <trkpt lat="42.856160" lon="1.092030">
        <ele>1148.569</ele>
        <time>2026-07-16T11:48:07.928Z</time>
      </trkpt>
      <trkpt lat="42.856050" lon="1.092010">
        <ele>1149.656</ele>
        <time>2026-07-16T11:48:27.928Z</time>
      </trkpt>
      <trkpt lat="42.855880" lon="1.092090">
        <ele>1151.572</ele>
        <time>2026-07-16T11:48:47.928Z</time>
      </trkpt>
      <trkpt lat="42.855440" lon="1.092590">
        <ele>1155.755</ele>
        <time>2026-07-16T11:49:07.928Z</time>
      </trkpt>
      <trkpt lat="42.855030" lon="1.092990">
        <ele>1156.782</ele>
        <time>2026-07-16T11:49:27.928Z</time>
      </trkpt>
      <trkpt lat="42.854780" lon="1.093210">
        <ele>1160.043</ele>
        <time>2026-07-16T11:49:47.928Z</time>
      </trkpt>
      <trkpt lat="42.854670" lon="1.093370">
        <ele>1161.417</ele>
        <time>2026-07-16T11:50:07.928Z</time>
      </trkpt>
      <trkpt lat="42.854590" lon="1.093540">
        <ele>1163.609</ele>
        <time>2026-07-16T11:50:27.928Z</time>
      </trkpt>
      <trkpt lat="42.854390" lon="1.094010">
        <ele>1170.330</ele>
        <time>2026-07-16T11:50:47.928Z</time>
      </trkpt>
      <trkpt lat="42.854370" lon="1.094250">
        <ele>1170.973</ele>
        <time>2026-07-16T11:51:07.928Z</time>
      </trkpt>
      <trkpt lat="42.854400" lon="1.094510">
        <ele>1170.539</ele>
        <time>2026-07-16T11:51:27.928Z</time>
      </trkpt>
      <trkpt lat="42.854480" lon="1.095720">
        <ele>1176.085</ele>
        <time>2026-07-16T11:51:47.928Z</time>
      </trkpt>
      <trkpt lat="42.854530" lon="1.096030">
        <ele>1182.435</ele>
        <time>2026-07-16T11:52:07.928Z</time>
      </trkpt>
      <trkpt lat="42.854630" lon="1.096270">
        <ele>1190.940</ele>
        <time>2026-07-16T11:52:27.928Z</time>
      </trkpt>
      <trkpt lat="42.854740" lon="1.096390">
        <ele>1193.447</ele>
        <time>2026-07-16T11:52:47.928Z</time>
      </trkpt>
      <trkpt lat="42.855020" lon="1.096580">
        <ele>1196.933</ele>
        <time>2026-07-16T11:53:07.928Z</time>
      </trkpt>
      <trkpt lat="42.855250" lon="1.096760">
        <ele>1200.816</ele>
        <time>2026-07-16T11:53:27.928Z</time>
      </trkpt>
      <trkpt lat="42.855400" lon="1.096950">
        <ele>1210.573</ele>
        <time>2026-07-16T11:53:47.928Z</time>
      </trkpt>
      <trkpt lat="42.855780" lon="1.097180">
        <ele>1212.385</ele>
        <time>2026-07-16T11:54:07.928Z</time>
      </trkpt>
      <trkpt lat="42.856130" lon="1.097450">
        <ele>1214.513</ele>
        <time>2026-07-16T11:54:27.928Z</time>
      </trkpt>
      <trkpt lat="42.856330" lon="1.097590">
        <ele>1213.809</ele>
        <time>2026-07-16T11:54:47.928Z</time>
      </trkpt>
      <trkpt lat="42.856420" lon="1.097650">
        <ele>1213.379</ele>
        <time>2026-07-16T11:55:07.928Z</time>
      </trkpt>
      <trkpt lat="42.856470" lon="1.097680">
        <ele>1212.912</ele>
        <time>2026-07-16T11:55:27.928Z</time>
      </trkpt>
      <trkpt lat="42.857040" lon="1.098160">
        <ele>1220.338</ele>
        <time>2026-07-16T11:55:47.928Z</time>
      </trkpt>
      <trkpt lat="42.857700" lon="1.098450">
        <ele>1222.114</ele>
        <time>2026-07-16T11:56:07.928Z</time>
      </trkpt>
      <trkpt lat="42.858390" lon="1.098770">
        <ele>1225.094</ele>
        <time>2026-07-16T11:56:27.928Z</time>
      </trkpt>
      <trkpt lat="42.858680" lon="1.099020">
        <ele>1227.339</ele>
        <time>2026-07-16T11:56:47.928Z</time>
      </trkpt>
      <trkpt lat="42.858970" lon="1.099230">
        <ele>1232.276</ele>
        <time>2026-07-16T11:57:07.928Z</time>
      </trkpt>
      <trkpt lat="42.859240" lon="1.099340">
        <ele>1234.342</ele>
        <time>2026-07-16T11:57:27.928Z</time>
      </trkpt>
      <trkpt lat="42.859360" lon="1.099590">
        <ele>1237.885</ele>
        <time>2026-07-16T11:57:47.928Z</time>
      </trkpt>
      <trkpt lat="42.859500" lon="1.099980">
        <ele>1239.983</ele>
        <time>2026-07-16T11:58:07.928Z</time>
      </trkpt>
      <trkpt lat="42.859690" lon="1.100610">
        <ele>1245.125</ele>
        <time>2026-07-16T11:58:27.928Z</time>
      </trkpt>
      <trkpt lat="42.859760" lon="1.100790">
        <ele>1246.917</ele>
        <time>2026-07-16T11:58:47.928Z</time>
      </trkpt>
      <trkpt lat="42.860000" lon="1.101110">
        <ele>1252.009</ele>
        <time>2026-07-16T11:59:07.928Z</time>
      </trkpt>
      <trkpt lat="42.860260" lon="1.101320">
        <ele>1253.840</ele>
        <time>2026-07-16T11:59:27.928Z</time>
      </trkpt>
      <trkpt lat="42.860880" lon="1.101620">
        <ele>1254.313</ele>
        <time>2026-07-16T11:59:47.928Z</time>
      </trkpt>
      <trkpt lat="42.861150" lon="1.101730">
        <ele>1258.089</ele>
        <time>2026-07-16T12:00:07.928Z</time>
      </trkpt>
      <trkpt lat="42.861310" lon="1.101780">
        <ele>1260.075</ele>
        <time>2026-07-16T12:00:27.928Z</time>
      </trkpt>
      <trkpt lat="42.861490" lon="1.101710">
        <ele>1261.545</ele>
        <time>2026-07-16T12:00:47.928Z</time>
      </trkpt>
      <trkpt lat="42.861690" lon="1.101480">
        <ele>1260.880</ele>
        <time>2026-07-16T12:01:07.928Z</time>
      </trkpt>
      <trkpt lat="42.861790" lon="1.101420">
        <ele>1260.277</ele>
        <time>2026-07-16T12:01:27.928Z</time>
      </trkpt>
      <trkpt lat="42.861860" lon="1.101400">
        <ele>1260.413</ele>
        <time>2026-07-16T12:01:47.928Z</time>
      </trkpt>
      <trkpt lat="42.861940" lon="1.101440">
        <ele>1262.296</ele>
        <time>2026-07-16T12:02:07.928Z</time>
      </trkpt>
      <trkpt lat="42.862050" lon="1.101640">
        <ele>1263.174</ele>
        <time>2026-07-16T12:02:27.928Z</time>
      </trkpt>
      <trkpt lat="42.862150" lon="1.101960">
        <ele>1265.856</ele>
        <time>2026-07-16T12:02:47.928Z</time>
      </trkpt>
      <trkpt lat="42.862220" lon="1.102300">
        <ele>1267.421</ele>
        <time>2026-07-16T12:03:07.928Z</time>
      </trkpt>
      <trkpt lat="42.862140" lon="1.103130">
        <ele>1276.709</ele>
        <time>2026-07-16T12:03:27.928Z</time>
      </trkpt>
      <trkpt lat="42.862170" lon="1.103300">
        <ele>1280.269</ele>
        <time>2026-07-16T12:03:47.928Z</time>
      </trkpt>
      <trkpt lat="42.862220" lon="1.103380">
        <ele>1281.622</ele>
        <time>2026-07-16T12:04:07.928Z</time>
      </trkpt>
      <trkpt lat="42.862290" lon="1.103440">
        <ele>1283.888</ele>
        <time>2026-07-16T12:04:27.928Z</time>
      </trkpt>
      <trkpt lat="42.862470" lon="1.103440">
        <ele>1284.744</ele>
        <time>2026-07-16T12:04:47.928Z</time>
      </trkpt>
      <trkpt lat="42.863140" lon="1.103350">
        <ele>1285.824</ele>
        <time>2026-07-16T12:05:07.928Z</time>
      </trkpt>
      <trkpt lat="42.863560" lon="1.103340">
        <ele>1291.549</ele>
        <time>2026-07-16T12:05:27.928Z</time>
      </trkpt>
      <trkpt lat="42.863720" lon="1.103360">
        <ele>1292.166</ele>
        <time>2026-07-16T12:05:47.928Z</time>
      </trkpt>
      <trkpt lat="42.864070" lon="1.103370">
        <ele>1292.442</ele>
        <time>2026-07-16T12:06:07.928Z</time>
      </trkpt>
      <trkpt lat="42.864160" lon="1.103350">
        <ele>1292.445</ele>
        <time>2026-07-16T12:06:27.928Z</time>
      </trkpt>
      <trkpt lat="42.864350" lon="1.103250">
        <ele>1295.624</ele>
        <time>2026-07-16T12:06:47.928Z</time>
      </trkpt>
      <trkpt lat="42.864460" lon="1.103150">
        <ele>1296.704</ele>
        <time>2026-07-16T12:07:07.928Z</time>
      </trkpt>
      <trkpt lat="42.864730" lon="1.102730">
        <ele>1297.214</ele>
        <time>2026-07-16T12:07:27.928Z</time>
      </trkpt>
      <trkpt lat="42.865310" lon="1.102010">
        <ele>1305.909</ele>
        <time>2026-07-16T12:07:47.928Z</time>
      </trkpt>
      <trkpt lat="42.865450" lon="1.101750">
        <ele>1309.954</ele>
        <time>2026-07-16T12:08:07.928Z</time>
      </trkpt>
      <trkpt lat="42.865480" lon="1.101600">
        <ele>1310.327</ele>
        <time>2026-07-16T12:08:27.928Z</time>
      </trkpt>
      <trkpt lat="42.865500" lon="1.101440">
        <ele>1310.733</ele>
        <time>2026-07-16T12:08:47.928Z</time>
      </trkpt>
      <trkpt lat="42.865510" lon="1.101030">
        <ele>1311.979</ele>
        <time>2026-07-16T12:09:07.928Z</time>
      </trkpt>
      <trkpt lat="42.865580" lon="1.100770">
        <ele>1313.789</ele>
        <time>2026-07-16T12:09:27.928Z</time>
      </trkpt>
      <trkpt lat="42.865790" lon="1.100470">
        <ele>1313.924</ele>
        <time>2026-07-16T12:09:47.928Z</time>
      </trkpt>
      <trkpt lat="42.866000" lon="1.100280">
        <ele>1314.721</ele>
        <time>2026-07-16T12:10:07.928Z</time>
      </trkpt>
      <trkpt lat="42.866030" lon="1.100260">
        <ele>1314.747</ele>
        <time>2026-07-16T12:10:27.928Z</time>
      </trkpt>
      <trkpt lat="42.866130" lon="1.100220">
        <ele>1315.910</ele>
        <time>2026-07-16T12:10:47.928Z</time>
      </trkpt>
      <trkpt lat="42.866180" lon="1.100210">
        <ele>1316.961</ele>
        <time>2026-07-16T12:11:07.928Z</time>
      </trkpt>
      <trkpt lat="42.866220" lon="1.100250">
        <ele>1319.321</ele>
        <time>2026-07-16T12:11:27.928Z</time>
      </trkpt>
      <trkpt lat="42.866230" lon="1.100300">
        <ele>1321.113</ele>
        <time>2026-07-16T12:11:47.928Z</time>
      </trkpt>
      <trkpt lat="42.866220" lon="1.100360">
        <ele>1322.809</ele>
        <time>2026-07-16T12:12:07.928Z</time>
      </trkpt>
      <trkpt lat="42.866130" lon="1.100460">
        <ele>1323.418</ele>
        <time>2026-07-16T12:12:27.928Z</time>
      </trkpt>
      <trkpt lat="42.865920" lon="1.100620">
        <ele>1321.581</ele>
        <time>2026-07-16T12:12:47.928Z</time>
      </trkpt>
      <trkpt lat="42.865860" lon="1.100720">
        <ele>1322.197</ele>
        <time>2026-07-16T12:13:07.928Z</time>
      </trkpt>
      <trkpt lat="42.865810" lon="1.100840">
        <ele>1323.293</ele>
        <time>2026-07-16T12:13:27.928Z</time>
      </trkpt>
      <trkpt lat="42.865790" lon="1.100980">
        <ele>1323.933</ele>
        <time>2026-07-16T12:13:47.928Z</time>
      </trkpt>
      <trkpt lat="42.865830" lon="1.101470">
        <ele>1328.478</ele>
        <time>2026-07-16T12:14:07.928Z</time>
      </trkpt>
      <trkpt lat="42.865780" lon="1.102160">
        <ele>1333.275</ele>
        <time>2026-07-16T12:14:27.928Z</time>
      </trkpt>
      <trkpt lat="42.865660" lon="1.102480">
        <ele>1335.161</ele>
        <time>2026-07-16T12:14:47.928Z</time>
      </trkpt>
      <trkpt lat="42.865280" lon="1.103200">
        <ele>1338.864</ele>
        <time>2026-07-16T12:15:07.928Z</time>
      </trkpt>
      <trkpt lat="42.865130" lon="1.103530">
        <ele>1338.685</ele>
        <time>2026-07-16T12:15:27.928Z</time>
      </trkpt>
      <trkpt lat="42.864930" lon="1.104310">
        <ele>1343.789</ele>
        <time>2026-07-16T12:15:47.928Z</time>
      </trkpt>
      <trkpt lat="42.864820" lon="1.104830">
        <ele>1350.117</ele>
        <time>2026-07-16T12:16:07.928Z</time>
      </trkpt>
      <trkpt lat="42.864790" lon="1.104900">
        <ele>1351.009</ele>
        <time>2026-07-16T12:16:27.928Z</time>
      </trkpt>
      <trkpt lat="42.864730" lon="1.104970">
        <ele>1351.240</ele>
        <time>2026-07-16T12:16:47.928Z</time>
      </trkpt>
      <trkpt lat="42.864320" lon="1.105120">
        <ele>1356.483</ele>
        <time>2026-07-16T12:17:07.928Z</time>
      </trkpt>
      <trkpt lat="42.863890" lon="1.105180">
        <ele>1358.129</ele>
        <time>2026-07-16T12:17:27.928Z</time>
      </trkpt>
      <trkpt lat="42.863570" lon="1.105260">
        <ele>1359.925</ele>
        <time>2026-07-16T12:17:47.928Z</time>
      </trkpt>
      <trkpt lat="42.863220" lon="1.105420">
        <ele>1364.135</ele>
        <time>2026-07-16T12:18:07.928Z</time>
      </trkpt>
      <trkpt lat="42.862500" lon="1.105790">
        <ele>1375.150</ele>
        <time>2026-07-16T12:18:27.928Z</time>
      </trkpt>
      <trkpt lat="42.861760" lon="1.106220">
        <ele>1384.657</ele>
        <time>2026-07-16T12:18:47.928Z</time>
      </trkpt>
      <trkpt lat="42.861420" lon="1.106220">
        <ele>1386.253</ele>
        <time>2026-07-16T12:19:07.928Z</time>
      </trkpt>
      <trkpt lat="42.861040" lon="1.106080">
        <ele>1387.186</ele>
        <time>2026-07-16T12:19:27.928Z</time>
      </trkpt>
      <trkpt lat="42.860880" lon="1.105990">
        <ele>1389.124</ele>
        <time>2026-07-16T12:19:47.928Z</time>
      </trkpt>
      <trkpt lat="42.860770" lon="1.105910">
        <ele>1389.804</ele>
        <time>2026-07-16T12:20:07.928Z</time>
      </trkpt>
      <trkpt lat="42.860630" lon="1.105750">
        <ele>1390.314</ele>
        <time>2026-07-16T12:20:27.928Z</time>
      </trkpt>
      <trkpt lat="42.860460" lon="1.105490">
        <ele>1391.009</ele>
        <time>2026-07-16T12:20:47.928Z</time>
      </trkpt>
      <trkpt lat="42.860140" lon="1.104920">
        <ele>1394.864</ele>
        <time>2026-07-16T12:21:07.928Z</time>
      </trkpt>
      <trkpt lat="42.860060" lon="1.104800">
        <ele>1396.567</ele>
        <time>2026-07-16T12:21:27.928Z</time>
      </trkpt>
      <trkpt lat="42.859970" lon="1.104720">
        <ele>1398.393</ele>
        <time>2026-07-16T12:21:47.928Z</time>
      </trkpt>
      <trkpt lat="42.859870" lon="1.104670">
        <ele>1398.129</ele>
        <time>2026-07-16T12:22:07.928Z</time>
      </trkpt>
      <trkpt lat="42.859650" lon="1.104640">
        <ele>1398.419</ele>
        <time>2026-07-16T12:22:27.928Z</time>
      </trkpt>
      <trkpt lat="42.859440" lon="1.104720">
        <ele>1398.914</ele>
        <time>2026-07-16T12:22:47.928Z</time>
      </trkpt>
      <trkpt lat="42.859110" lon="1.104900">
        <ele>1398.031</ele>
        <time>2026-07-16T12:23:07.928Z</time>
      </trkpt>
      <trkpt lat="42.858900" lon="1.104990">
        <ele>1395.157</ele>
        <time>2026-07-16T12:23:27.928Z</time>
      </trkpt>
      <trkpt lat="42.858900" lon="1.105000">
        <ele>1395.270</ele>
        <time>2026-07-16T12:23:47.928Z</time>
      </trkpt>
    </trkseg>
  </trk></gpx>