<?xml version="1.0" encoding="UTF-8"?>
<gpx creator="Wikiloc - https://www.wikiloc.com" version="1.1" xmlns="http://www.topografix.com/GPX/1/1" xmlns:xsi="http://www.w3.org/2001/XMLSchema-instance" xsi:schemaLocation="http://www.topografix.com/GPX/1/1 http://www.topografix.com/GPX/1/1/gpx.xsd">
  <metadata>
    <name>Wikiloc - COL DE LA LOZE por (Brides-les-Bains)</name>
    <link href="https://www.wikiloc.com/cycling-trails/col-de-la-loze-por-brides-les-bains-268123504">
      <text>COL DE LA LOZE por (Brides-les-Bains) - Wikiloc on Wikiloc</text>
    </link>
    <time>2026-07-16T10:18:12.003Z</time>
  </metadata>
  <trk>
    <name>COL DE LA LOZE por (Brides-les-Bains) - Wikiloc</name>
    <cmt></cmt>
    <desc></desc>
    <trkseg>
      <trkpt lat="45.451890" lon="6.566220">
        <ele>589.944</ele>
        <time>2026-07-16T10:18:12.001Z</time>
      </trkpt>
      <trkpt lat="45.451660" lon="6.566130">
        <ele>591.905</ele>
        <time>2026-07-16T10:18:32.001Z</time>
      </trkpt>
      <trkpt lat="45.451300" lon="6.566140">
        <ele>593.815</ele>
        <time>2026-07-16T10:18:52.001Z</time>
      </trkpt>
      <trkpt lat="45.451220" lon="6.566010">
        <ele>595.709</ele>
        <time>2026-07-16T10:19:12.001Z</time>
      </trkpt>
      <trkpt lat="45.451200" lon="6.565660">
        <ele>599.786</ele>
        <time>2026-07-16T10:19:32.001Z</time>
      </trkpt>
      <trkpt lat="45.451290" lon="6.565480">
        <ele>601.730</ele>
        <time>2026-07-16T10:19:52.001Z</time>
      </trkpt>
      <trkpt lat="45.451490" lon="6.565460">
        <ele>601.692</ele>
        <time>2026-07-16T10:20:12.001Z</time>
      </trkpt>
      <trkpt lat="45.451750" lon="6.565610">
        <ele>598.165</ele>
        <time>2026-07-16T10:20:32.001Z</time>
      </trkpt>
      <trkpt lat="45.452110" lon="6.565370">
        <ele>598.986</ele>
        <time>2026-07-16T10:20:52.001Z</time>
      </trkpt>
      <trkpt lat="45.452710" lon="6.564400">
        <ele>604.727</ele>
        <time>2026-07-16T10:21:12.001Z</time>
      </trkpt>
      <trkpt lat="45.452850" lon="6.562550">
        <ele>612.889</ele>
        <time>2026-07-16T10:21:32.001Z</time>
      </trkpt>
      <trkpt lat="45.452810" lon="6.562140">
        <ele>615.114</ele>
        <time>2026-07-16T10:21:52.001Z</time>
      </trkpt>
      <trkpt lat="45.452580" lon="6.561850">
        <ele>623.258</ele>
        <time>2026-07-16T10:22:12.001Z</time>
      </trkpt>
      <trkpt lat="45.452430" lon="6.561550">
        <ele>628.584</ele>
        <time>2026-07-16T10:22:32.001Z</time>
      </trkpt>
      <trkpt lat="45.452360" lon="6.561140">
        <ele>629.207</ele>
        <time>2026-07-16T10:22:52.001Z</time>
      </trkpt>
      <trkpt lat="45.452440" lon="6.560510">
        <ele>629.817</ele>
        <time>2026-07-16T10:23:12.001Z</time>
      </trkpt>
      <trkpt lat="45.452920" lon="6.559350">
        <ele>633.009</ele>
        <time>2026-07-16T10:23:32.001Z</time>
      </trkpt>
      <trkpt lat="45.453380" lon="6.558600">
        <ele>629.690</ele>
        <time>2026-07-16T10:23:52.001Z</time>
      </trkpt>
      <trkpt lat="45.454010" lon="6.557380">
        <ele>648.664</ele>
        <time>2026-07-16T10:24:12.001Z</time>
      </trkpt>
      <trkpt lat="45.454130" lon="6.557040">
        <ele>649.256</ele>
        <time>2026-07-16T10:24:32.001Z</time>
      </trkpt>
      <trkpt lat="45.454120" lon="6.556850">
        <ele>652.539</ele>
        <time>2026-07-16T10:24:52.001Z</time>
      </trkpt>
      <trkpt lat="45.453960" lon="6.556890">
        <ele>659.040</ele>
        <time>2026-07-16T10:25:12.001Z</time>
      </trkpt>
      <trkpt lat="45.453840" lon="6.557140">
        <ele>658.521</ele>
        <time>2026-07-16T10:25:32.001Z</time>
      </trkpt>
      <trkpt lat="45.453690" lon="6.557380">
        <ele>655.923</ele>
        <time>2026-07-16T10:25:52.001Z</time>
      </trkpt>
      <trkpt lat="45.453290" lon="6.557560">
        <ele>660.168</ele>
        <time>2026-07-16T10:26:12.001Z</time>
      </trkpt>
      <trkpt lat="45.453030" lon="6.557910">
        <ele>664.682</ele>
        <time>2026-07-16T10:26:32.001Z</time>
      </trkpt>
      <trkpt lat="45.452160" lon="6.559600">
        <ele>679.787</ele>
        <time>2026-07-16T10:26:52.001Z</time>
      </trkpt>
      <trkpt lat="45.451450" lon="6.560600">
        <ele>686.842</ele>
        <time>2026-07-16T10:27:12.001Z</time>
      </trkpt>
      <trkpt lat="45.451280" lon="6.560950">
        <ele>690.726</ele>
        <time>2026-07-16T10:27:32.001Z</time>
      </trkpt>
      <trkpt lat="45.451170" lon="6.561470">
        <ele>688.209</ele>
        <time>2026-07-16T10:27:52.001Z</time>
      </trkpt>
      <trkpt lat="45.450920" lon="6.561730">
        <ele>691.680</ele>
        <time>2026-07-16T10:28:12.001Z</time>
      </trkpt>
      <trkpt lat="45.450270" lon="6.562200">
        <ele>703.094</ele>
        <time>2026-07-16T10:28:32.001Z</time>
      </trkpt>
      <trkpt lat="45.450040" lon="6.562500">
        <ele>707.116</ele>
        <time>2026-07-16T10:28:52.001Z</time>
      </trkpt>
      <trkpt lat="45.449820" lon="6.562650">
        <ele>708.359</ele>
        <time>2026-07-16T10:29:12.001Z</time>
      </trkpt>
      <trkpt lat="45.449500" lon="6.562710">
        <ele>708.740</ele>
        <time>2026-07-16T10:29:32.001Z</time>
      </trkpt>
      <trkpt lat="45.448650" lon="6.562390">
        <ele>719.541</ele>
        <time>2026-07-16T10:29:52.001Z</time>
      </trkpt>
      <trkpt lat="45.448500" lon="6.562360">
        <ele>726.313</ele>
        <time>2026-07-16T10:30:12.001Z</time>
      </trkpt>
      <trkpt lat="45.448260" lon="6.562610">
        <ele>727.998</ele>
        <time>2026-07-16T10:30:32.001Z</time>
      </trkpt>
      <trkpt lat="45.448060" lon="6.562780">
        <ele>727.892</ele>
        <time>2026-07-16T10:30:52.001Z</time>
      </trkpt>
      <trkpt lat="45.447290" lon="6.563020">
        <ele>732.556</ele>
        <time>2026-07-16T10:31:12.001Z</time>
      </trkpt>
      <trkpt lat="45.447110" lon="6.563040">
        <ele>731.859</ele>
        <time>2026-07-16T10:31:32.001Z</time>
      </trkpt>
      <trkpt lat="45.446680" lon="6.562800">
        <ele>735.414</ele>
        <time>2026-07-16T10:31:52.001Z</time>
      </trkpt>
      <trkpt lat="45.446420" lon="6.562710">
        <ele>733.009</ele>
        <time>2026-07-16T10:32:12.001Z</time>
      </trkpt>
      <trkpt lat="45.446390" lon="6.562610">
        <ele>737.597</ele>
        <time>2026-07-16T10:32:32.001Z</time>
      </trkpt>
      <trkpt lat="45.446430" lon="6.562500">
        <ele>743.141</ele>
        <time>2026-07-16T10:32:52.001Z</time>
      </trkpt>
      <trkpt lat="45.446550" lon="6.562480">
        <ele>744.553</ele>
        <time>2026-07-16T10:33:12.001Z</time>
      </trkpt>
      <trkpt lat="45.447030" lon="6.562700">
        <ele>744.126</ele>
        <time>2026-07-16T10:33:32.001Z</time>
      </trkpt>
      <trkpt lat="45.447760" lon="6.562370">
        <ele>752.527</ele>
        <time>2026-07-16T10:33:52.001Z</time>
      </trkpt>
      <trkpt lat="45.447910" lon="6.562220">
        <ele>755.268</ele>
        <time>2026-07-16T10:34:12.001Z</time>
      </trkpt>
      <trkpt lat="45.448060" lon="6.561850">
        <ele>763.660</ele>
        <time>2026-07-16T10:34:32.001Z</time>
      </trkpt>
      <trkpt lat="45.448240" lon="6.561410">
        <ele>769.715</ele>
        <time>2026-07-16T10:34:52.001Z</time>
      </trkpt>
      <trkpt lat="45.448410" lon="6.561240">
        <ele>767.829</ele>
        <time>2026-07-16T10:35:12.001Z</time>
      </trkpt>
      <trkpt lat="45.448650" lon="6.561190">
        <ele>764.481</ele>
        <time>2026-07-16T10:35:32.001Z</time>
      </trkpt>
      <trkpt lat="45.449330" lon="6.561320">
        <ele>768.061</ele>
        <time>2026-07-16T10:35:52.001Z</time>
      </trkpt>
      <trkpt lat="45.449540" lon="6.561240">
        <ele>770.917</ele>
        <time>2026-07-16T10:36:12.001Z</time>
      </trkpt>
      <trkpt lat="45.449860" lon="6.560700">
        <ele>776.909</ele>
        <time>2026-07-16T10:36:32.001Z</time>
      </trkpt>
      <trkpt lat="45.449830" lon="6.560570">
        <ele>780.090</ele>
        <time>2026-07-16T10:36:52.001Z</time>
      </trkpt>
      <trkpt lat="45.449730" lon="6.560530">
        <ele>783.744</ele>
        <time>2026-07-16T10:37:12.001Z</time>
      </trkpt>
      <trkpt lat="45.449530" lon="6.560710">
        <ele>782.076</ele>
        <time>2026-07-16T10:37:32.001Z</time>
      </trkpt>
      <trkpt lat="45.448290" lon="6.560710">
        <ele>787.829</ele>
        <time>2026-07-16T10:37:52.001Z</time>
      </trkpt>
      <trkpt lat="45.447940" lon="6.560660">
        <ele>798.980</ele>
        <time>2026-07-16T10:38:12.001Z</time>
      </trkpt>
      <trkpt lat="45.447640" lon="6.561010">
        <ele>799.821</ele>
        <time>2026-07-16T10:38:32.001Z</time>
      </trkpt>
      <trkpt lat="45.447080" lon="6.561250">
        <ele>803.083</ele>
        <time>2026-07-16T10:38:52.001Z</time>
      </trkpt>
      <trkpt lat="45.446970" lon="6.561260">
        <ele>802.828</ele>
        <time>2026-07-16T10:39:12.001Z</time>
      </trkpt>
      <trkpt lat="45.446830" lon="6.561230">
        <ele>801.912</ele>
        <time>2026-07-16T10:39:32.001Z</time>
      </trkpt>
      <trkpt lat="45.446630" lon="6.561030">
        <ele>802.891</ele>
        <time>2026-07-16T10:39:52.001Z</time>
      </trkpt>
      <trkpt lat="45.446440" lon="6.560750">
        <ele>805.881</ele>
        <time>2026-07-16T10:40:12.001Z</time>
      </trkpt>
      <trkpt lat="45.446320" lon="6.560640">
        <ele>808.919</ele>
        <time>2026-07-16T10:40:32.002Z</time>
      </trkpt>
      <trkpt lat="45.446120" lon="6.560580">
        <ele>814.309</ele>
        <time>2026-07-16T10:40:52.002Z</time>
      </trkpt>
      <trkpt lat="45.445820" lon="6.560690">
        <ele>821.061</ele>
        <time>2026-07-16T10:41:12.002Z</time>
      </trkpt>
      <trkpt lat="45.445560" lon="6.561000">
        <ele>819.775</ele>
        <time>2026-07-16T10:41:32.002Z</time>
      </trkpt>
      <trkpt lat="45.445460" lon="6.561140">
        <ele>819.077</ele>
        <time>2026-07-16T10:41:52.002Z</time>
      </trkpt>
      <trkpt lat="45.445370" lon="6.561120">
        <ele>822.650</ele>
        <time>2026-07-16T10:42:12.002Z</time>
      </trkpt>
      <trkpt lat="45.445350" lon="6.560920">
        <ele>829.571</ele>
        <time>2026-07-16T10:42:32.002Z</time>
      </trkpt>
      <trkpt lat="45.445530" lon="6.560710">
        <ele>829.542</ele>
        <time>2026-07-16T10:42:52.002Z</time>
      </trkpt>
      <trkpt lat="45.445960" lon="6.560170">
        <ele>831.754</ele>
        <time>2026-07-16T10:43:12.002Z</time>
      </trkpt>
      <trkpt lat="45.446190" lon="6.560050">
        <ele>829.319</ele>
        <time>2026-07-16T10:43:32.002Z</time>
      </trkpt>
      <trkpt lat="45.446550" lon="6.560010">
        <ele>828.663</ele>
        <time>2026-07-16T10:43:52.002Z</time>
      </trkpt>
      <trkpt lat="45.446830" lon="6.559770">
        <ele>835.634</ele>
        <time>2026-07-16T10:44:12.002Z</time>
      </trkpt>
      <trkpt lat="45.447070" lon="6.559220">
        <ele>844.255</ele>
        <time>2026-07-16T10:44:32.002Z</time>
      </trkpt>
      <trkpt lat="45.447220" lon="6.559030">
        <ele>841.610</ele>
        <time>2026-07-16T10:44:52.002Z</time>
      </trkpt>
      <trkpt lat="45.447710" lon="6.558800">
        <ele>845.209</ele>
        <time>2026-07-16T10:45:12.002Z</time>
      </trkpt>
      <trkpt lat="45.448190" lon="6.558840">
        <ele>846.685</ele>
        <time>2026-07-16T10:45:32.002Z</time>
      </trkpt>
      <trkpt lat="45.448580" lon="6.558560">
        <ele>855.619</ele>
        <time>2026-07-16T10:45:52.002Z</time>
      </trkpt>
      <trkpt lat="45.448960" lon="6.558450">
        <ele>858.071</ele>
        <time>2026-07-16T10:46:12.002Z</time>
      </trkpt>
      <trkpt lat="45.449270" lon="6.558240">
        <ele>862.454</ele>
        <time>2026-07-16T10:46:32.002Z</time>
      </trkpt>
      <trkpt lat="45.449570" lon="6.558110">
        <ele>864.325</ele>
        <time>2026-07-16T10:46:52.002Z</time>
      </trkpt>
      <trkpt lat="45.449590" lon="6.557970">
        <ele>869.186</ele>
        <time>2026-07-16T10:47:12.002Z</time>
      </trkpt>
      <trkpt lat="45.449480" lon="6.557870">
        <ele>872.748</ele>
        <time>2026-07-16T10:47:32.002Z</time>
      </trkpt>
      <trkpt lat="45.449130" lon="6.558050">
        <ele>870.353</ele>
        <time>2026-07-16T10:47:52.002Z</time>
      </trkpt>
      <trkpt lat="45.448900" lon="6.558120">
        <ele>868.647</ele>
        <time>2026-07-16T10:48:12.002Z</time>
      </trkpt>
      <trkpt lat="45.448720" lon="6.558060">
        <ele>870.329</ele>
        <time>2026-07-16T10:48:32.002Z</time>
      </trkpt>
      <trkpt lat="45.448360" lon="6.557840">
        <ele>876.700</ele>
        <time>2026-07-16T10:48:52.002Z</time>
      </trkpt>
      <trkpt lat="45.447640" lon="6.557650">
        <ele>885.020</ele>
        <time>2026-07-16T10:49:12.002Z</time>
      </trkpt>
      <trkpt lat="45.447440" lon="6.557640">
        <ele>888.409</ele>
        <time>2026-07-16T10:49:32.002Z</time>
      </trkpt>
      <trkpt lat="45.446990" lon="6.557950">
        <ele>891.094</ele>
        <time>2026-07-16T10:49:52.002Z</time>
      </trkpt>
      <trkpt lat="45.446460" lon="6.558180">
        <ele>897.758</ele>
        <time>2026-07-16T10:50:12.002Z</time>
      </trkpt>
      <trkpt lat="45.446010" lon="6.558390">
        <ele>904.490</ele>
        <time>2026-07-16T10:50:32.002Z</time>
      </trkpt>
      <trkpt lat="45.445140" lon="6.559190">
        <ele>914.633</ele>
        <time>2026-07-16T10:50:52.002Z</time>
      </trkpt>
      <trkpt lat="45.444790" lon="6.559480">
        <ele>912.154</ele>
        <time>2026-07-16T10:51:12.002Z</time>
      </trkpt>
      <trkpt lat="45.443990" lon="6.559750">
        <ele>916.835</ele>
        <time>2026-07-16T10:51:32.002Z</time>
      </trkpt>
      <trkpt lat="45.443290" lon="6.559320">
        <ele>924.977</ele>
        <time>2026-07-16T10:51:52.002Z</time>
      </trkpt>
      <trkpt lat="45.442930" lon="6.559170">
        <ele>929.212</ele>
        <time>2026-07-16T10:52:12.002Z</time>
      </trkpt>
      <trkpt lat="45.442640" lon="6.559190">
        <ele>935.386</ele>
        <time>2026-07-16T10:52:32.002Z</time>
      </trkpt>
      <trkpt lat="45.442260" lon="6.559480">
        <ele>938.141</ele>
        <time>2026-07-16T10:52:52.002Z</time>
      </trkpt>
      <trkpt lat="45.441650" lon="6.559660">
        <ele>945.881</ele>
        <time>2026-07-16T10:53:12.002Z</time>
      </trkpt>
      <trkpt lat="45.441340" lon="6.559860">
        <ele>949.909</ele>
        <time>2026-07-16T10:53:32.002Z</time>
      </trkpt>
      <trkpt lat="45.441130" lon="6.560130">
        <ele>948.009</ele>
        <time>2026-07-16T10:53:52.002Z</time>
      </trkpt>
      <trkpt lat="45.440860" lon="6.560140">
        <ele>948.036</ele>
        <time>2026-07-16T10:54:12.002Z</time>
      </trkpt>
      <trkpt lat="45.440340" lon="6.559630">
        <ele>949.680</ele>
        <time>2026-07-16T10:54:32.002Z</time>
      </trkpt>
      <trkpt lat="45.439970" lon="6.559360">
        <ele>955.792</ele>
        <time>2026-07-16T10:54:52.002Z</time>
      </trkpt>
      <trkpt lat="45.439250" lon="6.558990">
        <ele>964.175</ele>
        <time>2026-07-16T10:55:12.002Z</time>
      </trkpt>
      <trkpt lat="45.438830" lon="6.558550">
        <ele>970.156</ele>
        <time>2026-07-16T10:55:32.002Z</time>
      </trkpt>
      <trkpt lat="45.438360" lon="6.558530">
        <ele>971.977</ele>
        <time>2026-07-16T10:55:52.002Z</time>
      </trkpt>
      <trkpt lat="45.438300" lon="6.558450">
        <ele>974.319</ele>
        <time>2026-07-16T10:56:12.002Z</time>
      </trkpt>
      <trkpt lat="45.438300" lon="6.558330">
        <ele>977.214</ele>
        <time>2026-07-16T10:56:32.002Z</time>
      </trkpt>
      <trkpt lat="45.438360" lon="6.558230">
        <ele>979.758</ele>
        <time>2026-07-16T10:56:52.002Z</time>
      </trkpt>
      <trkpt lat="45.438990" lon="6.558040">
        <ele>980.297</ele>
        <time>2026-07-16T10:57:12.002Z</time>
      </trkpt>
      <trkpt lat="45.439300" lon="6.557940">
        <ele>983.923</ele>
        <time>2026-07-16T10:57:32.002Z</time>
      </trkpt>
      <trkpt lat="45.439640" lon="6.557930">
        <ele>986.925</ele>
        <time>2026-07-16T10:57:52.002Z</time>
      </trkpt>
      <trkpt lat="45.439840" lon="6.557840">
        <ele>988.709</ele>
        <time>2026-07-16T10:58:12.002Z</time>
      </trkpt>
      <trkpt lat="45.440080" lon="6.557540">
        <ele>993.451</ele>
        <time>2026-07-16T10:58:32.002Z</time>
      </trkpt>
      <trkpt lat="45.440270" lon="6.557420">
        <ele>994.985</ele>
        <time>2026-07-16T10:58:52.002Z</time>
      </trkpt>
      <trkpt lat="45.440920" lon="6.557230">
        <ele>1001.237</ele>
        <time>2026-07-16T10:59:12.002Z</time>
      </trkpt>
      <trkpt lat="45.441200" lon="6.557170">
        <ele>1003.730</ele>
        <time>2026-07-16T10:59:32.002Z</time>
      </trkpt>
      <trkpt lat="45.441390" lon="6.557210">
        <ele>1004.231</ele>
        <time>2026-07-16T10:59:52.002Z</time>
      </trkpt>
      <trkpt lat="45.441870" lon="6.557550">
        <ele>1006.942</ele>
        <time>2026-07-16T11:00:12.002Z</time>
      </trkpt>
      <trkpt lat="45.442230" lon="6.557580">
        <ele>1009.894</ele>
        <time>2026-07-16T11:00:32.002Z</time>
      </trkpt>
      <trkpt lat="45.442290" lon="6.557440">
        <ele>1013.869</ele>
        <time>2026-07-16T11:00:52.002Z</time>
      </trkpt>
      <trkpt lat="45.442230" lon="6.557340">
        <ele>1015.543</ele>
        <time>2026-07-16T11:01:12.002Z</time>
      </trkpt>
      <trkpt lat="45.441950" lon="6.557290">
        <ele>1013.656</ele>
        <time>2026-07-16T11:01:32.002Z</time>
      </trkpt>
      <trkpt lat="45.441690" lon="6.557090">
        <ele>1011.959</ele>
        <time>2026-07-16T11:01:52.002Z</time>
      </trkpt>
      <trkpt lat="45.441500" lon="6.556680">
        <ele>1015.814</ele>
        <time>2026-07-16T11:02:12.002Z</time>
      </trkpt>
      <trkpt lat="45.441460" lon="6.556390">
        <ele>1018.809</ele>
        <time>2026-07-16T11:02:32.002Z</time>
      </trkpt>
      <trkpt lat="45.441420" lon="6.556170">
        <ele>1021.417</ele>
        <time>2026-07-16T11:02:52.002Z</time>
      </trkpt>
      <trkpt lat="45.441320" lon="6.556010">
        <ele>1024.691</ele>
        <time>2026-07-16T11:03:12.002Z</time>
      </trkpt>
      <trkpt lat="45.439990" lon="6.555700">
        <ele>1037.333</ele>
        <time>2026-07-16T11:03:32.002Z</time>
      </trkpt>
      <trkpt lat="45.438700" lon="6.555570">
        <ele>1049.146</ele>
        <time>2026-07-16T11:03:52.002Z</time>
      </trkpt>
      <trkpt lat="45.438170" lon="6.555280">
        <ele>1054.057</ele>
        <time>2026-07-16T11:04:12.002Z</time>
      </trkpt>
      <trkpt lat="45.437020" lon="6.555040">
        <ele>1066.858</ele>
        <time>2026-07-16T11:04:32.002Z</time>
      </trkpt>
      <trkpt lat="45.436390" lon="6.555240">
        <ele>1071.770</ele>
        <time>2026-07-16T11:04:52.002Z</time>
      </trkpt>
      <trkpt lat="45.435630" lon="6.555710">
        <ele>1080.285</ele>
        <time>2026-07-16T11:05:12.002Z</time>
      </trkpt>
      <trkpt lat="45.435380" lon="6.555870">
        <ele>1080.219</ele>
        <time>2026-07-16T11:05:32.002Z</time>
      </trkpt>
      <trkpt lat="45.435180" lon="6.555910">
        <ele>1080.543</ele>
        <time>2026-07-16T11:05:52.002Z</time>
      </trkpt>
      <trkpt lat="45.434860" lon="6.555820">
        <ele>1081.264</ele>
        <time>2026-07-16T11:06:12.002Z</time>
      </trkpt>
      <trkpt lat="45.434290" lon="6.555600">
        <ele>1088.010</ele>
        <time>2026-07-16T11:06:32.002Z</time>
      </trkpt>
      <trkpt lat="45.434090" lon="6.555610">
        <ele>1090.609</ele>
        <time>2026-07-16T11:06:52.002Z</time>
      </trkpt>
      <trkpt lat="45.433920" lon="6.555760">
        <ele>1093.236</ele>
        <time>2026-07-16T11:07:12.002Z</time>
      </trkpt>
      <trkpt lat="45.433280" lon="6.556890">
        <ele>1094.460</ele>
        <time>2026-07-16T11:07:32.002Z</time>
      </trkpt>
      <trkpt lat="45.433050" lon="6.557280">
        <ele>1093.592</ele>
        <time>2026-07-16T11:07:52.002Z</time>
      </trkpt>
      <trkpt lat="45.432860" lon="6.557490">
        <ele>1093.935</ele>
        <time>2026-07-16T11:08:12.002Z</time>
      </trkpt>
      <trkpt lat="45.432410" lon="6.557740">
        <ele>1096.026</ele>
        <time>2026-07-16T11:08:32.002Z</time>
      </trkpt>
      <trkpt lat="45.432020" lon="6.557790">
        <ele>1093.747</ele>
        <time>2026-07-16T11:08:52.002Z</time>
      </trkpt>
      <trkpt lat="45.431870" lon="6.557760">
        <ele>1092.419</ele>
        <time>2026-07-16T11:09:12.002Z</time>
      </trkpt>
      <trkpt lat="45.431630" lon="6.557660">
        <ele>1091.714</ele>
        <time>2026-07-16T11:09:32.002Z</time>
      </trkpt>
      <trkpt lat="45.431430" lon="6.557490">
        <ele>1094.248</ele>
        <time>2026-07-16T11:09:52.002Z</time>
      </trkpt>
      <trkpt lat="45.430340" lon="6.556630">
        <ele>1107.529</ele>
        <time>2026-07-16T11:10:12.002Z</time>
      </trkpt>
      <trkpt lat="45.429640" lon="6.555990">
        <ele>1119.200</ele>
        <time>2026-07-16T11:10:32.002Z</time>
      </trkpt>
      <trkpt lat="45.429090" lon="6.555470">
        <ele>1125.120</ele>
        <time>2026-07-16T11:10:52.002Z</time>
      </trkpt>
      <trkpt lat="45.428830" lon="6.555240">
        <ele>1128.809</ele>
        <time>2026-07-16T11:11:12.002Z</time>
      </trkpt>
      <trkpt lat="45.428660" lon="6.555250">
        <ele>1132.344</ele>
        <time>2026-07-16T11:11:32.002Z</time>
      </trkpt>
      <trkpt lat="45.428460" lon="6.555400">
        <ele>1134.918</ele>
        <time>2026-07-16T11:11:52.002Z</time>
      </trkpt>
      <trkpt lat="45.428040" lon="6.555970">
        <ele>1137.920</ele>
        <time>2026-07-16T11:12:12.002Z</time>
      </trkpt>
      <trkpt lat="45.427670" lon="6.556120">
        <ele>1141.233</ele>
        <time>2026-07-16T11:12:32.002Z</time>
      </trkpt>
      <trkpt lat="45.427340" lon="6.556130">
        <ele>1146.294</ele>
        <time>2026-07-16T11:12:52.002Z</time>
      </trkpt>
      <trkpt lat="45.426800" lon="6.556580">
        <ele>1150.215</ele>
        <time>2026-07-16T11:13:12.002Z</time>
      </trkpt>
      <trkpt lat="45.426530" lon="6.556770">
        <ele>1153.167</ele>
        <time>2026-07-16T11:13:32.002Z</time>
      </trkpt>
      <trkpt lat="45.425990" lon="6.556980">
        <ele>1157.682</ele>
        <time>2026-07-16T11:13:52.002Z</time>
      </trkpt>
      <trkpt lat="45.424090" lon="6.557070">
        <ele>1171.476</ele>
        <time>2026-07-16T11:14:12.002Z</time>
      </trkpt>
      <trkpt lat="45.423820" lon="6.557010">
        <ele>1172.927</ele>
        <time>2026-07-16T11:14:32.002Z</time>
      </trkpt>
      <trkpt lat="45.423490" lon="6.556740">
        <ele>1175.168</ele>
        <time>2026-07-16T11:14:52.002Z</time>
      </trkpt>
      <trkpt lat="45.423020" lon="6.556060">
        <ele>1181.514</ele>
        <time>2026-07-16T11:15:12.002Z</time>
      </trkpt>
      <trkpt lat="45.422980" lon="6.555820">
        <ele>1184.509</ele>
        <time>2026-07-16T11:15:32.002Z</time>
      </trkpt>
      <trkpt lat="45.423090" lon="6.555620">
        <ele>1187.154</ele>
        <time>2026-07-16T11:15:52.002Z</time>
      </trkpt>
      <trkpt lat="45.423720" lon="6.555120">
        <ele>1192.298</ele>
        <time>2026-07-16T11:16:12.002Z</time>
      </trkpt>
      <trkpt lat="45.424020" lon="6.554980">
        <ele>1193.590</ele>
        <time>2026-07-16T11:16:32.002Z</time>
      </trkpt>
      <trkpt lat="45.424560" lon="6.555110">
        <ele>1193.913</ele>
        <time>2026-07-16T11:16:52.002Z</time>
      </trkpt>
      <trkpt lat="45.424770" lon="6.555090">
        <ele>1196.344</ele>
        <time>2026-07-16T11:17:12.002Z</time>
      </trkpt>
      <trkpt lat="45.424870" lon="6.555030">
        <ele>1197.065</ele>
        <time>2026-07-16T11:17:32.002Z</time>
      </trkpt>
      <trkpt lat="45.424980" lon="6.554880">
        <ele>1198.367</ele>
        <time>2026-07-16T11:17:52.002Z</time>
      </trkpt>
      <trkpt lat="45.425020" lon="6.554580">
        <ele>1200.372</ele>
        <time>2026-07-16T11:18:12.002Z</time>
      </trkpt>
      <trkpt lat="45.424910" lon="6.554250">
        <ele>1202.046</ele>
        <time>2026-07-16T11:18:32.002Z</time>
      </trkpt>
      <trkpt lat="45.424790" lon="6.554120">
        <ele>1203.224</ele>
        <time>2026-07-16T11:18:52.002Z</time>
      </trkpt>
      <trkpt lat="45.424370" lon="6.553900">
        <ele>1207.504</ele>
        <time>2026-07-16T11:19:12.002Z</time>
      </trkpt>
      <trkpt lat="45.423680" lon="6.554100">
        <ele>1213.214</ele>
        <time>2026-07-16T11:19:32.002Z</time>
      </trkpt>
      <trkpt lat="45.423110" lon="6.554200">
        <ele>1219.309</ele>
        <time>2026-07-16T11:19:52.002Z</time>
      </trkpt>
      <trkpt lat="45.422170" lon="6.553990">
        <ele>1228.924</ele>
        <time>2026-07-16T11:20:12.002Z</time>
      </trkpt>
      <trkpt lat="45.421760" lon="6.553750">
        <ele>1231.258</ele>
        <time>2026-07-16T11:20:32.002Z</time>
      </trkpt>
      <trkpt lat="45.421410" lon="6.553580">
        <ele>1234.360</ele>
        <time>2026-07-16T11:20:52.002Z</time>
      </trkpt>
      <trkpt lat="45.421220" lon="6.553610">
        <ele>1237.033</ele>
        <time>2026-07-16T11:21:12.002Z</time>
      </trkpt>
      <trkpt lat="45.421050" lon="6.553760">
        <ele>1238.794</ele>
        <time>2026-07-16T11:21:32.002Z</time>
      </trkpt>
      <trkpt lat="45.420640" lon="6.554330">
        <ele>1240.045</ele>
        <time>2026-07-16T11:21:52.002Z</time>
      </trkpt>
      <trkpt lat="45.420430" lon="6.554460">
        <ele>1240.297</ele>
        <time>2026-07-16T11:22:12.002Z</time>
      </trkpt>
      <trkpt lat="45.419960" lon="6.554600">
        <ele>1245.132</ele>
        <time>2026-07-16T11:22:32.002Z</time>
      </trkpt>
      <trkpt lat="45.419610" lon="6.555190">
        <ele>1247.246</ele>
        <time>2026-07-16T11:22:52.002Z</time>
      </trkpt>
      <trkpt lat="45.419400" lon="6.555460">
        <ele>1247.393</ele>
        <time>2026-07-16T11:23:12.002Z</time>
      </trkpt>
      <trkpt lat="45.419100" lon="6.555570">
        <ele>1244.265</ele>
        <time>2026-07-16T11:23:32.002Z</time>
      </trkpt>
      <trkpt lat="45.418580" lon="6.555420">
        <ele>1246.921</ele>
        <time>2026-07-16T11:23:52.002Z</time>
      </trkpt>
      <trkpt lat="45.418040" lon="6.555370">
        <ele>1246.109</ele>
        <time>2026-07-16T11:24:12.002Z</time>
      </trkpt>
      <trkpt lat="45.417630" lon="6.555150">
        <ele>1257.321</ele>
        <time>2026-07-16T11:24:32.002Z</time>
      </trkpt>
      <trkpt lat="45.417170" lon="6.555290">
        <ele>1261.225</ele>
        <time>2026-07-16T11:24:52.002Z</time>
      </trkpt>
      <trkpt lat="45.416760" lon="6.555330">
        <ele>1261.867</ele>
        <time>2026-07-16T11:25:12.002Z</time>
      </trkpt>
      <trkpt lat="45.415960" lon="6.555120">
        <ele>1269.270</ele>
        <time>2026-07-16T11:25:32.002Z</time>
      </trkpt>
      <trkpt lat="45.415500" lon="6.555080">
        <ele>1273.851</ele>
        <time>2026-07-16T11:25:52.002Z</time>
      </trkpt>
      <trkpt lat="45.413570" lon="6.555070">
        <ele>1288.282</ele>
        <time>2026-07-16T11:26:12.002Z</time>
      </trkpt>
      <trkpt lat="45.412920" lon="6.555390">
        <ele>1290.134</ele>
        <time>2026-07-16T11:26:32.002Z</time>
      </trkpt>
      <trkpt lat="45.412100" lon="6.555350">
        <ele>1298.539</ele>
        <time>2026-07-16T11:26:52.002Z</time>
      </trkpt>
      <trkpt lat="45.411250" lon="6.555650">
        <ele>1306.123</ele>
        <time>2026-07-16T11:27:12.002Z</time>
      </trkpt>
      <trkpt lat="45.410860" lon="6.556060">
        <ele>1307.746</ele>
        <time>2026-07-16T11:27:32.002Z</time>
      </trkpt>
      <trkpt lat="45.410690" lon="6.556260">
        <ele>1307.788</ele>
        <time>2026-07-16T11:27:52.002Z</time>
      </trkpt>
      <trkpt lat="45.410530" lon="6.556520">
        <ele>1309.016</ele>
        <time>2026-07-16T11:28:12.002Z</time>
      </trkpt>
      <trkpt lat="45.410540" lon="6.556810">
        <ele>1310.409</ele>
        <time>2026-07-16T11:28:32.002Z</time>
      </trkpt>
      <trkpt lat="45.410550" lon="6.557100">
        <ele>1312.376</ele>
        <time>2026-07-16T11:28:52.002Z</time>
      </trkpt>
      <trkpt lat="45.410390" lon="6.557790">
        <ele>1314.380</ele>
        <time>2026-07-16T11:29:12.002Z</time>
      </trkpt>
      <trkpt lat="45.410210" lon="6.558230">
        <ele>1314.172</ele>
        <time>2026-07-16T11:29:32.002Z</time>
      </trkpt>
      <trkpt lat="45.409430" lon="6.558980">
        <ele>1315.255</ele>
        <time>2026-07-16T11:29:52.002Z</time>
      </trkpt>
      <trkpt lat="45.408850" lon="6.559470">
        <ele>1319.656</ele>
        <time>2026-07-16T11:30:12.002Z</time>
      </trkpt>
      <trkpt lat="45.408040" lon="6.560320">
        <ele>1323.877</ele>
        <time>2026-07-16T11:30:32.002Z</time>
      </trkpt>
      <trkpt lat="45.407760" lon="6.560550">
        <ele>1325.479</ele>
        <time>2026-07-16T11:30:52.002Z</time>
      </trkpt>
      <trkpt lat="45.406530" lon="6.561140">
        <ele>1331.794</ele>
        <time>2026-07-16T11:31:12.002Z</time>
      </trkpt>
      <trkpt lat="45.406460" lon="6.561290">
        <ele>1330.488</ele>
        <time>2026-07-16T11:31:32.002Z</time>
      </trkpt>
      <trkpt lat="45.406490" lon="6.561550">
        <ele>1329.049</ele>
        <time>2026-07-16T11:31:52.002Z</time>
      </trkpt>
      <trkpt lat="45.406580" lon="6.561630">
        <ele>1329.002</ele>
        <time>2026-07-16T11:32:12.002Z</time>
      </trkpt>
      <trkpt lat="45.407060" lon="6.561800">
        <ele>1329.422</ele>
        <time>2026-07-16T11:32:32.002Z</time>
      </trkpt>
      <trkpt lat="45.407600" lon="6.562080">
        <ele>1331.409</ele>
        <time>2026-07-16T11:32:52.002Z</time>
      </trkpt>
      <trkpt lat="45.408060" lon="6.561950">
        <ele>1330.226</ele>
        <time>2026-07-16T11:33:12.002Z</time>
      </trkpt>
      <trkpt lat="45.408390" lon="6.561710">
        <ele>1331.270</ele>
        <time>2026-07-16T11:33:32.002Z</time>
      </trkpt>
      <trkpt lat="45.408560" lon="6.561660">
        <ele>1333.792</ele>
        <time>2026-07-16T11:33:52.002Z</time>
      </trkpt>
      <trkpt lat="45.408690" lon="6.561730">
        <ele>1336.935</ele>
        <time>2026-07-16T11:34:12.002Z</time>
      </trkpt>
      <trkpt lat="45.408840" lon="6.561960">
        <ele>1342.166</ele>
        <time>2026-07-16T11:34:32.002Z</time>
      </trkpt>
      <trkpt lat="45.409160" lon="6.562830">
        <ele>1344.037</ele>
        <time>2026-07-16T11:34:52.002Z</time>
      </trkpt>
      <trkpt lat="45.409240" lon="6.562910">
        <ele>1344.519</ele>
        <time>2026-07-16T11:35:12.002Z</time>
      </trkpt>
      <trkpt lat="45.409380" lon="6.563050">
        <ele>1345.454</ele>
        <time>2026-07-16T11:35:32.002Z</time>
      </trkpt>
      <trkpt lat="45.409440" lon="6.563140">
        <ele>1346.028</ele>
        <time>2026-07-16T11:35:52.002Z</time>
      </trkpt>
      <trkpt lat="45.409410" lon="6.563320">
        <ele>1348.543</ele>
        <time>2026-07-16T11:36:12.002Z</time>
      </trkpt>
      <trkpt lat="45.409300" lon="6.563390">
        <ele>1351.864</ele>
        <time>2026-07-16T11:36:32.002Z</time>
      </trkpt>
      <trkpt lat="45.409100" lon="6.563270">
        <ele>1355.410</ele>
        <time>2026-07-16T11:36:52.002Z</time>
      </trkpt>
      <trkpt lat="45.408640" lon="6.562590">
        <ele>1355.809</ele>
        <time>2026-07-16T11:37:12.002Z</time>
      </trkpt>
      <trkpt lat="45.408420" lon="6.562540">
        <ele>1351.046</ele>
        <time>2026-07-16T11:37:32.002Z</time>
      </trkpt>
      <trkpt lat="45.407900" lon="6.562990">
        <ele>1358.480</ele>
        <time>2026-07-16T11:37:52.002Z</time>
      </trkpt>
      <trkpt lat="45.407490" lon="6.563160">
        <ele>1365.652</ele>
        <time>2026-07-16T11:38:12.002Z</time>
      </trkpt>
      <trkpt lat="45.407000" lon="6.563170">
        <ele>1370.485</ele>
        <time>2026-07-16T11:38:32.002Z</time>
      </trkpt>
      <trkpt lat="45.406140" lon="6.562970">
        <ele>1374.666</ele>
        <time>2026-07-16T11:38:52.002Z</time>
      </trkpt>
      <trkpt lat="45.404870" lon="6.563030">
        <ele>1382.427</ele>
        <time>2026-07-16T11:39:12.002Z</time>
      </trkpt>
      <trkpt lat="45.404680" lon="6.563160">
        <ele>1385.039</ele>
        <time>2026-07-16T11:39:32.002Z</time>
      </trkpt>
      <trkpt lat="45.404440" lon="6.563490">
        <ele>1389.224</ele>
        <time>2026-07-16T11:39:52.002Z</time>
      </trkpt>
      <trkpt lat="45.404360" lon="6.563610">
        <ele>1390.448</ele>
        <time>2026-07-16T11:40:12.002Z</time>
      </trkpt>
      <trkpt lat="45.404060" lon="6.563840">
        <ele>1394.447</ele>
        <time>2026-07-16T11:40:32.002Z</time>
      </trkpt>
      <trkpt lat="45.403950" lon="6.563960">
        <ele>1397.629</ele>
        <time>2026-07-16T11:40:52.002Z</time>
      </trkpt>
      <trkpt lat="45.403780" lon="6.563890">
        <ele>1396.821</ele>
        <time>2026-07-16T11:41:12.002Z</time>
      </trkpt>
      <trkpt lat="45.402940" lon="6.563880">
        <ele>1403.509</ele>
        <time>2026-07-16T11:41:32.002Z</time>
      </trkpt>
      <trkpt lat="45.402430" lon="6.564250">
        <ele>1405.276</ele>
        <time>2026-07-16T11:41:52.002Z</time>
      </trkpt>
      <trkpt lat="45.402050" lon="6.564470">
        <ele>1411.290</ele>
        <time>2026-07-16T11:42:12.002Z</time>
      </trkpt>
      <trkpt lat="45.401570" lon="6.564480">
        <ele>1413.862</ele>
        <time>2026-07-16T11:42:32.002Z</time>
      </trkpt>
      <trkpt lat="45.400670" lon="6.565170">
        <ele>1424.675</ele>
        <time>2026-07-16T11:42:52.002Z</time>
      </trkpt>
      <trkpt lat="45.399180" lon="6.565590">
        <ele>1437.086</ele>
        <time>2026-07-16T11:43:12.002Z</time>
      </trkpt>
      <trkpt lat="45.399240" lon="6.565840">
        <ele>1444.767</ele>
        <time>2026-07-16T11:43:32.002Z</time>
      </trkpt>
      <trkpt lat="45.399340" lon="6.565930">
        <ele>1446.839</ele>
        <time>2026-07-16T11:43:52.002Z</time>
      </trkpt>
      <trkpt lat="45.400930" lon="6.566390">
        <ele>1450.484</ele>
        <time>2026-07-16T11:44:12.002Z</time>
      </trkpt>
      <trkpt lat="45.401790" lon="6.566690">
        <ele>1456.698</ele>
        <time>2026-07-16T11:44:32.002Z</time>
      </trkpt>
      <trkpt lat="45.402340" lon="6.567230">
        <ele>1464.437</ele>
        <time>2026-07-16T11:44:52.002Z</time>
      </trkpt>
      <trkpt lat="45.402640" lon="6.567380">
        <ele>1467.649</ele>
        <time>2026-07-16T11:45:12.002Z</time>
      </trkpt>
      <trkpt lat="45.402980" lon="6.567330">
        <ele>1466.913</ele>
        <time>2026-07-16T11:45:32.002Z</time>
      </trkpt>
      <trkpt lat="45.403440" lon="6.567010">
        <ele>1465.309</ele>
        <time>2026-07-16T11:45:52.002Z</time>
      </trkpt>
      <trkpt lat="45.403560" lon="6.567050">
        <ele>1469.795</ele>
        <time>2026-07-16T11:46:12.002Z</time>
      </trkpt>
      <trkpt lat="45.403610" lon="6.567190">
        <ele>1475.059</ele>
        <time>2026-07-16T11:46:32.002Z</time>
      </trkpt>
      <trkpt lat="45.403540" lon="6.567330">
        <ele>1477.881</ele>
        <time>2026-07-16T11:46:52.002Z</time>
      </trkpt>
      <trkpt lat="45.402900" lon="6.567750">
        <ele>1480.974</ele>
        <time>2026-07-16T11:47:12.002Z</time>
      </trkpt>
      <trkpt lat="45.402560" lon="6.567860">
        <ele>1485.725</ele>
        <time>2026-07-16T11:47:32.002Z</time>
      </trkpt>
      <trkpt lat="45.401740" lon="6.567740">
        <ele>1488.396</ele>
        <time>2026-07-16T11:47:52.002Z</time>
      </trkpt>
      <trkpt lat="45.401010" lon="6.567810">
        <ele>1485.458</ele>
        <time>2026-07-16T11:48:12.002Z</time>
      </trkpt>
      <trkpt lat="45.400880" lon="6.567860">
        <ele>1487.243</ele>
        <time>2026-07-16T11:48:32.002Z</time>
      </trkpt>
      <trkpt lat="45.400920" lon="6.568070">
        <ele>1491.127</ele>
        <time>2026-07-16T11:48:52.002Z</time>
      </trkpt>
      <trkpt lat="45.401190" lon="6.568100">
        <ele>1492.059</ele>
        <time>2026-07-16T11:49:12.002Z</time>
      </trkpt>
      <trkpt lat="45.401760" lon="6.568040">
        <ele>1496.903</ele>
        <time>2026-07-16T11:49:32.002Z</time>
      </trkpt>
      <trkpt lat="45.402330" lon="6.568330">
        <ele>1505.723</ele>
        <time>2026-07-16T11:49:52.002Z</time>
      </trkpt>
      <trkpt lat="45.402870" lon="6.568730">
        <ele>1511.409</ele>
        <time>2026-07-16T11:50:12.002Z</time>
      </trkpt>
      <trkpt lat="45.403490" lon="6.568710">
        <ele>1512.127</ele>
        <time>2026-07-16T11:50:32.002Z</time>
      </trkpt>
      <trkpt lat="45.403580" lon="6.568760">
        <ele>1513.541</ele>
        <time>2026-07-16T11:50:52.002Z</time>
      </trkpt>
      <trkpt lat="45.403660" lon="6.568970">
        <ele>1518.273</ele>
        <time>2026-07-16T11:51:12.002Z</time>
      </trkpt>
      <trkpt lat="45.403600" lon="6.569140">
        <ele>1521.476</ele>
        <time>2026-07-16T11:51:32.002Z</time>
      </trkpt>
      <trkpt lat="45.403040" lon="6.569420">
        <ele>1524.767</ele>
        <time>2026-07-16T11:51:52.002Z</time>
      </trkpt>
      <trkpt lat="45.402680" lon="6.569450">
        <ele>1528.558</ele>
        <time>2026-07-16T11:52:12.002Z</time>
      </trkpt>
      <trkpt lat="45.401900" lon="6.569360">
        <ele>1534.430</ele>
        <time>2026-07-16T11:52:32.002Z</time>
      </trkpt>
      <trkpt lat="45.401700" lon="6.569450">
        <ele>1534.525</ele>
        <time>2026-07-16T11:52:52.002Z</time>
      </trkpt>
      <trkpt lat="45.401380" lon="6.569860">
        <ele>1540.049</ele>
        <time>2026-07-16T11:53:12.002Z</time>
      </trkpt>
      <trkpt lat="45.401090" lon="6.570120">
        <ele>1544.812</ele>
        <time>2026-07-16T11:53:32.002Z</time>
      </trkpt>
      <trkpt lat="45.400690" lon="6.570050">
        <ele>1546.932</ele>
        <time>2026-07-16T11:53:52.002Z</time>
      </trkpt>
      <trkpt lat="45.400360" lon="6.569850">
        <ele>1549.505</ele>
        <time>2026-07-16T11:54:12.002Z</time>
      </trkpt>
      <trkpt lat="45.400250" lon="6.569920">
        <ele>1552.109</ele>
        <time>2026-07-16T11:54:32.002Z</time>
      </trkpt>
      <trkpt lat="45.400270" lon="6.570090">
        <ele>1554.493</ele>
        <time>2026-07-16T11:54:52.002Z</time>
      </trkpt>
      <trkpt lat="45.400800" lon="6.570760">
        <ele>1556.377</ele>
        <time>2026-07-16T11:55:12.002Z</time>
      </trkpt>
      <trkpt lat="45.401330" lon="6.571020">
        <ele>1558.369</ele>
        <time>2026-07-16T11:55:32.002Z</time>
      </trkpt>
      <trkpt lat="45.401410" lon="6.571130">
        <ele>1559.022</ele>
        <time>2026-07-16T11:55:52.002Z</time>
      </trkpt>
      <trkpt lat="45.401680" lon="6.571690">
        <ele>1563.183</ele>
        <time>2026-07-16T11:56:12.002Z</time>
      </trkpt>
      <trkpt lat="45.402010" lon="6.572060">
        <ele>1564.624</ele>
        <time>2026-07-16T11:56:32.002Z</time>
      </trkpt>
      <trkpt lat="45.402000" lon="6.572180">
        <ele>1566.596</ele>
        <time>2026-07-16T11:56:52.002Z</time>
      </trkpt>
      <trkpt lat="45.401850" lon="6.572220">
        <ele>1568.331</ele>
        <time>2026-07-16T11:57:12.002Z</time>
      </trkpt>
      <trkpt lat="45.401570" lon="6.572120">
        <ele>1569.365</ele>
        <time>2026-07-16T11:57:32.002Z</time>
      </trkpt>
      <trkpt lat="45.401240" lon="6.572140">
        <ele>1572.155</ele>
        <time>2026-07-16T11:57:52.002Z</time>
      </trkpt>
      <trkpt lat="45.400970" lon="6.571780">
        <ele>1571.907</ele>
        <time>2026-07-16T11:58:12.002Z</time>
      </trkpt>
      <trkpt lat="45.400630" lon="6.571630">
        <ele>1572.817</ele>
        <time>2026-07-16T11:58:32.002Z</time>
      </trkpt>
      <trkpt lat="45.400150" lon="6.571750">
        <ele>1576.409</ele>
        <time>2026-07-16T11:58:52.002Z</time>
      </trkpt>
      <trkpt lat="45.400110" lon="6.571910">
        <ele>1578.227</ele>
        <time>2026-07-16T11:59:12.002Z</time>
      </trkpt>
      <trkpt lat="45.400180" lon="6.571990">
        <ele>1579.161</ele>
        <time>2026-07-16T11:59:32.002Z</time>
      </trkpt>
      <trkpt lat="45.400550" lon="6.572210">
        <ele>1581.973</ele>
        <time>2026-07-16T11:59:52.002Z</time>
      </trkpt>
      <trkpt lat="45.400970" lon="6.572910">
        <ele>1587.996</ele>
        <time>2026-07-16T12:00:12.002Z</time>
      </trkpt>
      <trkpt lat="45.401270" lon="6.572950">
        <ele>1587.757</ele>
        <time>2026-07-16T12:00:32.002Z</time>
      </trkpt>
      <trkpt lat="45.401310" lon="6.573040">
        <ele>1589.718</ele>
        <time>2026-07-16T12:00:52.002Z</time>
      </trkpt>
      <trkpt lat="45.401240" lon="6.573170">
        <ele>1593.560</ele>
        <time>2026-07-16T12:01:12.002Z</time>
      </trkpt>
      <trkpt lat="45.400570" lon="6.573190">
        <ele>1594.985</ele>
        <time>2026-07-16T12:01:32.002Z</time>
      </trkpt>
      <trkpt lat="45.399990" lon="6.573130">
        <ele>1597.129</ele>
        <time>2026-07-16T12:01:52.002Z</time>
      </trkpt>
      <trkpt lat="45.399910" lon="6.573080">
        <ele>1596.397</ele>
        <time>2026-07-16T12:02:12.002Z</time>
      </trkpt>
      <trkpt lat="45.399890" lon="6.573220">
        <ele>1598.123</ele>
        <time>2026-07-16T12:02:32.002Z</time>
      </trkpt>
      <trkpt lat="45.398740" lon="6.574100">
        <ele>1611.925</ele>
        <time>2026-07-16T12:02:52.002Z</time>
      </trkpt>
      <trkpt lat="45.398490" lon="6.574160">
        <ele>1615.209</ele>
        <time>2026-07-16T12:03:12.002Z</time>
      </trkpt>
      <trkpt lat="45.398110" lon="6.574010">
        <ele>1616.551</ele>
        <time>2026-07-16T12:03:32.002Z</time>
      </trkpt>
      <trkpt lat="45.397760" lon="6.574000">
        <ele>1618.895</ele>
        <time>2026-07-16T12:03:52.002Z</time>
      </trkpt>
      <trkpt lat="45.397460" lon="6.573810">
        <ele>1620.647</ele>
        <time>2026-07-16T12:04:12.002Z</time>
      </trkpt>
      <trkpt lat="45.397310" lon="6.573920">
        <ele>1623.460</ele>
        <time>2026-07-16T12:04:32.002Z</time>
      </trkpt>
      <trkpt lat="45.397260" lon="6.574650">
        <ele>1631.691</ele>
        <time>2026-07-16T12:04:52.002Z</time>
      </trkpt>
      <trkpt lat="45.397340" lon="6.574960">
        <ele>1633.812</ele>
        <time>2026-07-16T12:05:12.002Z</time>
      </trkpt>
      <trkpt lat="45.397690" lon="6.575160">
        <ele>1634.624</ele>
        <time>2026-07-16T12:05:32.002Z</time>
      </trkpt>
      <trkpt lat="45.397640" lon="6.575320">
        <ele>1638.039</ele>
        <time>2026-07-16T12:05:52.002Z</time>
      </trkpt>
      <trkpt lat="45.397390" lon="6.575260">
        <ele>1637.553</ele>
        <time>2026-07-16T12:06:12.002Z</time>
      </trkpt>
      <trkpt lat="45.396880" lon="6.575230">
        <ele>1642.323</ele>
        <time>2026-07-16T12:06:32.002Z</time>
      </trkpt>
      <trkpt lat="45.396710" lon="6.575170">
        <ele>1644.283</ele>
        <time>2026-07-16T12:06:52.002Z</time>
      </trkpt>
      <trkpt lat="45.396510" lon="6.574940">
        <ele>1644.911</ele>
        <time>2026-07-16T12:07:12.002Z</time>
      </trkpt>
      <trkpt lat="45.396250" lon="6.574740">
        <ele>1647.609</ele>
        <time>2026-07-16T12:07:32.002Z</time>
      </trkpt>
      <trkpt lat="45.395920" lon="6.574950">
        <ele>1652.824</ele>
        <time>2026-07-16T12:07:52.002Z</time>
      </trkpt>
      <trkpt lat="45.395810" lon="6.575200">
        <ele>1653.718</ele>
        <time>2026-07-16T12:08:12.002Z</time>
      </trkpt>
      <trkpt lat="45.395540" lon="6.575740">
        <ele>1660.930</ele>
        <time>2026-07-16T12:08:32.002Z</time>
      </trkpt>
      <trkpt lat="45.395520" lon="6.575980">
        <ele>1665.533</ele>
        <time>2026-07-16T12:08:52.002Z</time>
      </trkpt>
      <trkpt lat="45.395810" lon="6.576440">
        <ele>1672.234</ele>
        <time>2026-07-16T12:09:12.002Z</time>
      </trkpt>
      <trkpt lat="45.396090" lon="6.576690">
        <ele>1673.035</ele>
        <time>2026-07-16T12:09:32.002Z</time>
      </trkpt>
      <trkpt lat="45.396320" lon="6.576740">
        <ele>1674.027</ele>
        <time>2026-07-16T12:09:52.002Z</time>
      </trkpt>
      <trkpt lat="45.396620" lon="6.576670">
        <ele>1674.432</ele>
        <time>2026-07-16T12:10:12.002Z</time>
      </trkpt>
      <trkpt lat="45.397160" lon="6.576780">
        <ele>1680.926</ele>
        <time>2026-07-16T12:10:32.002Z</time>
      </trkpt>
      <trkpt lat="45.397720" lon="6.577000">
        <ele>1687.655</ele>
        <time>2026-07-16T12:10:52.002Z</time>
      </trkpt>
      <trkpt lat="45.398100" lon="6.576910">
        <ele>1686.407</ele>
        <time>2026-07-16T12:11:12.002Z</time>
      </trkpt>
      <trkpt lat="45.398780" lon="6.576390">
        <ele>1686.117</ele>
        <time>2026-07-16T12:11:32.002Z</time>
      </trkpt>
      <trkpt lat="45.399140" lon="6.576190">
        <ele>1691.009</ele>
        <time>2026-07-16T12:11:52.002Z</time>
      </trkpt>
      <trkpt lat="45.399450" lon="6.576180">
        <ele>1695.197</ele>
        <time>2026-07-16T12:12:12.002Z</time>
      </trkpt>
      <trkpt lat="45.400000" lon="6.575930">
        <ele>1700.841</ele>
        <time>2026-07-16T12:12:32.002Z</time>
      </trkpt>
      <trkpt lat="45.400640" lon="6.575710">
        <ele>1706.533</ele>
        <time>2026-07-16T12:12:52.002Z</time>
      </trkpt>
      <trkpt lat="45.401230" lon="6.575760">
        <ele>1712.396</ele>
        <time>2026-07-16T12:13:12.002Z</time>
      </trkpt>
      <trkpt lat="45.401570" lon="6.575890">
        <ele>1714.427</ele>
        <time>2026-07-16T12:13:32.002Z</time>
      </trkpt>
      <trkpt lat="45.401860" lon="6.576120">
        <ele>1715.418</ele>
        <time>2026-07-16T12:13:52.002Z</time>
      </trkpt>
      <trkpt lat="45.401840" lon="6.576200">
        <ele>1717.170</ele>
        <time>2026-07-16T12:14:12.002Z</time>
      </trkpt>
      <trkpt lat="45.401360" lon="6.576370">
        <ele>1724.855</ele>
        <time>2026-07-16T12:14:32.002Z</time>
      </trkpt>
      <trkpt lat="45.401240" lon="6.576480">
        <ele>1727.279</ele>
        <time>2026-07-16T12:14:52.002Z</time>
      </trkpt>
      <trkpt lat="45.401070" lon="6.576790">
        <ele>1733.316</ele>
        <time>2026-07-16T12:15:12.002Z</time>
      </trkpt>
      <trkpt lat="45.400640" lon="6.577090">
        <ele>1739.176</ele>
        <time>2026-07-16T12:15:32.002Z</time>
      </trkpt>
      <trkpt lat="45.400240" lon="6.577210">
        <ele>1738.213</ele>
        <time>2026-07-16T12:15:52.002Z</time>
      </trkpt>
      <trkpt lat="45.399810" lon="6.577990">
        <ele>1747.409</ele>
        <time>2026-07-16T12:16:12.002Z</time>
      </trkpt>
      <trkpt lat="45.399620" lon="6.578200">
        <ele>1750.813</ele>
        <time>2026-07-16T12:16:32.002Z</time>
      </trkpt>
      <trkpt lat="45.399020" lon="6.578740">
        <ele>1756.877</ele>
        <time>2026-07-16T12:16:52.002Z</time>
      </trkpt>
      <trkpt lat="45.398670" lon="6.578930">
        <ele>1756.569</ele>
        <time>2026-07-16T12:17:12.002Z</time>
      </trkpt>
      <trkpt lat="45.398430" lon="6.579150">
        <ele>1759.222</ele>
        <time>2026-07-16T12:17:32.002Z</time>
      </trkpt>
      <trkpt lat="45.397700" lon="6.579680">
        <ele>1770.793</ele>
        <time>2026-07-16T12:17:52.002Z</time>
      </trkpt>
      <trkpt lat="45.397440" lon="6.579840">
        <ele>1775.134</ele>
        <time>2026-07-16T12:18:12.002Z</time>
      </trkpt>
      <trkpt lat="45.396920" lon="6.580040">
        <ele>1778.116</ele>
        <time>2026-07-16T12:18:32.002Z</time>
      </trkpt>
      <trkpt lat="45.396460" lon="6.580330">
        <ele>1785.391</ele>
        <time>2026-07-16T12:18:52.002Z</time>
      </trkpt>
      <trkpt lat="45.396370" lon="6.580420">
        <ele>1787.765</ele>
        <time>2026-07-16T12:19:12.002Z</time>
      </trkpt>
      <trkpt lat="45.396400" lon="6.580500">
        <ele>1789.681</ele>
        <time>2026-07-16T12:19:32.002Z</time>
      </trkpt>
      <trkpt lat="45.396570" lon="6.580490">
        <ele>1789.361</ele>
        <time>2026-07-16T12:19:52.002Z</time>
      </trkpt>
      <trkpt lat="45.398160" lon="6.580360">
        <ele>1793.917</ele>
        <time>2026-07-16T12:20:12.002Z</time>
      </trkpt>
      <trkpt lat="45.399010" lon="6.580430">
        <ele>1794.309</ele>
        <time>2026-07-16T12:20:32.002Z</time>
      </trkpt>
      <trkpt lat="45.399250" lon="6.580550">
        <ele>1795.330</ele>
        <time>2026-07-16T12:20:52.002Z</time>
      </trkpt>
      <trkpt lat="45.399330" lon="6.580810">
        <ele>1799.244</ele>
        <time>2026-07-16T12:21:12.002Z</time>
      </trkpt>
      <trkpt lat="45.399540" lon="6.581140">
        <ele>1803.646</ele>
        <time>2026-07-16T12:21:32.002Z</time>
      </trkpt>
      <trkpt lat="45.399530" lon="6.581280">
        <ele>1806.739</ele>
        <time>2026-07-16T12:21:52.002Z</time>
      </trkpt>
      <trkpt lat="45.399240" lon="6.581380">
        <ele>1809.610</ele>
        <time>2026-07-16T12:22:12.002Z</time>
      </trkpt>
      <trkpt lat="45.398860" lon="6.581230">
        <ele>1809.981</ele>
        <time>2026-07-16T12:22:32.002Z</time>
      </trkpt>
      <trkpt lat="45.398350" lon="6.581120">
        <ele>1810.123</ele>
        <time>2026-07-16T12:22:52.002Z</time>
      </trkpt>
      <trkpt lat="45.397900" lon="6.581200">
        <ele>1814.018</ele>
        <time>2026-07-16T12:23:12.002Z</time>
      </trkpt>
      <trkpt lat="45.397400" lon="6.581070">
        <ele>1813.792</ele>
        <time>2026-07-16T12:23:32.002Z</time>
      </trkpt>
      <trkpt lat="45.397110" lon="6.581300">
        <ele>1817.015</ele>
        <time>2026-07-16T12:23:52.002Z</time>
      </trkpt>
      <trkpt lat="45.396760" lon="6.581590">
        <ele>1822.065</ele>
        <time>2026-07-16T12:24:12.002Z</time>
      </trkpt>
      <trkpt lat="45.396600" lon="6.581780">
        <ele>1827.011</ele>
        <time>2026-07-16T12:24:32.002Z</time>
      </trkpt>
      <trkpt lat="45.396520" lon="6.582170">
        <ele>1835.609</ele>
        <time>2026-07-16T12:24:52.002Z</time>
      </trkpt>
      <trkpt lat="45.396320" lon="6.582410">
        <ele>1841.823</ele>
        <time>2026-07-16T12:25:12.002Z</time>
      </trkpt>
      <trkpt lat="45.396270" lon="6.582600">
        <ele>1844.827</ele>
        <time>2026-07-16T12:25:32.002Z</time>
      </trkpt>
      <trkpt lat="45.396590" lon="6.583250">
        <ele>1854.449</ele>
        <time>2026-07-16T12:25:52.002Z</time>
      </trkpt>
      <trkpt lat="45.397190" lon="6.584070">
        <ele>1871.522</ele>
        <time>2026-07-16T12:26:12.002Z</time>
      </trkpt>
      <trkpt lat="45.397390" lon="6.584380">
        <ele>1875.343</ele>
        <time>2026-07-16T12:26:32.002Z</time>
      </trkpt>
      <trkpt lat="45.397440" lon="6.584670">
        <ele>1877.824</ele>
        <time>2026-07-16T12:26:52.002Z</time>
      </trkpt>
      <trkpt lat="45.396760" lon="6.586160">
        <ele>1889.976</ele>
        <time>2026-07-16T12:27:12.002Z</time>
      </trkpt>
      <trkpt lat="45.396690" lon="6.586780">
        <ele>1888.381</ele>
        <time>2026-07-16T12:27:32.002Z</time>
      </trkpt>
      <trkpt lat="45.396560" lon="6.587370">
        <ele>1896.545</ele>
        <time>2026-07-16T12:27:52.002Z</time>
      </trkpt>
      <trkpt lat="45.396430" lon="6.587190">
        <ele>1897.274</ele>
        <time>2026-07-16T12:28:12.002Z</time>
      </trkpt>
      <trkpt lat="45.396350" lon="6.586420">
        <ele>1906.156</ele>
        <time>2026-07-16T12:28:32.002Z</time>
      </trkpt>
      <trkpt lat="45.396350" lon="6.586100">
        <ele>1908.921</ele>
        <time>2026-07-16T12:28:52.002Z</time>
      </trkpt>
      <trkpt lat="45.395900" lon="6.585430">
        <ele>1914.209</ele>
        <time>2026-07-16T12:29:12.002Z</time>
      </trkpt>
      <trkpt lat="45.395560" lon="6.585270">
        <ele>1919.819</ele>
        <time>2026-07-16T12:29:32.002Z</time>
      </trkpt>
      <trkpt lat="45.395280" lon="6.585370">
        <ele>1924.363</ele>
        <time>2026-07-16T12:29:52.002Z</time>
      </trkpt>
      <trkpt lat="45.394530" lon="6.585830">
        <ele>1936.355</ele>
        <time>2026-07-16T12:30:12.002Z</time>
      </trkpt>
      <trkpt lat="45.394180" lon="6.585870">
        <ele>1942.718</ele>
        <time>2026-07-16T12:30:32.002Z</time>
      </trkpt>
      <trkpt lat="45.393730" lon="6.585960">
        <ele>1948.619</ele>
        <time>2026-07-16T12:30:52.002Z</time>
      </trkpt>
      <trkpt lat="45.393320" lon="6.585920">
        <ele>1954.760</ele>
        <time>2026-07-16T12:31:12.002Z</time>
      </trkpt>
      <trkpt lat="45.392560" lon="6.586210">
        <ele>1967.072</ele>
        <time>2026-07-16T12:31:32.002Z</time>
      </trkpt>
      <trkpt lat="45.392560" lon="6.586350">
        <ele>1970.497</ele>
        <time>2026-07-16T12:31:52.002Z</time>
      </trkpt>
      <trkpt lat="45.392900" lon="6.586560">
        <ele>1972.241</ele>
        <time>2026-07-16T12:32:12.002Z</time>
      </trkpt>
      <trkpt lat="45.393240" lon="6.586820">
        <ele>1975.829</ele>
        <time>2026-07-16T12:32:32.002Z</time>
      </trkpt>
      <trkpt lat="45.393630" lon="6.587310">
        <ele>1983.200</ele>
        <time>2026-07-16T12:32:52.002Z</time>
      </trkpt>
      <trkpt lat="45.393840" lon="6.587680">
        <ele>1987.220</ele>
        <time>2026-07-16T12:33:12.002Z</time>
      </trkpt>
      <trkpt lat="45.394030" lon="6.588280">
        <ele>1991.609</ele>
        <time>2026-07-16T12:33:32.002Z</time>
      </trkpt>
      <trkpt lat="45.394040" lon="6.588590">
        <ele>1993.654</ele>
        <time>2026-07-16T12:33:52.002Z</time>
      </trkpt>
      <trkpt lat="45.394010" lon="6.588980">
        <ele>1996.728</ele>
        <time>2026-07-16T12:34:12.002Z</time>
      </trkpt>
      <trkpt lat="45.394050" lon="6.589640">
        <ele>1999.770</ele>
        <time>2026-07-16T12:34:32.002Z</time>
      </trkpt>
      <trkpt lat="45.393950" lon="6.590260">
        <ele>2003.533</ele>
        <time>2026-07-16T12:34:52.002Z</time>
      </trkpt>
      <trkpt lat="45.393730" lon="6.590460">
        <ele>2008.444</ele>
        <time>2026-07-16T12:35:12.002Z</time>
      </trkpt>
      <trkpt lat="45.393510" lon="6.590340">
        <ele>2015.785</ele>
        <time>2026-07-16T12:35:32.002Z</time>
      </trkpt>
      <trkpt lat="45.393240" lon="6.589690">
        <ele>2021.927</ele>
        <time>2026-07-16T12:35:52.002Z</time>
      </trkpt>
      <trkpt lat="45.393030" lon="6.589430">
        <ele>2026.312</ele>
        <time>2026-07-16T12:36:12.002Z</time>
      </trkpt>
      <trkpt lat="45.392180" lon="6.588980">
        <ele>2032.996</ele>
        <time>2026-07-16T12:36:32.002Z</time>
      </trkpt>
      <trkpt lat="45.391350" lon="6.588660">
        <ele>2038.936</ele>
        <time>2026-07-16T12:36:52.002Z</time>
      </trkpt>
      <trkpt lat="45.390740" lon="6.588490">
        <ele>2048.717</ele>
        <time>2026-07-16T12:37:12.002Z</time>
      </trkpt>
      <trkpt lat="45.390620" lon="6.588840">
        <ele>2055.018</ele>
        <time>2026-07-16T12:37:32.002Z</time>
      </trkpt>
      <trkpt lat="45.390600" lon="6.589020">
        <ele>2058.709</ele>
        <time>2026-07-16T12:37:52.002Z</time>
      </trkpt>
      <trkpt lat="45.390420" lon="6.589160">
        <ele>2063.895</ele>
        <time>2026-07-16T12:38:12.002Z</time>
      </trkpt>
      <trkpt lat="45.389850" lon="6.589110">
        <ele>2075.599</ele>
        <time>2026-07-16T12:38:32.002Z</time>
      </trkpt>
      <trkpt lat="45.389020" lon="6.589120">
        <ele>2088.461</ele>
        <time>2026-07-16T12:38:52.002Z</time>
      </trkpt>
      <trkpt lat="45.388980" lon="6.589190">
        <ele>2090.574</ele>
        <time>2026-07-16T12:39:12.002Z</time>
      </trkpt>
      <trkpt lat="45.389040" lon="6.589390">
        <ele>2092.865</ele>
        <time>2026-07-16T12:39:32.002Z</time>
      </trkpt>
      <trkpt lat="45.389190" lon="6.589550">
        <ele>2093.016</ele>
        <time>2026-07-16T12:39:52.002Z</time>
      </trkpt>
      <trkpt lat="45.389490" lon="6.589670">
        <ele>2091.758</ele>
        <time>2026-07-16T12:40:12.002Z</time>
      </trkpt>
      <trkpt lat="45.389740" lon="6.590570">
        <ele>2101.053</ele>
        <time>2026-07-16T12:40:32.002Z</time>
      </trkpt>
      <trkpt lat="45.389860" lon="6.590810">
        <ele>2104.517</ele>
        <time>2026-07-16T12:40:52.002Z</time>
      </trkpt>
      <trkpt lat="45.390360" lon="6.591310">
        <ele>2112.157</ele>
        <time>2026-07-16T12:41:12.002Z</time>
      </trkpt>
      <trkpt lat="45.391390" lon="6.593070">
        <ele>2121.100</ele>
        <time>2026-07-16T12:41:32.002Z</time>
      </trkpt>
      <trkpt lat="45.391950" lon="6.593860">
        <ele>2118.520</ele>
        <time>2026-07-16T12:41:52.002Z</time>
      </trkpt>
      <trkpt lat="45.392500" lon="6.594220">
        <ele>2127.109</ele>
        <time>2026-07-16T12:42:12.002Z</time>
      </trkpt>
      <trkpt lat="45.392610" lon="6.594720">
        <ele>2132.427</ele>
        <time>2026-07-16T12:42:32.002Z</time>
      </trkpt>
      <trkpt lat="45.392810" lon="6.595600">
        <ele>2140.561</ele>
        <time>2026-07-16T12:42:52.002Z</time>
      </trkpt>
      <trkpt lat="45.392960" lon="6.595780">
        <ele>2142.893</ele>
        <time>2026-07-16T12:43:12.002Z</time>
      </trkpt>
      <trkpt lat="45.393160" lon="6.595800">
        <ele>2143.696</ele>
        <time>2026-07-16T12:43:32.002Z</time>
      </trkpt>
      <trkpt lat="45.393360" lon="6.595750">
        <ele>2144.747</ele>
        <time>2026-07-16T12:43:52.002Z</time>
      </trkpt>
      <trkpt lat="45.394120" lon="6.596000">
        <ele>2155.668</ele>
        <time>2026-07-16T12:44:12.002Z</time>
      </trkpt>
      <trkpt lat="45.395570" lon="6.596750">
        <ele>2169.280</ele>
        <time>2026-07-16T12:44:32.002Z</time>
      </trkpt>
      <trkpt lat="45.395810" lon="6.597040">
        <ele>2173.355</ele>
        <time>2026-07-16T12:44:52.002Z</time>
      </trkpt>
      <trkpt lat="45.396400" lon="6.597340">
        <ele>2172.449</ele>
        <time>2026-07-16T12:45:12.002Z</time>
      </trkpt>
      <trkpt lat="45.397250" lon="6.598100">
        <ele>2183.228</ele>
        <time>2026-07-16T12:45:32.002Z</time>
      </trkpt>
      <trkpt lat="45.398050" lon="6.598620">
        <ele>2190.389</ele>
        <time>2026-07-16T12:45:52.002Z</time>
      </trkpt>
      <trkpt lat="45.399340" lon="6.599300">
        <ele>2208.617</ele>
        <time>2026-07-16T12:46:12.002Z</time>
      </trkpt>
      <trkpt lat="45.400090" lon="6.599500">
        <ele>2217.309</ele>
        <time>2026-07-16T12:46:32.002Z</time>
      </trkpt>
      <trkpt lat="45.400750" lon="6.599830">
        <ele>2227.794</ele>
        <time>2026-07-16T12:46:52.002Z</time>
      </trkpt>
      <trkpt lat="45.401820" lon="6.599920">
        <ele>2241.998</ele>
        <time>2026-07-16T12:47:12.002Z</time>
      </trkpt>
      <trkpt lat="45.403090" lon="6.600200">
        <ele>2249.770</ele>
        <time>2026-07-16T12:47:32.002Z</time>
      </trkpt>
      <trkpt lat="45.403560" lon="6.600560">
        <ele>2254.283</ele>
        <time>2026-07-16T12:47:52.002Z</time>
      </trkpt>
      <trkpt lat="45.403810" lon="6.600940">
        <ele>2259.284</ele>
        <time>2026-07-16T12:48:12.002Z</time>
      </trkpt>
      <trkpt lat="45.404060" lon="6.601050">
        <ele>2258.835</ele>
        <time>2026-07-16T12:48:32.002Z</time>
      </trkpt>
      <trkpt lat="45.404560" lon="6.601030">
        <ele>2258.237</ele>
        <time>2026-07-16T12:48:52.002Z</time>
      </trkpt>
      <trkpt lat="45.405080" lon="6.601290">
        <ele>2266.732</ele>
        <time>2026-07-16T12:49:12.002Z</time>
      </trkpt>
      <trkpt lat="45.405880" lon="6.601800">
        <ele>2285.356</ele>
        <time>2026-07-16T12:49:32.002Z</time>
      </trkpt>
      <trkpt lat="45.406750" lon="6.602230">
        <ele>2294.826</ele>
        <time>2026-07-16T12:49:52.002Z</time>
      </trkpt>
      <trkpt lat="45.407500" lon="6.602460">
        <ele>2300.047</ele>
        <time>2026-07-16T12:50:12.002Z</time>
      </trkpt>
      <trkpt lat="45.407630" lon="6.602660">
        <ele>2300.011</ele>
        <time>2026-07-16T12:50:32.002Z</time>
      </trkpt>
    </trkseg>
  </trk></gpx>