<?xml version="1.0" encoding="UTF-8"?>
<gpx creator="Wikiloc - https://www.wikiloc.com" version="1.1" xmlns="http://www.topografix.com/GPX/1/1" xmlns:xsi="http://www.w3.org/2001/XMLSchema-instance" xsi:schemaLocation="http://www.topografix.com/GPX/1/1 http://www.topografix.com/GPX/1/1/gpx.xsd">
  <metadata>
    <name>Wikiloc - Col du Tourmalet SOLOPUERTOS Oficial (Luz St Sauveur) - Wiki...</name>
    <link href="https://www.wikiloc.com/cycling-trails/col-du-tourmalet-solopuertos-oficial-luz-st-sauveur-46083398">
      <text>Col du Tourmalet SOLOPUERTOS Oficial (Luz St Sauveur) - Wiki... on Wikiloc</text>
    </link>
    <time>2019-10-04T10:22:07Z</time>
  </metadata>
  <trk>
    <name>Col du Tourmalet SOLOPUERTOS Oficial (Luz St Sauveur) - Wiki... - Wikiloc</name>
    <cmt></cmt>
    <desc></desc>
    <trkseg>
      <trkpt lat="42.873692" lon="-0.003269">
        <ele>712.519</ele>
        <time>2019-10-04T08:50:33Z</time>
      </trkpt>
      <trkpt lat="42.873293" lon="-0.003222">
        <ele>713.509</ele>
        <time>2019-10-04T08:50:43Z</time>
      </trkpt>
      <trkpt lat="42.873134" lon="-0.003097">
        <ele>714.319</ele>
        <time>2019-10-04T08:50:47Z</time>
      </trkpt>
      <trkpt lat="42.872331" lon="-0.001949">
        <ele>722.008</ele>
        <time>2019-10-04T08:51:17Z</time>
      </trkpt>
      <trkpt lat="42.872212" lon="-0.001547">
        <ele>723.965</ele>
        <time>2019-10-04T08:51:27Z</time>
      </trkpt>
      <trkpt lat="42.873178" lon="0.001417">
        <ele>732.717</ele>
        <time>2019-10-04T08:52:24Z</time>
      </trkpt>
      <trkpt lat="42.874107" lon="0.005105">
        <ele>745.811</ele>
        <time>2019-10-04T08:53:32Z</time>
      </trkpt>
      <trkpt lat="42.876712" lon="0.008889">
        <ele>782.579</ele>
        <time>2019-10-04T08:55:18Z</time>
      </trkpt>
      <trkpt lat="42.877525" lon="0.011309">
        <ele>794.464</ele>
        <time>2019-10-04T08:56:12Z</time>
      </trkpt>
      <trkpt lat="42.877767" lon="0.012412">
        <ele>799.064</ele>
        <time>2019-10-04T08:56:43Z</time>
      </trkpt>
      <trkpt lat="42.878002" lon="0.012863">
        <ele>801.240</ele>
        <time>2019-10-04T08:56:54Z</time>
      </trkpt>
      <trkpt lat="42.878186" lon="0.013937">
        <ele>804.699</ele>
        <time>2019-10-04T08:57:18Z</time>
      </trkpt>
      <trkpt lat="42.878085" lon="0.015212">
        <ele>810.877</ele>
        <time>2019-10-04T08:57:50Z</time>
      </trkpt>
      <trkpt lat="42.878217" lon="0.015763">
        <ele>816.161</ele>
        <time>2019-10-04T08:57:59Z</time>
      </trkpt>
      <trkpt lat="42.878410" lon="0.018216">
        <ele>830.227</ele>
        <time>2019-10-04T08:58:57Z</time>
      </trkpt>
      <trkpt lat="42.878541" lon="0.022366">
        <ele>857.808</ele>
        <time>2019-10-04T09:00:26Z</time>
      </trkpt>
      <trkpt lat="42.879234" lon="0.025664">
        <ele>878.341</ele>
        <time>2019-10-04T09:01:33Z</time>
      </trkpt>
      <trkpt lat="42.879873" lon="0.026879">
        <ele>888.363</ele>
        <time>2019-10-04T09:02:07Z</time>
      </trkpt>
      <trkpt lat="42.883092" lon="0.030606">
        <ele>933.147</ele>
        <time>2019-10-04T09:04:21Z</time>
      </trkpt>
      <trkpt lat="42.883331" lon="0.031092">
        <ele>937.585</ele>
        <time>2019-10-04T09:04:36Z</time>
      </trkpt>
      <trkpt lat="42.883332" lon="0.031417">
        <ele>940.060</ele>
        <time>2019-10-04T09:04:45Z</time>
      </trkpt>
      <trkpt lat="42.882750" lon="0.032954">
        <ele>951.590</ele>
        <time>2019-10-04T09:05:24Z</time>
      </trkpt>
      <trkpt lat="42.882803" lon="0.034191">
        <ele>958.266</ele>
        <time>2019-10-04T09:05:56Z</time>
      </trkpt>
      <trkpt lat="42.882592" lon="0.035435">
        <ele>964.395</ele>
        <time>2019-10-04T09:06:29Z</time>
      </trkpt>
      <trkpt lat="42.882571" lon="0.036658">
        <ele>969.547</ele>
        <time>2019-10-04T09:07:01Z</time>
      </trkpt>
      <trkpt lat="42.882887" lon="0.037917">
        <ele>975.029</ele>
        <time>2019-10-04T09:07:32Z</time>
      </trkpt>
      <trkpt lat="42.883810" lon="0.040326">
        <ele>991.421</ele>
        <time>2019-10-04T09:08:36Z</time>
      </trkpt>
      <trkpt lat="42.883578" lon="0.040381">
        <ele>992.608</ele>
        <time>2019-10-04T09:08:42Z</time>
      </trkpt>
      <trkpt lat="42.883255" lon="0.039853">
        <ele>994.428</ele>
        <time>2019-10-04T09:08:54Z</time>
      </trkpt>
      <trkpt lat="42.882683" lon="0.039409">
        <ele>994.550</ele>
        <time>2019-10-04T09:09:12Z</time>
      </trkpt>
      <trkpt lat="42.882552" lon="0.039511">
        <ele>994.424</ele>
        <time>2019-10-04T09:09:17Z</time>
      </trkpt>
      <trkpt lat="42.882501" lon="0.039902">
        <ele>995.552</ele>
        <time>2019-10-04T09:09:24Z</time>
      </trkpt>
      <trkpt lat="42.882584" lon="0.040027">
        <ele>996.157</ele>
        <time>2019-10-04T09:09:27Z</time>
      </trkpt>
      <trkpt lat="42.883049" lon="0.040191">
        <ele>998.657</ele>
        <time>2019-10-04T09:09:40Z</time>
      </trkpt>
      <trkpt lat="42.885222" lon="0.042939">
        <ele>1029.053</ele>
        <time>2019-10-04T09:11:08Z</time>
      </trkpt>
      <trkpt lat="42.886044" lon="0.044468">
        <ele>1043.482</ele>
        <time>2019-10-04T09:11:51Z</time>
      </trkpt>
      <trkpt lat="42.887062" lon="0.045256">
        <ele>1052.756</ele>
        <time>2019-10-04T09:12:27Z</time>
      </trkpt>
      <trkpt lat="42.888026" lon="0.046264">
        <ele>1065.859</ele>
        <time>2019-10-04T09:13:03Z</time>
      </trkpt>
      <trkpt lat="42.890028" lon="0.047124">
        <ele>1081.914</ele>
        <time>2019-10-04T09:14:06Z</time>
      </trkpt>
      <trkpt lat="42.890693" lon="0.047826">
        <ele>1086.508</ele>
        <time>2019-10-04T09:14:33Z</time>
      </trkpt>
      <trkpt lat="42.891116" lon="0.048542">
        <ele>1088.549</ele>
        <time>2019-10-04T09:14:55Z</time>
      </trkpt>
      <trkpt lat="42.891053" lon="0.048802">
        <ele>1089.031</ele>
        <time>2019-10-04T09:15:01Z</time>
      </trkpt>
      <trkpt lat="42.890809" lon="0.048742">
        <ele>1089.215</ele>
        <time>2019-10-04T09:15:07Z</time>
      </trkpt>
      <trkpt lat="42.890284" lon="0.047982">
        <ele>1088.733</ele>
        <time>2019-10-04T09:15:28Z</time>
      </trkpt>
      <trkpt lat="42.890122" lon="0.048002">
        <ele>1088.468</ele>
        <time>2019-10-04T09:15:33Z</time>
      </trkpt>
      <trkpt lat="42.890005" lon="0.048261">
        <ele>1088.838</ele>
        <time>2019-10-04T09:15:39Z</time>
      </trkpt>
      <trkpt lat="42.890150" lon="0.048561">
        <ele>1093.314</ele>
        <time>2019-10-04T09:15:45Z</time>
      </trkpt>
      <trkpt lat="42.890491" lon="0.048875">
        <ele>1098.033</ele>
        <time>2019-10-04T09:15:54Z</time>
      </trkpt>
      <trkpt lat="42.890643" lon="0.049916">
        <ele>1111.194</ele>
        <time>2019-10-04T09:16:15Z</time>
      </trkpt>
      <trkpt lat="42.891302" lon="0.050796">
        <ele>1118.157</ele>
        <time>2019-10-04T09:16:43Z</time>
      </trkpt>
      <trkpt lat="42.891744" lon="0.051008">
        <ele>1119.622</ele>
        <time>2019-10-04T09:16:57Z</time>
      </trkpt>
      <trkpt lat="42.892161" lon="0.051385">
        <ele>1123.008</ele>
        <time>2019-10-04T09:17:12Z</time>
      </trkpt>
      <trkpt lat="42.892854" lon="0.052865">
        <ele>1137.343</ele>
        <time>2019-10-04T09:17:56Z</time>
      </trkpt>
      <trkpt lat="42.893137" lon="0.054396">
        <ele>1151.565</ele>
        <time>2019-10-04T09:18:31Z</time>
      </trkpt>
      <trkpt lat="42.894049" lon="0.056296">
        <ele>1164.949</ele>
        <time>2019-10-04T09:19:32Z</time>
      </trkpt>
      <trkpt lat="42.894520" lon="0.057682">
        <ele>1176.037</ele>
        <time>2019-10-04T09:20:11Z</time>
      </trkpt>
      <trkpt lat="42.895022" lon="0.058340">
        <ele>1182.742</ele>
        <time>2019-10-04T09:20:33Z</time>
      </trkpt>
      <trkpt lat="42.895674" lon="0.058836">
        <ele>1188.832</ele>
        <time>2019-10-04T09:20:58Z</time>
      </trkpt>
      <trkpt lat="42.895698" lon="0.058965">
        <ele>1189.598</ele>
        <time>2019-10-04T09:21:01Z</time>
      </trkpt>
      <trkpt lat="42.895512" lon="0.059128">
        <ele>1190.097</ele>
        <time>2019-10-04T09:21:09Z</time>
      </trkpt>
      <trkpt lat="42.895135" lon="0.059031">
        <ele>1190.687</ele>
        <time>2019-10-04T09:21:21Z</time>
      </trkpt>
      <trkpt lat="42.894931" lon="0.059396">
        <ele>1192.642</ele>
        <time>2019-10-04T09:21:34Z</time>
      </trkpt>
      <trkpt lat="42.895054" lon="0.059541">
        <ele>1193.426</ele>
        <time>2019-10-04T09:21:39Z</time>
      </trkpt>
      <trkpt lat="42.895682" lon="0.059589">
        <ele>1197.208</ele>
        <time>2019-10-04T09:21:58Z</time>
      </trkpt>
      <trkpt lat="42.895948" lon="0.059846">
        <ele>1201.432</ele>
        <time>2019-10-04T09:22:08Z</time>
      </trkpt>
      <trkpt lat="42.896120" lon="0.060886">
        <ele>1211.064</ele>
        <time>2019-10-04T09:22:32Z</time>
      </trkpt>
      <trkpt lat="42.896028" lon="0.062169">
        <ele>1222.628</ele>
        <time>2019-10-04T09:23:01Z</time>
      </trkpt>
      <trkpt lat="42.896166" lon="0.063227">
        <ele>1234.076</ele>
        <time>2019-10-04T09:23:27Z</time>
      </trkpt>
      <trkpt lat="42.897700" lon="0.067326">
        <ele>1254.811</ele>
        <time>2019-10-04T09:25:04Z</time>
      </trkpt>
      <trkpt lat="42.897744" lon="0.068795">
        <ele>1269.251</ele>
        <time>2019-10-04T09:25:43Z</time>
      </trkpt>
      <trkpt lat="42.898061" lon="0.069572">
        <ele>1277.147</ele>
        <time>2019-10-04T09:26:02Z</time>
      </trkpt>
      <trkpt lat="42.898056" lon="0.070372">
        <ele>1282.096</ele>
        <time>2019-10-04T09:26:22Z</time>
      </trkpt>
      <trkpt lat="42.898302" lon="0.071386">
        <ele>1288.517</ele>
        <time>2019-10-04T09:26:50Z</time>
      </trkpt>
      <trkpt lat="42.898268" lon="0.072218">
        <ele>1293.787</ele>
        <time>2019-10-04T09:27:14Z</time>
      </trkpt>
      <trkpt lat="42.898457" lon="0.072931">
        <ele>1298.515</ele>
        <time>2019-10-04T09:27:33Z</time>
      </trkpt>
      <trkpt lat="42.898518" lon="0.074744">
        <ele>1308.908</ele>
        <time>2019-10-04T09:28:24Z</time>
      </trkpt>
      <trkpt lat="42.899342" lon="0.076230">
        <ele>1316.155</ele>
        <time>2019-10-04T09:29:10Z</time>
      </trkpt>
      <trkpt lat="42.900447" lon="0.081015">
        <ele>1355.857</ele>
        <time>2019-10-04T09:31:25Z</time>
      </trkpt>
      <trkpt lat="42.901426" lon="0.083230">
        <ele>1373.621</ele>
        <time>2019-10-04T09:32:29Z</time>
      </trkpt>
      <trkpt lat="42.901623" lon="0.085297">
        <ele>1387.599</ele>
        <time>2019-10-04T09:33:19Z</time>
      </trkpt>
      <trkpt lat="42.901599" lon="0.086137">
        <ele>1392.754</ele>
        <time>2019-10-04T09:33:41Z</time>
      </trkpt>
      <trkpt lat="42.902686" lon="0.090204">
        <ele>1410.934</ele>
        <time>2019-10-04T09:34:58Z</time>
      </trkpt>
      <trkpt lat="42.902559" lon="0.091164">
        <ele>1414.970</ele>
        <time>2019-10-04T09:35:15Z</time>
      </trkpt>
      <trkpt lat="42.902994" lon="0.092848">
        <ele>1422.079</ele>
        <time>2019-10-04T09:35:45Z</time>
      </trkpt>
      <trkpt lat="42.903275" lon="0.095070">
        <ele>1431.943</ele>
        <time>2019-10-04T09:36:23Z</time>
      </trkpt>
      <trkpt lat="42.903207" lon="0.097429">
        <ele>1438.264</ele>
        <time>2019-10-04T09:37:08Z</time>
      </trkpt>
      <trkpt lat="42.903435" lon="0.098900">
        <ele>1443.910</ele>
        <time>2019-10-04T09:37:37Z</time>
      </trkpt>
      <trkpt lat="42.903477" lon="0.100154">
        <ele>1452.608</ele>
        <time>2019-10-04T09:38:05Z</time>
      </trkpt>
      <trkpt lat="42.903178" lon="0.100648">
        <ele>1457.558</ele>
        <time>2019-10-04T09:38:21Z</time>
      </trkpt>
      <trkpt lat="42.903132" lon="0.100935">
        <ele>1459.860</ele>
        <time>2019-10-04T09:38:28Z</time>
      </trkpt>
      <trkpt lat="42.903462" lon="0.102811">
        <ele>1462.794</ele>
        <time>2019-10-04T09:39:06Z</time>
      </trkpt>
      <trkpt lat="42.904011" lon="0.103622">
        <ele>1469.682</ele>
        <time>2019-10-04T09:39:30Z</time>
      </trkpt>
      <trkpt lat="42.904432" lon="0.103627">
        <ele>1470.317</ele>
        <time>2019-10-04T09:39:43Z</time>
      </trkpt>
      <trkpt lat="42.905239" lon="0.102582">
        <ele>1478.057</ele>
        <time>2019-10-04T09:40:14Z</time>
      </trkpt>
      <trkpt lat="42.905218" lon="0.101548">
        <ele>1484.363</ele>
        <time>2019-10-04T09:40:37Z</time>
      </trkpt>
      <trkpt lat="42.905344" lon="0.101492">
        <ele>1485.572</ele>
        <time>2019-10-04T09:40:40Z</time>
      </trkpt>
      <trkpt lat="42.905565" lon="0.101598">
        <ele>1487.415</ele>
        <time>2019-10-04T09:40:45Z</time>
      </trkpt>
      <trkpt lat="42.905702" lon="0.102425">
        <ele>1492.265</ele>
        <time>2019-10-04T09:41:02Z</time>
      </trkpt>
      <trkpt lat="42.905583" lon="0.103608">
        <ele>1497.611</ele>
        <time>2019-10-04T09:41:31Z</time>
      </trkpt>
      <trkpt lat="42.905460" lon="0.104151">
        <ele>1499.408</ele>
        <time>2019-10-04T09:41:43Z</time>
      </trkpt>
      <trkpt lat="42.905231" lon="0.104509">
        <ele>1501.795</ele>
        <time>2019-10-04T09:41:54Z</time>
      </trkpt>
      <trkpt lat="42.905412" lon="0.104689">
        <ele>1504.227</ele>
        <time>2019-10-04T09:42:01Z</time>
      </trkpt>
      <trkpt lat="42.905666" lon="0.104477">
        <ele>1506.761</ele>
        <time>2019-10-04T09:42:09Z</time>
      </trkpt>
      <trkpt lat="42.905914" lon="0.103971">
        <ele>1510.859</ele>
        <time>2019-10-04T09:42:23Z</time>
      </trkpt>
      <trkpt lat="42.906476" lon="0.101972">
        <ele>1525.474</ele>
        <time>2019-10-04T09:43:10Z</time>
      </trkpt>
      <trkpt lat="42.906672" lon="0.102080">
        <ele>1528.024</ele>
        <time>2019-10-04T09:43:16Z</time>
      </trkpt>
      <trkpt lat="42.906325" lon="0.104736">
        <ele>1543.120</ele>
        <time>2019-10-04T09:44:21Z</time>
      </trkpt>
      <trkpt lat="42.906369" lon="0.105413">
        <ele>1547.039</ele>
        <time>2019-10-04T09:44:35Z</time>
      </trkpt>
      <trkpt lat="42.906161" lon="0.106057">
        <ele>1551.074</ele>
        <time>2019-10-04T09:44:50Z</time>
      </trkpt>
      <trkpt lat="42.906374" lon="0.107051">
        <ele>1557.556</ele>
        <time>2019-10-04T09:45:15Z</time>
      </trkpt>
      <trkpt lat="42.906536" lon="0.109424">
        <ele>1572.221</ele>
        <time>2019-10-04T09:46:17Z</time>
      </trkpt>
      <trkpt lat="42.907370" lon="0.112276">
        <ele>1591.308</ele>
        <time>2019-10-04T09:47:36Z</time>
      </trkpt>
      <trkpt lat="42.907326" lon="0.113374">
        <ele>1597.671</ele>
        <time>2019-10-04T09:48:04Z</time>
      </trkpt>
      <trkpt lat="42.907526" lon="0.115093">
        <ele>1607.523</ele>
        <time>2019-10-04T09:48:47Z</time>
      </trkpt>
      <trkpt lat="42.907267" lon="0.116326">
        <ele>1615.157</ele>
        <time>2019-10-04T09:49:19Z</time>
      </trkpt>
      <trkpt lat="42.907484" lon="0.116313">
        <ele>1616.825</ele>
        <time>2019-10-04T09:49:26Z</time>
      </trkpt>
      <trkpt lat="42.908088" lon="0.115449">
        <ele>1623.040</ele>
        <time>2019-10-04T09:49:56Z</time>
      </trkpt>
      <trkpt lat="42.908183" lon="0.115597">
        <ele>1624.010</ele>
        <time>2019-10-04T09:50:01Z</time>
      </trkpt>
      <trkpt lat="42.907805" lon="0.116424">
        <ele>1631.166</ele>
        <time>2019-10-04T09:50:22Z</time>
      </trkpt>
      <trkpt lat="42.907543" lon="0.117482">
        <ele>1641.945</ele>
        <time>2019-10-04T09:50:50Z</time>
      </trkpt>
      <trkpt lat="42.907156" lon="0.120267">
        <ele>1663.338</ele>
        <time>2019-10-04T09:52:06Z</time>
      </trkpt>
      <trkpt lat="42.907099" lon="0.121668">
        <ele>1674.770</ele>
        <time>2019-10-04T09:52:43Z</time>
      </trkpt>
      <trkpt lat="42.907218" lon="0.123480">
        <ele>1686.517</ele>
        <time>2019-10-04T09:53:30Z</time>
      </trkpt>
      <trkpt lat="42.907105" lon="0.123921">
        <ele>1689.608</ele>
        <time>2019-10-04T09:53:42Z</time>
      </trkpt>
      <trkpt lat="42.907226" lon="0.126225">
        <ele>1704.417</ele>
        <time>2019-10-04T09:54:43Z</time>
      </trkpt>
      <trkpt lat="42.907009" lon="0.128522">
        <ele>1717.299</ele>
        <time>2019-10-04T09:55:43Z</time>
      </trkpt>
      <trkpt lat="42.907081" lon="0.129090">
        <ele>1720.843</ele>
        <time>2019-10-04T09:55:58Z</time>
      </trkpt>
      <trkpt lat="42.906725" lon="0.130759">
        <ele>1729.361</ele>
        <time>2019-10-04T09:56:40Z</time>
      </trkpt>
      <trkpt lat="42.906413" lon="0.131388">
        <ele>1730.666</ele>
        <time>2019-10-04T09:56:53Z</time>
      </trkpt>
      <trkpt lat="42.905953" lon="0.131651">
        <ele>1731.076</ele>
        <time>2019-10-04T09:57:03Z</time>
      </trkpt>
      <trkpt lat="42.905648" lon="0.131350">
        <ele>1730.062</ele>
        <time>2019-10-04T09:57:12Z</time>
      </trkpt>
      <trkpt lat="42.905570" lon="0.130854">
        <ele>1728.581</ele>
        <time>2019-10-04T09:57:22Z</time>
      </trkpt>
      <trkpt lat="42.905285" lon="0.130243">
        <ele>1730.212</ele>
        <time>2019-10-04T09:57:38Z</time>
      </trkpt>
      <trkpt lat="42.904722" lon="0.129868">
        <ele>1731.432</ele>
        <time>2019-10-04T09:58:00Z</time>
      </trkpt>
      <trkpt lat="42.904543" lon="0.129615">
        <ele>1733.105</ele>
        <time>2019-10-04T09:58:09Z</time>
      </trkpt>
      <trkpt lat="42.904248" lon="0.128224">
        <ele>1741.008</ele>
        <time>2019-10-04T09:58:44Z</time>
      </trkpt>
      <trkpt lat="42.904244" lon="0.127547">
        <ele>1744.585</ele>
        <time>2019-10-04T09:58:59Z</time>
      </trkpt>
      <trkpt lat="42.904085" lon="0.126964">
        <ele>1747.447</ele>
        <time>2019-10-04T09:59:14Z</time>
      </trkpt>
      <trkpt lat="42.904132" lon="0.126453">
        <ele>1749.771</ele>
        <time>2019-10-04T09:59:27Z</time>
      </trkpt>
      <trkpt lat="42.904009" lon="0.126267">
        <ele>1750.519</ele>
        <time>2019-10-04T09:59:33Z</time>
      </trkpt>
      <trkpt lat="42.903860" lon="0.126271">
        <ele>1751.064</ele>
        <time>2019-10-04T09:59:38Z</time>
      </trkpt>
      <trkpt lat="42.903699" lon="0.127053">
        <ele>1757.884</ele>
        <time>2019-10-04T09:59:55Z</time>
      </trkpt>
      <trkpt lat="42.903789" lon="0.127592">
        <ele>1762.640</ele>
        <time>2019-10-04T10:00:08Z</time>
      </trkpt>
      <trkpt lat="42.903561" lon="0.128043">
        <ele>1770.239</ele>
        <time>2019-10-04T10:00:21Z</time>
      </trkpt>
      <trkpt lat="42.903785" lon="0.129028">
        <ele>1782.894</ele>
        <time>2019-10-04T10:00:49Z</time>
      </trkpt>
      <trkpt lat="42.903322" lon="0.130925">
        <ele>1803.057</ele>
        <time>2019-10-04T10:01:44Z</time>
      </trkpt>
      <trkpt lat="42.903381" lon="0.131392">
        <ele>1809.022</ele>
        <time>2019-10-04T10:01:58Z</time>
      </trkpt>
      <trkpt lat="42.902690" lon="0.132231">
        <ele>1821.608</ele>
        <time>2019-10-04T10:02:30Z</time>
      </trkpt>
      <trkpt lat="42.902024" lon="0.132429">
        <ele>1828.723</ele>
        <time>2019-10-04T10:02:54Z</time>
      </trkpt>
      <trkpt lat="42.901895" lon="0.132792">
        <ele>1831.325</ele>
        <time>2019-10-04T10:03:04Z</time>
      </trkpt>
      <trkpt lat="42.902178" lon="0.133387">
        <ele>1835.249</ele>
        <time>2019-10-04T10:03:22Z</time>
      </trkpt>
      <trkpt lat="42.902270" lon="0.133953">
        <ele>1839.367</ele>
        <time>2019-10-04T10:03:37Z</time>
      </trkpt>
      <trkpt lat="42.902650" lon="0.134234">
        <ele>1843.482</ele>
        <time>2019-10-04T10:03:54Z</time>
      </trkpt>
      <trkpt lat="42.902813" lon="0.134627">
        <ele>1846.392</ele>
        <time>2019-10-04T10:04:07Z</time>
      </trkpt>
      <trkpt lat="42.902774" lon="0.135291">
        <ele>1850.578</ele>
        <time>2019-10-04T10:04:23Z</time>
      </trkpt>
      <trkpt lat="42.902950" lon="0.136133">
        <ele>1854.937</ele>
        <time>2019-10-04T10:04:48Z</time>
      </trkpt>
      <trkpt lat="42.903485" lon="0.136273">
        <ele>1855.629</ele>
        <time>2019-10-04T10:05:07Z</time>
      </trkpt>
      <trkpt lat="42.903714" lon="0.136811">
        <ele>1855.900</ele>
        <time>2019-10-04T10:05:25Z</time>
      </trkpt>
      <trkpt lat="42.903964" lon="0.137023">
        <ele>1858.120</ele>
        <time>2019-10-04T10:05:35Z</time>
      </trkpt>
      <trkpt lat="42.904985" lon="0.137143">
        <ele>1865.608</ele>
        <time>2019-10-04T10:06:09Z</time>
      </trkpt>
      <trkpt lat="42.905623" lon="0.138074">
        <ele>1876.026</ele>
        <time>2019-10-04T10:06:42Z</time>
      </trkpt>
      <trkpt lat="42.906377" lon="0.138677">
        <ele>1881.928</ele>
        <time>2019-10-04T10:07:14Z</time>
      </trkpt>
      <trkpt lat="42.906944" lon="0.138553">
        <ele>1887.632</ele>
        <time>2019-10-04T10:07:34Z</time>
      </trkpt>
      <trkpt lat="42.907509" lon="0.138645">
        <ele>1893.170</ele>
        <time>2019-10-04T10:07:52Z</time>
      </trkpt>
      <trkpt lat="42.907930" lon="0.138146">
        <ele>1899.425</ele>
        <time>2019-10-04T10:08:11Z</time>
      </trkpt>
      <trkpt lat="42.908495" lon="0.137739">
        <ele>1904.245</ele>
        <time>2019-10-04T10:08:34Z</time>
      </trkpt>
      <trkpt lat="42.909862" lon="0.138065">
        <ele>1915.531</ele>
        <time>2019-10-04T10:09:26Z</time>
      </trkpt>
      <trkpt lat="42.910595" lon="0.138024">
        <ele>1922.640</ele>
        <time>2019-10-04T10:09:53Z</time>
      </trkpt>
      <trkpt lat="42.911054" lon="0.138596">
        <ele>1926.424</ele>
        <time>2019-10-04T10:10:14Z</time>
      </trkpt>
      <trkpt lat="42.911668" lon="0.137879">
        <ele>1930.504</ele>
        <time>2019-10-04T10:10:33Z</time>
      </trkpt>
      <trkpt lat="42.912465" lon="0.137735">
        <ele>1932.514</ele>
        <time>2019-10-04T10:10:55Z</time>
      </trkpt>
      <trkpt lat="42.912857" lon="0.137405">
        <ele>1933.708</ele>
        <time>2019-10-04T10:11:05Z</time>
      </trkpt>
      <trkpt lat="42.913179" lon="0.136824">
        <ele>1935.636</ele>
        <time>2019-10-04T10:11:18Z</time>
      </trkpt>
      <trkpt lat="42.913322" lon="0.136774">
        <ele>1936.248</ele>
        <time>2019-10-04T10:11:22Z</time>
      </trkpt>
      <trkpt lat="42.913480" lon="0.136888">
        <ele>1937.382</ele>
        <time>2019-10-04T10:11:28Z</time>
      </trkpt>
      <trkpt lat="42.913435" lon="0.137113">
        <ele>1938.560</ele>
        <time>2019-10-04T10:11:34Z</time>
      </trkpt>
      <trkpt lat="42.912912" lon="0.137429">
        <ele>1943.095</ele>
        <time>2019-10-04T10:11:49Z</time>
      </trkpt>
      <trkpt lat="42.912717" lon="0.137998">
        <ele>1947.425</ele>
        <time>2019-10-04T10:12:05Z</time>
      </trkpt>
      <trkpt lat="42.912529" lon="0.138217">
        <ele>1949.781</ele>
        <time>2019-10-04T10:12:14Z</time>
      </trkpt>
      <trkpt lat="42.911638" lon="0.138623">
        <ele>1959.150</ele>
        <time>2019-10-04T10:12:45Z</time>
      </trkpt>
      <trkpt lat="42.911509" lon="0.138968">
        <ele>1962.096</ele>
        <time>2019-10-04T10:12:56Z</time>
      </trkpt>
      <trkpt lat="42.911365" lon="0.139064">
        <ele>1963.831</ele>
        <time>2019-10-04T10:13:02Z</time>
      </trkpt>
      <trkpt lat="42.911276" lon="0.139516">
        <ele>1967.924</ele>
        <time>2019-10-04T10:13:14Z</time>
      </trkpt>
      <trkpt lat="42.910689" lon="0.139633">
        <ele>1974.008</ele>
        <time>2019-10-04T10:13:33Z</time>
      </trkpt>
      <trkpt lat="42.910115" lon="0.139411">
        <ele>1981.263</ele>
        <time>2019-10-04T10:13:58Z</time>
      </trkpt>
      <trkpt lat="42.909145" lon="0.139476">
        <ele>1992.425</ele>
        <time>2019-10-04T10:14:38Z</time>
      </trkpt>
      <trkpt lat="42.908045" lon="0.140576">
        <ele>2005.989</ele>
        <time>2019-10-04T10:15:28Z</time>
      </trkpt>
      <trkpt lat="42.907364" lon="0.141487">
        <ele>2015.827</ele>
        <time>2019-10-04T10:16:07Z</time>
      </trkpt>
      <trkpt lat="42.907264" lon="0.141820">
        <ele>2018.722</ele>
        <time>2019-10-04T10:16:17Z</time>
      </trkpt>
      <trkpt lat="42.907223" lon="0.142428">
        <ele>2024.452</ele>
        <time>2019-10-04T10:16:37Z</time>
      </trkpt>
      <trkpt lat="42.907528" lon="0.143248">
        <ele>2032.478</ele>
        <time>2019-10-04T10:17:01Z</time>
      </trkpt>
      <trkpt lat="42.907533" lon="0.143827">
        <ele>2037.067</ele>
        <time>2019-10-04T10:17:14Z</time>
      </trkpt>
      <trkpt lat="42.906872" lon="0.144450">
        <ele>2044.666</ele>
        <time>2019-10-04T10:17:41Z</time>
      </trkpt>
      <trkpt lat="42.906169" lon="0.144761">
        <ele>2051.429</ele>
        <time>2019-10-04T10:18:06Z</time>
      </trkpt>
      <trkpt lat="42.906231" lon="0.145181">
        <ele>2054.521</ele>
        <time>2019-10-04T10:18:23Z</time>
      </trkpt>
      <trkpt lat="42.905625" lon="0.146328">
        <ele>2065.608</ele>
        <time>2019-10-04T10:19:00Z</time>
      </trkpt>
      <trkpt lat="42.905053" lon="0.146693">
        <ele>2072.450</ele>
        <time>2019-10-04T10:19:20Z</time>
      </trkpt>
      <trkpt lat="42.905166" lon="0.146783">
        <ele>2074.182</ele>
        <time>2019-10-04T10:19:25Z</time>
      </trkpt>
      <trkpt lat="42.905748" lon="0.146629">
        <ele>2081.086</ele>
        <time>2019-10-04T10:19:43Z</time>
      </trkpt>
      <trkpt lat="42.906828" lon="0.145802">
        <ele>2095.284</ele>
        <time>2019-10-04T10:20:29Z</time>
      </trkpt>
      <trkpt lat="42.907010" lon="0.145460">
        <ele>2099.219</ele>
        <time>2019-10-04T10:20:42Z</time>
      </trkpt>
      <trkpt lat="42.907606" lon="0.145268">
        <ele>2106.799</ele>
        <time>2019-10-04T10:21:08Z</time>
      </trkpt>
      <trkpt lat="42.907867" lon="0.145377">
        <ele>2110.475</ele>
        <time>2019-10-04T10:21:20Z</time>
      </trkpt>
      <trkpt lat="42.908122" lon="0.145264">
        <ele>2113.724</ele>
        <time>2019-10-04T10:21:29Z</time>
      </trkpt>
      <trkpt lat="42.908430" lon="0.145301">
        <ele>2120.243</ele>
        <time>2019-10-04T10:21:42Z</time>
      </trkpt>
      <trkpt lat="42.908658" lon="0.145792">
        <ele>2119.564</ele>
        <time>2019-10-04T10:22:00Z</time>
      </trkpt>
      <trkpt lat="42.908622" lon="0.146108">
        <ele>2117.710</ele>
        <time>2019-10-04T10:22:07Z</time>
      </trkpt>
    </trkseg>
  </trk></gpx>