<?xml version="1.0" encoding="UTF-8"?>
<gpx creator="Wikiloc - https://www.wikiloc.com" version="1.1" xmlns="http://www.topografix.com/GPX/1/1" xmlns:xsi="http://www.w3.org/2001/XMLSchema-instance" xsi:schemaLocation="http://www.topografix.com/GPX/1/1 http://www.topografix.com/GPX/1/1/gpx.xsd">
  <metadata>
    <name>Wikiloc - Coll de La Gallina SOLOPUERTOS Oficial (St Julia de Loria) -...</name>
    <link href="https://www.wikiloc.com/cycling-trails/coll-de-la-gallina-solopuertos-oficial-st-julia-de-loria-46083610">
      <text>Coll de La Gallina SOLOPUERTOS Oficial (St Julia de Loria) -... on Wikiloc</text>
    </link>
    <time>2019-10-10T08:35:24Z</time>
  </metadata>
  <trk>
    <name>Coll de La Gallina SOLOPUERTOS Oficial (St Julia de Loria) -... - Wikiloc</name>
    <cmt></cmt>
    <desc></desc>
    <trkseg>
      <trkpt lat="42.460996" lon="1.489611">
        <ele>906.555</ele>
        <time>2019-10-10T07:30:22Z</time>
      </trkpt>
      <trkpt lat="42.461247" lon="1.489359">
        <ele>910.707</ele>
        <time>2019-10-10T07:30:45Z</time>
      </trkpt>
      <trkpt lat="42.461097" lon="1.489428">
        <ele>913.017</ele>
        <time>2019-10-10T07:31:07Z</time>
      </trkpt>
      <trkpt lat="42.460722" lon="1.488197">
        <ele>921.408</ele>
        <time>2019-10-10T07:31:39Z</time>
      </trkpt>
      <trkpt lat="42.460861" lon="1.487852">
        <ele>923.749</ele>
        <time>2019-10-10T07:31:48Z</time>
      </trkpt>
      <trkpt lat="42.460993" lon="1.488215">
        <ele>923.591</ele>
        <time>2019-10-10T07:31:57Z</time>
      </trkpt>
      <trkpt lat="42.461508" lon="1.488490">
        <ele>921.585</ele>
        <time>2019-10-10T07:32:13Z</time>
      </trkpt>
      <trkpt lat="42.462434" lon="1.488354">
        <ele>926.853</ele>
        <time>2019-10-10T07:32:40Z</time>
      </trkpt>
      <trkpt lat="42.462993" lon="1.488531">
        <ele>928.248</ele>
        <time>2019-10-10T07:32:57Z</time>
      </trkpt>
      <trkpt lat="42.463076" lon="1.488410">
        <ele>928.811</ele>
        <time>2019-10-10T07:33:01Z</time>
      </trkpt>
      <trkpt lat="42.463040" lon="1.488278">
        <ele>929.426</ele>
        <time>2019-10-10T07:33:05Z</time>
      </trkpt>
      <trkpt lat="42.462766" lon="1.488129">
        <ele>931.125</ele>
        <time>2019-10-10T07:33:12Z</time>
      </trkpt>
      <trkpt lat="42.462006" lon="1.487431">
        <ele>935.382</ele>
        <time>2019-10-10T07:33:41Z</time>
      </trkpt>
      <trkpt lat="42.461212" lon="1.486897">
        <ele>938.243</ele>
        <time>2019-10-10T07:34:06Z</time>
      </trkpt>
      <trkpt lat="42.461257" lon="1.486765">
        <ele>938.617</ele>
        <time>2019-10-10T07:34:10Z</time>
      </trkpt>
      <trkpt lat="42.461374" lon="1.486739">
        <ele>939.108</ele>
        <time>2019-10-10T07:34:13Z</time>
      </trkpt>
      <trkpt lat="42.462378" lon="1.487159">
        <ele>948.792</ele>
        <time>2019-10-10T07:34:47Z</time>
      </trkpt>
      <trkpt lat="42.462387" lon="1.486956">
        <ele>949.834</ele>
        <time>2019-10-10T07:34:52Z</time>
      </trkpt>
      <trkpt lat="42.462134" lon="1.486443">
        <ele>951.318</ele>
        <time>2019-10-10T07:35:05Z</time>
      </trkpt>
      <trkpt lat="42.462188" lon="1.486109">
        <ele>953.236</ele>
        <time>2019-10-10T07:35:13Z</time>
      </trkpt>
      <trkpt lat="42.461874" lon="1.485919">
        <ele>956.111</ele>
        <time>2019-10-10T07:35:24Z</time>
      </trkpt>
      <trkpt lat="42.461221" lon="1.485956">
        <ele>960.954</ele>
        <time>2019-10-10T07:35:49Z</time>
      </trkpt>
      <trkpt lat="42.460156" lon="1.486453">
        <ele>970.089</ele>
        <time>2019-10-10T07:36:26Z</time>
      </trkpt>
      <trkpt lat="42.460141" lon="1.486288">
        <ele>978.528</ele>
        <time>2019-10-10T07:36:31Z</time>
      </trkpt>
      <trkpt lat="42.460622" lon="1.485974">
        <ele>986.179</ele>
        <time>2019-10-10T07:36:46Z</time>
      </trkpt>
      <trkpt lat="42.461162" lon="1.485412">
        <ele>994.305</ele>
        <time>2019-10-10T07:37:11Z</time>
      </trkpt>
      <trkpt lat="42.461106" lon="1.485312">
        <ele>995.725</ele>
        <time>2019-10-10T07:37:14Z</time>
      </trkpt>
      <trkpt lat="42.461007" lon="1.485320">
        <ele>997.208</ele>
        <time>2019-10-10T07:37:16Z</time>
      </trkpt>
      <trkpt lat="42.460512" lon="1.485571">
        <ele>1004.861</ele>
        <time>2019-10-10T07:37:29Z</time>
      </trkpt>
      <trkpt lat="42.460221" lon="1.485374">
        <ele>1017.543</ele>
        <time>2019-10-10T07:37:41Z</time>
      </trkpt>
      <trkpt lat="42.460114" lon="1.483618">
        <ele>1037.237</ele>
        <time>2019-10-10T07:38:38Z</time>
      </trkpt>
      <trkpt lat="42.460233" lon="1.482947">
        <ele>1043.055</ele>
        <time>2019-10-10T07:38:56Z</time>
      </trkpt>
      <trkpt lat="42.459199" lon="1.482591">
        <ele>1055.880</ele>
        <time>2019-10-10T07:39:27Z</time>
      </trkpt>
      <trkpt lat="42.458620" lon="1.482646">
        <ele>1061.383</ele>
        <time>2019-10-10T07:39:48Z</time>
      </trkpt>
      <trkpt lat="42.458284" lon="1.482769">
        <ele>1066.968</ele>
        <time>2019-10-10T07:40:00Z</time>
      </trkpt>
      <trkpt lat="42.458229" lon="1.482716">
        <ele>1067.897</ele>
        <time>2019-10-10T07:40:03Z</time>
      </trkpt>
      <trkpt lat="42.458869" lon="1.482221">
        <ele>1072.786</ele>
        <time>2019-10-10T07:40:26Z</time>
      </trkpt>
      <trkpt lat="42.459681" lon="1.482039">
        <ele>1082.660</ele>
        <time>2019-10-10T07:40:56Z</time>
      </trkpt>
      <trkpt lat="42.460350" lon="1.482168">
        <ele>1086.226</ele>
        <time>2019-10-10T07:41:21Z</time>
      </trkpt>
      <trkpt lat="42.460617" lon="1.482040">
        <ele>1088.308</ele>
        <time>2019-10-10T07:41:31Z</time>
      </trkpt>
      <trkpt lat="42.460656" lon="1.481910">
        <ele>1089.362</ele>
        <time>2019-10-10T07:41:35Z</time>
      </trkpt>
      <trkpt lat="42.460585" lon="1.481890">
        <ele>1090.234</ele>
        <time>2019-10-10T07:41:39Z</time>
      </trkpt>
      <trkpt lat="42.460620" lon="1.482086">
        <ele>1092.518</ele>
        <time>2019-10-10T07:41:47Z</time>
      </trkpt>
      <trkpt lat="42.460485" lon="1.481829">
        <ele>1095.766</ele>
        <time>2019-10-10T07:42:23Z</time>
      </trkpt>
      <trkpt lat="42.460283" lon="1.481907">
        <ele>1098.741</ele>
        <time>2019-10-10T07:42:29Z</time>
      </trkpt>
      <trkpt lat="42.460063" lon="1.481863">
        <ele>1101.664</ele>
        <time>2019-10-10T07:42:36Z</time>
      </trkpt>
      <trkpt lat="42.459580" lon="1.481450">
        <ele>1106.269</ele>
        <time>2019-10-10T07:42:55Z</time>
      </trkpt>
      <trkpt lat="42.458725" lon="1.481361">
        <ele>1114.258</ele>
        <time>2019-10-10T07:43:22Z</time>
      </trkpt>
      <trkpt lat="42.458462" lon="1.481073">
        <ele>1117.976</ele>
        <time>2019-10-10T07:43:35Z</time>
      </trkpt>
      <trkpt lat="42.458305" lon="1.480607">
        <ele>1123.290</ele>
        <time>2019-10-10T07:43:48Z</time>
      </trkpt>
      <trkpt lat="42.457493" lon="1.480256">
        <ele>1129.719</ele>
        <time>2019-10-10T07:44:19Z</time>
      </trkpt>
      <trkpt lat="42.457215" lon="1.480224">
        <ele>1131.808</ele>
        <time>2019-10-10T07:44:29Z</time>
      </trkpt>
      <trkpt lat="42.456903" lon="1.480316">
        <ele>1135.161</ele>
        <time>2019-10-10T07:44:39Z</time>
      </trkpt>
      <trkpt lat="42.456772" lon="1.480489">
        <ele>1136.793</ele>
        <time>2019-10-10T07:44:45Z</time>
      </trkpt>
      <trkpt lat="42.456664" lon="1.480976">
        <ele>1140.637</ele>
        <time>2019-10-10T07:44:59Z</time>
      </trkpt>
      <trkpt lat="42.456533" lon="1.480878">
        <ele>1142.375</ele>
        <time>2019-10-10T07:45:05Z</time>
      </trkpt>
      <trkpt lat="42.456556" lon="1.479277">
        <ele>1146.030</ele>
        <time>2019-10-10T07:45:38Z</time>
      </trkpt>
      <trkpt lat="42.456914" lon="1.477367">
        <ele>1127.523</ele>
        <time>2019-10-10T07:45:51Z</time>
      </trkpt>
      <trkpt lat="42.457210" lon="1.476581">
        <ele>1124.738</ele>
        <time>2019-10-10T07:45:56Z</time>
      </trkpt>
      <trkpt lat="42.457403" lon="1.475481">
        <ele>1122.027</ele>
        <time>2019-10-10T07:46:03Z</time>
      </trkpt>
      <trkpt lat="42.457550" lon="1.475303">
        <ele>1121.646</ele>
        <time>2019-10-10T07:46:05Z</time>
      </trkpt>
      <trkpt lat="42.457572" lon="1.474986">
        <ele>1121.988</ele>
        <time>2019-10-10T07:46:07Z</time>
      </trkpt>
      <trkpt lat="42.457825" lon="1.474462">
        <ele>1125.616</ele>
        <time>2019-10-10T07:46:12Z</time>
      </trkpt>
      <trkpt lat="42.457812" lon="1.474255">
        <ele>1127.808</ele>
        <time>2019-10-10T07:46:14Z</time>
      </trkpt>
      <trkpt lat="42.457365" lon="1.474033">
        <ele>1124.978</ele>
        <time>2019-10-10T07:46:20Z</time>
      </trkpt>
      <trkpt lat="42.457116" lon="1.473172">
        <ele>1125.590</ele>
        <time>2019-10-10T07:46:33Z</time>
      </trkpt>
      <trkpt lat="42.456666" lon="1.472471">
        <ele>1129.484</ele>
        <time>2019-10-10T07:46:55Z</time>
      </trkpt>
      <trkpt lat="42.456344" lon="1.472141">
        <ele>1130.822</ele>
        <time>2019-10-10T07:47:06Z</time>
      </trkpt>
      <trkpt lat="42.455656" lon="1.470973">
        <ele>1133.937</ele>
        <time>2019-10-10T07:47:37Z</time>
      </trkpt>
      <trkpt lat="42.455392" lon="1.471098">
        <ele>1137.690</ele>
        <time>2019-10-10T07:47:43Z</time>
      </trkpt>
      <trkpt lat="42.455311" lon="1.472170">
        <ele>1144.345</ele>
        <time>2019-10-10T07:48:06Z</time>
      </trkpt>
      <trkpt lat="42.455118" lon="1.472604">
        <ele>1147.944</ele>
        <time>2019-10-10T07:48:19Z</time>
      </trkpt>
      <trkpt lat="42.455151" lon="1.473077">
        <ele>1154.117</ele>
        <time>2019-10-10T07:48:30Z</time>
      </trkpt>
      <trkpt lat="42.455433" lon="1.473706">
        <ele>1153.887</ele>
        <time>2019-10-10T07:48:47Z</time>
      </trkpt>
      <trkpt lat="42.455309" lon="1.473716">
        <ele>1156.315</ele>
        <time>2019-10-10T07:48:53Z</time>
      </trkpt>
      <trkpt lat="42.454977" lon="1.472799">
        <ele>1163.708</ele>
        <time>2019-10-10T07:49:15Z</time>
      </trkpt>
      <trkpt lat="42.454931" lon="1.472351">
        <ele>1164.945</ele>
        <time>2019-10-10T07:49:26Z</time>
      </trkpt>
      <trkpt lat="42.455080" lon="1.471877">
        <ele>1167.087</ele>
        <time>2019-10-10T07:49:39Z</time>
      </trkpt>
      <trkpt lat="42.454966" lon="1.471794">
        <ele>1169.221</ele>
        <time>2019-10-10T07:49:44Z</time>
      </trkpt>
      <trkpt lat="42.454640" lon="1.472586">
        <ele>1179.469</ele>
        <time>2019-10-10T07:50:03Z</time>
      </trkpt>
      <trkpt lat="42.454610" lon="1.473593">
        <ele>1183.274</ele>
        <time>2019-10-10T07:50:27Z</time>
      </trkpt>
      <trkpt lat="42.454742" lon="1.474014">
        <ele>1184.737</ele>
        <time>2019-10-10T07:50:39Z</time>
      </trkpt>
      <trkpt lat="42.454703" lon="1.474127">
        <ele>1185.892</ele>
        <time>2019-10-10T07:50:43Z</time>
      </trkpt>
      <trkpt lat="42.454620" lon="1.474098">
        <ele>1187.161</ele>
        <time>2019-10-10T07:50:46Z</time>
      </trkpt>
      <trkpt lat="42.454328" lon="1.473411">
        <ele>1194.072</ele>
        <time>2019-10-10T07:51:05Z</time>
      </trkpt>
      <trkpt lat="42.454151" lon="1.472300">
        <ele>1201.313</ele>
        <time>2019-10-10T07:51:32Z</time>
      </trkpt>
      <trkpt lat="42.454218" lon="1.471071">
        <ele>1208.514</ele>
        <time>2019-10-10T07:52:02Z</time>
      </trkpt>
      <trkpt lat="42.454412" lon="1.470485">
        <ele>1210.408</ele>
        <time>2019-10-10T07:52:18Z</time>
      </trkpt>
      <trkpt lat="42.454347" lon="1.470367">
        <ele>1211.111</ele>
        <time>2019-10-10T07:52:23Z</time>
      </trkpt>
      <trkpt lat="42.454220" lon="1.470497">
        <ele>1212.813</ele>
        <time>2019-10-10T07:52:27Z</time>
      </trkpt>
      <trkpt lat="42.453904" lon="1.471309">
        <ele>1219.467</ele>
        <time>2019-10-10T07:52:48Z</time>
      </trkpt>
      <trkpt lat="42.453391" lon="1.472011">
        <ele>1226.235</ele>
        <time>2019-10-10T07:53:10Z</time>
      </trkpt>
      <trkpt lat="42.453265" lon="1.472820">
        <ele>1231.010</ele>
        <time>2019-10-10T07:53:31Z</time>
      </trkpt>
      <trkpt lat="42.453384" lon="1.473603">
        <ele>1234.243</ele>
        <time>2019-10-10T07:53:49Z</time>
      </trkpt>
      <trkpt lat="42.453279" lon="1.473692">
        <ele>1235.668</ele>
        <time>2019-10-10T07:53:54Z</time>
      </trkpt>
      <trkpt lat="42.453190" lon="1.473603">
        <ele>1236.997</ele>
        <time>2019-10-10T07:53:58Z</time>
      </trkpt>
      <trkpt lat="42.453022" lon="1.472658">
        <ele>1243.395</ele>
        <time>2019-10-10T07:54:21Z</time>
      </trkpt>
      <trkpt lat="42.452971" lon="1.471650">
        <ele>1249.549</ele>
        <time>2019-10-10T07:54:46Z</time>
      </trkpt>
      <trkpt lat="42.453231" lon="1.470334">
        <ele>1257.623</ele>
        <time>2019-10-10T07:55:19Z</time>
      </trkpt>
      <trkpt lat="42.453297" lon="1.469261">
        <ele>1263.708</ele>
        <time>2019-10-10T07:55:46Z</time>
      </trkpt>
      <trkpt lat="42.453266" lon="1.468925">
        <ele>1265.973</ele>
        <time>2019-10-10T07:55:54Z</time>
      </trkpt>
      <trkpt lat="42.453093" lon="1.468547">
        <ele>1268.745</ele>
        <time>2019-10-10T07:56:06Z</time>
      </trkpt>
      <trkpt lat="42.453074" lon="1.467832">
        <ele>1273.229</ele>
        <time>2019-10-10T07:56:24Z</time>
      </trkpt>
      <trkpt lat="42.452857" lon="1.467359">
        <ele>1276.817</ele>
        <time>2019-10-10T07:56:36Z</time>
      </trkpt>
      <trkpt lat="42.453127" lon="1.466458">
        <ele>1282.882</ele>
        <time>2019-10-10T07:57:00Z</time>
      </trkpt>
      <trkpt lat="42.453120" lon="1.466055">
        <ele>1286.575</ele>
        <time>2019-10-10T07:57:10Z</time>
      </trkpt>
      <trkpt lat="42.452961" lon="1.465410">
        <ele>1294.130</ele>
        <time>2019-10-10T07:57:27Z</time>
      </trkpt>
      <trkpt lat="42.452985" lon="1.464936">
        <ele>1299.199</ele>
        <time>2019-10-10T07:57:39Z</time>
      </trkpt>
      <trkpt lat="42.452864" lon="1.464320">
        <ele>1304.698</ele>
        <time>2019-10-10T07:57:54Z</time>
      </trkpt>
      <trkpt lat="42.452558" lon="1.463602">
        <ele>1315.315</ele>
        <time>2019-10-10T07:58:16Z</time>
      </trkpt>
      <trkpt lat="42.452295" lon="1.463303">
        <ele>1320.426</ele>
        <time>2019-10-10T07:58:28Z</time>
      </trkpt>
      <trkpt lat="42.452106" lon="1.462643">
        <ele>1324.508</ele>
        <time>2019-10-10T07:58:47Z</time>
      </trkpt>
      <trkpt lat="42.452007" lon="1.462537">
        <ele>1325.413</ele>
        <time>2019-10-10T07:58:51Z</time>
      </trkpt>
      <trkpt lat="42.451900" lon="1.462559">
        <ele>1326.385</ele>
        <time>2019-10-10T07:58:55Z</time>
      </trkpt>
      <trkpt lat="42.451768" lon="1.463092">
        <ele>1329.329</ele>
        <time>2019-10-10T07:59:08Z</time>
      </trkpt>
      <trkpt lat="42.451924" lon="1.464315">
        <ele>1338.267</ele>
        <time>2019-10-10T07:59:38Z</time>
      </trkpt>
      <trkpt lat="42.451873" lon="1.464636">
        <ele>1340.532</ele>
        <time>2019-10-10T07:59:46Z</time>
      </trkpt>
      <trkpt lat="42.451211" lon="1.465569">
        <ele>1349.365</ele>
        <time>2019-10-10T08:00:18Z</time>
      </trkpt>
      <trkpt lat="42.451105" lon="1.465876">
        <ele>1351.210</ele>
        <time>2019-10-10T08:00:26Z</time>
      </trkpt>
      <trkpt lat="42.451055" lon="1.466657">
        <ele>1356.099</ele>
        <time>2019-10-10T08:00:44Z</time>
      </trkpt>
      <trkpt lat="42.451122" lon="1.467344">
        <ele>1361.238</ele>
        <time>2019-10-10T08:01:02Z</time>
      </trkpt>
      <trkpt lat="42.450787" lon="1.469332">
        <ele>1376.670</ele>
        <time>2019-10-10T08:01:54Z</time>
      </trkpt>
      <trkpt lat="42.450541" lon="1.470034">
        <ele>1383.117</ele>
        <time>2019-10-10T08:02:14Z</time>
      </trkpt>
      <trkpt lat="42.450135" lon="1.470630">
        <ele>1388.308</ele>
        <time>2019-10-10T08:02:34Z</time>
      </trkpt>
      <trkpt lat="42.449851" lon="1.471467">
        <ele>1393.577</ele>
        <time>2019-10-10T08:03:02Z</time>
      </trkpt>
      <trkpt lat="42.449700" lon="1.471140">
        <ele>1396.889</ele>
        <time>2019-10-10T08:03:12Z</time>
      </trkpt>
      <trkpt lat="42.449675" lon="1.470435">
        <ele>1402.853</ele>
        <time>2019-10-10T08:03:32Z</time>
      </trkpt>
      <trkpt lat="42.449425" lon="1.470357">
        <ele>1406.481</ele>
        <time>2019-10-10T08:03:44Z</time>
      </trkpt>
      <trkpt lat="42.449573" lon="1.469655">
        <ele>1411.986</ele>
        <time>2019-10-10T08:04:04Z</time>
      </trkpt>
      <trkpt lat="42.449170" lon="1.469403">
        <ele>1418.159</ele>
        <time>2019-10-10T08:04:20Z</time>
      </trkpt>
      <trkpt lat="42.448505" lon="1.468652">
        <ele>1427.684</ele>
        <time>2019-10-10T08:04:52Z</time>
      </trkpt>
      <trkpt lat="42.448224" lon="1.467734">
        <ele>1434.263</ele>
        <time>2019-10-10T08:05:23Z</time>
      </trkpt>
      <trkpt lat="42.447632" lon="1.466550">
        <ele>1447.488</ele>
        <time>2019-10-10T08:06:03Z</time>
      </trkpt>
      <trkpt lat="42.446802" lon="1.465964">
        <ele>1455.424</ele>
        <time>2019-10-10T08:06:40Z</time>
      </trkpt>
      <trkpt lat="42.446818" lon="1.465748">
        <ele>1456.826</ele>
        <time>2019-10-10T08:06:46Z</time>
      </trkpt>
      <trkpt lat="42.447109" lon="1.465664">
        <ele>1459.208</ele>
        <time>2019-10-10T08:06:57Z</time>
      </trkpt>
      <trkpt lat="42.447291" lon="1.465361">
        <ele>1461.332</ele>
        <time>2019-10-10T08:07:08Z</time>
      </trkpt>
      <trkpt lat="42.447119" lon="1.463509">
        <ele>1469.124</ele>
        <time>2019-10-10T08:08:16Z</time>
      </trkpt>
      <trkpt lat="42.446913" lon="1.462931">
        <ele>1476.298</ele>
        <time>2019-10-10T08:08:28Z</time>
      </trkpt>
      <trkpt lat="42.446379" lon="1.462169">
        <ele>1487.526</ele>
        <time>2019-10-10T08:08:44Z</time>
      </trkpt>
      <trkpt lat="42.445869" lon="1.461015">
        <ele>1500.011</ele>
        <time>2019-10-10T08:09:07Z</time>
      </trkpt>
      <trkpt lat="42.446020" lon="1.460319">
        <ele>1507.414</ele>
        <time>2019-10-10T08:09:20Z</time>
      </trkpt>
      <trkpt lat="42.445953" lon="1.459772">
        <ele>1513.069</ele>
        <time>2019-10-10T08:09:34Z</time>
      </trkpt>
      <trkpt lat="42.446436" lon="1.458982">
        <ele>1520.628</ele>
        <time>2019-10-10T08:10:00Z</time>
      </trkpt>
      <trkpt lat="42.446798" lon="1.458895">
        <ele>1524.854</ele>
        <time>2019-10-10T08:10:14Z</time>
      </trkpt>
      <trkpt lat="42.447525" lon="1.459326">
        <ele>1534.256</ele>
        <time>2019-10-10T08:10:44Z</time>
      </trkpt>
      <trkpt lat="42.448450" lon="1.459159">
        <ele>1546.611</ele>
        <time>2019-10-10T08:11:20Z</time>
      </trkpt>
      <trkpt lat="42.448866" lon="1.458902">
        <ele>1553.308</ele>
        <time>2019-10-10T08:11:39Z</time>
      </trkpt>
      <trkpt lat="42.449403" lon="1.458357">
        <ele>1560.759</ele>
        <time>2019-10-10T08:12:07Z</time>
      </trkpt>
      <trkpt lat="42.449843" lon="1.458151">
        <ele>1565.591</ele>
        <time>2019-10-10T08:12:25Z</time>
      </trkpt>
      <trkpt lat="42.450442" lon="1.457280">
        <ele>1578.815</ele>
        <time>2019-10-10T08:13:03Z</time>
      </trkpt>
      <trkpt lat="42.450629" lon="1.456546">
        <ele>1586.833</ele>
        <time>2019-10-10T08:13:31Z</time>
      </trkpt>
      <trkpt lat="42.450689" lon="1.455848">
        <ele>1592.738</ele>
        <time>2019-10-10T08:13:55Z</time>
      </trkpt>
      <trkpt lat="42.451636" lon="1.452031">
        <ele>1632.461</ele>
        <time>2019-10-10T08:16:09Z</time>
      </trkpt>
      <trkpt lat="42.451470" lon="1.451184">
        <ele>1641.326</ele>
        <time>2019-10-10T08:16:41Z</time>
      </trkpt>
      <trkpt lat="42.451526" lon="1.450964">
        <ele>1644.195</ele>
        <time>2019-10-10T08:16:49Z</time>
      </trkpt>
      <trkpt lat="42.451426" lon="1.450458">
        <ele>1649.795</ele>
        <time>2019-10-10T08:17:07Z</time>
      </trkpt>
      <trkpt lat="42.451449" lon="1.449802">
        <ele>1657.949</ele>
        <time>2019-10-10T08:17:27Z</time>
      </trkpt>
      <trkpt lat="42.451638" lon="1.449902">
        <ele>1660.323</ele>
        <time>2019-10-10T08:17:35Z</time>
      </trkpt>
      <trkpt lat="42.452201" lon="1.450776">
        <ele>1669.008</ele>
        <time>2019-10-10T08:18:07Z</time>
      </trkpt>
      <trkpt lat="42.452980" lon="1.450962">
        <ele>1676.443</ele>
        <time>2019-10-10T08:18:35Z</time>
      </trkpt>
      <trkpt lat="42.453116" lon="1.450826">
        <ele>1678.725</ele>
        <time>2019-10-10T08:18:41Z</time>
      </trkpt>
      <trkpt lat="42.453472" lon="1.449746">
        <ele>1689.039</ele>
        <time>2019-10-10T08:19:17Z</time>
      </trkpt>
      <trkpt lat="42.453578" lon="1.448904">
        <ele>1696.467</ele>
        <time>2019-10-10T08:19:44Z</time>
      </trkpt>
      <trkpt lat="42.453835" lon="1.448289">
        <ele>1702.052</ele>
        <time>2019-10-10T08:20:05Z</time>
      </trkpt>
      <trkpt lat="42.454002" lon="1.448165">
        <ele>1704.395</ele>
        <time>2019-10-10T08:20:13Z</time>
      </trkpt>
      <trkpt lat="42.454246" lon="1.448894">
        <ele>1711.950</ele>
        <time>2019-10-10T08:20:35Z</time>
      </trkpt>
      <trkpt lat="42.454894" lon="1.449458">
        <ele>1722.579</ele>
        <time>2019-10-10T08:21:05Z</time>
      </trkpt>
      <trkpt lat="42.454854" lon="1.450511">
        <ele>1730.169</ele>
        <time>2019-10-10T08:21:34Z</time>
      </trkpt>
      <trkpt lat="42.454931" lon="1.450896">
        <ele>1732.104</ele>
        <time>2019-10-10T08:21:44Z</time>
      </trkpt>
      <trkpt lat="42.455135" lon="1.451103">
        <ele>1733.824</ele>
        <time>2019-10-10T08:21:55Z</time>
      </trkpt>
      <trkpt lat="42.455607" lon="1.451154">
        <ele>1736.608</ele>
        <time>2019-10-10T08:22:37Z</time>
      </trkpt>
      <trkpt lat="42.455874" lon="1.451539">
        <ele>1741.780</ele>
        <time>2019-10-10T08:22:51Z</time>
      </trkpt>
      <trkpt lat="42.455972" lon="1.451472">
        <ele>1743.862</ele>
        <time>2019-10-10T08:22:57Z</time>
      </trkpt>
      <trkpt lat="42.455984" lon="1.450384">
        <ele>1753.176</ele>
        <time>2019-10-10T08:23:28Z</time>
      </trkpt>
      <trkpt lat="42.456403" lon="1.448771">
        <ele>1766.394</ele>
        <time>2019-10-10T08:24:15Z</time>
      </trkpt>
      <trkpt lat="42.456276" lon="1.447948">
        <ele>1772.999</ele>
        <time>2019-10-10T08:24:39Z</time>
      </trkpt>
      <trkpt lat="42.456055" lon="1.447400">
        <ele>1777.812</ele>
        <time>2019-10-10T08:24:57Z</time>
      </trkpt>
      <trkpt lat="42.455672" lon="1.446944">
        <ele>1782.587</ele>
        <time>2019-10-10T08:25:15Z</time>
      </trkpt>
      <trkpt lat="42.455542" lon="1.445947">
        <ele>1790.696</ele>
        <time>2019-10-10T08:25:42Z</time>
      </trkpt>
      <trkpt lat="42.454927" lon="1.445532">
        <ele>1797.024</ele>
        <time>2019-10-10T08:26:05Z</time>
      </trkpt>
      <trkpt lat="42.454492" lon="1.444629">
        <ele>1804.504</ele>
        <time>2019-10-10T08:26:34Z</time>
      </trkpt>
      <trkpt lat="42.454516" lon="1.444456">
        <ele>1806.414</ele>
        <time>2019-10-10T08:26:40Z</time>
      </trkpt>
      <trkpt lat="42.454612" lon="1.444455">
        <ele>1808.308</ele>
        <time>2019-10-10T08:26:44Z</time>
      </trkpt>
      <trkpt lat="42.455206" lon="1.444965">
        <ele>1816.326</ele>
        <time>2019-10-10T08:27:11Z</time>
      </trkpt>
      <trkpt lat="42.455889" lon="1.445103">
        <ele>1822.928</ele>
        <time>2019-10-10T08:27:38Z</time>
      </trkpt>
      <trkpt lat="42.456292" lon="1.445860">
        <ele>1829.872</ele>
        <time>2019-10-10T08:28:03Z</time>
      </trkpt>
      <trkpt lat="42.457160" lon="1.446619">
        <ele>1840.710</ele>
        <time>2019-10-10T08:28:41Z</time>
      </trkpt>
      <trkpt lat="42.457485" lon="1.447114">
        <ele>1845.415</ele>
        <time>2019-10-10T08:28:59Z</time>
      </trkpt>
      <trkpt lat="42.457838" lon="1.448124">
        <ele>1853.478</ele>
        <time>2019-10-10T08:29:30Z</time>
      </trkpt>
      <trkpt lat="42.458080" lon="1.451611">
        <ele>1872.673</ele>
        <time>2019-10-10T08:31:07Z</time>
      </trkpt>
      <trkpt lat="42.458171" lon="1.451530">
        <ele>1873.912</ele>
        <time>2019-10-10T08:31:12Z</time>
      </trkpt>
      <trkpt lat="42.458358" lon="1.450201">
        <ele>1884.444</ele>
        <time>2019-10-10T08:31:49Z</time>
      </trkpt>
      <trkpt lat="42.458672" lon="1.449522">
        <ele>1889.205</ele>
        <time>2019-10-10T08:32:09Z</time>
      </trkpt>
      <trkpt lat="42.458981" lon="1.448263">
        <ele>1895.715</ele>
        <time>2019-10-10T08:32:41Z</time>
      </trkpt>
      <trkpt lat="42.458998" lon="1.447515">
        <ele>1900.408</ele>
        <time>2019-10-10T08:32:57Z</time>
      </trkpt>
      <trkpt lat="42.459066" lon="1.447394">
        <ele>1901.248</ele>
        <time>2019-10-10T08:33:01Z</time>
      </trkpt>
      <trkpt lat="42.459189" lon="1.447628">
        <ele>1904.230</ele>
        <time>2019-10-10T08:33:09Z</time>
      </trkpt>
      <trkpt lat="42.459210" lon="1.448726">
        <ele>1909.374</ele>
        <time>2019-10-10T08:33:34Z</time>
      </trkpt>
      <trkpt lat="42.459349" lon="1.449772">
        <ele>1912.242</ele>
        <time>2019-10-10T08:33:57Z</time>
      </trkpt>
      <trkpt lat="42.459542" lon="1.450139">
        <ele>1910.187</ele>
        <time>2019-10-10T08:34:10Z</time>
      </trkpt>
      <trkpt lat="42.459633" lon="1.450090">
        <ele>1909.460</ele>
        <time>2019-10-10T08:34:14Z</time>
      </trkpt>
      <trkpt lat="42.459558" lon="1.449964">
        <ele>1908.575</ele>
        <time>2019-10-10T08:35:24Z</time>
      </trkpt>
    </trkseg>
  </trk></gpx>