<?xml version="1.0" encoding="UTF-8"?><gpx creator="https://climbfinder.com" version="1.1"  xmlns:xsi="http://www.w3.org/2001/XMLSchema-instance"  xmlns="http://www.topografix.com/GPX/1/1" xsi:schemaLocation="http://www.topografix.com/GPX/1/1 http://www.topografix.com/GPX/1/1/gpx.xsd">
  <metadata>
    <name>collada-de-beixalis-desde-el-forn-encamps</name>
    <author>
      <link href="https://climbfinder.com">
        <text>climbfinder</text>
        <type>text/html</type>
      </link>
    </author>
  </metadata>
  <trk>
    <name>collada-de-beixalis-desde-el-forn-encamps</name>
    <trkseg>
			<trkpt lat="42.53364" lon="1.57346">
        <ele>1249.4</ele>
        <time>2026-08-04T09:00:00Z</time>
      </trkpt>
			<trkpt lat="42.53365" lon="1.57339">
        <ele>1249.6</ele>
        <time>2026-08-04T09:00:01Z</time>
      </trkpt>
			<trkpt lat="42.53365" lon="1.5733">
        <ele>1250</ele>
        <time>2026-08-04T09:00:03Z</time>
      </trkpt>
			<trkpt lat="42.53357" lon="1.57274">
        <ele>1252.4</ele>
        <time>2026-08-04T09:00:15Z</time>
      </trkpt>
			<trkpt lat="42.53357" lon="1.57265">
        <ele>1252.8</ele>
        <time>2026-08-04T09:00:16Z</time>
      </trkpt>
			<trkpt lat="42.53359" lon="1.57261">
        <ele>1253</ele>
        <time>2026-08-04T09:00:17Z</time>
      </trkpt>
			<trkpt lat="42.53363" lon="1.57255">
        <ele>1253.4</ele>
        <time>2026-08-04T09:00:19Z</time>
      </trkpt>
			<trkpt lat="42.53386" lon="1.57235">
        <ele>1255.3</ele>
        <time>2026-08-04T09:00:28Z</time>
      </trkpt>
			<trkpt lat="42.53408" lon="1.57215">
        <ele>1257.4</ele>
        <time>2026-08-04T09:00:37Z</time>
      </trkpt>
			<trkpt lat="42.5341" lon="1.57211">
        <ele>1257.7</ele>
        <time>2026-08-04T09:00:38Z</time>
      </trkpt>
			<trkpt lat="42.53411" lon="1.572">
        <ele>1258.3</ele>
        <time>2026-08-04T09:00:41Z</time>
      </trkpt>
			<trkpt lat="42.53408" lon="1.57188">
        <ele>1259.1</ele>
        <time>2026-08-04T09:00:44Z</time>
      </trkpt>
			<trkpt lat="42.53406" lon="1.57186">
        <ele>1259.3</ele>
        <time>2026-08-04T09:00:45Z</time>
      </trkpt>
			<trkpt lat="42.53399" lon="1.57182">
        <ele>1259.9</ele>
        <time>2026-08-04T09:00:48Z</time>
      </trkpt>
			<trkpt lat="42.53385" lon="1.57179">
        <ele>1261.2</ele>
        <time>2026-08-04T09:00:54Z</time>
      </trkpt>
			<trkpt lat="42.53375" lon="1.57175">
        <ele>1262.2</ele>
        <time>2026-08-04T09:00:58Z</time>
      </trkpt>
			<trkpt lat="42.53368" lon="1.57169">
        <ele>1262.9</ele>
        <time>2026-08-04T09:01:01Z</time>
      </trkpt>
			<trkpt lat="42.53361" lon="1.57154">
        <ele>1264.1</ele>
        <time>2026-08-04T09:01:07Z</time>
      </trkpt>
			<trkpt lat="42.53354" lon="1.57126">
        <ele>1266.2</ele>
        <time>2026-08-04T09:01:16Z</time>
      </trkpt>
			<trkpt lat="42.53347" lon="1.57094">
        <ele>1268.6</ele>
        <time>2026-08-04T09:01:27Z</time>
      </trkpt>
			<trkpt lat="42.5334" lon="1.57062">
        <ele>1271</ele>
        <time>2026-08-04T09:01:38Z</time>
      </trkpt>
			<trkpt lat="42.5334" lon="1.57057">
        <ele>1271.3</ele>
        <time>2026-08-04T09:01:39Z</time>
      </trkpt>
			<trkpt lat="42.53342" lon="1.57048">
        <ele>1272</ele>
        <time>2026-08-04T09:01:43Z</time>
      </trkpt>
			<trkpt lat="42.53345" lon="1.5704">
        <ele>1272.7</ele>
        <time>2026-08-04T09:01:46Z</time>
      </trkpt>
			<trkpt lat="42.53348" lon="1.57036">
        <ele>1273</ele>
        <time>2026-08-04T09:01:47Z</time>
      </trkpt>
			<trkpt lat="42.53353" lon="1.57024">
        <ele>1274.1</ele>
        <time>2026-08-04T09:01:52Z</time>
      </trkpt>
			<trkpt lat="42.53353" lon="1.57016">
        <ele>1274.6</ele>
        <time>2026-08-04T09:01:55Z</time>
      </trkpt>
			<trkpt lat="42.53352" lon="1.57009">
        <ele>1275.1</ele>
        <time>2026-08-04T09:01:57Z</time>
      </trkpt>
			<trkpt lat="42.53347" lon="1.57">
        <ele>1275.9</ele>
        <time>2026-08-04T09:02:01Z</time>
      </trkpt>
			<trkpt lat="42.53343" lon="1.56996">
        <ele>1276.4</ele>
        <time>2026-08-04T09:02:03Z</time>
      </trkpt>
			<trkpt lat="42.53333" lon="1.56986">
        <ele>1277.5</ele>
        <time>2026-08-04T09:02:08Z</time>
      </trkpt>
			<trkpt lat="42.53327" lon="1.56982">
        <ele>1278.2</ele>
        <time>2026-08-04T09:02:11Z</time>
      </trkpt>
			<trkpt lat="42.53318" lon="1.56983">
        <ele>1279</ele>
        <time>2026-08-04T09:02:14Z</time>
      </trkpt>
			<trkpt lat="42.53299" lon="1.56987">
        <ele>1280.7</ele>
        <time>2026-08-04T09:02:22Z</time>
      </trkpt>
			<trkpt lat="42.53294" lon="1.56986">
        <ele>1281.2</ele>
        <time>2026-08-04T09:02:24Z</time>
      </trkpt>
			<trkpt lat="42.53287" lon="1.56983">
        <ele>1281.9</ele>
        <time>2026-08-04T09:02:28Z</time>
      </trkpt>
			<trkpt lat="42.53283" lon="1.56979">
        <ele>1282.3</ele>
        <time>2026-08-04T09:02:29Z</time>
      </trkpt>
			<trkpt lat="42.53274" lon="1.56966">
        <ele>1283.4</ele>
        <time>2026-08-04T09:02:35Z</time>
      </trkpt>
			<trkpt lat="42.53268" lon="1.56961">
        <ele>1284.1</ele>
        <time>2026-08-04T09:02:38Z</time>
      </trkpt>
			<trkpt lat="42.53257" lon="1.56957">
        <ele>1285.1</ele>
        <time>2026-08-04T09:02:42Z</time>
      </trkpt>
			<trkpt lat="42.5325" lon="1.56956">
        <ele>1285.7</ele>
        <time>2026-08-04T09:02:45Z</time>
      </trkpt>
			<trkpt lat="42.53227" lon="1.56959">
        <ele>1287.6</ele>
        <time>2026-08-04T09:02:53Z</time>
      </trkpt>
			<trkpt lat="42.53221" lon="1.56958">
        <ele>1288.1</ele>
        <time>2026-08-04T09:02:55Z</time>
      </trkpt>
			<trkpt lat="42.53216" lon="1.56955">
        <ele>1288.5</ele>
        <time>2026-08-04T09:02:57Z</time>
      </trkpt>
			<trkpt lat="42.53212" lon="1.5695">
        <ele>1289</ele>
        <time>2026-08-04T09:02:59Z</time>
      </trkpt>
			<trkpt lat="42.53206" lon="1.56939">
        <ele>1289.8</ele>
        <time>2026-08-04T09:03:02Z</time>
      </trkpt>
			<trkpt lat="42.53206" lon="1.56925">
        <ele>1290.6</ele>
        <time>2026-08-04T09:03:06Z</time>
      </trkpt>
			<trkpt lat="42.53208" lon="1.56912">
        <ele>1291.4</ele>
        <time>2026-08-04T09:03:09Z</time>
      </trkpt>
			<trkpt lat="42.53212" lon="1.56908">
        <ele>1291.8</ele>
        <time>2026-08-04T09:03:11Z</time>
      </trkpt>
			<trkpt lat="42.53235" lon="1.56889">
        <ele>1293.8</ele>
        <time>2026-08-04T09:03:19Z</time>
      </trkpt>
			<trkpt lat="42.53258" lon="1.56869">
        <ele>1295.9</ele>
        <time>2026-08-04T09:03:29Z</time>
      </trkpt>
			<trkpt lat="42.53279" lon="1.56859">
        <ele>1297.5</ele>
        <time>2026-08-04T09:03:35Z</time>
      </trkpt>
			<trkpt lat="42.53285" lon="1.56857">
        <ele>1297.9</ele>
        <time>2026-08-04T09:03:37Z</time>
      </trkpt>
			<trkpt lat="42.53295" lon="1.56857">
        <ele>1298.6</ele>
        <time>2026-08-04T09:03:40Z</time>
      </trkpt>
			<trkpt lat="42.533" lon="1.56854">
        <ele>1299</ele>
        <time>2026-08-04T09:03:42Z</time>
      </trkpt>
			<trkpt lat="42.53304" lon="1.56848">
        <ele>1299.5</ele>
        <time>2026-08-04T09:03:45Z</time>
      </trkpt>
			<trkpt lat="42.53305" lon="1.56839">
        <ele>1299.9</ele>
        <time>2026-08-04T09:03:47Z</time>
      </trkpt>
			<trkpt lat="42.53303" lon="1.56836">
        <ele>1300.2</ele>
        <time>2026-08-04T09:03:48Z</time>
      </trkpt>
			<trkpt lat="42.53297" lon="1.5683">
        <ele>1300.7</ele>
        <time>2026-08-04T09:03:50Z</time>
      </trkpt>
			<trkpt lat="42.53263" lon="1.5682">
        <ele>1303.1</ele>
        <time>2026-08-04T09:04:01Z</time>
      </trkpt>
			<trkpt lat="42.53229" lon="1.5681">
        <ele>1305.6</ele>
        <time>2026-08-04T09:04:12Z</time>
      </trkpt>
			<trkpt lat="42.53207" lon="1.56802">
        <ele>1307.4</ele>
        <time>2026-08-04T09:04:19Z</time>
      </trkpt>
			<trkpt lat="42.53182" lon="1.56789">
        <ele>1309.7</ele>
        <time>2026-08-04T09:04:30Z</time>
      </trkpt>
			<trkpt lat="42.53168" lon="1.56778">
        <ele>1311.2</ele>
        <time>2026-08-04T09:04:36Z</time>
      </trkpt>
			<trkpt lat="42.53157" lon="1.56768">
        <ele>1312.5</ele>
        <time>2026-08-04T09:04:42Z</time>
      </trkpt>
			<trkpt lat="42.53151" lon="1.56761">
        <ele>1313.3</ele>
        <time>2026-08-04T09:04:46Z</time>
      </trkpt>
			<trkpt lat="42.53149" lon="1.56756">
        <ele>1313.8</ele>
        <time>2026-08-04T09:04:48Z</time>
      </trkpt>
			<trkpt lat="42.53146" lon="1.56733">
        <ele>1315.6</ele>
        <time>2026-08-04T09:04:56Z</time>
      </trkpt>
			<trkpt lat="42.53145" lon="1.5669">
        <ele>1319.3</ele>
        <time>2026-08-04T09:05:11Z</time>
      </trkpt>
			<trkpt lat="42.53146" lon="1.56676">
        <ele>1320.6</ele>
        <time>2026-08-04T09:05:17Z</time>
      </trkpt>
			<trkpt lat="42.53155" lon="1.56643">
        <ele>1323.8</ele>
        <time>2026-08-04T09:05:30Z</time>
      </trkpt>
			<trkpt lat="42.53181" lon="1.56595">
        <ele>1329.6</ele>
        <time>2026-08-04T09:05:55Z</time>
      </trkpt>
			<trkpt lat="42.53206" lon="1.56546">
        <ele>1335.3</ele>
        <time>2026-08-04T09:06:20Z</time>
      </trkpt>
			<trkpt lat="42.53208" lon="1.56538">
        <ele>1336.1</ele>
        <time>2026-08-04T09:06:23Z</time>
      </trkpt>
			<trkpt lat="42.53209" lon="1.56533">
        <ele>1336.5</ele>
        <time>2026-08-04T09:06:25Z</time>
      </trkpt>
			<trkpt lat="42.53208" lon="1.56527">
        <ele>1337.1</ele>
        <time>2026-08-04T09:06:28Z</time>
      </trkpt>
			<trkpt lat="42.53203" lon="1.5652">
        <ele>1338</ele>
        <time>2026-08-04T09:06:31Z</time>
      </trkpt>
			<trkpt lat="42.53201" lon="1.56519">
        <ele>1338.4</ele>
        <time>2026-08-04T09:06:33Z</time>
      </trkpt>
			<trkpt lat="42.5318" lon="1.56524">
        <ele>1340.9</ele>
        <time>2026-08-04T09:06:44Z</time>
      </trkpt>
			<trkpt lat="42.53175" lon="1.56523">
        <ele>1341.6</ele>
        <time>2026-08-04T09:06:47Z</time>
      </trkpt>
			<trkpt lat="42.53169" lon="1.5652">
        <ele>1342.3</ele>
        <time>2026-08-04T09:06:50Z</time>
      </trkpt>
			<trkpt lat="42.53159" lon="1.56512">
        <ele>1343.7</ele>
        <time>2026-08-04T09:06:56Z</time>
      </trkpt>
			<trkpt lat="42.5315" lon="1.56508">
        <ele>1344.8</ele>
        <time>2026-08-04T09:07:00Z</time>
      </trkpt>
			<trkpt lat="42.53147" lon="1.56504">
        <ele>1345.3</ele>
        <time>2026-08-04T09:07:02Z</time>
      </trkpt>
			<trkpt lat="42.53145" lon="1.56494">
        <ele>1346.3</ele>
        <time>2026-08-04T09:07:07Z</time>
      </trkpt>
			<trkpt lat="42.53144" lon="1.56486">
        <ele>1346.9</ele>
        <time>2026-08-04T09:07:09Z</time>
      </trkpt>
			<trkpt lat="42.53146" lon="1.56471">
        <ele>1348.3</ele>
        <time>2026-08-04T09:07:15Z</time>
      </trkpt>
			<trkpt lat="42.53149" lon="1.56465">
        <ele>1348.9</ele>
        <time>2026-08-04T09:07:18Z</time>
      </trkpt>
			<trkpt lat="42.53152" lon="1.56463">
        <ele>1349.2</ele>
        <time>2026-08-04T09:07:19Z</time>
      </trkpt>
			<trkpt lat="42.53159" lon="1.56461">
        <ele>1350</ele>
        <time>2026-08-04T09:07:23Z</time>
      </trkpt>
			<trkpt lat="42.53194" lon="1.56465">
        <ele>1354.1</ele>
        <time>2026-08-04T09:07:40Z</time>
      </trkpt>
			<trkpt lat="42.53205" lon="1.56464">
        <ele>1355.4</ele>
        <time>2026-08-04T09:07:46Z</time>
      </trkpt>
			<trkpt lat="42.53211" lon="1.56462">
        <ele>1356.2</ele>
        <time>2026-08-04T09:07:49Z</time>
      </trkpt>
			<trkpt lat="42.53215" lon="1.56458">
        <ele>1356.7</ele>
        <time>2026-08-04T09:07:51Z</time>
      </trkpt>
			<trkpt lat="42.53219" lon="1.56452">
        <ele>1357.4</ele>
        <time>2026-08-04T09:07:54Z</time>
      </trkpt>
			<trkpt lat="42.5322" lon="1.56446">
        <ele>1357.9</ele>
        <time>2026-08-04T09:07:57Z</time>
      </trkpt>
			<trkpt lat="42.53223" lon="1.56436">
        <ele>1358.9</ele>
        <time>2026-08-04T09:08:01Z</time>
      </trkpt>
			<trkpt lat="42.53226" lon="1.5643">
        <ele>1359.5</ele>
        <time>2026-08-04T09:08:03Z</time>
      </trkpt>
			<trkpt lat="42.53234" lon="1.56423">
        <ele>1360.6</ele>
        <time>2026-08-04T09:08:08Z</time>
      </trkpt>
			<trkpt lat="42.53246" lon="1.56416">
        <ele>1362.3</ele>
        <time>2026-08-04T09:08:16Z</time>
      </trkpt>
			<trkpt lat="42.53248" lon="1.56414">
        <ele>1362.5</ele>
        <time>2026-08-04T09:08:16Z</time>
      </trkpt>
			<trkpt lat="42.53248" lon="1.56411">
        <ele>1362.8</ele>
        <time>2026-08-04T09:08:18Z</time>
      </trkpt>
			<trkpt lat="42.53247" lon="1.56408">
        <ele>1363.1</ele>
        <time>2026-08-04T09:08:19Z</time>
      </trkpt>
			<trkpt lat="42.53246" lon="1.56406">
        <ele>1363.4</ele>
        <time>2026-08-04T09:08:20Z</time>
      </trkpt>
			<trkpt lat="42.53239" lon="1.56405">
        <ele>1364.1</ele>
        <time>2026-08-04T09:08:23Z</time>
      </trkpt>
			<trkpt lat="42.53216" lon="1.56417">
        <ele>1367.4</ele>
        <time>2026-08-04T09:08:38Z</time>
      </trkpt>
			<trkpt lat="42.53208" lon="1.56423">
        <ele>1368.6</ele>
        <time>2026-08-04T09:08:43Z</time>
      </trkpt>
			<trkpt lat="42.53206" lon="1.56423">
        <ele>1368.8</ele>
        <time>2026-08-04T09:08:44Z</time>
      </trkpt>
			<trkpt lat="42.532" lon="1.56421">
        <ele>1369.7</ele>
        <time>2026-08-04T09:08:48Z</time>
      </trkpt>
			<trkpt lat="42.53195" lon="1.56417">
        <ele>1370.4</ele>
        <time>2026-08-04T09:08:51Z</time>
      </trkpt>
			<trkpt lat="42.53191" lon="1.56411">
        <ele>1371.3</ele>
        <time>2026-08-04T09:08:55Z</time>
      </trkpt>
			<trkpt lat="42.53178" lon="1.56385">
        <ele>1374.7</ele>
        <time>2026-08-04T09:09:10Z</time>
      </trkpt>
			<trkpt lat="42.53165" lon="1.56359">
        <ele>1378.3</ele>
        <time>2026-08-04T09:09:26Z</time>
      </trkpt>
			<trkpt lat="42.53151" lon="1.56336">
        <ele>1381.9</ele>
        <time>2026-08-04T09:09:43Z</time>
      </trkpt>
			<trkpt lat="42.53139" lon="1.56322">
        <ele>1384.7</ele>
        <time>2026-08-04T09:09:56Z</time>
      </trkpt>
			<trkpt lat="42.53133" lon="1.5631">
        <ele>1386.6</ele>
        <time>2026-08-04T09:10:04Z</time>
      </trkpt>
			<trkpt lat="42.53119" lon="1.56278">
        <ele>1391.6</ele>
        <time>2026-08-04T09:10:26Z</time>
      </trkpt>
			<trkpt lat="42.53119" lon="1.56274">
        <ele>1392.2</ele>
        <time>2026-08-04T09:10:29Z</time>
      </trkpt>
			<trkpt lat="42.5312" lon="1.56268">
        <ele>1393</ele>
        <time>2026-08-04T09:10:32Z</time>
      </trkpt>
			<trkpt lat="42.53123" lon="1.56265">
        <ele>1393.8</ele>
        <time>2026-08-04T09:10:35Z</time>
      </trkpt>
			<trkpt lat="42.53129" lon="1.56267">
        <ele>1395</ele>
        <time>2026-08-04T09:10:40Z</time>
      </trkpt>
			<trkpt lat="42.53133" lon="1.56273">
        <ele>1396.3</ele>
        <time>2026-08-04T09:10:45Z</time>
      </trkpt>
			<trkpt lat="42.5314" lon="1.56286">
        <ele>1398.7</ele>
        <time>2026-08-04T09:10:54Z</time>
      </trkpt>
			<trkpt lat="42.53149" lon="1.56293">
        <ele>1400.9</ele>
        <time>2026-08-04T09:11:03Z</time>
      </trkpt>
			<trkpt lat="42.53172" lon="1.56304">
        <ele>1406.1</ele>
        <time>2026-08-04T09:11:22Z</time>
      </trkpt>
			<trkpt lat="42.53187" lon="1.56313">
        <ele>1409.6</ele>
        <time>2026-08-04T09:11:35Z</time>
      </trkpt>
			<trkpt lat="42.53202" lon="1.56326">
        <ele>1413.6</ele>
        <time>2026-08-04T09:11:50Z</time>
      </trkpt>
			<trkpt lat="42.53206" lon="1.56329">
        <ele>1414.6</ele>
        <time>2026-08-04T09:11:53Z</time>
      </trkpt>
			<trkpt lat="42.53211" lon="1.56329">
        <ele>1415.6</ele>
        <time>2026-08-04T09:11:57Z</time>
      </trkpt>
			<trkpt lat="42.53225" lon="1.56322">
        <ele>1418.9</ele>
        <time>2026-08-04T09:12:09Z</time>
      </trkpt>
			<trkpt lat="42.53238" lon="1.56319">
        <ele>1421.9</ele>
        <time>2026-08-04T09:12:20Z</time>
      </trkpt>
			<trkpt lat="42.53244" lon="1.56317">
        <ele>1423.3</ele>
        <time>2026-08-04T09:12:25Z</time>
      </trkpt>
			<trkpt lat="42.53248" lon="1.56313">
        <ele>1424.2</ele>
        <time>2026-08-04T09:12:29Z</time>
      </trkpt>
			<trkpt lat="42.53252" lon="1.56308">
        <ele>1425.4</ele>
        <time>2026-08-04T09:12:33Z</time>
      </trkpt>
			<trkpt lat="42.53259" lon="1.56294">
        <ele>1428.1</ele>
        <time>2026-08-04T09:12:43Z</time>
      </trkpt>
			<trkpt lat="42.5327" lon="1.5627">
        <ele>1432.3</ele>
        <time>2026-08-04T09:13:00Z</time>
      </trkpt>
			<trkpt lat="42.53278" lon="1.56247">
        <ele>1436</ele>
        <time>2026-08-04T09:13:15Z</time>
      </trkpt>
			<trkpt lat="42.53286" lon="1.5623">
        <ele>1438.8</ele>
        <time>2026-08-04T09:13:27Z</time>
      </trkpt>
			<trkpt lat="42.53305" lon="1.56201">
        <ele>1443.6</ele>
        <time>2026-08-04T09:13:50Z</time>
      </trkpt>
			<trkpt lat="42.5332" lon="1.56183">
        <ele>1446.8</ele>
        <time>2026-08-04T09:14:03Z</time>
      </trkpt>
			<trkpt lat="42.53336" lon="1.56157">
        <ele>1450.1</ele>
        <time>2026-08-04T09:14:17Z</time>
      </trkpt>
			<trkpt lat="42.53337" lon="1.56153">
        <ele>1450.6</ele>
        <time>2026-08-04T09:14:19Z</time>
      </trkpt>
			<trkpt lat="42.53338" lon="1.56149">
        <ele>1450.9</ele>
        <time>2026-08-04T09:14:21Z</time>
      </trkpt>
			<trkpt lat="42.53337" lon="1.56145">
        <ele>1451.4</ele>
        <time>2026-08-04T09:14:23Z</time>
      </trkpt>
			<trkpt lat="42.53334" lon="1.56142">
        <ele>1451.8</ele>
        <time>2026-08-04T09:14:25Z</time>
      </trkpt>
			<trkpt lat="42.53331" lon="1.5614">
        <ele>1452.2</ele>
        <time>2026-08-04T09:14:26Z</time>
      </trkpt>
			<trkpt lat="42.53327" lon="1.5614">
        <ele>1452.7</ele>
        <time>2026-08-04T09:14:28Z</time>
      </trkpt>
			<trkpt lat="42.5332" lon="1.56144">
        <ele>1453.6</ele>
        <time>2026-08-04T09:14:32Z</time>
      </trkpt>
			<trkpt lat="42.53316" lon="1.56146">
        <ele>1454</ele>
        <time>2026-08-04T09:14:34Z</time>
      </trkpt>
			<trkpt lat="42.53315" lon="1.56149">
        <ele>1454.3</ele>
        <time>2026-08-04T09:14:35Z</time>
      </trkpt>
			<trkpt lat="42.53314" lon="1.56152">
        <ele>1454.6</ele>
        <time>2026-08-04T09:14:36Z</time>
      </trkpt>
			<trkpt lat="42.53312" lon="1.56164">
        <ele>1455.5</ele>
        <time>2026-08-04T09:14:40Z</time>
      </trkpt>
			<trkpt lat="42.53307" lon="1.56171">
        <ele>1456.2</ele>
        <time>2026-08-04T09:14:43Z</time>
      </trkpt>
			<trkpt lat="42.53294" lon="1.56185">
        <ele>1457.7</ele>
        <time>2026-08-04T09:14:50Z</time>
      </trkpt>
			<trkpt lat="42.53269" lon="1.56201">
        <ele>1460.1</ele>
        <time>2026-08-04T09:15:01Z</time>
      </trkpt>
			<trkpt lat="42.53233" lon="1.56212">
        <ele>1462.9</ele>
        <time>2026-08-04T09:15:13Z</time>
      </trkpt>
			<trkpt lat="42.53215" lon="1.56212">
        <ele>1464.3</ele>
        <time>2026-08-04T09:15:19Z</time>
      </trkpt>
			<trkpt lat="42.53207" lon="1.56212">
        <ele>1464.9</ele>
        <time>2026-08-04T09:15:22Z</time>
      </trkpt>
			<trkpt lat="42.53203" lon="1.5621">
        <ele>1465.2</ele>
        <time>2026-08-04T09:15:23Z</time>
      </trkpt>
			<trkpt lat="42.53201" lon="1.56208">
        <ele>1465.4</ele>
        <time>2026-08-04T09:15:24Z</time>
      </trkpt>
			<trkpt lat="42.532" lon="1.56204">
        <ele>1465.6</ele>
        <time>2026-08-04T09:15:25Z</time>
      </trkpt>
			<trkpt lat="42.53201" lon="1.562">
        <ele>1465.9</ele>
        <time>2026-08-04T09:15:27Z</time>
      </trkpt>
			<trkpt lat="42.53203" lon="1.56197">
        <ele>1466.1</ele>
        <time>2026-08-04T09:15:28Z</time>
      </trkpt>
			<trkpt lat="42.53206" lon="1.56196">
        <ele>1466.3</ele>
        <time>2026-08-04T09:15:29Z</time>
      </trkpt>
			<trkpt lat="42.53215" lon="1.56195">
        <ele>1467</ele>
        <time>2026-08-04T09:15:32Z</time>
      </trkpt>
			<trkpt lat="42.53227" lon="1.56191">
        <ele>1468</ele>
        <time>2026-08-04T09:15:36Z</time>
      </trkpt>
			<trkpt lat="42.53253" lon="1.56173">
        <ele>1470.5</ele>
        <time>2026-08-04T09:15:47Z</time>
      </trkpt>
			<trkpt lat="42.53265" lon="1.56164">
        <ele>1471.7</ele>
        <time>2026-08-04T09:15:53Z</time>
      </trkpt>
			<trkpt lat="42.53266" lon="1.56159">
        <ele>1472.1</ele>
        <time>2026-08-04T09:15:55Z</time>
      </trkpt>
			<trkpt lat="42.53267" lon="1.56154">
        <ele>1472.4</ele>
        <time>2026-08-04T09:15:56Z</time>
      </trkpt>
			<trkpt lat="42.53265" lon="1.56151">
        <ele>1472.7</ele>
        <time>2026-08-04T09:15:57Z</time>
      </trkpt>
			<trkpt lat="42.53262" lon="1.56149">
        <ele>1473</ele>
        <time>2026-08-04T09:15:58Z</time>
      </trkpt>
			<trkpt lat="42.53241" lon="1.56156">
        <ele>1475.2</ele>
        <time>2026-08-04T09:16:08Z</time>
      </trkpt>
			<trkpt lat="42.53233" lon="1.56157">
        <ele>1476</ele>
        <time>2026-08-04T09:16:12Z</time>
      </trkpt>
			<trkpt lat="42.53217" lon="1.56155">
        <ele>1477.7</ele>
        <time>2026-08-04T09:16:20Z</time>
      </trkpt>
			<trkpt lat="42.53207" lon="1.56153">
        <ele>1478.8</ele>
        <time>2026-08-04T09:16:25Z</time>
      </trkpt>
			<trkpt lat="42.53193" lon="1.56149">
        <ele>1480.4</ele>
        <time>2026-08-04T09:16:32Z</time>
      </trkpt>
			<trkpt lat="42.53184" lon="1.56145">
        <ele>1481.6</ele>
        <time>2026-08-04T09:16:37Z</time>
      </trkpt>
			<trkpt lat="42.53181" lon="1.56141">
        <ele>1482</ele>
        <time>2026-08-04T09:16:39Z</time>
      </trkpt>
			<trkpt lat="42.53178" lon="1.56138">
        <ele>1482.4</ele>
        <time>2026-08-04T09:16:40Z</time>
      </trkpt>
			<trkpt lat="42.53175" lon="1.5613">
        <ele>1483.2</ele>
        <time>2026-08-04T09:16:44Z</time>
      </trkpt>
			<trkpt lat="42.53172" lon="1.5612">
        <ele>1484.2</ele>
        <time>2026-08-04T09:16:48Z</time>
      </trkpt>
			<trkpt lat="42.53169" lon="1.56105">
        <ele>1485.5</ele>
        <time>2026-08-04T09:16:53Z</time>
      </trkpt>
			<trkpt lat="42.53168" lon="1.56097">
        <ele>1486.2</ele>
        <time>2026-08-04T09:16:56Z</time>
      </trkpt>
			<trkpt lat="42.53172" lon="1.56072">
        <ele>1488.5</ele>
        <time>2026-08-04T09:17:06Z</time>
      </trkpt>
			<trkpt lat="42.53171" lon="1.56064">
        <ele>1489.2</ele>
        <time>2026-08-04T09:17:09Z</time>
      </trkpt>
			<trkpt lat="42.53169" lon="1.5606">
        <ele>1489.7</ele>
        <time>2026-08-04T09:17:11Z</time>
      </trkpt>
			<trkpt lat="42.53158" lon="1.56046">
        <ele>1491.4</ele>
        <time>2026-08-04T09:17:19Z</time>
      </trkpt>
			<trkpt lat="42.53134" lon="1.56007">
        <ele>1495.7</ele>
        <time>2026-08-04T09:17:37Z</time>
      </trkpt>
			<trkpt lat="42.53119" lon="1.55986">
        <ele>1498.1</ele>
        <time>2026-08-04T09:17:48Z</time>
      </trkpt>
			<trkpt lat="42.53118" lon="1.55981">
        <ele>1498.5</ele>
        <time>2026-08-04T09:17:50Z</time>
      </trkpt>
			<trkpt lat="42.53118" lon="1.55977">
        <ele>1498.8</ele>
        <time>2026-08-04T09:17:51Z</time>
      </trkpt>
			<trkpt lat="42.53119" lon="1.55975">
        <ele>1499</ele>
        <time>2026-08-04T09:17:52Z</time>
      </trkpt>
			<trkpt lat="42.53121" lon="1.55973">
        <ele>1499.3</ele>
        <time>2026-08-04T09:17:53Z</time>
      </trkpt>
			<trkpt lat="42.53125" lon="1.55972">
        <ele>1499.7</ele>
        <time>2026-08-04T09:17:55Z</time>
      </trkpt>
			<trkpt lat="42.53131" lon="1.55977">
        <ele>1500.4</ele>
        <time>2026-08-04T09:17:58Z</time>
      </trkpt>
			<trkpt lat="42.53138" lon="1.55988">
        <ele>1501.5</ele>
        <time>2026-08-04T09:18:03Z</time>
      </trkpt>
			<trkpt lat="42.53143" lon="1.55993">
        <ele>1502.1</ele>
        <time>2026-08-04T09:18:06Z</time>
      </trkpt>
			<trkpt lat="42.53147" lon="1.55995">
        <ele>1502.6</ele>
        <time>2026-08-04T09:18:08Z</time>
      </trkpt>
			<trkpt lat="42.53162" lon="1.56">
        <ele>1504</ele>
        <time>2026-08-04T09:18:14Z</time>
      </trkpt>
			<trkpt lat="42.53167" lon="1.56003">
        <ele>1504.5</ele>
        <time>2026-08-04T09:18:16Z</time>
      </trkpt>
			<trkpt lat="42.53187" lon="1.56031">
        <ele>1507.1</ele>
        <time>2026-08-04T09:18:28Z</time>
      </trkpt>
			<trkpt lat="42.53194" lon="1.56033">
        <ele>1507.7</ele>
        <time>2026-08-04T09:18:31Z</time>
      </trkpt>
			<trkpt lat="42.53205" lon="1.56035">
        <ele>1508.7</ele>
        <time>2026-08-04T09:18:35Z</time>
      </trkpt>
			<trkpt lat="42.53218" lon="1.56034">
        <ele>1509.8</ele>
        <time>2026-08-04T09:18:40Z</time>
      </trkpt>
			<trkpt lat="42.53225" lon="1.56033">
        <ele>1510.4</ele>
        <time>2026-08-04T09:18:43Z</time>
      </trkpt>
			<trkpt lat="42.53231" lon="1.56028">
        <ele>1511</ele>
        <time>2026-08-04T09:18:46Z</time>
      </trkpt>
			<trkpt lat="42.53233" lon="1.56022">
        <ele>1511.3</ele>
        <time>2026-08-04T09:18:48Z</time>
      </trkpt>
			<trkpt lat="42.53234" lon="1.56013">
        <ele>1511.9</ele>
        <time>2026-08-04T09:18:50Z</time>
      </trkpt>
			<trkpt lat="42.53234" lon="1.56003">
        <ele>1512.5</ele>
        <time>2026-08-04T09:18:53Z</time>
      </trkpt>
			<trkpt lat="42.53232" lon="1.55995">
        <ele>1513</ele>
        <time>2026-08-04T09:18:55Z</time>
      </trkpt>
			<trkpt lat="42.5323" lon="1.55988">
        <ele>1513.4</ele>
        <time>2026-08-04T09:18:57Z</time>
      </trkpt>
			<trkpt lat="42.53223" lon="1.55976">
        <ele>1514.2</ele>
        <time>2026-08-04T09:19:00Z</time>
      </trkpt>
			<trkpt lat="42.53221" lon="1.5597">
        <ele>1514.7</ele>
        <time>2026-08-04T09:19:02Z</time>
      </trkpt>
			<trkpt lat="42.53221" lon="1.55965">
        <ele>1514.9</ele>
        <time>2026-08-04T09:19:03Z</time>
      </trkpt>
			<trkpt lat="42.53222" lon="1.55962">
        <ele>1515.2</ele>
        <time>2026-08-04T09:19:04Z</time>
      </trkpt>
			<trkpt lat="42.53225" lon="1.55958">
        <ele>1515.4</ele>
        <time>2026-08-04T09:19:06Z</time>
      </trkpt>
			<trkpt lat="42.53229" lon="1.55957">
        <ele>1515.8</ele>
        <time>2026-08-04T09:19:07Z</time>
      </trkpt>
			<trkpt lat="42.53238" lon="1.55956">
        <ele>1516.5</ele>
        <time>2026-08-04T09:19:10Z</time>
      </trkpt>
			<trkpt lat="42.53249" lon="1.55957">
        <ele>1517.4</ele>
        <time>2026-08-04T09:19:14Z</time>
      </trkpt>
			<trkpt lat="42.53258" lon="1.55952">
        <ele>1518.2</ele>
        <time>2026-08-04T09:19:17Z</time>
      </trkpt>
			<trkpt lat="42.53263" lon="1.55946">
        <ele>1518.7</ele>
        <time>2026-08-04T09:19:19Z</time>
      </trkpt>
			<trkpt lat="42.53265" lon="1.55938">
        <ele>1519.2</ele>
        <time>2026-08-04T09:19:22Z</time>
      </trkpt>
			<trkpt lat="42.53266" lon="1.55926">
        <ele>1520</ele>
        <time>2026-08-04T09:19:25Z</time>
      </trkpt>
			<trkpt lat="42.53269" lon="1.55917">
        <ele>1520.6</ele>
        <time>2026-08-04T09:19:28Z</time>
      </trkpt>
			<trkpt lat="42.53274" lon="1.55915">
        <ele>1521.1</ele>
        <time>2026-08-04T09:19:30Z</time>
      </trkpt>
			<trkpt lat="42.53287" lon="1.55916">
        <ele>1522.2</ele>
        <time>2026-08-04T09:19:35Z</time>
      </trkpt>
			<trkpt lat="42.53318" lon="1.55928">
        <ele>1525.3</ele>
        <time>2026-08-04T09:19:49Z</time>
      </trkpt>
			<trkpt lat="42.53327" lon="1.55927">
        <ele>1526.3</ele>
        <time>2026-08-04T09:19:54Z</time>
      </trkpt>
			<trkpt lat="42.53329" lon="1.55927">
        <ele>1526.6</ele>
        <time>2026-08-04T09:19:55Z</time>
      </trkpt>
			<trkpt lat="42.53332" lon="1.55925">
        <ele>1526.9</ele>
        <time>2026-08-04T09:19:57Z</time>
      </trkpt>
			<trkpt lat="42.53334" lon="1.55919">
        <ele>1527.5</ele>
        <time>2026-08-04T09:19:59Z</time>
      </trkpt>
			<trkpt lat="42.53334" lon="1.55913">
        <ele>1528</ele>
        <time>2026-08-04T09:20:01Z</time>
      </trkpt>
			<trkpt lat="42.53334" lon="1.5591">
        <ele>1528.2</ele>
        <time>2026-08-04T09:20:02Z</time>
      </trkpt>
			<trkpt lat="42.53331" lon="1.55906">
        <ele>1528.7</ele>
        <time>2026-08-04T09:20:04Z</time>
      </trkpt>
			<trkpt lat="42.53307" lon="1.55887">
        <ele>1532.1</ele>
        <time>2026-08-04T09:20:18Z</time>
      </trkpt>
			<trkpt lat="42.53297" lon="1.55881">
        <ele>1533.5</ele>
        <time>2026-08-04T09:20:24Z</time>
      </trkpt>
			<trkpt lat="42.53284" lon="1.55877">
        <ele>1535.3</ele>
        <time>2026-08-04T09:20:32Z</time>
      </trkpt>
			<trkpt lat="42.53252" lon="1.55872">
        <ele>1539.9</ele>
        <time>2026-08-04T09:20:54Z</time>
      </trkpt>
			<trkpt lat="42.53221" lon="1.55867">
        <ele>1544.9</ele>
        <time>2026-08-04T09:21:14Z</time>
      </trkpt>
			<trkpt lat="42.53189" lon="1.55862">
        <ele>1550</ele>
        <time>2026-08-04T09:21:36Z</time>
      </trkpt>
			<trkpt lat="42.53153" lon="1.55857">
        <ele>1555.5</ele>
        <time>2026-08-04T09:22:00Z</time>
      </trkpt>
			<trkpt lat="42.53138" lon="1.55852">
        <ele>1557.7</ele>
        <time>2026-08-04T09:22:10Z</time>
      </trkpt>
			<trkpt lat="42.53122" lon="1.55844">
        <ele>1559.9</ele>
        <time>2026-08-04T09:22:20Z</time>
      </trkpt>
			<trkpt lat="42.53111" lon="1.55836">
        <ele>1561.5</ele>
        <time>2026-08-04T09:22:27Z</time>
      </trkpt>
			<trkpt lat="42.53092" lon="1.55816">
        <ele>1564.3</ele>
        <time>2026-08-04T09:22:39Z</time>
      </trkpt>
			<trkpt lat="42.53084" lon="1.55813">
        <ele>1565.2</ele>
        <time>2026-08-04T09:22:43Z</time>
      </trkpt>
			<trkpt lat="42.53078" lon="1.55814">
        <ele>1565.8</ele>
        <time>2026-08-04T09:22:46Z</time>
      </trkpt>
			<trkpt lat="42.53073" lon="1.55816">
        <ele>1566.4</ele>
        <time>2026-08-04T09:22:49Z</time>
      </trkpt>
			<trkpt lat="42.53062" lon="1.55823">
        <ele>1567.5</ele>
        <time>2026-08-04T09:22:54Z</time>
      </trkpt>
			<trkpt lat="42.53054" lon="1.55828">
        <ele>1568.3</ele>
        <time>2026-08-04T09:22:57Z</time>
      </trkpt>
			<trkpt lat="42.5304" lon="1.55838">
        <ele>1569.7</ele>
        <time>2026-08-04T09:23:03Z</time>
      </trkpt>
			<trkpt lat="42.53022" lon="1.55849">
        <ele>1571.2</ele>
        <time>2026-08-04T09:23:10Z</time>
      </trkpt>
			<trkpt lat="42.53019" lon="1.55849">
        <ele>1571.4</ele>
        <time>2026-08-04T09:23:11Z</time>
      </trkpt>
			<trkpt lat="42.53018" lon="1.55848">
        <ele>1571.5</ele>
        <time>2026-08-04T09:23:11Z</time>
      </trkpt>
			<trkpt lat="42.53014" lon="1.55843">
        <ele>1571.9</ele>
        <time>2026-08-04T09:23:13Z</time>
      </trkpt>
			<trkpt lat="42.53014" lon="1.55838">
        <ele>1572.2</ele>
        <time>2026-08-04T09:23:14Z</time>
      </trkpt>
			<trkpt lat="42.53021" lon="1.55828">
        <ele>1572.9</ele>
        <time>2026-08-04T09:23:17Z</time>
      </trkpt>
			<trkpt lat="42.53031" lon="1.55813">
        <ele>1573.9</ele>
        <time>2026-08-04T09:23:22Z</time>
      </trkpt>
			<trkpt lat="42.53037" lon="1.55805">
        <ele>1574.5</ele>
        <time>2026-08-04T09:23:25Z</time>
      </trkpt>
			<trkpt lat="42.53064" lon="1.55778">
        <ele>1576.6</ele>
        <time>2026-08-04T09:23:35Z</time>
      </trkpt>
			<trkpt lat="42.53073" lon="1.55764">
        <ele>1577.5</ele>
        <time>2026-08-04T09:23:39Z</time>
      </trkpt>
			<trkpt lat="42.53078" lon="1.55759">
        <ele>1577.9</ele>
        <time>2026-08-04T09:23:41Z</time>
      </trkpt>
			<trkpt lat="42.53081" lon="1.55759">
        <ele>1578.1</ele>
        <time>2026-08-04T09:23:42Z</time>
      </trkpt>
			<trkpt lat="42.53093" lon="1.55766">
        <ele>1578.9</ele>
        <time>2026-08-04T09:23:46Z</time>
      </trkpt>
			<trkpt lat="42.53132" lon="1.55769">
        <ele>1581.4</ele>
        <time>2026-08-04T09:23:58Z</time>
      </trkpt>
			<trkpt lat="42.53137" lon="1.55768">
        <ele>1581.8</ele>
        <time>2026-08-04T09:24:00Z</time>
      </trkpt>
			<trkpt lat="42.53142" lon="1.55766">
        <ele>1582.1</ele>
        <time>2026-08-04T09:24:01Z</time>
      </trkpt>
			<trkpt lat="42.53145" lon="1.55762">
        <ele>1582.4</ele>
        <time>2026-08-04T09:24:03Z</time>
      </trkpt>
			<trkpt lat="42.53146" lon="1.55757">
        <ele>1582.7</ele>
        <time>2026-08-04T09:24:04Z</time>
      </trkpt>
			<trkpt lat="42.53145" lon="1.55752">
        <ele>1582.9</ele>
        <time>2026-08-04T09:24:05Z</time>
      </trkpt>
			<trkpt lat="42.53135" lon="1.5574">
        <ele>1583.9</ele>
        <time>2026-08-04T09:24:09Z</time>
      </trkpt>
			<trkpt lat="42.53132" lon="1.55735">
        <ele>1584.2</ele>
        <time>2026-08-04T09:24:11Z</time>
      </trkpt>
			<trkpt lat="42.53127" lon="1.55721">
        <ele>1585</ele>
        <time>2026-08-04T09:24:14Z</time>
      </trkpt>
			<trkpt lat="42.53122" lon="1.55699">
        <ele>1586.3</ele>
        <time>2026-08-04T09:24:20Z</time>
      </trkpt>
			<trkpt lat="42.53122" lon="1.5569">
        <ele>1586.7</ele>
        <time>2026-08-04T09:24:22Z</time>
      </trkpt>
			<trkpt lat="42.53125" lon="1.55687">
        <ele>1587</ele>
        <time>2026-08-04T09:24:23Z</time>
      </trkpt>
			<trkpt lat="42.53128" lon="1.55686">
        <ele>1587.3</ele>
        <time>2026-08-04T09:24:25Z</time>
      </trkpt>
			<trkpt lat="42.53132" lon="1.55687">
        <ele>1587.6</ele>
        <time>2026-08-04T09:24:26Z</time>
      </trkpt>
			<trkpt lat="42.53143" lon="1.5571">
        <ele>1589.2</ele>
        <time>2026-08-04T09:24:33Z</time>
      </trkpt>
			<trkpt lat="42.53147" lon="1.55712">
        <ele>1589.5</ele>
        <time>2026-08-04T09:24:34Z</time>
      </trkpt>
			<trkpt lat="42.5315" lon="1.55712">
        <ele>1589.8</ele>
        <time>2026-08-04T09:24:35Z</time>
      </trkpt>
			<trkpt lat="42.53152" lon="1.55708">
        <ele>1590</ele>
        <time>2026-08-04T09:24:36Z</time>
      </trkpt>
			<trkpt lat="42.53153" lon="1.55688">
        <ele>1591.2</ele>
        <time>2026-08-04T09:24:41Z</time>
      </trkpt>
			<trkpt lat="42.53158" lon="1.55675">
        <ele>1592.1</ele>
        <time>2026-08-04T09:24:45Z</time>
      </trkpt>
			<trkpt lat="42.53158" lon="1.55668">
        <ele>1592.6</ele>
        <time>2026-08-04T09:24:47Z</time>
      </trkpt>
			<trkpt lat="42.53155" lon="1.55647">
        <ele>1593.9</ele>
        <time>2026-08-04T09:24:52Z</time>
      </trkpt>
			<trkpt lat="42.53149" lon="1.55624">
        <ele>1595.5</ele>
        <time>2026-08-04T09:25:00Z</time>
      </trkpt>
			<trkpt lat="42.53142" lon="1.55608">
        <ele>1596.8</ele>
        <time>2026-08-04T09:25:06Z</time>
      </trkpt>
			<trkpt lat="42.53132" lon="1.5559">
        <ele>1598.2</ele>
        <time>2026-08-04T09:25:12Z</time>
      </trkpt>
			<trkpt lat="42.53129" lon="1.55581">
        <ele>1598.9</ele>
        <time>2026-08-04T09:25:16Z</time>
      </trkpt>
			<trkpt lat="42.53129" lon="1.55575">
        <ele>1599.3</ele>
        <time>2026-08-04T09:25:17Z</time>
      </trkpt>
			<trkpt lat="42.53132" lon="1.5557">
        <ele>1599.7</ele>
        <time>2026-08-04T09:25:19Z</time>
      </trkpt>
			<trkpt lat="42.53134" lon="1.55568">
        <ele>1600</ele>
        <time>2026-08-04T09:25:20Z</time>
      </trkpt>
			<trkpt lat="42.53141" lon="1.55568">
        <ele>1600.6</ele>
        <time>2026-08-04T09:25:23Z</time>
      </trkpt>
			<trkpt lat="42.53146" lon="1.5557">
        <ele>1601.1</ele>
        <time>2026-08-04T09:25:26Z</time>
      </trkpt>
			<trkpt lat="42.5315" lon="1.55578">
        <ele>1601.8</ele>
        <time>2026-08-04T09:25:29Z</time>
      </trkpt>
			<trkpt lat="42.53155" lon="1.55594">
        <ele>1603</ele>
        <time>2026-08-04T09:25:34Z</time>
      </trkpt>
			<trkpt lat="42.53165" lon="1.55616">
        <ele>1604.8</ele>
        <time>2026-08-04T09:25:42Z</time>
      </trkpt>
			<trkpt lat="42.53177" lon="1.5563">
        <ele>1606.4</ele>
        <time>2026-08-04T09:25:49Z</time>
      </trkpt>
			<trkpt lat="42.53183" lon="1.55644">
        <ele>1607.6</ele>
        <time>2026-08-04T09:25:54Z</time>
      </trkpt>
			<trkpt lat="42.5319" lon="1.55653">
        <ele>1608.6</ele>
        <time>2026-08-04T09:25:58Z</time>
      </trkpt>
			<trkpt lat="42.53198" lon="1.5566">
        <ele>1609.5</ele>
        <time>2026-08-04T09:26:02Z</time>
      </trkpt>
			<trkpt lat="42.53204" lon="1.5566">
        <ele>1610.1</ele>
        <time>2026-08-04T09:26:05Z</time>
      </trkpt>
			<trkpt lat="42.5321" lon="1.55657">
        <ele>1610.8</ele>
        <time>2026-08-04T09:26:08Z</time>
      </trkpt>
			<trkpt lat="42.53216" lon="1.55652">
        <ele>1611.5</ele>
        <time>2026-08-04T09:26:11Z</time>
      </trkpt>
			<trkpt lat="42.53222" lon="1.55645">
        <ele>1612.4</ele>
        <time>2026-08-04T09:26:15Z</time>
      </trkpt>
			<trkpt lat="42.53225" lon="1.55637">
        <ele>1613.1</ele>
        <time>2026-08-04T09:26:19Z</time>
      </trkpt>
			<trkpt lat="42.53224" lon="1.55627">
        <ele>1613.9</ele>
        <time>2026-08-04T09:26:22Z</time>
      </trkpt>
			<trkpt lat="42.53223" lon="1.5562">
        <ele>1614.5</ele>
        <time>2026-08-04T09:26:25Z</time>
      </trkpt>
			<trkpt lat="42.5322" lon="1.55614">
        <ele>1615.1</ele>
        <time>2026-08-04T09:26:28Z</time>
      </trkpt>
			<trkpt lat="42.53196" lon="1.5558">
        <ele>1619.2</ele>
        <time>2026-08-04T09:26:45Z</time>
      </trkpt>
			<trkpt lat="42.5319" lon="1.55568">
        <ele>1620.4</ele>
        <time>2026-08-04T09:26:50Z</time>
      </trkpt>
			<trkpt lat="42.53182" lon="1.5555">
        <ele>1622.5</ele>
        <time>2026-08-04T09:26:59Z</time>
      </trkpt>
			<trkpt lat="42.53174" lon="1.55523">
        <ele>1625.2</ele>
        <time>2026-08-04T09:27:10Z</time>
      </trkpt>
			<trkpt lat="42.5317" lon="1.55507">
        <ele>1627</ele>
        <time>2026-08-04T09:27:18Z</time>
      </trkpt>
			<trkpt lat="42.53166" lon="1.55494">
        <ele>1628.5</ele>
        <time>2026-08-04T09:27:25Z</time>
      </trkpt>
			<trkpt lat="42.53159" lon="1.55483">
        <ele>1630</ele>
        <time>2026-08-04T09:27:32Z</time>
      </trkpt>
			<trkpt lat="42.5315" lon="1.55473">
        <ele>1631.7</ele>
        <time>2026-08-04T09:27:40Z</time>
      </trkpt>
			<trkpt lat="42.53133" lon="1.55463">
        <ele>1634.3</ele>
        <time>2026-08-04T09:27:52Z</time>
      </trkpt>
			<trkpt lat="42.5312" lon="1.5546">
        <ele>1636.3</ele>
        <time>2026-08-04T09:28:01Z</time>
      </trkpt>
			<trkpt lat="42.53085" lon="1.55456">
        <ele>1641.3</ele>
        <time>2026-08-04T09:28:25Z</time>
      </trkpt>
			<trkpt lat="42.53054" lon="1.55449">
        <ele>1645.5</ele>
        <time>2026-08-04T09:28:43Z</time>
      </trkpt>
			<trkpt lat="42.53032" lon="1.55439">
        <ele>1648.3</ele>
        <time>2026-08-04T09:28:54Z</time>
      </trkpt>
			<trkpt lat="42.53009" lon="1.5543">
        <ele>1650.8</ele>
        <time>2026-08-04T09:29:05Z</time>
      </trkpt>
			<trkpt lat="42.53" lon="1.55423">
        <ele>1651.9</ele>
        <time>2026-08-04T09:29:10Z</time>
      </trkpt>
			<trkpt lat="42.52993" lon="1.55419">
        <ele>1652.6</ele>
        <time>2026-08-04T09:29:13Z</time>
      </trkpt>
			<trkpt lat="42.52986" lon="1.55414">
        <ele>1653.3</ele>
        <time>2026-08-04T09:29:16Z</time>
      </trkpt>
			<trkpt lat="42.5298" lon="1.55411">
        <ele>1653.8</ele>
        <time>2026-08-04T09:29:18Z</time>
      </trkpt>
			<trkpt lat="42.52971" lon="1.55411">
        <ele>1654.5</ele>
        <time>2026-08-04T09:29:21Z</time>
      </trkpt>
			<trkpt lat="42.52947" lon="1.55415">
        <ele>1656.1</ele>
        <time>2026-08-04T09:29:29Z</time>
      </trkpt>
			<trkpt lat="42.52935" lon="1.55414">
        <ele>1656.9</ele>
        <time>2026-08-04T09:29:33Z</time>
      </trkpt>
			<trkpt lat="42.52928" lon="1.55412">
        <ele>1657.2</ele>
        <time>2026-08-04T09:29:34Z</time>
      </trkpt>
			<trkpt lat="42.52924" lon="1.55409">
        <ele>1657.5</ele>
        <time>2026-08-04T09:29:36Z</time>
      </trkpt>
			<trkpt lat="42.52918" lon="1.55401">
        <ele>1657.9</ele>
        <time>2026-08-04T09:29:38Z</time>
      </trkpt>
			<trkpt lat="42.52914" lon="1.55391">
        <ele>1658.2</ele>
        <time>2026-08-04T09:29:40Z</time>
      </trkpt>
			<trkpt lat="42.52913" lon="1.55382">
        <ele>1658.5</ele>
        <time>2026-08-04T09:29:41Z</time>
      </trkpt>
			<trkpt lat="42.52913" lon="1.5537">
        <ele>1658.9</ele>
        <time>2026-08-04T09:29:44Z</time>
      </trkpt>
			<trkpt lat="42.52917" lon="1.55357">
        <ele>1659.2</ele>
        <time>2026-08-04T09:29:46Z</time>
      </trkpt>
			<trkpt lat="42.5292" lon="1.55351">
        <ele>1659.3</ele>
        <time>2026-08-04T09:29:47Z</time>
      </trkpt>
			<trkpt lat="42.52923" lon="1.55347">
        <ele>1659.5</ele>
        <time>2026-08-04T09:29:48Z</time>
      </trkpt>
			<trkpt lat="42.52928" lon="1.55344">
        <ele>1659.6</ele>
        <time>2026-08-04T09:29:49Z</time>
      </trkpt>
			<trkpt lat="42.52934" lon="1.55341">
        <ele>1659.8</ele>
        <time>2026-08-04T09:29:50Z</time>
      </trkpt>
			<trkpt lat="42.52939" lon="1.5534">
        <ele>1659.9</ele>
        <time>2026-08-04T09:29:51Z</time>
      </trkpt>
			<trkpt lat="42.52944" lon="1.55341">
        <ele>1660</ele>
        <time>2026-08-04T09:29:52Z</time>
      </trkpt>
			<trkpt lat="42.52953" lon="1.55344">
        <ele>1660.1</ele>
        <time>2026-08-04T09:29:54Z</time>
      </trkpt>
			<trkpt lat="42.52986" lon="1.55363">
        <ele>1660.6</ele>
        <time>2026-08-04T09:30:00Z</time>
      </trkpt>
			<trkpt lat="42.52993" lon="1.55367">
        <ele>1660.7</ele>
        <time>2026-08-04T09:30:02Z</time>
      </trkpt>
			<trkpt lat="42.52995" lon="1.55368">
        <ele>1660.7</ele>
        <time>2026-08-04T09:30:02Z</time>
      </trkpt>
			<trkpt lat="42.53014" lon="1.5537">
        <ele>1660.8</ele>
        <time>2026-08-04T09:30:05Z</time>
      </trkpt>
			<trkpt lat="42.53025" lon="1.55368">
        <ele>1660.8</ele>
        <time>2026-08-04T09:30:06Z</time>
      </trkpt>
			<trkpt lat="42.53035" lon="1.55363">
        <ele>1660.9</ele>
        <time>2026-08-04T09:30:08Z</time>
      </trkpt>
			<trkpt lat="42.53062" lon="1.55348">
        <ele>1660.9</ele>
        <time>2026-08-04T09:30:13Z</time>
      </trkpt>
			<trkpt lat="42.53072" lon="1.55343">
        <ele>1660.9</ele>
        <time>2026-08-04T09:30:14Z</time>
      </trkpt>
			<trkpt lat="42.53086" lon="1.55341">
        <ele>1660.9</ele>
        <time>2026-08-04T09:30:16Z</time>
      </trkpt>
			<trkpt lat="42.53095" lon="1.5534">
        <ele>1660.9</ele>
        <time>2026-08-04T09:30:18Z</time>
      </trkpt>
			<trkpt lat="42.53109" lon="1.55341">
        <ele>1660.9</ele>
        <time>2026-08-04T09:30:20Z</time>
      </trkpt>
			<trkpt lat="42.53121" lon="1.55344">
        <ele>1660.9</ele>
        <time>2026-08-04T09:30:21Z</time>
      </trkpt>
			<trkpt lat="42.53131" lon="1.55347">
        <ele>1661</ele>
        <time>2026-08-04T09:30:23Z</time>
      </trkpt>
			<trkpt lat="42.53145" lon="1.55355">
        <ele>1661</ele>
        <time>2026-08-04T09:30:25Z</time>
      </trkpt>
			<trkpt lat="42.53159" lon="1.55366">
        <ele>1661.2</ele>
        <time>2026-08-04T09:30:28Z</time>
      </trkpt>
			<trkpt lat="42.53182" lon="1.55389">
        <ele>1661.5</ele>
        <time>2026-08-04T09:30:33Z</time>
      </trkpt>
			<trkpt lat="42.53204" lon="1.55413">
        <ele>1662</ele>
        <time>2026-08-04T09:30:39Z</time>
      </trkpt>
			<trkpt lat="42.53213" lon="1.55426">
        <ele>1662.4</ele>
        <time>2026-08-04T09:30:42Z</time>
      </trkpt>
			<trkpt lat="42.5322" lon="1.55438">
        <ele>1662.7</ele>
        <time>2026-08-04T09:30:44Z</time>
      </trkpt>
			<trkpt lat="42.5323" lon="1.55462">
        <ele>1663.3</ele>
        <time>2026-08-04T09:30:48Z</time>
      </trkpt>
			<trkpt lat="42.53238" lon="1.55477">
        <ele>1663.9</ele>
        <time>2026-08-04T09:30:52Z</time>
      </trkpt>
			<trkpt lat="42.5325" lon="1.55495">
        <ele>1664.6</ele>
        <time>2026-08-04T09:30:56Z</time>
      </trkpt>
			<trkpt lat="42.53257" lon="1.55502">
        <ele>1665</ele>
        <time>2026-08-04T09:30:58Z</time>
      </trkpt>
			<trkpt lat="42.53268" lon="1.55507">
        <ele>1665.6</ele>
        <time>2026-08-04T09:31:02Z</time>
      </trkpt>
			<trkpt lat="42.53283" lon="1.55508">
        <ele>1666.5</ele>
        <time>2026-08-04T09:31:06Z</time>
      </trkpt>
			<trkpt lat="42.53288" lon="1.55506">
        <ele>1666.8</ele>
        <time>2026-08-04T09:31:07Z</time>
      </trkpt>
			<trkpt lat="42.53293" lon="1.55501">
        <ele>1667.2</ele>
        <time>2026-08-04T09:31:09Z</time>
      </trkpt>
			<trkpt lat="42.53295" lon="1.5549">
        <ele>1667.8</ele>
        <time>2026-08-04T09:31:12Z</time>
      </trkpt>
			<trkpt lat="42.53294" lon="1.55485">
        <ele>1668</ele>
        <time>2026-08-04T09:31:13Z</time>
      </trkpt>
			<trkpt lat="42.53292" lon="1.5548">
        <ele>1668.3</ele>
        <time>2026-08-04T09:31:14Z</time>
      </trkpt>
			<trkpt lat="42.53287" lon="1.55475">
        <ele>1668.8</ele>
        <time>2026-08-04T09:31:16Z</time>
      </trkpt>
			<trkpt lat="42.53265" lon="1.55461">
        <ele>1670.7</ele>
        <time>2026-08-04T09:31:24Z</time>
      </trkpt>
			<trkpt lat="42.53257" lon="1.55454">
        <ele>1671.5</ele>
        <time>2026-08-04T09:31:28Z</time>
      </trkpt>
			<trkpt lat="42.53247" lon="1.5544">
        <ele>1672.8</ele>
        <time>2026-08-04T09:31:34Z</time>
      </trkpt>
			<trkpt lat="42.53229" lon="1.55406">
        <ele>1675.8</ele>
        <time>2026-08-04T09:31:48Z</time>
      </trkpt>
			<trkpt lat="42.53211" lon="1.55372">
        <ele>1679.1</ele>
        <time>2026-08-04T09:32:03Z</time>
      </trkpt>
			<trkpt lat="42.53199" lon="1.55343">
        <ele>1681.9</ele>
        <time>2026-08-04T09:32:15Z</time>
      </trkpt>
			<trkpt lat="42.53185" lon="1.55308">
        <ele>1685.3</ele>
        <time>2026-08-04T09:32:30Z</time>
      </trkpt>
			<trkpt lat="42.53178" lon="1.55292">
        <ele>1686.9</ele>
        <time>2026-08-04T09:32:37Z</time>
      </trkpt>
			<trkpt lat="42.53168" lon="1.55277">
        <ele>1688.7</ele>
        <time>2026-08-04T09:32:44Z</time>
      </trkpt>
			<trkpt lat="42.53162" lon="1.55269">
        <ele>1689.6</ele>
        <time>2026-08-04T09:32:49Z</time>
      </trkpt>
			<trkpt lat="42.53153" lon="1.55262">
        <ele>1690.8</ele>
        <time>2026-08-04T09:32:54Z</time>
      </trkpt>
			<trkpt lat="42.53143" lon="1.55254">
        <ele>1692.1</ele>
        <time>2026-08-04T09:33:00Z</time>
      </trkpt>
			<trkpt lat="42.53126" lon="1.55246">
        <ele>1694.1</ele>
        <time>2026-08-04T09:33:09Z</time>
      </trkpt>
			<trkpt lat="42.5311" lon="1.55242">
        <ele>1695.8</ele>
        <time>2026-08-04T09:33:16Z</time>
      </trkpt>
			<trkpt lat="42.53093" lon="1.55239">
        <ele>1697.5</ele>
        <time>2026-08-04T09:33:24Z</time>
      </trkpt>
			<trkpt lat="42.53081" lon="1.5524">
        <ele>1698.6</ele>
        <time>2026-08-04T09:33:28Z</time>
      </trkpt>
			<trkpt lat="42.53056" lon="1.55245">
        <ele>1701</ele>
        <time>2026-08-04T09:33:40Z</time>
      </trkpt>
			<trkpt lat="42.53043" lon="1.55245">
        <ele>1702.2</ele>
        <time>2026-08-04T09:33:45Z</time>
      </trkpt>
			<trkpt lat="42.53033" lon="1.55243">
        <ele>1703.1</ele>
        <time>2026-08-04T09:33:49Z</time>
      </trkpt>
			<trkpt lat="42.53024" lon="1.55239">
        <ele>1703.8</ele>
        <time>2026-08-04T09:33:52Z</time>
      </trkpt>
			<trkpt lat="42.53017" lon="1.55234">
        <ele>1704.5</ele>
        <time>2026-08-04T09:33:55Z</time>
      </trkpt>
			<trkpt lat="42.52994" lon="1.55211">
        <ele>1706.8</ele>
        <time>2026-08-04T09:34:05Z</time>
      </trkpt>
			<trkpt lat="42.52985" lon="1.55198">
        <ele>1707.8</ele>
        <time>2026-08-04T09:34:09Z</time>
      </trkpt>
			<trkpt lat="42.52961" lon="1.55155">
        <ele>1710.6</ele>
        <time>2026-08-04T09:34:21Z</time>
      </trkpt>
			<trkpt lat="42.52955" lon="1.55148">
        <ele>1711.1</ele>
        <time>2026-08-04T09:34:24Z</time>
      </trkpt>
			<trkpt lat="42.52939" lon="1.55133">
        <ele>1712.3</ele>
        <time>2026-08-04T09:34:30Z</time>
      </trkpt>
			<trkpt lat="42.52897" lon="1.55113">
        <ele>1715</ele>
        <time>2026-08-04T09:34:42Z</time>
      </trkpt>
			<trkpt lat="42.52889" lon="1.5511">
        <ele>1715.5</ele>
        <time>2026-08-04T09:34:45Z</time>
      </trkpt>
			<trkpt lat="42.52886" lon="1.55109">
        <ele>1715.6</ele>
        <time>2026-08-04T09:34:46Z</time>
      </trkpt>
			<trkpt lat="42.52858" lon="1.55109">
        <ele>1717.2</ele>
        <time>2026-08-04T09:34:54Z</time>
      </trkpt>
			<trkpt lat="42.52833" lon="1.55113">
        <ele>1718.5</ele>
        <time>2026-08-04T09:35:01Z</time>
      </trkpt>
			<trkpt lat="42.52824" lon="1.55118">
        <ele>1719.1</ele>
        <time>2026-08-04T09:35:04Z</time>
      </trkpt>
			<trkpt lat="42.52817" lon="1.55124">
        <ele>1719.6</ele>
        <time>2026-08-04T09:35:06Z</time>
      </trkpt>
			<trkpt lat="42.52796" lon="1.55158">
        <ele>1721.5</ele>
        <time>2026-08-04T09:35:15Z</time>
      </trkpt>
			<trkpt lat="42.52774" lon="1.55185">
        <ele>1723.5</ele>
        <time>2026-08-04T09:35:25Z</time>
      </trkpt>
			<trkpt lat="42.52764" lon="1.55195">
        <ele>1724.4</ele>
        <time>2026-08-04T09:35:29Z</time>
      </trkpt>
			<trkpt lat="42.52757" lon="1.552">
        <ele>1724.9</ele>
        <time>2026-08-04T09:35:31Z</time>
      </trkpt>
			<trkpt lat="42.52749" lon="1.55203">
        <ele>1725.6</ele>
        <time>2026-08-04T09:35:34Z</time>
      </trkpt>
			<trkpt lat="42.52744" lon="1.55202">
        <ele>1726</ele>
        <time>2026-08-04T09:35:36Z</time>
      </trkpt>
			<trkpt lat="42.5274" lon="1.55198">
        <ele>1726.4</ele>
        <time>2026-08-04T09:35:38Z</time>
      </trkpt>
			<trkpt lat="42.52738" lon="1.55194">
        <ele>1726.7</ele>
        <time>2026-08-04T09:35:39Z</time>
      </trkpt>
			<trkpt lat="42.52737" lon="1.55182">
        <ele>1727.5</ele>
        <time>2026-08-04T09:35:43Z</time>
      </trkpt>
			<trkpt lat="42.52738" lon="1.55172">
        <ele>1728.2</ele>
        <time>2026-08-04T09:35:46Z</time>
      </trkpt>
			<trkpt lat="42.52742" lon="1.55164">
        <ele>1728.8</ele>
        <time>2026-08-04T09:35:49Z</time>
      </trkpt>
			<trkpt lat="42.52765" lon="1.55133">
        <ele>1732</ele>
        <time>2026-08-04T09:36:03Z</time>
      </trkpt>
			<trkpt lat="42.52768" lon="1.55125">
        <ele>1732.7</ele>
        <time>2026-08-04T09:36:06Z</time>
      </trkpt>
			<trkpt lat="42.52769" lon="1.55114">
        <ele>1733.6</ele>
        <time>2026-08-04T09:36:10Z</time>
      </trkpt>
			<trkpt lat="42.52769" lon="1.55102">
        <ele>1734.6</ele>
        <time>2026-08-04T09:36:15Z</time>
      </trkpt>
			<trkpt lat="42.5277" lon="1.55076">
        <ele>1736.9</ele>
        <time>2026-08-04T09:36:24Z</time>
      </trkpt>
			<trkpt lat="42.52772" lon="1.55065">
        <ele>1737.9</ele>
        <time>2026-08-04T09:36:29Z</time>
      </trkpt>
			<trkpt lat="42.52774" lon="1.55056">
        <ele>1738.8</ele>
        <time>2026-08-04T09:36:33Z</time>
      </trkpt>
			<trkpt lat="42.52779" lon="1.55048">
        <ele>1739.7</ele>
        <time>2026-08-04T09:36:36Z</time>
      </trkpt>
			<trkpt lat="42.52791" lon="1.55034">
        <ele>1741.8</ele>
        <time>2026-08-04T09:36:46Z</time>
      </trkpt>
			<trkpt lat="42.52825" lon="1.55003">
        <ele>1747.1</ele>
        <time>2026-08-04T09:37:09Z</time>
      </trkpt>
			<trkpt lat="42.52836" lon="1.54996">
        <ele>1748.7</ele>
        <time>2026-08-04T09:37:16Z</time>
      </trkpt>
			<trkpt lat="42.52844" lon="1.54994">
        <ele>1749.8</ele>
        <time>2026-08-04T09:37:21Z</time>
      </trkpt>
			<trkpt lat="42.52851" lon="1.54992">
        <ele>1750.7</ele>
        <time>2026-08-04T09:37:24Z</time>
      </trkpt>
			<trkpt lat="42.52889" lon="1.54976">
        <ele>1755.5</ele>
        <time>2026-08-04T09:37:44Z</time>
      </trkpt>
			<trkpt lat="42.52903" lon="1.54968">
        <ele>1757.2</ele>
        <time>2026-08-04T09:37:52Z</time>
      </trkpt>
			<trkpt lat="42.52911" lon="1.54966">
        <ele>1758.1</ele>
        <time>2026-08-04T09:37:56Z</time>
      </trkpt>
			<trkpt lat="42.52952" lon="1.54967">
        <ele>1762.1</ele>
        <time>2026-08-04T09:38:14Z</time>
      </trkpt>
			<trkpt lat="42.52967" lon="1.54972">
        <ele>1763.5</ele>
        <time>2026-08-04T09:38:20Z</time>
      </trkpt>
			<trkpt lat="42.52974" lon="1.54978">
        <ele>1764.2</ele>
        <time>2026-08-04T09:38:23Z</time>
      </trkpt>
			<trkpt lat="42.52997" lon="1.55001">
        <ele>1766.4</ele>
        <time>2026-08-04T09:38:33Z</time>
      </trkpt>
			<trkpt lat="42.53019" lon="1.55025">
        <ele>1768.7</ele>
        <time>2026-08-04T09:38:42Z</time>
      </trkpt>
			<trkpt lat="42.53032" lon="1.55039">
        <ele>1770</ele>
        <time>2026-08-04T09:38:48Z</time>
      </trkpt>
			<trkpt lat="42.5304" lon="1.55045">
        <ele>1770.7</ele>
        <time>2026-08-04T09:38:51Z</time>
      </trkpt>
			<trkpt lat="42.53049" lon="1.55047">
        <ele>1771.4</ele>
        <time>2026-08-04T09:38:54Z</time>
      </trkpt>
			<trkpt lat="42.53052" lon="1.55046">
        <ele>1771.7</ele>
        <time>2026-08-04T09:38:55Z</time>
      </trkpt>
			<trkpt lat="42.53056" lon="1.5504">
        <ele>1772.2</ele>
        <time>2026-08-04T09:38:58Z</time>
      </trkpt>
			<trkpt lat="42.53058" lon="1.55033">
        <ele>1772.6</ele>
        <time>2026-08-04T09:39:00Z</time>
      </trkpt>
			<trkpt lat="42.53057" lon="1.55024">
        <ele>1773.2</ele>
        <time>2026-08-04T09:39:02Z</time>
      </trkpt>
			<trkpt lat="42.53056" lon="1.55017">
        <ele>1773.6</ele>
        <time>2026-08-04T09:39:04Z</time>
      </trkpt>
			<trkpt lat="42.53053" lon="1.55013">
        <ele>1774</ele>
        <time>2026-08-04T09:39:06Z</time>
      </trkpt>
			<trkpt lat="42.53043" lon="1.55004">
        <ele>1775.1</ele>
        <time>2026-08-04T09:39:11Z</time>
      </trkpt>
			<trkpt lat="42.53022" lon="1.54992">
        <ele>1777.3</ele>
        <time>2026-08-04T09:39:21Z</time>
      </trkpt>
			<trkpt lat="42.53014" lon="1.54985">
        <ele>1778.2</ele>
        <time>2026-08-04T09:39:25Z</time>
      </trkpt>
			<trkpt lat="42.52994" lon="1.54956">
        <ele>1781.3</ele>
        <time>2026-08-04T09:39:40Z</time>
      </trkpt>
			<trkpt lat="42.52976" lon="1.54927">
        <ele>1784.3</ele>
        <time>2026-08-04T09:39:54Z</time>
      </trkpt>
			<trkpt lat="42.52961" lon="1.54904">
        <ele>1786.9</ele>
        <time>2026-08-04T09:40:05Z</time>
      </trkpt>
			<trkpt lat="42.52954" lon="1.54898">
        <ele>1787.8</ele>
        <time>2026-08-04T09:40:09Z</time>
      </trkpt>
			<trkpt lat="42.52947" lon="1.54894">
        <ele>1788.7</ele>
        <time>2026-08-04T09:40:13Z</time>
      </trkpt>
			<trkpt lat="42.52924" lon="1.54882">
        <ele>1791.5</ele>
        <time>2026-08-04T09:40:25Z</time>
      </trkpt>
			<trkpt lat="42.52901" lon="1.54871">
        <ele>1794.1</ele>
        <time>2026-08-04T09:40:38Z</time>
      </trkpt>
			<trkpt lat="42.52893" lon="1.54869">
        <ele>1794.9</ele>
        <time>2026-08-04T09:40:41Z</time>
      </trkpt>
			<trkpt lat="42.52863" lon="1.54876">
        <ele>1797.8</ele>
        <time>2026-08-04T09:40:55Z</time>
      </trkpt>
			<trkpt lat="42.52852" lon="1.54876">
        <ele>1798.8</ele>
        <time>2026-08-04T09:40:59Z</time>
      </trkpt>
			<trkpt lat="42.52844" lon="1.54872">
        <ele>1799.5</ele>
        <time>2026-08-04T09:41:02Z</time>
      </trkpt>
			<trkpt lat="42.52836" lon="1.54866">
        <ele>1800.3</ele>
        <time>2026-08-04T09:41:06Z</time>
      </trkpt>
			<trkpt lat="42.52813" lon="1.54843">
        <ele>1802.3</ele>
        <time>2026-08-04T09:41:14Z</time>
      </trkpt>
			<trkpt lat="42.52808" lon="1.54841">
        <ele>1802.6</ele>
        <time>2026-08-04T09:41:16Z</time>
      </trkpt>
			<trkpt lat="42.52795" lon="1.54841">
        <ele>1803.4</ele>
        <time>2026-08-04T09:41:20Z</time>
      </trkpt>
			<trkpt lat="42.52789" lon="1.54844">
        <ele>1803.7</ele>
        <time>2026-08-04T09:41:21Z</time>
      </trkpt>
			<trkpt lat="42.52759" lon="1.5487">
        <ele>1805.4</ele>
        <time>2026-08-04T09:41:30Z</time>
      </trkpt>
			<trkpt lat="42.52735" lon="1.54882">
        <ele>1806.3</ele>
        <time>2026-08-04T09:41:36Z</time>
      </trkpt>
			<trkpt lat="42.52721" lon="1.54888">
        <ele>1806.8</ele>
        <time>2026-08-04T09:41:39Z</time>
      </trkpt>
			<trkpt lat="42.52715" lon="1.5489">
        <ele>1806.9</ele>
        <time>2026-08-04T09:41:40Z</time>
      </trkpt>
			<trkpt lat="42.52711" lon="1.54889">
        <ele>1807.1</ele>
        <time>2026-08-04T09:41:41Z</time>
      </trkpt>
			<trkpt lat="42.52707" lon="1.54885">
        <ele>1807.2</ele>
        <time>2026-08-04T09:41:42Z</time>
      </trkpt>
			<trkpt lat="42.52706" lon="1.54879">
        <ele>1807.3</ele>
        <time>2026-08-04T09:41:43Z</time>
      </trkpt>
			<trkpt lat="42.52706" lon="1.54874">
        <ele>1807.4</ele>
        <time>2026-08-04T09:41:44Z</time>
      </trkpt>
			<trkpt lat="42.52707" lon="1.5487">
        <ele>1807.4</ele>
        <time>2026-08-04T09:41:44Z</time>
      </trkpt>
			<trkpt lat="42.5271" lon="1.54865">
        <ele>1807.5</ele>
        <time>2026-08-04T09:41:45Z</time>
      </trkpt>
			<trkpt lat="42.52721" lon="1.54855">
        <ele>1807.8</ele>
        <time>2026-08-04T09:41:48Z</time>
      </trkpt>
			<trkpt lat="42.52729" lon="1.54851">
        <ele>1807.9</ele>
        <time>2026-08-04T09:41:49Z</time>
      </trkpt>
			<trkpt lat="42.52742" lon="1.54841">
        <ele>1808.2</ele>
        <time>2026-08-04T09:41:52Z</time>
      </trkpt>
			<trkpt lat="42.52752" lon="1.54831">
        <ele>1808.3</ele>
        <time>2026-08-04T09:41:54Z</time>
      </trkpt>
			<trkpt lat="42.52761" lon="1.54821">
        <ele>1808.4</ele>
        <time>2026-08-04T09:41:56Z</time>
      </trkpt>
			<trkpt lat="42.52767" lon="1.5481">
        <ele>1808.5</ele>
        <time>2026-08-04T09:41:58Z</time>
      </trkpt>
		</trkseg>
	</trk>
</gpx>
