<?xml version="1.0" encoding="UTF-8"?>
<gpx creator="Wikiloc - https://www.wikiloc.com" version="1.1" xmlns="http://www.topografix.com/GPX/1/1" xmlns:xsi="http://www.w3.org/2001/XMLSchema-instance" xsi:schemaLocation="http://www.topografix.com/GPX/1/1 http://www.topografix.com/GPX/1/1/gpx.xsd">
  <metadata>
    <name>Wikiloc - COLVBB-07-DOLOMITES-MORTIROLO (des de Mazzo di Valtellina) 1...</name>
    <link href="https://www.wikiloc.com/cycling-trails/colvbb-07-dolomites-mortirolo-des-de-mazzo-di-valtellina-1852-m-3921545">
      <text>COLVBB-07-DOLOMITES-MORTIROLO (des de Mazzo di Valtellina) 1... on Wikiloc</text>
    </link>
    <time>2026-07-28T09:29:09.087Z</time>
  </metadata>
  <trk>
    <name>COLVBB-07-DOLOMITES-MORTIROLO (des de Mazzo di Valtellina) 1... - Wikiloc</name>
    <cmt></cmt>
    <desc></desc>
    <trkseg>
      <trkpt lat="46.254860" lon="10.252340">
        <ele>546.158</ele>
        <time>2026-07-28T09:29:09.085Z</time>
      </trkpt>
      <trkpt lat="46.254670" lon="10.253680">
        <ele>551.252</ele>
        <time>2026-07-28T09:29:29.085Z</time>
      </trkpt>
      <trkpt lat="46.254690" lon="10.254700">
        <ele>555.917</ele>
        <time>2026-07-28T09:29:49.085Z</time>
      </trkpt>
      <trkpt lat="46.254810" lon="10.255590">
        <ele>559.507</ele>
        <time>2026-07-28T09:30:09.085Z</time>
      </trkpt>
      <trkpt lat="46.254740" lon="10.256510">
        <ele>568.258</ele>
        <time>2026-07-28T09:30:29.085Z</time>
      </trkpt>
      <trkpt lat="46.254400" lon="10.256400">
        <ele>568.454</ele>
        <time>2026-07-28T09:30:49.085Z</time>
      </trkpt>
      <trkpt lat="46.253760" lon="10.255890">
        <ele>564.617</ele>
        <time>2026-07-28T09:31:09.085Z</time>
      </trkpt>
      <trkpt lat="46.253500" lon="10.256670">
        <ele>572.066</ele>
        <time>2026-07-28T09:31:29.085Z</time>
      </trkpt>
      <trkpt lat="46.253350" lon="10.256830">
        <ele>573.730</ele>
        <time>2026-07-28T09:31:49.085Z</time>
      </trkpt>
      <trkpt lat="46.253150" lon="10.256880">
        <ele>574.599</ele>
        <time>2026-07-28T09:32:09.085Z</time>
      </trkpt>
      <trkpt lat="46.252960" lon="10.256830">
        <ele>575.410</ele>
        <time>2026-07-28T09:32:29.085Z</time>
      </trkpt>
      <trkpt lat="46.252570" lon="10.256280">
        <ele>577.053</ele>
        <time>2026-07-28T09:32:49.085Z</time>
      </trkpt>
      <trkpt lat="46.252000" lon="10.255670">
        <ele>582.404</ele>
        <time>2026-07-28T09:33:09.085Z</time>
      </trkpt>
      <trkpt lat="46.251550" lon="10.255540">
        <ele>585.514</ele>
        <time>2026-07-28T09:33:29.085Z</time>
      </trkpt>
      <trkpt lat="46.251100" lon="10.255630">
        <ele>590.307</ele>
        <time>2026-07-28T09:33:49.085Z</time>
      </trkpt>
      <trkpt lat="46.251060" lon="10.255720">
        <ele>593.048</ele>
        <time>2026-07-28T09:34:09.085Z</time>
      </trkpt>
      <trkpt lat="46.251090" lon="10.255780">
        <ele>595.134</ele>
        <time>2026-07-28T09:34:29.085Z</time>
      </trkpt>
      <trkpt lat="46.252000" lon="10.256330">
        <ele>597.897</ele>
        <time>2026-07-28T09:34:49.085Z</time>
      </trkpt>
      <trkpt lat="46.252110" lon="10.256420">
        <ele>596.376</ele>
        <time>2026-07-28T09:35:09.085Z</time>
      </trkpt>
      <trkpt lat="46.252170" lon="10.256600">
        <ele>598.330</ele>
        <time>2026-07-28T09:35:29.085Z</time>
      </trkpt>
      <trkpt lat="46.252230" lon="10.256980">
        <ele>603.189</ele>
        <time>2026-07-28T09:35:49.086Z</time>
      </trkpt>
      <trkpt lat="46.252200" lon="10.257030">
        <ele>605.150</ele>
        <time>2026-07-28T09:36:09.086Z</time>
      </trkpt>
      <trkpt lat="46.251660" lon="10.256950">
        <ele>616.154</ele>
        <time>2026-07-28T09:36:29.086Z</time>
      </trkpt>
      <trkpt lat="46.251430" lon="10.257010">
        <ele>616.456</ele>
        <time>2026-07-28T09:36:49.086Z</time>
      </trkpt>
      <trkpt lat="46.251240" lon="10.257360">
        <ele>620.311</ele>
        <time>2026-07-28T09:37:09.086Z</time>
      </trkpt>
      <trkpt lat="46.250950" lon="10.257590">
        <ele>625.407</ele>
        <time>2026-07-28T09:37:29.086Z</time>
      </trkpt>
      <trkpt lat="46.250910" lon="10.257670">
        <ele>628.668</ele>
        <time>2026-07-28T09:37:49.086Z</time>
      </trkpt>
      <trkpt lat="46.250910" lon="10.257840">
        <ele>633.374</ele>
        <time>2026-07-28T09:38:09.086Z</time>
      </trkpt>
      <trkpt lat="46.250920" lon="10.257910">
        <ele>634.757</ele>
        <time>2026-07-28T09:38:29.086Z</time>
      </trkpt>
      <trkpt lat="46.251030" lon="10.258040">
        <ele>634.396</ele>
        <time>2026-07-28T09:38:49.086Z</time>
      </trkpt>
      <trkpt lat="46.251190" lon="10.258060">
        <ele>634.120</ele>
        <time>2026-07-28T09:39:09.086Z</time>
      </trkpt>
      <trkpt lat="46.251440" lon="10.257980">
        <ele>637.699</ele>
        <time>2026-07-28T09:39:29.086Z</time>
      </trkpt>
      <trkpt lat="46.251630" lon="10.257990">
        <ele>638.510</ele>
        <time>2026-07-28T09:39:49.086Z</time>
      </trkpt>
      <trkpt lat="46.252040" lon="10.258210">
        <ele>629.265</ele>
        <time>2026-07-28T09:40:09.086Z</time>
      </trkpt>
      <trkpt lat="46.252080" lon="10.258270">
        <ele>627.768</ele>
        <time>2026-07-28T09:40:29.086Z</time>
      </trkpt>
      <trkpt lat="46.252050" lon="10.258420">
        <ele>629.914</ele>
        <time>2026-07-28T09:40:49.086Z</time>
      </trkpt>
      <trkpt lat="46.251690" lon="10.258970">
        <ele>649.407</ele>
        <time>2026-07-28T09:41:09.086Z</time>
      </trkpt>
      <trkpt lat="46.251520" lon="10.259130">
        <ele>657.999</ele>
        <time>2026-07-28T09:41:29.086Z</time>
      </trkpt>
      <trkpt lat="46.251470" lon="10.259290">
        <ele>662.345</ele>
        <time>2026-07-28T09:41:49.086Z</time>
      </trkpt>
      <trkpt lat="46.251560" lon="10.259550">
        <ele>661.018</ele>
        <time>2026-07-28T09:42:09.086Z</time>
      </trkpt>
      <trkpt lat="46.251900" lon="10.260090">
        <ele>660.017</ele>
        <time>2026-07-28T09:42:29.086Z</time>
      </trkpt>
      <trkpt lat="46.251990" lon="10.260160">
        <ele>660.941</ele>
        <time>2026-07-28T09:42:49.086Z</time>
      </trkpt>
      <trkpt lat="46.252280" lon="10.260230">
        <ele>658.430</ele>
        <time>2026-07-28T09:43:09.086Z</time>
      </trkpt>
      <trkpt lat="46.252340" lon="10.260330">
        <ele>660.871</ele>
        <time>2026-07-28T09:43:29.086Z</time>
      </trkpt>
      <trkpt lat="46.252500" lon="10.260890">
        <ele>672.264</ele>
        <time>2026-07-28T09:43:49.086Z</time>
      </trkpt>
      <trkpt lat="46.252680" lon="10.261120">
        <ele>674.606</ele>
        <time>2026-07-28T09:44:09.086Z</time>
      </trkpt>
      <trkpt lat="46.253330" lon="10.261690">
        <ele>683.516</ele>
        <time>2026-07-28T09:44:29.086Z</time>
      </trkpt>
      <trkpt lat="46.253410" lon="10.261820">
        <ele>681.607</ele>
        <time>2026-07-28T09:44:49.086Z</time>
      </trkpt>
      <trkpt lat="46.253570" lon="10.262370">
        <ele>683.859</ele>
        <time>2026-07-28T09:45:09.086Z</time>
      </trkpt>
      <trkpt lat="46.253620" lon="10.262430">
        <ele>683.415</ele>
        <time>2026-07-28T09:45:29.086Z</time>
      </trkpt>
      <trkpt lat="46.253750" lon="10.262450">
        <ele>685.728</ele>
        <time>2026-07-28T09:45:49.086Z</time>
      </trkpt>
      <trkpt lat="46.254070" lon="10.262050">
        <ele>686.097</ele>
        <time>2026-07-28T09:46:09.086Z</time>
      </trkpt>
      <trkpt lat="46.254210" lon="10.261990">
        <ele>688.921</ele>
        <time>2026-07-28T09:46:29.086Z</time>
      </trkpt>
      <trkpt lat="46.254640" lon="10.262240">
        <ele>696.860</ele>
        <time>2026-07-28T09:46:49.086Z</time>
      </trkpt>
      <trkpt lat="46.254930" lon="10.262320">
        <ele>699.551</ele>
        <time>2026-07-28T09:47:09.086Z</time>
      </trkpt>
      <trkpt lat="46.255020" lon="10.262400">
        <ele>701.312</ele>
        <time>2026-07-28T09:47:29.086Z</time>
      </trkpt>
      <trkpt lat="46.254970" lon="10.262510">
        <ele>704.332</ele>
        <time>2026-07-28T09:47:49.086Z</time>
      </trkpt>
      <trkpt lat="46.254390" lon="10.262890">
        <ele>710.405</ele>
        <time>2026-07-28T09:48:09.086Z</time>
      </trkpt>
      <trkpt lat="46.254370" lon="10.262980">
        <ele>712.307</ele>
        <time>2026-07-28T09:48:29.086Z</time>
      </trkpt>
      <trkpt lat="46.254430" lon="10.263030">
        <ele>715.034</ele>
        <time>2026-07-28T09:48:49.086Z</time>
      </trkpt>
      <trkpt lat="46.254950" lon="10.262970">
        <ele>715.320</ele>
        <time>2026-07-28T09:49:09.086Z</time>
      </trkpt>
      <trkpt lat="46.255040" lon="10.263030">
        <ele>715.733</ele>
        <time>2026-07-28T09:49:29.086Z</time>
      </trkpt>
      <trkpt lat="46.255160" lon="10.263150">
        <ele>716.512</ele>
        <time>2026-07-28T09:49:49.086Z</time>
      </trkpt>
      <trkpt lat="46.255220" lon="10.263290">
        <ele>718.916</ele>
        <time>2026-07-28T09:50:09.086Z</time>
      </trkpt>
      <trkpt lat="46.255290" lon="10.263730">
        <ele>733.365</ele>
        <time>2026-07-28T09:50:29.086Z</time>
      </trkpt>
      <trkpt lat="46.255630" lon="10.263990">
        <ele>730.536</ele>
        <time>2026-07-28T09:50:49.086Z</time>
      </trkpt>
      <trkpt lat="46.256090" lon="10.264660">
        <ele>733.189</ele>
        <time>2026-07-28T09:51:09.086Z</time>
      </trkpt>
      <trkpt lat="46.256110" lon="10.264850">
        <ele>737.706</ele>
        <time>2026-07-28T09:51:29.086Z</time>
      </trkpt>
      <trkpt lat="46.255850" lon="10.264640">
        <ele>745.726</ele>
        <time>2026-07-28T09:51:49.086Z</time>
      </trkpt>
      <trkpt lat="46.255190" lon="10.264650">
        <ele>767.107</ele>
        <time>2026-07-28T09:52:09.086Z</time>
      </trkpt>
      <trkpt lat="46.255230" lon="10.264770">
        <ele>770.191</ele>
        <time>2026-07-28T09:52:29.086Z</time>
      </trkpt>
      <trkpt lat="46.255560" lon="10.265020">
        <ele>770.457</ele>
        <time>2026-07-28T09:52:49.086Z</time>
      </trkpt>
      <trkpt lat="46.255620" lon="10.265110">
        <ele>769.720</ele>
        <time>2026-07-28T09:53:09.086Z</time>
      </trkpt>
      <trkpt lat="46.255750" lon="10.265600">
        <ele>774.429</ele>
        <time>2026-07-28T09:53:29.086Z</time>
      </trkpt>
      <trkpt lat="46.256010" lon="10.266310">
        <ele>780.293</ele>
        <time>2026-07-28T09:53:49.086Z</time>
      </trkpt>
      <trkpt lat="46.256390" lon="10.266510">
        <ele>783.282</ele>
        <time>2026-07-28T09:54:09.086Z</time>
      </trkpt>
      <trkpt lat="46.257000" lon="10.266630">
        <ele>785.973</ele>
        <time>2026-07-28T09:54:29.086Z</time>
      </trkpt>
      <trkpt lat="46.257260" lon="10.266910">
        <ele>798.885</ele>
        <time>2026-07-28T09:54:49.086Z</time>
      </trkpt>
      <trkpt lat="46.257330" lon="10.266890">
        <ele>799.889</ele>
        <time>2026-07-28T09:55:09.086Z</time>
      </trkpt>
      <trkpt lat="46.257550" lon="10.266630">
        <ele>794.117</ele>
        <time>2026-07-28T09:55:29.086Z</time>
      </trkpt>
      <trkpt lat="46.257690" lon="10.266580">
        <ele>793.907</ele>
        <time>2026-07-28T09:55:49.086Z</time>
      </trkpt>
      <trkpt lat="46.257960" lon="10.266630">
        <ele>794.611</ele>
        <time>2026-07-28T09:56:09.086Z</time>
      </trkpt>
      <trkpt lat="46.258290" lon="10.267000">
        <ele>804.547</ele>
        <time>2026-07-28T09:56:29.086Z</time>
      </trkpt>
      <trkpt lat="46.258600" lon="10.267060">
        <ele>804.380</ele>
        <time>2026-07-28T09:56:49.086Z</time>
      </trkpt>
      <trkpt lat="46.258830" lon="10.267190">
        <ele>811.669</ele>
        <time>2026-07-28T09:57:09.086Z</time>
      </trkpt>
      <trkpt lat="46.258960" lon="10.267140">
        <ele>814.433</ele>
        <time>2026-07-28T09:57:29.086Z</time>
      </trkpt>
      <trkpt lat="46.259080" lon="10.266730">
        <ele>810.792</ele>
        <time>2026-07-28T09:57:49.086Z</time>
      </trkpt>
      <trkpt lat="46.259240" lon="10.266600">
        <ele>811.183</ele>
        <time>2026-07-28T09:58:09.086Z</time>
      </trkpt>
      <trkpt lat="46.259380" lon="10.266590">
        <ele>811.966</ele>
        <time>2026-07-28T09:58:29.086Z</time>
      </trkpt>
      <trkpt lat="46.259490" lon="10.266740">
        <ele>812.929</ele>
        <time>2026-07-28T09:58:49.086Z</time>
      </trkpt>
      <trkpt lat="46.259520" lon="10.266860">
        <ele>814.121</ele>
        <time>2026-07-28T09:59:09.086Z</time>
      </trkpt>
      <trkpt lat="46.259220" lon="10.267570">
        <ele>831.207</ele>
        <time>2026-07-28T09:59:29.086Z</time>
      </trkpt>
      <trkpt lat="46.259200" lon="10.267720">
        <ele>833.519</ele>
        <time>2026-07-28T09:59:49.086Z</time>
      </trkpt>
      <trkpt lat="46.259270" lon="10.267800">
        <ele>835.525</ele>
        <time>2026-07-28T10:00:09.086Z</time>
      </trkpt>
      <trkpt lat="46.259370" lon="10.267850">
        <ele>837.578</ele>
        <time>2026-07-28T10:00:29.086Z</time>
      </trkpt>
      <trkpt lat="46.259720" lon="10.267820">
        <ele>840.057</ele>
        <time>2026-07-28T10:00:49.086Z</time>
      </trkpt>
      <trkpt lat="46.259900" lon="10.267860">
        <ele>843.631</ele>
        <time>2026-07-28T10:01:09.086Z</time>
      </trkpt>
      <trkpt lat="46.260350" lon="10.267670">
        <ele>846.160</ele>
        <time>2026-07-28T10:01:29.086Z</time>
      </trkpt>
      <trkpt lat="46.260950" lon="10.267930">
        <ele>859.361</ele>
        <time>2026-07-28T10:01:49.086Z</time>
      </trkpt>
      <trkpt lat="46.261340" lon="10.268320">
        <ele>866.871</ele>
        <time>2026-07-28T10:02:09.086Z</time>
      </trkpt>
      <trkpt lat="46.261560" lon="10.268430">
        <ele>867.741</ele>
        <time>2026-07-28T10:02:29.086Z</time>
      </trkpt>
      <trkpt lat="46.261980" lon="10.268770">
        <ele>873.015</ele>
        <time>2026-07-28T10:02:49.086Z</time>
      </trkpt>
      <trkpt lat="46.262270" lon="10.269220">
        <ele>880.507</ele>
        <time>2026-07-28T10:03:09.086Z</time>
      </trkpt>
      <trkpt lat="46.263270" lon="10.269850">
        <ele>898.380</ele>
        <time>2026-07-28T10:03:29.086Z</time>
      </trkpt>
      <trkpt lat="46.263560" lon="10.270520">
        <ele>903.426</ele>
        <time>2026-07-28T10:03:49.086Z</time>
      </trkpt>
      <trkpt lat="46.263920" lon="10.270810">
        <ele>903.419</ele>
        <time>2026-07-28T10:04:09.086Z</time>
      </trkpt>
      <trkpt lat="46.263910" lon="10.270910">
        <ele>904.648</ele>
        <time>2026-07-28T10:04:29.086Z</time>
      </trkpt>
      <trkpt lat="46.263620" lon="10.271360">
        <ele>914.562</ele>
        <time>2026-07-28T10:04:49.086Z</time>
      </trkpt>
      <trkpt lat="46.263470" lon="10.271200">
        <ele>916.271</ele>
        <time>2026-07-28T10:05:09.086Z</time>
      </trkpt>
      <trkpt lat="46.263300" lon="10.271150">
        <ele>918.972</ele>
        <time>2026-07-28T10:05:29.086Z</time>
      </trkpt>
      <trkpt lat="46.262820" lon="10.271070">
        <ele>926.791</ele>
        <time>2026-07-28T10:05:49.086Z</time>
      </trkpt>
      <trkpt lat="46.262050" lon="10.271040">
        <ele>932.681</ele>
        <time>2026-07-28T10:06:09.086Z</time>
      </trkpt>
      <trkpt lat="46.261430" lon="10.271250">
        <ele>943.019</ele>
        <time>2026-07-28T10:06:29.086Z</time>
      </trkpt>
      <trkpt lat="46.261040" lon="10.271470">
        <ele>952.607</ele>
        <time>2026-07-28T10:06:49.086Z</time>
      </trkpt>
      <trkpt lat="46.260470" lon="10.271510">
        <ele>958.022</ele>
        <time>2026-07-28T10:07:09.086Z</time>
      </trkpt>
      <trkpt lat="46.259790" lon="10.272230">
        <ele>975.398</ele>
        <time>2026-07-28T10:07:29.086Z</time>
      </trkpt>
      <trkpt lat="46.259140" lon="10.272430">
        <ele>986.571</ele>
        <time>2026-07-28T10:07:49.086Z</time>
      </trkpt>
      <trkpt lat="46.259060" lon="10.272510">
        <ele>988.120</ele>
        <time>2026-07-28T10:08:09.086Z</time>
      </trkpt>
      <trkpt lat="46.258920" lon="10.272860">
        <ele>996.894</ele>
        <time>2026-07-28T10:08:29.086Z</time>
      </trkpt>
      <trkpt lat="46.258910" lon="10.273040">
        <ele>1001.943</ele>
        <time>2026-07-28T10:08:49.086Z</time>
      </trkpt>
      <trkpt lat="46.258970" lon="10.273120">
        <ele>1005.864</ele>
        <time>2026-07-28T10:09:09.086Z</time>
      </trkpt>
      <trkpt lat="46.259030" lon="10.273100">
        <ele>1006.132</ele>
        <time>2026-07-28T10:09:29.086Z</time>
      </trkpt>
      <trkpt lat="46.259110" lon="10.272960">
        <ele>1002.792</ele>
        <time>2026-07-28T10:09:49.086Z</time>
      </trkpt>
      <trkpt lat="46.259200" lon="10.272930">
        <ele>1002.711</ele>
        <time>2026-07-28T10:10:09.086Z</time>
      </trkpt>
      <trkpt lat="46.259580" lon="10.273010">
        <ele>1009.007</ele>
        <time>2026-07-28T10:10:29.086Z</time>
      </trkpt>
      <trkpt lat="46.259900" lon="10.272970">
        <ele>1012.196</ele>
        <time>2026-07-28T10:10:49.086Z</time>
      </trkpt>
      <trkpt lat="46.260510" lon="10.273000">
        <ele>1017.982</ele>
        <time>2026-07-28T10:11:09.086Z</time>
      </trkpt>
      <trkpt lat="46.260580" lon="10.273050">
        <ele>1019.425</ele>
        <time>2026-07-28T10:11:29.086Z</time>
      </trkpt>
      <trkpt lat="46.260610" lon="10.273140">
        <ele>1022.514</ele>
        <time>2026-07-28T10:11:49.086Z</time>
      </trkpt>
      <trkpt lat="46.260580" lon="10.273210">
        <ele>1025.768</ele>
        <time>2026-07-28T10:12:09.086Z</time>
      </trkpt>
      <trkpt lat="46.260330" lon="10.273310">
        <ele>1029.387</ele>
        <time>2026-07-28T10:12:29.086Z</time>
      </trkpt>
      <trkpt lat="46.259680" lon="10.273850">
        <ele>1042.198</ele>
        <time>2026-07-28T10:12:49.086Z</time>
      </trkpt>
      <trkpt lat="46.259380" lon="10.274220">
        <ele>1049.449</ele>
        <time>2026-07-28T10:13:09.086Z</time>
      </trkpt>
      <trkpt lat="46.259310" lon="10.274360">
        <ele>1052.902</ele>
        <time>2026-07-28T10:13:29.086Z</time>
      </trkpt>
      <trkpt lat="46.259310" lon="10.274450">
        <ele>1056.322</ele>
        <time>2026-07-28T10:13:49.086Z</time>
      </trkpt>
      <trkpt lat="46.259400" lon="10.274470">
        <ele>1059.407</ele>
        <time>2026-07-28T10:14:09.086Z</time>
      </trkpt>
      <trkpt lat="46.259970" lon="10.274170">
        <ele>1056.777</ele>
        <time>2026-07-28T10:14:29.086Z</time>
      </trkpt>
      <trkpt lat="46.260350" lon="10.274210">
        <ele>1060.993</ele>
        <time>2026-07-28T10:14:49.086Z</time>
      </trkpt>
      <trkpt lat="46.260460" lon="10.274320">
        <ele>1066.136</ele>
        <time>2026-07-28T10:15:09.086Z</time>
      </trkpt>
      <trkpt lat="46.260690" lon="10.274380">
        <ele>1066.245</ele>
        <time>2026-07-28T10:15:29.086Z</time>
      </trkpt>
      <trkpt lat="46.260820" lon="10.274620">
        <ele>1075.119</ele>
        <time>2026-07-28T10:15:49.086Z</time>
      </trkpt>
      <trkpt lat="46.261050" lon="10.274890">
        <ele>1080.138</ele>
        <time>2026-07-28T10:16:09.086Z</time>
      </trkpt>
      <trkpt lat="46.261240" lon="10.275310">
        <ele>1091.659</ele>
        <time>2026-07-28T10:16:29.086Z</time>
      </trkpt>
      <trkpt lat="46.261550" lon="10.275380">
        <ele>1094.539</ele>
        <time>2026-07-28T10:16:49.086Z</time>
      </trkpt>
      <trkpt lat="46.261620" lon="10.275500">
        <ele>1098.301</ele>
        <time>2026-07-28T10:17:09.086Z</time>
      </trkpt>
      <trkpt lat="46.261770" lon="10.276000">
        <ele>1103.321</ele>
        <time>2026-07-28T10:17:29.086Z</time>
      </trkpt>
      <trkpt lat="46.261820" lon="10.276700">
        <ele>1111.607</ele>
        <time>2026-07-28T10:17:49.086Z</time>
      </trkpt>
      <trkpt lat="46.262140" lon="10.277780">
        <ele>1112.976</ele>
        <time>2026-07-28T10:18:09.086Z</time>
      </trkpt>
      <trkpt lat="46.262160" lon="10.278130">
        <ele>1116.472</ele>
        <time>2026-07-28T10:18:29.086Z</time>
      </trkpt>
      <trkpt lat="46.262090" lon="10.278180">
        <ele>1119.695</ele>
        <time>2026-07-28T10:18:49.086Z</time>
      </trkpt>
      <trkpt lat="46.261950" lon="10.277970">
        <ele>1123.244</ele>
        <time>2026-07-28T10:19:09.086Z</time>
      </trkpt>
      <trkpt lat="46.261690" lon="10.277820">
        <ele>1128.148</ele>
        <time>2026-07-28T10:19:29.086Z</time>
      </trkpt>
      <trkpt lat="46.261470" lon="10.277450">
        <ele>1131.597</ele>
        <time>2026-07-28T10:19:49.086Z</time>
      </trkpt>
      <trkpt lat="46.261020" lon="10.277300">
        <ele>1141.878</ele>
        <time>2026-07-28T10:20:09.086Z</time>
      </trkpt>
      <trkpt lat="46.260920" lon="10.277330">
        <ele>1143.377</ele>
        <time>2026-07-28T10:20:29.086Z</time>
      </trkpt>
      <trkpt lat="46.260760" lon="10.277680">
        <ele>1152.861</ele>
        <time>2026-07-28T10:20:49.086Z</time>
      </trkpt>
      <trkpt lat="46.260580" lon="10.277850">
        <ele>1158.527</ele>
        <time>2026-07-28T10:21:09.086Z</time>
      </trkpt>
      <trkpt lat="46.260050" lon="10.277960">
        <ele>1161.007</ele>
        <time>2026-07-28T10:21:29.086Z</time>
      </trkpt>
      <trkpt lat="46.259420" lon="10.278250">
        <ele>1168.090</ele>
        <time>2026-07-28T10:21:49.086Z</time>
      </trkpt>
      <trkpt lat="46.259400" lon="10.278350">
        <ele>1170.616</ele>
        <time>2026-07-28T10:22:09.086Z</time>
      </trkpt>
      <trkpt lat="46.259440" lon="10.278410">
        <ele>1172.299</ele>
        <time>2026-07-28T10:22:29.086Z</time>
      </trkpt>
      <trkpt lat="46.259900" lon="10.278510">
        <ele>1176.498</ele>
        <time>2026-07-28T10:22:49.086Z</time>
      </trkpt>
      <trkpt lat="46.260260" lon="10.278800">
        <ele>1183.112</ele>
        <time>2026-07-28T10:23:09.086Z</time>
      </trkpt>
      <trkpt lat="46.260210" lon="10.278870">
        <ele>1185.231</ele>
        <time>2026-07-28T10:23:29.086Z</time>
      </trkpt>
      <trkpt lat="46.259920" lon="10.278920">
        <ele>1186.082</ele>
        <time>2026-07-28T10:23:49.086Z</time>
      </trkpt>
      <trkpt lat="46.259400" lon="10.279150">
        <ele>1191.081</ele>
        <time>2026-07-28T10:24:09.086Z</time>
      </trkpt>
      <trkpt lat="46.259200" lon="10.279170">
        <ele>1192.861</ele>
        <time>2026-07-28T10:24:29.086Z</time>
      </trkpt>
      <trkpt lat="46.258840" lon="10.279090">
        <ele>1201.917</ele>
        <time>2026-07-28T10:24:49.086Z</time>
      </trkpt>
      <trkpt lat="46.258480" lon="10.279160">
        <ele>1211.207</ele>
        <time>2026-07-28T10:25:09.086Z</time>
      </trkpt>
      <trkpt lat="46.258340" lon="10.279130">
        <ele>1213.121</ele>
        <time>2026-07-28T10:25:29.086Z</time>
      </trkpt>
      <trkpt lat="46.257380" lon="10.278870">
        <ele>1226.347</ele>
        <time>2026-07-28T10:25:49.086Z</time>
      </trkpt>
      <trkpt lat="46.257290" lon="10.278820">
        <ele>1227.930</ele>
        <time>2026-07-28T10:26:09.086Z</time>
      </trkpt>
      <trkpt lat="46.257160" lon="10.278580">
        <ele>1225.729</ele>
        <time>2026-07-28T10:26:29.086Z</time>
      </trkpt>
      <trkpt lat="46.257040" lon="10.278490">
        <ele>1226.483</ele>
        <time>2026-07-28T10:26:49.086Z</time>
      </trkpt>
      <trkpt lat="46.256580" lon="10.278410">
        <ele>1235.182</ele>
        <time>2026-07-28T10:27:09.086Z</time>
      </trkpt>
      <trkpt lat="46.256530" lon="10.278450">
        <ele>1236.633</ele>
        <time>2026-07-28T10:27:29.086Z</time>
      </trkpt>
      <trkpt lat="46.256530" lon="10.278510">
        <ele>1238.367</ele>
        <time>2026-07-28T10:27:49.086Z</time>
      </trkpt>
      <trkpt lat="46.256870" lon="10.278760">
        <ele>1237.281</ele>
        <time>2026-07-28T10:28:09.086Z</time>
      </trkpt>
      <trkpt lat="46.256950" lon="10.278920">
        <ele>1238.719</ele>
        <time>2026-07-28T10:28:29.086Z</time>
      </trkpt>
      <trkpt lat="46.256910" lon="10.278960">
        <ele>1240.607</ele>
        <time>2026-07-28T10:28:49.086Z</time>
      </trkpt>
      <trkpt lat="46.256660" lon="10.278900">
        <ele>1245.339</ele>
        <time>2026-07-28T10:29:09.086Z</time>
      </trkpt>
      <trkpt lat="46.256250" lon="10.279070">
        <ele>1252.795</ele>
        <time>2026-07-28T10:29:29.086Z</time>
      </trkpt>
      <trkpt lat="46.256050" lon="10.279100">
        <ele>1254.378</ele>
        <time>2026-07-28T10:29:49.086Z</time>
      </trkpt>
      <trkpt lat="46.255780" lon="10.279300">
        <ele>1260.167</ele>
        <time>2026-07-28T10:30:09.086Z</time>
      </trkpt>
      <trkpt lat="46.255760" lon="10.279430">
        <ele>1264.021</ele>
        <time>2026-07-28T10:30:29.086Z</time>
      </trkpt>
      <trkpt lat="46.256090" lon="10.279550">
        <ele>1264.570</ele>
        <time>2026-07-28T10:30:49.086Z</time>
      </trkpt>
      <trkpt lat="46.256790" lon="10.280310">
        <ele>1274.991</ele>
        <time>2026-07-28T10:31:09.086Z</time>
      </trkpt>
      <trkpt lat="46.257150" lon="10.280480">
        <ele>1279.284</ele>
        <time>2026-07-28T10:31:29.086Z</time>
      </trkpt>
      <trkpt lat="46.257320" lon="10.280480">
        <ele>1278.607</ele>
        <time>2026-07-28T10:31:49.086Z</time>
      </trkpt>
      <trkpt lat="46.257340" lon="10.280540">
        <ele>1280.617</ele>
        <time>2026-07-28T10:32:09.086Z</time>
      </trkpt>
      <trkpt lat="46.257310" lon="10.280590">
        <ele>1282.807</ele>
        <time>2026-07-28T10:32:29.086Z</time>
      </trkpt>
      <trkpt lat="46.256570" lon="10.280610">
        <ele>1290.011</ele>
        <time>2026-07-28T10:32:49.086Z</time>
      </trkpt>
      <trkpt lat="46.256140" lon="10.280840">
        <ele>1302.567</ele>
        <time>2026-07-28T10:33:09.086Z</time>
      </trkpt>
      <trkpt lat="46.255170" lon="10.280960">
        <ele>1313.630</ele>
        <time>2026-07-28T10:33:29.086Z</time>
      </trkpt>
      <trkpt lat="46.254810" lon="10.280770">
        <ele>1314.679</ele>
        <time>2026-07-28T10:33:49.086Z</time>
      </trkpt>
      <trkpt lat="46.254330" lon="10.280770">
        <ele>1323.683</ele>
        <time>2026-07-28T10:34:09.086Z</time>
      </trkpt>
      <trkpt lat="46.254030" lon="10.280690">
        <ele>1329.392</ele>
        <time>2026-07-28T10:34:29.086Z</time>
      </trkpt>
      <trkpt lat="46.253850" lon="10.280810">
        <ele>1335.533</ele>
        <time>2026-07-28T10:34:49.086Z</time>
      </trkpt>
      <trkpt lat="46.253780" lon="10.280940">
        <ele>1339.588</ele>
        <time>2026-07-28T10:35:09.086Z</time>
      </trkpt>
      <trkpt lat="46.253830" lon="10.281020">
        <ele>1342.424</ele>
        <time>2026-07-28T10:35:29.086Z</time>
      </trkpt>
      <trkpt lat="46.254040" lon="10.281020">
        <ele>1339.626</ele>
        <time>2026-07-28T10:35:49.086Z</time>
      </trkpt>
      <trkpt lat="46.254180" lon="10.281090">
        <ele>1339.107</ele>
        <time>2026-07-28T10:36:09.086Z</time>
      </trkpt>
      <trkpt lat="46.254380" lon="10.281350">
        <ele>1345.891</ele>
        <time>2026-07-28T10:36:29.086Z</time>
      </trkpt>
      <trkpt lat="46.254690" lon="10.281630">
        <ele>1349.587</ele>
        <time>2026-07-28T10:36:49.086Z</time>
      </trkpt>
      <trkpt lat="46.255170" lon="10.282370">
        <ele>1364.180</ele>
        <time>2026-07-28T10:37:09.086Z</time>
      </trkpt>
      <trkpt lat="46.255910" lon="10.282950">
        <ele>1374.129</ele>
        <time>2026-07-28T10:37:29.086Z</time>
      </trkpt>
      <trkpt lat="46.256500" lon="10.283290">
        <ele>1382.243</ele>
        <time>2026-07-28T10:37:49.086Z</time>
      </trkpt>
      <trkpt lat="46.256890" lon="10.283650">
        <ele>1383.482</ele>
        <time>2026-07-28T10:38:09.086Z</time>
      </trkpt>
      <trkpt lat="46.257610" lon="10.284740">
        <ele>1396.313</ele>
        <time>2026-07-28T10:38:29.086Z</time>
      </trkpt>
      <trkpt lat="46.257710" lon="10.284980">
        <ele>1397.395</ele>
        <time>2026-07-28T10:38:49.086Z</time>
      </trkpt>
      <trkpt lat="46.257840" lon="10.285720">
        <ele>1408.649</ele>
        <time>2026-07-28T10:39:09.086Z</time>
      </trkpt>
      <trkpt lat="46.257910" lon="10.285940">
        <ele>1410.223</ele>
        <time>2026-07-28T10:39:29.086Z</time>
      </trkpt>
      <trkpt lat="46.257880" lon="10.286030">
        <ele>1413.307</ele>
        <time>2026-07-28T10:39:49.086Z</time>
      </trkpt>
      <trkpt lat="46.257270" lon="10.285590">
        <ele>1418.042</ele>
        <time>2026-07-28T10:40:09.086Z</time>
      </trkpt>
      <trkpt lat="46.257190" lon="10.285640">
        <ele>1421.178</ele>
        <time>2026-07-28T10:40:29.086Z</time>
      </trkpt>
      <trkpt lat="46.257030" lon="10.285930">
        <ele>1431.961</ele>
        <time>2026-07-28T10:40:49.086Z</time>
      </trkpt>
      <trkpt lat="46.256810" lon="10.286070">
        <ele>1439.150</ele>
        <time>2026-07-28T10:41:09.086Z</time>
      </trkpt>
      <trkpt lat="46.256650" lon="10.285980">
        <ele>1440.574</ele>
        <time>2026-07-28T10:41:29.086Z</time>
      </trkpt>
      <trkpt lat="46.256350" lon="10.285440">
        <ele>1435.023</ele>
        <time>2026-07-28T10:41:49.086Z</time>
      </trkpt>
      <trkpt lat="46.256270" lon="10.285510">
        <ele>1438.564</ele>
        <time>2026-07-28T10:42:09.086Z</time>
      </trkpt>
      <trkpt lat="46.256360" lon="10.285810">
        <ele>1443.123</ele>
        <time>2026-07-28T10:42:29.086Z</time>
      </trkpt>
      <trkpt lat="46.256350" lon="10.285900">
        <ele>1445.383</ele>
        <time>2026-07-28T10:42:49.086Z</time>
      </trkpt>
      <trkpt lat="46.256290" lon="10.285910">
        <ele>1446.811</ele>
        <time>2026-07-28T10:43:09.086Z</time>
      </trkpt>
      <trkpt lat="46.256120" lon="10.285590">
        <ele>1444.407</ele>
        <time>2026-07-28T10:43:29.086Z</time>
      </trkpt>
      <trkpt lat="46.256060" lon="10.285620">
        <ele>1446.895</ele>
        <time>2026-07-28T10:43:49.086Z</time>
      </trkpt>
      <trkpt lat="46.256060" lon="10.285710">
        <ele>1448.691</ele>
        <time>2026-07-28T10:44:09.086Z</time>
      </trkpt>
      <trkpt lat="46.256200" lon="10.286040">
        <ele>1451.544</ele>
        <time>2026-07-28T10:44:29.086Z</time>
      </trkpt>
      <trkpt lat="46.256530" lon="10.286580">
        <ele>1460.853</ele>
        <time>2026-07-28T10:44:49.086Z</time>
      </trkpt>
      <trkpt lat="46.256700" lon="10.286750">
        <ele>1466.037</ele>
        <time>2026-07-28T10:45:09.086Z</time>
      </trkpt>
      <trkpt lat="46.257020" lon="10.286940">
        <ele>1467.896</ele>
        <time>2026-07-28T10:45:29.086Z</time>
      </trkpt>
      <trkpt lat="46.257770" lon="10.287770">
        <ele>1473.167</ele>
        <time>2026-07-28T10:45:49.086Z</time>
      </trkpt>
      <trkpt lat="46.258100" lon="10.288320">
        <ele>1481.539</ele>
        <time>2026-07-28T10:46:09.086Z</time>
      </trkpt>
      <trkpt lat="46.258270" lon="10.288520">
        <ele>1479.901</ele>
        <time>2026-07-28T10:46:29.086Z</time>
      </trkpt>
      <trkpt lat="46.258750" lon="10.289420">
        <ele>1491.421</ele>
        <time>2026-07-28T10:46:49.086Z</time>
      </trkpt>
      <trkpt lat="46.258900" lon="10.289610">
        <ele>1493.607</ele>
        <time>2026-07-28T10:47:09.086Z</time>
      </trkpt>
      <trkpt lat="46.259000" lon="10.289670">
        <ele>1493.816</ele>
        <time>2026-07-28T10:47:29.086Z</time>
      </trkpt>
      <trkpt lat="46.259020" lon="10.289790">
        <ele>1497.152</ele>
        <time>2026-07-28T10:47:49.086Z</time>
      </trkpt>
      <trkpt lat="46.258930" lon="10.289820">
        <ele>1499.245</ele>
        <time>2026-07-28T10:48:09.086Z</time>
      </trkpt>
      <trkpt lat="46.258690" lon="10.289660">
        <ele>1498.914</ele>
        <time>2026-07-28T10:48:29.086Z</time>
      </trkpt>
      <trkpt lat="46.258200" lon="10.289740">
        <ele>1511.728</ele>
        <time>2026-07-28T10:48:49.086Z</time>
      </trkpt>
      <trkpt lat="46.257330" lon="10.289610">
        <ele>1527.097</ele>
        <time>2026-07-28T10:49:09.086Z</time>
      </trkpt>
      <trkpt lat="46.257200" lon="10.289580">
        <ele>1529.448</ele>
        <time>2026-07-28T10:49:29.086Z</time>
      </trkpt>
      <trkpt lat="46.256820" lon="10.289310">
        <ele>1531.899</ele>
        <time>2026-07-28T10:49:49.086Z</time>
      </trkpt>
      <trkpt lat="46.256750" lon="10.289400">
        <ele>1534.807</ele>
        <time>2026-07-28T10:50:09.086Z</time>
      </trkpt>
      <trkpt lat="46.256790" lon="10.289620">
        <ele>1538.627</ele>
        <time>2026-07-28T10:50:29.086Z</time>
      </trkpt>
      <trkpt lat="46.256870" lon="10.289800">
        <ele>1540.807</ele>
        <time>2026-07-28T10:50:49.086Z</time>
      </trkpt>
      <trkpt lat="46.257110" lon="10.290060">
        <ele>1541.962</ele>
        <time>2026-07-28T10:51:09.086Z</time>
      </trkpt>
      <trkpt lat="46.257300" lon="10.290490">
        <ele>1547.538</ele>
        <time>2026-07-28T10:51:29.086Z</time>
      </trkpt>
      <trkpt lat="46.257410" lon="10.290640">
        <ele>1548.221</ele>
        <time>2026-07-28T10:51:49.086Z</time>
      </trkpt>
      <trkpt lat="46.258030" lon="10.291140">
        <ele>1557.750</ele>
        <time>2026-07-28T10:52:09.086Z</time>
      </trkpt>
      <trkpt lat="46.258740" lon="10.291570">
        <ele>1558.714</ele>
        <time>2026-07-28T10:52:29.086Z</time>
      </trkpt>
      <trkpt lat="46.259470" lon="10.291590">
        <ele>1549.553</ele>
        <time>2026-07-28T10:52:49.086Z</time>
      </trkpt>
      <trkpt lat="46.259640" lon="10.291660">
        <ele>1542.544</ele>
        <time>2026-07-28T10:53:09.086Z</time>
      </trkpt>
      <trkpt lat="46.259770" lon="10.291930">
        <ele>1543.048</ele>
        <time>2026-07-28T10:53:29.086Z</time>
      </trkpt>
      <trkpt lat="46.259850" lon="10.292380">
        <ele>1552.161</ele>
        <time>2026-07-28T10:53:49.086Z</time>
      </trkpt>
      <trkpt lat="46.259940" lon="10.292480">
        <ele>1553.817</ele>
        <time>2026-07-28T10:54:09.086Z</time>
      </trkpt>
      <trkpt lat="46.260280" lon="10.292580">
        <ele>1561.507</ele>
        <time>2026-07-28T10:54:29.086Z</time>
      </trkpt>
      <trkpt lat="46.260820" lon="10.292520">
        <ele>1569.527</ele>
        <time>2026-07-28T10:54:49.086Z</time>
      </trkpt>
      <trkpt lat="46.261330" lon="10.292050">
        <ele>1558.953</ele>
        <time>2026-07-28T10:55:09.086Z</time>
      </trkpt>
      <trkpt lat="46.261890" lon="10.291720">
        <ele>1559.466</ele>
        <time>2026-07-28T10:55:29.086Z</time>
      </trkpt>
      <trkpt lat="46.261890" lon="10.291840">
        <ele>1561.055</ele>
        <time>2026-07-28T10:55:49.086Z</time>
      </trkpt>
      <trkpt lat="46.261740" lon="10.292020">
        <ele>1562.119</ele>
        <time>2026-07-28T10:56:09.086Z</time>
      </trkpt>
      <trkpt lat="46.261600" lon="10.292340">
        <ele>1567.328</ele>
        <time>2026-07-28T10:56:29.086Z</time>
      </trkpt>
      <trkpt lat="46.261550" lon="10.292620">
        <ele>1572.939</ele>
        <time>2026-07-28T10:56:49.086Z</time>
      </trkpt>
      <trkpt lat="46.261600" lon="10.292740">
        <ele>1575.373</ele>
        <time>2026-07-28T10:57:09.086Z</time>
      </trkpt>
      <trkpt lat="46.261900" lon="10.293120">
        <ele>1581.085</ele>
        <time>2026-07-28T10:57:29.086Z</time>
      </trkpt>
      <trkpt lat="46.261880" lon="10.293220">
        <ele>1582.513</ele>
        <time>2026-07-28T10:57:49.086Z</time>
      </trkpt>
      <trkpt lat="46.261580" lon="10.293270">
        <ele>1584.707</ele>
        <time>2026-07-28T10:58:09.086Z</time>
      </trkpt>
      <trkpt lat="46.261520" lon="10.293340">
        <ele>1586.730</ele>
        <time>2026-07-28T10:58:29.086Z</time>
      </trkpt>
      <trkpt lat="46.261790" lon="10.293710">
        <ele>1590.316</ele>
        <time>2026-07-28T10:58:49.086Z</time>
      </trkpt>
      <trkpt lat="46.262040" lon="10.294150">
        <ele>1593.779</ele>
        <time>2026-07-28T10:59:09.086Z</time>
      </trkpt>
      <trkpt lat="46.262110" lon="10.294360">
        <ele>1595.628</ele>
        <time>2026-07-28T10:59:29.086Z</time>
      </trkpt>
      <trkpt lat="46.262030" lon="10.294430">
        <ele>1597.642</ele>
        <time>2026-07-28T10:59:49.086Z</time>
      </trkpt>
      <trkpt lat="46.261480" lon="10.294250">
        <ele>1605.921</ele>
        <time>2026-07-28T11:00:09.086Z</time>
      </trkpt>
      <trkpt lat="46.260890" lon="10.294200">
        <ele>1619.732</ele>
        <time>2026-07-28T11:00:29.086Z</time>
      </trkpt>
      <trkpt lat="46.260570" lon="10.294190">
        <ele>1625.778</ele>
        <time>2026-07-28T11:00:49.086Z</time>
      </trkpt>
      <trkpt lat="46.260230" lon="10.294270">
        <ele>1631.233</ele>
        <time>2026-07-28T11:01:09.086Z</time>
      </trkpt>
      <trkpt lat="46.259550" lon="10.294210">
        <ele>1627.026</ele>
        <time>2026-07-28T11:01:29.086Z</time>
      </trkpt>
      <trkpt lat="46.259290" lon="10.294350">
        <ele>1632.407</ele>
        <time>2026-07-28T11:01:49.086Z</time>
      </trkpt>
      <trkpt lat="46.258820" lon="10.293930">
        <ele>1633.990</ele>
        <time>2026-07-28T11:02:09.086Z</time>
      </trkpt>
      <trkpt lat="46.258690" lon="10.293900">
        <ele>1635.826</ele>
        <time>2026-07-28T11:02:29.086Z</time>
      </trkpt>
      <trkpt lat="46.258530" lon="10.293970">
        <ele>1639.719</ele>
        <time>2026-07-28T11:02:49.086Z</time>
      </trkpt>
      <trkpt lat="46.258190" lon="10.294230">
        <ele>1650.638</ele>
        <time>2026-07-28T11:03:09.086Z</time>
      </trkpt>
      <trkpt lat="46.257940" lon="10.294270">
        <ele>1655.322</ele>
        <time>2026-07-28T11:03:29.086Z</time>
      </trkpt>
      <trkpt lat="46.257740" lon="10.294210">
        <ele>1657.851</ele>
        <time>2026-07-28T11:03:49.086Z</time>
      </trkpt>
      <trkpt lat="46.257520" lon="10.294020">
        <ele>1659.352</ele>
        <time>2026-07-28T11:04:09.086Z</time>
      </trkpt>
      <trkpt lat="46.257280" lon="10.293910">
        <ele>1663.186</ele>
        <time>2026-07-28T11:04:29.086Z</time>
      </trkpt>
      <trkpt lat="46.256710" lon="10.293780">
        <ele>1675.360</ele>
        <time>2026-07-28T11:04:49.086Z</time>
      </trkpt>
      <trkpt lat="46.256220" lon="10.293770">
        <ele>1685.326</ele>
        <time>2026-07-28T11:05:09.086Z</time>
      </trkpt>
      <trkpt lat="46.256500" lon="10.294420">
        <ele>1699.407</ele>
        <time>2026-07-28T11:05:29.086Z</time>
      </trkpt>
      <trkpt lat="46.257110" lon="10.295520">
        <ele>1711.681</ele>
        <time>2026-07-28T11:05:49.086Z</time>
      </trkpt>
      <trkpt lat="46.257060" lon="10.295570">
        <ele>1715.547</ele>
        <time>2026-07-28T11:06:09.086Z</time>
      </trkpt>
      <trkpt lat="46.256530" lon="10.295410">
        <ele>1725.120</ele>
        <time>2026-07-28T11:06:29.086Z</time>
      </trkpt>
      <trkpt lat="46.256360" lon="10.295410">
        <ele>1728.059</ele>
        <time>2026-07-28T11:06:49.086Z</time>
      </trkpt>
      <trkpt lat="46.256360" lon="10.295510">
        <ele>1730.543</ele>
        <time>2026-07-28T11:07:09.086Z</time>
      </trkpt>
      <trkpt lat="46.256410" lon="10.295580">
        <ele>1731.222</ele>
        <time>2026-07-28T11:07:29.086Z</time>
      </trkpt>
      <trkpt lat="46.256890" lon="10.296110">
        <ele>1737.763</ele>
        <time>2026-07-28T11:07:49.086Z</time>
      </trkpt>
      <trkpt lat="46.257030" lon="10.296340">
        <ele>1742.688</ele>
        <time>2026-07-28T11:08:09.086Z</time>
      </trkpt>
      <trkpt lat="46.257010" lon="10.296440">
        <ele>1746.524</ele>
        <time>2026-07-28T11:08:29.086Z</time>
      </trkpt>
      <trkpt lat="46.256730" lon="10.296330">
        <ele>1747.226</ele>
        <time>2026-07-28T11:08:49.086Z</time>
      </trkpt>
      <trkpt lat="46.256620" lon="10.296320">
        <ele>1749.207</ele>
        <time>2026-07-28T11:09:09.086Z</time>
      </trkpt>
      <trkpt lat="46.256580" lon="10.296380">
        <ele>1752.261</ele>
        <time>2026-07-28T11:09:29.086Z</time>
      </trkpt>
      <trkpt lat="46.256740" lon="10.296870">
        <ele>1764.657</ele>
        <time>2026-07-28T11:09:49.086Z</time>
      </trkpt>
      <trkpt lat="46.256900" lon="10.297040">
        <ele>1769.820</ele>
        <time>2026-07-28T11:10:09.086Z</time>
      </trkpt>
      <trkpt lat="46.256930" lon="10.297450">
        <ele>1783.429</ele>
        <time>2026-07-28T11:10:29.086Z</time>
      </trkpt>
      <trkpt lat="46.256890" lon="10.297520">
        <ele>1784.933</ele>
        <time>2026-07-28T11:10:49.086Z</time>
      </trkpt>
      <trkpt lat="46.256740" lon="10.297570">
        <ele>1784.252</ele>
        <time>2026-07-28T11:11:09.086Z</time>
      </trkpt>
      <trkpt lat="46.256460" lon="10.297580">
        <ele>1784.223</ele>
        <time>2026-07-28T11:11:29.086Z</time>
      </trkpt>
      <trkpt lat="46.256460" lon="10.297770">
        <ele>1787.682</ele>
        <time>2026-07-28T11:11:49.086Z</time>
      </trkpt>
      <trkpt lat="46.256510" lon="10.297980">
        <ele>1791.343</ele>
        <time>2026-07-28T11:12:09.086Z</time>
      </trkpt>
      <trkpt lat="46.256660" lon="10.298110">
        <ele>1792.217</ele>
        <time>2026-07-28T11:12:29.086Z</time>
      </trkpt>
      <trkpt lat="46.256720" lon="10.298230">
        <ele>1796.307</ele>
        <time>2026-07-28T11:12:49.086Z</time>
      </trkpt>
      <trkpt lat="46.256700" lon="10.298290">
        <ele>1796.971</ele>
        <time>2026-07-28T11:13:09.086Z</time>
      </trkpt>
      <trkpt lat="46.256350" lon="10.298480">
        <ele>1803.317</ele>
        <time>2026-07-28T11:13:29.086Z</time>
      </trkpt>
      <trkpt lat="46.256170" lon="10.299070">
        <ele>1816.090</ele>
        <time>2026-07-28T11:13:49.086Z</time>
      </trkpt>
      <trkpt lat="46.256040" lon="10.299370">
        <ele>1821.119</ele>
        <time>2026-07-28T11:14:09.086Z</time>
      </trkpt>
      <trkpt lat="46.255880" lon="10.299450">
        <ele>1822.163</ele>
        <time>2026-07-28T11:14:29.086Z</time>
      </trkpt>
      <trkpt lat="46.255800" lon="10.299410">
        <ele>1822.482</ele>
        <time>2026-07-28T11:14:49.086Z</time>
      </trkpt>
      <trkpt lat="46.255230" lon="10.298560">
        <ele>1824.133</ele>
        <time>2026-07-28T11:15:09.086Z</time>
      </trkpt>
      <trkpt lat="46.254730" lon="10.297900">
        <ele>1821.261</ele>
        <time>2026-07-28T11:15:29.086Z</time>
      </trkpt>
      <trkpt lat="46.254220" lon="10.297480">
        <ele>1821.421</ele>
        <time>2026-07-28T11:15:49.086Z</time>
      </trkpt>
      <trkpt lat="46.253740" lon="10.296780">
        <ele>1815.213</ele>
        <time>2026-07-28T11:16:09.086Z</time>
      </trkpt>
      <trkpt lat="46.253460" lon="10.296460">
        <ele>1812.907</ele>
        <time>2026-07-28T11:16:29.086Z</time>
      </trkpt>
      <trkpt lat="46.253280" lon="10.296340">
        <ele>1812.599</ele>
        <time>2026-07-28T11:16:49.086Z</time>
      </trkpt>
      <trkpt lat="46.253120" lon="10.296300">
        <ele>1812.975</ele>
        <time>2026-07-28T11:17:09.086Z</time>
      </trkpt>
      <trkpt lat="46.252700" lon="10.296320">
        <ele>1816.938</ele>
        <time>2026-07-28T11:17:29.086Z</time>
      </trkpt>
      <trkpt lat="46.252290" lon="10.296190">
        <ele>1820.797</ele>
        <time>2026-07-28T11:17:49.086Z</time>
      </trkpt>
      <trkpt lat="46.252070" lon="10.296300">
        <ele>1821.121</ele>
        <time>2026-07-28T11:18:09.086Z</time>
      </trkpt>
      <trkpt lat="46.251600" lon="10.296070">
        <ele>1811.920</ele>
        <time>2026-07-28T11:18:29.086Z</time>
      </trkpt>
      <trkpt lat="46.251520" lon="10.295990">
        <ele>1811.321</ele>
        <time>2026-07-28T11:18:49.086Z</time>
      </trkpt>
      <trkpt lat="46.251420" lon="10.295720">
        <ele>1807.722</ele>
        <time>2026-07-28T11:19:09.086Z</time>
      </trkpt>
      <trkpt lat="46.251300" lon="10.295560">
        <ele>1805.762</ele>
        <time>2026-07-28T11:19:29.086Z</time>
      </trkpt>
      <trkpt lat="46.251150" lon="10.295450">
        <ele>1804.808</ele>
        <time>2026-07-28T11:19:49.086Z</time>
      </trkpt>
      <trkpt lat="46.250970" lon="10.295040">
        <ele>1797.007</ele>
        <time>2026-07-28T11:20:09.086Z</time>
      </trkpt>
      <trkpt lat="46.250730" lon="10.294710">
        <ele>1790.945</ele>
        <time>2026-07-28T11:20:29.086Z</time>
      </trkpt>
      <trkpt lat="46.250320" lon="10.294580">
        <ele>1791.251</ele>
        <time>2026-07-28T11:20:49.086Z</time>
      </trkpt>
      <trkpt lat="46.250220" lon="10.294400">
        <ele>1790.144</ele>
        <time>2026-07-28T11:21:09.086Z</time>
      </trkpt>
      <trkpt lat="46.249840" lon="10.294150">
        <ele>1790.343</ele>
        <time>2026-07-28T11:21:29.086Z</time>
      </trkpt>
      <trkpt lat="46.249240" lon="10.294100">
        <ele>1779.867</ele>
        <time>2026-07-28T11:21:49.086Z</time>
      </trkpt>
      <trkpt lat="46.248960" lon="10.293960">
        <ele>1777.816</ele>
        <time>2026-07-28T11:22:09.086Z</time>
      </trkpt>
      <trkpt lat="46.248280" lon="10.294040">
        <ele>1784.767</ele>
        <time>2026-07-28T11:22:29.086Z</time>
      </trkpt>
      <trkpt lat="46.248140" lon="10.294170">
        <ele>1787.397</ele>
        <time>2026-07-28T11:22:49.086Z</time>
      </trkpt>
      <trkpt lat="46.247870" lon="10.294220">
        <ele>1785.223</ele>
        <time>2026-07-28T11:23:09.086Z</time>
      </trkpt>
      <trkpt lat="46.247730" lon="10.294340">
        <ele>1785.625</ele>
        <time>2026-07-28T11:23:29.086Z</time>
      </trkpt>
      <trkpt lat="46.247670" lon="10.294570">
        <ele>1788.007</ele>
        <time>2026-07-28T11:23:49.086Z</time>
      </trkpt>
      <trkpt lat="46.247690" lon="10.294940">
        <ele>1791.172</ele>
        <time>2026-07-28T11:24:09.086Z</time>
      </trkpt>
      <trkpt lat="46.247580" lon="10.295190">
        <ele>1794.028</ele>
        <time>2026-07-28T11:24:29.086Z</time>
      </trkpt>
      <trkpt lat="46.247430" lon="10.295360">
        <ele>1796.151</ele>
        <time>2026-07-28T11:24:49.086Z</time>
      </trkpt>
      <trkpt lat="46.247340" lon="10.295380">
        <ele>1796.590</ele>
        <time>2026-07-28T11:25:09.086Z</time>
      </trkpt>
      <trkpt lat="46.247030" lon="10.295290">
        <ele>1796.184</ele>
        <time>2026-07-28T11:25:29.086Z</time>
      </trkpt>
      <trkpt lat="46.246880" lon="10.295320">
        <ele>1797.043</ele>
        <time>2026-07-28T11:25:49.086Z</time>
      </trkpt>
      <trkpt lat="46.246660" lon="10.295230">
        <ele>1797.514</ele>
        <time>2026-07-28T11:26:09.086Z</time>
      </trkpt>
      <trkpt lat="46.246590" lon="10.295310">
        <ele>1799.326</ele>
        <time>2026-07-28T11:26:29.086Z</time>
      </trkpt>
      <trkpt lat="46.246650" lon="10.295430">
        <ele>1801.047</ele>
        <time>2026-07-28T11:26:49.086Z</time>
      </trkpt>
      <trkpt lat="46.247360" lon="10.295890">
        <ele>1803.511</ele>
        <time>2026-07-28T11:27:09.086Z</time>
      </trkpt>
      <trkpt lat="46.247400" lon="10.296010">
        <ele>1806.407</ele>
        <time>2026-07-28T11:27:29.086Z</time>
      </trkpt>
      <trkpt lat="46.247350" lon="10.296130">
        <ele>1810.275</ele>
        <time>2026-07-28T11:27:49.086Z</time>
      </trkpt>
      <trkpt lat="46.247190" lon="10.296150">
        <ele>1812.831</ele>
        <time>2026-07-28T11:28:09.086Z</time>
      </trkpt>
      <trkpt lat="46.246250" lon="10.295730">
        <ele>1816.264</ele>
        <time>2026-07-28T11:28:29.086Z</time>
      </trkpt>
      <trkpt lat="46.245800" lon="10.295800">
        <ele>1821.893</ele>
        <time>2026-07-28T11:28:49.086Z</time>
      </trkpt>
      <trkpt lat="46.245580" lon="10.295780">
        <ele>1823.817</ele>
        <time>2026-07-28T11:29:09.086Z</time>
      </trkpt>
      <trkpt lat="46.245490" lon="10.295820">
        <ele>1825.786</ele>
        <time>2026-07-28T11:29:29.086Z</time>
      </trkpt>
      <trkpt lat="46.245480" lon="10.295880">
        <ele>1827.047</ele>
        <time>2026-07-28T11:29:49.086Z</time>
      </trkpt>
      <trkpt lat="46.245520" lon="10.296010">
        <ele>1828.816</ele>
        <time>2026-07-28T11:30:09.086Z</time>
      </trkpt>
      <trkpt lat="46.246050" lon="10.296310">
        <ele>1829.276</ele>
        <time>2026-07-28T11:30:29.086Z</time>
      </trkpt>
      <trkpt lat="46.246370" lon="10.296870">
        <ele>1835.213</ele>
        <time>2026-07-28T11:30:49.086Z</time>
      </trkpt>
      <trkpt lat="46.246860" lon="10.297600">
        <ele>1841.507</ele>
        <time>2026-07-28T11:31:09.086Z</time>
      </trkpt>
      <trkpt lat="46.247430" lon="10.297910">
        <ele>1848.784</ele>
        <time>2026-07-28T11:31:29.086Z</time>
      </trkpt>
      <trkpt lat="46.247730" lon="10.298170">
        <ele>1853.150</ele>
        <time>2026-07-28T11:31:49.086Z</time>
      </trkpt>
      <trkpt lat="46.247940" lon="10.298460">
        <ele>1859.863</ele>
        <time>2026-07-28T11:32:09.086Z</time>
      </trkpt>
      <trkpt lat="46.248049" lon="10.298698">
        <ele>1863.852</ele>
        <time>2026-07-28T11:32:29.086Z</time>
      </trkpt>
    </trkseg>
  </trk></gpx>