<?xml version="1.0" encoding="UTF-8"?>
<gpx xmlns:gpxdata="http://www.cluetrust.com/XML/GPXDATA/1/0" xmlns:xsi="http://www.w3.org/2001/XMLSchema-instance" xmlns="http://www.topografix.com/GPX/1/1" version="1.1" creator="http://ridewithgps.com/" xsi:schemaLocation="http://www.topografix.com/GPX/1/1 http://www.topografix.com/GPX/1/1/gpx.xsd http://www.cluetrust.com/XML/GPXDATA/1/0 http://www.cluetrust.com/Schemas/gpxdata10.xsd">
  <metadata>
    <name>Conor Pass</name>
    <link href="https://ridewithgps.com/routes/51164297">
      <text>Conor Pass</text>
    </link>
    <time>2025-06-09T14:47:57Z</time>
  </metadata>
  <trk>
    <name>Conor Pass</name>
    <trkseg>
      <trkpt lat="52.142528" lon="-10.263494">
        <ele>15.3</ele>
      </trkpt>
      <trkpt lat="52.14253" lon="-10.26349">
        <ele>15.1</ele>
      </trkpt>
      <trkpt lat="52.14263" lon="-10.26323">
        <ele>15.6</ele>
      </trkpt>
      <trkpt lat="52.14301" lon="-10.26201">
        <ele>18.7</ele>
      </trkpt>
      <trkpt lat="52.14339" lon="-10.26079">
        <ele>22.1</ele>
      </trkpt>
      <trkpt lat="52.14377" lon="-10.25957">
        <ele>24.9</ele>
      </trkpt>
      <trkpt lat="52.14415" lon="-10.25835">
        <ele>28.0</ele>
      </trkpt>
      <trkpt lat="52.14453" lon="-10.25714">
        <ele>32.7</ele>
      </trkpt>
      <trkpt lat="52.1449" lon="-10.25592">
        <ele>37.2</ele>
      </trkpt>
      <trkpt lat="52.14528" lon="-10.2547">
        <ele>42.6</ele>
      </trkpt>
      <trkpt lat="52.14566" lon="-10.25348">
        <ele>46.9</ele>
      </trkpt>
      <trkpt lat="52.14604" lon="-10.25226">
        <ele>51.4</ele>
      </trkpt>
      <trkpt lat="52.14642" lon="-10.25105">
        <ele>56.1</ele>
      </trkpt>
      <trkpt lat="52.1468" lon="-10.24983">
        <ele>61.3</ele>
      </trkpt>
      <trkpt lat="52.14718" lon="-10.24861">
        <ele>65.5</ele>
      </trkpt>
      <trkpt lat="52.14756" lon="-10.24739">
        <ele>70.4</ele>
      </trkpt>
      <trkpt lat="52.14777" lon="-10.24679">
        <ele>73.3</ele>
      </trkpt>
      <trkpt lat="52.14797" lon="-10.24624">
        <ele>76.6</ele>
      </trkpt>
      <trkpt lat="52.14834" lon="-10.24555">
        <ele>80.0</ele>
      </trkpt>
      <trkpt lat="52.14851" lon="-10.24526">
        <ele>81.8</ele>
      </trkpt>
      <trkpt lat="52.14881" lon="-10.24488">
        <ele>83.9</ele>
      </trkpt>
      <trkpt lat="52.14942" lon="-10.24431">
        <ele>87.0</ele>
      </trkpt>
      <trkpt lat="52.15017" lon="-10.24384">
        <ele>90.4</ele>
      </trkpt>
      <trkpt lat="52.15056" lon="-10.24364">
        <ele>92.9</ele>
      </trkpt>
      <trkpt lat="52.15103" lon="-10.24351">
        <ele>96.1</ele>
      </trkpt>
      <trkpt lat="52.15147" lon="-10.24351">
        <ele>99.2</ele>
      </trkpt>
      <trkpt lat="52.15169" lon="-10.24355">
        <ele>100.4</ele>
      </trkpt>
      <trkpt lat="52.15239" lon="-10.2438">
        <ele>105.0</ele>
      </trkpt>
      <trkpt lat="52.15256" lon="-10.24388">
        <ele>106.6</ele>
      </trkpt>
      <trkpt lat="52.15272" lon="-10.24398">
        <ele>108.7</ele>
      </trkpt>
      <trkpt lat="52.15287" lon="-10.24412">
        <ele>110.1</ele>
      </trkpt>
      <trkpt lat="52.15331" lon="-10.24479">
        <ele>110.9</ele>
      </trkpt>
      <trkpt lat="52.15347" lon="-10.24495">
        <ele>111.4</ele>
      </trkpt>
      <trkpt lat="52.15369" lon="-10.24512">
        <ele>112.2</ele>
      </trkpt>
      <trkpt lat="52.15434" lon="-10.24545">
        <ele>114.1</ele>
      </trkpt>
      <trkpt lat="52.1545" lon="-10.24547">
        <ele>114.4</ele>
      </trkpt>
      <trkpt lat="52.15465" lon="-10.24544">
        <ele>115.4</ele>
      </trkpt>
      <trkpt lat="52.1551" lon="-10.24519">
        <ele>120.5</ele>
      </trkpt>
      <trkpt lat="52.1556" lon="-10.24482">
        <ele>125.7</ele>
      </trkpt>
      <trkpt lat="52.15614" lon="-10.24437">
        <ele>132.1</ele>
      </trkpt>
      <trkpt lat="52.15667" lon="-10.24393">
        <ele>134.7</ele>
      </trkpt>
      <trkpt lat="52.15728" lon="-10.2436">
        <ele>137.1</ele>
      </trkpt>
      <trkpt lat="52.15804" lon="-10.24328">
        <ele>140.5</ele>
      </trkpt>
      <trkpt lat="52.15879" lon="-10.24295">
        <ele>144.5</ele>
      </trkpt>
      <trkpt lat="52.15914" lon="-10.24286">
        <ele>146.7</ele>
      </trkpt>
      <trkpt lat="52.15965" lon="-10.24277">
        <ele>154.2</ele>
      </trkpt>
      <trkpt lat="52.15976" lon="-10.24272">
        <ele>155.5</ele>
      </trkpt>
      <trkpt lat="52.15995" lon="-10.24258">
        <ele>157.1</ele>
      </trkpt>
      <trkpt lat="52.16019" lon="-10.24237">
        <ele>158.8</ele>
      </trkpt>
      <trkpt lat="52.16036" lon="-10.24225">
        <ele>160.0</ele>
      </trkpt>
      <trkpt lat="52.16075" lon="-10.24206">
        <ele>163.0</ele>
      </trkpt>
      <trkpt lat="52.16126" lon="-10.24191">
        <ele>167.7</ele>
      </trkpt>
      <trkpt lat="52.16192" lon="-10.24175">
        <ele>173.9</ele>
      </trkpt>
      <trkpt lat="52.16259" lon="-10.24158">
        <ele>179.8</ele>
      </trkpt>
      <trkpt lat="52.16344" lon="-10.24126">
        <ele>186.2</ele>
      </trkpt>
      <trkpt lat="52.16408" lon="-10.24096">
        <ele>191.6</ele>
      </trkpt>
      <trkpt lat="52.1643" lon="-10.24091">
        <ele>193.5</ele>
      </trkpt>
      <trkpt lat="52.1645" lon="-10.24092">
        <ele>195.8</ele>
      </trkpt>
      <trkpt lat="52.16477" lon="-10.24102">
        <ele>200.2</ele>
      </trkpt>
      <trkpt lat="52.16496" lon="-10.24101">
        <ele>202.1</ele>
      </trkpt>
      <trkpt lat="52.16561" lon="-10.24064">
        <ele>205.9</ele>
      </trkpt>
      <trkpt lat="52.166" lon="-10.24039">
        <ele>208.7</ele>
      </trkpt>
      <trkpt lat="52.16639" lon="-10.24019">
        <ele>212.9</ele>
      </trkpt>
      <trkpt lat="52.16718" lon="-10.23983">
        <ele>221.6</ele>
      </trkpt>
      <trkpt lat="52.16792" lon="-10.23954">
        <ele>229.7</ele>
      </trkpt>
      <trkpt lat="52.16866" lon="-10.23921">
        <ele>239.1</ele>
      </trkpt>
      <trkpt lat="52.16881" lon="-10.23912">
        <ele>241.2</ele>
      </trkpt>
      <trkpt lat="52.16895" lon="-10.239">
        <ele>242.7</ele>
      </trkpt>
      <trkpt lat="52.16911" lon="-10.23881">
        <ele>243.6</ele>
      </trkpt>
      <trkpt lat="52.16926" lon="-10.23853">
        <ele>244.1</ele>
      </trkpt>
      <trkpt lat="52.16937" lon="-10.23824">
        <ele>244.0</ele>
      </trkpt>
      <trkpt lat="52.16969" lon="-10.23772">
        <ele>248.7</ele>
      </trkpt>
      <trkpt lat="52.16975" lon="-10.2376">
        <ele>249.1</ele>
      </trkpt>
      <trkpt lat="52.16989" lon="-10.23713">
        <ele>247.6</ele>
      </trkpt>
      <trkpt lat="52.17035" lon="-10.23643">
        <ele>256.6</ele>
      </trkpt>
      <trkpt lat="52.17056" lon="-10.2358">
        <ele>258.8</ele>
      </trkpt>
      <trkpt lat="52.17083" lon="-10.23495">
        <ele>260.3</ele>
      </trkpt>
      <trkpt lat="52.17109" lon="-10.2341">
        <ele>260.2</ele>
      </trkpt>
      <trkpt lat="52.17127" lon="-10.23361">
        <ele>261.2</ele>
      </trkpt>
      <trkpt lat="52.17137" lon="-10.2334">
        <ele>262.4</ele>
      </trkpt>
      <trkpt lat="52.17143" lon="-10.23329">
        <ele>263.1</ele>
      </trkpt>
      <trkpt lat="52.17174" lon="-10.233">
        <ele>268.1</ele>
      </trkpt>
      <trkpt lat="52.17222" lon="-10.23248">
        <ele>271.6</ele>
      </trkpt>
      <trkpt lat="52.17244" lon="-10.2322">
        <ele>270.7</ele>
      </trkpt>
      <trkpt lat="52.1725" lon="-10.23204">
        <ele>270.3</ele>
      </trkpt>
      <trkpt lat="52.17252" lon="-10.23199">
        <ele>270.2</ele>
      </trkpt>
      <trkpt lat="52.17273" lon="-10.23152">
        <ele>269.1</ele>
      </trkpt>
      <trkpt lat="52.17283" lon="-10.23137">
        <ele>269.3</ele>
      </trkpt>
      <trkpt lat="52.17293" lon="-10.23126">
        <ele>269.9</ele>
      </trkpt>
      <trkpt lat="52.17313" lon="-10.23114">
        <ele>272.8</ele>
      </trkpt>
      <trkpt lat="52.17335" lon="-10.23111">
        <ele>277.3</ele>
      </trkpt>
      <trkpt lat="52.17349" lon="-10.23105">
        <ele>279.1</ele>
      </trkpt>
      <trkpt lat="52.17374" lon="-10.23087">
        <ele>281.3</ele>
      </trkpt>
      <trkpt lat="52.17428" lon="-10.23039">
        <ele>285.0</ele>
      </trkpt>
      <trkpt lat="52.17493" lon="-10.2297">
        <ele>293.5</ele>
      </trkpt>
      <trkpt lat="52.17512" lon="-10.22946">
        <ele>297.4</ele>
      </trkpt>
      <trkpt lat="52.17525" lon="-10.22927">
        <ele>300.4</ele>
      </trkpt>
      <trkpt lat="52.17534" lon="-10.22905">
        <ele>301.5</ele>
      </trkpt>
      <trkpt lat="52.17556" lon="-10.22837">
        <ele>302.9</ele>
      </trkpt>
      <trkpt lat="52.17579" lon="-10.22769">
        <ele>305.2</ele>
      </trkpt>
      <trkpt lat="52.17587" lon="-10.22736">
        <ele>305.2</ele>
      </trkpt>
      <trkpt lat="52.17597" lon="-10.22703">
        <ele>306.3</ele>
      </trkpt>
      <trkpt lat="52.17618" lon="-10.22648">
        <ele>310.5</ele>
      </trkpt>
      <trkpt lat="52.17651" lon="-10.22551">
        <ele>314.9</ele>
      </trkpt>
      <trkpt lat="52.17677" lon="-10.22487">
        <ele>319.2</ele>
      </trkpt>
      <trkpt lat="52.17703" lon="-10.22422">
        <ele>327.0</ele>
      </trkpt>
      <trkpt lat="52.17709" lon="-10.22399">
        <ele>328.0</ele>
      </trkpt>
      <trkpt lat="52.17716" lon="-10.22308">
        <ele>326.0</ele>
      </trkpt>
      <trkpt lat="52.1772" lon="-10.22281">
        <ele>327.5</ele>
      </trkpt>
      <trkpt lat="52.17733" lon="-10.22223">
        <ele>333.0</ele>
      </trkpt>
      <trkpt lat="52.17737" lon="-10.22139">
        <ele>334.5</ele>
      </trkpt>
      <trkpt lat="52.17741" lon="-10.22055">
        <ele>334.5</ele>
      </trkpt>
      <trkpt lat="52.17759" lon="-10.21967">
        <ele>339.1</ele>
      </trkpt>
      <trkpt lat="52.17773" lon="-10.21916">
        <ele>341.9</ele>
      </trkpt>
      <trkpt lat="52.1778" lon="-10.21891">
        <ele>343.0</ele>
      </trkpt>
      <trkpt lat="52.17788" lon="-10.21873">
        <ele>344.8</ele>
      </trkpt>
      <trkpt lat="52.17823" lon="-10.21811">
        <ele>352.7</ele>
      </trkpt>
      <trkpt lat="52.17845" lon="-10.21749">
        <ele>354.2</ele>
      </trkpt>
      <trkpt lat="52.17852" lon="-10.21735">
        <ele>355.1</ele>
      </trkpt>
      <trkpt lat="52.17868" lon="-10.21713">
        <ele>358.3</ele>
      </trkpt>
      <trkpt lat="52.17878" lon="-10.21692">
        <ele>359.3</ele>
      </trkpt>
      <trkpt lat="52.17885" lon="-10.2167">
        <ele>359.0</ele>
      </trkpt>
      <trkpt lat="52.17911" lon="-10.21619">
        <ele>362.9</ele>
      </trkpt>
      <trkpt lat="52.17924" lon="-10.21577">
        <ele>363.4</ele>
      </trkpt>
      <trkpt lat="52.17944" lon="-10.21533">
        <ele>367.2</ele>
      </trkpt>
      <trkpt lat="52.17958" lon="-10.2149">
        <ele>369.1</ele>
      </trkpt>
      <trkpt lat="52.17974" lon="-10.21446">
        <ele>372.9</ele>
      </trkpt>
      <trkpt lat="52.17992" lon="-10.21369">
        <ele>374.6</ele>
      </trkpt>
      <trkpt lat="52.18003" lon="-10.21332">
        <ele>376.4</ele>
      </trkpt>
      <trkpt lat="52.1802" lon="-10.21303">
        <ele>382.6</ele>
      </trkpt>
      <trkpt lat="52.18032" lon="-10.2127">
        <ele>386.0</ele>
      </trkpt>
      <trkpt lat="52.18048" lon="-10.21193">
        <ele>387.0</ele>
      </trkpt>
      <trkpt lat="52.18065" lon="-10.21116">
        <ele>389.7</ele>
      </trkpt>
      <trkpt lat="52.18084" lon="-10.21075">
        <ele>394.7</ele>
      </trkpt>
      <trkpt lat="52.18101" lon="-10.21007">
        <ele>396.4</ele>
      </trkpt>
      <trkpt lat="52.18115" lon="-10.20969">
        <ele>400.1</ele>
      </trkpt>
      <trkpt lat="52.18119" lon="-10.20955">
        <ele>401.1</ele>
      </trkpt>
      <trkpt lat="52.18127" lon="-10.20902">
        <ele>402.2</ele>
      </trkpt>
      <trkpt lat="52.1814" lon="-10.2085">
        <ele>404.1</ele>
      </trkpt>
      <trkpt lat="52.18145" lon="-10.20827">
        <ele>404.9</ele>
      </trkpt>
      <trkpt lat="52.18161" lon="-10.20772">
        <ele>408.3</ele>
      </trkpt>
    </trkseg>
  </trk>
</gpx>
