<?xml version="1.0" encoding="UTF-8"?>
<gpx creator="https://gpx.studio" version="1.1" xmlns="http://www.topografix.com/GPX/1/1" xmlns:xsi="http://www.w3.org/2001/XMLSchema-instance" xsi:schemaLocation="http://www.topografix.com/GPX/1/1 http://www.topografix.com/GPX/1/1/gpx.xsd http://www.garmin.com/xmlschemas/GpxExtensions/v3 http://www.garmin.com/xmlschemas/GpxExtensionsv3.xsd http://www.garmin.com/xmlschemas/TrackPointExtension/v1 http://www.garmin.com/xmlschemas/TrackPointExtensionv1.xsd http://www.garmin.com/xmlschemas/PowerExtension/v1 http://www.garmin.com/xmlschemas/PowerExtensionv1.xsd http://www.topografix.com/GPX/gpx_style/0/2 http://www.topografix.com/GPX/gpx_style/0/2/gpx_style.xsd" xmlns:gpxtpx="http://www.garmin.com/xmlschemas/TrackPointExtension/v1" xmlns:gpxx="http://www.garmin.com/xmlschemas/GpxExtensions/v3" xmlns:gpxpx="http://www.garmin.com/xmlschemas/PowerExtension/v1" xmlns:gpx_style="http://www.topografix.com/GPX/gpx_style/0/2">
  <metadata>
    <name>cortals_d_emcamp_gpxstudio</name>
    <author>
      <name>gpx.studio</name>
      <link href="https://gpx.studio"/>
    </author>
  </metadata>
  <trk>
    <name>cortals_d_emcamp_gpxstudio</name>
    <trkseg>
      <trkpt lat="42.504951" lon="1.525031">
        <ele>1003.82</ele>
      </trkpt>
      <trkpt lat="42.505145" lon="1.526566">
        <ele>1005.1</ele>
      </trkpt>
      <trkpt lat="42.505216" lon="1.527209">
        <ele>1006.73</ele>
      </trkpt>
      <trkpt lat="42.505228" lon="1.527372">
        <ele>1007</ele>
      </trkpt>
      <trkpt lat="42.505225" lon="1.527423">
        <ele>1007</ele>
      </trkpt>
      <trkpt lat="42.505216" lon="1.52746">
        <ele>1007</ele>
      </trkpt>
      <trkpt lat="42.505217" lon="1.527499">
        <ele>1007</ele>
      </trkpt>
      <trkpt lat="42.505239" lon="1.527557">
        <ele>1007</ele>
      </trkpt>
      <trkpt lat="42.505238" lon="1.527961">
        <ele>1007</ele>
      </trkpt>
      <trkpt lat="42.505249" lon="1.528167">
        <ele>1007.83</ele>
      </trkpt>
      <trkpt lat="42.505267" lon="1.528309">
        <ele>1008</ele>
      </trkpt>
      <trkpt lat="42.505249" lon="1.528339">
        <ele>1008</ele>
      </trkpt>
      <trkpt lat="42.50523" lon="1.528406">
        <ele>1008.22</ele>
      </trkpt>
      <trkpt lat="42.505198" lon="1.528564">
        <ele>1009</ele>
      </trkpt>
      <trkpt lat="42.505188" lon="1.528763">
        <ele>1009.29</ele>
      </trkpt>
      <trkpt lat="42.505201" lon="1.528951">
        <ele>1010.29</ele>
      </trkpt>
      <trkpt lat="42.505242" lon="1.529098">
        <ele>1010.66</ele>
      </trkpt>
      <trkpt lat="42.505298" lon="1.529253">
        <ele>1011.12</ele>
      </trkpt>
      <trkpt lat="42.505451" lon="1.529501">
        <ele>1011</ele>
      </trkpt>
      <trkpt lat="42.505529" lon="1.529665">
        <ele>1011.54</ele>
      </trkpt>
      <trkpt lat="42.505939" lon="1.531571">
        <ele>1016.62</ele>
      </trkpt>
      <trkpt lat="42.505942" lon="1.531639">
        <ele>1017</ele>
      </trkpt>
      <trkpt lat="42.505927" lon="1.531711">
        <ele>1017</ele>
      </trkpt>
      <trkpt lat="42.505915" lon="1.531794">
        <ele>1017</ele>
      </trkpt>
      <trkpt lat="42.505925" lon="1.531839">
        <ele>1017</ele>
      </trkpt>
      <trkpt lat="42.505956" lon="1.531894">
        <ele>1017</ele>
      </trkpt>
      <trkpt lat="42.505996" lon="1.53192">
        <ele>1017</ele>
      </trkpt>
      <trkpt lat="42.506039" lon="1.531923">
        <ele>1017</ele>
      </trkpt>
      <trkpt lat="42.50608" lon="1.531902">
        <ele>1017</ele>
      </trkpt>
      <trkpt lat="42.506111" lon="1.53186">
        <ele>1017</ele>
      </trkpt>
      <trkpt lat="42.506129" lon="1.531795">
        <ele>1016.96</ele>
      </trkpt>
      <trkpt lat="42.506122" lon="1.531726">
        <ele>1016.75</ele>
      </trkpt>
      <trkpt lat="42.50611" lon="1.531695">
        <ele>1016.72</ele>
      </trkpt>
      <trkpt lat="42.506448" lon="1.531477">
        <ele>1014.92</ele>
      </trkpt>
      <trkpt lat="42.506711" lon="1.532038">
        <ele>1015.34</ele>
      </trkpt>
      <trkpt lat="42.506677" lon="1.53207">
        <ele>1015.52</ele>
      </trkpt>
      <trkpt lat="42.506666" lon="1.532095">
        <ele>1015.67</ele>
      </trkpt>
      <trkpt lat="42.506664" lon="1.53215">
        <ele>1015.99</ele>
      </trkpt>
      <trkpt lat="42.506681" lon="1.532193">
        <ele>1016.24</ele>
      </trkpt>
      <trkpt lat="42.506643" lon="1.532278">
        <ele>1016.73</ele>
      </trkpt>
      <trkpt lat="42.506632" lon="1.532651">
        <ele>1018.36</ele>
      </trkpt>
      <trkpt lat="42.50664" lon="1.532762">
        <ele>1018.94</ele>
      </trkpt>
      <trkpt lat="42.506645" lon="1.532817">
        <ele>1019.22</ele>
      </trkpt>
      <trkpt lat="42.506661" lon="1.532979">
        <ele>1020.66</ele>
      </trkpt>
      <trkpt lat="42.506714" lon="1.533211">
        <ele>1022</ele>
      </trkpt>
      <trkpt lat="42.506949" lon="1.534092">
        <ele>1028.24</ele>
      </trkpt>
      <trkpt lat="42.50692" lon="1.53415">
        <ele>1028.62</ele>
      </trkpt>
      <trkpt lat="42.506859" lon="1.534197">
        <ele>1028.89</ele>
      </trkpt>
      <trkpt lat="42.507115" lon="1.534213">
        <ele>1027.63</ele>
      </trkpt>
      <trkpt lat="42.507318" lon="1.534475">
        <ele>1028.08</ele>
      </trkpt>
      <trkpt lat="42.507428" lon="1.534668">
        <ele>1028.8</ele>
      </trkpt>
      <trkpt lat="42.507617" lon="1.535121">
        <ele>1028.64</ele>
      </trkpt>
      <trkpt lat="42.507675" lon="1.535323">
        <ele>1028.9</ele>
      </trkpt>
      <trkpt lat="42.507715" lon="1.53557">
        <ele>1028.92</ele>
      </trkpt>
      <trkpt lat="42.507729" lon="1.536002">
        <ele>1029</ele>
      </trkpt>
      <trkpt lat="42.507751" lon="1.536439">
        <ele>1029.97</ele>
      </trkpt>
      <trkpt lat="42.507814" lon="1.536966">
        <ele>1032.12</ele>
      </trkpt>
      <trkpt lat="42.507843" lon="1.537109">
        <ele>1031.98</ele>
      </trkpt>
      <trkpt lat="42.507901" lon="1.537304">
        <ele>1033.38</ele>
      </trkpt>
      <trkpt lat="42.508071" lon="1.537702">
        <ele>1034.62</ele>
      </trkpt>
      <trkpt lat="42.508118" lon="1.537869">
        <ele>1035.98</ele>
      </trkpt>
      <trkpt lat="42.508717" lon="1.537883">
        <ele>1034.31</ele>
      </trkpt>
      <trkpt lat="42.508885" lon="1.537889">
        <ele>1034.36</ele>
      </trkpt>
      <trkpt lat="42.509392" lon="1.537903">
        <ele>1032.26</ele>
      </trkpt>
      <trkpt lat="42.509474" lon="1.5387">
        <ele>1036.13</ele>
      </trkpt>
      <trkpt lat="42.509443" lon="1.538725">
        <ele>1036.37</ele>
      </trkpt>
      <trkpt lat="42.50943" lon="1.538771">
        <ele>1036.78</ele>
      </trkpt>
      <trkpt lat="42.509439" lon="1.538814">
        <ele>1037.24</ele>
      </trkpt>
      <trkpt lat="42.50945" lon="1.538831">
        <ele>1037.47</ele>
      </trkpt>
      <trkpt lat="42.509481" lon="1.538848">
        <ele>1037.88</ele>
      </trkpt>
      <trkpt lat="42.509497" lon="1.538847">
        <ele>1037.98</ele>
      </trkpt>
      <trkpt lat="42.50953" lon="1.539628">
        <ele>1040</ele>
      </trkpt>
      <trkpt lat="42.509552" lon="1.539982">
        <ele>1040.22</ele>
      </trkpt>
      <trkpt lat="42.509553" lon="1.540113">
        <ele>1040.71</ele>
      </trkpt>
      <trkpt lat="42.509543" lon="1.540168">
        <ele>1041.1</ele>
      </trkpt>
      <trkpt lat="42.509534" lon="1.540212">
        <ele>1041.43</ele>
      </trkpt>
      <trkpt lat="42.509543" lon="1.540256">
        <ele>1041.67</ele>
      </trkpt>
      <trkpt lat="42.509533" lon="1.540339">
        <ele>1042.43</ele>
      </trkpt>
      <trkpt lat="42.509497" lon="1.540464">
        <ele>1043.33</ele>
      </trkpt>
      <trkpt lat="42.509376" lon="1.540681">
        <ele>1044</ele>
      </trkpt>
      <trkpt lat="42.509276" lon="1.540868">
        <ele>1044.87</ele>
      </trkpt>
      <trkpt lat="42.509181" lon="1.541194">
        <ele>1046.57</ele>
      </trkpt>
      <trkpt lat="42.50914" lon="1.541449">
        <ele>1048</ele>
      </trkpt>
      <trkpt lat="42.509076" lon="1.541973">
        <ele>1048.28</ele>
      </trkpt>
      <trkpt lat="42.509056" lon="1.542062">
        <ele>1048.96</ele>
      </trkpt>
      <trkpt lat="42.509015" lon="1.542095">
        <ele>1049.48</ele>
      </trkpt>
      <trkpt lat="42.50895" lon="1.542109">
        <ele>1049.89</ele>
      </trkpt>
      <trkpt lat="42.508913" lon="1.542153">
        <ele>1050</ele>
      </trkpt>
      <trkpt lat="42.508894" lon="1.542225">
        <ele>1050</ele>
      </trkpt>
      <trkpt lat="42.508909" lon="1.542658">
        <ele>1052.04</ele>
      </trkpt>
      <trkpt lat="42.508924" lon="1.542807">
        <ele>1052.37</ele>
      </trkpt>
      <trkpt lat="42.509005" lon="1.543355">
        <ele>1053.2</ele>
      </trkpt>
      <trkpt lat="42.509098" lon="1.543758">
        <ele>1055</ele>
      </trkpt>
      <trkpt lat="42.509125" lon="1.543937">
        <ele>1056.21</ele>
      </trkpt>
      <trkpt lat="42.509174" lon="1.544467">
        <ele>1058.42</ele>
      </trkpt>
      <trkpt lat="42.509235" lon="1.544743">
        <ele>1060.15</ele>
      </trkpt>
      <trkpt lat="42.509277" lon="1.544896">
        <ele>1061.15</ele>
      </trkpt>
      <trkpt lat="42.509461" lon="1.545416">
        <ele>1063.49</ele>
      </trkpt>
      <trkpt lat="42.509641" lon="1.545972">
        <ele>1069.02</ele>
      </trkpt>
      <trkpt lat="42.509731" lon="1.546201">
        <ele>1072.1</ele>
      </trkpt>
      <trkpt lat="42.509835" lon="1.546356">
        <ele>1074.53</ele>
      </trkpt>
      <trkpt lat="42.509896" lon="1.546399">
        <ele>1075.34</ele>
      </trkpt>
      <trkpt lat="42.509972" lon="1.54642">
        <ele>1075.82</ele>
      </trkpt>
      <trkpt lat="42.510086" lon="1.546402">
        <ele>1076.19</ele>
      </trkpt>
      <trkpt lat="42.510272" lon="1.546345">
        <ele>1077.97</ele>
      </trkpt>
      <trkpt lat="42.510389" lon="1.546323">
        <ele>1078.52</ele>
      </trkpt>
      <trkpt lat="42.510503" lon="1.546331">
        <ele>1079.68</ele>
      </trkpt>
      <trkpt lat="42.510602" lon="1.546371">
        <ele>1081.29</ele>
      </trkpt>
      <trkpt lat="42.510825" lon="1.546503">
        <ele>1083.97</ele>
      </trkpt>
      <trkpt lat="42.510948" lon="1.546614">
        <ele>1083.8</ele>
      </trkpt>
      <trkpt lat="42.511021" lon="1.546703">
        <ele>1084.12</ele>
      </trkpt>
      <trkpt lat="42.511081" lon="1.546823">
        <ele>1085.74</ele>
      </trkpt>
      <trkpt lat="42.511138" lon="1.546995">
        <ele>1087.66</ele>
      </trkpt>
      <trkpt lat="42.511357" lon="1.547805">
        <ele>1090.99</ele>
      </trkpt>
      <trkpt lat="42.511582" lon="1.548769">
        <ele>1098.38</ele>
      </trkpt>
      <trkpt lat="42.511771" lon="1.549509">
        <ele>1103.53</ele>
      </trkpt>
      <trkpt lat="42.511867" lon="1.549772">
        <ele>1105.68</ele>
      </trkpt>
      <trkpt lat="42.511947" lon="1.549954">
        <ele>1106.4</ele>
      </trkpt>
      <trkpt lat="42.511986" lon="1.550082">
        <ele>1107.24</ele>
      </trkpt>
      <trkpt lat="42.51203" lon="1.550182">
        <ele>1107.51</ele>
      </trkpt>
      <trkpt lat="42.5121" lon="1.5503">
        <ele>1108.35</ele>
      </trkpt>
      <trkpt lat="42.512151" lon="1.550462">
        <ele>1109.45</ele>
      </trkpt>
      <trkpt lat="42.512147" lon="1.550485">
        <ele>1109.59</ele>
      </trkpt>
      <trkpt lat="42.512067" lon="1.550453">
        <ele>1110.48</ele>
      </trkpt>
      <trkpt lat="42.51203" lon="1.550423">
        <ele>1110.53</ele>
      </trkpt>
      <trkpt lat="42.512067" lon="1.550509">
        <ele>1111.18</ele>
      </trkpt>
      <trkpt lat="42.512109" lon="1.550603">
        <ele>1112.26</ele>
      </trkpt>
      <trkpt lat="42.512146" lon="1.550662">
        <ele>1112.43</ele>
      </trkpt>
      <trkpt lat="42.512207" lon="1.550732">
        <ele>1113.18</ele>
      </trkpt>
      <trkpt lat="42.512413" lon="1.550906">
        <ele>1114.31</ele>
      </trkpt>
      <trkpt lat="42.512563" lon="1.551002">
        <ele>1116.13</ele>
      </trkpt>
      <trkpt lat="42.512789" lon="1.551219">
        <ele>1116.63</ele>
      </trkpt>
      <trkpt lat="42.512943" lon="1.551397">
        <ele>1118.07</ele>
      </trkpt>
      <trkpt lat="42.513016" lon="1.551504">
        <ele>1118.86</ele>
      </trkpt>
      <trkpt lat="42.513109" lon="1.551684">
        <ele>1120.84</ele>
      </trkpt>
      <trkpt lat="42.51319" lon="1.551952">
        <ele>1122.26</ele>
      </trkpt>
      <trkpt lat="42.513292" lon="1.552218">
        <ele>1123.35</ele>
      </trkpt>
      <trkpt lat="42.513397" lon="1.552462">
        <ele>1125.96</ele>
      </trkpt>
      <trkpt lat="42.513526" lon="1.552684">
        <ele>1128.25</ele>
      </trkpt>
      <trkpt lat="42.513623" lon="1.552821">
        <ele>1130.16</ele>
      </trkpt>
      <trkpt lat="42.513723" lon="1.552928">
        <ele>1131.44</ele>
      </trkpt>
      <trkpt lat="42.514014" lon="1.55317">
        <ele>1133.54</ele>
      </trkpt>
      <trkpt lat="42.514225" lon="1.553346">
        <ele>1137.16</ele>
      </trkpt>
      <trkpt lat="42.514532" lon="1.553557">
        <ele>1137.54</ele>
      </trkpt>
      <trkpt lat="42.515051" lon="1.55385">
        <ele>1142.27</ele>
      </trkpt>
      <trkpt lat="42.515561" lon="1.554101">
        <ele>1142.74</ele>
      </trkpt>
      <trkpt lat="42.515678" lon="1.554148">
        <ele>1143.44</ele>
      </trkpt>
      <trkpt lat="42.516052" lon="1.554145">
        <ele>1144.79</ele>
      </trkpt>
      <trkpt lat="42.516142" lon="1.554121">
        <ele>1145.74</ele>
      </trkpt>
      <trkpt lat="42.516391" lon="1.554011">
        <ele>1147.15</ele>
      </trkpt>
      <trkpt lat="42.516546" lon="1.553936">
        <ele>1149.46</ele>
      </trkpt>
      <trkpt lat="42.51665" lon="1.553908">
        <ele>1151.35</ele>
      </trkpt>
      <trkpt lat="42.51678" lon="1.553893">
        <ele>1152.37</ele>
      </trkpt>
      <trkpt lat="42.516938" lon="1.553932">
        <ele>1153.52</ele>
      </trkpt>
      <trkpt lat="42.51711" lon="1.554015">
        <ele>1151.91</ele>
      </trkpt>
      <trkpt lat="42.517402" lon="1.554295">
        <ele>1154.49</ele>
      </trkpt>
      <trkpt lat="42.51756" lon="1.554496">
        <ele>1155.41</ele>
      </trkpt>
      <trkpt lat="42.517692" lon="1.554687">
        <ele>1156.25</ele>
      </trkpt>
      <trkpt lat="42.517781" lon="1.554843">
        <ele>1156.89</ele>
      </trkpt>
      <trkpt lat="42.517842" lon="1.554972">
        <ele>1157.41</ele>
      </trkpt>
      <trkpt lat="42.517874" lon="1.555148">
        <ele>1159.12</ele>
      </trkpt>
      <trkpt lat="42.517879" lon="1.555285">
        <ele>1162.12</ele>
      </trkpt>
      <trkpt lat="42.51785" lon="1.555343">
        <ele>1164.13</ele>
      </trkpt>
      <trkpt lat="42.51784" lon="1.555412">
        <ele>1167.11</ele>
      </trkpt>
      <trkpt lat="42.517859" lon="1.555505">
        <ele>1171.65</ele>
      </trkpt>
      <trkpt lat="42.51789" lon="1.555554">
        <ele>1173.05</ele>
      </trkpt>
      <trkpt lat="42.517956" lon="1.555591">
        <ele>1172.49</ele>
      </trkpt>
      <trkpt lat="42.518004" lon="1.555587">
        <ele>1170.13</ele>
      </trkpt>
      <trkpt lat="42.518048" lon="1.55556">
        <ele>1166.57</ele>
      </trkpt>
      <trkpt lat="42.518082" lon="1.555513">
        <ele>1163.39</ele>
      </trkpt>
      <trkpt lat="42.518101" lon="1.555452">
        <ele>1161.39</ele>
      </trkpt>
      <trkpt lat="42.5181" lon="1.555368">
        <ele>1159.91</ele>
      </trkpt>
      <trkpt lat="42.518071" lon="1.555293">
        <ele>1158.87</ele>
      </trkpt>
      <trkpt lat="42.518246" lon="1.55499">
        <ele>1152.3</ele>
      </trkpt>
      <trkpt lat="42.518405" lon="1.554753">
        <ele>1150.6</ele>
      </trkpt>
      <trkpt lat="42.518448" lon="1.554679">
        <ele>1151.12</ele>
      </trkpt>
      <trkpt lat="42.518492" lon="1.554654">
        <ele>1151.79</ele>
      </trkpt>
      <trkpt lat="42.518548" lon="1.554662">
        <ele>1152.04</ele>
      </trkpt>
      <trkpt lat="42.518721" lon="1.554785">
        <ele>1152.68</ele>
      </trkpt>
      <trkpt lat="42.519015" lon="1.555088">
        <ele>1152.86</ele>
      </trkpt>
      <trkpt lat="42.519138" lon="1.555259">
        <ele>1152.84</ele>
      </trkpt>
      <trkpt lat="42.519228" lon="1.555454">
        <ele>1152.47</ele>
      </trkpt>
      <trkpt lat="42.519333" lon="1.555807">
        <ele>1152.33</ele>
      </trkpt>
      <trkpt lat="42.519389" lon="1.555974">
        <ele>1152.17</ele>
      </trkpt>
      <trkpt lat="42.51947" lon="1.556116">
        <ele>1152.87</ele>
      </trkpt>
      <trkpt lat="42.519548" lon="1.556218">
        <ele>1153.42</ele>
      </trkpt>
      <trkpt lat="42.51962" lon="1.556286">
        <ele>1153.99</ele>
      </trkpt>
      <trkpt lat="42.5198" lon="1.556433">
        <ele>1154.5</ele>
      </trkpt>
      <trkpt lat="42.519987" lon="1.556505">
        <ele>1155</ele>
      </trkpt>
      <trkpt lat="42.520235" lon="1.556557">
        <ele>1155.83</ele>
      </trkpt>
      <trkpt lat="42.520455" lon="1.556651">
        <ele>1156.25</ele>
      </trkpt>
      <trkpt lat="42.520633" lon="1.556747">
        <ele>1157.97</ele>
      </trkpt>
      <trkpt lat="42.520813" lon="1.556895">
        <ele>1158.4</ele>
      </trkpt>
      <trkpt lat="42.521162" lon="1.557142">
        <ele>1159.1</ele>
      </trkpt>
      <trkpt lat="42.52143" lon="1.557301">
        <ele>1160.47</ele>
      </trkpt>
      <trkpt lat="42.521588" lon="1.557441">
        <ele>1161.48</ele>
      </trkpt>
      <trkpt lat="42.52169" lon="1.557547">
        <ele>1162.1</ele>
      </trkpt>
      <trkpt lat="42.521792" lon="1.557746">
        <ele>1162.46</ele>
      </trkpt>
      <trkpt lat="42.521861" lon="1.557908">
        <ele>1162.58</ele>
      </trkpt>
      <trkpt lat="42.521975" lon="1.558274">
        <ele>1162.63</ele>
      </trkpt>
      <trkpt lat="42.522117" lon="1.558632">
        <ele>1162.69</ele>
      </trkpt>
      <trkpt lat="42.522247" lon="1.558883">
        <ele>1163</ele>
      </trkpt>
      <trkpt lat="42.522405" lon="1.559108">
        <ele>1163.23</ele>
      </trkpt>
      <trkpt lat="42.522586" lon="1.559292">
        <ele>1164.38</ele>
      </trkpt>
      <trkpt lat="42.522765" lon="1.559577">
        <ele>1165.79</ele>
      </trkpt>
      <trkpt lat="42.522883" lon="1.559842">
        <ele>1166.45</ele>
      </trkpt>
      <trkpt lat="42.523014" lon="1.560219">
        <ele>1168.39</ele>
      </trkpt>
      <trkpt lat="42.52316" lon="1.560454">
        <ele>1168.86</ele>
      </trkpt>
      <trkpt lat="42.523352" lon="1.560685">
        <ele>1170</ele>
      </trkpt>
      <trkpt lat="42.523684" lon="1.560922">
        <ele>1170</ele>
      </trkpt>
      <trkpt lat="42.523862" lon="1.561084">
        <ele>1170.45</ele>
      </trkpt>
      <trkpt lat="42.524025" lon="1.561262">
        <ele>1171.67</ele>
      </trkpt>
      <trkpt lat="42.524229" lon="1.56152">
        <ele>1172.34</ele>
      </trkpt>
      <trkpt lat="42.524415" lon="1.561739">
        <ele>1172.81</ele>
      </trkpt>
      <trkpt lat="42.524708" lon="1.56197">
        <ele>1174.44</ele>
      </trkpt>
      <trkpt lat="42.525011" lon="1.562168">
        <ele>1176.5</ele>
      </trkpt>
      <trkpt lat="42.525335" lon="1.562497">
        <ele>1180.32</ele>
      </trkpt>
      <trkpt lat="42.525505" lon="1.56272">
        <ele>1180.59</ele>
      </trkpt>
      <trkpt lat="42.525708" lon="1.563119">
        <ele>1182.99</ele>
      </trkpt>
      <trkpt lat="42.525785" lon="1.563429">
        <ele>1183</ele>
      </trkpt>
      <trkpt lat="42.52572" lon="1.563561">
        <ele>1180.71</ele>
      </trkpt>
      <trkpt lat="42.525428" lon="1.564044">
        <ele>1181</ele>
      </trkpt>
      <trkpt lat="42.525306" lon="1.564228">
        <ele>1181.57</ele>
      </trkpt>
      <trkpt lat="42.525279" lon="1.564172">
        <ele>1181.22</ele>
      </trkpt>
      <trkpt lat="42.525239" lon="1.56413">
        <ele>1180.94</ele>
      </trkpt>
      <trkpt lat="42.525192" lon="1.564107">
        <ele>1180.83</ele>
      </trkpt>
      <trkpt lat="42.525142" lon="1.564106">
        <ele>1181.14</ele>
      </trkpt>
      <trkpt lat="42.525058" lon="1.564075">
        <ele>1181.32</ele>
      </trkpt>
      <trkpt lat="42.524994" lon="1.564024">
        <ele>1181.23</ele>
      </trkpt>
      <trkpt lat="42.524934" lon="1.563941">
        <ele>1181.11</ele>
      </trkpt>
      <trkpt lat="42.525027" lon="1.56422">
        <ele>1183.41</ele>
      </trkpt>
      <trkpt lat="42.525012" lon="1.564284">
        <ele>1184.5</ele>
      </trkpt>
      <trkpt lat="42.525013" lon="1.56435">
        <ele>1185.84</ele>
      </trkpt>
      <trkpt lat="42.525025" lon="1.564404">
        <ele>1186.86</ele>
      </trkpt>
      <trkpt lat="42.525048" lon="1.56445">
        <ele>1187.22</ele>
      </trkpt>
      <trkpt lat="42.525078" lon="1.564488">
        <ele>1186.87</ele>
      </trkpt>
      <trkpt lat="42.525115" lon="1.564512">
        <ele>1186.67</ele>
      </trkpt>
      <trkpt lat="42.525253" lon="1.565011">
        <ele>1191.2</ele>
      </trkpt>
      <trkpt lat="42.525343" lon="1.565278">
        <ele>1192.11</ele>
      </trkpt>
      <trkpt lat="42.52544" lon="1.565517">
        <ele>1193.02</ele>
      </trkpt>
      <trkpt lat="42.525705" lon="1.56607">
        <ele>1194.52</ele>
      </trkpt>
      <trkpt lat="42.525865" lon="1.566359">
        <ele>1198.3</ele>
      </trkpt>
      <trkpt lat="42.526082" lon="1.56663">
        <ele>1197.47</ele>
      </trkpt>
      <trkpt lat="42.526517" lon="1.567173">
        <ele>1203.19</ele>
      </trkpt>
      <trkpt lat="42.526969" lon="1.567791">
        <ele>1207.76</ele>
      </trkpt>
      <trkpt lat="42.527077" lon="1.567994">
        <ele>1208</ele>
      </trkpt>
      <trkpt lat="42.527205" lon="1.568271">
        <ele>1209.7</ele>
      </trkpt>
      <trkpt lat="42.527334" lon="1.568549">
        <ele>1208.96</ele>
      </trkpt>
      <trkpt lat="42.527474" lon="1.568813">
        <ele>1207.88</ele>
      </trkpt>
      <trkpt lat="42.527614" lon="1.569077">
        <ele>1211.97</ele>
      </trkpt>
      <trkpt lat="42.527778" lon="1.569369">
        <ele>1222.66</ele>
      </trkpt>
      <trkpt lat="42.528865" lon="1.571023">
        <ele>1240.58</ele>
      </trkpt>
      <trkpt lat="42.529026" lon="1.571219">
        <ele>1233.06</ele>
      </trkpt>
      <trkpt lat="42.529218" lon="1.571433">
        <ele>1232.94</ele>
      </trkpt>
      <trkpt lat="42.529207" lon="1.571486">
        <ele>1234.49</ele>
      </trkpt>
      <trkpt lat="42.529206" lon="1.571541">
        <ele>1235.78</ele>
      </trkpt>
      <trkpt lat="42.529217" lon="1.571594">
        <ele>1236.91</ele>
      </trkpt>
      <trkpt lat="42.529238" lon="1.571642">
        <ele>1236.81</ele>
      </trkpt>
      <trkpt lat="42.529291" lon="1.5717">
        <ele>1235.4</ele>
      </trkpt>
      <trkpt lat="42.529358" lon="1.571721">
        <ele>1233</ele>
      </trkpt>
      <trkpt lat="42.529414" lon="1.571706">
        <ele>1231.96</ele>
      </trkpt>
      <trkpt lat="42.529574" lon="1.571842">
        <ele>1231.64</ele>
      </trkpt>
      <trkpt lat="42.529691" lon="1.571927">
        <ele>1231.3</ele>
      </trkpt>
      <trkpt lat="42.530115" lon="1.572197">
        <ele>1231.56</ele>
      </trkpt>
      <trkpt lat="42.530794" lon="1.572634">
        <ele>1234.64</ele>
      </trkpt>
      <trkpt lat="42.531152" lon="1.572877">
        <ele>1235.63</ele>
      </trkpt>
      <trkpt lat="42.531677" lon="1.57335">
        <ele>1234.94</ele>
      </trkpt>
      <trkpt lat="42.531924" lon="1.57363">
        <ele>1235.96</ele>
      </trkpt>
      <trkpt lat="42.532069" lon="1.573862">
        <ele>1236.4</ele>
      </trkpt>
      <trkpt lat="42.532269" lon="1.574289">
        <ele>1237.45</ele>
      </trkpt>
      <trkpt lat="42.532379" lon="1.574583">
        <ele>1236.6</ele>
      </trkpt>
      <trkpt lat="42.532584" lon="1.575473">
        <ele>1237.99</ele>
      </trkpt>
      <trkpt lat="42.532712" lon="1.57608">
        <ele>1238.29</ele>
      </trkpt>
      <trkpt lat="42.532819" lon="1.576868">
        <ele>1238.63</ele>
      </trkpt>
      <trkpt lat="42.532906" lon="1.577536">
        <ele>1242.58</ele>
      </trkpt>
      <trkpt lat="42.532947" lon="1.577942">
        <ele>1242.2</ele>
      </trkpt>
      <trkpt lat="42.533016" lon="1.578499">
        <ele>1243.79</ele>
      </trkpt>
      <trkpt lat="42.533247" lon="1.579341">
        <ele>1246.71</ele>
      </trkpt>
      <trkpt lat="42.533386" lon="1.579747">
        <ele>1246.55</ele>
      </trkpt>
      <trkpt lat="42.533553" lon="1.580053">
        <ele>1245.65</ele>
      </trkpt>
      <trkpt lat="42.533776" lon="1.580288">
        <ele>1246.07</ele>
      </trkpt>
      <trkpt lat="42.533822" lon="1.580366">
        <ele>1246.29</ele>
      </trkpt>
      <trkpt lat="42.533869" lon="1.580559">
        <ele>1247.48</ele>
      </trkpt>
      <trkpt lat="42.533874" lon="1.580599">
        <ele>1247.91</ele>
      </trkpt>
      <trkpt lat="42.533889" lon="1.580636">
        <ele>1248.22</ele>
      </trkpt>
      <trkpt lat="42.533911" lon="1.580664">
        <ele>1248.3</ele>
      </trkpt>
      <trkpt lat="42.53394" lon="1.58068">
        <ele>1248.18</ele>
      </trkpt>
      <trkpt lat="42.533933" lon="1.580863">
        <ele>1249.21</ele>
      </trkpt>
      <trkpt lat="42.533899" lon="1.581084">
        <ele>1250.49</ele>
      </trkpt>
      <trkpt lat="42.534002" lon="1.581244">
        <ele>1251.16</ele>
      </trkpt>
      <trkpt lat="42.534318" lon="1.581928">
        <ele>1255.43</ele>
      </trkpt>
      <trkpt lat="42.534468" lon="1.582086">
        <ele>1257.72</ele>
      </trkpt>
      <trkpt lat="42.534438" lon="1.582144">
        <ele>1258.35</ele>
      </trkpt>
      <trkpt lat="42.534437" lon="1.582203">
        <ele>1258.99</ele>
      </trkpt>
      <trkpt lat="42.534458" lon="1.582254">
        <ele>1259.29</ele>
      </trkpt>
      <trkpt lat="42.534494" lon="1.582282">
        <ele>1259.46</ele>
      </trkpt>
      <trkpt lat="42.534533" lon="1.582283">
        <ele>1259.46</ele>
      </trkpt>
      <trkpt lat="42.534568" lon="1.582259">
        <ele>1259.33</ele>
      </trkpt>
      <trkpt lat="42.534581" lon="1.58224">
        <ele>1259.21</ele>
      </trkpt>
      <trkpt lat="42.534735" lon="1.582349">
        <ele>1260.08</ele>
      </trkpt>
      <trkpt lat="42.53479" lon="1.582229">
        <ele>1259.82</ele>
      </trkpt>
      <trkpt lat="42.535082" lon="1.581886">
        <ele>1255.18</ele>
      </trkpt>
      <trkpt lat="42.535238" lon="1.581908">
        <ele>1254.51</ele>
      </trkpt>
      <trkpt lat="42.535451" lon="1.58203">
        <ele>1254.99</ele>
      </trkpt>
      <trkpt lat="42.535661" lon="1.582141">
        <ele>1257.8</ele>
      </trkpt>
      <trkpt lat="42.536093" lon="1.582307">
        <ele>1259.26</ele>
      </trkpt>
      <trkpt lat="42.536131" lon="1.582307">
        <ele>1259.21</ele>
      </trkpt>
      <trkpt lat="42.536646" lon="1.583118">
        <ele>1264.42</ele>
      </trkpt>
      <trkpt lat="42.536825" lon="1.583352">
        <ele>1266.68</ele>
      </trkpt>
      <trkpt lat="42.537124" lon="1.583776">
        <ele>1270.22</ele>
      </trkpt>
      <trkpt lat="42.537243" lon="1.583967">
        <ele>1272.25</ele>
      </trkpt>
      <trkpt lat="42.53727" lon="1.584116">
        <ele>1273.12</ele>
      </trkpt>
      <trkpt lat="42.537265" lon="1.584255">
        <ele>1273.93</ele>
      </trkpt>
      <trkpt lat="42.537232" lon="1.584391">
        <ele>1274.7</ele>
      </trkpt>
      <trkpt lat="42.537178" lon="1.584507">
        <ele>1275.19</ele>
      </trkpt>
      <trkpt lat="42.537107" lon="1.584569">
        <ele>1275.79</ele>
      </trkpt>
      <trkpt lat="42.537032" lon="1.584617">
        <ele>1276.71</ele>
      </trkpt>
      <trkpt lat="42.536231" lon="1.585022">
        <ele>1284.78</ele>
      </trkpt>
      <trkpt lat="42.535356" lon="1.585507">
        <ele>1292.55</ele>
      </trkpt>
      <trkpt lat="42.534897" lon="1.585768">
        <ele>1298.31</ele>
      </trkpt>
      <trkpt lat="42.534799" lon="1.585794">
        <ele>1299.02</ele>
      </trkpt>
      <trkpt lat="42.534707" lon="1.585778">
        <ele>1299.56</ele>
      </trkpt>
      <trkpt lat="42.534616" lon="1.58571">
        <ele>1300.48</ele>
      </trkpt>
      <trkpt lat="42.534505" lon="1.585606">
        <ele>1301.42</ele>
      </trkpt>
      <trkpt lat="42.534156" lon="1.585213">
        <ele>1304.68</ele>
      </trkpt>
      <trkpt lat="42.533902" lon="1.58499">
        <ele>1306.61</ele>
      </trkpt>
      <trkpt lat="42.533854" lon="1.584963">
        <ele>1306.8</ele>
      </trkpt>
      <trkpt lat="42.533767" lon="1.584909">
        <ele>1307.44</ele>
      </trkpt>
      <trkpt lat="42.533671" lon="1.584898">
        <ele>1308.5</ele>
      </trkpt>
      <trkpt lat="42.533591" lon="1.584902">
        <ele>1309.17</ele>
      </trkpt>
      <trkpt lat="42.533498" lon="1.584938">
        <ele>1309.85</ele>
      </trkpt>
      <trkpt lat="42.533452" lon="1.584985">
        <ele>1310.34</ele>
      </trkpt>
      <trkpt lat="42.533401" lon="1.584986">
        <ele>1310.76</ele>
      </trkpt>
      <trkpt lat="42.53317" lon="1.584853">
        <ele>1311.73</ele>
      </trkpt>
      <trkpt lat="42.533471" lon="1.585456">
        <ele>1318.14</ele>
      </trkpt>
      <trkpt lat="42.533517" lon="1.585544">
        <ele>1319.18</ele>
      </trkpt>
      <trkpt lat="42.533628" lon="1.585669">
        <ele>1318.96</ele>
      </trkpt>
      <trkpt lat="42.533863" lon="1.585832">
        <ele>1317.53</ele>
      </trkpt>
      <trkpt lat="42.534" lon="1.586003">
        <ele>1318.28</ele>
      </trkpt>
      <trkpt lat="42.53411" lon="1.58617">
        <ele>1317.53</ele>
      </trkpt>
      <trkpt lat="42.534237" lon="1.586406">
        <ele>1317.96</ele>
      </trkpt>
      <trkpt lat="42.534565" lon="1.587101">
        <ele>1322.53</ele>
      </trkpt>
      <trkpt lat="42.534689" lon="1.58732">
        <ele>1323.75</ele>
      </trkpt>
      <trkpt lat="42.534904" lon="1.587667">
        <ele>1328.63</ele>
      </trkpt>
      <trkpt lat="42.535083" lon="1.587907">
        <ele>1329.19</ele>
      </trkpt>
      <trkpt lat="42.535182" lon="1.588131">
        <ele>1329.71</ele>
      </trkpt>
      <trkpt lat="42.535183" lon="1.588195">
        <ele>1330.07</ele>
      </trkpt>
      <trkpt lat="42.535209" lon="1.588248">
        <ele>1330.46</ele>
      </trkpt>
      <trkpt lat="42.535104" lon="1.588334">
        <ele>1333.35</ele>
      </trkpt>
      <trkpt lat="42.535046" lon="1.58835">
        <ele>1334.58</ele>
      </trkpt>
      <trkpt lat="42.534971" lon="1.588333">
        <ele>1335.36</ele>
      </trkpt>
      <trkpt lat="42.534895" lon="1.588259">
        <ele>1335.26</ele>
      </trkpt>
      <trkpt lat="42.534782" lon="1.588105">
        <ele>1335.54</ele>
      </trkpt>
      <trkpt lat="42.534732" lon="1.58808">
        <ele>1336.07</ele>
      </trkpt>
      <trkpt lat="42.534493" lon="1.588065">
        <ele>1338.57</ele>
      </trkpt>
      <trkpt lat="42.534372" lon="1.588077">
        <ele>1339.93</ele>
      </trkpt>
      <trkpt lat="42.534264" lon="1.588117">
        <ele>1341.25</ele>
      </trkpt>
      <trkpt lat="42.53415" lon="1.588104">
        <ele>1342.39</ele>
      </trkpt>
      <trkpt lat="42.53406" lon="1.588062">
        <ele>1343.22</ele>
      </trkpt>
      <trkpt lat="42.533516" lon="1.587601">
        <ele>1348.93</ele>
      </trkpt>
      <trkpt lat="42.533256" lon="1.587334">
        <ele>1352.15</ele>
      </trkpt>
      <trkpt lat="42.533129" lon="1.587239">
        <ele>1354.6</ele>
      </trkpt>
      <trkpt lat="42.532923" lon="1.587016">
        <ele>1358.23</ele>
      </trkpt>
      <trkpt lat="42.532855" lon="1.58696">
        <ele>1359.52</ele>
      </trkpt>
      <trkpt lat="42.532705" lon="1.58689">
        <ele>1361.53</ele>
      </trkpt>
      <trkpt lat="42.532622" lon="1.586884">
        <ele>1363.29</ele>
      </trkpt>
      <trkpt lat="42.532435" lon="1.586892">
        <ele>1368.28</ele>
      </trkpt>
      <trkpt lat="42.532267" lon="1.586865">
        <ele>1371.01</ele>
      </trkpt>
      <trkpt lat="42.5322" lon="1.586811">
        <ele>1370.81</ele>
      </trkpt>
      <trkpt lat="42.532061" lon="1.586624">
        <ele>1370.1</ele>
      </trkpt>
      <trkpt lat="42.532004" lon="1.586592">
        <ele>1370.51</ele>
      </trkpt>
      <trkpt lat="42.531967" lon="1.586592">
        <ele>1370.95</ele>
      </trkpt>
      <trkpt lat="42.53191" lon="1.586625">
        <ele>1372.47</ele>
      </trkpt>
      <trkpt lat="42.531872" lon="1.586664">
        <ele>1374.92</ele>
      </trkpt>
      <trkpt lat="42.531842" lon="1.586719">
        <ele>1378</ele>
      </trkpt>
      <trkpt lat="42.531827" lon="1.586787">
        <ele>1381</ele>
      </trkpt>
      <trkpt lat="42.531827" lon="1.586856">
        <ele>1383.41</ele>
      </trkpt>
      <trkpt lat="42.53184" lon="1.5869">
        <ele>1384.82</ele>
      </trkpt>
      <trkpt lat="42.531895" lon="1.586959">
        <ele>1385</ele>
      </trkpt>
      <trkpt lat="42.532057" lon="1.587061">
        <ele>1383.02</ele>
      </trkpt>
      <trkpt lat="42.532222" lon="1.58719">
        <ele>1381.77</ele>
      </trkpt>
      <trkpt lat="42.532304" lon="1.58727">
        <ele>1381.23</ele>
      </trkpt>
      <trkpt lat="42.532356" lon="1.587333">
        <ele>1381.11</ele>
      </trkpt>
      <trkpt lat="42.532391" lon="1.587393">
        <ele>1381.01</ele>
      </trkpt>
      <trkpt lat="42.532404" lon="1.587491">
        <ele>1381.35</ele>
      </trkpt>
      <trkpt lat="42.532403" lon="1.587607">
        <ele>1382.52</ele>
      </trkpt>
      <trkpt lat="42.532371" lon="1.588167">
        <ele>1388.16</ele>
      </trkpt>
      <trkpt lat="42.532361" lon="1.588495">
        <ele>1392.75</ele>
      </trkpt>
      <trkpt lat="42.532385" lon="1.588599">
        <ele>1394.23</ele>
      </trkpt>
      <trkpt lat="42.532418" lon="1.5887">
        <ele>1396.1</ele>
      </trkpt>
      <trkpt lat="42.532466" lon="1.588786">
        <ele>1397.59</ele>
      </trkpt>
      <trkpt lat="42.532621" lon="1.588976">
        <ele>1398.26</ele>
      </trkpt>
      <trkpt lat="42.532674" lon="1.589067">
        <ele>1397.89</ele>
      </trkpt>
      <trkpt lat="42.532715" lon="1.589186">
        <ele>1399.21</ele>
      </trkpt>
      <trkpt lat="42.53274" lon="1.589296">
        <ele>1400.74</ele>
      </trkpt>
      <trkpt lat="42.532773" lon="1.589672">
        <ele>1404.18</ele>
      </trkpt>
      <trkpt lat="42.532758" lon="1.590212">
        <ele>1406.44</ele>
      </trkpt>
      <trkpt lat="42.532724" lon="1.590315">
        <ele>1408.49</ele>
      </trkpt>
      <trkpt lat="42.532696" lon="1.590458">
        <ele>1410.73</ele>
      </trkpt>
      <trkpt lat="42.532657" lon="1.590563">
        <ele>1412.78</ele>
      </trkpt>
      <trkpt lat="42.532572" lon="1.590758">
        <ele>1415.59</ele>
      </trkpt>
      <trkpt lat="42.532357" lon="1.591185">
        <ele>1420.15</ele>
      </trkpt>
      <trkpt lat="42.532184" lon="1.591487">
        <ele>1424.47</ele>
      </trkpt>
      <trkpt lat="42.531936" lon="1.591852">
        <ele>1430.16</ele>
      </trkpt>
      <trkpt lat="42.531852" lon="1.592073">
        <ele>1430.77</ele>
      </trkpt>
      <trkpt lat="42.531839" lon="1.592322">
        <ele>1434.48</ele>
      </trkpt>
      <trkpt lat="42.531878" lon="1.592571">
        <ele>1440.48</ele>
      </trkpt>
      <trkpt lat="42.531901" lon="1.592663">
        <ele>1442.7</ele>
      </trkpt>
      <trkpt lat="42.531949" lon="1.592782">
        <ele>1445.34</ele>
      </trkpt>
      <trkpt lat="42.531983" lon="1.592842">
        <ele>1445.81</ele>
      </trkpt>
      <trkpt lat="42.53203" lon="1.592902">
        <ele>1445.14</ele>
      </trkpt>
      <trkpt lat="42.532106" lon="1.592951">
        <ele>1442.53</ele>
      </trkpt>
      <trkpt lat="42.532171" lon="1.592954">
        <ele>1439.02</ele>
      </trkpt>
      <trkpt lat="42.532239" lon="1.592934">
        <ele>1439.96</ele>
      </trkpt>
      <trkpt lat="42.5323" lon="1.592891">
        <ele>1440.5</ele>
      </trkpt>
      <trkpt lat="42.532479" lon="1.592706">
        <ele>1442.95</ele>
      </trkpt>
      <trkpt lat="42.532862" lon="1.592496">
        <ele>1446.54</ele>
      </trkpt>
      <trkpt lat="42.532954" lon="1.592472">
        <ele>1447.51</ele>
      </trkpt>
      <trkpt lat="42.533115" lon="1.59247">
        <ele>1447.46</ele>
      </trkpt>
      <trkpt lat="42.533381" lon="1.592547">
        <ele>1452.02</ele>
      </trkpt>
      <trkpt lat="42.533512" lon="1.592532">
        <ele>1454.12</ele>
      </trkpt>
      <trkpt lat="42.533703" lon="1.592441">
        <ele>1456.09</ele>
      </trkpt>
      <trkpt lat="42.533777" lon="1.592375">
        <ele>1455.84</ele>
      </trkpt>
      <trkpt lat="42.533898" lon="1.592246">
        <ele>1455.07</ele>
      </trkpt>
      <trkpt lat="42.533982" lon="1.592181">
        <ele>1455.23</ele>
      </trkpt>
      <trkpt lat="42.534029" lon="1.592165">
        <ele>1456.15</ele>
      </trkpt>
      <trkpt lat="42.534122" lon="1.592178">
        <ele>1457.56</ele>
      </trkpt>
      <trkpt lat="42.534213" lon="1.592215">
        <ele>1457.78</ele>
      </trkpt>
      <trkpt lat="42.534273" lon="1.592266">
        <ele>1457.37</ele>
      </trkpt>
      <trkpt lat="42.534333" lon="1.592383">
        <ele>1458.64</ele>
      </trkpt>
      <trkpt lat="42.534421" lon="1.592588">
        <ele>1461.53</ele>
      </trkpt>
      <trkpt lat="42.534503" lon="1.592737">
        <ele>1463.96</ele>
      </trkpt>
      <trkpt lat="42.534593" lon="1.592856">
        <ele>1466.24</ele>
      </trkpt>
      <trkpt lat="42.534821" lon="1.593051">
        <ele>1467.55</ele>
      </trkpt>
      <trkpt lat="42.535011" lon="1.593289">
        <ele>1469.32</ele>
      </trkpt>
      <trkpt lat="42.535132" lon="1.593364">
        <ele>1468.43</ele>
      </trkpt>
      <trkpt lat="42.535161" lon="1.593402">
        <ele>1468.54</ele>
      </trkpt>
      <trkpt lat="42.535179" lon="1.593467">
        <ele>1469.27</ele>
      </trkpt>
      <trkpt lat="42.535169" lon="1.593523">
        <ele>1470.48</ele>
      </trkpt>
      <trkpt lat="42.535147" lon="1.593579">
        <ele>1471.98</ele>
      </trkpt>
      <trkpt lat="42.535102" lon="1.593622">
        <ele>1473.8</ele>
      </trkpt>
      <trkpt lat="42.535062" lon="1.593636">
        <ele>1474.59</ele>
      </trkpt>
      <trkpt lat="42.534987" lon="1.59362">
        <ele>1474.91</ele>
      </trkpt>
      <trkpt lat="42.534906" lon="1.593577">
        <ele>1475.58</ele>
      </trkpt>
      <trkpt lat="42.534637" lon="1.593329">
        <ele>1479.62</ele>
      </trkpt>
      <trkpt lat="42.534311" lon="1.593157">
        <ele>1482.77</ele>
      </trkpt>
      <trkpt lat="42.534135" lon="1.593054">
        <ele>1483.43</ele>
      </trkpt>
      <trkpt lat="42.534032" lon="1.59296">
        <ele>1482.48</ele>
      </trkpt>
      <trkpt lat="42.533991" lon="1.592954">
        <ele>1482.21</ele>
      </trkpt>
      <trkpt lat="42.533944" lon="1.592971">
        <ele>1482.39</ele>
      </trkpt>
      <trkpt lat="42.5339" lon="1.593017">
        <ele>1482.41</ele>
      </trkpt>
      <trkpt lat="42.53388" lon="1.593068">
        <ele>1483.12</ele>
      </trkpt>
      <trkpt lat="42.53388" lon="1.593132">
        <ele>1484.62</ele>
      </trkpt>
      <trkpt lat="42.533906" lon="1.593208">
        <ele>1486.61</ele>
      </trkpt>
      <trkpt lat="42.533965" lon="1.593262">
        <ele>1488.49</ele>
      </trkpt>
      <trkpt lat="42.53409" lon="1.593276">
        <ele>1490.21</ele>
      </trkpt>
      <trkpt lat="42.534154" lon="1.593302">
        <ele>1489.82</ele>
      </trkpt>
      <trkpt lat="42.534201" lon="1.593351">
        <ele>1490.22</ele>
      </trkpt>
      <trkpt lat="42.534234" lon="1.593409">
        <ele>1491.05</ele>
      </trkpt>
      <trkpt lat="42.534257" lon="1.59348">
        <ele>1492.32</ele>
      </trkpt>
      <trkpt lat="42.5343" lon="1.593808">
        <ele>1497.01</ele>
      </trkpt>
      <trkpt lat="42.534326" lon="1.593895">
        <ele>1497.91</ele>
      </trkpt>
      <trkpt lat="42.534358" lon="1.593978">
        <ele>1499.8</ele>
      </trkpt>
      <trkpt lat="42.534466" lon="1.594135">
        <ele>1502.45</ele>
      </trkpt>
      <trkpt lat="42.534567" lon="1.594288">
        <ele>1502.54</ele>
      </trkpt>
      <trkpt lat="42.5346" lon="1.594382">
        <ele>1503.42</ele>
      </trkpt>
      <trkpt lat="42.534624" lon="1.594489">
        <ele>1505.24</ele>
      </trkpt>
      <trkpt lat="42.534647" lon="1.59465">
        <ele>1508.61</ele>
      </trkpt>
      <trkpt lat="42.534676" lon="1.594786">
        <ele>1511.16</ele>
      </trkpt>
      <trkpt lat="42.534711" lon="1.594871">
        <ele>1512.14</ele>
      </trkpt>
      <trkpt lat="42.534755" lon="1.594951">
        <ele>1513.57</ele>
      </trkpt>
      <trkpt lat="42.53492" lon="1.595085">
        <ele>1515.98</ele>
      </trkpt>
      <trkpt lat="42.53536" lon="1.595361">
        <ele>1517.1</ele>
      </trkpt>
      <trkpt lat="42.535397" lon="1.595398">
        <ele>1517.11</ele>
      </trkpt>
      <trkpt lat="42.535418" lon="1.595463">
        <ele>1518.23</ele>
      </trkpt>
      <trkpt lat="42.535424" lon="1.595523">
        <ele>1519.88</ele>
      </trkpt>
      <trkpt lat="42.535405" lon="1.595591">
        <ele>1522.16</ele>
      </trkpt>
      <trkpt lat="42.53537" lon="1.595649">
        <ele>1524.68</ele>
      </trkpt>
      <trkpt lat="42.535343" lon="1.595665">
        <ele>1525.8</ele>
      </trkpt>
      <trkpt lat="42.535225" lon="1.595654">
        <ele>1527.42</ele>
      </trkpt>
      <trkpt lat="42.535118" lon="1.595624">
        <ele>1527.72</ele>
      </trkpt>
      <trkpt lat="42.535005" lon="1.595608">
        <ele>1527.73</ele>
      </trkpt>
      <trkpt lat="42.534818" lon="1.59562">
        <ele>1529.15</ele>
      </trkpt>
      <trkpt lat="42.534719" lon="1.595616">
        <ele>1529.84</ele>
      </trkpt>
      <trkpt lat="42.534657" lon="1.595593">
        <ele>1530.64</ele>
      </trkpt>
      <trkpt lat="42.534587" lon="1.595549">
        <ele>1531.21</ele>
      </trkpt>
      <trkpt lat="42.534494" lon="1.595437">
        <ele>1532.17</ele>
      </trkpt>
      <trkpt lat="42.534389" lon="1.595292">
        <ele>1533.4</ele>
      </trkpt>
      <trkpt lat="42.534345" lon="1.595208">
        <ele>1534</ele>
      </trkpt>
      <trkpt lat="42.534315" lon="1.595123">
        <ele>1533.97</ele>
      </trkpt>
      <trkpt lat="42.534228" lon="1.594943">
        <ele>1534.16</ele>
      </trkpt>
      <trkpt lat="42.534163" lon="1.594874">
        <ele>1534.59</ele>
      </trkpt>
      <trkpt lat="42.53408" lon="1.594815">
        <ele>1534.78</ele>
      </trkpt>
      <trkpt lat="42.534004" lon="1.594811">
        <ele>1534.8</ele>
      </trkpt>
      <trkpt lat="42.533839" lon="1.594982">
        <ele>1539.08</ele>
      </trkpt>
      <trkpt lat="42.533379" lon="1.595613">
        <ele>1546.87</ele>
      </trkpt>
      <trkpt lat="42.533204" lon="1.595874">
        <ele>1550.99</ele>
      </trkpt>
      <trkpt lat="42.53306" lon="1.596026">
        <ele>1553.23</ele>
      </trkpt>
      <trkpt lat="42.53294" lon="1.596099">
        <ele>1552.94</ele>
      </trkpt>
      <trkpt lat="42.532833" lon="1.596179">
        <ele>1553.74</ele>
      </trkpt>
      <trkpt lat="42.532795" lon="1.596233">
        <ele>1554.77</ele>
      </trkpt>
      <trkpt lat="42.532784" lon="1.596274">
        <ele>1555.88</ele>
      </trkpt>
      <trkpt lat="42.532785" lon="1.596317">
        <ele>1557.21</ele>
      </trkpt>
      <trkpt lat="42.532802" lon="1.596372">
        <ele>1559.25</ele>
      </trkpt>
      <trkpt lat="42.532831" lon="1.596396">
        <ele>1560.61</ele>
      </trkpt>
      <trkpt lat="42.532882" lon="1.596404">
        <ele>1561.93</ele>
      </trkpt>
      <trkpt lat="42.533002" lon="1.596296">
        <ele>1561.36</ele>
      </trkpt>
      <trkpt lat="42.533135" lon="1.59621">
        <ele>1562.48</ele>
      </trkpt>
      <trkpt lat="42.53341" lon="1.596071">
        <ele>1564.25</ele>
      </trkpt>
      <trkpt lat="42.533524" lon="1.596041">
        <ele>1565.06</ele>
      </trkpt>
      <trkpt lat="42.533731" lon="1.596026">
        <ele>1567.34</ele>
      </trkpt>
      <trkpt lat="42.533971" lon="1.595955">
        <ele>1568.77</ele>
      </trkpt>
      <trkpt lat="42.534026" lon="1.595962">
        <ele>1568.97</ele>
      </trkpt>
      <trkpt lat="42.534054" lon="1.595977">
        <ele>1569.24</ele>
      </trkpt>
      <trkpt lat="42.534079" lon="1.596014">
        <ele>1569.59</ele>
      </trkpt>
      <trkpt lat="42.534092" lon="1.596066">
        <ele>1570.04</ele>
      </trkpt>
      <trkpt lat="42.534084" lon="1.596131">
        <ele>1571.53</ele>
      </trkpt>
      <trkpt lat="42.534061" lon="1.596179">
        <ele>1573.52</ele>
      </trkpt>
      <trkpt lat="42.534015" lon="1.596231">
        <ele>1575.09</ele>
      </trkpt>
      <trkpt lat="42.53387" lon="1.596343">
        <ele>1577.75</ele>
      </trkpt>
      <trkpt lat="42.533725" lon="1.596475">
        <ele>1581.14</ele>
      </trkpt>
      <trkpt lat="42.533659" lon="1.596516">
        <ele>1582.04</ele>
      </trkpt>
      <trkpt lat="42.533494" lon="1.596552">
        <ele>1581.97</ele>
      </trkpt>
      <trkpt lat="42.533446" lon="1.596588">
        <ele>1582.86</ele>
      </trkpt>
      <trkpt lat="42.533377" lon="1.596662">
        <ele>1584.38</ele>
      </trkpt>
      <trkpt lat="42.533317" lon="1.596751">
        <ele>1586.01</ele>
      </trkpt>
      <trkpt lat="42.533101" lon="1.597027">
        <ele>1589.74</ele>
      </trkpt>
      <trkpt lat="42.532957" lon="1.597174">
        <ele>1594.57</ele>
      </trkpt>
      <trkpt lat="42.532882" lon="1.597199">
        <ele>1596.15</ele>
      </trkpt>
      <trkpt lat="42.532742" lon="1.597181">
        <ele>1596.79</ele>
      </trkpt>
      <trkpt lat="42.532582" lon="1.597097">
        <ele>1595.58</ele>
      </trkpt>
      <trkpt lat="42.532433" lon="1.59705">
        <ele>1594.52</ele>
      </trkpt>
      <trkpt lat="42.53241" lon="1.597059">
        <ele>1594.82</ele>
      </trkpt>
      <trkpt lat="42.532275" lon="1.597168">
        <ele>1597.35</ele>
      </trkpt>
      <trkpt lat="42.532112" lon="1.59736">
        <ele>1597.92</ele>
      </trkpt>
      <trkpt lat="42.531843" lon="1.597743">
        <ele>1597.82</ele>
      </trkpt>
      <trkpt lat="42.531678" lon="1.59809">
        <ele>1598.78</ele>
      </trkpt>
      <trkpt lat="42.531662" lon="1.598152">
        <ele>1599.1</ele>
      </trkpt>
      <trkpt lat="42.531604" lon="1.598477">
        <ele>1603.52</ele>
      </trkpt>
      <trkpt lat="42.531557" lon="1.598739">
        <ele>1604.45</ele>
      </trkpt>
      <trkpt lat="42.531462" lon="1.599148">
        <ele>1608.17</ele>
      </trkpt>
      <trkpt lat="42.531412" lon="1.599602">
        <ele>1611.33</ele>
      </trkpt>
      <trkpt lat="42.53135" lon="1.600368">
        <ele>1618.13</ele>
      </trkpt>
      <trkpt lat="42.531355" lon="1.600465">
        <ele>1618.74</ele>
      </trkpt>
      <trkpt lat="42.531404" lon="1.600579">
        <ele>1619.79</ele>
      </trkpt>
      <trkpt lat="42.531456" lon="1.600621">
        <ele>1620.75</ele>
      </trkpt>
      <trkpt lat="42.531519" lon="1.600645">
        <ele>1621.89</ele>
      </trkpt>
      <trkpt lat="42.531594" lon="1.600643">
        <ele>1623.19</ele>
      </trkpt>
      <trkpt lat="42.531643" lon="1.600626">
        <ele>1623.87</ele>
      </trkpt>
      <trkpt lat="42.531694" lon="1.600584">
        <ele>1625.5</ele>
      </trkpt>
      <trkpt lat="42.531741" lon="1.600517">
        <ele>1627.42</ele>
      </trkpt>
      <trkpt lat="42.531781" lon="1.600435">
        <ele>1628.56</ele>
      </trkpt>
      <trkpt lat="42.53187" lon="1.600106">
        <ele>1629.3</ele>
      </trkpt>
      <trkpt lat="42.532007" lon="1.599886">
        <ele>1631.83</ele>
      </trkpt>
      <trkpt lat="42.53245" lon="1.599233">
        <ele>1637.43</ele>
      </trkpt>
      <trkpt lat="42.532628" lon="1.598952">
        <ele>1642.35</ele>
      </trkpt>
      <trkpt lat="42.532681" lon="1.598833">
        <ele>1643.24</ele>
      </trkpt>
      <trkpt lat="42.532847" lon="1.598316">
        <ele>1641.46</ele>
      </trkpt>
      <trkpt lat="42.532885" lon="1.598235">
        <ele>1641.67</ele>
      </trkpt>
      <trkpt lat="42.532921" lon="1.598184">
        <ele>1642.15</ele>
      </trkpt>
      <trkpt lat="42.532964" lon="1.598169">
        <ele>1642.58</ele>
      </trkpt>
      <trkpt lat="42.533009" lon="1.598173">
        <ele>1643.38</ele>
      </trkpt>
      <trkpt lat="42.53305" lon="1.598197">
        <ele>1644.78</ele>
      </trkpt>
      <trkpt lat="42.533083" lon="1.598238">
        <ele>1646.15</ele>
      </trkpt>
      <trkpt lat="42.533108" lon="1.598306">
        <ele>1648.14</ele>
      </trkpt>
      <trkpt lat="42.533108" lon="1.598397">
        <ele>1650.23</ele>
      </trkpt>
      <trkpt lat="42.533079" lon="1.598473">
        <ele>1650.74</ele>
      </trkpt>
      <trkpt lat="42.533017" lon="1.598552">
        <ele>1650.03</ele>
      </trkpt>
      <trkpt lat="42.532962" lon="1.598606">
        <ele>1649.99</ele>
      </trkpt>
      <trkpt lat="42.53291" lon="1.598685">
        <ele>1650.33</ele>
      </trkpt>
      <trkpt lat="42.532878" lon="1.598783">
        <ele>1651.73</ele>
      </trkpt>
      <trkpt lat="42.532844" lon="1.598938">
        <ele>1653.75</ele>
      </trkpt>
      <trkpt lat="42.532783" lon="1.599276">
        <ele>1656.36</ele>
      </trkpt>
      <trkpt lat="42.532728" lon="1.599519">
        <ele>1657.4</ele>
      </trkpt>
      <trkpt lat="42.532681" lon="1.599777">
        <ele>1659.85</ele>
      </trkpt>
      <trkpt lat="42.532656" lon="1.599962">
        <ele>1662.53</ele>
      </trkpt>
      <trkpt lat="42.53262" lon="1.600328">
        <ele>1666.27</ele>
      </trkpt>
      <trkpt lat="42.53258" lon="1.600648">
        <ele>1669.29</ele>
      </trkpt>
      <trkpt lat="42.532559" lon="1.600904">
        <ele>1671.91</ele>
      </trkpt>
      <trkpt lat="42.532545" lon="1.601213">
        <ele>1674.63</ele>
      </trkpt>
      <trkpt lat="42.532546" lon="1.601652">
        <ele>1678.89</ele>
      </trkpt>
      <trkpt lat="42.53253" lon="1.60219">
        <ele>1682.83</ele>
      </trkpt>
      <trkpt lat="42.532506" lon="1.602663">
        <ele>1685.1</ele>
      </trkpt>
      <trkpt lat="42.53246" lon="1.603368">
        <ele>1691.06</ele>
      </trkpt>
      <trkpt lat="42.532377" lon="1.604067">
        <ele>1696.56</ele>
      </trkpt>
      <trkpt lat="42.53215" lon="1.605124">
        <ele>1706.97</ele>
      </trkpt>
      <trkpt lat="42.532002" lon="1.605746">
        <ele>1712.56</ele>
      </trkpt>
      <trkpt lat="42.531948" lon="1.605883">
        <ele>1713.11</ele>
      </trkpt>
      <trkpt lat="42.531844" lon="1.606085">
        <ele>1714.1</ele>
      </trkpt>
      <trkpt lat="42.531556" lon="1.606538">
        <ele>1718.75</ele>
      </trkpt>
      <trkpt lat="42.531349" lon="1.606889">
        <ele>1721.35</ele>
      </trkpt>
      <trkpt lat="42.531282" lon="1.606986">
        <ele>1722.43</ele>
      </trkpt>
      <trkpt lat="42.531217" lon="1.607044">
        <ele>1724.11</ele>
      </trkpt>
      <trkpt lat="42.53098" lon="1.607185">
        <ele>1728.46</ele>
      </trkpt>
      <trkpt lat="42.530496" lon="1.607438">
        <ele>1734.44</ele>
      </trkpt>
      <trkpt lat="42.530217" lon="1.607611">
        <ele>1736.91</ele>
      </trkpt>
      <trkpt lat="42.530106" lon="1.607704">
        <ele>1737.68</ele>
      </trkpt>
      <trkpt lat="42.530085" lon="1.60774">
        <ele>1738.22</ele>
      </trkpt>
      <trkpt lat="42.530077" lon="1.607778">
        <ele>1738.89</ele>
      </trkpt>
      <trkpt lat="42.530083" lon="1.607838">
        <ele>1740.29</ele>
      </trkpt>
      <trkpt lat="42.530104" lon="1.607879">
        <ele>1741.98</ele>
      </trkpt>
      <trkpt lat="42.530137" lon="1.607905">
        <ele>1743.49</ele>
      </trkpt>
      <trkpt lat="42.530176" lon="1.60791">
        <ele>1744.4</ele>
      </trkpt>
      <trkpt lat="42.530292" lon="1.60785">
        <ele>1744.3</ele>
      </trkpt>
      <trkpt lat="42.530403" lon="1.607805">
        <ele>1745.15</ele>
      </trkpt>
      <trkpt lat="42.530505" lon="1.607795">
        <ele>1745.77</ele>
      </trkpt>
      <trkpt lat="42.530802" lon="1.607804">
        <ele>1749.42</ele>
      </trkpt>
      <trkpt lat="42.531083" lon="1.607877">
        <ele>1753.19</ele>
      </trkpt>
      <trkpt lat="42.531329" lon="1.607974">
        <ele>1756.71</ele>
      </trkpt>
      <trkpt lat="42.531401" lon="1.607982">
        <ele>1758.12</ele>
      </trkpt>
      <trkpt lat="42.531457" lon="1.60797">
        <ele>1758.6</ele>
      </trkpt>
      <trkpt lat="42.5315" lon="1.607947">
        <ele>1758.48</ele>
      </trkpt>
      <trkpt lat="42.531612" lon="1.607869">
        <ele>1757.84</ele>
      </trkpt>
      <trkpt lat="42.531651" lon="1.607877">
        <ele>1758.83</ele>
      </trkpt>
      <trkpt lat="42.531678" lon="1.607895">
        <ele>1759.98</ele>
      </trkpt>
      <trkpt lat="42.531704" lon="1.607942">
        <ele>1762.03</ele>
      </trkpt>
      <trkpt lat="42.531711" lon="1.607981">
        <ele>1763.31</ele>
      </trkpt>
      <trkpt lat="42.531708" lon="1.608026">
        <ele>1764.6</ele>
      </trkpt>
      <trkpt lat="42.531694" lon="1.60807">
        <ele>1765.82</ele>
      </trkpt>
      <trkpt lat="42.531675" lon="1.6081">
        <ele>1766.33</ele>
      </trkpt>
      <trkpt lat="42.531629" lon="1.608135">
        <ele>1766.88</ele>
      </trkpt>
      <trkpt lat="42.531472" lon="1.608228">
        <ele>1768.12</ele>
      </trkpt>
      <trkpt lat="42.531361" lon="1.60828">
        <ele>1768.91</ele>
      </trkpt>
      <trkpt lat="42.531286" lon="1.608301">
        <ele>1769.15</ele>
      </trkpt>
      <trkpt lat="42.531115" lon="1.608316">
        <ele>1769.09</ele>
      </trkpt>
      <trkpt lat="42.531008" lon="1.608313">
        <ele>1768.84</ele>
      </trkpt>
      <trkpt lat="42.53096" lon="1.608323">
        <ele>1768.74</ele>
      </trkpt>
      <trkpt lat="42.530923" lon="1.608353">
        <ele>1769.3</ele>
      </trkpt>
      <trkpt lat="42.530904" lon="1.608387">
        <ele>1769.94</ele>
      </trkpt>
      <trkpt lat="42.530892" lon="1.608438">
        <ele>1771.03</ele>
      </trkpt>
      <trkpt lat="42.530897" lon="1.608502">
        <ele>1772.56</ele>
      </trkpt>
      <trkpt lat="42.530919" lon="1.608551">
        <ele>1773.99</ele>
      </trkpt>
      <trkpt lat="42.530947" lon="1.608581">
        <ele>1775.04</ele>
      </trkpt>
      <trkpt lat="42.530993" lon="1.608597">
        <ele>1775.91</ele>
      </trkpt>
      <trkpt lat="42.531183" lon="1.608552">
        <ele>1776.75</ele>
      </trkpt>
      <trkpt lat="42.531509" lon="1.608518">
        <ele>1781.3</ele>
      </trkpt>
      <trkpt lat="42.53168" lon="1.608479">
        <ele>1782.62</ele>
      </trkpt>
      <trkpt lat="42.531816" lon="1.608405">
        <ele>1783.69</ele>
      </trkpt>
      <trkpt lat="42.531998" lon="1.608268">
        <ele>1785.16</ele>
      </trkpt>
      <trkpt lat="42.532188" lon="1.608081">
        <ele>1786.46</ele>
      </trkpt>
      <trkpt lat="42.53232" lon="1.607931">
        <ele>1787.08</ele>
      </trkpt>
      <trkpt lat="42.532544" lon="1.60765">
        <ele>1789.39</ele>
      </trkpt>
      <trkpt lat="42.532705" lon="1.607424">
        <ele>1791.6</ele>
      </trkpt>
      <trkpt lat="42.532818" lon="1.607239">
        <ele>1792.06</ele>
      </trkpt>
      <trkpt lat="42.533106" lon="1.606748">
        <ele>1796.43</ele>
      </trkpt>
      <trkpt lat="42.533514" lon="1.605949">
        <ele>1802.78</ele>
      </trkpt>
      <trkpt lat="42.53369" lon="1.605537">
        <ele>1805.9</ele>
      </trkpt>
      <trkpt lat="42.533893" lon="1.604987">
        <ele>1808.01</ele>
      </trkpt>
      <trkpt lat="42.534016" lon="1.604576">
        <ele>1809.45</ele>
      </trkpt>
      <trkpt lat="42.534107" lon="1.604218">
        <ele>1809.09</ele>
      </trkpt>
      <trkpt lat="42.534151" lon="1.604012">
        <ele>1809.27</ele>
      </trkpt>
      <trkpt lat="42.534186" lon="1.60389">
        <ele>1809.68</ele>
      </trkpt>
      <trkpt lat="42.534212" lon="1.603836">
        <ele>1810.1</ele>
      </trkpt>
      <trkpt lat="42.534248" lon="1.603792">
        <ele>1810.39</ele>
      </trkpt>
      <trkpt lat="42.534287" lon="1.603778">
        <ele>1810.7</ele>
      </trkpt>
      <trkpt lat="42.53432" lon="1.60378">
        <ele>1810.96</ele>
      </trkpt>
      <trkpt lat="42.534363" lon="1.603805">
        <ele>1810.59</ele>
      </trkpt>
      <trkpt lat="42.534398" lon="1.603875">
        <ele>1810.43</ele>
      </trkpt>
      <trkpt lat="42.534406" lon="1.603975">
        <ele>1810.58</ele>
      </trkpt>
      <trkpt lat="42.534389" lon="1.60411">
        <ele>1811</ele>
      </trkpt>
      <trkpt lat="42.534338" lon="1.604345">
        <ele>1812.47</ele>
      </trkpt>
      <trkpt lat="42.534293" lon="1.604712">
        <ele>1814.26</ele>
      </trkpt>
      <trkpt lat="42.534208" lon="1.605177">
        <ele>1817.25</ele>
      </trkpt>
      <trkpt lat="42.533806" lon="1.606783">
        <ele>1827.9</ele>
      </trkpt>
      <trkpt lat="42.533741" lon="1.607127">
        <ele>1830.7</ele>
      </trkpt>
      <trkpt lat="42.533647" lon="1.607745">
        <ele>1834.23</ele>
      </trkpt>
      <trkpt lat="42.533572" lon="1.608523">
        <ele>1840.73</ele>
      </trkpt>
      <trkpt lat="42.533523" lon="1.609362">
        <ele>1847.12</ele>
      </trkpt>
      <trkpt lat="42.533517" lon="1.609686">
        <ele>1849.59</ele>
      </trkpt>
      <trkpt lat="42.533532" lon="1.610412">
        <ele>1856.06</ele>
      </trkpt>
      <trkpt lat="42.533552" lon="1.610721">
        <ele>1858.2</ele>
      </trkpt>
      <trkpt lat="42.533641" lon="1.611448">
        <ele>1863.65</ele>
      </trkpt>
      <trkpt lat="42.533729" lon="1.612086">
        <ele>1868.05</ele>
      </trkpt>
      <trkpt lat="42.533831" lon="1.612661">
        <ele>1873.75</ele>
      </trkpt>
      <trkpt lat="42.533957" lon="1.613264">
        <ele>1878.49</ele>
      </trkpt>
      <trkpt lat="42.534026" lon="1.613487">
        <ele>1881.08</ele>
      </trkpt>
      <trkpt lat="42.534087" lon="1.613591">
        <ele>1881.73</ele>
      </trkpt>
      <trkpt lat="42.534144" lon="1.613659">
        <ele>1882.41</ele>
      </trkpt>
      <trkpt lat="42.53428" lon="1.613755">
        <ele>1883.56</ele>
      </trkpt>
      <trkpt lat="42.534368" lon="1.613792">
        <ele>1884.3</ele>
      </trkpt>
      <trkpt lat="42.534445" lon="1.613809">
        <ele>1884.79</ele>
      </trkpt>
      <trkpt lat="42.534546" lon="1.613811">
        <ele>1884.85</ele>
      </trkpt>
      <trkpt lat="42.534723" lon="1.613759">
        <ele>1884.14</ele>
      </trkpt>
      <trkpt lat="42.534913" lon="1.613655">
        <ele>1884.17</ele>
      </trkpt>
      <trkpt lat="42.534972" lon="1.613637">
        <ele>1884.2</ele>
      </trkpt>
      <trkpt lat="42.535023" lon="1.613634">
        <ele>1883.84</ele>
      </trkpt>
      <trkpt lat="42.535061" lon="1.613654">
        <ele>1883.87</ele>
      </trkpt>
      <trkpt lat="42.535098" lon="1.613695">
        <ele>1883.9</ele>
      </trkpt>
      <trkpt lat="42.535139" lon="1.613775">
        <ele>1883.86</ele>
      </trkpt>
      <trkpt lat="42.535167" lon="1.613896">
        <ele>1884.45</ele>
      </trkpt>
      <trkpt lat="42.535181" lon="1.614062">
        <ele>1885.22</ele>
      </trkpt>
      <trkpt lat="42.535174" lon="1.614401">
        <ele>1887.86</ele>
      </trkpt>
      <trkpt lat="42.535177" lon="1.615598">
        <ele>1896.28</ele>
      </trkpt>
      <trkpt lat="42.535137" lon="1.61619">
        <ele>1901.23</ele>
      </trkpt>
      <trkpt lat="42.535139" lon="1.616325">
        <ele>1902.29</ele>
      </trkpt>
      <trkpt lat="42.535157" lon="1.616468">
        <ele>1903.22</ele>
      </trkpt>
      <trkpt lat="42.535188" lon="1.616589">
        <ele>1904.05</ele>
      </trkpt>
      <trkpt lat="42.535272" lon="1.616852">
        <ele>1906.2</ele>
      </trkpt>
      <trkpt lat="42.535603" lon="1.617515">
        <ele>1912.19</ele>
      </trkpt>
      <trkpt lat="42.535687" lon="1.617743">
        <ele>1913.8</ele>
      </trkpt>
      <trkpt lat="42.535732" lon="1.617899">
        <ele>1914.87</ele>
      </trkpt>
      <trkpt lat="42.535788" lon="1.618208">
        <ele>1916.79</ele>
      </trkpt>
      <trkpt lat="42.535815" lon="1.618569">
        <ele>1919.68</ele>
      </trkpt>
      <trkpt lat="42.535824" lon="1.618799">
        <ele>1921.58</ele>
      </trkpt>
      <trkpt lat="42.535821" lon="1.61899">
        <ele>1923.76</ele>
      </trkpt>
      <trkpt lat="42.535744" lon="1.619821">
        <ele>1927.71</ele>
      </trkpt>
      <trkpt lat="42.535618" lon="1.620991">
        <ele>1935.83</ele>
      </trkpt>
      <trkpt lat="42.535566" lon="1.621433">
        <ele>1940.3</ele>
      </trkpt>
      <trkpt lat="42.535315" lon="1.622475">
        <ele>1947.81</ele>
      </trkpt>
      <trkpt lat="42.535269" lon="1.622777">
        <ele>1950.05</ele>
      </trkpt>
      <trkpt lat="42.535231" lon="1.623088">
        <ele>1951.56</ele>
      </trkpt>
      <trkpt lat="42.535181" lon="1.623909">
        <ele>1956.72</ele>
      </trkpt>
      <trkpt lat="42.535154" lon="1.624119">
        <ele>1958.16</ele>
      </trkpt>
      <trkpt lat="42.535145" lon="1.624336">
        <ele>1959.5</ele>
      </trkpt>
      <trkpt lat="42.535156" lon="1.624584">
        <ele>1961.89</ele>
      </trkpt>
      <trkpt lat="42.535182" lon="1.624741">
        <ele>1963.59</ele>
      </trkpt>
      <trkpt lat="42.535292" lon="1.625008">
        <ele>1965.94</ele>
      </trkpt>
      <trkpt lat="42.535386" lon="1.625139">
        <ele>1966.75</ele>
      </trkpt>
      <trkpt lat="42.535667" lon="1.625385">
        <ele>1967.47</ele>
      </trkpt>
      <trkpt lat="42.535795" lon="1.625542">
        <ele>1966.95</ele>
      </trkpt>
      <trkpt lat="42.535868" lon="1.625701">
        <ele>1967.42</ele>
      </trkpt>
      <trkpt lat="42.535913" lon="1.625859">
        <ele>1967.79</ele>
      </trkpt>
      <trkpt lat="42.536024" lon="1.626326">
        <ele>1971.23</ele>
      </trkpt>
      <trkpt lat="42.536059" lon="1.626414">
        <ele>1971.78</ele>
      </trkpt>
      <trkpt lat="42.536134" lon="1.626534">
        <ele>1972.08</ele>
      </trkpt>
      <trkpt lat="42.53623" lon="1.626611">
        <ele>1971.84</ele>
      </trkpt>
      <trkpt lat="42.536294" lon="1.626633">
        <ele>1970.82</ele>
      </trkpt>
      <trkpt lat="42.536499" lon="1.626639">
        <ele>1968.58</ele>
      </trkpt>
      <trkpt lat="42.53661" lon="1.626621">
        <ele>1971.55</ele>
      </trkpt>
      <trkpt lat="42.53667" lon="1.626602">
        <ele>1972.33</ele>
      </trkpt>
      <trkpt lat="42.536817" lon="1.626516">
        <ele>1973.86</ele>
      </trkpt>
      <trkpt lat="42.537215" lon="1.626147">
        <ele>1977.28</ele>
      </trkpt>
      <trkpt lat="42.537293" lon="1.626033">
        <ele>1978.28</ele>
      </trkpt>
      <trkpt lat="42.537345" lon="1.625903">
        <ele>1979.05</ele>
      </trkpt>
      <trkpt lat="42.537426" lon="1.625576">
        <ele>1980.91</ele>
      </trkpt>
      <trkpt lat="42.537535" lon="1.625077">
        <ele>1983.28</ele>
      </trkpt>
      <trkpt lat="42.537617" lon="1.624839">
        <ele>1985.75</ele>
      </trkpt>
      <trkpt lat="42.537677" lon="1.624706">
        <ele>1986.95</ele>
      </trkpt>
      <trkpt lat="42.537741" lon="1.624606">
        <ele>1987.87</ele>
      </trkpt>
      <trkpt lat="42.53791" lon="1.624466">
        <ele>1990</ele>
      </trkpt>
      <trkpt lat="42.538071" lon="1.624358">
        <ele>1991.33</ele>
      </trkpt>
      <trkpt lat="42.538243" lon="1.624173">
        <ele>1992.77</ele>
      </trkpt>
      <trkpt lat="42.538327" lon="1.624033">
        <ele>1992.66</ele>
      </trkpt>
      <trkpt lat="42.538383" lon="1.6239">
        <ele>1992.91</ele>
      </trkpt>
      <trkpt lat="42.538432" lon="1.623729">
        <ele>1993.65</ele>
      </trkpt>
      <trkpt lat="42.538454" lon="1.623569">
        <ele>1993.96</ele>
      </trkpt>
      <trkpt lat="42.538444" lon="1.622715">
        <ele>1992.99</ele>
      </trkpt>
      <trkpt lat="42.538423" lon="1.622422">
        <ele>1992.75</ele>
      </trkpt>
      <trkpt lat="42.538398" lon="1.622316">
        <ele>1991.73</ele>
      </trkpt>
      <trkpt lat="42.538396" lon="1.622234">
        <ele>1991.32</ele>
      </trkpt>
      <trkpt lat="42.538409" lon="1.622172">
        <ele>1991.27</ele>
      </trkpt>
      <trkpt lat="42.538452" lon="1.622133">
        <ele>1993.21</ele>
      </trkpt>
      <trkpt lat="42.538488" lon="1.622127">
        <ele>1995.12</ele>
      </trkpt>
      <trkpt lat="42.538528" lon="1.622136">
        <ele>1997.1</ele>
      </trkpt>
      <trkpt lat="42.538574" lon="1.622217">
        <ele>1999.57</ele>
      </trkpt>
      <trkpt lat="42.538585" lon="1.62234">
        <ele>2000.43</ele>
      </trkpt>
      <trkpt lat="42.53857" lon="1.622551">
        <ele>1999.95</ele>
      </trkpt>
      <trkpt lat="42.538567" lon="1.622839">
        <ele>2000.28</ele>
      </trkpt>
      <trkpt lat="42.538596" lon="1.623058">
        <ele>2001.32</ele>
      </trkpt>
      <trkpt lat="42.538661" lon="1.623272">
        <ele>2003.84</ele>
      </trkpt>
      <trkpt lat="42.538737" lon="1.623489">
        <ele>2008.65</ele>
      </trkpt>
      <trkpt lat="42.538771" lon="1.623681">
        <ele>2010.37</ele>
      </trkpt>
      <trkpt lat="42.538809" lon="1.624233">
        <ele>2011.99</ele>
      </trkpt>
      <trkpt lat="42.538823" lon="1.624793">
        <ele>2017.66</ele>
      </trkpt>
      <trkpt lat="42.538749" lon="1.625596">
        <ele>2023.44</ele>
      </trkpt>
      <trkpt lat="42.538737" lon="1.625897">
        <ele>2026.14</ele>
      </trkpt>
      <trkpt lat="42.538735" lon="1.626448">
        <ele>2030.67</ele>
      </trkpt>
      <trkpt lat="42.5388" lon="1.627313">
        <ele>2037.2</ele>
      </trkpt>
      <trkpt lat="42.538805" lon="1.627638">
        <ele>2038.85</ele>
      </trkpt>
      <trkpt lat="42.538785" lon="1.627949">
        <ele>2040.52</ele>
      </trkpt>
      <trkpt lat="42.538762" lon="1.628483">
        <ele>2045.1</ele>
      </trkpt>
      <trkpt lat="42.538768" lon="1.628743">
        <ele>2047.29</ele>
      </trkpt>
      <trkpt lat="42.538802" lon="1.629293">
        <ele>2049.97</ele>
      </trkpt>
      <trkpt lat="42.538847" lon="1.629705">
        <ele>2052.39</ele>
      </trkpt>
      <trkpt lat="42.538925" lon="1.630129">
        <ele>2054.18</ele>
      </trkpt>
      <trkpt lat="42.538967" lon="1.630303">
        <ele>2055.9</ele>
      </trkpt>
      <trkpt lat="42.539063" lon="1.63071">
        <ele>2060.78</ele>
      </trkpt>
      <trkpt lat="42.539086" lon="1.630991">
        <ele>2062.77</ele>
      </trkpt>
      <trkpt lat="42.539082" lon="1.631136">
        <ele>2063.56</ele>
      </trkpt>
      <trkpt lat="42.53907" lon="1.63124">
        <ele>2063.97</ele>
      </trkpt>
      <trkpt lat="42.539027" lon="1.631423">
        <ele>2064.35</ele>
      </trkpt>
      <trkpt lat="42.538914" lon="1.631729">
        <ele>2066.06</ele>
      </trkpt>
      <trkpt lat="42.538822" lon="1.631852">
        <ele>2066.72</ele>
      </trkpt>
      <trkpt lat="42.538747" lon="1.631987">
        <ele>2067.33</ele>
      </trkpt>
      <trkpt lat="42.538698" lon="1.632142">
        <ele>2069.03</ele>
      </trkpt>
      <trkpt lat="42.538663" lon="1.632361">
        <ele>2071.12</ele>
      </trkpt>
      <trkpt lat="42.538666" lon="1.632549">
        <ele>2071.98</ele>
      </trkpt>
      <trkpt lat="42.538798" lon="1.633186">
        <ele>2074.32</ele>
      </trkpt>
      <trkpt lat="42.53883" lon="1.633394">
        <ele>2074.98</ele>
      </trkpt>
      <trkpt lat="42.538856" lon="1.633715">
        <ele>2076.96</ele>
      </trkpt>
      <trkpt lat="42.538868" lon="1.633963">
        <ele>2078.84</ele>
      </trkpt>
      <trkpt lat="42.53887" lon="1.634068">
        <ele>2078.44</ele>
      </trkpt>
      <trkpt lat="42.538924" lon="1.634159">
        <ele>2080</ele>
      </trkpt>
      <trkpt lat="42.538987" lon="1.634198">
        <ele>2081.52</ele>
      </trkpt>
      <trkpt lat="42.539055" lon="1.634174">
        <ele>2083.41</ele>
      </trkpt>
      <trkpt lat="42.53911" lon="1.634094">
        <ele>2084.58</ele>
      </trkpt>
      <trkpt lat="42.539123" lon="1.634051">
        <ele>2084.79</ele>
      </trkpt>
      <trkpt lat="42.539141" lon="1.633865">
        <ele>2084.99</ele>
      </trkpt>
      <trkpt lat="42.539165" lon="1.633499">
        <ele>2086.18</ele>
      </trkpt>
      <trkpt lat="42.539196" lon="1.6333">
        <ele>2086.47</ele>
      </trkpt>
      <trkpt lat="42.539239" lon="1.633103">
        <ele>2086.46</ele>
      </trkpt>
      <trkpt lat="42.539332" lon="1.63276">
        <ele>2086.98</ele>
      </trkpt>
      <trkpt lat="42.539531" lon="1.632076">
        <ele>2086.25</ele>
      </trkpt>
    </trkseg>
  </trk>
</gpx>
