<?xml version="1.0" encoding="UTF-8"?>
<gpx creator="https://gpx.studio" version="1.1" xmlns="http://www.topografix.com/GPX/1/1" xmlns:xsi="http://www.w3.org/2001/XMLSchema-instance" xsi:schemaLocation="http://www.topografix.com/GPX/1/1 http://www.topografix.com/GPX/1/1/gpx.xsd http://www.garmin.com/xmlschemas/GpxExtensions/v3 http://www.garmin.com/xmlschemas/GpxExtensionsv3.xsd http://www.garmin.com/xmlschemas/TrackPointExtension/v1 http://www.garmin.com/xmlschemas/TrackPointExtensionv1.xsd http://www.garmin.com/xmlschemas/PowerExtension/v1 http://www.garmin.com/xmlschemas/PowerExtensionv1.xsd http://www.topografix.com/GPX/gpx_style/0/2 http://www.topografix.com/GPX/gpx_style/0/2/gpx_style.xsd" xmlns:gpxtpx="http://www.garmin.com/xmlschemas/TrackPointExtension/v1" xmlns:gpxx="http://www.garmin.com/xmlschemas/GpxExtensions/v3" xmlns:gpxpx="http://www.garmin.com/xmlschemas/PowerExtension/v1" xmlns:gpx_style="http://www.topografix.com/GPX/gpx_style/0/2">
  <metadata>
    <name>estrada-cunha-paraty-desde-paraty</name>
    <author>
      <name>gpx.studio</name>
      <link href="https://gpx.studio"/>
    </author>
  </metadata>
  <trk>
    <name>estrada-cunha-paraty-desde-paraty</name>
    <trkseg>
      <trkpt lat="-23.223263" lon="-44.770465">
        <ele>36.2</ele>
      </trkpt>
      <trkpt lat="-23.223064" lon="-44.77094">
        <ele>38.39</ele>
      </trkpt>
      <trkpt lat="-23.223015" lon="-44.77109">
        <ele>37.58</ele>
      </trkpt>
      <trkpt lat="-23.222985" lon="-44.771253">
        <ele>36.04</ele>
      </trkpt>
      <trkpt lat="-23.222996" lon="-44.771399">
        <ele>32.9</ele>
      </trkpt>
      <trkpt lat="-23.223028" lon="-44.771525">
        <ele>30.58</ele>
      </trkpt>
      <trkpt lat="-23.223082" lon="-44.771625">
        <ele>29.32</ele>
      </trkpt>
      <trkpt lat="-23.223148" lon="-44.771714">
        <ele>28.93</ele>
      </trkpt>
      <trkpt lat="-23.223419" lon="-44.772181">
        <ele>29.95</ele>
      </trkpt>
      <trkpt lat="-23.223785" lon="-44.772879">
        <ele>33.01</ele>
      </trkpt>
      <trkpt lat="-23.224343" lon="-44.773854">
        <ele>35.42</ele>
      </trkpt>
      <trkpt lat="-23.22463" lon="-44.774439">
        <ele>38.25</ele>
      </trkpt>
      <trkpt lat="-23.224872" lon="-44.775046">
        <ele>41.11</ele>
      </trkpt>
      <trkpt lat="-23.224953" lon="-44.775356">
        <ele>42.38</ele>
      </trkpt>
      <trkpt lat="-23.225022" lon="-44.775511">
        <ele>42.38</ele>
      </trkpt>
      <trkpt lat="-23.225081" lon="-44.775669">
        <ele>42.55</ele>
      </trkpt>
      <trkpt lat="-23.225117" lon="-44.775843">
        <ele>43.1</ele>
      </trkpt>
      <trkpt lat="-23.225144" lon="-44.77616">
        <ele>45.61</ele>
      </trkpt>
      <trkpt lat="-23.225142" lon="-44.776908">
        <ele>43.58</ele>
      </trkpt>
      <trkpt lat="-23.225143" lon="-44.777251">
        <ele>44.53</ele>
      </trkpt>
      <trkpt lat="-23.225144" lon="-44.777595">
        <ele>46.47</ele>
      </trkpt>
      <trkpt lat="-23.225144" lon="-44.77812">
        <ele>53.44</ele>
      </trkpt>
      <trkpt lat="-23.225048" lon="-44.77925">
        <ele>56.38</ele>
      </trkpt>
      <trkpt lat="-23.224985" lon="-44.779908">
        <ele>63.37</ele>
      </trkpt>
      <trkpt lat="-23.224916" lon="-44.780795">
        <ele>68.95</ele>
      </trkpt>
      <trkpt lat="-23.224889" lon="-44.781128">
        <ele>67.78</ele>
      </trkpt>
      <trkpt lat="-23.224863" lon="-44.781797">
        <ele>66.94</ele>
      </trkpt>
      <trkpt lat="-23.22482" lon="-44.782402">
        <ele>69.49</ele>
      </trkpt>
      <trkpt lat="-23.224783" lon="-44.782727">
        <ele>69.8</ele>
      </trkpt>
      <trkpt lat="-23.224737" lon="-44.782944">
        <ele>71.28</ele>
      </trkpt>
      <trkpt lat="-23.224602" lon="-44.783366">
        <ele>73.97</ele>
      </trkpt>
      <trkpt lat="-23.224479" lon="-44.783605">
        <ele>74.81</ele>
      </trkpt>
      <trkpt lat="-23.224362" lon="-44.783756">
        <ele>75.17</ele>
      </trkpt>
      <trkpt lat="-23.223884" lon="-44.784116">
        <ele>77.48</ele>
      </trkpt>
      <trkpt lat="-23.223786" lon="-44.784175">
        <ele>78.02</ele>
      </trkpt>
      <trkpt lat="-23.223706" lon="-44.784204">
        <ele>78.87</ele>
      </trkpt>
      <trkpt lat="-23.223615" lon="-44.784215">
        <ele>80.39</ele>
      </trkpt>
      <trkpt lat="-23.22346" lon="-44.784207">
        <ele>84.84</ele>
      </trkpt>
      <trkpt lat="-23.22324" lon="-44.784152">
        <ele>91.25</ele>
      </trkpt>
      <trkpt lat="-23.223116" lon="-44.784115">
        <ele>93.02</ele>
      </trkpt>
      <trkpt lat="-23.223012" lon="-44.784115">
        <ele>93.67</ele>
      </trkpt>
      <trkpt lat="-23.22295" lon="-44.784121">
        <ele>93.74</ele>
      </trkpt>
      <trkpt lat="-23.222823" lon="-44.784174">
        <ele>93.98</ele>
      </trkpt>
      <trkpt lat="-23.222706" lon="-44.784274">
        <ele>93.82</ele>
      </trkpt>
      <trkpt lat="-23.222654" lon="-44.784361">
        <ele>94.53</ele>
      </trkpt>
      <trkpt lat="-23.222207" lon="-44.785329">
        <ele>101.89</ele>
      </trkpt>
      <trkpt lat="-23.221919" lon="-44.785791">
        <ele>108.03</ele>
      </trkpt>
      <trkpt lat="-23.221564" lon="-44.786332">
        <ele>111.72</ele>
      </trkpt>
      <trkpt lat="-23.22137" lon="-44.786519">
        <ele>112.31</ele>
      </trkpt>
      <trkpt lat="-23.22112" lon="-44.786681">
        <ele>113</ele>
      </trkpt>
      <trkpt lat="-23.220799" lon="-44.786787">
        <ele>114.63</ele>
      </trkpt>
      <trkpt lat="-23.220494" lon="-44.786867">
        <ele>116.71</ele>
      </trkpt>
      <trkpt lat="-23.220417" lon="-44.786905">
        <ele>117.42</ele>
      </trkpt>
      <trkpt lat="-23.220288" lon="-44.786985">
        <ele>118.35</ele>
      </trkpt>
      <trkpt lat="-23.220156" lon="-44.787096">
        <ele>120.22</ele>
      </trkpt>
      <trkpt lat="-23.219947" lon="-44.78734">
        <ele>125.41</ele>
      </trkpt>
      <trkpt lat="-23.219628" lon="-44.787746">
        <ele>134.58</ele>
      </trkpt>
      <trkpt lat="-23.219429" lon="-44.788183">
        <ele>143.02</ele>
      </trkpt>
      <trkpt lat="-23.219343" lon="-44.788303">
        <ele>145.07</ele>
      </trkpt>
      <trkpt lat="-23.219287" lon="-44.788369">
        <ele>146.37</ele>
      </trkpt>
      <trkpt lat="-23.219287" lon="-44.788369">
        <ele>146.37</ele>
      </trkpt>
      <trkpt lat="-23.219343" lon="-44.788303">
        <ele>145.07</ele>
      </trkpt>
      <trkpt lat="-23.219429" lon="-44.788183">
        <ele>143.02</ele>
      </trkpt>
      <trkpt lat="-23.219628" lon="-44.787746">
        <ele>134.58</ele>
      </trkpt>
      <trkpt lat="-23.219947" lon="-44.78734">
        <ele>125.41</ele>
      </trkpt>
      <trkpt lat="-23.220156" lon="-44.787096">
        <ele>120.22</ele>
      </trkpt>
      <trkpt lat="-23.220288" lon="-44.786985">
        <ele>118.35</ele>
      </trkpt>
      <trkpt lat="-23.220417" lon="-44.786905">
        <ele>117.42</ele>
      </trkpt>
      <trkpt lat="-23.220494" lon="-44.786867">
        <ele>116.71</ele>
      </trkpt>
      <trkpt lat="-23.220799" lon="-44.786787">
        <ele>114.63</ele>
      </trkpt>
      <trkpt lat="-23.22112" lon="-44.786681">
        <ele>113</ele>
      </trkpt>
      <trkpt lat="-23.22137" lon="-44.786519">
        <ele>112.31</ele>
      </trkpt>
      <trkpt lat="-23.221564" lon="-44.786332">
        <ele>111.72</ele>
      </trkpt>
      <trkpt lat="-23.221919" lon="-44.785791">
        <ele>108.03</ele>
      </trkpt>
      <trkpt lat="-23.222207" lon="-44.785329">
        <ele>101.89</ele>
      </trkpt>
      <trkpt lat="-23.222654" lon="-44.784361">
        <ele>94.53</ele>
      </trkpt>
      <trkpt lat="-23.222706" lon="-44.784274">
        <ele>93.82</ele>
      </trkpt>
      <trkpt lat="-23.222823" lon="-44.784174">
        <ele>93.98</ele>
      </trkpt>
      <trkpt lat="-23.22295" lon="-44.784121">
        <ele>93.74</ele>
      </trkpt>
      <trkpt lat="-23.223012" lon="-44.784115">
        <ele>93.67</ele>
      </trkpt>
      <trkpt lat="-23.223116" lon="-44.784115">
        <ele>93.02</ele>
      </trkpt>
      <trkpt lat="-23.22324" lon="-44.784152">
        <ele>91.25</ele>
      </trkpt>
      <trkpt lat="-23.22346" lon="-44.784207">
        <ele>84.84</ele>
      </trkpt>
      <trkpt lat="-23.223615" lon="-44.784215">
        <ele>80.39</ele>
      </trkpt>
      <trkpt lat="-23.223706" lon="-44.784204">
        <ele>78.87</ele>
      </trkpt>
      <trkpt lat="-23.223786" lon="-44.784175">
        <ele>78.02</ele>
      </trkpt>
      <trkpt lat="-23.223884" lon="-44.784116">
        <ele>77.48</ele>
      </trkpt>
      <trkpt lat="-23.224362" lon="-44.783756">
        <ele>75.17</ele>
      </trkpt>
      <trkpt lat="-23.224479" lon="-44.783605">
        <ele>74.81</ele>
      </trkpt>
      <trkpt lat="-23.224602" lon="-44.783366">
        <ele>73.97</ele>
      </trkpt>
      <trkpt lat="-23.224737" lon="-44.782944">
        <ele>71.28</ele>
      </trkpt>
      <trkpt lat="-23.224783" lon="-44.782727">
        <ele>69.8</ele>
      </trkpt>
      <trkpt lat="-23.22482" lon="-44.782402">
        <ele>69.49</ele>
      </trkpt>
      <trkpt lat="-23.224863" lon="-44.781797">
        <ele>66.94</ele>
      </trkpt>
      <trkpt lat="-23.224889" lon="-44.781128">
        <ele>67.78</ele>
      </trkpt>
      <trkpt lat="-23.224916" lon="-44.780795">
        <ele>68.95</ele>
      </trkpt>
      <trkpt lat="-23.224985" lon="-44.779908">
        <ele>63.37</ele>
      </trkpt>
      <trkpt lat="-23.225048" lon="-44.77925">
        <ele>56.38</ele>
      </trkpt>
      <trkpt lat="-23.225144" lon="-44.77812">
        <ele>53.44</ele>
      </trkpt>
      <trkpt lat="-23.225144" lon="-44.777595">
        <ele>46.47</ele>
      </trkpt>
      <trkpt lat="-23.225143" lon="-44.777251">
        <ele>44.53</ele>
      </trkpt>
      <trkpt lat="-23.225142" lon="-44.776908">
        <ele>43.58</ele>
      </trkpt>
      <trkpt lat="-23.225144" lon="-44.77616">
        <ele>45.61</ele>
      </trkpt>
      <trkpt lat="-23.225117" lon="-44.775843">
        <ele>43.1</ele>
      </trkpt>
      <trkpt lat="-23.225081" lon="-44.775669">
        <ele>42.55</ele>
      </trkpt>
      <trkpt lat="-23.225022" lon="-44.775511">
        <ele>42.38</ele>
      </trkpt>
      <trkpt lat="-23.224953" lon="-44.775356">
        <ele>42.38</ele>
      </trkpt>
      <trkpt lat="-23.225071" lon="-44.775875">
        <ele>43.88</ele>
      </trkpt>
      <trkpt lat="-23.225096" lon="-44.776069">
        <ele>45.69</ele>
      </trkpt>
      <trkpt lat="-23.225105" lon="-44.776361">
        <ele>45.77</ele>
      </trkpt>
      <trkpt lat="-23.225097" lon="-44.776656">
        <ele>44.96</ele>
      </trkpt>
      <trkpt lat="-23.225095" lon="-44.777273">
        <ele>45.52</ele>
      </trkpt>
      <trkpt lat="-23.225096" lon="-44.778078">
        <ele>52.82</ele>
      </trkpt>
      <trkpt lat="-23.22508" lon="-44.778349">
        <ele>54.19</ele>
      </trkpt>
      <trkpt lat="-23.225006" lon="-44.779195">
        <ele>55.56</ele>
      </trkpt>
      <trkpt lat="-23.224927" lon="-44.779998">
        <ele>63.9</ele>
      </trkpt>
      <trkpt lat="-23.224868" lon="-44.780856">
        <ele>69.23</ele>
      </trkpt>
      <trkpt lat="-23.224828" lon="-44.78158">
        <ele>67.02</ele>
      </trkpt>
      <trkpt lat="-23.224806" lon="-44.782052">
        <ele>68.59</ele>
      </trkpt>
      <trkpt lat="-23.224758" lon="-44.782502">
        <ele>69.96</ele>
      </trkpt>
      <trkpt lat="-23.224676" lon="-44.782951">
        <ele>72.45</ele>
      </trkpt>
      <trkpt lat="-23.224547" lon="-44.783305">
        <ele>74.83</ele>
      </trkpt>
      <trkpt lat="-23.224356" lon="-44.783645">
        <ele>75.89</ele>
      </trkpt>
      <trkpt lat="-23.224295" lon="-44.783702">
        <ele>76.33</ele>
      </trkpt>
      <trkpt lat="-23.223779" lon="-44.784085">
        <ele>78.29</ele>
      </trkpt>
      <trkpt lat="-23.223703" lon="-44.78412">
        <ele>79.26</ele>
      </trkpt>
      <trkpt lat="-23.223628" lon="-44.784137">
        <ele>80.42</ele>
      </trkpt>
      <trkpt lat="-23.223471" lon="-44.784144">
        <ele>84.47</ele>
      </trkpt>
      <trkpt lat="-23.223325" lon="-44.784114">
        <ele>88.91</ele>
      </trkpt>
      <trkpt lat="-23.223075" lon="-44.784062">
        <ele>92.66</ele>
      </trkpt>
      <trkpt lat="-23.222954" lon="-44.784061">
        <ele>93.04</ele>
      </trkpt>
      <trkpt lat="-23.222842" lon="-44.784081">
        <ele>93.22</ele>
      </trkpt>
      <trkpt lat="-23.222758" lon="-44.784117">
        <ele>93.18</ele>
      </trkpt>
      <trkpt lat="-23.222696" lon="-44.784177">
        <ele>93.2</ele>
      </trkpt>
      <trkpt lat="-23.222641" lon="-44.784284">
        <ele>94.17</ele>
      </trkpt>
      <trkpt lat="-23.222601" lon="-44.78439">
        <ele>95.04</ele>
      </trkpt>
      <trkpt lat="-23.222208" lon="-44.785235">
        <ele>101.35</ele>
      </trkpt>
      <trkpt lat="-23.222115" lon="-44.785395">
        <ele>102.46</ele>
      </trkpt>
      <trkpt lat="-23.221712" lon="-44.786015">
        <ele>109.86</ele>
      </trkpt>
      <trkpt lat="-23.221617" lon="-44.78618">
        <ele>110.84</ele>
      </trkpt>
      <trkpt lat="-23.221512" lon="-44.786327">
        <ele>111.7</ele>
      </trkpt>
      <trkpt lat="-23.221419" lon="-44.786424">
        <ele>112.02</ele>
      </trkpt>
      <trkpt lat="-23.221325" lon="-44.7865">
        <ele>112.47</ele>
      </trkpt>
      <trkpt lat="-23.221125" lon="-44.786631">
        <ele>113</ele>
      </trkpt>
      <trkpt lat="-23.220975" lon="-44.786687">
        <ele>113.7</ele>
      </trkpt>
      <trkpt lat="-23.220549" lon="-44.786782">
        <ele>115.78</ele>
      </trkpt>
      <trkpt lat="-23.22035" lon="-44.78688">
        <ele>117.67</ele>
      </trkpt>
      <trkpt lat="-23.220133" lon="-44.787041">
        <ele>120.45</ele>
      </trkpt>
      <trkpt lat="-23.220017" lon="-44.787168">
        <ele>123.39</ele>
      </trkpt>
      <trkpt lat="-23.219915" lon="-44.787295">
        <ele>125.98</ele>
      </trkpt>
      <trkpt lat="-23.219823" lon="-44.78745">
        <ele>128.57</ele>
      </trkpt>
      <trkpt lat="-23.219749" lon="-44.787665">
        <ele>130.88</ele>
      </trkpt>
      <trkpt lat="-23.219615" lon="-44.787952">
        <ele>137.12</ele>
      </trkpt>
      <trkpt lat="-23.21945" lon="-44.788261">
        <ele>142.18</ele>
      </trkpt>
      <trkpt lat="-23.219178" lon="-44.788587">
        <ele>147.31</ele>
      </trkpt>
      <trkpt lat="-23.21891" lon="-44.788807">
        <ele>154.23</ele>
      </trkpt>
      <trkpt lat="-23.218742" lon="-44.78892">
        <ele>157.26</ele>
      </trkpt>
      <trkpt lat="-23.218428" lon="-44.789049">
        <ele>164.88</ele>
      </trkpt>
      <trkpt lat="-23.218269" lon="-44.789119">
        <ele>165.66</ele>
      </trkpt>
      <trkpt lat="-23.218094" lon="-44.789174">
        <ele>166.2</ele>
      </trkpt>
      <trkpt lat="-23.217996" lon="-44.789236">
        <ele>165.01</ele>
      </trkpt>
      <trkpt lat="-23.2179" lon="-44.789319">
        <ele>163.17</ele>
      </trkpt>
      <trkpt lat="-23.217862" lon="-44.789371">
        <ele>162.56</ele>
      </trkpt>
      <trkpt lat="-23.217825" lon="-44.789472">
        <ele>160.2</ele>
      </trkpt>
      <trkpt lat="-23.217814" lon="-44.789594">
        <ele>158.52</ele>
      </trkpt>
      <trkpt lat="-23.217797" lon="-44.789679">
        <ele>157.99</ele>
      </trkpt>
      <trkpt lat="-23.217765" lon="-44.789755">
        <ele>159</ele>
      </trkpt>
      <trkpt lat="-23.217705" lon="-44.789865">
        <ele>160</ele>
      </trkpt>
      <trkpt lat="-23.21763" lon="-44.789958">
        <ele>160.66</ele>
      </trkpt>
      <trkpt lat="-23.217534" lon="-44.790026">
        <ele>162.8</ele>
      </trkpt>
      <trkpt lat="-23.217194" lon="-44.79019">
        <ele>170.15</ele>
      </trkpt>
      <trkpt lat="-23.217119" lon="-44.790247">
        <ele>170.98</ele>
      </trkpt>
      <trkpt lat="-23.216863" lon="-44.790513">
        <ele>172.52</ele>
      </trkpt>
      <trkpt lat="-23.216734" lon="-44.790677">
        <ele>172.92</ele>
      </trkpt>
      <trkpt lat="-23.216468" lon="-44.791091">
        <ele>172.49</ele>
      </trkpt>
      <trkpt lat="-23.216321" lon="-44.791285">
        <ele>171.64</ele>
      </trkpt>
      <trkpt lat="-23.216172" lon="-44.791454">
        <ele>170.36</ele>
      </trkpt>
      <trkpt lat="-23.216095" lon="-44.79152">
        <ele>169.43</ele>
      </trkpt>
      <trkpt lat="-23.216017" lon="-44.791571">
        <ele>168.95</ele>
      </trkpt>
      <trkpt lat="-23.215903" lon="-44.791622">
        <ele>168.53</ele>
      </trkpt>
      <trkpt lat="-23.215791" lon="-44.791642">
        <ele>169.09</ele>
      </trkpt>
      <trkpt lat="-23.215681" lon="-44.791639">
        <ele>169.64</ele>
      </trkpt>
      <trkpt lat="-23.215576" lon="-44.791622">
        <ele>170.05</ele>
      </trkpt>
      <trkpt lat="-23.215475" lon="-44.791589">
        <ele>170.68</ele>
      </trkpt>
      <trkpt lat="-23.215375" lon="-44.791544">
        <ele>171.63</ele>
      </trkpt>
      <trkpt lat="-23.215274" lon="-44.791485">
        <ele>173.24</ele>
      </trkpt>
      <trkpt lat="-23.21471" lon="-44.791044">
        <ele>175.52</ele>
      </trkpt>
      <trkpt lat="-23.214604" lon="-44.790977">
        <ele>176.25</ele>
      </trkpt>
      <trkpt lat="-23.214497" lon="-44.790947">
        <ele>177.26</ele>
      </trkpt>
      <trkpt lat="-23.214328" lon="-44.790939">
        <ele>179.36</ele>
      </trkpt>
      <trkpt lat="-23.214148" lon="-44.790955">
        <ele>180.56</ele>
      </trkpt>
      <trkpt lat="-23.214056" lon="-44.790975">
        <ele>181.6</ele>
      </trkpt>
      <trkpt lat="-23.213992" lon="-44.791008">
        <ele>182.22</ele>
      </trkpt>
      <trkpt lat="-23.213924" lon="-44.791094">
        <ele>182.78</ele>
      </trkpt>
      <trkpt lat="-23.213889" lon="-44.791183">
        <ele>183.17</ele>
      </trkpt>
      <trkpt lat="-23.213892" lon="-44.791289">
        <ele>183.8</ele>
      </trkpt>
      <trkpt lat="-23.213933" lon="-44.791452">
        <ele>185.36</ele>
      </trkpt>
      <trkpt lat="-23.213963" lon="-44.791543">
        <ele>186.58</ele>
      </trkpt>
      <trkpt lat="-23.214007" lon="-44.791625">
        <ele>187.93</ele>
      </trkpt>
      <trkpt lat="-23.214082" lon="-44.791718">
        <ele>189.19</ele>
      </trkpt>
      <trkpt lat="-23.214252" lon="-44.791896">
        <ele>192.21</ele>
      </trkpt>
      <trkpt lat="-23.214311" lon="-44.79204">
        <ele>195.66</ele>
      </trkpt>
      <trkpt lat="-23.214322" lon="-44.792125">
        <ele>197.16</ele>
      </trkpt>
      <trkpt lat="-23.214321" lon="-44.792219">
        <ele>198.81</ele>
      </trkpt>
      <trkpt lat="-23.214312" lon="-44.792287">
        <ele>199.43</ele>
      </trkpt>
      <trkpt lat="-23.214284" lon="-44.792344">
        <ele>200.12</ele>
      </trkpt>
      <trkpt lat="-23.214225" lon="-44.79243">
        <ele>201.18</ele>
      </trkpt>
      <trkpt lat="-23.213807" lon="-44.792816">
        <ele>205.62</ele>
      </trkpt>
      <trkpt lat="-23.213112" lon="-44.793479">
        <ele>225.61</ele>
      </trkpt>
      <trkpt lat="-23.213061" lon="-44.7935">
        <ele>226.47</ele>
      </trkpt>
      <trkpt lat="-23.212996" lon="-44.793545">
        <ele>227.31</ele>
      </trkpt>
      <trkpt lat="-23.212949" lon="-44.793617">
        <ele>227.99</ele>
      </trkpt>
      <trkpt lat="-23.212922" lon="-44.793702">
        <ele>228.51</ele>
      </trkpt>
      <trkpt lat="-23.212916" lon="-44.79379">
        <ele>228.71</ele>
      </trkpt>
      <trkpt lat="-23.21294" lon="-44.79401">
        <ele>229.42</ele>
      </trkpt>
      <trkpt lat="-23.212993" lon="-44.794632">
        <ele>229.94</ele>
      </trkpt>
      <trkpt lat="-23.212978" lon="-44.794842">
        <ele>230.93</ele>
      </trkpt>
      <trkpt lat="-23.212937" lon="-44.795076">
        <ele>232.36</ele>
      </trkpt>
      <trkpt lat="-23.212929" lon="-44.795276">
        <ele>234.25</ele>
      </trkpt>
      <trkpt lat="-23.212935" lon="-44.795354">
        <ele>234.87</ele>
      </trkpt>
      <trkpt lat="-23.21296" lon="-44.795469">
        <ele>235.25</ele>
      </trkpt>
      <trkpt lat="-23.213035" lon="-44.795676">
        <ele>234.94</ele>
      </trkpt>
      <trkpt lat="-23.21308" lon="-44.795844">
        <ele>235.18</ele>
      </trkpt>
      <trkpt lat="-23.213084" lon="-44.795999">
        <ele>235.04</ele>
      </trkpt>
      <trkpt lat="-23.21307" lon="-44.796145">
        <ele>236.19</ele>
      </trkpt>
      <trkpt lat="-23.212995" lon="-44.796317">
        <ele>239.25</ele>
      </trkpt>
      <trkpt lat="-23.212787" lon="-44.796546">
        <ele>244.93</ele>
      </trkpt>
      <trkpt lat="-23.212573" lon="-44.796725">
        <ele>251</ele>
      </trkpt>
      <trkpt lat="-23.212525" lon="-44.796824">
        <ele>251.97</ele>
      </trkpt>
      <trkpt lat="-23.212494" lon="-44.796981">
        <ele>252.44</ele>
      </trkpt>
      <trkpt lat="-23.212462" lon="-44.797328">
        <ele>251.99</ele>
      </trkpt>
      <trkpt lat="-23.212437" lon="-44.797416">
        <ele>252.19</ele>
      </trkpt>
      <trkpt lat="-23.21239" lon="-44.797476">
        <ele>253.06</ele>
      </trkpt>
      <trkpt lat="-23.211274" lon="-44.798474">
        <ele>265.91</ele>
      </trkpt>
      <trkpt lat="-23.210943" lon="-44.798707">
        <ele>271.09</ele>
      </trkpt>
      <trkpt lat="-23.210666" lon="-44.798778">
        <ele>280.05</ele>
      </trkpt>
      <trkpt lat="-23.210472" lon="-44.798853">
        <ele>286.89</ele>
      </trkpt>
      <trkpt lat="-23.210282" lon="-44.798957">
        <ele>293.51</ele>
      </trkpt>
      <trkpt lat="-23.210137" lon="-44.799063">
        <ele>297.28</ele>
      </trkpt>
      <trkpt lat="-23.210013" lon="-44.799227">
        <ele>295.79</ele>
      </trkpt>
      <trkpt lat="-23.209885" lon="-44.799377">
        <ele>293.73</ele>
      </trkpt>
      <trkpt lat="-23.209701" lon="-44.79956">
        <ele>293.69</ele>
      </trkpt>
      <trkpt lat="-23.209401" lon="-44.799805">
        <ele>298.69</ele>
      </trkpt>
      <trkpt lat="-23.20915" lon="-44.799974">
        <ele>304.97</ele>
      </trkpt>
      <trkpt lat="-23.208926" lon="-44.80009">
        <ele>311.69</ele>
      </trkpt>
      <trkpt lat="-23.20867" lon="-44.800198">
        <ele>316.77</ele>
      </trkpt>
      <trkpt lat="-23.208408" lon="-44.800323">
        <ele>320.12</ele>
      </trkpt>
      <trkpt lat="-23.208326" lon="-44.800387">
        <ele>320.39</ele>
      </trkpt>
      <trkpt lat="-23.208167" lon="-44.800577">
        <ele>320.45</ele>
      </trkpt>
      <trkpt lat="-23.208119" lon="-44.800709">
        <ele>318.12</ele>
      </trkpt>
      <trkpt lat="-23.208057" lon="-44.801028">
        <ele>314.55</ele>
      </trkpt>
      <trkpt lat="-23.207997" lon="-44.801318">
        <ele>315.96</ele>
      </trkpt>
      <trkpt lat="-23.207907" lon="-44.801532">
        <ele>318.76</ele>
      </trkpt>
      <trkpt lat="-23.20778" lon="-44.801732">
        <ele>322.76</ele>
      </trkpt>
      <trkpt lat="-23.207393" lon="-44.802062">
        <ele>334.72</ele>
      </trkpt>
      <trkpt lat="-23.207262" lon="-44.80222">
        <ele>338.24</ele>
      </trkpt>
      <trkpt lat="-23.207218" lon="-44.802344">
        <ele>339.67</ele>
      </trkpt>
      <trkpt lat="-23.207203" lon="-44.802476">
        <ele>340.65</ele>
      </trkpt>
      <trkpt lat="-23.207241" lon="-44.802659">
        <ele>341.39</ele>
      </trkpt>
      <trkpt lat="-23.207325" lon="-44.802814">
        <ele>341.07</ele>
      </trkpt>
      <trkpt lat="-23.207425" lon="-44.802963">
        <ele>340.45</ele>
      </trkpt>
      <trkpt lat="-23.20747" lon="-44.803057">
        <ele>340.88</ele>
      </trkpt>
      <trkpt lat="-23.207495" lon="-44.803177">
        <ele>341.94</ele>
      </trkpt>
      <trkpt lat="-23.207483" lon="-44.803313">
        <ele>343.54</ele>
      </trkpt>
      <trkpt lat="-23.207437" lon="-44.80348">
        <ele>345.85</ele>
      </trkpt>
      <trkpt lat="-23.207396" lon="-44.80355">
        <ele>347.13</ele>
      </trkpt>
      <trkpt lat="-23.207323" lon="-44.803628">
        <ele>349.02</ele>
      </trkpt>
      <trkpt lat="-23.207242" lon="-44.803642">
        <ele>351.07</ele>
      </trkpt>
      <trkpt lat="-23.207118" lon="-44.803631">
        <ele>353.48</ele>
      </trkpt>
      <trkpt lat="-23.206848" lon="-44.803555">
        <ele>359.03</ele>
      </trkpt>
      <trkpt lat="-23.206716" lon="-44.803559">
        <ele>362.55</ele>
      </trkpt>
      <trkpt lat="-23.206631" lon="-44.803604">
        <ele>365.95</ele>
      </trkpt>
      <trkpt lat="-23.206595" lon="-44.803679">
        <ele>367.74</ele>
      </trkpt>
      <trkpt lat="-23.206624" lon="-44.803872">
        <ele>368.22</ele>
      </trkpt>
      <trkpt lat="-23.206606" lon="-44.804051">
        <ele>370.6</ele>
      </trkpt>
      <trkpt lat="-23.206546" lon="-44.804207">
        <ele>373.61</ele>
      </trkpt>
      <trkpt lat="-23.206464" lon="-44.804324">
        <ele>376.43</ele>
      </trkpt>
      <trkpt lat="-23.206268" lon="-44.804541">
        <ele>381.5</ele>
      </trkpt>
      <trkpt lat="-23.206227" lon="-44.804608">
        <ele>381.97</ele>
      </trkpt>
      <trkpt lat="-23.20621" lon="-44.804704">
        <ele>382.32</ele>
      </trkpt>
      <trkpt lat="-23.206233" lon="-44.804808">
        <ele>381.75</ele>
      </trkpt>
      <trkpt lat="-23.206378" lon="-44.805075">
        <ele>381.27</ele>
      </trkpt>
      <trkpt lat="-23.206652" lon="-44.805619">
        <ele>389.66</ele>
      </trkpt>
      <trkpt lat="-23.206747" lon="-44.805728">
        <ele>391.6</ele>
      </trkpt>
      <trkpt lat="-23.20686" lon="-44.805802">
        <ele>392.89</ele>
      </trkpt>
      <trkpt lat="-23.206972" lon="-44.80586">
        <ele>394.04</ele>
      </trkpt>
      <trkpt lat="-23.207065" lon="-44.80589">
        <ele>394.4</ele>
      </trkpt>
      <trkpt lat="-23.207167" lon="-44.805902">
        <ele>394.3</ele>
      </trkpt>
      <trkpt lat="-23.207297" lon="-44.805865">
        <ele>391.56</ele>
      </trkpt>
      <trkpt lat="-23.207392" lon="-44.805855">
        <ele>390.27</ele>
      </trkpt>
      <trkpt lat="-23.207503" lon="-44.805874">
        <ele>389.65</ele>
      </trkpt>
      <trkpt lat="-23.207606" lon="-44.805924">
        <ele>390.35</ele>
      </trkpt>
      <trkpt lat="-23.20769" lon="-44.806018">
        <ele>392.69</ele>
      </trkpt>
      <trkpt lat="-23.207757" lon="-44.806135">
        <ele>394.84</ele>
      </trkpt>
      <trkpt lat="-23.207767" lon="-44.806308">
        <ele>398.79</ele>
      </trkpt>
      <trkpt lat="-23.207737" lon="-44.806436">
        <ele>400.74</ele>
      </trkpt>
      <trkpt lat="-23.207687" lon="-44.806548">
        <ele>402.17</ele>
      </trkpt>
      <trkpt lat="-23.207501" lon="-44.806791">
        <ele>406.19</ele>
      </trkpt>
      <trkpt lat="-23.207343" lon="-44.807">
        <ele>411.64</ele>
      </trkpt>
      <trkpt lat="-23.207291" lon="-44.807103">
        <ele>414.23</ele>
      </trkpt>
      <trkpt lat="-23.20726" lon="-44.807261">
        <ele>416.74</ele>
      </trkpt>
      <trkpt lat="-23.207238" lon="-44.807435">
        <ele>419.49</ele>
      </trkpt>
      <trkpt lat="-23.207239" lon="-44.80768">
        <ele>421.52</ele>
      </trkpt>
      <trkpt lat="-23.207278" lon="-44.807795">
        <ele>421.02</ele>
      </trkpt>
      <trkpt lat="-23.207364" lon="-44.807868">
        <ele>417.9</ele>
      </trkpt>
      <trkpt lat="-23.207476" lon="-44.808012">
        <ele>416.74</ele>
      </trkpt>
      <trkpt lat="-23.207642" lon="-44.808254">
        <ele>418.68</ele>
      </trkpt>
      <trkpt lat="-23.207807" lon="-44.808452">
        <ele>419.29</ele>
      </trkpt>
      <trkpt lat="-23.20786" lon="-44.808686">
        <ele>421.7</ele>
      </trkpt>
      <trkpt lat="-23.207851" lon="-44.80882">
        <ele>423.72</ele>
      </trkpt>
      <trkpt lat="-23.207868" lon="-44.808943">
        <ele>425.36</ele>
      </trkpt>
      <trkpt lat="-23.207908" lon="-44.809017">
        <ele>426.58</ele>
      </trkpt>
      <trkpt lat="-23.208097" lon="-44.809102">
        <ele>426.69</ele>
      </trkpt>
      <trkpt lat="-23.208295" lon="-44.809167">
        <ele>426.59</ele>
      </trkpt>
      <trkpt lat="-23.20838" lon="-44.809276">
        <ele>426.32</ele>
      </trkpt>
      <trkpt lat="-23.208405" lon="-44.809371">
        <ele>426.77</ele>
      </trkpt>
      <trkpt lat="-23.208418" lon="-44.809453">
        <ele>427.19</ele>
      </trkpt>
      <trkpt lat="-23.208339" lon="-44.809899">
        <ele>434.27</ele>
      </trkpt>
      <trkpt lat="-23.208318" lon="-44.810506">
        <ele>444.96</ele>
      </trkpt>
      <trkpt lat="-23.208291" lon="-44.810669">
        <ele>447.22</ele>
      </trkpt>
      <trkpt lat="-23.208249" lon="-44.810842">
        <ele>449.86</ele>
      </trkpt>
      <trkpt lat="-23.208173" lon="-44.81103">
        <ele>453.55</ele>
      </trkpt>
      <trkpt lat="-23.208078" lon="-44.811219">
        <ele>459.03</ele>
      </trkpt>
      <trkpt lat="-23.207943" lon="-44.811426">
        <ele>467.22</ele>
      </trkpt>
      <trkpt lat="-23.207874" lon="-44.811549">
        <ele>471</ele>
      </trkpt>
      <trkpt lat="-23.207843" lon="-44.811646">
        <ele>472.73</ele>
      </trkpt>
      <trkpt lat="-23.207831" lon="-44.811742">
        <ele>473.84</ele>
      </trkpt>
      <trkpt lat="-23.207825" lon="-44.811871">
        <ele>475.12</ele>
      </trkpt>
      <trkpt lat="-23.207842" lon="-44.812075">
        <ele>476.93</ele>
      </trkpt>
      <trkpt lat="-23.207906" lon="-44.812528">
        <ele>480.75</ele>
      </trkpt>
      <trkpt lat="-23.207897" lon="-44.812717">
        <ele>483.42</ele>
      </trkpt>
      <trkpt lat="-23.207867" lon="-44.812822">
        <ele>486.01</ele>
      </trkpt>
      <trkpt lat="-23.207824" lon="-44.812919">
        <ele>489.3</ele>
      </trkpt>
      <trkpt lat="-23.207769" lon="-44.813006">
        <ele>493.32</ele>
      </trkpt>
      <trkpt lat="-23.207688" lon="-44.813071">
        <ele>498.1</ele>
      </trkpt>
      <trkpt lat="-23.207616" lon="-44.813105">
        <ele>502.7</ele>
      </trkpt>
      <trkpt lat="-23.207513" lon="-44.813178">
        <ele>508.26</ele>
      </trkpt>
      <trkpt lat="-23.207443" lon="-44.813283">
        <ele>509.87</ele>
      </trkpt>
      <trkpt lat="-23.207438" lon="-44.813448">
        <ele>506.06</ele>
      </trkpt>
      <trkpt lat="-23.20746" lon="-44.813623">
        <ele>503.02</ele>
      </trkpt>
      <trkpt lat="-23.207502" lon="-44.813724">
        <ele>501.61</ele>
      </trkpt>
      <trkpt lat="-23.207511" lon="-44.813833">
        <ele>501.95</ele>
      </trkpt>
      <trkpt lat="-23.207504" lon="-44.81392">
        <ele>502.79</ele>
      </trkpt>
      <trkpt lat="-23.207507" lon="-44.813985">
        <ele>503.43</ele>
      </trkpt>
      <trkpt lat="-23.207521" lon="-44.814055">
        <ele>503.81</ele>
      </trkpt>
      <trkpt lat="-23.207614" lon="-44.814267">
        <ele>504.98</ele>
      </trkpt>
      <trkpt lat="-23.207631" lon="-44.814363">
        <ele>505.83</ele>
      </trkpt>
      <trkpt lat="-23.207627" lon="-44.814596">
        <ele>508.7</ele>
      </trkpt>
      <trkpt lat="-23.207579" lon="-44.814746">
        <ele>511.1</ele>
      </trkpt>
      <trkpt lat="-23.207556" lon="-44.814774">
        <ele>511.89</ele>
      </trkpt>
      <trkpt lat="-23.207522" lon="-44.814784">
        <ele>512.98</ele>
      </trkpt>
      <trkpt lat="-23.207477" lon="-44.814768">
        <ele>514.4</ele>
      </trkpt>
      <trkpt lat="-23.207426" lon="-44.814775">
        <ele>516.06</ele>
      </trkpt>
      <trkpt lat="-23.207393" lon="-44.814811">
        <ele>517.31</ele>
      </trkpt>
      <trkpt lat="-23.207373" lon="-44.814855">
        <ele>518.19</ele>
      </trkpt>
      <trkpt lat="-23.207364" lon="-44.814953">
        <ele>519.11</ele>
      </trkpt>
      <trkpt lat="-23.207367" lon="-44.815009">
        <ele>519.29</ele>
      </trkpt>
      <trkpt lat="-23.207382" lon="-44.815065">
        <ele>518.98</ele>
      </trkpt>
      <trkpt lat="-23.207413" lon="-44.815119">
        <ele>517.85</ele>
      </trkpt>
      <trkpt lat="-23.207464" lon="-44.815166">
        <ele>515.65</ele>
      </trkpt>
      <trkpt lat="-23.207481" lon="-44.815197">
        <ele>514.91</ele>
      </trkpt>
      <trkpt lat="-23.207483" lon="-44.815236">
        <ele>514.88</ele>
      </trkpt>
      <trkpt lat="-23.207429" lon="-44.815334">
        <ele>518.69</ele>
      </trkpt>
      <trkpt lat="-23.207419" lon="-44.815362">
        <ele>519.69</ele>
      </trkpt>
      <trkpt lat="-23.207424" lon="-44.815391">
        <ele>519.94</ele>
      </trkpt>
      <trkpt lat="-23.207507" lon="-44.815567">
        <ele>519.59</ele>
      </trkpt>
      <trkpt lat="-23.207737" lon="-44.815974">
        <ele>518.29</ele>
      </trkpt>
      <trkpt lat="-23.207777" lon="-44.816081">
        <ele>518.11</ele>
      </trkpt>
      <trkpt lat="-23.20777" lon="-44.816129">
        <ele>519.31</ele>
      </trkpt>
      <trkpt lat="-23.207745" lon="-44.816205">
        <ele>522.48</ele>
      </trkpt>
      <trkpt lat="-23.207734" lon="-44.816283">
        <ele>524.96</ele>
      </trkpt>
      <trkpt lat="-23.207734" lon="-44.816368">
        <ele>527.46</ele>
      </trkpt>
      <trkpt lat="-23.207762" lon="-44.816457">
        <ele>529.17</ele>
      </trkpt>
      <trkpt lat="-23.207819" lon="-44.816525">
        <ele>529.79</ele>
      </trkpt>
      <trkpt lat="-23.207905" lon="-44.816565">
        <ele>529.5</ele>
      </trkpt>
      <trkpt lat="-23.20805" lon="-44.816582">
        <ele>527.31</ele>
      </trkpt>
      <trkpt lat="-23.208115" lon="-44.816603">
        <ele>526.88</ele>
      </trkpt>
      <trkpt lat="-23.208164" lon="-44.816636">
        <ele>527.2</ele>
      </trkpt>
      <trkpt lat="-23.208226" lon="-44.816702">
        <ele>528.72</ele>
      </trkpt>
      <trkpt lat="-23.208301" lon="-44.816751">
        <ele>528.79</ele>
      </trkpt>
      <trkpt lat="-23.208378" lon="-44.816828">
        <ele>529.48</ele>
      </trkpt>
      <trkpt lat="-23.208416" lon="-44.816925">
        <ele>531.53</ele>
      </trkpt>
      <trkpt lat="-23.208419" lon="-44.817038">
        <ele>534.67</ele>
      </trkpt>
      <trkpt lat="-23.208373" lon="-44.817211">
        <ele>540.43</ele>
      </trkpt>
      <trkpt lat="-23.208184" lon="-44.817587">
        <ele>554.34</ele>
      </trkpt>
      <trkpt lat="-23.208153" lon="-44.817672">
        <ele>556.91</ele>
      </trkpt>
      <trkpt lat="-23.208149" lon="-44.817754">
        <ele>558.52</ele>
      </trkpt>
      <trkpt lat="-23.208171" lon="-44.81782">
        <ele>558.5</ele>
      </trkpt>
      <trkpt lat="-23.208246" lon="-44.817882">
        <ele>555.78</ele>
      </trkpt>
      <trkpt lat="-23.208295" lon="-44.81795">
        <ele>554.53</ele>
      </trkpt>
      <trkpt lat="-23.208346" lon="-44.818063">
        <ele>554.53</ele>
      </trkpt>
      <trkpt lat="-23.208359" lon="-44.818136">
        <ele>555.75</ele>
      </trkpt>
      <trkpt lat="-23.208349" lon="-44.818206">
        <ele>557.73</ele>
      </trkpt>
      <trkpt lat="-23.20832" lon="-44.818275">
        <ele>560.42</ele>
      </trkpt>
      <trkpt lat="-23.208301" lon="-44.818365">
        <ele>563.27</ele>
      </trkpt>
      <trkpt lat="-23.208299" lon="-44.818434">
        <ele>564.56</ele>
      </trkpt>
      <trkpt lat="-23.208358" lon="-44.818728">
        <ele>568.54</ele>
      </trkpt>
      <trkpt lat="-23.208323" lon="-44.818862">
        <ele>572.93</ele>
      </trkpt>
      <trkpt lat="-23.208317" lon="-44.818917">
        <ele>574.46</ele>
      </trkpt>
      <trkpt lat="-23.208362" lon="-44.819102">
        <ele>577.19</ele>
      </trkpt>
      <trkpt lat="-23.208426" lon="-44.819243">
        <ele>578.64</ele>
      </trkpt>
      <trkpt lat="-23.208454" lon="-44.819271">
        <ele>578.19</ele>
      </trkpt>
      <trkpt lat="-23.208498" lon="-44.819292">
        <ele>576.91</ele>
      </trkpt>
      <trkpt lat="-23.208522" lon="-44.819328">
        <ele>577.01</ele>
      </trkpt>
      <trkpt lat="-23.20852" lon="-44.819472">
        <ele>581.73</ele>
      </trkpt>
      <trkpt lat="-23.208555" lon="-44.819718">
        <ele>587.31</ele>
      </trkpt>
      <trkpt lat="-23.208617" lon="-44.820015">
        <ele>594.65</ele>
      </trkpt>
      <trkpt lat="-23.208652" lon="-44.820104">
        <ele>596.23</ele>
      </trkpt>
      <trkpt lat="-23.2087" lon="-44.820191">
        <ele>598.04</ele>
      </trkpt>
      <trkpt lat="-23.208775" lon="-44.82028">
        <ele>597.78</ele>
      </trkpt>
      <trkpt lat="-23.208846" lon="-44.820378">
        <ele>598.91</ele>
      </trkpt>
      <trkpt lat="-23.209" lon="-44.820682">
        <ele>603.5</ele>
      </trkpt>
      <trkpt lat="-23.209086" lon="-44.820943">
        <ele>608.56</ele>
      </trkpt>
      <trkpt lat="-23.209166" lon="-44.821217">
        <ele>615.2</ele>
      </trkpt>
      <trkpt lat="-23.20922" lon="-44.821371">
        <ele>618.06</ele>
      </trkpt>
      <trkpt lat="-23.209295" lon="-44.821514">
        <ele>618.41</ele>
      </trkpt>
      <trkpt lat="-23.209379" lon="-44.821644">
        <ele>617.63</ele>
      </trkpt>
      <trkpt lat="-23.209449" lon="-44.821771">
        <ele>616.49</ele>
      </trkpt>
      <trkpt lat="-23.209506" lon="-44.821853">
        <ele>615.3</ele>
      </trkpt>
      <trkpt lat="-23.209543" lon="-44.821941">
        <ele>614.93</ele>
      </trkpt>
      <trkpt lat="-23.209564" lon="-44.822011">
        <ele>614.91</ele>
      </trkpt>
      <trkpt lat="-23.209567" lon="-44.822152">
        <ele>616.32</ele>
      </trkpt>
      <trkpt lat="-23.209549" lon="-44.822222">
        <ele>616.65</ele>
      </trkpt>
      <trkpt lat="-23.209498" lon="-44.822294">
        <ele>618.17</ele>
      </trkpt>
      <trkpt lat="-23.209429" lon="-44.822336">
        <ele>620.52</ele>
      </trkpt>
      <trkpt lat="-23.209357" lon="-44.822363">
        <ele>623.51</ele>
      </trkpt>
      <trkpt lat="-23.209244" lon="-44.822441">
        <ele>628.1</ele>
      </trkpt>
      <trkpt lat="-23.209198" lon="-44.822505">
        <ele>629.73</ele>
      </trkpt>
      <trkpt lat="-23.209137" lon="-44.822705">
        <ele>630.9</ele>
      </trkpt>
      <trkpt lat="-23.2091" lon="-44.822774">
        <ele>631.24</ele>
      </trkpt>
      <trkpt lat="-23.209052" lon="-44.822825">
        <ele>631.59</ele>
      </trkpt>
      <trkpt lat="-23.208969" lon="-44.822858">
        <ele>632.83</ele>
      </trkpt>
      <trkpt lat="-23.208864" lon="-44.822867">
        <ele>635.16</ele>
      </trkpt>
      <trkpt lat="-23.2088" lon="-44.822841">
        <ele>637.72</ele>
      </trkpt>
      <trkpt lat="-23.208744" lon="-44.822789">
        <ele>640.93</ele>
      </trkpt>
      <trkpt lat="-23.208678" lon="-44.822713">
        <ele>645.26</ele>
      </trkpt>
      <trkpt lat="-23.20858" lon="-44.822551">
        <ele>653.77</ele>
      </trkpt>
      <trkpt lat="-23.208486" lon="-44.822417">
        <ele>660.96</ele>
      </trkpt>
      <trkpt lat="-23.208424" lon="-44.822347">
        <ele>665.05</ele>
      </trkpt>
      <trkpt lat="-23.208317" lon="-44.822289">
        <ele>669.66</ele>
      </trkpt>
      <trkpt lat="-23.208108" lon="-44.822224">
        <ele>676.64</ele>
      </trkpt>
      <trkpt lat="-23.208031" lon="-44.82224">
        <ele>677.39</ele>
      </trkpt>
      <trkpt lat="-23.20799" lon="-44.822269">
        <ele>676.8</ele>
      </trkpt>
      <trkpt lat="-23.207968" lon="-44.822311">
        <ele>675.38</ele>
      </trkpt>
      <trkpt lat="-23.207959" lon="-44.822365">
        <ele>673.91</ele>
      </trkpt>
      <trkpt lat="-23.207973" lon="-44.822422">
        <ele>671.97</ele>
      </trkpt>
      <trkpt lat="-23.208047" lon="-44.822575">
        <ele>665.9</ele>
      </trkpt>
      <trkpt lat="-23.208068" lon="-44.822653">
        <ele>663.62</ele>
      </trkpt>
      <trkpt lat="-23.208067" lon="-44.822742">
        <ele>662.48</ele>
      </trkpt>
      <trkpt lat="-23.208047" lon="-44.822821">
        <ele>662.58</ele>
      </trkpt>
      <trkpt lat="-23.207976" lon="-44.823045">
        <ele>666.56</ele>
      </trkpt>
      <trkpt lat="-23.20795" lon="-44.823167">
        <ele>669.05</ele>
      </trkpt>
      <trkpt lat="-23.207979" lon="-44.823286">
        <ele>667.72</ele>
      </trkpt>
      <trkpt lat="-23.207991" lon="-44.823421">
        <ele>667.69</ele>
      </trkpt>
      <trkpt lat="-23.207974" lon="-44.823553">
        <ele>669.95</ele>
      </trkpt>
      <trkpt lat="-23.207944" lon="-44.823679">
        <ele>673.94</ele>
      </trkpt>
      <trkpt lat="-23.207946" lon="-44.823819">
        <ele>675.25</ele>
      </trkpt>
      <trkpt lat="-23.207931" lon="-44.823969">
        <ele>676.98</ele>
      </trkpt>
      <trkpt lat="-23.207938" lon="-44.82415">
        <ele>676.93</ele>
      </trkpt>
      <trkpt lat="-23.207925" lon="-44.824268">
        <ele>677.62</ele>
      </trkpt>
      <trkpt lat="-23.207895" lon="-44.824376">
        <ele>678.85</ele>
      </trkpt>
      <trkpt lat="-23.207857" lon="-44.824475">
        <ele>680.75</ele>
      </trkpt>
      <trkpt lat="-23.207802" lon="-44.824561">
        <ele>683.32</ele>
      </trkpt>
      <trkpt lat="-23.207683" lon="-44.824698">
        <ele>687.85</ele>
      </trkpt>
      <trkpt lat="-23.207573" lon="-44.824849">
        <ele>691.59</ele>
      </trkpt>
      <trkpt lat="-23.207435" lon="-44.824995">
        <ele>695.71</ele>
      </trkpt>
      <trkpt lat="-23.207325" lon="-44.825128">
        <ele>700.17</ele>
      </trkpt>
      <trkpt lat="-23.207252" lon="-44.825228">
        <ele>704.05</ele>
      </trkpt>
      <trkpt lat="-23.207205" lon="-44.825347">
        <ele>707.14</ele>
      </trkpt>
      <trkpt lat="-23.207204" lon="-44.825428">
        <ele>708.23</ele>
      </trkpt>
      <trkpt lat="-23.207225" lon="-44.825485">
        <ele>709.18</ele>
      </trkpt>
      <trkpt lat="-23.207279" lon="-44.825525">
        <ele>708.64</ele>
      </trkpt>
      <trkpt lat="-23.207396" lon="-44.825569">
        <ele>706.27</ele>
      </trkpt>
      <trkpt lat="-23.207471" lon="-44.825644">
        <ele>705.72</ele>
      </trkpt>
      <trkpt lat="-23.20751" lon="-44.825746">
        <ele>706.87</ele>
      </trkpt>
      <trkpt lat="-23.207499" lon="-44.825934">
        <ele>710.78</ele>
      </trkpt>
      <trkpt lat="-23.207479" lon="-44.826093">
        <ele>713.63</ele>
      </trkpt>
      <trkpt lat="-23.207477" lon="-44.826237">
        <ele>715.42</ele>
      </trkpt>
      <trkpt lat="-23.207528" lon="-44.826387">
        <ele>715.02</ele>
      </trkpt>
      <trkpt lat="-23.20761" lon="-44.826546">
        <ele>715.63</ele>
      </trkpt>
      <trkpt lat="-23.207671" lon="-44.826697">
        <ele>717.39</ele>
      </trkpt>
      <trkpt lat="-23.207706" lon="-44.826888">
        <ele>719.26</ele>
      </trkpt>
      <trkpt lat="-23.207707" lon="-44.827043">
        <ele>720.54</ele>
      </trkpt>
      <trkpt lat="-23.20764" lon="-44.827218">
        <ele>723.11</ele>
      </trkpt>
      <trkpt lat="-23.207548" lon="-44.827383">
        <ele>725.69</ele>
      </trkpt>
      <trkpt lat="-23.20743" lon="-44.827541">
        <ele>727.35</ele>
      </trkpt>
      <trkpt lat="-23.207305" lon="-44.827636">
        <ele>728.18</ele>
      </trkpt>
      <trkpt lat="-23.2072" lon="-44.827675">
        <ele>728.37</ele>
      </trkpt>
      <trkpt lat="-23.207104" lon="-44.827693">
        <ele>728.1</ele>
      </trkpt>
      <trkpt lat="-23.206967" lon="-44.827641">
        <ele>730.05</ele>
      </trkpt>
      <trkpt lat="-23.206872" lon="-44.827543">
        <ele>732.97</ele>
      </trkpt>
      <trkpt lat="-23.206841" lon="-44.827469">
        <ele>735.45</ele>
      </trkpt>
      <trkpt lat="-23.20683" lon="-44.827392">
        <ele>737.4</ele>
      </trkpt>
      <trkpt lat="-23.206853" lon="-44.827305">
        <ele>739.36</ele>
      </trkpt>
      <trkpt lat="-23.206865" lon="-44.827224">
        <ele>740.29</ele>
      </trkpt>
      <trkpt lat="-23.206853" lon="-44.827164">
        <ele>741.18</ele>
      </trkpt>
      <trkpt lat="-23.206826" lon="-44.827129">
        <ele>741.91</ele>
      </trkpt>
      <trkpt lat="-23.20678" lon="-44.827119">
        <ele>742.61</ele>
      </trkpt>
      <trkpt lat="-23.206396" lon="-44.827177">
        <ele>743.78</ele>
      </trkpt>
      <trkpt lat="-23.206319" lon="-44.827152">
        <ele>743.52</ele>
      </trkpt>
      <trkpt lat="-23.206248" lon="-44.827091">
        <ele>744.32</ele>
      </trkpt>
      <trkpt lat="-23.20617" lon="-44.826977">
        <ele>746.18</ele>
      </trkpt>
      <trkpt lat="-23.20606" lon="-44.826773">
        <ele>749.69</ele>
      </trkpt>
      <trkpt lat="-23.205994" lon="-44.826671">
        <ele>751.3</ele>
      </trkpt>
      <trkpt lat="-23.205779" lon="-44.826577">
        <ele>750.95</ele>
      </trkpt>
      <trkpt lat="-23.20549" lon="-44.826394">
        <ele>751.22</ele>
      </trkpt>
      <trkpt lat="-23.205348" lon="-44.826293">
        <ele>750.94</ele>
      </trkpt>
      <trkpt lat="-23.205222" lon="-44.826204">
        <ele>752.61</ele>
      </trkpt>
      <trkpt lat="-23.205147" lon="-44.826176">
        <ele>752.77</ele>
      </trkpt>
      <trkpt lat="-23.205085" lon="-44.826165">
        <ele>753.93</ele>
      </trkpt>
      <trkpt lat="-23.205027" lon="-44.82618">
        <ele>754.13</ele>
      </trkpt>
      <trkpt lat="-23.204974" lon="-44.82624">
        <ele>753.22</ele>
      </trkpt>
      <trkpt lat="-23.204952" lon="-44.826319">
        <ele>752.41</ele>
      </trkpt>
      <trkpt lat="-23.204928" lon="-44.826515">
        <ele>752.08</ele>
      </trkpt>
      <trkpt lat="-23.204924" lon="-44.826857">
        <ele>750.09</ele>
      </trkpt>
      <trkpt lat="-23.204876" lon="-44.827012">
        <ele>750.02</ele>
      </trkpt>
      <trkpt lat="-23.204801" lon="-44.827137">
        <ele>750.14</ele>
      </trkpt>
      <trkpt lat="-23.204627" lon="-44.827281">
        <ele>752.38</ele>
      </trkpt>
      <trkpt lat="-23.204446" lon="-44.827382">
        <ele>755.6</ele>
      </trkpt>
      <trkpt lat="-23.204356" lon="-44.827415">
        <ele>757.58</ele>
      </trkpt>
      <trkpt lat="-23.204236" lon="-44.827446">
        <ele>759.73</ele>
      </trkpt>
      <trkpt lat="-23.204118" lon="-44.82746">
        <ele>762.3</ele>
      </trkpt>
      <trkpt lat="-23.204009" lon="-44.827453">
        <ele>765.71</ele>
      </trkpt>
      <trkpt lat="-23.203899" lon="-44.827416">
        <ele>771.23</ele>
      </trkpt>
      <trkpt lat="-23.203853" lon="-44.827421">
        <ele>773.07</ele>
      </trkpt>
      <trkpt lat="-23.203801" lon="-44.827475">
        <ele>772.85</ele>
      </trkpt>
      <trkpt lat="-23.20376" lon="-44.827619">
        <ele>768.19</ele>
      </trkpt>
      <trkpt lat="-23.203712" lon="-44.827713">
        <ele>767.09</ele>
      </trkpt>
      <trkpt lat="-23.203435" lon="-44.828041">
        <ele>770.44</ele>
      </trkpt>
      <trkpt lat="-23.20336" lon="-44.828165">
        <ele>768.98</ele>
      </trkpt>
      <trkpt lat="-23.203227" lon="-44.828234">
        <ele>770.1</ele>
      </trkpt>
      <trkpt lat="-23.203117" lon="-44.828264">
        <ele>770.94</ele>
      </trkpt>
      <trkpt lat="-23.203" lon="-44.828276">
        <ele>772.69</ele>
      </trkpt>
      <trkpt lat="-23.202859" lon="-44.828233">
        <ele>776.95</ele>
      </trkpt>
      <trkpt lat="-23.202767" lon="-44.82816">
        <ele>781.03</ele>
      </trkpt>
      <trkpt lat="-23.2027" lon="-44.828143">
        <ele>783.87</ele>
      </trkpt>
      <trkpt lat="-23.202634" lon="-44.82815">
        <ele>785.61</ele>
      </trkpt>
      <trkpt lat="-23.202589" lon="-44.828173">
        <ele>786.67</ele>
      </trkpt>
      <trkpt lat="-23.20252" lon="-44.828238">
        <ele>788.27</ele>
      </trkpt>
      <trkpt lat="-23.202446" lon="-44.828406">
        <ele>787.61</ele>
      </trkpt>
      <trkpt lat="-23.20237" lon="-44.828553">
        <ele>788.36</ele>
      </trkpt>
      <trkpt lat="-23.202309" lon="-44.828596">
        <ele>790.51</ele>
      </trkpt>
      <trkpt lat="-23.202082" lon="-44.828717">
        <ele>797.87</ele>
      </trkpt>
      <trkpt lat="-23.201874" lon="-44.828865">
        <ele>798.82</ele>
      </trkpt>
      <trkpt lat="-23.201707" lon="-44.828879">
        <ele>801.67</ele>
      </trkpt>
      <trkpt lat="-23.201507" lon="-44.828839">
        <ele>807.36</ele>
      </trkpt>
      <trkpt lat="-23.201446" lon="-44.828861">
        <ele>807.4</ele>
      </trkpt>
      <trkpt lat="-23.2013" lon="-44.829048">
        <ele>804.79</ele>
      </trkpt>
      <trkpt lat="-23.201091" lon="-44.82924">
        <ele>808.93</ele>
      </trkpt>
      <trkpt lat="-23.200881" lon="-44.829433">
        <ele>813.1</ele>
      </trkpt>
      <trkpt lat="-23.200613" lon="-44.829573">
        <ele>820.02</ele>
      </trkpt>
      <trkpt lat="-23.20052" lon="-44.829621">
        <ele>821.06</ele>
      </trkpt>
      <trkpt lat="-23.200449" lon="-44.829624">
        <ele>822.09</ele>
      </trkpt>
      <trkpt lat="-23.200393" lon="-44.829612">
        <ele>822.98</ele>
      </trkpt>
      <trkpt lat="-23.200317" lon="-44.829582">
        <ele>823.93</ele>
      </trkpt>
      <trkpt lat="-23.199962" lon="-44.829378">
        <ele>829.02</ele>
      </trkpt>
      <trkpt lat="-23.199899" lon="-44.829376">
        <ele>829.49</ele>
      </trkpt>
      <trkpt lat="-23.199839" lon="-44.82941">
        <ele>829.57</ele>
      </trkpt>
      <trkpt lat="-23.199666" lon="-44.829572">
        <ele>830.5</ele>
      </trkpt>
      <trkpt lat="-23.199631" lon="-44.829637">
        <ele>830.63</ele>
      </trkpt>
      <trkpt lat="-23.199503" lon="-44.829767">
        <ele>832.7</ele>
      </trkpt>
      <trkpt lat="-23.19938" lon="-44.829876">
        <ele>835.16</ele>
      </trkpt>
      <trkpt lat="-23.199285" lon="-44.829945">
        <ele>837.65</ele>
      </trkpt>
      <trkpt lat="-23.199191" lon="-44.829996">
        <ele>839.95</ele>
      </trkpt>
      <trkpt lat="-23.199084" lon="-44.830034">
        <ele>842.18</ele>
      </trkpt>
      <trkpt lat="-23.198834" lon="-44.830073">
        <ele>847.77</ele>
      </trkpt>
      <trkpt lat="-23.198717" lon="-44.830137">
        <ele>849.94</ele>
      </trkpt>
      <trkpt lat="-23.198665" lon="-44.830188">
        <ele>851.1</ele>
      </trkpt>
      <trkpt lat="-23.198638" lon="-44.830243">
        <ele>851.78</ele>
      </trkpt>
      <trkpt lat="-23.198595" lon="-44.830433">
        <ele>853.25</ele>
      </trkpt>
      <trkpt lat="-23.198549" lon="-44.830518">
        <ele>855.89</ele>
      </trkpt>
      <trkpt lat="-23.198514" lon="-44.830615">
        <ele>858.84</ele>
      </trkpt>
      <trkpt lat="-23.198505" lon="-44.830703">
        <ele>861.63</ele>
      </trkpt>
      <trkpt lat="-23.19853" lon="-44.83079">
        <ele>863.89</ele>
      </trkpt>
      <trkpt lat="-23.19857" lon="-44.83085">
        <ele>865.64</ele>
      </trkpt>
      <trkpt lat="-23.198684" lon="-44.830975">
        <ele>870.44</ele>
      </trkpt>
      <trkpt lat="-23.198748" lon="-44.831003">
        <ele>871.69</ele>
      </trkpt>
      <trkpt lat="-23.198945" lon="-44.830973">
        <ele>868.98</ele>
      </trkpt>
      <trkpt lat="-23.199072" lon="-44.830965">
        <ele>867.69</ele>
      </trkpt>
      <trkpt lat="-23.199185" lon="-44.83098">
        <ele>867.55</ele>
      </trkpt>
      <trkpt lat="-23.199241" lon="-44.831001">
        <ele>868.08</ele>
      </trkpt>
      <trkpt lat="-23.199373" lon="-44.831123">
        <ele>874.49</ele>
      </trkpt>
      <trkpt lat="-23.199421" lon="-44.831153">
        <ele>876.21</ele>
      </trkpt>
      <trkpt lat="-23.199473" lon="-44.831168">
        <ele>877.04</ele>
      </trkpt>
      <trkpt lat="-23.199794" lon="-44.831083">
        <ele>871.95</ele>
      </trkpt>
      <trkpt lat="-23.199922" lon="-44.831106">
        <ele>871.64</ele>
      </trkpt>
      <trkpt lat="-23.200028" lon="-44.8312">
        <ele>874.74</ele>
      </trkpt>
      <trkpt lat="-23.200285" lon="-44.831502">
        <ele>880.27</ele>
      </trkpt>
      <trkpt lat="-23.200469" lon="-44.831683">
        <ele>881.9</ele>
      </trkpt>
      <trkpt lat="-23.200836" lon="-44.832047">
        <ele>888.55</ele>
      </trkpt>
      <trkpt lat="-23.20109" lon="-44.832311">
        <ele>894.2</ele>
      </trkpt>
      <trkpt lat="-23.201367" lon="-44.832513">
        <ele>898.17</ele>
      </trkpt>
      <trkpt lat="-23.201535" lon="-44.832596">
        <ele>899.48</ele>
      </trkpt>
      <trkpt lat="-23.201884" lon="-44.832747">
        <ele>903.15</ele>
      </trkpt>
      <trkpt lat="-23.20212" lon="-44.832862">
        <ele>905.51</ele>
      </trkpt>
      <trkpt lat="-23.202281" lon="-44.832951">
        <ele>909.12</ele>
      </trkpt>
      <trkpt lat="-23.202555" lon="-44.832994">
        <ele>904.92</ele>
      </trkpt>
      <trkpt lat="-23.202687" lon="-44.833068">
        <ele>905.43</ele>
      </trkpt>
      <trkpt lat="-23.202763" lon="-44.83313">
        <ele>906.02</ele>
      </trkpt>
      <trkpt lat="-23.202829" lon="-44.833241">
        <ele>908.31</ele>
      </trkpt>
      <trkpt lat="-23.202864" lon="-44.833317">
        <ele>909.73</ele>
      </trkpt>
      <trkpt lat="-23.202893" lon="-44.833416">
        <ele>910.47</ele>
      </trkpt>
      <trkpt lat="-23.202888" lon="-44.833533">
        <ele>912.02</ele>
      </trkpt>
      <trkpt lat="-23.202819" lon="-44.833711">
        <ele>915.52</ele>
      </trkpt>
      <trkpt lat="-23.202754" lon="-44.833779">
        <ele>918.1</ele>
      </trkpt>
      <trkpt lat="-23.202679" lon="-44.833823">
        <ele>921.42</ele>
      </trkpt>
      <trkpt lat="-23.202584" lon="-44.833903">
        <ele>925.85</ele>
      </trkpt>
      <trkpt lat="-23.2025" lon="-44.833995">
        <ele>930.09</ele>
      </trkpt>
      <trkpt lat="-23.202438" lon="-44.834161">
        <ele>933.09</ele>
      </trkpt>
      <trkpt lat="-23.202364" lon="-44.834536">
        <ele>936.72</ele>
      </trkpt>
      <trkpt lat="-23.202335" lon="-44.834756">
        <ele>940.86</ele>
      </trkpt>
      <trkpt lat="-23.202287" lon="-44.834854">
        <ele>945.12</ele>
      </trkpt>
      <trkpt lat="-23.202217" lon="-44.834933">
        <ele>950.35</ele>
      </trkpt>
      <trkpt lat="-23.202142" lon="-44.834974">
        <ele>954.83</ele>
      </trkpt>
      <trkpt lat="-23.202069" lon="-44.83496">
        <ele>957.67</ele>
      </trkpt>
      <trkpt lat="-23.202" lon="-44.834908">
        <ele>959.22</ele>
      </trkpt>
      <trkpt lat="-23.201927" lon="-44.834785">
        <ele>960.65</ele>
      </trkpt>
      <trkpt lat="-23.201884" lon="-44.834669">
        <ele>961.09</ele>
      </trkpt>
      <trkpt lat="-23.201879" lon="-44.834555">
        <ele>960.1</ele>
      </trkpt>
      <trkpt lat="-23.201909" lon="-44.834335">
        <ele>958.13</ele>
      </trkpt>
      <trkpt lat="-23.201932" lon="-44.834071">
        <ele>956.97</ele>
      </trkpt>
      <trkpt lat="-23.201907" lon="-44.833924">
        <ele>957.52</ele>
      </trkpt>
      <trkpt lat="-23.201887" lon="-44.833877">
        <ele>958.04</ele>
      </trkpt>
      <trkpt lat="-23.201849" lon="-44.83383">
        <ele>958.96</ele>
      </trkpt>
      <trkpt lat="-23.201756" lon="-44.833767">
        <ele>961.39</ele>
      </trkpt>
      <trkpt lat="-23.201618" lon="-44.83375">
        <ele>966.08</ele>
      </trkpt>
      <trkpt lat="-23.201491" lon="-44.833721">
        <ele>969.39</ele>
      </trkpt>
      <trkpt lat="-23.201219" lon="-44.833716">
        <ele>975.75</ele>
      </trkpt>
      <trkpt lat="-23.200775" lon="-44.83376">
        <ele>985.55</ele>
      </trkpt>
      <trkpt lat="-23.200458" lon="-44.833816">
        <ele>993.31</ele>
      </trkpt>
      <trkpt lat="-23.200359" lon="-44.833811">
        <ele>994.06</ele>
      </trkpt>
      <trkpt lat="-23.200279" lon="-44.833764">
        <ele>992.21</ele>
      </trkpt>
      <trkpt lat="-23.200033" lon="-44.83367">
        <ele>990.01</ele>
      </trkpt>
      <trkpt lat="-23.199922" lon="-44.833631">
        <ele>989.18</ele>
      </trkpt>
      <trkpt lat="-23.199845" lon="-44.833624">
        <ele>989.7</ele>
      </trkpt>
      <trkpt lat="-23.199378" lon="-44.833811">
        <ele>1004.33</ele>
      </trkpt>
      <trkpt lat="-23.199287" lon="-44.833836">
        <ele>1006.35</ele>
      </trkpt>
      <trkpt lat="-23.198798" lon="-44.833854">
        <ele>1009.95</ele>
      </trkpt>
      <trkpt lat="-23.198658" lon="-44.833868">
        <ele>1009.56</ele>
      </trkpt>
      <trkpt lat="-23.198516" lon="-44.833905">
        <ele>1009.28</ele>
      </trkpt>
      <trkpt lat="-23.198411" lon="-44.833941">
        <ele>1009.38</ele>
      </trkpt>
      <trkpt lat="-23.198264" lon="-44.834018">
        <ele>1010.32</ele>
      </trkpt>
      <trkpt lat="-23.198002" lon="-44.834209">
        <ele>1012.47</ele>
      </trkpt>
      <trkpt lat="-23.197927" lon="-44.834336">
        <ele>1013.55</ele>
      </trkpt>
      <trkpt lat="-23.197869" lon="-44.834493">
        <ele>1014.97</ele>
      </trkpt>
      <trkpt lat="-23.197799" lon="-44.834653">
        <ele>1015.98</ele>
      </trkpt>
      <trkpt lat="-23.197743" lon="-44.834755">
        <ele>1016.37</ele>
      </trkpt>
      <trkpt lat="-23.197648" lon="-44.834889">
        <ele>1017.18</ele>
      </trkpt>
      <trkpt lat="-23.197558" lon="-44.835033">
        <ele>1017.65</ele>
      </trkpt>
      <trkpt lat="-23.197515" lon="-44.835148">
        <ele>1017.91</ele>
      </trkpt>
      <trkpt lat="-23.197518" lon="-44.835226">
        <ele>1018.89</ele>
      </trkpt>
      <trkpt lat="-23.197565" lon="-44.835289">
        <ele>1020.8</ele>
      </trkpt>
      <trkpt lat="-23.197632" lon="-44.835314">
        <ele>1022.57</ele>
      </trkpt>
      <trkpt lat="-23.197705" lon="-44.835308">
        <ele>1024.1</ele>
      </trkpt>
      <trkpt lat="-23.197796" lon="-44.835271">
        <ele>1026.18</ele>
      </trkpt>
      <trkpt lat="-23.197913" lon="-44.835183">
        <ele>1028.32</ele>
      </trkpt>
      <trkpt lat="-23.19803" lon="-44.835019">
        <ele>1029.17</ele>
      </trkpt>
      <trkpt lat="-23.198108" lon="-44.834862">
        <ele>1029.35</ele>
      </trkpt>
      <trkpt lat="-23.198191" lon="-44.834716">
        <ele>1029.97</ele>
      </trkpt>
      <trkpt lat="-23.198246" lon="-44.834603">
        <ele>1029.04</ele>
      </trkpt>
      <trkpt lat="-23.198313" lon="-44.834547">
        <ele>1029.27</ele>
      </trkpt>
      <trkpt lat="-23.198409" lon="-44.834488">
        <ele>1029.83</ele>
      </trkpt>
      <trkpt lat="-23.198555" lon="-44.834478">
        <ele>1033.33</ele>
      </trkpt>
      <trkpt lat="-23.198666" lon="-44.834491">
        <ele>1036.72</ele>
      </trkpt>
      <trkpt lat="-23.198806" lon="-44.834528">
        <ele>1040.28</ele>
      </trkpt>
      <trkpt lat="-23.199153" lon="-44.834676">
        <ele>1048.33</ele>
      </trkpt>
      <trkpt lat="-23.199398" lon="-44.834835">
        <ele>1054.2</ele>
      </trkpt>
      <trkpt lat="-23.199589" lon="-44.835004">
        <ele>1059.42</ele>
      </trkpt>
      <trkpt lat="-23.199815" lon="-44.835192">
        <ele>1061.54</ele>
      </trkpt>
      <trkpt lat="-23.199927" lon="-44.835335">
        <ele>1062.35</ele>
      </trkpt>
      <trkpt lat="-23.199946" lon="-44.835442">
        <ele>1064.62</ele>
      </trkpt>
      <trkpt lat="-23.19991" lon="-44.835514">
        <ele>1067.6</ele>
      </trkpt>
      <trkpt lat="-23.199871" lon="-44.835549">
        <ele>1070.14</ele>
      </trkpt>
      <trkpt lat="-23.199825" lon="-44.835565">
        <ele>1072.62</ele>
      </trkpt>
      <trkpt lat="-23.199771" lon="-44.835558">
        <ele>1074.72</ele>
      </trkpt>
      <trkpt lat="-23.199696" lon="-44.835513">
        <ele>1076.34</ele>
      </trkpt>
      <trkpt lat="-23.199595" lon="-44.835418">
        <ele>1076.39</ele>
      </trkpt>
      <trkpt lat="-23.199464" lon="-44.835281">
        <ele>1074.07</ele>
      </trkpt>
      <trkpt lat="-23.199329" lon="-44.835183">
        <ele>1070.82</ele>
      </trkpt>
      <trkpt lat="-23.199209" lon="-44.835131">
        <ele>1068.56</ele>
      </trkpt>
      <trkpt lat="-23.199085" lon="-44.835118">
        <ele>1067.84</ele>
      </trkpt>
      <trkpt lat="-23.198919" lon="-44.835123">
        <ele>1067.21</ele>
      </trkpt>
      <trkpt lat="-23.198811" lon="-44.83514">
        <ele>1066.59</ele>
      </trkpt>
      <trkpt lat="-23.198711" lon="-44.835214">
        <ele>1066.64</ele>
      </trkpt>
      <trkpt lat="-23.198635" lon="-44.835311">
        <ele>1067.48</ele>
      </trkpt>
      <trkpt lat="-23.198569" lon="-44.835463">
        <ele>1069.82</ele>
      </trkpt>
      <trkpt lat="-23.19849" lon="-44.835553">
        <ele>1069.24</ele>
      </trkpt>
      <trkpt lat="-23.198373" lon="-44.83565">
        <ele>1065.07</ele>
      </trkpt>
      <trkpt lat="-23.198336" lon="-44.835757">
        <ele>1065.29</ele>
      </trkpt>
      <trkpt lat="-23.198331" lon="-44.835879">
        <ele>1067.8</ele>
      </trkpt>
      <trkpt lat="-23.198337" lon="-44.83611">
        <ele>1073.68</ele>
      </trkpt>
      <trkpt lat="-23.198323" lon="-44.836401">
        <ele>1080.83</ele>
      </trkpt>
      <trkpt lat="-23.198295" lon="-44.836584">
        <ele>1086.72</ele>
      </trkpt>
      <trkpt lat="-23.198205" lon="-44.836746">
        <ele>1090.14</ele>
      </trkpt>
      <trkpt lat="-23.198116" lon="-44.836866">
        <ele>1091.23</ele>
      </trkpt>
      <trkpt lat="-23.197897" lon="-44.837066">
        <ele>1088.68</ele>
      </trkpt>
      <trkpt lat="-23.197843" lon="-44.837171">
        <ele>1088.57</ele>
      </trkpt>
      <trkpt lat="-23.197848" lon="-44.837257">
        <ele>1089.82</ele>
      </trkpt>
      <trkpt lat="-23.197906" lon="-44.837344">
        <ele>1092.02</ele>
      </trkpt>
      <trkpt lat="-23.197991" lon="-44.837418">
        <ele>1094.61</ele>
      </trkpt>
      <trkpt lat="-23.198092" lon="-44.837533">
        <ele>1098.25</ele>
      </trkpt>
      <trkpt lat="-23.198484" lon="-44.83824">
        <ele>1114.19</ele>
      </trkpt>
      <trkpt lat="-23.198708" lon="-44.838615">
        <ele>1117.95</ele>
      </trkpt>
      <trkpt lat="-23.198841" lon="-44.838791">
        <ele>1119.82</ele>
      </trkpt>
      <trkpt lat="-23.19894" lon="-44.838978">
        <ele>1120.95</ele>
      </trkpt>
      <trkpt lat="-23.198972" lon="-44.83908">
        <ele>1121.41</ele>
      </trkpt>
      <trkpt lat="-23.198964" lon="-44.839166">
        <ele>1121.9</ele>
      </trkpt>
      <trkpt lat="-23.198933" lon="-44.839248">
        <ele>1122</ele>
      </trkpt>
      <trkpt lat="-23.198884" lon="-44.839299">
        <ele>1122</ele>
      </trkpt>
      <trkpt lat="-23.198814" lon="-44.83933">
        <ele>1122</ele>
      </trkpt>
      <trkpt lat="-23.198621" lon="-44.839357">
        <ele>1122.3</ele>
      </trkpt>
      <trkpt lat="-23.198523" lon="-44.839397">
        <ele>1122.92</ele>
      </trkpt>
      <trkpt lat="-23.19836" lon="-44.839488">
        <ele>1124.69</ele>
      </trkpt>
      <trkpt lat="-23.198213" lon="-44.839545">
        <ele>1124.99</ele>
      </trkpt>
      <trkpt lat="-23.198112" lon="-44.839533">
        <ele>1126.04</ele>
      </trkpt>
      <trkpt lat="-23.198044" lon="-44.839503">
        <ele>1126.91</ele>
      </trkpt>
      <trkpt lat="-23.197864" lon="-44.839324">
        <ele>1133.33</ele>
      </trkpt>
      <trkpt lat="-23.19758" lon="-44.839006">
        <ele>1140.06</ele>
      </trkpt>
      <trkpt lat="-23.197373" lon="-44.838817">
        <ele>1144.76</ele>
      </trkpt>
      <trkpt lat="-23.197166" lon="-44.838683">
        <ele>1147.88</ele>
      </trkpt>
      <trkpt lat="-23.196931" lon="-44.838654">
        <ele>1154.25</ele>
      </trkpt>
      <trkpt lat="-23.19663" lon="-44.838679">
        <ele>1159.72</ele>
      </trkpt>
      <trkpt lat="-23.196216" lon="-44.838732">
        <ele>1162.49</ele>
      </trkpt>
      <trkpt lat="-23.19571" lon="-44.838788">
        <ele>1169.28</ele>
      </trkpt>
      <trkpt lat="-23.195573" lon="-44.838775">
        <ele>1171.75</ele>
      </trkpt>
      <trkpt lat="-23.195419" lon="-44.838695">
        <ele>1172.37</ele>
      </trkpt>
      <trkpt lat="-23.195265" lon="-44.838552">
        <ele>1170.99</ele>
      </trkpt>
      <trkpt lat="-23.195141" lon="-44.83835">
        <ele>1166.09</ele>
      </trkpt>
      <trkpt lat="-23.195023" lon="-44.838177">
        <ele>1164.2</ele>
      </trkpt>
      <trkpt lat="-23.195002" lon="-44.838147">
        <ele>1163.86</ele>
      </trkpt>
      <trkpt lat="-23.194799" lon="-44.837939">
        <ele>1164.22</ele>
      </trkpt>
      <trkpt lat="-23.194595" lon="-44.83779">
        <ele>1165.5</ele>
      </trkpt>
      <trkpt lat="-23.194402" lon="-44.83771">
        <ele>1167.04</ele>
      </trkpt>
      <trkpt lat="-23.194231" lon="-44.837715">
        <ele>1168.81</ele>
      </trkpt>
      <trkpt lat="-23.194032" lon="-44.837741">
        <ele>1170.81</ele>
      </trkpt>
      <trkpt lat="-23.193865" lon="-44.837807">
        <ele>1173.63</ele>
      </trkpt>
      <trkpt lat="-23.193732" lon="-44.837888">
        <ele>1176.83</ele>
      </trkpt>
      <trkpt lat="-23.193368" lon="-44.838146">
        <ele>1182.78</ele>
      </trkpt>
      <trkpt lat="-23.193034" lon="-44.838373">
        <ele>1185.97</ele>
      </trkpt>
      <trkpt lat="-23.192707" lon="-44.838476">
        <ele>1189.68</ele>
      </trkpt>
      <trkpt lat="-23.192165" lon="-44.838525">
        <ele>1199.85</ele>
      </trkpt>
      <trkpt lat="-23.191731" lon="-44.838549">
        <ele>1202.9</ele>
      </trkpt>
      <trkpt lat="-23.191305" lon="-44.838546">
        <ele>1204.09</ele>
      </trkpt>
      <trkpt lat="-23.190964" lon="-44.838476">
        <ele>1207.54</ele>
      </trkpt>
      <trkpt lat="-23.19068" lon="-44.838359">
        <ele>1211.67</ele>
      </trkpt>
      <trkpt lat="-23.19045" lon="-44.838253">
        <ele>1213.13</ele>
      </trkpt>
      <trkpt lat="-23.190221" lon="-44.838147">
        <ele>1209.97</ele>
      </trkpt>
      <trkpt lat="-23.189959" lon="-44.838027">
        <ele>1201.54</ele>
      </trkpt>
      <trkpt lat="-23.189723" lon="-44.837961">
        <ele>1199.01</ele>
      </trkpt>
      <trkpt lat="-23.18955" lon="-44.837913">
        <ele>1199.26</ele>
      </trkpt>
      <trkpt lat="-23.189021" lon="-44.83781">
        <ele>1205.96</ele>
      </trkpt>
      <trkpt lat="-23.188368" lon="-44.837507">
        <ele>1216.41</ele>
      </trkpt>
      <trkpt lat="-23.188254" lon="-44.837471">
        <ele>1216.88</ele>
      </trkpt>
      <trkpt lat="-23.187709" lon="-44.83733">
        <ele>1220.37</ele>
      </trkpt>
      <trkpt lat="-23.187135" lon="-44.837153">
        <ele>1224.59</ele>
      </trkpt>
      <trkpt lat="-23.187019" lon="-44.837139">
        <ele>1226.45</ele>
      </trkpt>
      <trkpt lat="-23.186904" lon="-44.83716">
        <ele>1227.31</ele>
      </trkpt>
      <trkpt lat="-23.186681" lon="-44.837273">
        <ele>1227.08</ele>
      </trkpt>
      <trkpt lat="-23.186459" lon="-44.837387">
        <ele>1228.87</ele>
      </trkpt>
      <trkpt lat="-23.186246" lon="-44.837458">
        <ele>1229.95</ele>
      </trkpt>
      <trkpt lat="-23.18601" lon="-44.837521">
        <ele>1230.97</ele>
      </trkpt>
      <trkpt lat="-23.185771" lon="-44.837545">
        <ele>1229.55</ele>
      </trkpt>
      <trkpt lat="-23.185642" lon="-44.837507">
        <ele>1230.04</ele>
      </trkpt>
      <trkpt lat="-23.185507" lon="-44.837435">
        <ele>1231.29</ele>
      </trkpt>
      <trkpt lat="-23.185226" lon="-44.837253">
        <ele>1233.25</ele>
      </trkpt>
      <trkpt lat="-23.18513" lon="-44.837176">
        <ele>1234.29</ele>
      </trkpt>
      <trkpt lat="-23.185047" lon="-44.837052">
        <ele>1236.47</ele>
      </trkpt>
      <trkpt lat="-23.184985" lon="-44.83682">
        <ele>1241.56</ele>
      </trkpt>
      <trkpt lat="-23.184906" lon="-44.836471">
        <ele>1246.11</ele>
      </trkpt>
      <trkpt lat="-23.184866" lon="-44.836134">
        <ele>1252.68</ele>
      </trkpt>
      <trkpt lat="-23.184833" lon="-44.835639">
        <ele>1266.07</ele>
      </trkpt>
      <trkpt lat="-23.184801" lon="-44.835564">
        <ele>1267.63</ele>
      </trkpt>
      <trkpt lat="-23.184753" lon="-44.83549">
        <ele>1268.76</ele>
      </trkpt>
      <trkpt lat="-23.184641" lon="-44.835398">
        <ele>1269.85</ele>
      </trkpt>
      <trkpt lat="-23.184432" lon="-44.835307">
        <ele>1271.2</ele>
      </trkpt>
      <trkpt lat="-23.184301" lon="-44.835276">
        <ele>1271.84</ele>
      </trkpt>
      <trkpt lat="-23.183857" lon="-44.835195">
        <ele>1273.78</ele>
      </trkpt>
      <trkpt lat="-23.183569" lon="-44.835199">
        <ele>1272.91</ele>
      </trkpt>
      <trkpt lat="-23.183292" lon="-44.835097">
        <ele>1274.3</ele>
      </trkpt>
      <trkpt lat="-23.182968" lon="-44.834809">
        <ele>1281.21</ele>
      </trkpt>
      <trkpt lat="-23.182498" lon="-44.834162">
        <ele>1289.09</ele>
      </trkpt>
      <trkpt lat="-23.182354" lon="-44.833953">
        <ele>1291.77</ele>
      </trkpt>
      <trkpt lat="-23.182229" lon="-44.833796">
        <ele>1293.97</ele>
      </trkpt>
      <trkpt lat="-23.181931" lon="-44.833623">
        <ele>1294.8</ele>
      </trkpt>
      <trkpt lat="-23.181681" lon="-44.83361">
        <ele>1296.49</ele>
      </trkpt>
      <trkpt lat="-23.181241" lon="-44.833631">
        <ele>1298.88</ele>
      </trkpt>
      <trkpt lat="-23.181087" lon="-44.833588">
        <ele>1299.64</ele>
      </trkpt>
      <trkpt lat="-23.18104" lon="-44.833565">
        <ele>1299.63</ele>
      </trkpt>
      <trkpt lat="-23.180886" lon="-44.833414">
        <ele>1301.59</ele>
      </trkpt>
      <trkpt lat="-23.18073" lon="-44.833188">
        <ele>1306.12</ele>
      </trkpt>
      <trkpt lat="-23.180538" lon="-44.832889">
        <ele>1313.93</ele>
      </trkpt>
      <trkpt lat="-23.18037" lon="-44.832762">
        <ele>1316.02</ele>
      </trkpt>
      <trkpt lat="-23.180107" lon="-44.832647">
        <ele>1315.4</ele>
      </trkpt>
      <trkpt lat="-23.179859" lon="-44.832571">
        <ele>1315.13</ele>
      </trkpt>
      <trkpt lat="-23.179462" lon="-44.832362">
        <ele>1321.27</ele>
      </trkpt>
      <trkpt lat="-23.179028" lon="-44.832232">
        <ele>1325.85</ele>
      </trkpt>
      <trkpt lat="-23.178828" lon="-44.832104">
        <ele>1330.25</ele>
      </trkpt>
      <trkpt lat="-23.178732" lon="-44.832033">
        <ele>1332.17</ele>
      </trkpt>
      <trkpt lat="-23.178461" lon="-44.831869">
        <ele>1332.92</ele>
      </trkpt>
      <trkpt lat="-23.178351" lon="-44.831776">
        <ele>1334.94</ele>
      </trkpt>
      <trkpt lat="-23.178112" lon="-44.831553">
        <ele>1340.81</ele>
      </trkpt>
      <trkpt lat="-23.178038" lon="-44.831505">
        <ele>1341.63</ele>
      </trkpt>
      <trkpt lat="-23.177845" lon="-44.831414">
        <ele>1343.09</ele>
      </trkpt>
      <trkpt lat="-23.177653" lon="-44.831398">
        <ele>1343.11</ele>
      </trkpt>
      <trkpt lat="-23.17729" lon="-44.831492">
        <ele>1343.71</ele>
      </trkpt>
      <trkpt lat="-23.177015" lon="-44.831711">
        <ele>1342.59</ele>
      </trkpt>
      <trkpt lat="-23.176861" lon="-44.831935">
        <ele>1344.86</ele>
      </trkpt>
      <trkpt lat="-23.176718" lon="-44.832119">
        <ele>1348.97</ele>
      </trkpt>
      <trkpt lat="-23.176576" lon="-44.832304">
        <ele>1349.38</ele>
      </trkpt>
      <trkpt lat="-23.176246" lon="-44.832519">
        <ele>1355.61</ele>
      </trkpt>
      <trkpt lat="-23.176072" lon="-44.832564">
        <ele>1359.53</ele>
      </trkpt>
      <trkpt lat="-23.175854" lon="-44.832591">
        <ele>1362.34</ele>
      </trkpt>
      <trkpt lat="-23.175635" lon="-44.832618">
        <ele>1362.17</ele>
      </trkpt>
      <trkpt lat="-23.175344" lon="-44.832666">
        <ele>1364.43</ele>
      </trkpt>
      <trkpt lat="-23.175289" lon="-44.832686">
        <ele>1365.13</ele>
      </trkpt>
      <trkpt lat="-23.175058" lon="-44.832771">
        <ele>1368.1</ele>
      </trkpt>
      <trkpt lat="-23.174851" lon="-44.832909">
        <ele>1370.06</ele>
      </trkpt>
      <trkpt lat="-23.174719" lon="-44.833037">
        <ele>1371.41</ele>
      </trkpt>
      <trkpt lat="-23.174488" lon="-44.83331">
        <ele>1376.89</ele>
      </trkpt>
      <trkpt lat="-23.174416" lon="-44.833386">
        <ele>1378.57</ele>
      </trkpt>
      <trkpt lat="-23.174195" lon="-44.833537">
        <ele>1382.38</ele>
      </trkpt>
      <trkpt lat="-23.173975" lon="-44.833689">
        <ele>1383.87</ele>
      </trkpt>
      <trkpt lat="-23.173875" lon="-44.833805">
        <ele>1383.91</ele>
      </trkpt>
      <trkpt lat="-23.173785" lon="-44.833977">
        <ele>1384.81</ele>
      </trkpt>
      <trkpt lat="-23.173735" lon="-44.834172">
        <ele>1385.73</ele>
      </trkpt>
      <trkpt lat="-23.173736" lon="-44.834737">
        <ele>1390.68</ele>
      </trkpt>
      <trkpt lat="-23.173765" lon="-44.835215">
        <ele>1396.75</ele>
      </trkpt>
      <trkpt lat="-23.173746" lon="-44.835398">
        <ele>1398.21</ele>
      </trkpt>
      <trkpt lat="-23.173652" lon="-44.835935">
        <ele>1401.97</ele>
      </trkpt>
      <trkpt lat="-23.173551" lon="-44.836309">
        <ele>1404.68</ele>
      </trkpt>
      <trkpt lat="-23.17349" lon="-44.836439">
        <ele>1405.53</ele>
      </trkpt>
      <trkpt lat="-23.173346" lon="-44.836745">
        <ele>1407.52</ele>
      </trkpt>
      <trkpt lat="-23.173215" lon="-44.836995">
        <ele>1408</ele>
      </trkpt>
      <trkpt lat="-23.173004" lon="-44.837161">
        <ele>1410.48</ele>
      </trkpt>
      <trkpt lat="-23.17288" lon="-44.837161">
        <ele>1412.36</ele>
      </trkpt>
      <trkpt lat="-23.172746" lon="-44.837096">
        <ele>1414.75</ele>
      </trkpt>
      <trkpt lat="-23.17264" lon="-44.837014">
        <ele>1416.91</ele>
      </trkpt>
      <trkpt lat="-23.17257" lon="-44.836922">
        <ele>1418.5</ele>
      </trkpt>
      <trkpt lat="-23.17251" lon="-44.836774">
        <ele>1421.16</ele>
      </trkpt>
      <trkpt lat="-23.172486" lon="-44.836441">
        <ele>1423.75</ele>
      </trkpt>
      <trkpt lat="-23.172469" lon="-44.835792">
        <ele>1430.07</ele>
      </trkpt>
      <trkpt lat="-23.172445" lon="-44.835571">
        <ele>1431.73</ele>
      </trkpt>
      <trkpt lat="-23.172416" lon="-44.835298">
        <ele>1433.78</ele>
      </trkpt>
      <trkpt lat="-23.172371" lon="-44.835086">
        <ele>1434.54</ele>
      </trkpt>
      <trkpt lat="-23.172331" lon="-44.834991">
        <ele>1435.32</ele>
      </trkpt>
      <trkpt lat="-23.172315" lon="-44.834794">
        <ele>1433.93</ele>
      </trkpt>
      <trkpt lat="-23.172355" lon="-44.83451">
        <ele>1431.84</ele>
      </trkpt>
      <trkpt lat="-23.172467" lon="-44.833988">
        <ele>1431.67</ele>
      </trkpt>
      <trkpt lat="-23.172454" lon="-44.833874">
        <ele>1432.18</ele>
      </trkpt>
      <trkpt lat="-23.172403" lon="-44.833753">
        <ele>1432.88</ele>
      </trkpt>
      <trkpt lat="-23.172304" lon="-44.833701">
        <ele>1435.04</ele>
      </trkpt>
      <trkpt lat="-23.172179" lon="-44.833712">
        <ele>1437.73</ele>
      </trkpt>
      <trkpt lat="-23.17207" lon="-44.833752">
        <ele>1440.73</ele>
      </trkpt>
      <trkpt lat="-23.171973" lon="-44.833866">
        <ele>1444.22</ele>
      </trkpt>
      <trkpt lat="-23.171879" lon="-44.834106">
        <ele>1448.78</ele>
      </trkpt>
      <trkpt lat="-23.17185" lon="-44.834444">
        <ele>1451.66</ele>
      </trkpt>
      <trkpt lat="-23.171847" lon="-44.834677">
        <ele>1452.94</ele>
      </trkpt>
      <trkpt lat="-23.171856" lon="-44.834936">
        <ele>1454.73</ele>
      </trkpt>
      <trkpt lat="-23.171983" lon="-44.8355">
        <ele>1454.1</ele>
      </trkpt>
      <trkpt lat="-23.172008" lon="-44.83561">
        <ele>1453.98</ele>
      </trkpt>
      <trkpt lat="-23.171998" lon="-44.835881">
        <ele>1455.69</ele>
      </trkpt>
      <trkpt lat="-23.171965" lon="-44.836013">
        <ele>1457.26</ele>
      </trkpt>
      <trkpt lat="-23.171776" lon="-44.836452">
        <ele>1461.22</ele>
      </trkpt>
      <trkpt lat="-23.171497" lon="-44.837016">
        <ele>1464.47</ele>
      </trkpt>
      <trkpt lat="-23.171416" lon="-44.837131">
        <ele>1466</ele>
      </trkpt>
      <trkpt lat="-23.171157" lon="-44.837331">
        <ele>1470.84</ele>
      </trkpt>
      <trkpt lat="-23.170899" lon="-44.837532">
        <ele>1473.43</ele>
      </trkpt>
      <trkpt lat="-23.170802" lon="-44.837647">
        <ele>1474.6</ele>
      </trkpt>
      <trkpt lat="-23.170727" lon="-44.83777">
        <ele>1476.52</ele>
      </trkpt>
      <trkpt lat="-23.170672" lon="-44.837991">
        <ele>1478.21</ele>
      </trkpt>
      <trkpt lat="-23.170672" lon="-44.837991">
        <ele>1478.21</ele>
      </trkpt>
      <trkpt lat="-23.170549" lon="-44.838483">
        <ele>1481.98</ele>
      </trkpt>
      <trkpt lat="-23.170448" lon="-44.838823">
        <ele>1486.47</ele>
      </trkpt>
      <trkpt lat="-23.170269" lon="-44.839219">
        <ele>1492.28</ele>
      </trkpt>
      <trkpt lat="-23.170165" lon="-44.839402">
        <ele>1495.45</ele>
      </trkpt>
      <trkpt lat="-23.170012" lon="-44.839668">
        <ele>1497.46</ele>
      </trkpt>
      <trkpt lat="-23.169873" lon="-44.839854">
        <ele>1496.67</ele>
      </trkpt>
      <trkpt lat="-23.169744" lon="-44.839998">
        <ele>1495.93</ele>
      </trkpt>
      <trkpt lat="-23.169613" lon="-44.840109">
        <ele>1494.94</ele>
      </trkpt>
      <trkpt lat="-23.16945" lon="-44.840204">
        <ele>1493.39</ele>
      </trkpt>
      <trkpt lat="-23.169244" lon="-44.840269">
        <ele>1493.2</ele>
      </trkpt>
      <trkpt lat="-23.169154" lon="-44.840281">
        <ele>1494.34</ele>
      </trkpt>
      <trkpt lat="-23.168973" lon="-44.840239">
        <ele>1497.45</ele>
      </trkpt>
      <trkpt lat="-23.168739" lon="-44.840149">
        <ele>1503.82</ele>
      </trkpt>
      <trkpt lat="-23.168469" lon="-44.839966">
        <ele>1510.03</ele>
      </trkpt>
      <trkpt lat="-23.168276" lon="-44.839848">
        <ele>1514.78</ele>
      </trkpt>
      <trkpt lat="-23.168083" lon="-44.83973">
        <ele>1517.98</ele>
      </trkpt>
      <trkpt lat="-23.167924" lon="-44.839656">
        <ele>1519.8</ele>
      </trkpt>
      <trkpt lat="-23.167681" lon="-44.839607">
        <ele>1520.93</ele>
      </trkpt>
      <trkpt lat="-23.167439" lon="-44.839616">
        <ele>1521.77</ele>
      </trkpt>
      <trkpt lat="-23.167288" lon="-44.839656">
        <ele>1521.64</ele>
      </trkpt>
      <trkpt lat="-23.16722" lon="-44.839681">
        <ele>1521.13</ele>
      </trkpt>
    </trkseg>
  </trk>
</gpx>
