<?xml version="1.0" encoding="UTF-8"?>
<gpx creator="Wikiloc - https://www.wikiloc.com" version="1.1" xmlns="http://www.topografix.com/GPX/1/1" xmlns:xsi="http://www.w3.org/2001/XMLSchema-instance" xsi:schemaLocation="http://www.topografix.com/GPX/1/1 http://www.topografix.com/GPX/1/1/gpx.xsd">
  <metadata>
    <name>Wikiloc - Ibón de Urdiceto (Parzán)</name>
    <link href="https://www.wikiloc.com/mountain-biking-trails/ibon-de-urdiceto-parzan-250970059">
      <text>Ibón de Urdiceto (Parzán) - Wikiloc on Wikiloc</text>
    </link>
    <time>2019-10-04T14:50:32Z</time>
  </metadata>
  <trk>
    <name>Ibón de Urdiceto (Parzán) - Wikiloc</name>
    <cmt></cmt>
    <desc></desc>
    <trkseg>
      <trkpt lat="42.673026" lon="0.216139">
        <ele>1190.122</ele>
        <time>2019-10-04T12:44:34Z</time>
      </trkpt>
      <trkpt lat="42.672818" lon="0.216248">
        <ele>1192.062</ele>
        <time>2019-10-04T12:44:56Z</time>
      </trkpt>
      <trkpt lat="42.672618" lon="0.216490">
        <ele>1194.508</ele>
        <time>2019-10-04T12:45:24Z</time>
      </trkpt>
      <trkpt lat="42.672453" lon="0.216518">
        <ele>1197.009</ele>
        <time>2019-10-04T12:45:40Z</time>
      </trkpt>
      <trkpt lat="42.671984" lon="0.216815">
        <ele>1201.544</ele>
        <time>2019-10-04T12:46:13Z</time>
      </trkpt>
      <trkpt lat="42.671593" lon="0.217316">
        <ele>1208.157</ele>
        <time>2019-10-04T12:46:40Z</time>
      </trkpt>
      <trkpt lat="42.671698" lon="0.217430">
        <ele>1210.032</ele>
        <time>2019-10-04T12:46:47Z</time>
      </trkpt>
      <trkpt lat="42.672005" lon="0.217221">
        <ele>1213.441</ele>
        <time>2019-10-04T12:47:02Z</time>
      </trkpt>
      <trkpt lat="42.672313" lon="0.217311">
        <ele>1216.449</ele>
        <time>2019-10-04T12:47:18Z</time>
      </trkpt>
      <trkpt lat="42.672473" lon="0.217223">
        <ele>1218.552</ele>
        <time>2019-10-04T12:47:28Z</time>
      </trkpt>
      <trkpt lat="42.672572" lon="0.217374">
        <ele>1220.532</ele>
        <time>2019-10-04T12:47:36Z</time>
      </trkpt>
      <trkpt lat="42.672470" lon="0.217544">
        <ele>1221.557</ele>
        <time>2019-10-04T12:47:43Z</time>
      </trkpt>
      <trkpt lat="42.672133" lon="0.217563">
        <ele>1226.431</ele>
        <time>2019-10-04T12:48:04Z</time>
      </trkpt>
      <trkpt lat="42.671561" lon="0.217867">
        <ele>1234.487</ele>
        <time>2019-10-04T12:48:42Z</time>
      </trkpt>
      <trkpt lat="42.669783" lon="0.218354">
        <ele>1262.842</ele>
        <time>2019-10-04T12:50:51Z</time>
      </trkpt>
      <trkpt lat="42.669038" lon="0.218811">
        <ele>1276.126</ele>
        <time>2019-10-04T12:51:45Z</time>
      </trkpt>
      <trkpt lat="42.668766" lon="0.219250">
        <ele>1282.009</ele>
        <time>2019-10-04T12:52:14Z</time>
      </trkpt>
      <trkpt lat="42.668366" lon="0.219502">
        <ele>1288.870</ele>
        <time>2019-10-04T12:52:43Z</time>
      </trkpt>
      <trkpt lat="42.668175" lon="0.220000">
        <ele>1296.043</ele>
        <time>2019-10-04T12:53:14Z</time>
      </trkpt>
      <trkpt lat="42.668133" lon="0.220455">
        <ele>1300.458</ele>
        <time>2019-10-04T12:53:37Z</time>
      </trkpt>
      <trkpt lat="42.667957" lon="0.220806">
        <ele>1304.587</ele>
        <time>2019-10-04T12:53:56Z</time>
      </trkpt>
      <trkpt lat="42.667958" lon="0.220951">
        <ele>1306.895</ele>
        <time>2019-10-04T12:54:03Z</time>
      </trkpt>
      <trkpt lat="42.668077" lon="0.220967">
        <ele>1308.068</ele>
        <time>2019-10-04T12:54:12Z</time>
      </trkpt>
      <trkpt lat="42.668174" lon="0.220635">
        <ele>1311.138</ele>
        <time>2019-10-04T12:54:31Z</time>
      </trkpt>
      <trkpt lat="42.668504" lon="0.220136">
        <ele>1319.193</ele>
        <time>2019-10-04T12:55:06Z</time>
      </trkpt>
      <trkpt lat="42.668870" lon="0.219984">
        <ele>1323.867</ele>
        <time>2019-10-04T12:55:30Z</time>
      </trkpt>
      <trkpt lat="42.669002" lon="0.220006">
        <ele>1324.169</ele>
        <time>2019-10-04T12:55:37Z</time>
      </trkpt>
      <trkpt lat="42.668996" lon="0.220155">
        <ele>1326.004</ele>
        <time>2019-10-04T12:55:45Z</time>
      </trkpt>
      <trkpt lat="42.668660" lon="0.220318">
        <ele>1330.524</ele>
        <time>2019-10-04T12:56:07Z</time>
      </trkpt>
      <trkpt lat="42.668544" lon="0.220552">
        <ele>1333.809</ele>
        <time>2019-10-04T12:56:21Z</time>
      </trkpt>
      <trkpt lat="42.668551" lon="0.221220">
        <ele>1341.188</ele>
        <time>2019-10-04T12:56:53Z</time>
      </trkpt>
      <trkpt lat="42.668080" lon="0.224374">
        <ele>1365.511</ele>
        <time>2019-10-04T12:59:10Z</time>
      </trkpt>
      <trkpt lat="42.668042" lon="0.225570">
        <ele>1373.886</ele>
        <time>2019-10-04T12:59:58Z</time>
      </trkpt>
      <trkpt lat="42.667902" lon="0.226367">
        <ele>1379.875</ele>
        <time>2019-10-04T13:00:29Z</time>
      </trkpt>
      <trkpt lat="42.668112" lon="0.228253">
        <ele>1398.433</ele>
        <time>2019-10-04T13:02:00Z</time>
      </trkpt>
      <trkpt lat="42.668099" lon="0.229968">
        <ele>1403.046</ele>
        <time>2019-10-04T13:02:50Z</time>
      </trkpt>
      <trkpt lat="42.668297" lon="0.230661">
        <ele>1405.876</ele>
        <time>2019-10-04T13:03:11Z</time>
      </trkpt>
      <trkpt lat="42.668480" lon="0.232518">
        <ele>1418.041</ele>
        <time>2019-10-04T13:04:22Z</time>
      </trkpt>
      <trkpt lat="42.668629" lon="0.233235">
        <ele>1426.055</ele>
        <time>2019-10-04T13:05:03Z</time>
      </trkpt>
      <trkpt lat="42.668380" lon="0.234113">
        <ele>1437.183</ele>
        <time>2019-10-04T13:06:00Z</time>
      </trkpt>
      <trkpt lat="42.668513" lon="0.235011">
        <ele>1448.025</ele>
        <time>2019-10-04T13:06:52Z</time>
      </trkpt>
      <trkpt lat="42.668860" lon="0.235879">
        <ele>1458.817</ele>
        <time>2019-10-04T13:07:53Z</time>
      </trkpt>
      <trkpt lat="42.668974" lon="0.236759">
        <ele>1467.509</ele>
        <time>2019-10-04T13:08:48Z</time>
      </trkpt>
      <trkpt lat="42.669103" lon="0.237032">
        <ele>1472.080</ele>
        <time>2019-10-04T13:09:04Z</time>
      </trkpt>
      <trkpt lat="42.669287" lon="0.238102">
        <ele>1484.143</ele>
        <time>2019-10-04T13:10:16Z</time>
      </trkpt>
      <trkpt lat="42.669142" lon="0.238819">
        <ele>1493.048</ele>
        <time>2019-10-04T13:11:08Z</time>
      </trkpt>
      <trkpt lat="42.668964" lon="0.239177">
        <ele>1497.487</ele>
        <time>2019-10-04T13:11:30Z</time>
      </trkpt>
      <trkpt lat="42.668958" lon="0.239399">
        <ele>1500.555</ele>
        <time>2019-10-04T13:11:45Z</time>
      </trkpt>
      <trkpt lat="42.669035" lon="0.239571">
        <ele>1502.848</ele>
        <time>2019-10-04T13:12:00Z</time>
      </trkpt>
      <trkpt lat="42.669364" lon="0.238777">
        <ele>1512.488</ele>
        <time>2019-10-04T13:13:00Z</time>
      </trkpt>
      <trkpt lat="42.669970" lon="0.237742">
        <ele>1527.843</ele>
        <time>2019-10-04T13:14:28Z</time>
      </trkpt>
      <trkpt lat="42.669965" lon="0.237317">
        <ele>1532.887</ele>
        <time>2019-10-04T13:14:54Z</time>
      </trkpt>
      <trkpt lat="42.669992" lon="0.237175">
        <ele>1534.094</ele>
        <time>2019-10-04T13:15:03Z</time>
      </trkpt>
      <trkpt lat="42.670076" lon="0.237171">
        <ele>1535.857</ele>
        <time>2019-10-04T13:15:09Z</time>
      </trkpt>
      <trkpt lat="42.670181" lon="0.237266">
        <ele>1536.522</ele>
        <time>2019-10-04T13:15:20Z</time>
      </trkpt>
      <trkpt lat="42.670035" lon="0.238950">
        <ele>1554.809</ele>
        <time>2019-10-04T13:16:57Z</time>
      </trkpt>
      <trkpt lat="42.670153" lon="0.238848">
        <ele>1554.811</ele>
        <time>2019-10-04T13:17:09Z</time>
      </trkpt>
      <trkpt lat="42.670247" lon="0.238449">
        <ele>1560.064</ele>
        <time>2019-10-04T13:17:35Z</time>
      </trkpt>
      <trkpt lat="42.670346" lon="0.238422">
        <ele>1561.899</ele>
        <time>2019-10-04T13:17:43Z</time>
      </trkpt>
      <trkpt lat="42.670427" lon="0.238506">
        <ele>1562.128</ele>
        <time>2019-10-04T13:17:51Z</time>
      </trkpt>
      <trkpt lat="42.670128" lon="0.239585">
        <ele>1573.886</ele>
        <time>2019-10-04T13:18:55Z</time>
      </trkpt>
      <trkpt lat="42.670332" lon="0.239921">
        <ele>1578.889</ele>
        <time>2019-10-04T13:19:22Z</time>
      </trkpt>
      <trkpt lat="42.670397" lon="0.240294">
        <ele>1583.489</ele>
        <time>2019-10-04T13:19:45Z</time>
      </trkpt>
      <trkpt lat="42.670534" lon="0.240578">
        <ele>1586.054</ele>
        <time>2019-10-04T13:20:05Z</time>
      </trkpt>
      <trkpt lat="42.670768" lon="0.240760">
        <ele>1589.168</ele>
        <time>2019-10-04T13:20:22Z</time>
      </trkpt>
      <trkpt lat="42.670804" lon="0.240968">
        <ele>1591.831</ele>
        <time>2019-10-04T13:20:36Z</time>
      </trkpt>
      <trkpt lat="42.670687" lon="0.241234">
        <ele>1594.561</ele>
        <time>2019-10-04T13:20:56Z</time>
      </trkpt>
      <trkpt lat="42.670973" lon="0.241537">
        <ele>1596.407</ele>
        <time>2019-10-04T13:21:14Z</time>
      </trkpt>
      <trkpt lat="42.671046" lon="0.242133">
        <ele>1599.009</ele>
        <time>2019-10-04T13:21:39Z</time>
      </trkpt>
      <trkpt lat="42.671828" lon="0.242939">
        <ele>1604.595</ele>
        <time>2019-10-04T13:22:30Z</time>
      </trkpt>
      <trkpt lat="42.672300" lon="0.243271">
        <ele>1605.838</ele>
        <time>2019-10-04T13:22:48Z</time>
      </trkpt>
      <trkpt lat="42.672827" lon="0.243483">
        <ele>1607.573</ele>
        <time>2019-10-04T13:23:06Z</time>
      </trkpt>
      <trkpt lat="42.673361" lon="0.243538">
        <ele>1607.582</ele>
        <time>2019-10-04T13:23:23Z</time>
      </trkpt>
      <trkpt lat="42.673849" lon="0.243776">
        <ele>1611.510</ele>
        <time>2019-10-04T13:23:51Z</time>
      </trkpt>
      <trkpt lat="42.674502" lon="0.244234">
        <ele>1616.583</ele>
        <time>2019-10-04T13:24:34Z</time>
      </trkpt>
      <trkpt lat="42.674630" lon="0.244613">
        <ele>1622.163</ele>
        <time>2019-10-04T13:25:02Z</time>
      </trkpt>
      <trkpt lat="42.674845" lon="0.244722">
        <ele>1625.168</ele>
        <time>2019-10-04T13:25:19Z</time>
      </trkpt>
      <trkpt lat="42.675082" lon="0.245062">
        <ele>1628.512</ele>
        <time>2019-10-04T13:25:37Z</time>
      </trkpt>
      <trkpt lat="42.675079" lon="0.246022">
        <ele>1634.434</ele>
        <time>2019-10-04T13:26:18Z</time>
      </trkpt>
      <trkpt lat="42.675156" lon="0.246090">
        <ele>1636.055</ele>
        <time>2019-10-04T13:26:26Z</time>
      </trkpt>
      <trkpt lat="42.675349" lon="0.246073">
        <ele>1639.510</ele>
        <time>2019-10-04T13:26:45Z</time>
      </trkpt>
      <trkpt lat="42.675406" lon="0.246155">
        <ele>1642.009</ele>
        <time>2019-10-04T13:26:59Z</time>
      </trkpt>
      <trkpt lat="42.675724" lon="0.245993">
        <ele>1644.125</ele>
        <time>2019-10-04T13:27:32Z</time>
      </trkpt>
      <trkpt lat="42.675904" lon="0.246075">
        <ele>1644.518</ele>
        <time>2019-10-04T13:27:44Z</time>
      </trkpt>
      <trkpt lat="42.676364" lon="0.246811">
        <ele>1655.133</ele>
        <time>2019-10-04T13:28:39Z</time>
      </trkpt>
      <trkpt lat="42.676705" lon="0.247536">
        <ele>1662.832</ele>
        <time>2019-10-04T13:29:27Z</time>
      </trkpt>
      <trkpt lat="42.676845" lon="0.248164">
        <ele>1667.070</ele>
        <time>2019-10-04T13:29:58Z</time>
      </trkpt>
      <trkpt lat="42.677120" lon="0.248825">
        <ele>1672.073</ele>
        <time>2019-10-04T13:30:32Z</time>
      </trkpt>
      <trkpt lat="42.677386" lon="0.249110">
        <ele>1675.083</ele>
        <time>2019-10-04T13:30:54Z</time>
      </trkpt>
      <trkpt lat="42.677577" lon="0.249968">
        <ele>1681.868</ele>
        <time>2019-10-04T13:31:40Z</time>
      </trkpt>
      <trkpt lat="42.677645" lon="0.251148">
        <ele>1691.152</ele>
        <time>2019-10-04T13:32:37Z</time>
      </trkpt>
      <trkpt lat="42.678162" lon="0.252446">
        <ele>1703.558</ele>
        <time>2019-10-04T13:33:55Z</time>
      </trkpt>
      <trkpt lat="42.678354" lon="0.252761">
        <ele>1707.052</ele>
        <time>2019-10-04T13:34:14Z</time>
      </trkpt>
      <trkpt lat="42.678530" lon="0.254016">
        <ele>1716.417</ele>
        <time>2019-10-04T13:35:20Z</time>
      </trkpt>
      <trkpt lat="42.678404" lon="0.254425">
        <ele>1719.809</ele>
        <time>2019-10-04T13:35:38Z</time>
      </trkpt>
      <trkpt lat="42.678422" lon="0.254789">
        <ele>1722.427</ele>
        <time>2019-10-04T13:35:53Z</time>
      </trkpt>
      <trkpt lat="42.678287" lon="0.255197">
        <ele>1723.060</ele>
        <time>2019-10-04T13:36:12Z</time>
      </trkpt>
      <trkpt lat="42.678239" lon="0.256120">
        <ele>1731.865</ele>
        <time>2019-10-04T13:36:59Z</time>
      </trkpt>
      <trkpt lat="42.678335" lon="0.256808">
        <ele>1739.124</ele>
        <time>2019-10-04T13:37:40Z</time>
      </trkpt>
      <trkpt lat="42.678487" lon="0.257171">
        <ele>1744.162</ele>
        <time>2019-10-04T13:38:07Z</time>
      </trkpt>
      <trkpt lat="42.678478" lon="0.258092">
        <ele>1753.175</ele>
        <time>2019-10-04T13:39:02Z</time>
      </trkpt>
      <trkpt lat="42.678586" lon="0.258290">
        <ele>1755.095</ele>
        <time>2019-10-04T13:39:16Z</time>
      </trkpt>
      <trkpt lat="42.678516" lon="0.258942">
        <ele>1761.150</ele>
        <time>2019-10-04T13:39:49Z</time>
      </trkpt>
      <trkpt lat="42.678614" lon="0.259626">
        <ele>1764.574</ele>
        <time>2019-10-04T13:40:20Z</time>
      </trkpt>
      <trkpt lat="42.678447" lon="0.260034">
        <ele>1768.143</ele>
        <time>2019-10-04T13:40:40Z</time>
      </trkpt>
      <trkpt lat="42.678414" lon="0.260462">
        <ele>1771.164</ele>
        <time>2019-10-04T13:41:02Z</time>
      </trkpt>
      <trkpt lat="42.678526" lon="0.261331">
        <ele>1780.410</ele>
        <time>2019-10-04T13:41:53Z</time>
      </trkpt>
      <trkpt lat="42.678301" lon="0.261643">
        <ele>1784.809</ele>
        <time>2019-10-04T13:42:21Z</time>
      </trkpt>
      <trkpt lat="42.677986" lon="0.262412">
        <ele>1794.546</ele>
        <time>2019-10-04T13:43:18Z</time>
      </trkpt>
      <trkpt lat="42.678064" lon="0.262540">
        <ele>1796.119</ele>
        <time>2019-10-04T13:43:27Z</time>
      </trkpt>
      <trkpt lat="42.678182" lon="0.262534">
        <ele>1797.594</ele>
        <time>2019-10-04T13:43:35Z</time>
      </trkpt>
      <trkpt lat="42.678622" lon="0.262092">
        <ele>1804.073</ele>
        <time>2019-10-04T13:44:13Z</time>
      </trkpt>
      <trkpt lat="42.678744" lon="0.262143">
        <ele>1805.031</ele>
        <time>2019-10-04T13:44:23Z</time>
      </trkpt>
      <trkpt lat="42.678458" lon="0.263226">
        <ele>1818.064</ele>
        <time>2019-10-04T13:45:34Z</time>
      </trkpt>
      <trkpt lat="42.678160" lon="0.263601">
        <ele>1822.854</ele>
        <time>2019-10-04T13:46:05Z</time>
      </trkpt>
      <trkpt lat="42.678151" lon="0.263883">
        <ele>1825.179</ele>
        <time>2019-10-04T13:46:23Z</time>
      </trkpt>
      <trkpt lat="42.678285" lon="0.264211">
        <ele>1829.063</ele>
        <time>2019-10-04T13:46:46Z</time>
      </trkpt>
      <trkpt lat="42.678873" lon="0.265109">
        <ele>1843.431</ele>
        <time>2019-10-04T13:48:03Z</time>
      </trkpt>
      <trkpt lat="42.678760" lon="0.265303">
        <ele>1844.561</ele>
        <time>2019-10-04T13:48:17Z</time>
      </trkpt>
      <trkpt lat="42.678624" lon="0.266043">
        <ele>1851.007</ele>
        <time>2019-10-04T13:48:58Z</time>
      </trkpt>
      <trkpt lat="42.678261" lon="0.266446">
        <ele>1857.409</ele>
        <time>2019-10-04T13:49:29Z</time>
      </trkpt>
      <trkpt lat="42.678114" lon="0.266735">
        <ele>1860.815</ele>
        <time>2019-10-04T13:49:49Z</time>
      </trkpt>
      <trkpt lat="42.678111" lon="0.266954">
        <ele>1862.848</ele>
        <time>2019-10-04T13:50:03Z</time>
      </trkpt>
      <trkpt lat="42.677755" lon="0.267288">
        <ele>1867.853</ele>
        <time>2019-10-04T13:50:38Z</time>
      </trkpt>
      <trkpt lat="42.677727" lon="0.267618">
        <ele>1872.162</ele>
        <time>2019-10-04T13:50:58Z</time>
      </trkpt>
      <trkpt lat="42.677629" lon="0.267765">
        <ele>1874.070</ele>
        <time>2019-10-04T13:51:09Z</time>
      </trkpt>
      <trkpt lat="42.677657" lon="0.267901">
        <ele>1875.523</ele>
        <time>2019-10-04T13:51:19Z</time>
      </trkpt>
      <trkpt lat="42.677756" lon="0.267905">
        <ele>1876.573</ele>
        <time>2019-10-04T13:51:26Z</time>
      </trkpt>
      <trkpt lat="42.677936" lon="0.267571">
        <ele>1878.548</ele>
        <time>2019-10-04T13:51:45Z</time>
      </trkpt>
      <trkpt lat="42.678418" lon="0.267122">
        <ele>1886.872</ele>
        <time>2019-10-04T13:52:34Z</time>
      </trkpt>
      <trkpt lat="42.679197" lon="0.266583">
        <ele>1899.848</ele>
        <time>2019-10-04T13:54:27Z</time>
      </trkpt>
      <trkpt lat="42.679521" lon="0.266107">
        <ele>1908.061</ele>
        <time>2019-10-04T13:55:39Z</time>
      </trkpt>
      <trkpt lat="42.679608" lon="0.266219">
        <ele>1908.517</ele>
        <time>2019-10-04T13:56:04Z</time>
      </trkpt>
      <trkpt lat="42.679476" lon="0.266650">
        <ele>1913.409</ele>
        <time>2019-10-04T13:56:39Z</time>
      </trkpt>
      <trkpt lat="42.679311" lon="0.266804">
        <ele>1916.086</ele>
        <time>2019-10-04T13:57:00Z</time>
      </trkpt>
      <trkpt lat="42.679071" lon="0.267390">
        <ele>1922.159</ele>
        <time>2019-10-04T13:57:54Z</time>
      </trkpt>
      <trkpt lat="42.678854" lon="0.267606">
        <ele>1928.184</ele>
        <time>2019-10-04T13:58:38Z</time>
      </trkpt>
      <trkpt lat="42.678557" lon="0.268230">
        <ele>1935.583</ele>
        <time>2019-10-04T13:59:42Z</time>
      </trkpt>
      <trkpt lat="42.678292" lon="0.268474">
        <ele>1941.151</ele>
        <time>2019-10-04T14:00:25Z</time>
      </trkpt>
      <trkpt lat="42.678222" lon="0.268931">
        <ele>1945.444</ele>
        <time>2019-10-04T14:00:48Z</time>
      </trkpt>
      <trkpt lat="42.677912" lon="0.269631">
        <ele>1945.474</ele>
        <time>2019-10-04T14:01:06Z</time>
      </trkpt>
      <trkpt lat="42.677750" lon="0.270244">
        <ele>1945.429</ele>
        <time>2019-10-04T14:01:21Z</time>
      </trkpt>
      <trkpt lat="42.677763" lon="0.270567">
        <ele>1945.483</ele>
        <time>2019-10-04T14:01:29Z</time>
      </trkpt>
      <trkpt lat="42.677568" lon="0.271517">
        <ele>1947.516</ele>
        <time>2019-10-04T14:01:54Z</time>
      </trkpt>
      <trkpt lat="42.677684" lon="0.272487">
        <ele>1952.476</ele>
        <time>2019-10-04T14:02:35Z</time>
      </trkpt>
      <trkpt lat="42.677315" lon="0.273494">
        <ele>1964.013</ele>
        <time>2019-10-04T14:03:38Z</time>
      </trkpt>
      <trkpt lat="42.677502" lon="0.274474">
        <ele>1976.009</ele>
        <time>2019-10-04T14:04:38Z</time>
      </trkpt>
      <trkpt lat="42.677405" lon="0.274738">
        <ele>1978.143</ele>
        <time>2019-10-04T14:04:53Z</time>
      </trkpt>
      <trkpt lat="42.677177" lon="0.274788">
        <ele>1982.066</ele>
        <time>2019-10-04T14:05:08Z</time>
      </trkpt>
      <trkpt lat="42.677104" lon="0.274889">
        <ele>1984.511</ele>
        <time>2019-10-04T14:05:15Z</time>
      </trkpt>
      <trkpt lat="42.677249" lon="0.275700">
        <ele>1992.840</ele>
        <time>2019-10-04T14:06:02Z</time>
      </trkpt>
      <trkpt lat="42.677094" lon="0.276456">
        <ele>2002.018</ele>
        <time>2019-10-04T14:06:55Z</time>
      </trkpt>
      <trkpt lat="42.677205" lon="0.276662">
        <ele>2004.181</ele>
        <time>2019-10-04T14:07:11Z</time>
      </trkpt>
      <trkpt lat="42.677229" lon="0.277057">
        <ele>2012.431</ele>
        <time>2019-10-04T14:09:32Z</time>
      </trkpt>
      <trkpt lat="42.677432" lon="0.277394">
        <ele>2017.166</ele>
        <time>2019-10-04T14:10:16Z</time>
      </trkpt>
      <trkpt lat="42.677466" lon="0.277780">
        <ele>2019.170</ele>
        <time>2019-10-04T14:10:38Z</time>
      </trkpt>
      <trkpt lat="42.677238" lon="0.278152">
        <ele>2024.886</ele>
        <time>2019-10-04T14:11:02Z</time>
      </trkpt>
      <trkpt lat="42.677181" lon="0.278662">
        <ele>2030.160</ele>
        <time>2019-10-04T14:11:32Z</time>
      </trkpt>
      <trkpt lat="42.676868" lon="0.279294">
        <ele>2039.026</ele>
        <time>2019-10-04T14:12:21Z</time>
      </trkpt>
      <trkpt lat="42.676064" lon="0.280395">
        <ele>2058.609</ele>
        <time>2019-10-04T14:13:54Z</time>
      </trkpt>
      <trkpt lat="42.675928" lon="0.281215">
        <ele>2067.360</ele>
        <time>2019-10-04T14:14:47Z</time>
      </trkpt>
      <trkpt lat="42.675522" lon="0.281940">
        <ele>2078.173</ele>
        <time>2019-10-04T14:15:44Z</time>
      </trkpt>
      <trkpt lat="42.675385" lon="0.282930">
        <ele>2087.638</ele>
        <time>2019-10-04T14:16:45Z</time>
      </trkpt>
      <trkpt lat="42.675062" lon="0.283426">
        <ele>2096.877</ele>
        <time>2019-10-04T14:17:28Z</time>
      </trkpt>
      <trkpt lat="42.674923" lon="0.284333">
        <ele>2108.685</ele>
        <time>2019-10-04T14:18:28Z</time>
      </trkpt>
      <trkpt lat="42.674599" lon="0.284976">
        <ele>2117.088</ele>
        <time>2019-10-04T14:19:18Z</time>
      </trkpt>
      <trkpt lat="42.674647" lon="0.285108">
        <ele>2118.838</ele>
        <time>2019-10-04T14:19:27Z</time>
      </trkpt>
      <trkpt lat="42.674771" lon="0.285055">
        <ele>2119.123</ele>
        <time>2019-10-04T14:19:36Z</time>
      </trkpt>
      <trkpt lat="42.675038" lon="0.284689">
        <ele>2124.627</ele>
        <time>2019-10-04T14:20:07Z</time>
      </trkpt>
      <trkpt lat="42.675494" lon="0.284519">
        <ele>2131.613</ele>
        <time>2019-10-04T14:20:47Z</time>
      </trkpt>
      <trkpt lat="42.675916" lon="0.283997">
        <ele>2141.343</ele>
        <time>2019-10-04T14:21:38Z</time>
      </trkpt>
      <trkpt lat="42.676393" lon="0.283968">
        <ele>2147.607</ele>
        <time>2019-10-04T14:22:20Z</time>
      </trkpt>
      <trkpt lat="42.676624" lon="0.283709">
        <ele>2150.309</ele>
        <time>2019-10-04T14:22:44Z</time>
      </trkpt>
      <trkpt lat="42.676722" lon="0.283693">
        <ele>2152.153</ele>
        <time>2019-10-04T14:22:52Z</time>
      </trkpt>
      <trkpt lat="42.676751" lon="0.283819">
        <ele>2152.616</ele>
        <time>2019-10-04T14:23:00Z</time>
      </trkpt>
      <trkpt lat="42.676350" lon="0.284412">
        <ele>2162.661</ele>
        <time>2019-10-04T14:24:19Z</time>
      </trkpt>
      <trkpt lat="42.676059" lon="0.285425">
        <ele>2175.320</ele>
        <time>2019-10-04T14:26:02Z</time>
      </trkpt>
      <trkpt lat="42.675678" lon="0.286200">
        <ele>2188.128</ele>
        <time>2019-10-04T14:27:56Z</time>
      </trkpt>
      <trkpt lat="42.675554" lon="0.286326">
        <ele>2189.621</ele>
        <time>2019-10-04T14:28:08Z</time>
      </trkpt>
      <trkpt lat="42.674987" lon="0.286567">
        <ele>2199.091</ele>
        <time>2019-10-04T14:29:08Z</time>
      </trkpt>
      <trkpt lat="42.674654" lon="0.287100">
        <ele>2205.656</ele>
        <time>2019-10-04T14:30:09Z</time>
      </trkpt>
      <trkpt lat="42.674155" lon="0.287556">
        <ele>2214.610</ele>
        <time>2019-10-04T14:31:15Z</time>
      </trkpt>
      <trkpt lat="42.673887" lon="0.288148">
        <ele>2218.668</ele>
        <time>2019-10-04T14:32:05Z</time>
      </trkpt>
      <trkpt lat="42.673301" lon="0.288689">
        <ele>2225.642</ele>
        <time>2019-10-04T14:32:49Z</time>
      </trkpt>
      <trkpt lat="42.673150" lon="0.288781">
        <ele>2228.626</ele>
        <time>2019-10-04T14:33:00Z</time>
      </trkpt>
      <trkpt lat="42.672933" lon="0.288721">
        <ele>2230.809</ele>
        <time>2019-10-04T14:33:14Z</time>
      </trkpt>
      <trkpt lat="42.671964" lon="0.289298">
        <ele>2244.078</ele>
        <time>2019-10-04T14:34:30Z</time>
      </trkpt>
      <trkpt lat="42.671686" lon="0.289287">
        <ele>2247.181</ele>
        <time>2019-10-04T14:34:51Z</time>
      </trkpt>
      <trkpt lat="42.671292" lon="0.289829">
        <ele>2256.376</ele>
        <time>2019-10-04T14:35:40Z</time>
      </trkpt>
      <trkpt lat="42.670754" lon="0.290126">
        <ele>2265.185</ele>
        <time>2019-10-04T14:36:28Z</time>
      </trkpt>
      <trkpt lat="42.669790" lon="0.289114">
        <ele>2281.073</ele>
        <time>2019-10-04T14:37:55Z</time>
      </trkpt>
      <trkpt lat="42.669722" lon="0.288946">
        <ele>2282.046</ele>
        <time>2019-10-04T14:38:06Z</time>
      </trkpt>
      <trkpt lat="42.669450" lon="0.288879">
        <ele>2283.876</ele>
        <time>2019-10-04T14:38:22Z</time>
      </trkpt>
      <trkpt lat="42.669130" lon="0.288664">
        <ele>2285.861</ele>
        <time>2019-10-04T14:38:37Z</time>
      </trkpt>
      <trkpt lat="42.669100" lon="0.288501">
        <ele>2285.885</ele>
        <time>2019-10-04T14:38:44Z</time>
      </trkpt>
      <trkpt lat="42.668546" lon="0.288628">
        <ele>2296.616</ele>
        <time>2019-10-04T14:40:11Z</time>
      </trkpt>
      <trkpt lat="42.668390" lon="0.288548">
        <ele>2298.876</ele>
        <time>2019-10-04T14:40:32Z</time>
      </trkpt>
      <trkpt lat="42.668331" lon="0.288432">
        <ele>2299.613</ele>
        <time>2019-10-04T14:40:45Z</time>
      </trkpt>
      <trkpt lat="42.668446" lon="0.288097">
        <ele>2303.109</ele>
        <time>2019-10-04T14:41:19Z</time>
      </trkpt>
      <trkpt lat="42.668400" lon="0.287818">
        <ele>2307.163</ele>
        <time>2019-10-04T14:41:51Z</time>
      </trkpt>
      <trkpt lat="42.668243" lon="0.287934">
        <ele>2309.346</ele>
        <time>2019-10-04T14:42:06Z</time>
      </trkpt>
      <trkpt lat="42.668172" lon="0.288123">
        <ele>2311.651</ele>
        <time>2019-10-04T14:42:17Z</time>
      </trkpt>
      <trkpt lat="42.667550" lon="0.288291">
        <ele>2320.110</ele>
        <time>2019-10-04T14:43:37Z</time>
      </trkpt>
      <trkpt lat="42.667303" lon="0.288229">
        <ele>2324.618</ele>
        <time>2019-10-04T14:44:07Z</time>
      </trkpt>
      <trkpt lat="42.667301" lon="0.287656">
        <ele>2328.671</ele>
        <time>2019-10-04T14:44:45Z</time>
      </trkpt>
      <trkpt lat="42.667141" lon="0.287300">
        <ele>2333.081</ele>
        <time>2019-10-04T14:45:20Z</time>
      </trkpt>
      <trkpt lat="42.667181" lon="0.286918">
        <ele>2335.866</ele>
        <time>2019-10-04T14:45:48Z</time>
      </trkpt>
      <trkpt lat="42.667964" lon="0.286109">
        <ele>2343.140</ele>
        <time>2019-10-04T14:46:57Z</time>
      </trkpt>
      <trkpt lat="42.667843" lon="0.285994">
        <ele>2345.319</ele>
        <time>2019-10-04T14:47:07Z</time>
      </trkpt>
      <trkpt lat="42.667516" lon="0.286053">
        <ele>2347.609</ele>
        <time>2019-10-04T14:47:26Z</time>
      </trkpt>
      <trkpt lat="42.667043" lon="0.285567">
        <ele>2349.619</ele>
        <time>2019-10-04T14:47:50Z</time>
      </trkpt>
      <trkpt lat="42.666711" lon="0.285447">
        <ele>2351.809</ele>
        <time>2019-10-04T14:48:12Z</time>
      </trkpt>
      <trkpt lat="42.666654" lon="0.285276">
        <ele>2351.863</ele>
        <time>2019-10-04T14:48:18Z</time>
      </trkpt>
      <trkpt lat="42.666711" lon="0.285156">
        <ele>2351.876</ele>
        <time>2019-10-04T14:48:22Z</time>
      </trkpt>
      <trkpt lat="42.666814" lon="0.285132">
        <ele>2351.871</ele>
        <time>2019-10-04T14:48:26Z</time>
      </trkpt>
      <trkpt lat="42.667468" lon="0.285427">
        <ele>2354.110</ele>
        <time>2019-10-04T14:48:57Z</time>
      </trkpt>
      <trkpt lat="42.667361" lon="0.285200">
        <ele>2356.148</ele>
        <time>2019-10-04T14:49:12Z</time>
      </trkpt>
      <trkpt lat="42.667060" lon="0.284968">
        <ele>2360.831</ele>
        <time>2019-10-04T14:49:35Z</time>
      </trkpt>
      <trkpt lat="42.666968" lon="0.284609">
        <ele>2362.811</ele>
        <time>2019-10-04T14:49:50Z</time>
      </trkpt>
      <trkpt lat="42.667282" lon="0.284270">
        <ele>2367.146</ele>
        <time>2019-10-04T14:50:12Z</time>
      </trkpt>
      <trkpt lat="42.667678" lon="0.284384">
        <ele>2369.170</ele>
        <time>2019-10-04T14:50:32Z</time>
      </trkpt>
    </trkseg>
  </trk></gpx>