<?xml version="1.0" encoding="UTF-8"?>
<gpx creator="https://gpx.studio" version="1.1" xmlns="http://www.topografix.com/GPX/1/1" xmlns:xsi="http://www.w3.org/2001/XMLSchema-instance" xsi:schemaLocation="http://www.topografix.com/GPX/1/1 http://www.topografix.com/GPX/1/1/gpx.xsd http://www.garmin.com/xmlschemas/GpxExtensions/v3 http://www.garmin.com/xmlschemas/GpxExtensionsv3.xsd http://www.garmin.com/xmlschemas/TrackPointExtension/v1 http://www.garmin.com/xmlschemas/TrackPointExtensionv1.xsd http://www.garmin.com/xmlschemas/PowerExtension/v1 http://www.garmin.com/xmlschemas/PowerExtensionv1.xsd http://www.topografix.com/GPX/gpx_style/0/2 http://www.topografix.com/GPX/gpx_style/0/2/gpx_style.xsd" xmlns:gpxtpx="http://www.garmin.com/xmlschemas/TrackPointExtension/v1" xmlns:gpxx="http://www.garmin.com/xmlschemas/GpxExtensions/v3" xmlns:gpxpx="http://www.garmin.com/xmlschemas/PowerExtension/v1" xmlns:gpx_style="http://www.topografix.com/GPX/gpx_style/0/2">
  <metadata>
    <name>izoard_guillestre_gpxstudio</name>
    <author>
      <name>gpx.studio</name>
      <link href="https://gpx.studio"/>
    </author>
  </metadata>
  <trk>
    <name>izoard_guillestre_gpxstudio</name>
    <trkseg>
      <trkpt lat="44.736599" lon="6.768265">
        <ele>1261.6</ele>
      </trkpt>
      <trkpt lat="44.737318" lon="6.76843">
        <ele>1262.55</ele>
      </trkpt>
      <trkpt lat="44.737678" lon="6.768513">
        <ele>1268</ele>
      </trkpt>
      <trkpt lat="44.737808" lon="6.768519">
        <ele>1271.48</ele>
      </trkpt>
      <trkpt lat="44.737914" lon="6.768502">
        <ele>1274.46</ele>
      </trkpt>
      <trkpt lat="44.737974" lon="6.768481">
        <ele>1276.14</ele>
      </trkpt>
      <trkpt lat="44.738092" lon="6.768414">
        <ele>1279.3</ele>
      </trkpt>
      <trkpt lat="44.738221" lon="6.76829">
        <ele>1281.78</ele>
      </trkpt>
      <trkpt lat="44.738641" lon="6.767747">
        <ele>1282.23</ele>
      </trkpt>
      <trkpt lat="44.738852" lon="6.767476">
        <ele>1277.36</ele>
      </trkpt>
      <trkpt lat="44.739199" lon="6.767131">
        <ele>1281.24</ele>
      </trkpt>
      <trkpt lat="44.739465" lon="6.766848">
        <ele>1283.05</ele>
      </trkpt>
      <trkpt lat="44.739624" lon="6.766725">
        <ele>1284.08</ele>
      </trkpt>
      <trkpt lat="44.739751" lon="6.766654">
        <ele>1285.23</ele>
      </trkpt>
      <trkpt lat="44.739877" lon="6.76662">
        <ele>1285.88</ele>
      </trkpt>
      <trkpt lat="44.740284" lon="6.766663">
        <ele>1291.55</ele>
      </trkpt>
      <trkpt lat="44.740449" lon="6.766639">
        <ele>1293.21</ele>
      </trkpt>
      <trkpt lat="44.740604" lon="6.766596">
        <ele>1294.81</ele>
      </trkpt>
      <trkpt lat="44.740959" lon="6.766434">
        <ele>1296.36</ele>
      </trkpt>
      <trkpt lat="44.741088" lon="6.766391">
        <ele>1296.69</ele>
      </trkpt>
      <trkpt lat="44.741196" lon="6.766386">
        <ele>1297.44</ele>
      </trkpt>
      <trkpt lat="44.741361" lon="6.766416">
        <ele>1298.97</ele>
      </trkpt>
      <trkpt lat="44.741958" lon="6.76667">
        <ele>1306.6</ele>
      </trkpt>
      <trkpt lat="44.742124" lon="6.766725">
        <ele>1308.3</ele>
      </trkpt>
      <trkpt lat="44.742503" lon="6.766805">
        <ele>1309.64</ele>
      </trkpt>
      <trkpt lat="44.742656" lon="6.766874">
        <ele>1310.63</ele>
      </trkpt>
      <trkpt lat="44.742747" lon="6.766953">
        <ele>1312.56</ele>
      </trkpt>
      <trkpt lat="44.742879" lon="6.767105">
        <ele>1315.3</ele>
      </trkpt>
      <trkpt lat="44.743066" lon="6.767342">
        <ele>1320.97</ele>
      </trkpt>
      <trkpt lat="44.743166" lon="6.767421">
        <ele>1322.11</ele>
      </trkpt>
      <trkpt lat="44.743267" lon="6.767458">
        <ele>1322.08</ele>
      </trkpt>
      <trkpt lat="44.743378" lon="6.767482">
        <ele>1321.79</ele>
      </trkpt>
      <trkpt lat="44.743492" lon="6.76749">
        <ele>1322.44</ele>
      </trkpt>
      <trkpt lat="44.743577" lon="6.767524">
        <ele>1323.47</ele>
      </trkpt>
      <trkpt lat="44.743639" lon="6.767575">
        <ele>1324.15</ele>
      </trkpt>
      <trkpt lat="44.743696" lon="6.76766">
        <ele>1329.23</ele>
      </trkpt>
      <trkpt lat="44.743755" lon="6.767775">
        <ele>1331.54</ele>
      </trkpt>
      <trkpt lat="44.743868" lon="6.768087">
        <ele>1336.8</ele>
      </trkpt>
      <trkpt lat="44.743911" lon="6.768157">
        <ele>1338.27</ele>
      </trkpt>
      <trkpt lat="44.743962" lon="6.768197">
        <ele>1338.69</ele>
      </trkpt>
      <trkpt lat="44.744038" lon="6.768203">
        <ele>1338.25</ele>
      </trkpt>
      <trkpt lat="44.744076" lon="6.768187">
        <ele>1337.76</ele>
      </trkpt>
      <trkpt lat="44.744105" lon="6.768147">
        <ele>1336.93</ele>
      </trkpt>
      <trkpt lat="44.74413" lon="6.768095">
        <ele>1336.2</ele>
      </trkpt>
      <trkpt lat="44.744141" lon="6.768038">
        <ele>1335.49</ele>
      </trkpt>
      <trkpt lat="44.744138" lon="6.767952">
        <ele>1334.19</ele>
      </trkpt>
      <trkpt lat="44.744104" lon="6.76774">
        <ele>1331.97</ele>
      </trkpt>
      <trkpt lat="44.744096" lon="6.767622">
        <ele>1331.85</ele>
      </trkpt>
      <trkpt lat="44.744109" lon="6.76752">
        <ele>1330.71</ele>
      </trkpt>
      <trkpt lat="44.744135" lon="6.767408">
        <ele>1330.69</ele>
      </trkpt>
      <trkpt lat="44.744175" lon="6.767321">
        <ele>1329.9</ele>
      </trkpt>
      <trkpt lat="44.744217" lon="6.76726">
        <ele>1329.38</ele>
      </trkpt>
      <trkpt lat="44.744262" lon="6.76722">
        <ele>1328.79</ele>
      </trkpt>
      <trkpt lat="44.744312" lon="6.767194">
        <ele>1328.27</ele>
      </trkpt>
      <trkpt lat="44.74437" lon="6.767183">
        <ele>1328.46</ele>
      </trkpt>
      <trkpt lat="44.744425" lon="6.767193">
        <ele>1329.63</ele>
      </trkpt>
      <trkpt lat="44.744473" lon="6.767218">
        <ele>1331.31</ele>
      </trkpt>
      <trkpt lat="44.74451" lon="6.767257">
        <ele>1333.12</ele>
      </trkpt>
      <trkpt lat="44.744542" lon="6.767321">
        <ele>1335.15</ele>
      </trkpt>
      <trkpt lat="44.744565" lon="6.767397">
        <ele>1337.29</ele>
      </trkpt>
      <trkpt lat="44.744578" lon="6.767487">
        <ele>1338.99</ele>
      </trkpt>
      <trkpt lat="44.744579" lon="6.76759">
        <ele>1343.45</ele>
      </trkpt>
      <trkpt lat="44.744564" lon="6.767685">
        <ele>1344.75</ele>
      </trkpt>
      <trkpt lat="44.744495" lon="6.767881">
        <ele>1345.45</ele>
      </trkpt>
      <trkpt lat="44.744381" lon="6.768262">
        <ele>1347.85</ele>
      </trkpt>
      <trkpt lat="44.744344" lon="6.768441">
        <ele>1346.74</ele>
      </trkpt>
      <trkpt lat="44.744333" lon="6.768607">
        <ele>1347.39</ele>
      </trkpt>
      <trkpt lat="44.744337" lon="6.768827">
        <ele>1347.05</ele>
      </trkpt>
      <trkpt lat="44.74437" lon="6.769073">
        <ele>1349.55</ele>
      </trkpt>
      <trkpt lat="44.74442" lon="6.769332">
        <ele>1352.96</ele>
      </trkpt>
      <trkpt lat="44.744489" lon="6.769571">
        <ele>1354.8</ele>
      </trkpt>
      <trkpt lat="44.744562" lon="6.769698">
        <ele>1353.78</ele>
      </trkpt>
      <trkpt lat="44.744646" lon="6.76978">
        <ele>1352.52</ele>
      </trkpt>
      <trkpt lat="44.745026" lon="6.770019">
        <ele>1347.81</ele>
      </trkpt>
      <trkpt lat="44.745172" lon="6.770059">
        <ele>1347.75</ele>
      </trkpt>
      <trkpt lat="44.745351" lon="6.770082">
        <ele>1348.28</ele>
      </trkpt>
      <trkpt lat="44.745497" lon="6.770124">
        <ele>1347.79</ele>
      </trkpt>
      <trkpt lat="44.745671" lon="6.770242">
        <ele>1345.7</ele>
      </trkpt>
      <trkpt lat="44.74584" lon="6.770323">
        <ele>1344.82</ele>
      </trkpt>
      <trkpt lat="44.746194" lon="6.770416">
        <ele>1349.23</ele>
      </trkpt>
      <trkpt lat="44.746351" lon="6.77047">
        <ele>1350.38</ele>
      </trkpt>
      <trkpt lat="44.746703" lon="6.770694">
        <ele>1351.97</ele>
      </trkpt>
      <trkpt lat="44.746839" lon="6.77081">
        <ele>1351.93</ele>
      </trkpt>
      <trkpt lat="44.747448" lon="6.771585">
        <ele>1350.88</ele>
      </trkpt>
      <trkpt lat="44.747606" lon="6.771833">
        <ele>1349.89</ele>
      </trkpt>
      <trkpt lat="44.747745" lon="6.772106">
        <ele>1348.44</ele>
      </trkpt>
      <trkpt lat="44.747871" lon="6.772314">
        <ele>1347.83</ele>
      </trkpt>
      <trkpt lat="44.748036" lon="6.772529">
        <ele>1347.35</ele>
      </trkpt>
      <trkpt lat="44.748072" lon="6.77247">
        <ele>1349.61</ele>
      </trkpt>
      <trkpt lat="44.748135" lon="6.772325">
        <ele>1354.52</ele>
      </trkpt>
      <trkpt lat="44.748143" lon="6.772261">
        <ele>1356.31</ele>
      </trkpt>
      <trkpt lat="44.748136" lon="6.7722">
        <ele>1357.56</ele>
      </trkpt>
      <trkpt lat="44.748118" lon="6.772137">
        <ele>1358.72</ele>
      </trkpt>
      <trkpt lat="44.747932" lon="6.77183">
        <ele>1359.68</ele>
      </trkpt>
      <trkpt lat="44.747867" lon="6.7717">
        <ele>1360.29</ele>
      </trkpt>
      <trkpt lat="44.747795" lon="6.771472">
        <ele>1363.71</ele>
      </trkpt>
      <trkpt lat="44.747739" lon="6.771347">
        <ele>1365.01</ele>
      </trkpt>
      <trkpt lat="44.747669" lon="6.771272">
        <ele>1363.89</ele>
      </trkpt>
      <trkpt lat="44.747532" lon="6.771162">
        <ele>1362.63</ele>
      </trkpt>
      <trkpt lat="44.74746" lon="6.771074">
        <ele>1362.19</ele>
      </trkpt>
      <trkpt lat="44.747392" lon="6.770929">
        <ele>1363.64</ele>
      </trkpt>
      <trkpt lat="44.747276" lon="6.770645">
        <ele>1366.51</ele>
      </trkpt>
      <trkpt lat="44.747134" lon="6.770383">
        <ele>1369.33</ele>
      </trkpt>
      <trkpt lat="44.74709" lon="6.770274">
        <ele>1371.01</ele>
      </trkpt>
      <trkpt lat="44.747071" lon="6.770164">
        <ele>1373.13</ele>
      </trkpt>
      <trkpt lat="44.747092" lon="6.770069">
        <ele>1374.48</ele>
      </trkpt>
      <trkpt lat="44.74714" lon="6.769986">
        <ele>1375.83</ele>
      </trkpt>
      <trkpt lat="44.747373" lon="6.769653">
        <ele>1379.68</ele>
      </trkpt>
      <trkpt lat="44.747574" lon="6.769312">
        <ele>1380.23</ele>
      </trkpt>
      <trkpt lat="44.747664" lon="6.769126">
        <ele>1380.36</ele>
      </trkpt>
      <trkpt lat="44.747741" lon="6.768917">
        <ele>1381.28</ele>
      </trkpt>
      <trkpt lat="44.747787" lon="6.768738">
        <ele>1381.37</ele>
      </trkpt>
      <trkpt lat="44.747813" lon="6.768586">
        <ele>1382.11</ele>
      </trkpt>
      <trkpt lat="44.747915" lon="6.767824">
        <ele>1386.45</ele>
      </trkpt>
      <trkpt lat="44.748116" lon="6.766855">
        <ele>1393.65</ele>
      </trkpt>
      <trkpt lat="44.74817" lon="6.766736">
        <ele>1393.16</ele>
      </trkpt>
      <trkpt lat="44.748231" lon="6.766675">
        <ele>1391.73</ele>
      </trkpt>
      <trkpt lat="44.748288" lon="6.766656">
        <ele>1391.19</ele>
      </trkpt>
      <trkpt lat="44.748393" lon="6.766647">
        <ele>1390.99</ele>
      </trkpt>
      <trkpt lat="44.748868" lon="6.766734">
        <ele>1399.32</ele>
      </trkpt>
      <trkpt lat="44.748955" lon="6.766732">
        <ele>1400.68</ele>
      </trkpt>
      <trkpt lat="44.749059" lon="6.766702">
        <ele>1401.5</ele>
      </trkpt>
      <trkpt lat="44.749147" lon="6.766663">
        <ele>1401.68</ele>
      </trkpt>
      <trkpt lat="44.749277" lon="6.766584">
        <ele>1401.76</ele>
      </trkpt>
      <trkpt lat="44.749408" lon="6.766464">
        <ele>1400.31</ele>
      </trkpt>
      <trkpt lat="44.749507" lon="6.766415">
        <ele>1400.98</ele>
      </trkpt>
      <trkpt lat="44.7498" lon="6.766354">
        <ele>1404.62</ele>
      </trkpt>
      <trkpt lat="44.749954" lon="6.766299">
        <ele>1406.03</ele>
      </trkpt>
      <trkpt lat="44.750062" lon="6.76624">
        <ele>1406.42</ele>
      </trkpt>
      <trkpt lat="44.750124" lon="6.76617">
        <ele>1406.48</ele>
      </trkpt>
      <trkpt lat="44.75017" lon="6.766078">
        <ele>1406.38</ele>
      </trkpt>
      <trkpt lat="44.750189" lon="6.765958">
        <ele>1405.74</ele>
      </trkpt>
      <trkpt lat="44.750198" lon="6.765817">
        <ele>1405.2</ele>
      </trkpt>
      <trkpt lat="44.75023" lon="6.765678">
        <ele>1405.27</ele>
      </trkpt>
      <trkpt lat="44.750308" lon="6.76547">
        <ele>1403.05</ele>
      </trkpt>
      <trkpt lat="44.750406" lon="6.76524">
        <ele>1402.45</ele>
      </trkpt>
      <trkpt lat="44.750707" lon="6.764712">
        <ele>1404.22</ele>
      </trkpt>
      <trkpt lat="44.750919" lon="6.764203">
        <ele>1405.51</ele>
      </trkpt>
      <trkpt lat="44.751076" lon="6.763893">
        <ele>1409.44</ele>
      </trkpt>
      <trkpt lat="44.751163" lon="6.763621">
        <ele>1410.58</ele>
      </trkpt>
      <trkpt lat="44.751259" lon="6.763045">
        <ele>1409.48</ele>
      </trkpt>
      <trkpt lat="44.7513" lon="6.762951">
        <ele>1409.74</ele>
      </trkpt>
      <trkpt lat="44.751419" lon="6.762816">
        <ele>1412.33</ele>
      </trkpt>
      <trkpt lat="44.751461" lon="6.762748">
        <ele>1412.84</ele>
      </trkpt>
      <trkpt lat="44.751502" lon="6.762634">
        <ele>1413.19</ele>
      </trkpt>
      <trkpt lat="44.751561" lon="6.762415">
        <ele>1414.06</ele>
      </trkpt>
      <trkpt lat="44.751645" lon="6.762238">
        <ele>1415.03</ele>
      </trkpt>
      <trkpt lat="44.751787" lon="6.762053">
        <ele>1414.88</ele>
      </trkpt>
      <trkpt lat="44.751875" lon="6.761964">
        <ele>1414.59</ele>
      </trkpt>
      <trkpt lat="44.752046" lon="6.761855">
        <ele>1415.88</ele>
      </trkpt>
      <trkpt lat="44.752306" lon="6.761728">
        <ele>1418.33</ele>
      </trkpt>
      <trkpt lat="44.752399" lon="6.761659">
        <ele>1419.04</ele>
      </trkpt>
      <trkpt lat="44.75244" lon="6.761608">
        <ele>1418.8</ele>
      </trkpt>
      <trkpt lat="44.752472" lon="6.761534">
        <ele>1418.24</ele>
      </trkpt>
      <trkpt lat="44.752504" lon="6.761349">
        <ele>1417.75</ele>
      </trkpt>
      <trkpt lat="44.752536" lon="6.761087">
        <ele>1418.03</ele>
      </trkpt>
      <trkpt lat="44.752566" lon="6.760915">
        <ele>1418.76</ele>
      </trkpt>
      <trkpt lat="44.752607" lon="6.760767">
        <ele>1418.71</ele>
      </trkpt>
      <trkpt lat="44.75265" lon="6.760663">
        <ele>1418.83</ele>
      </trkpt>
      <trkpt lat="44.752734" lon="6.760545">
        <ele>1419.56</ele>
      </trkpt>
      <trkpt lat="44.752859" lon="6.760397">
        <ele>1422.17</ele>
      </trkpt>
      <trkpt lat="44.752896" lon="6.760323">
        <ele>1422.19</ele>
      </trkpt>
      <trkpt lat="44.752954" lon="6.760076">
        <ele>1419.91</ele>
      </trkpt>
      <trkpt lat="44.752994" lon="6.759954">
        <ele>1419.57</ele>
      </trkpt>
      <trkpt lat="44.753049" lon="6.75986">
        <ele>1420.8</ele>
      </trkpt>
      <trkpt lat="44.753191" lon="6.759684">
        <ele>1424.94</ele>
      </trkpt>
      <trkpt lat="44.753352" lon="6.759415">
        <ele>1427.62</ele>
      </trkpt>
      <trkpt lat="44.753412" lon="6.759275">
        <ele>1428.55</ele>
      </trkpt>
      <trkpt lat="44.753457" lon="6.759102">
        <ele>1429.18</ele>
      </trkpt>
      <trkpt lat="44.753575" lon="6.758284">
        <ele>1433.97</ele>
      </trkpt>
      <trkpt lat="44.75362" lon="6.758143">
        <ele>1433.71</ele>
      </trkpt>
      <trkpt lat="44.75368" lon="6.758042">
        <ele>1434.06</ele>
      </trkpt>
      <trkpt lat="44.753749" lon="6.757973">
        <ele>1435.27</ele>
      </trkpt>
      <trkpt lat="44.753853" lon="6.757918">
        <ele>1438.45</ele>
      </trkpt>
      <trkpt lat="44.753948" lon="6.757885">
        <ele>1441.39</ele>
      </trkpt>
      <trkpt lat="44.75401" lon="6.75783">
        <ele>1443</ele>
      </trkpt>
      <trkpt lat="44.754049" lon="6.757766">
        <ele>1443.88</ele>
      </trkpt>
      <trkpt lat="44.754081" lon="6.75768">
        <ele>1444.54</ele>
      </trkpt>
      <trkpt lat="44.7541" lon="6.757557">
        <ele>1444.57</ele>
      </trkpt>
      <trkpt lat="44.754143" lon="6.757046">
        <ele>1444.72</ele>
      </trkpt>
      <trkpt lat="44.754172" lon="6.756887">
        <ele>1444.95</ele>
      </trkpt>
      <trkpt lat="44.754496" lon="6.756085">
        <ele>1455.95</ele>
      </trkpt>
      <trkpt lat="44.754588" lon="6.755893">
        <ele>1459.55</ele>
      </trkpt>
      <trkpt lat="44.754651" lon="6.755734">
        <ele>1461</ele>
      </trkpt>
      <trkpt lat="44.754685" lon="6.755581">
        <ele>1461.14</ele>
      </trkpt>
      <trkpt lat="44.754695" lon="6.755429">
        <ele>1461.31</ele>
      </trkpt>
      <trkpt lat="44.754688" lon="6.755211">
        <ele>1462.36</ele>
      </trkpt>
      <trkpt lat="44.75469" lon="6.754862">
        <ele>1463.89</ele>
      </trkpt>
      <trkpt lat="44.754714" lon="6.754692">
        <ele>1464.67</ele>
      </trkpt>
      <trkpt lat="44.754767" lon="6.754492">
        <ele>1466.79</ele>
      </trkpt>
      <trkpt lat="44.754968" lon="6.754034">
        <ele>1469.06</ele>
      </trkpt>
      <trkpt lat="44.755113" lon="6.753612">
        <ele>1472.3</ele>
      </trkpt>
      <trkpt lat="44.75524" lon="6.753307">
        <ele>1475.13</ele>
      </trkpt>
      <trkpt lat="44.75524" lon="6.753307">
        <ele>1475.13</ele>
      </trkpt>
      <trkpt lat="44.755324" lon="6.753144">
        <ele>1475.74</ele>
      </trkpt>
      <trkpt lat="44.75543" lon="6.75297">
        <ele>1477.16</ele>
      </trkpt>
      <trkpt lat="44.755536" lon="6.752819">
        <ele>1478.07</ele>
      </trkpt>
      <trkpt lat="44.755664" lon="6.752686">
        <ele>1479.08</ele>
      </trkpt>
      <trkpt lat="44.756025" lon="6.752449">
        <ele>1484.81</ele>
      </trkpt>
      <trkpt lat="44.756106" lon="6.752361">
        <ele>1485.51</ele>
      </trkpt>
      <trkpt lat="44.756186" lon="6.752198">
        <ele>1485.68</ele>
      </trkpt>
      <trkpt lat="44.756292" lon="6.751767">
        <ele>1485.61</ele>
      </trkpt>
      <trkpt lat="44.756334" lon="6.751644">
        <ele>1486.23</ele>
      </trkpt>
      <trkpt lat="44.756381" lon="6.751524">
        <ele>1486.92</ele>
      </trkpt>
      <trkpt lat="44.756539" lon="6.75122">
        <ele>1489.44</ele>
      </trkpt>
      <trkpt lat="44.756579" lon="6.751115">
        <ele>1490.07</ele>
      </trkpt>
      <trkpt lat="44.756583" lon="6.751013">
        <ele>1489.42</ele>
      </trkpt>
      <trkpt lat="44.756564" lon="6.750785">
        <ele>1487.9</ele>
      </trkpt>
      <trkpt lat="44.756575" lon="6.750672">
        <ele>1488.06</ele>
      </trkpt>
      <trkpt lat="44.756607" lon="6.750558">
        <ele>1488.41</ele>
      </trkpt>
      <trkpt lat="44.756655" lon="6.750462">
        <ele>1488.38</ele>
      </trkpt>
      <trkpt lat="44.756708" lon="6.750381">
        <ele>1488.69</ele>
      </trkpt>
      <trkpt lat="44.75679" lon="6.750284">
        <ele>1489.78</ele>
      </trkpt>
      <trkpt lat="44.757159" lon="6.749962">
        <ele>1493.94</ele>
      </trkpt>
      <trkpt lat="44.75738" lon="6.749839">
        <ele>1495.58</ele>
      </trkpt>
      <trkpt lat="44.757498" lon="6.749732">
        <ele>1496.62</ele>
      </trkpt>
      <trkpt lat="44.757659" lon="6.749473">
        <ele>1498.54</ele>
      </trkpt>
      <trkpt lat="44.757724" lon="6.749324">
        <ele>1499.92</ele>
      </trkpt>
      <trkpt lat="44.757754" lon="6.749197">
        <ele>1500.92</ele>
      </trkpt>
      <trkpt lat="44.757813" lon="6.748831">
        <ele>1502.05</ele>
      </trkpt>
      <trkpt lat="44.757872" lon="6.748648">
        <ele>1503.72</ele>
      </trkpt>
      <trkpt lat="44.758062" lon="6.748315">
        <ele>1508</ele>
      </trkpt>
      <trkpt lat="44.758344" lon="6.74788">
        <ele>1512.14</ele>
      </trkpt>
      <trkpt lat="44.758562" lon="6.747378">
        <ele>1516.23</ele>
      </trkpt>
      <trkpt lat="44.758635" lon="6.74727">
        <ele>1516.81</ele>
      </trkpt>
      <trkpt lat="44.758956" lon="6.746969">
        <ele>1519.25</ele>
      </trkpt>
      <trkpt lat="44.759056" lon="6.746863">
        <ele>1519.86</ele>
      </trkpt>
      <trkpt lat="44.75915" lon="6.746748">
        <ele>1520.32</ele>
      </trkpt>
      <trkpt lat="44.759358" lon="6.74644">
        <ele>1520.97</ele>
      </trkpt>
      <trkpt lat="44.759444" lon="6.746364">
        <ele>1521.9</ele>
      </trkpt>
      <trkpt lat="44.759638" lon="6.746226">
        <ele>1524.8</ele>
      </trkpt>
      <trkpt lat="44.759772" lon="6.746093">
        <ele>1526.24</ele>
      </trkpt>
      <trkpt lat="44.759988" lon="6.745825">
        <ele>1525.7</ele>
      </trkpt>
      <trkpt lat="44.760106" lon="6.745704">
        <ele>1526.06</ele>
      </trkpt>
      <trkpt lat="44.760211" lon="6.745624">
        <ele>1526.61</ele>
      </trkpt>
      <trkpt lat="44.760567" lon="6.745457">
        <ele>1531.36</ele>
      </trkpt>
      <trkpt lat="44.760746" lon="6.745347">
        <ele>1533.8</ele>
      </trkpt>
      <trkpt lat="44.76081" lon="6.745282">
        <ele>1534.14</ele>
      </trkpt>
      <trkpt lat="44.760882" lon="6.745179">
        <ele>1533.46</ele>
      </trkpt>
      <trkpt lat="44.760973" lon="6.745023">
        <ele>1531.89</ele>
      </trkpt>
      <trkpt lat="44.761232" lon="6.744544">
        <ele>1531.07</ele>
      </trkpt>
      <trkpt lat="44.761405" lon="6.744087">
        <ele>1529.74</ele>
      </trkpt>
      <trkpt lat="44.761483" lon="6.743907">
        <ele>1528.9</ele>
      </trkpt>
      <trkpt lat="44.761538" lon="6.743803">
        <ele>1528.68</ele>
      </trkpt>
      <trkpt lat="44.761602" lon="6.743709">
        <ele>1528.97</ele>
      </trkpt>
      <trkpt lat="44.761766" lon="6.743531">
        <ele>1529.64</ele>
      </trkpt>
      <trkpt lat="44.762038" lon="6.743339">
        <ele>1530.95</ele>
      </trkpt>
      <trkpt lat="44.762248" lon="6.743248">
        <ele>1530.37</ele>
      </trkpt>
      <trkpt lat="44.762518" lon="6.743174">
        <ele>1529.34</ele>
      </trkpt>
      <trkpt lat="44.762864" lon="6.743053">
        <ele>1526.23</ele>
      </trkpt>
      <trkpt lat="44.762999" lon="6.742984">
        <ele>1525.03</ele>
      </trkpt>
      <trkpt lat="44.763086" lon="6.742926">
        <ele>1524.34</ele>
      </trkpt>
      <trkpt lat="44.763165" lon="6.742857">
        <ele>1523.57</ele>
      </trkpt>
      <trkpt lat="44.763526" lon="6.742473">
        <ele>1523.03</ele>
      </trkpt>
      <trkpt lat="44.76414" lon="6.741809">
        <ele>1527.02</ele>
      </trkpt>
      <trkpt lat="44.765335" lon="6.740418">
        <ele>1537.8</ele>
      </trkpt>
      <trkpt lat="44.765666" lon="6.740051">
        <ele>1541.51</ele>
      </trkpt>
      <trkpt lat="44.765771" lon="6.739947">
        <ele>1542.38</ele>
      </trkpt>
      <trkpt lat="44.765988" lon="6.73978">
        <ele>1544.15</ele>
      </trkpt>
      <trkpt lat="44.76616" lon="6.73962">
        <ele>1545.56</ele>
      </trkpt>
      <trkpt lat="44.76645" lon="6.73931">
        <ele>1546.96</ele>
      </trkpt>
      <trkpt lat="44.766618" lon="6.739085">
        <ele>1548.31</ele>
      </trkpt>
      <trkpt lat="44.766794" lon="6.738876">
        <ele>1549.75</ele>
      </trkpt>
      <trkpt lat="44.766951" lon="6.738726">
        <ele>1551.02</ele>
      </trkpt>
      <trkpt lat="44.767265" lon="6.738492">
        <ele>1553.06</ele>
      </trkpt>
      <trkpt lat="44.767499" lon="6.738337">
        <ele>1554.53</ele>
      </trkpt>
      <trkpt lat="44.767775" lon="6.738189">
        <ele>1556</ele>
      </trkpt>
      <trkpt lat="44.767931" lon="6.738072">
        <ele>1557.06</ele>
      </trkpt>
      <trkpt lat="44.768274" lon="6.73791">
        <ele>1560.74</ele>
      </trkpt>
      <trkpt lat="44.768377" lon="6.737836">
        <ele>1561.72</ele>
      </trkpt>
      <trkpt lat="44.76901" lon="6.737289">
        <ele>1569.81</ele>
      </trkpt>
      <trkpt lat="44.769279" lon="6.737083">
        <ele>1571.1</ele>
      </trkpt>
      <trkpt lat="44.76948" lon="6.736974">
        <ele>1572.75</ele>
      </trkpt>
      <trkpt lat="44.769614" lon="6.736931">
        <ele>1573.85</ele>
      </trkpt>
      <trkpt lat="44.769955" lon="6.736851">
        <ele>1575.63</ele>
      </trkpt>
      <trkpt lat="44.770439" lon="6.736801">
        <ele>1579.66</ele>
      </trkpt>
      <trkpt lat="44.771297" lon="6.736661">
        <ele>1585.87</ele>
      </trkpt>
      <trkpt lat="44.772147" lon="6.736544">
        <ele>1591.26</ele>
      </trkpt>
      <trkpt lat="44.772996" lon="6.736427">
        <ele>1599.54</ele>
      </trkpt>
      <trkpt lat="44.773481" lon="6.736315">
        <ele>1603.51</ele>
      </trkpt>
      <trkpt lat="44.77367" lon="6.736259">
        <ele>1605.06</ele>
      </trkpt>
      <trkpt lat="44.77457" lon="6.735924">
        <ele>1613.44</ele>
      </trkpt>
      <trkpt lat="44.77507" lon="6.735727">
        <ele>1617.53</ele>
      </trkpt>
      <trkpt lat="44.775329" lon="6.735613">
        <ele>1620.75</ele>
      </trkpt>
      <trkpt lat="44.776012" lon="6.735252">
        <ele>1627.55</ele>
      </trkpt>
      <trkpt lat="44.776143" lon="6.735211">
        <ele>1629.13</ele>
      </trkpt>
      <trkpt lat="44.776308" lon="6.7352">
        <ele>1631.08</ele>
      </trkpt>
      <trkpt lat="44.776462" lon="6.735217">
        <ele>1633.7</ele>
      </trkpt>
      <trkpt lat="44.777182" lon="6.735323">
        <ele>1640.29</ele>
      </trkpt>
      <trkpt lat="44.777336" lon="6.735323">
        <ele>1642.56</ele>
      </trkpt>
      <trkpt lat="44.777529" lon="6.735302">
        <ele>1644.23</ele>
      </trkpt>
      <trkpt lat="44.777735" lon="6.735251">
        <ele>1646.4</ele>
      </trkpt>
      <trkpt lat="44.777942" lon="6.735174">
        <ele>1649.86</ele>
      </trkpt>
      <trkpt lat="44.778131" lon="6.735101">
        <ele>1651.06</ele>
      </trkpt>
      <trkpt lat="44.778295" lon="6.735077">
        <ele>1652.04</ele>
      </trkpt>
      <trkpt lat="44.778468" lon="6.735073">
        <ele>1654.39</ele>
      </trkpt>
      <trkpt lat="44.778662" lon="6.735081">
        <ele>1657.01</ele>
      </trkpt>
      <trkpt lat="44.778787" lon="6.735102">
        <ele>1658.33</ele>
      </trkpt>
      <trkpt lat="44.779668" lon="6.735297">
        <ele>1668.82</ele>
      </trkpt>
      <trkpt lat="44.780002" lon="6.735363">
        <ele>1672.32</ele>
      </trkpt>
      <trkpt lat="44.780542" lon="6.735425">
        <ele>1676.8</ele>
      </trkpt>
      <trkpt lat="44.780765" lon="6.735402">
        <ele>1679.03</ele>
      </trkpt>
      <trkpt lat="44.780862" lon="6.735349">
        <ele>1679.57</ele>
      </trkpt>
      <trkpt lat="44.781211" lon="6.735034">
        <ele>1682.48</ele>
      </trkpt>
      <trkpt lat="44.781321" lon="6.734962">
        <ele>1682.37</ele>
      </trkpt>
      <trkpt lat="44.78137" lon="6.734947">
        <ele>1682.37</ele>
      </trkpt>
      <trkpt lat="44.781516" lon="6.734941">
        <ele>1683.32</ele>
      </trkpt>
      <trkpt lat="44.782179" lon="6.73496">
        <ele>1685.36</ele>
      </trkpt>
      <trkpt lat="44.782447" lon="6.734952">
        <ele>1685.61</ele>
      </trkpt>
      <trkpt lat="44.78268" lon="6.734933">
        <ele>1687.06</ele>
      </trkpt>
      <trkpt lat="44.782899" lon="6.734899">
        <ele>1687.66</ele>
      </trkpt>
      <trkpt lat="44.78318" lon="6.734829">
        <ele>1688.55</ele>
      </trkpt>
      <trkpt lat="44.783555" lon="6.734728">
        <ele>1691.03</ele>
      </trkpt>
      <trkpt lat="44.7837" lon="6.73467">
        <ele>1692.1</ele>
      </trkpt>
      <trkpt lat="44.783889" lon="6.734576">
        <ele>1694.55</ele>
      </trkpt>
      <trkpt lat="44.784282" lon="6.734327">
        <ele>1699.65</ele>
      </trkpt>
      <trkpt lat="44.784636" lon="6.73409">
        <ele>1704.05</ele>
      </trkpt>
      <trkpt lat="44.786062" lon="6.733249">
        <ele>1717.2</ele>
      </trkpt>
      <trkpt lat="44.7862" lon="6.73319">
        <ele>1717.82</ele>
      </trkpt>
      <trkpt lat="44.786618" lon="6.733085">
        <ele>1722.57</ele>
      </trkpt>
      <trkpt lat="44.786849" lon="6.733067">
        <ele>1725.35</ele>
      </trkpt>
      <trkpt lat="44.787052" lon="6.733067">
        <ele>1726.35</ele>
      </trkpt>
      <trkpt lat="44.787497" lon="6.733107">
        <ele>1729.77</ele>
      </trkpt>
      <trkpt lat="44.787608" lon="6.733109">
        <ele>1730.19</ele>
      </trkpt>
      <trkpt lat="44.788197" lon="6.733043">
        <ele>1732.69</ele>
      </trkpt>
      <trkpt lat="44.788732" lon="6.732999">
        <ele>1736.27</ele>
      </trkpt>
      <trkpt lat="44.788962" lon="6.732972">
        <ele>1737.72</ele>
      </trkpt>
      <trkpt lat="44.789165" lon="6.732935">
        <ele>1738.73</ele>
      </trkpt>
      <trkpt lat="44.789265" lon="6.732903">
        <ele>1739.16</ele>
      </trkpt>
      <trkpt lat="44.789363" lon="6.732858">
        <ele>1739.74</ele>
      </trkpt>
      <trkpt lat="44.789542" lon="6.732754">
        <ele>1740.63</ele>
      </trkpt>
      <trkpt lat="44.789952" lon="6.73248">
        <ele>1743.39</ele>
      </trkpt>
      <trkpt lat="44.790053" lon="6.732417">
        <ele>1744.41</ele>
      </trkpt>
      <trkpt lat="44.790177" lon="6.732346">
        <ele>1745.43</ele>
      </trkpt>
      <trkpt lat="44.790294" lon="6.732293">
        <ele>1746.47</ele>
      </trkpt>
      <trkpt lat="44.790425" lon="6.73226">
        <ele>1748.31</ele>
      </trkpt>
      <trkpt lat="44.79086" lon="6.732188">
        <ele>1751.87</ele>
      </trkpt>
      <trkpt lat="44.791466" lon="6.732113">
        <ele>1758.83</ele>
      </trkpt>
      <trkpt lat="44.791676" lon="6.73206">
        <ele>1761.1</ele>
      </trkpt>
      <trkpt lat="44.792531" lon="6.731711">
        <ele>1770.12</ele>
      </trkpt>
      <trkpt lat="44.792847" lon="6.731567">
        <ele>1773.15</ele>
      </trkpt>
      <trkpt lat="44.793104" lon="6.731434">
        <ele>1775.61</ele>
      </trkpt>
      <trkpt lat="44.793457" lon="6.731252">
        <ele>1780.35</ele>
      </trkpt>
      <trkpt lat="44.793627" lon="6.731147">
        <ele>1782.35</ele>
      </trkpt>
      <trkpt lat="44.794692" lon="6.73039">
        <ele>1796.74</ele>
      </trkpt>
      <trkpt lat="44.794995" lon="6.730136">
        <ele>1801.43</ele>
      </trkpt>
      <trkpt lat="44.79514" lon="6.729988">
        <ele>1803.9</ele>
      </trkpt>
      <trkpt lat="44.795298" lon="6.729811">
        <ele>1806.35</ele>
      </trkpt>
      <trkpt lat="44.795519" lon="6.729515">
        <ele>1810.34</ele>
      </trkpt>
      <trkpt lat="44.795765" lon="6.729145">
        <ele>1814.56</ele>
      </trkpt>
      <trkpt lat="44.795891" lon="6.728935">
        <ele>1817.76</ele>
      </trkpt>
      <trkpt lat="44.795966" lon="6.728784">
        <ele>1819.09</ele>
      </trkpt>
      <trkpt lat="44.796117" lon="6.728394">
        <ele>1822.75</ele>
      </trkpt>
      <trkpt lat="44.796182" lon="6.72825">
        <ele>1824.28</ele>
      </trkpt>
      <trkpt lat="44.796279" lon="6.728103">
        <ele>1825.9</ele>
      </trkpt>
      <trkpt lat="44.796349" lon="6.72805">
        <ele>1826.81</ele>
      </trkpt>
      <trkpt lat="44.796433" lon="6.728025">
        <ele>1827.52</ele>
      </trkpt>
      <trkpt lat="44.796552" lon="6.728034">
        <ele>1828.5</ele>
      </trkpt>
      <trkpt lat="44.796622" lon="6.728061">
        <ele>1829.14</ele>
      </trkpt>
      <trkpt lat="44.796706" lon="6.728115">
        <ele>1830.53</ele>
      </trkpt>
      <trkpt lat="44.796795" lon="6.728221">
        <ele>1831.99</ele>
      </trkpt>
      <trkpt lat="44.796851" lon="6.728356">
        <ele>1832.9</ele>
      </trkpt>
      <trkpt lat="44.796894" lon="6.728547">
        <ele>1835.27</ele>
      </trkpt>
      <trkpt lat="44.79692" lon="6.728733">
        <ele>1837.46</ele>
      </trkpt>
      <trkpt lat="44.796925" lon="6.728974">
        <ele>1840.88</ele>
      </trkpt>
      <trkpt lat="44.796912" lon="6.729167">
        <ele>1842.93</ele>
      </trkpt>
      <trkpt lat="44.796891" lon="6.729252">
        <ele>1843.34</ele>
      </trkpt>
      <trkpt lat="44.796856" lon="6.729333">
        <ele>1843.51</ele>
      </trkpt>
      <trkpt lat="44.796688" lon="6.729583">
        <ele>1842.13</ele>
      </trkpt>
      <trkpt lat="44.796637" lon="6.729704">
        <ele>1842.52</ele>
      </trkpt>
      <trkpt lat="44.796507" lon="6.730172">
        <ele>1845.07</ele>
      </trkpt>
      <trkpt lat="44.796478" lon="6.730289">
        <ele>1844.49</ele>
      </trkpt>
      <trkpt lat="44.796461" lon="6.730413">
        <ele>1844.19</ele>
      </trkpt>
      <trkpt lat="44.796463" lon="6.730489">
        <ele>1844.5</ele>
      </trkpt>
      <trkpt lat="44.796501" lon="6.730621">
        <ele>1846.57</ele>
      </trkpt>
      <trkpt lat="44.796525" lon="6.730676">
        <ele>1847.86</ele>
      </trkpt>
      <trkpt lat="44.796606" lon="6.730813">
        <ele>1851.68</ele>
      </trkpt>
      <trkpt lat="44.796652" lon="6.730914">
        <ele>1853.67</ele>
      </trkpt>
      <trkpt lat="44.796665" lon="6.731001">
        <ele>1854.34</ele>
      </trkpt>
      <trkpt lat="44.796654" lon="6.731094">
        <ele>1854.45</ele>
      </trkpt>
      <trkpt lat="44.796654" lon="6.731094">
        <ele>1854.45</ele>
      </trkpt>
      <trkpt lat="44.79665" lon="6.731131">
        <ele>1854.5</ele>
      </trkpt>
      <trkpt lat="44.796613" lon="6.731223">
        <ele>1854.87</ele>
      </trkpt>
      <trkpt lat="44.796535" lon="6.731342">
        <ele>1855.06</ele>
      </trkpt>
      <trkpt lat="44.79648" lon="6.731407">
        <ele>1855.14</ele>
      </trkpt>
      <trkpt lat="44.796396" lon="6.731486">
        <ele>1854.82</ele>
      </trkpt>
      <trkpt lat="44.796224" lon="6.731624">
        <ele>1854.03</ele>
      </trkpt>
      <trkpt lat="44.796183" lon="6.731671">
        <ele>1853.99</ele>
      </trkpt>
      <trkpt lat="44.796155" lon="6.731724">
        <ele>1854.28</ele>
      </trkpt>
      <trkpt lat="44.796103" lon="6.731844">
        <ele>1855.44</ele>
      </trkpt>
      <trkpt lat="44.796049" lon="6.732019">
        <ele>1857.75</ele>
      </trkpt>
      <trkpt lat="44.796031" lon="6.732151">
        <ele>1859.41</ele>
      </trkpt>
      <trkpt lat="44.796035" lon="6.732211">
        <ele>1859.69</ele>
      </trkpt>
      <trkpt lat="44.79605" lon="6.73228">
        <ele>1860.64</ele>
      </trkpt>
      <trkpt lat="44.796085" lon="6.732356">
        <ele>1862.28</ele>
      </trkpt>
      <trkpt lat="44.796135" lon="6.732437">
        <ele>1864.12</ele>
      </trkpt>
      <trkpt lat="44.796336" lon="6.732693">
        <ele>1869.63</ele>
      </trkpt>
      <trkpt lat="44.796459" lon="6.732883">
        <ele>1870.84</ele>
      </trkpt>
      <trkpt lat="44.796573" lon="6.73299">
        <ele>1872.55</ele>
      </trkpt>
      <trkpt lat="44.796717" lon="6.73309">
        <ele>1875.36</ele>
      </trkpt>
      <trkpt lat="44.796849" lon="6.733243">
        <ele>1875.43</ele>
      </trkpt>
      <trkpt lat="44.796928" lon="6.733346">
        <ele>1873.96</ele>
      </trkpt>
      <trkpt lat="44.796985" lon="6.733398">
        <ele>1873.25</ele>
      </trkpt>
      <trkpt lat="44.79708" lon="6.733457">
        <ele>1873.97</ele>
      </trkpt>
      <trkpt lat="44.797277" lon="6.733534">
        <ele>1876.37</ele>
      </trkpt>
      <trkpt lat="44.79749" lon="6.733661">
        <ele>1878.78</ele>
      </trkpt>
      <trkpt lat="44.797596" lon="6.733715">
        <ele>1880.66</ele>
      </trkpt>
      <trkpt lat="44.797767" lon="6.733786">
        <ele>1885.41</ele>
      </trkpt>
      <trkpt lat="44.797835" lon="6.733832">
        <ele>1886.28</ele>
      </trkpt>
      <trkpt lat="44.797901" lon="6.733896">
        <ele>1886.89</ele>
      </trkpt>
      <trkpt lat="44.798041" lon="6.734063">
        <ele>1887.81</ele>
      </trkpt>
      <trkpt lat="44.798262" lon="6.734353">
        <ele>1887.84</ele>
      </trkpt>
      <trkpt lat="44.79841" lon="6.734553">
        <ele>1890.63</ele>
      </trkpt>
      <trkpt lat="44.798444" lon="6.734577">
        <ele>1892.04</ele>
      </trkpt>
      <trkpt lat="44.798478" lon="6.734585">
        <ele>1893.47</ele>
      </trkpt>
      <trkpt lat="44.798512" lon="6.734573">
        <ele>1894.86</ele>
      </trkpt>
      <trkpt lat="44.798543" lon="6.734549">
        <ele>1896.13</ele>
      </trkpt>
      <trkpt lat="44.798562" lon="6.734513">
        <ele>1897.34</ele>
      </trkpt>
      <trkpt lat="44.798571" lon="6.734472">
        <ele>1898.23</ele>
      </trkpt>
      <trkpt lat="44.798571" lon="6.734429">
        <ele>1898.71</ele>
      </trkpt>
      <trkpt lat="44.798553" lon="6.734365">
        <ele>1898.91</ele>
      </trkpt>
      <trkpt lat="44.798525" lon="6.734324">
        <ele>1898.69</ele>
      </trkpt>
      <trkpt lat="44.798412" lon="6.734205">
        <ele>1897.15</ele>
      </trkpt>
      <trkpt lat="44.798322" lon="6.734104">
        <ele>1897.76</ele>
      </trkpt>
      <trkpt lat="44.798263" lon="6.734021">
        <ele>1898.2</ele>
      </trkpt>
      <trkpt lat="44.798047" lon="6.733638">
        <ele>1901.42</ele>
      </trkpt>
      <trkpt lat="44.797969" lon="6.733511">
        <ele>1901.83</ele>
      </trkpt>
      <trkpt lat="44.797864" lon="6.733411">
        <ele>1899.61</ele>
      </trkpt>
      <trkpt lat="44.797732" lon="6.733318">
        <ele>1898</ele>
      </trkpt>
      <trkpt lat="44.797638" lon="6.733244">
        <ele>1898.32</ele>
      </trkpt>
      <trkpt lat="44.797533" lon="6.733147">
        <ele>1900.08</ele>
      </trkpt>
      <trkpt lat="44.797289" lon="6.732886">
        <ele>1905.07</ele>
      </trkpt>
      <trkpt lat="44.797236" lon="6.73281">
        <ele>1906.14</ele>
      </trkpt>
      <trkpt lat="44.797184" lon="6.732678">
        <ele>1907.95</ele>
      </trkpt>
      <trkpt lat="44.797151" lon="6.73255">
        <ele>1908.07</ele>
      </trkpt>
      <trkpt lat="44.797144" lon="6.7325">
        <ele>1908.32</ele>
      </trkpt>
      <trkpt lat="44.797151" lon="6.732416">
        <ele>1908.39</ele>
      </trkpt>
      <trkpt lat="44.797162" lon="6.732384">
        <ele>1908.67</ele>
      </trkpt>
      <trkpt lat="44.797198" lon="6.732334">
        <ele>1909.98</ele>
      </trkpt>
      <trkpt lat="44.797256" lon="6.732308">
        <ele>1911.83</ele>
      </trkpt>
      <trkpt lat="44.797558" lon="6.732305">
        <ele>1922.43</ele>
      </trkpt>
      <trkpt lat="44.797639" lon="6.73229">
        <ele>1925.37</ele>
      </trkpt>
      <trkpt lat="44.797747" lon="6.732232">
        <ele>1928.46</ele>
      </trkpt>
      <trkpt lat="44.797814" lon="6.732169">
        <ele>1929.71</ele>
      </trkpt>
      <trkpt lat="44.797866" lon="6.732094">
        <ele>1929.39</ele>
      </trkpt>
      <trkpt lat="44.797945" lon="6.731924">
        <ele>1928.58</ele>
      </trkpt>
      <trkpt lat="44.797984" lon="6.731804">
        <ele>1928.65</ele>
      </trkpt>
      <trkpt lat="44.798006" lon="6.731716">
        <ele>1929.89</ele>
      </trkpt>
      <trkpt lat="44.798017" lon="6.731647">
        <ele>1930.51</ele>
      </trkpt>
      <trkpt lat="44.79802" lon="6.731563">
        <ele>1931.07</ele>
      </trkpt>
      <trkpt lat="44.79802" lon="6.731253">
        <ele>1930.96</ele>
      </trkpt>
      <trkpt lat="44.79803" lon="6.731189">
        <ele>1931.1</ele>
      </trkpt>
      <trkpt lat="44.798068" lon="6.731069">
        <ele>1932</ele>
      </trkpt>
      <trkpt lat="44.79812" lon="6.730963">
        <ele>1933.02</ele>
      </trkpt>
      <trkpt lat="44.798192" lon="6.730884">
        <ele>1934.67</ele>
      </trkpt>
      <trkpt lat="44.798284" lon="6.730802">
        <ele>1937.8</ele>
      </trkpt>
      <trkpt lat="44.79833" lon="6.73074">
        <ele>1939.1</ele>
      </trkpt>
      <trkpt lat="44.798373" lon="6.73066">
        <ele>1940.4</ele>
      </trkpt>
      <trkpt lat="44.798417" lon="6.730532">
        <ele>1940.84</ele>
      </trkpt>
      <trkpt lat="44.798479" lon="6.730217">
        <ele>1940.52</ele>
      </trkpt>
      <trkpt lat="44.798536" lon="6.730071">
        <ele>1941.4</ele>
      </trkpt>
      <trkpt lat="44.798584" lon="6.729987">
        <ele>1942.96</ele>
      </trkpt>
      <trkpt lat="44.798624" lon="6.729935">
        <ele>1944.65</ele>
      </trkpt>
      <trkpt lat="44.798851" lon="6.729666">
        <ele>1951.48</ele>
      </trkpt>
      <trkpt lat="44.798898" lon="6.7296">
        <ele>1952.7</ele>
      </trkpt>
      <trkpt lat="44.798955" lon="6.729499">
        <ele>1953.57</ele>
      </trkpt>
      <trkpt lat="44.798976" lon="6.729444">
        <ele>1953.31</ele>
      </trkpt>
      <trkpt lat="44.798998" lon="6.729346">
        <ele>1952.14</ele>
      </trkpt>
      <trkpt lat="44.798999" lon="6.729232">
        <ele>1949.51</ele>
      </trkpt>
      <trkpt lat="44.798973" lon="6.729089">
        <ele>1944.92</ele>
      </trkpt>
      <trkpt lat="44.798973" lon="6.729042">
        <ele>1943.81</ele>
      </trkpt>
      <trkpt lat="44.79899" lon="6.728988">
        <ele>1943.24</ele>
      </trkpt>
      <trkpt lat="44.79901" lon="6.728956">
        <ele>1943.29</ele>
      </trkpt>
      <trkpt lat="44.799036" lon="6.728939">
        <ele>1943.99</ele>
      </trkpt>
      <trkpt lat="44.799062" lon="6.728936">
        <ele>1944.95</ele>
      </trkpt>
      <trkpt lat="44.79911" lon="6.728956">
        <ele>1947.3</ele>
      </trkpt>
      <trkpt lat="44.799142" lon="6.729005">
        <ele>1950.08</ele>
      </trkpt>
      <trkpt lat="44.799163" lon="6.729129">
        <ele>1954.73</ele>
      </trkpt>
      <trkpt lat="44.799168" lon="6.729285">
        <ele>1959.07</ele>
      </trkpt>
      <trkpt lat="44.79914" lon="6.729487">
        <ele>1962.4</ele>
      </trkpt>
      <trkpt lat="44.799097" lon="6.729645">
        <ele>1963.93</ele>
      </trkpt>
      <trkpt lat="44.798853" lon="6.730288">
        <ele>1963.43</ele>
      </trkpt>
      <trkpt lat="44.798819" lon="6.730465">
        <ele>1964.27</ele>
      </trkpt>
      <trkpt lat="44.798811" lon="6.730567">
        <ele>1965.52</ele>
      </trkpt>
      <trkpt lat="44.798802" lon="6.730959">
        <ele>1971.67</ele>
      </trkpt>
      <trkpt lat="44.798782" lon="6.731111">
        <ele>1972.35</ele>
      </trkpt>
      <trkpt lat="44.798756" lon="6.731181">
        <ele>1972.06</ele>
      </trkpt>
      <trkpt lat="44.798663" lon="6.73137">
        <ele>1969.38</ele>
      </trkpt>
      <trkpt lat="44.798611" lon="6.731528">
        <ele>1967.75</ele>
      </trkpt>
      <trkpt lat="44.798598" lon="6.731625">
        <ele>1968.06</ele>
      </trkpt>
      <trkpt lat="44.798604" lon="6.732143">
        <ele>1970.83</ele>
      </trkpt>
      <trkpt lat="44.798591" lon="6.732367">
        <ele>1971.4</ele>
      </trkpt>
      <trkpt lat="44.798602" lon="6.732411">
        <ele>1971.95</ele>
      </trkpt>
      <trkpt lat="44.79864" lon="6.732449">
        <ele>1973.83</ele>
      </trkpt>
      <trkpt lat="44.79867" lon="6.732451">
        <ele>1975.31</ele>
      </trkpt>
      <trkpt lat="44.798688" lon="6.732433">
        <ele>1976.33</ele>
      </trkpt>
      <trkpt lat="44.798718" lon="6.732369">
        <ele>1978.6</ele>
      </trkpt>
      <trkpt lat="44.798719" lon="6.732181">
        <ele>1979.05</ele>
      </trkpt>
      <trkpt lat="44.798736" lon="6.731836">
        <ele>1978.77</ele>
      </trkpt>
      <trkpt lat="44.798752" lon="6.731746">
        <ele>1979.4</ele>
      </trkpt>
      <trkpt lat="44.798776" lon="6.731665">
        <ele>1980.69</ele>
      </trkpt>
      <trkpt lat="44.798808" lon="6.731594">
        <ele>1982.24</ele>
      </trkpt>
      <trkpt lat="44.798974" lon="6.73137">
        <ele>1989.19</ele>
      </trkpt>
      <trkpt lat="44.799022" lon="6.731287">
        <ele>1990.92</ele>
      </trkpt>
      <trkpt lat="44.799061" lon="6.731167">
        <ele>1992.08</ele>
      </trkpt>
      <trkpt lat="44.799147" lon="6.730833">
        <ele>1992.2</ele>
      </trkpt>
      <trkpt lat="44.799189" lon="6.73072">
        <ele>1992.55</ele>
      </trkpt>
      <trkpt lat="44.799263" lon="6.73058">
        <ele>1993.56</ele>
      </trkpt>
      <trkpt lat="44.799428" lon="6.73031">
        <ele>1996.67</ele>
      </trkpt>
      <trkpt lat="44.799566" lon="6.730116">
        <ele>1997.96</ele>
      </trkpt>
      <trkpt lat="44.799795" lon="6.729887">
        <ele>2000.67</ele>
      </trkpt>
      <trkpt lat="44.799934" lon="6.729734">
        <ele>2001.66</ele>
      </trkpt>
      <trkpt lat="44.800113" lon="6.729508">
        <ele>1999.89</ele>
      </trkpt>
      <trkpt lat="44.800175" lon="6.729471">
        <ele>2000.21</ele>
      </trkpt>
      <trkpt lat="44.800236" lon="6.729478">
        <ele>2001.99</ele>
      </trkpt>
      <trkpt lat="44.800269" lon="6.729536">
        <ele>2004.81</ele>
      </trkpt>
      <trkpt lat="44.800275" lon="6.729568">
        <ele>2006.05</ele>
      </trkpt>
      <trkpt lat="44.800274" lon="6.729605">
        <ele>2007.35</ele>
      </trkpt>
      <trkpt lat="44.80026" lon="6.729645">
        <ele>2008.38</ele>
      </trkpt>
      <trkpt lat="44.800209" lon="6.729711">
        <ele>2009.45</ele>
      </trkpt>
      <trkpt lat="44.80005" lon="6.72987">
        <ele>2009.45</ele>
      </trkpt>
      <trkpt lat="44.79979" lon="6.730216">
        <ele>2010.02</ele>
      </trkpt>
      <trkpt lat="44.799737" lon="6.730301">
        <ele>2010.48</ele>
      </trkpt>
      <trkpt lat="44.799653" lon="6.730468">
        <ele>2011.67</ele>
      </trkpt>
      <trkpt lat="44.799565" lon="6.730714">
        <ele>2013.91</ele>
      </trkpt>
      <trkpt lat="44.799516" lon="6.730928">
        <ele>2016.93</ele>
      </trkpt>
      <trkpt lat="44.799498" lon="6.731052">
        <ele>2018.68</ele>
      </trkpt>
      <trkpt lat="44.799443" lon="6.731544">
        <ele>2022.61</ele>
      </trkpt>
      <trkpt lat="44.799399" lon="6.731848">
        <ele>2022.48</ele>
      </trkpt>
      <trkpt lat="44.799393" lon="6.732006">
        <ele>2021.18</ele>
      </trkpt>
      <trkpt lat="44.799402" lon="6.732056">
        <ele>2020.76</ele>
      </trkpt>
      <trkpt lat="44.799437" lon="6.732138">
        <ele>2020.99</ele>
      </trkpt>
      <trkpt lat="44.799552" lon="6.732227">
        <ele>2023.99</ele>
      </trkpt>
      <trkpt lat="44.799705" lon="6.732302">
        <ele>2026.83</ele>
      </trkpt>
      <trkpt lat="44.799843" lon="6.732329">
        <ele>2030.53</ele>
      </trkpt>
      <trkpt lat="44.800244" lon="6.732338">
        <ele>2042.45</ele>
      </trkpt>
      <trkpt lat="44.800335" lon="6.732351">
        <ele>2045.53</ele>
      </trkpt>
      <trkpt lat="44.800422" lon="6.732392">
        <ele>2047.79</ele>
      </trkpt>
      <trkpt lat="44.800461" lon="6.732423">
        <ele>2048.41</ele>
      </trkpt>
      <trkpt lat="44.800666" lon="6.732622">
        <ele>2051.24</ele>
      </trkpt>
      <trkpt lat="44.800873" lon="6.732901">
        <ele>2052.5</ele>
      </trkpt>
      <trkpt lat="44.80097" lon="6.733">
        <ele>2053.71</ele>
      </trkpt>
      <trkpt lat="44.801213" lon="6.733216">
        <ele>2057.15</ele>
      </trkpt>
      <trkpt lat="44.801291" lon="6.733323">
        <ele>2056.62</ele>
      </trkpt>
      <trkpt lat="44.801413" lon="6.733528">
        <ele>2054.41</ele>
      </trkpt>
      <trkpt lat="44.801479" lon="6.733607">
        <ele>2053.92</ele>
      </trkpt>
      <trkpt lat="44.801631" lon="6.733751">
        <ele>2055.33</ele>
      </trkpt>
      <trkpt lat="44.801721" lon="6.733861">
        <ele>2055.31</ele>
      </trkpt>
      <trkpt lat="44.801797" lon="6.733987">
        <ele>2054.21</ele>
      </trkpt>
      <trkpt lat="44.801895" lon="6.73417">
        <ele>2053.43</ele>
      </trkpt>
      <trkpt lat="44.801939" lon="6.734233">
        <ele>2054.23</ele>
      </trkpt>
      <trkpt lat="44.801985" lon="6.73426">
        <ele>2056.1</ele>
      </trkpt>
      <trkpt lat="44.802042" lon="6.734249">
        <ele>2058.3</ele>
      </trkpt>
      <trkpt lat="44.802069" lon="6.734212">
        <ele>2059.51</ele>
      </trkpt>
      <trkpt lat="44.802081" lon="6.734181">
        <ele>2061.04</ele>
      </trkpt>
      <trkpt lat="44.802087" lon="6.734109">
        <ele>2063.73</ele>
      </trkpt>
      <trkpt lat="44.802077" lon="6.734035">
        <ele>2065.74</ele>
      </trkpt>
      <trkpt lat="44.802047" lon="6.733959">
        <ele>2066.93</ele>
      </trkpt>
      <trkpt lat="44.802022" lon="6.733914">
        <ele>2067.31</ele>
      </trkpt>
      <trkpt lat="44.801666" lon="6.733416">
        <ele>2069.79</ele>
      </trkpt>
      <trkpt lat="44.80163" lon="6.733332">
        <ele>2071.41</ele>
      </trkpt>
      <trkpt lat="44.801579" lon="6.733127">
        <ele>2076.64</ele>
      </trkpt>
      <trkpt lat="44.801537" lon="6.733015">
        <ele>2077.86</ele>
      </trkpt>
      <trkpt lat="44.801346" lon="6.732717">
        <ele>2077.66</ele>
      </trkpt>
      <trkpt lat="44.801313" lon="6.73264">
        <ele>2077.96</ele>
      </trkpt>
      <trkpt lat="44.801021" lon="6.731756">
        <ele>2084.9</ele>
      </trkpt>
      <trkpt lat="44.800827" lon="6.731421">
        <ele>2081.36</ele>
      </trkpt>
      <trkpt lat="44.800816" lon="6.731375">
        <ele>2080.83</ele>
      </trkpt>
      <trkpt lat="44.800817" lon="6.731289">
        <ele>2080.35</ele>
      </trkpt>
      <trkpt lat="44.800847" lon="6.731222">
        <ele>2080.33</ele>
      </trkpt>
      <trkpt lat="44.800878" lon="6.731183">
        <ele>2080.62</ele>
      </trkpt>
      <trkpt lat="44.800907" lon="6.73117">
        <ele>2081.37</ele>
      </trkpt>
      <trkpt lat="44.80096" lon="6.731162">
        <ele>2083.01</ele>
      </trkpt>
      <trkpt lat="44.80099" lon="6.731171">
        <ele>2084.1</ele>
      </trkpt>
      <trkpt lat="44.801019" lon="6.731193">
        <ele>2085.2</ele>
      </trkpt>
      <trkpt lat="44.801073" lon="6.731274">
        <ele>2087.49</ele>
      </trkpt>
      <trkpt lat="44.801135" lon="6.731466">
        <ele>2090.11</ele>
      </trkpt>
      <trkpt lat="44.801177" lon="6.731573">
        <ele>2090.79</ele>
      </trkpt>
      <trkpt lat="44.801283" lon="6.731769">
        <ele>2092.39</ele>
      </trkpt>
      <trkpt lat="44.801367" lon="6.731861">
        <ele>2094.13</ele>
      </trkpt>
      <trkpt lat="44.801661" lon="6.732102">
        <ele>2101.33</ele>
      </trkpt>
      <trkpt lat="44.801737" lon="6.732196">
        <ele>2103.38</ele>
      </trkpt>
      <trkpt lat="44.801824" lon="6.732335">
        <ele>2105.21</ele>
      </trkpt>
      <trkpt lat="44.801971" lon="6.732594">
        <ele>2106.72</ele>
      </trkpt>
      <trkpt lat="44.802275" lon="6.733122">
        <ele>2107.61</ele>
      </trkpt>
      <trkpt lat="44.802391" lon="6.733289">
        <ele>2107.51</ele>
      </trkpt>
      <trkpt lat="44.802451" lon="6.733362">
        <ele>2107.84</ele>
      </trkpt>
      <trkpt lat="44.802507" lon="6.733422">
        <ele>2108.38</ele>
      </trkpt>
      <trkpt lat="44.802588" lon="6.733487">
        <ele>2109.83</ele>
      </trkpt>
      <trkpt lat="44.802879" lon="6.733677">
        <ele>2115.91</ele>
      </trkpt>
      <trkpt lat="44.803127" lon="6.733894">
        <ele>2118.77</ele>
      </trkpt>
      <trkpt lat="44.803299" lon="6.734018">
        <ele>2121.62</ele>
      </trkpt>
      <trkpt lat="44.803647" lon="6.734235">
        <ele>2122.57</ele>
      </trkpt>
      <trkpt lat="44.804026" lon="6.734446">
        <ele>2121.17</ele>
      </trkpt>
      <trkpt lat="44.804129" lon="6.734466">
        <ele>2122.25</ele>
      </trkpt>
      <trkpt lat="44.804594" lon="6.734357">
        <ele>2130.88</ele>
      </trkpt>
      <trkpt lat="44.804754" lon="6.734332">
        <ele>2134.6</ele>
      </trkpt>
      <trkpt lat="44.804829" lon="6.734329">
        <ele>2136.22</ele>
      </trkpt>
      <trkpt lat="44.805125" lon="6.734364">
        <ele>2141.89</ele>
      </trkpt>
      <trkpt lat="44.805219" lon="6.734395">
        <ele>2143.36</ele>
      </trkpt>
      <trkpt lat="44.805408" lon="6.734508">
        <ele>2146.01</ele>
      </trkpt>
      <trkpt lat="44.805551" lon="6.734612">
        <ele>2148.05</ele>
      </trkpt>
      <trkpt lat="44.805615" lon="6.734675">
        <ele>2148.89</ele>
      </trkpt>
      <trkpt lat="44.80567" lon="6.734775">
        <ele>2150.07</ele>
      </trkpt>
      <trkpt lat="44.805688" lon="6.734857">
        <ele>2150.92</ele>
      </trkpt>
      <trkpt lat="44.805691" lon="6.734933">
        <ele>2151.75</ele>
      </trkpt>
      <trkpt lat="44.80568" lon="6.735042">
        <ele>2153.38</ele>
      </trkpt>
      <trkpt lat="44.805656" lon="6.735121">
        <ele>2154.47</ele>
      </trkpt>
      <trkpt lat="44.805583" lon="6.735256">
        <ele>2155.85</ele>
      </trkpt>
      <trkpt lat="44.805311" lon="6.735584">
        <ele>2158.76</ele>
      </trkpt>
      <trkpt lat="44.804718" lon="6.736231">
        <ele>2162.95</ele>
      </trkpt>
      <trkpt lat="44.804623" lon="6.736305">
        <ele>2163.17</ele>
      </trkpt>
      <trkpt lat="44.804566" lon="6.736339">
        <ele>2163.22</ele>
      </trkpt>
      <trkpt lat="44.804378" lon="6.736413">
        <ele>2162.19</ele>
      </trkpt>
      <trkpt lat="44.804277" lon="6.736493">
        <ele>2162.73</ele>
      </trkpt>
      <trkpt lat="44.804225" lon="6.736573">
        <ele>2163.8</ele>
      </trkpt>
      <trkpt lat="44.804129" lon="6.736807">
        <ele>2168.63</ele>
      </trkpt>
      <trkpt lat="44.804092" lon="6.736873">
        <ele>2169.96</ele>
      </trkpt>
      <trkpt lat="44.804051" lon="6.736927">
        <ele>2170.86</ele>
      </trkpt>
      <trkpt lat="44.803817" lon="6.737165">
        <ele>2173.75</ele>
      </trkpt>
      <trkpt lat="44.803568" lon="6.737366">
        <ele>2174.72</ele>
      </trkpt>
      <trkpt lat="44.803536" lon="6.737409">
        <ele>2175.44</ele>
      </trkpt>
      <trkpt lat="44.803525" lon="6.73744">
        <ele>2176.13</ele>
      </trkpt>
      <trkpt lat="44.803518" lon="6.737509">
        <ele>2177.86</ele>
      </trkpt>
      <trkpt lat="44.803529" lon="6.737545">
        <ele>2178.9</ele>
      </trkpt>
      <trkpt lat="44.803552" lon="6.737573">
        <ele>2179.91</ele>
      </trkpt>
      <trkpt lat="44.803589" lon="6.737579">
        <ele>2180.65</ele>
      </trkpt>
      <trkpt lat="44.803643" lon="6.737567">
        <ele>2181.25</ele>
      </trkpt>
      <trkpt lat="44.803955" lon="6.737332">
        <ele>2180.08</ele>
      </trkpt>
      <trkpt lat="44.804422" lon="6.736999">
        <ele>2180.02</ele>
      </trkpt>
      <trkpt lat="44.804693" lon="6.736827">
        <ele>2181.89</ele>
      </trkpt>
      <trkpt lat="44.804903" lon="6.736715">
        <ele>2182.73</ele>
      </trkpt>
      <trkpt lat="44.805028" lon="6.736683">
        <ele>2184.12</ele>
      </trkpt>
      <trkpt lat="44.805225" lon="6.736662">
        <ele>2186.06</ele>
      </trkpt>
      <trkpt lat="44.805354" lon="6.736661">
        <ele>2187.1</ele>
      </trkpt>
      <trkpt lat="44.805597" lon="6.736683">
        <ele>2190.25</ele>
      </trkpt>
      <trkpt lat="44.805649" lon="6.736683">
        <ele>2191</ele>
      </trkpt>
      <trkpt lat="44.805762" lon="6.73666">
        <ele>2193.12</ele>
      </trkpt>
      <trkpt lat="44.806299" lon="6.73645">
        <ele>2203.19</ele>
      </trkpt>
      <trkpt lat="44.806752" lon="6.736265">
        <ele>2209.94</ele>
      </trkpt>
      <trkpt lat="44.806976" lon="6.736175">
        <ele>2211.52</ele>
      </trkpt>
      <trkpt lat="44.807281" lon="6.736061">
        <ele>2209.2</ele>
      </trkpt>
      <trkpt lat="44.807346" lon="6.736049">
        <ele>2207.87</ele>
      </trkpt>
      <trkpt lat="44.807405" lon="6.736056">
        <ele>2206.31</ele>
      </trkpt>
      <trkpt lat="44.807489" lon="6.736098">
        <ele>2204.43</ele>
      </trkpt>
      <trkpt lat="44.807534" lon="6.736138">
        <ele>2203.56</ele>
      </trkpt>
      <trkpt lat="44.807566" lon="6.73618">
        <ele>2203.03</ele>
      </trkpt>
      <trkpt lat="44.80759" lon="6.736244">
        <ele>2202.9</ele>
      </trkpt>
      <trkpt lat="44.807638" lon="6.736569">
        <ele>2205.73</ele>
      </trkpt>
      <trkpt lat="44.807688" lon="6.736752">
        <ele>2206.64</ele>
      </trkpt>
      <trkpt lat="44.807716" lon="6.736819">
        <ele>2206.77</ele>
      </trkpt>
      <trkpt lat="44.807783" lon="6.736939">
        <ele>2206.14</ele>
      </trkpt>
      <trkpt lat="44.807903" lon="6.737097">
        <ele>2206.92</ele>
      </trkpt>
      <trkpt lat="44.807948" lon="6.73714">
        <ele>2207.56</ele>
      </trkpt>
      <trkpt lat="44.808006" lon="6.737178">
        <ele>2207.69</ele>
      </trkpt>
      <trkpt lat="44.808088" lon="6.737201">
        <ele>2206.62</ele>
      </trkpt>
      <trkpt lat="44.808428" lon="6.737156">
        <ele>2199.03</ele>
      </trkpt>
      <trkpt lat="44.808583" lon="6.737163">
        <ele>2195.56</ele>
      </trkpt>
      <trkpt lat="44.808655" lon="6.737189">
        <ele>2194.35</ele>
      </trkpt>
      <trkpt lat="44.808699" lon="6.73723">
        <ele>2194.07</ele>
      </trkpt>
      <trkpt lat="44.808758" lon="6.737326">
        <ele>2193.75</ele>
      </trkpt>
      <trkpt lat="44.809092" lon="6.737999">
        <ele>2188.77</ele>
      </trkpt>
      <trkpt lat="44.809164" lon="6.738118">
        <ele>2187.81</ele>
      </trkpt>
      <trkpt lat="44.809223" lon="6.738186">
        <ele>2187.35</ele>
      </trkpt>
      <trkpt lat="44.809419" lon="6.738341">
        <ele>2186.17</ele>
      </trkpt>
      <trkpt lat="44.80959" lon="6.738441">
        <ele>2185.12</ele>
      </trkpt>
      <trkpt lat="44.809705" lon="6.738467">
        <ele>2184.63</ele>
      </trkpt>
      <trkpt lat="44.809826" lon="6.738454">
        <ele>2184.68</ele>
      </trkpt>
      <trkpt lat="44.809961" lon="6.738421">
        <ele>2183.89</ele>
      </trkpt>
      <trkpt lat="44.810164" lon="6.738358">
        <ele>2180.82</ele>
      </trkpt>
      <trkpt lat="44.810395" lon="6.738269">
        <ele>2179.16</ele>
      </trkpt>
      <trkpt lat="44.810523" lon="6.738215">
        <ele>2179.91</ele>
      </trkpt>
      <trkpt lat="44.810623" lon="6.738152">
        <ele>2181.78</ele>
      </trkpt>
      <trkpt lat="44.810927" lon="6.737934">
        <ele>2184.57</ele>
      </trkpt>
      <trkpt lat="44.811029" lon="6.737858">
        <ele>2183.47</ele>
      </trkpt>
      <trkpt lat="44.811122" lon="6.737777">
        <ele>2184.7</ele>
      </trkpt>
      <trkpt lat="44.811214" lon="6.737644">
        <ele>2189.74</ele>
      </trkpt>
      <trkpt lat="44.811243" lon="6.737572">
        <ele>2193.81</ele>
      </trkpt>
      <trkpt lat="44.811255" lon="6.737521">
        <ele>2196.34</ele>
      </trkpt>
      <trkpt lat="44.811262" lon="6.737444">
        <ele>2198.36</ele>
      </trkpt>
      <trkpt lat="44.811275" lon="6.737234">
        <ele>2197.21</ele>
      </trkpt>
      <trkpt lat="44.811303" lon="6.737083">
        <ele>2194.98</ele>
      </trkpt>
      <trkpt lat="44.81134" lon="6.736967">
        <ele>2193.85</ele>
      </trkpt>
      <trkpt lat="44.811392" lon="6.736878">
        <ele>2193.65</ele>
      </trkpt>
      <trkpt lat="44.811431" lon="6.73684">
        <ele>2193.98</ele>
      </trkpt>
      <trkpt lat="44.81158" lon="6.736742">
        <ele>2196.99</ele>
      </trkpt>
      <trkpt lat="44.811641" lon="6.736691">
        <ele>2198.61</ele>
      </trkpt>
      <trkpt lat="44.811674" lon="6.736641">
        <ele>2199.38</ele>
      </trkpt>
      <trkpt lat="44.811699" lon="6.73657">
        <ele>2200.9</ele>
      </trkpt>
      <trkpt lat="44.811698" lon="6.736479">
        <ele>2201.93</ele>
      </trkpt>
      <trkpt lat="44.811667" lon="6.736344">
        <ele>2202.71</ele>
      </trkpt>
      <trkpt lat="44.811552" lon="6.736072">
        <ele>2203.03</ele>
      </trkpt>
      <trkpt lat="44.811522" lon="6.735989">
        <ele>2202.99</ele>
      </trkpt>
      <trkpt lat="44.811502" lon="6.735907">
        <ele>2203.33</ele>
      </trkpt>
      <trkpt lat="44.81149" lon="6.735775">
        <ele>2204.27</ele>
      </trkpt>
      <trkpt lat="44.811487" lon="6.735636">
        <ele>2205.73</ele>
      </trkpt>
      <trkpt lat="44.811502" lon="6.735526">
        <ele>2207.04</ele>
      </trkpt>
      <trkpt lat="44.81154" lon="6.735422">
        <ele>2208.28</ele>
      </trkpt>
      <trkpt lat="44.811595" lon="6.735368">
        <ele>2208.97</ele>
      </trkpt>
      <trkpt lat="44.811749" lon="6.735315">
        <ele>2211.8</ele>
      </trkpt>
      <trkpt lat="44.811795" lon="6.735286">
        <ele>2212.66</ele>
      </trkpt>
      <trkpt lat="44.811908" lon="6.735142">
        <ele>2212.95</ele>
      </trkpt>
      <trkpt lat="44.812009" lon="6.735053">
        <ele>2214.94</ele>
      </trkpt>
      <trkpt lat="44.812122" lon="6.734989">
        <ele>2216.39</ele>
      </trkpt>
      <trkpt lat="44.812309" lon="6.734932">
        <ele>2219.02</ele>
      </trkpt>
      <trkpt lat="44.812573" lon="6.734777">
        <ele>2220.88</ele>
      </trkpt>
      <trkpt lat="44.812713" lon="6.73471">
        <ele>2222.18</ele>
      </trkpt>
      <trkpt lat="44.812743" lon="6.73469">
        <ele>2222.36</ele>
      </trkpt>
      <trkpt lat="44.81288" lon="6.734553">
        <ele>2223.88</ele>
      </trkpt>
      <trkpt lat="44.812954" lon="6.734492">
        <ele>2224.94</ele>
      </trkpt>
      <trkpt lat="44.813014" lon="6.734462">
        <ele>2225.71</ele>
      </trkpt>
      <trkpt lat="44.813068" lon="6.73445">
        <ele>2226.46</ele>
      </trkpt>
      <trkpt lat="44.813167" lon="6.734459">
        <ele>2227.17</ele>
      </trkpt>
      <trkpt lat="44.813196" lon="6.73447">
        <ele>2227.46</ele>
      </trkpt>
      <trkpt lat="44.813247" lon="6.734507">
        <ele>2227.48</ele>
      </trkpt>
      <trkpt lat="44.813308" lon="6.73459">
        <ele>2228.36</ele>
      </trkpt>
      <trkpt lat="44.813444" lon="6.734849">
        <ele>2232.14</ele>
      </trkpt>
      <trkpt lat="44.813607" lon="6.735272">
        <ele>2236.48</ele>
      </trkpt>
      <trkpt lat="44.813662" lon="6.735444">
        <ele>2237.71</ele>
      </trkpt>
      <trkpt lat="44.8138" lon="6.735962">
        <ele>2242.52</ele>
      </trkpt>
      <trkpt lat="44.813854" lon="6.73607">
        <ele>2243.34</ele>
      </trkpt>
      <trkpt lat="44.813932" lon="6.736146">
        <ele>2243.51</ele>
      </trkpt>
      <trkpt lat="44.81396" lon="6.736161">
        <ele>2243.59</ele>
      </trkpt>
      <trkpt lat="44.814033" lon="6.736175">
        <ele>2243.68</ele>
      </trkpt>
      <trkpt lat="44.8142" lon="6.736168">
        <ele>2243.83</ele>
      </trkpt>
      <trkpt lat="44.814298" lon="6.736177">
        <ele>2245.37</ele>
      </trkpt>
      <trkpt lat="44.814404" lon="6.736209">
        <ele>2246.95</ele>
      </trkpt>
      <trkpt lat="44.81458" lon="6.736299">
        <ele>2249.99</ele>
      </trkpt>
      <trkpt lat="44.814664" lon="6.736328">
        <ele>2251.18</ele>
      </trkpt>
      <trkpt lat="44.814737" lon="6.736327">
        <ele>2251.29</ele>
      </trkpt>
      <trkpt lat="44.814918" lon="6.736302">
        <ele>2252.1</ele>
      </trkpt>
      <trkpt lat="44.815476" lon="6.736338">
        <ele>2258.64</ele>
      </trkpt>
      <trkpt lat="44.815558" lon="6.736322">
        <ele>2259.23</ele>
      </trkpt>
      <trkpt lat="44.815622" lon="6.736275">
        <ele>2258.57</ele>
      </trkpt>
      <trkpt lat="44.815668" lon="6.736191">
        <ele>2259.25</ele>
      </trkpt>
      <trkpt lat="44.81569" lon="6.736081">
        <ele>2260.39</ele>
      </trkpt>
      <trkpt lat="44.815691" lon="6.735987">
        <ele>2262.28</ele>
      </trkpt>
      <trkpt lat="44.815681" lon="6.735887">
        <ele>2263.63</ele>
      </trkpt>
      <trkpt lat="44.815624" lon="6.735551">
        <ele>2265.91</ele>
      </trkpt>
      <trkpt lat="44.815564" lon="6.735256">
        <ele>2265.69</ele>
      </trkpt>
      <trkpt lat="44.815563" lon="6.735176">
        <ele>2266.17</ele>
      </trkpt>
      <trkpt lat="44.815569" lon="6.735144">
        <ele>2266.6</ele>
      </trkpt>
      <trkpt lat="44.81561" lon="6.735068">
        <ele>2268.02</ele>
      </trkpt>
      <trkpt lat="44.815636" lon="6.735042">
        <ele>2268.48</ele>
      </trkpt>
      <trkpt lat="44.815822" lon="6.734909">
        <ele>2268.92</ele>
      </trkpt>
      <trkpt lat="44.815927" lon="6.734823">
        <ele>2270.17</ele>
      </trkpt>
      <trkpt lat="44.815977" lon="6.734771">
        <ele>2271.69</ele>
      </trkpt>
      <trkpt lat="44.81611" lon="6.734597">
        <ele>2274.78</ele>
      </trkpt>
      <trkpt lat="44.816206" lon="6.734521">
        <ele>2275.81</ele>
      </trkpt>
      <trkpt lat="44.816271" lon="6.734494">
        <ele>2276.42</ele>
      </trkpt>
      <trkpt lat="44.816352" lon="6.734492">
        <ele>2277.23</ele>
      </trkpt>
      <trkpt lat="44.816426" lon="6.734513">
        <ele>2277.67</ele>
      </trkpt>
      <trkpt lat="44.81661" lon="6.734592">
        <ele>2279.37</ele>
      </trkpt>
      <trkpt lat="44.816712" lon="6.734606">
        <ele>2280.09</ele>
      </trkpt>
      <trkpt lat="44.816782" lon="6.734587">
        <ele>2280.2</ele>
      </trkpt>
      <trkpt lat="44.816813" lon="6.734566">
        <ele>2280.26</ele>
      </trkpt>
      <trkpt lat="44.816848" lon="6.734534">
        <ele>2280.35</ele>
      </trkpt>
      <trkpt lat="44.816939" lon="6.734411">
        <ele>2281.41</ele>
      </trkpt>
      <trkpt lat="44.817239" lon="6.733992">
        <ele>2286.86</ele>
      </trkpt>
      <trkpt lat="44.81741" lon="6.733786">
        <ele>2289.57</ele>
      </trkpt>
      <trkpt lat="44.817737" lon="6.733417">
        <ele>2293.54</ele>
      </trkpt>
      <trkpt lat="44.817828" lon="6.733302">
        <ele>2294.89</ele>
      </trkpt>
      <trkpt lat="44.817998" lon="6.733054">
        <ele>2297.28</ele>
      </trkpt>
      <trkpt lat="44.818174" lon="6.732726">
        <ele>2299.43</ele>
      </trkpt>
      <trkpt lat="44.818232" lon="6.732676">
        <ele>2300.57</ele>
      </trkpt>
      <trkpt lat="44.818279" lon="6.732674">
        <ele>2301.71</ele>
      </trkpt>
      <trkpt lat="44.81833" lon="6.732708">
        <ele>2303.16</ele>
      </trkpt>
      <trkpt lat="44.818357" lon="6.732775">
        <ele>2304.23</ele>
      </trkpt>
      <trkpt lat="44.818351" lon="6.732865">
        <ele>2304.63</ele>
      </trkpt>
      <trkpt lat="44.818334" lon="6.732929">
        <ele>2304.57</ele>
      </trkpt>
      <trkpt lat="44.818285" lon="6.733061">
        <ele>2304.61</ele>
      </trkpt>
      <trkpt lat="44.818115" lon="6.733456">
        <ele>2305.98</ele>
      </trkpt>
      <trkpt lat="44.817776" lon="6.734065">
        <ele>2309.23</ele>
      </trkpt>
      <trkpt lat="44.817649" lon="6.734336">
        <ele>2308.55</ele>
      </trkpt>
      <trkpt lat="44.817647" lon="6.734397">
        <ele>2308.96</ele>
      </trkpt>
      <trkpt lat="44.817664" lon="6.734455">
        <ele>2310.16</ele>
      </trkpt>
      <trkpt lat="44.817687" lon="6.734483">
        <ele>2311.5</ele>
      </trkpt>
      <trkpt lat="44.817735" lon="6.73449">
        <ele>2313.71</ele>
      </trkpt>
      <trkpt lat="44.817778" lon="6.734468">
        <ele>2315.21</ele>
      </trkpt>
      <trkpt lat="44.817801" lon="6.73444">
        <ele>2315.82</ele>
      </trkpt>
      <trkpt lat="44.817936" lon="6.734138">
        <ele>2316.27</ele>
      </trkpt>
      <trkpt lat="44.818006" lon="6.734041">
        <ele>2316.3</ele>
      </trkpt>
      <trkpt lat="44.818085" lon="6.733961">
        <ele>2317.02</ele>
      </trkpt>
      <trkpt lat="44.81834" lon="6.733768">
        <ele>2320.31</ele>
      </trkpt>
      <trkpt lat="44.818459" lon="6.733663">
        <ele>2321.56</ele>
      </trkpt>
      <trkpt lat="44.818627" lon="6.73349">
        <ele>2324.05</ele>
      </trkpt>
      <trkpt lat="44.818692" lon="6.733409">
        <ele>2324.76</ele>
      </trkpt>
      <trkpt lat="44.819102" lon="6.732824">
        <ele>2330.01</ele>
      </trkpt>
      <trkpt lat="44.819218" lon="6.732641">
        <ele>2330.86</ele>
      </trkpt>
      <trkpt lat="44.819318" lon="6.732441">
        <ele>2332.91</ele>
      </trkpt>
      <trkpt lat="44.819388" lon="6.732174">
        <ele>2333.07</ele>
      </trkpt>
      <trkpt lat="44.819413" lon="6.732124">
        <ele>2333.65</ele>
      </trkpt>
      <trkpt lat="44.819449" lon="6.732096">
        <ele>2334.72</ele>
      </trkpt>
      <trkpt lat="44.819468" lon="6.732092">
        <ele>2335.21</ele>
      </trkpt>
      <trkpt lat="44.819513" lon="6.732107">
        <ele>2336.22</ele>
      </trkpt>
      <trkpt lat="44.819553" lon="6.732161">
        <ele>2336.99</ele>
      </trkpt>
      <trkpt lat="44.819575" lon="6.732252">
        <ele>2338.05</ele>
      </trkpt>
      <trkpt lat="44.819569" lon="6.73234">
        <ele>2337.98</ele>
      </trkpt>
      <trkpt lat="44.81953" lon="6.732461">
        <ele>2338.1</ele>
      </trkpt>
      <trkpt lat="44.819403" lon="6.73271">
        <ele>2337.89</ele>
      </trkpt>
      <trkpt lat="44.81932" lon="6.732911">
        <ele>2339.15</ele>
      </trkpt>
      <trkpt lat="44.819241" lon="6.733168">
        <ele>2341.56</ele>
      </trkpt>
      <trkpt lat="44.819216" lon="6.733287">
        <ele>2342.16</ele>
      </trkpt>
      <trkpt lat="44.819206" lon="6.733382">
        <ele>2342.78</ele>
      </trkpt>
      <trkpt lat="44.819201" lon="6.733725">
        <ele>2344.76</ele>
      </trkpt>
      <trkpt lat="44.819188" lon="6.733838">
        <ele>2345.67</ele>
      </trkpt>
      <trkpt lat="44.819164" lon="6.733931">
        <ele>2346.23</ele>
      </trkpt>
      <trkpt lat="44.819095" lon="6.734066">
        <ele>2347.12</ele>
      </trkpt>
      <trkpt lat="44.81901" lon="6.734198">
        <ele>2348.36</ele>
      </trkpt>
      <trkpt lat="44.818831" lon="6.734509">
        <ele>2350.42</ele>
      </trkpt>
      <trkpt lat="44.818808" lon="6.734576">
        <ele>2350.79</ele>
      </trkpt>
      <trkpt lat="44.818804" lon="6.734641">
        <ele>2351.07</ele>
      </trkpt>
      <trkpt lat="44.818813" lon="6.734694">
        <ele>2351.59</ele>
      </trkpt>
      <trkpt lat="44.818851" lon="6.734755">
        <ele>2352.55</ele>
      </trkpt>
      <trkpt lat="44.818931" lon="6.734816">
        <ele>2354.16</ele>
      </trkpt>
      <trkpt lat="44.819" lon="6.734844">
        <ele>2355.68</ele>
      </trkpt>
      <trkpt lat="44.819164" lon="6.734887">
        <ele>2357.87</ele>
      </trkpt>
      <trkpt lat="44.819448" lon="6.734938">
        <ele>2360.47</ele>
      </trkpt>
      <trkpt lat="44.819448" lon="6.734938">
        <ele>2360.47</ele>
      </trkpt>
      <trkpt lat="44.819458" lon="6.734939">
        <ele>2360.52</ele>
      </trkpt>
    </trkseg>
  </trk>
</gpx>
