<?xml version="1.0" encoding="UTF-8"?>
<gpx creator="Wikiloc - https://www.wikiloc.com" version="1.1" xmlns="http://www.topografix.com/GPX/1/1" xmlns:xsi="http://www.w3.org/2001/XMLSchema-instance" xsi:schemaLocation="http://www.topografix.com/GPX/1/1 http://www.topografix.com/GPX/1/1/gpx.xsd">
  <metadata>
    <name>Wikiloc - Jaca - Parador de Oroel</name>
    <link href="https://www.wikiloc.com/cycling-trails/jaca-parador-de-oroel-230863383">
      <text>Jaca - Parador de Oroel - Wikiloc on Wikiloc</text>
    </link>
    <time>2025-09-09T08:04:41Z</time>
  </metadata>
  <trk>
    <name>Jaca - Parador de Oroel - Wikiloc</name>
    <cmt></cmt>
    <desc></desc>
    <trkseg>
      <trkpt lat="42.565881" lon="-0.555539">
        <ele>807.825</ele>
        <time>2025-09-09T07:22:36.975Z</time>
      </trkpt>
      <trkpt lat="42.565727" lon="-0.555644">
        <ele>802.726</ele>
        <time>2025-09-09T07:22:41.884Z</time>
      </trkpt>
      <trkpt lat="42.565778" lon="-0.555573">
        <ele>804.908</ele>
        <time>2025-09-09T07:22:42.912Z</time>
      </trkpt>
      <trkpt lat="42.565816" lon="-0.556331">
        <ele>805.409</ele>
        <time>2025-09-09T07:22:59.910Z</time>
      </trkpt>
      <trkpt lat="42.565525" lon="-0.557306">
        <ele>802.224</ele>
        <time>2025-09-09T07:23:10.910Z</time>
      </trkpt>
      <trkpt lat="42.564667" lon="-0.558482">
        <ele>794.665</ele>
        <time>2025-09-09T07:23:24.910Z</time>
      </trkpt>
      <trkpt lat="42.563651" lon="-0.559001">
        <ele>790.572</ele>
        <time>2025-09-09T07:23:36.910Z</time>
      </trkpt>
      <trkpt lat="42.562455" lon="-0.559311">
        <ele>783.040</ele>
        <time>2025-09-09T07:23:48.910Z</time>
      </trkpt>
      <trkpt lat="42.561848" lon="-0.559714">
        <ele>780.488</ele>
        <time>2025-09-09T07:23:55.910Z</time>
      </trkpt>
      <trkpt lat="42.561177" lon="-0.560724">
        <ele>775.045</ele>
        <time>2025-09-09T07:24:06.910Z</time>
      </trkpt>
      <trkpt lat="42.560872" lon="-0.561963">
        <ele>770.425</ele>
        <time>2025-09-09T07:24:16.910Z</time>
      </trkpt>
      <trkpt lat="42.560388" lon="-0.562431">
        <ele>767.220</ele>
        <time>2025-09-09T07:24:23.910Z</time>
      </trkpt>
      <trkpt lat="42.560090" lon="-0.562446">
        <ele>766.715</ele>
        <time>2025-09-09T07:24:27.910Z</time>
      </trkpt>
      <trkpt lat="42.559381" lon="-0.562197">
        <ele>770.284</ele>
        <time>2025-09-09T07:24:36.910Z</time>
      </trkpt>
      <trkpt lat="42.558788" lon="-0.562550">
        <ele>773.807</ele>
        <time>2025-09-09T07:24:46.910Z</time>
      </trkpt>
      <trkpt lat="42.557607" lon="-0.562158">
        <ele>781.117</ele>
        <time>2025-09-09T07:25:07.910Z</time>
      </trkpt>
      <trkpt lat="42.557375" lon="-0.562219">
        <ele>780.609</ele>
        <time>2025-09-09T07:25:11.910Z</time>
      </trkpt>
      <trkpt lat="42.557268" lon="-0.562552">
        <ele>778.080</ele>
        <time>2025-09-09T07:25:16.910Z</time>
      </trkpt>
      <trkpt lat="42.557310" lon="-0.562764">
        <ele>783.061</ele>
        <time>2025-09-09T07:25:19.910Z</time>
      </trkpt>
      <trkpt lat="42.558595" lon="-0.563690">
        <ele>789.758</ele>
        <time>2025-09-09T07:25:49.910Z</time>
      </trkpt>
      <trkpt lat="42.558719" lon="-0.563978">
        <ele>789.436</ele>
        <time>2025-09-09T07:25:55.910Z</time>
      </trkpt>
      <trkpt lat="42.558653" lon="-0.564261">
        <ele>791.684</ele>
        <time>2025-09-09T07:26:00.910Z</time>
      </trkpt>
      <trkpt lat="42.558364" lon="-0.564615">
        <ele>793.251</ele>
        <time>2025-09-09T07:26:09.910Z</time>
      </trkpt>
      <trkpt lat="42.558143" lon="-0.564714">
        <ele>796.591</ele>
        <time>2025-09-09T07:26:17Z</time>
      </trkpt>
      <trkpt lat="42.556914" lon="-0.564713">
        <ele>803.116</ele>
        <time>2025-09-09T07:26:47.910Z</time>
      </trkpt>
      <trkpt lat="42.555341" lon="-0.565807">
        <ele>812.721</ele>
        <time>2025-09-09T07:27:32.910Z</time>
      </trkpt>
      <trkpt lat="42.554955" lon="-0.565772">
        <ele>814.825</ele>
        <time>2025-09-09T07:27:44.910Z</time>
      </trkpt>
      <trkpt lat="42.553140" lon="-0.564691">
        <ele>823.526</ele>
        <time>2025-09-09T07:28:38.910Z</time>
      </trkpt>
      <trkpt lat="42.551494" lon="-0.564549">
        <ele>834.108</ele>
        <time>2025-09-09T07:29:19.910Z</time>
      </trkpt>
      <trkpt lat="42.549581" lon="-0.563962">
        <ele>845.409</ele>
        <time>2025-09-09T07:30:18.910Z</time>
      </trkpt>
      <trkpt lat="42.548625" lon="-0.563228">
        <ele>851.374</ele>
        <time>2025-09-09T07:30:50.910Z</time>
      </trkpt>
      <trkpt lat="42.547449" lon="-0.561656">
        <ele>858.055</ele>
        <time>2025-09-09T07:31:38.910Z</time>
      </trkpt>
      <trkpt lat="42.546468" lon="-0.560533">
        <ele>865.152</ele>
        <time>2025-09-09T07:32:12.910Z</time>
      </trkpt>
      <trkpt lat="42.545612" lon="-0.559930">
        <ele>870.650</ele>
        <time>2025-09-09T07:32:41.910Z</time>
      </trkpt>
      <trkpt lat="42.544616" lon="-0.560715">
        <ele>878.338</ele>
        <time>2025-09-09T07:33:19.910Z</time>
      </trkpt>
      <trkpt lat="42.543527" lon="-0.560917">
        <ele>883.295</ele>
        <time>2025-09-09T07:33:49.910Z</time>
      </trkpt>
      <trkpt lat="42.543258" lon="-0.561108">
        <ele>884.845</ele>
        <time>2025-09-09T07:33:56.910Z</time>
      </trkpt>
      <trkpt lat="42.543167" lon="-0.561416">
        <ele>886.360</ele>
        <time>2025-09-09T07:34:02.910Z</time>
      </trkpt>
      <trkpt lat="42.543260" lon="-0.563108">
        <ele>892.685</ele>
        <time>2025-09-09T07:34:31.910Z</time>
      </trkpt>
      <trkpt lat="42.542924" lon="-0.564675">
        <ele>897.483</ele>
        <time>2025-09-09T07:35:06.910Z</time>
      </trkpt>
      <trkpt lat="42.542769" lon="-0.564786">
        <ele>901.625</ele>
        <time>2025-09-09T07:35:12.910Z</time>
      </trkpt>
      <trkpt lat="42.542707" lon="-0.564616">
        <ele>904.717</ele>
        <time>2025-09-09T07:35:16.910Z</time>
      </trkpt>
      <trkpt lat="42.542855" lon="-0.563392">
        <ele>905.109</ele>
        <time>2025-09-09T07:35:40.910Z</time>
      </trkpt>
      <trkpt lat="42.542836" lon="-0.562973">
        <ele>905.510</ele>
        <time>2025-09-09T07:35:48.910Z</time>
      </trkpt>
      <trkpt lat="42.542710" lon="-0.562839">
        <ele>909.281</ele>
        <time>2025-09-09T07:35:52.910Z</time>
      </trkpt>
      <trkpt lat="42.542573" lon="-0.564263">
        <ele>912.248</ele>
        <time>2025-09-09T07:36:23.910Z</time>
      </trkpt>
      <trkpt lat="42.542258" lon="-0.565437">
        <ele>918.486</ele>
        <time>2025-09-09T07:36:54.910Z</time>
      </trkpt>
      <trkpt lat="42.541976" lon="-0.565886">
        <ele>921.944</ele>
        <time>2025-09-09T07:37:08.910Z</time>
      </trkpt>
      <trkpt lat="42.540794" lon="-0.567125">
        <ele>929.221</ele>
        <time>2025-09-09T07:37:52.910Z</time>
      </trkpt>
      <trkpt lat="42.540606" lon="-0.567150">
        <ele>930.551</ele>
        <time>2025-09-09T07:37:58.910Z</time>
      </trkpt>
      <trkpt lat="42.540446" lon="-0.566967">
        <ele>931.266</ele>
        <time>2025-09-09T07:38:04.910Z</time>
      </trkpt>
      <trkpt lat="42.540093" lon="-0.565848">
        <ele>941.011</ele>
        <time>2025-09-09T07:38:32.910Z</time>
      </trkpt>
      <trkpt lat="42.539846" lon="-0.565573">
        <ele>942.962</ele>
        <time>2025-09-09T07:38:42.910Z</time>
      </trkpt>
      <trkpt lat="42.539517" lon="-0.565720">
        <ele>941.483</ele>
        <time>2025-09-09T07:38:52.910Z</time>
      </trkpt>
      <trkpt lat="42.539001" lon="-0.565711">
        <ele>945.711</ele>
        <time>2025-09-09T07:39:08.910Z</time>
      </trkpt>
      <trkpt lat="42.538392" lon="-0.566117">
        <ele>946.509</ele>
        <time>2025-09-09T07:39:28.910Z</time>
      </trkpt>
      <trkpt lat="42.538053" lon="-0.566013">
        <ele>949.858</ele>
        <time>2025-09-09T07:39:38.910Z</time>
      </trkpt>
      <trkpt lat="42.537461" lon="-0.565160">
        <ele>955.249</ele>
        <time>2025-09-09T07:40:02.910Z</time>
      </trkpt>
      <trkpt lat="42.537001" lon="-0.563773">
        <ele>962.086</ele>
        <time>2025-09-09T07:40:37.910Z</time>
      </trkpt>
      <trkpt lat="42.536858" lon="-0.563581">
        <ele>963.464</ele>
        <time>2025-09-09T07:40:43.910Z</time>
      </trkpt>
      <trkpt lat="42.535250" lon="-0.563994">
        <ele>968.772</ele>
        <time>2025-09-09T07:41:31.910Z</time>
      </trkpt>
      <trkpt lat="42.534928" lon="-0.563866">
        <ele>971.199</ele>
        <time>2025-09-09T07:41:41.910Z</time>
      </trkpt>
      <trkpt lat="42.533879" lon="-0.562794">
        <ele>980.349</ele>
        <time>2025-09-09T07:42:21.910Z</time>
      </trkpt>
      <trkpt lat="42.533618" lon="-0.561812">
        <ele>982.724</ele>
        <time>2025-09-09T07:42:41.910Z</time>
      </trkpt>
      <trkpt lat="42.533451" lon="-0.561727">
        <ele>984.649</ele>
        <time>2025-09-09T07:42:45.910Z</time>
      </trkpt>
      <trkpt lat="42.533129" lon="-0.561815">
        <ele>985.282</ele>
        <time>2025-09-09T07:42:54.910Z</time>
      </trkpt>
      <trkpt lat="42.532936" lon="-0.561697">
        <ele>986.443</ele>
        <time>2025-09-09T07:43:00.910Z</time>
      </trkpt>
      <trkpt lat="42.532659" lon="-0.561097">
        <ele>988.717</ele>
        <time>2025-09-09T07:43:14.910Z</time>
      </trkpt>
      <trkpt lat="42.532338" lon="-0.559723">
        <ele>997.509</ele>
        <time>2025-09-09T07:43:51.914Z</time>
      </trkpt>
      <trkpt lat="42.531807" lon="-0.559445">
        <ele>999.570</ele>
        <time>2025-09-09T07:44:12.914Z</time>
      </trkpt>
      <trkpt lat="42.531513" lon="-0.559147">
        <ele>1001.241</ele>
        <time>2025-09-09T07:44:24.914Z</time>
      </trkpt>
      <trkpt lat="42.531284" lon="-0.558317">
        <ele>1007.048</ele>
        <time>2025-09-09T07:44:46.914Z</time>
      </trkpt>
      <trkpt lat="42.531180" lon="-0.558239">
        <ele>1007.496</ele>
        <time>2025-09-09T07:44:50.914Z</time>
      </trkpt>
      <trkpt lat="42.530501" lon="-0.558400">
        <ele>1008.394</ele>
        <time>2025-09-09T07:45:10.914Z</time>
      </trkpt>
      <trkpt lat="42.530313" lon="-0.558284">
        <ele>1009.971</ele>
        <time>2025-09-09T07:45:16.914Z</time>
      </trkpt>
      <trkpt lat="42.530119" lon="-0.557637">
        <ele>1013.091</ele>
        <time>2025-09-09T07:45:32Z</time>
      </trkpt>
      <trkpt lat="42.530102" lon="-0.556790">
        <ele>1018.866</ele>
        <time>2025-09-09T07:45:48.914Z</time>
      </trkpt>
      <trkpt lat="42.529993" lon="-0.556445">
        <ele>1020.381</ele>
        <time>2025-09-09T07:45:58.914Z</time>
      </trkpt>
      <trkpt lat="42.529708" lon="-0.556267">
        <ele>1021.498</ele>
        <time>2025-09-09T07:46:11.914Z</time>
      </trkpt>
      <trkpt lat="42.528238" lon="-0.556429">
        <ele>1029.515</ele>
        <time>2025-09-09T07:47:05.914Z</time>
      </trkpt>
      <trkpt lat="42.527474" lon="-0.556691">
        <ele>1032.826</ele>
        <time>2025-09-09T07:47:33.914Z</time>
      </trkpt>
      <trkpt lat="42.527226" lon="-0.556622">
        <ele>1035.609</ele>
        <time>2025-09-09T07:47:43.914Z</time>
      </trkpt>
      <trkpt lat="42.527880" lon="-0.556101">
        <ele>1038.611</ele>
        <time>2025-09-09T07:48:05.914Z</time>
      </trkpt>
      <trkpt lat="42.528168" lon="-0.556128">
        <ele>1038.572</ele>
        <time>2025-09-09T07:48:13.914Z</time>
      </trkpt>
      <trkpt lat="42.528362" lon="-0.556038">
        <ele>1040.319</ele>
        <time>2025-09-09T07:48:19.914Z</time>
      </trkpt>
      <trkpt lat="42.529028" lon="-0.555055">
        <ele>1052.087</ele>
        <time>2025-09-09T07:48:56.914Z</time>
      </trkpt>
      <trkpt lat="42.529187" lon="-0.554260">
        <ele>1061.225</ele>
        <time>2025-09-09T07:49:15.914Z</time>
      </trkpt>
      <trkpt lat="42.529155" lon="-0.553298">
        <ele>1062.562</ele>
        <time>2025-09-09T07:49:44.914Z</time>
      </trkpt>
      <trkpt lat="42.529249" lon="-0.553125">
        <ele>1063.842</ele>
        <time>2025-09-09T07:49:50.914Z</time>
      </trkpt>
      <trkpt lat="42.529834" lon="-0.552761">
        <ele>1068.257</ele>
        <time>2025-09-09T07:50:12.914Z</time>
      </trkpt>
      <trkpt lat="42.530121" lon="-0.552306">
        <ele>1071.912</ele>
        <time>2025-09-09T07:50:28.914Z</time>
      </trkpt>
      <trkpt lat="42.530302" lon="-0.551110">
        <ele>1080.346</ele>
        <time>2025-09-09T07:51:04.914Z</time>
      </trkpt>
      <trkpt lat="42.530741" lon="-0.549611">
        <ele>1091.988</ele>
        <time>2025-09-09T07:52:00.914Z</time>
      </trkpt>
      <trkpt lat="42.530707" lon="-0.549476">
        <ele>1092.816</ele>
        <time>2025-09-09T07:52:04.914Z</time>
      </trkpt>
      <trkpt lat="42.529708" lon="-0.548416">
        <ele>1102.709</ele>
        <time>2025-09-09T07:52:50.914Z</time>
      </trkpt>
      <trkpt lat="42.529192" lon="-0.548198">
        <ele>1110.326</ele>
        <time>2025-09-09T07:53:15.914Z</time>
      </trkpt>
      <trkpt lat="42.529012" lon="-0.547769">
        <ele>1113.577</ele>
        <time>2025-09-09T07:53:31.914Z</time>
      </trkpt>
      <trkpt lat="42.528789" lon="-0.546830">
        <ele>1114.834</ele>
        <time>2025-09-09T07:54:00.914Z</time>
      </trkpt>
      <trkpt lat="42.529092" lon="-0.546043">
        <ele>1116.942</ele>
        <time>2025-09-09T07:54:20.914Z</time>
      </trkpt>
      <trkpt lat="42.529240" lon="-0.545233">
        <ele>1119.240</ele>
        <time>2025-09-09T07:54:38.914Z</time>
      </trkpt>
      <trkpt lat="42.528851" lon="-0.543175">
        <ele>1127.257</ele>
        <time>2025-09-09T07:55:19.914Z</time>
      </trkpt>
      <trkpt lat="42.528600" lon="-0.542162">
        <ele>1132.847</ele>
        <time>2025-09-09T07:55:37.914Z</time>
      </trkpt>
      <trkpt lat="42.528134" lon="-0.541770">
        <ele>1140.132</ele>
        <time>2025-09-09T07:55:51.914Z</time>
      </trkpt>
      <trkpt lat="42.527852" lon="-0.540281">
        <ele>1142.557</ele>
        <time>2025-09-09T07:56:37.914Z</time>
      </trkpt>
      <trkpt lat="42.527341" lon="-0.539383">
        <ele>1149.087</ele>
        <time>2025-09-09T07:57:08.914Z</time>
      </trkpt>
      <trkpt lat="42.527453" lon="-0.538539">
        <ele>1150.342</ele>
        <time>2025-09-09T07:57:24.914Z</time>
      </trkpt>
      <trkpt lat="42.527288" lon="-0.537781">
        <ele>1152.126</ele>
        <time>2025-09-09T07:57:37.914Z</time>
      </trkpt>
      <trkpt lat="42.527511" lon="-0.537049">
        <ele>1155.509</ele>
        <time>2025-09-09T07:57:49.914Z</time>
      </trkpt>
      <trkpt lat="42.527543" lon="-0.536394">
        <ele>1157.770</ele>
        <time>2025-09-09T07:58:03.914Z</time>
      </trkpt>
      <trkpt lat="42.527495" lon="-0.535251">
        <ele>1164.131</ele>
        <time>2025-09-09T07:58:36.914Z</time>
      </trkpt>
      <trkpt lat="42.527206" lon="-0.533628">
        <ele>1171.558</ele>
        <time>2025-09-09T07:59:20.914Z</time>
      </trkpt>
      <trkpt lat="42.527452" lon="-0.531831">
        <ele>1178.536</ele>
        <time>2025-09-09T08:03:03Z</time>
      </trkpt>
      <trkpt lat="42.527432" lon="-0.531952">
        <ele>1178.724</ele>
        <time>2025-09-09T08:04:41Z</time>
      </trkpt>
    </trkseg>
  </trk></gpx>