<?xml version="1.0" encoding="UTF-8"?>
<gpx creator="https://gpx.studio" version="1.1" xmlns="http://www.topografix.com/GPX/1/1" xmlns:xsi="http://www.w3.org/2001/XMLSchema-instance" xsi:schemaLocation="http://www.topografix.com/GPX/1/1 http://www.topografix.com/GPX/1/1/gpx.xsd http://www.garmin.com/xmlschemas/GpxExtensions/v3 http://www.garmin.com/xmlschemas/GpxExtensionsv3.xsd http://www.garmin.com/xmlschemas/TrackPointExtension/v1 http://www.garmin.com/xmlschemas/TrackPointExtensionv1.xsd http://www.garmin.com/xmlschemas/PowerExtension/v1 http://www.garmin.com/xmlschemas/PowerExtensionv1.xsd http://www.topografix.com/GPX/gpx_style/0/2 http://www.topografix.com/GPX/gpx_style/0/2/gpx_style.xsd" xmlns:gpxtpx="http://www.garmin.com/xmlschemas/TrackPointExtension/v1" xmlns:gpxx="http://www.garmin.com/xmlschemas/GpxExtensions/v3" xmlns:gpxpx="http://www.garmin.com/xmlschemas/PowerExtension/v1" xmlns:gpx_style="http://www.topografix.com/GPX/gpx_style/0/2">
  <metadata>
    <name>kallikratis desde kapsodasosr</name>
    <author>
      <name>gpx.studio</name>
      <link href="https://gpx.studio"/>
    </author>
  </metadata>
  <trk>
    <name>kallikratis desde kapsodasosr</name>
    <trkseg>
      <trkpt lat="35.204286" lon="24.236298">
        <ele>101.3</ele>
      </trkpt>
      <trkpt lat="35.204301" lon="24.236296">
        <ele>101.72</ele>
      </trkpt>
      <trkpt lat="35.204321" lon="24.236273">
        <ele>102.28</ele>
      </trkpt>
      <trkpt lat="35.204329" lon="24.236236">
        <ele>102.52</ele>
      </trkpt>
      <trkpt lat="35.204355" lon="24.235802">
        <ele>104.6</ele>
      </trkpt>
      <trkpt lat="35.204367" lon="24.235702">
        <ele>104.46</ele>
      </trkpt>
      <trkpt lat="35.204406" lon="24.235606">
        <ele>104.77</ele>
      </trkpt>
      <trkpt lat="35.204439" lon="24.235564">
        <ele>104.73</ele>
      </trkpt>
      <trkpt lat="35.204493" lon="24.235537">
        <ele>105.06</ele>
      </trkpt>
      <trkpt lat="35.204612" lon="24.235513">
        <ele>106.23</ele>
      </trkpt>
      <trkpt lat="35.204822" lon="24.235519">
        <ele>108.18</ele>
      </trkpt>
      <trkpt lat="35.204907" lon="24.235531">
        <ele>109.31</ele>
      </trkpt>
      <trkpt lat="35.204965" lon="24.235553">
        <ele>110.63</ele>
      </trkpt>
      <trkpt lat="35.205144" lon="24.235669">
        <ele>116.13</ele>
      </trkpt>
      <trkpt lat="35.205228" lon="24.235678">
        <ele>117.59</ele>
      </trkpt>
      <trkpt lat="35.20529" lon="24.235656">
        <ele>117.84</ele>
      </trkpt>
      <trkpt lat="35.205474" lon="24.235533">
        <ele>118.43</ele>
      </trkpt>
      <trkpt lat="35.205838" lon="24.235325">
        <ele>123.49</ele>
      </trkpt>
      <trkpt lat="35.206072" lon="24.235129">
        <ele>126.46</ele>
      </trkpt>
      <trkpt lat="35.206237" lon="24.235018">
        <ele>129.23</ele>
      </trkpt>
      <trkpt lat="35.206323" lon="24.234935">
        <ele>130.22</ele>
      </trkpt>
      <trkpt lat="35.206377" lon="24.234856">
        <ele>130.73</ele>
      </trkpt>
      <trkpt lat="35.206414" lon="24.234771">
        <ele>130.87</ele>
      </trkpt>
      <trkpt lat="35.206485" lon="24.234491">
        <ele>130.48</ele>
      </trkpt>
      <trkpt lat="35.20652" lon="24.234429">
        <ele>130.95</ele>
      </trkpt>
      <trkpt lat="35.206693" lon="24.234197">
        <ele>133.85</ele>
      </trkpt>
      <trkpt lat="35.206777" lon="24.234125">
        <ele>135.18</ele>
      </trkpt>
      <trkpt lat="35.206863" lon="24.234078">
        <ele>136.8</ele>
      </trkpt>
      <trkpt lat="35.207125" lon="24.233984">
        <ele>141.83</ele>
      </trkpt>
      <trkpt lat="35.207221" lon="24.233969">
        <ele>143.8</ele>
      </trkpt>
      <trkpt lat="35.207569" lon="24.233949">
        <ele>150.07</ele>
      </trkpt>
      <trkpt lat="35.207863" lon="24.233961">
        <ele>157.15</ele>
      </trkpt>
      <trkpt lat="35.207947" lon="24.233936">
        <ele>158.7</ele>
      </trkpt>
      <trkpt lat="35.208132" lon="24.233811">
        <ele>161.83</ele>
      </trkpt>
      <trkpt lat="35.208259" lon="24.233695">
        <ele>163.62</ele>
      </trkpt>
      <trkpt lat="35.208457" lon="24.233457">
        <ele>165.88</ele>
      </trkpt>
      <trkpt lat="35.20861" lon="24.2333">
        <ele>167.95</ele>
      </trkpt>
      <trkpt lat="35.208634" lon="24.233282">
        <ele>168.27</ele>
      </trkpt>
      <trkpt lat="35.20866" lon="24.233291">
        <ele>169.72</ele>
      </trkpt>
      <trkpt lat="35.208681" lon="24.233316">
        <ele>171.62</ele>
      </trkpt>
      <trkpt lat="35.208686" lon="24.233347">
        <ele>173.17</ele>
      </trkpt>
      <trkpt lat="35.208681" lon="24.233373">
        <ele>173.98</ele>
      </trkpt>
      <trkpt lat="35.208422" lon="24.233852">
        <ele>179.31</ele>
      </trkpt>
      <trkpt lat="35.20824" lon="24.23415">
        <ele>179.26</ele>
      </trkpt>
      <trkpt lat="35.208091" lon="24.234339">
        <ele>179.11</ele>
      </trkpt>
      <trkpt lat="35.20786" lon="24.234599">
        <ele>180.18</ele>
      </trkpt>
      <trkpt lat="35.207818" lon="24.234676">
        <ele>180.74</ele>
      </trkpt>
      <trkpt lat="35.207817" lon="24.234716">
        <ele>181.63</ele>
      </trkpt>
      <trkpt lat="35.207829" lon="24.234752">
        <ele>182.88</ele>
      </trkpt>
      <trkpt lat="35.207853" lon="24.234776">
        <ele>184.58</ele>
      </trkpt>
      <trkpt lat="35.207904" lon="24.234775">
        <ele>186.71</ele>
      </trkpt>
      <trkpt lat="35.208023" lon="24.234704">
        <ele>189.36</ele>
      </trkpt>
      <trkpt lat="35.208332" lon="24.234457">
        <ele>195.86</ele>
      </trkpt>
      <trkpt lat="35.208468" lon="24.234322">
        <ele>200.88</ele>
      </trkpt>
      <trkpt lat="35.208504" lon="24.234317">
        <ele>203.52</ele>
      </trkpt>
      <trkpt lat="35.208515" lon="24.234325">
        <ele>204.69</ele>
      </trkpt>
      <trkpt lat="35.208525" lon="24.234369">
        <ele>207</ele>
      </trkpt>
      <trkpt lat="35.208513" lon="24.234398">
        <ele>207.1</ele>
      </trkpt>
      <trkpt lat="35.208405" lon="24.23456">
        <ele>204.15</ele>
      </trkpt>
      <trkpt lat="35.208067" lon="24.235113">
        <ele>205.94</ele>
      </trkpt>
      <trkpt lat="35.208028" lon="24.235192">
        <ele>205.98</ele>
      </trkpt>
      <trkpt lat="35.208008" lon="24.235287">
        <ele>207.17</ele>
      </trkpt>
      <trkpt lat="35.208004" lon="24.23547">
        <ele>210.03</ele>
      </trkpt>
      <trkpt lat="35.208038" lon="24.235819">
        <ele>218.74</ele>
      </trkpt>
      <trkpt lat="35.208032" lon="24.235858">
        <ele>219.36</ele>
      </trkpt>
      <trkpt lat="35.208014" lon="24.235905">
        <ele>219.4</ele>
      </trkpt>
      <trkpt lat="35.207833" lon="24.236241">
        <ele>222.66</ele>
      </trkpt>
      <trkpt lat="35.207762" lon="24.236337">
        <ele>224.57</ele>
      </trkpt>
      <trkpt lat="35.20768" lon="24.23641">
        <ele>224.36</ele>
      </trkpt>
      <trkpt lat="35.207572" lon="24.236461">
        <ele>222.21</ele>
      </trkpt>
      <trkpt lat="35.207487" lon="24.236512">
        <ele>221.3</ele>
      </trkpt>
      <trkpt lat="35.207424" lon="24.23659">
        <ele>221.75</ele>
      </trkpt>
      <trkpt lat="35.207402" lon="24.236647">
        <ele>222.67</ele>
      </trkpt>
      <trkpt lat="35.207396" lon="24.236714">
        <ele>224.43</ele>
      </trkpt>
      <trkpt lat="35.207408" lon="24.236756">
        <ele>226.08</ele>
      </trkpt>
      <trkpt lat="35.207426" lon="24.236771">
        <ele>227.27</ele>
      </trkpt>
      <trkpt lat="35.207466" lon="24.236766">
        <ele>228.7</ele>
      </trkpt>
      <trkpt lat="35.207593" lon="24.236645">
        <ele>230.02</ele>
      </trkpt>
      <trkpt lat="35.207613" lon="24.236642">
        <ele>230.88</ele>
      </trkpt>
      <trkpt lat="35.20764" lon="24.236656">
        <ele>232.76</ele>
      </trkpt>
      <trkpt lat="35.207647" lon="24.236691">
        <ele>234.5</ele>
      </trkpt>
      <trkpt lat="35.207638" lon="24.236726">
        <ele>235.41</ele>
      </trkpt>
      <trkpt lat="35.207436" lon="24.237124">
        <ele>235.75</ele>
      </trkpt>
      <trkpt lat="35.20742" lon="24.237194">
        <ele>236.08</ele>
      </trkpt>
      <trkpt lat="35.20742" lon="24.237278">
        <ele>236.97</ele>
      </trkpt>
      <trkpt lat="35.207438" lon="24.237358">
        <ele>238.38</ele>
      </trkpt>
      <trkpt lat="35.207483" lon="24.237445">
        <ele>239.49</ele>
      </trkpt>
      <trkpt lat="35.207519" lon="24.237493">
        <ele>240.37</ele>
      </trkpt>
      <trkpt lat="35.207555" lon="24.237524">
        <ele>241.19</ele>
      </trkpt>
      <trkpt lat="35.20761" lon="24.237544">
        <ele>242.41</ele>
      </trkpt>
      <trkpt lat="35.207953" lon="24.237543">
        <ele>254.37</ele>
      </trkpt>
      <trkpt lat="35.208036" lon="24.237565">
        <ele>255.81</ele>
      </trkpt>
      <trkpt lat="35.208143" lon="24.237618">
        <ele>256.88</ele>
      </trkpt>
      <trkpt lat="35.208352" lon="24.237759">
        <ele>258.81</ele>
      </trkpt>
      <trkpt lat="35.208464" lon="24.237819">
        <ele>260.56</ele>
      </trkpt>
      <trkpt lat="35.208534" lon="24.237841">
        <ele>262.17</ele>
      </trkpt>
      <trkpt lat="35.208807" lon="24.23786">
        <ele>272.01</ele>
      </trkpt>
      <trkpt lat="35.208901" lon="24.237886">
        <ele>275.58</ele>
      </trkpt>
      <trkpt lat="35.208974" lon="24.237947">
        <ele>277.05</ele>
      </trkpt>
      <trkpt lat="35.209032" lon="24.238047">
        <ele>277.11</ele>
      </trkpt>
      <trkpt lat="35.209062" lon="24.238153">
        <ele>277.15</ele>
      </trkpt>
      <trkpt lat="35.209084" lon="24.23838">
        <ele>275.64</ele>
      </trkpt>
      <trkpt lat="35.209099" lon="24.238442">
        <ele>276.24</ele>
      </trkpt>
      <trkpt lat="35.209131" lon="24.238525">
        <ele>277.56</ele>
      </trkpt>
      <trkpt lat="35.209219" lon="24.238697">
        <ele>282.37</ele>
      </trkpt>
      <trkpt lat="35.209253" lon="24.238785">
        <ele>284.17</ele>
      </trkpt>
      <trkpt lat="35.20928" lon="24.238888">
        <ele>285.51</ele>
      </trkpt>
      <trkpt lat="35.209311" lon="24.239073">
        <ele>290.11</ele>
      </trkpt>
      <trkpt lat="35.209333" lon="24.239138">
        <ele>292.47</ele>
      </trkpt>
      <trkpt lat="35.209348" lon="24.239162">
        <ele>293.56</ele>
      </trkpt>
      <trkpt lat="35.209389" lon="24.239164">
        <ele>295.04</ele>
      </trkpt>
      <trkpt lat="35.209408" lon="24.239152">
        <ele>295.48</ele>
      </trkpt>
      <trkpt lat="35.209431" lon="24.239107">
        <ele>295.47</ele>
      </trkpt>
      <trkpt lat="35.209451" lon="24.238989">
        <ele>294.81</ele>
      </trkpt>
      <trkpt lat="35.209457" lon="24.238792">
        <ele>294.65</ele>
      </trkpt>
      <trkpt lat="35.20943" lon="24.23844">
        <ele>296.67</ele>
      </trkpt>
      <trkpt lat="35.209391" lon="24.238054">
        <ele>300.81</ele>
      </trkpt>
      <trkpt lat="35.209357" lon="24.237897">
        <ele>303.08</ele>
      </trkpt>
      <trkpt lat="35.209331" lon="24.237814">
        <ele>304.16</ele>
      </trkpt>
      <trkpt lat="35.209288" lon="24.237729">
        <ele>304.77</ele>
      </trkpt>
      <trkpt lat="35.209127" lon="24.237515">
        <ele>305.98</ele>
      </trkpt>
      <trkpt lat="35.209113" lon="24.237485">
        <ele>306.68</ele>
      </trkpt>
      <trkpt lat="35.209104" lon="24.237452">
        <ele>307.76</ele>
      </trkpt>
      <trkpt lat="35.209106" lon="24.237426">
        <ele>309.03</ele>
      </trkpt>
      <trkpt lat="35.209117" lon="24.237405">
        <ele>310.58</ele>
      </trkpt>
      <trkpt lat="35.209143" lon="24.237392">
        <ele>312.48</ele>
      </trkpt>
      <trkpt lat="35.20917" lon="24.2374">
        <ele>313.44</ele>
      </trkpt>
      <trkpt lat="35.209207" lon="24.237428">
        <ele>313.99</ele>
      </trkpt>
      <trkpt lat="35.209394" lon="24.237685">
        <ele>312.66</ele>
      </trkpt>
      <trkpt lat="35.209663" lon="24.238049">
        <ele>317.27</ele>
      </trkpt>
      <trkpt lat="35.209773" lon="24.238253">
        <ele>319.96</ele>
      </trkpt>
      <trkpt lat="35.209849" lon="24.238446">
        <ele>321.2</ele>
      </trkpt>
      <trkpt lat="35.209874" lon="24.238544">
        <ele>321.33</ele>
      </trkpt>
      <trkpt lat="35.209936" lon="24.238873">
        <ele>323.24</ele>
      </trkpt>
      <trkpt lat="35.209959" lon="24.238902">
        <ele>324.94</ele>
      </trkpt>
      <trkpt lat="35.209974" lon="24.238903">
        <ele>325.99</ele>
      </trkpt>
      <trkpt lat="35.209993" lon="24.23889">
        <ele>327.29</ele>
      </trkpt>
      <trkpt lat="35.210005" lon="24.238864">
        <ele>328.1</ele>
      </trkpt>
      <trkpt lat="35.210008" lon="24.238828">
        <ele>328.15</ele>
      </trkpt>
      <trkpt lat="35.209978" lon="24.238515">
        <ele>327.99</ele>
      </trkpt>
      <trkpt lat="35.209964" lon="24.238027">
        <ele>335.17</ele>
      </trkpt>
      <trkpt lat="35.209942" lon="24.237945">
        <ele>336.15</ele>
      </trkpt>
      <trkpt lat="35.20985" lon="24.237727">
        <ele>337.19</ele>
      </trkpt>
      <trkpt lat="35.209665" lon="24.237345">
        <ele>338.67</ele>
      </trkpt>
      <trkpt lat="35.209521" lon="24.236905">
        <ele>341.87</ele>
      </trkpt>
      <trkpt lat="35.209514" lon="24.23683">
        <ele>342.09</ele>
      </trkpt>
      <trkpt lat="35.209523" lon="24.236744">
        <ele>342.89</ele>
      </trkpt>
      <trkpt lat="35.209548" lon="24.236652">
        <ele>344.06</ele>
      </trkpt>
      <trkpt lat="35.20959" lon="24.236599">
        <ele>345.24</ele>
      </trkpt>
      <trkpt lat="35.209631" lon="24.236581">
        <ele>346.41</ele>
      </trkpt>
      <trkpt lat="35.209673" lon="24.236584">
        <ele>347.61</ele>
      </trkpt>
      <trkpt lat="35.209717" lon="24.236606">
        <ele>348.88</ele>
      </trkpt>
      <trkpt lat="35.209752" lon="24.236671">
        <ele>349.87</ele>
      </trkpt>
      <trkpt lat="35.209771" lon="24.236729">
        <ele>350.41</ele>
      </trkpt>
      <trkpt lat="35.209817" lon="24.236995">
        <ele>352.07</ele>
      </trkpt>
      <trkpt lat="35.209836" lon="24.23705">
        <ele>352.3</ele>
      </trkpt>
      <trkpt lat="35.210007" lon="24.237351">
        <ele>357.05</ele>
      </trkpt>
      <trkpt lat="35.210243" lon="24.237723">
        <ele>362.73</ele>
      </trkpt>
      <trkpt lat="35.210405" lon="24.237978">
        <ele>364.22</ele>
      </trkpt>
      <trkpt lat="35.210544" lon="24.238242">
        <ele>367.56</ele>
      </trkpt>
      <trkpt lat="35.210603" lon="24.238407">
        <ele>369.52</ele>
      </trkpt>
      <trkpt lat="35.210618" lon="24.238513">
        <ele>369.99</ele>
      </trkpt>
      <trkpt lat="35.210623" lon="24.238647">
        <ele>370.17</ele>
      </trkpt>
      <trkpt lat="35.210552" lon="24.239265">
        <ele>371.43</ele>
      </trkpt>
      <trkpt lat="35.210552" lon="24.239328">
        <ele>372.13</ele>
      </trkpt>
      <trkpt lat="35.210561" lon="24.239372">
        <ele>373.3</ele>
      </trkpt>
      <trkpt lat="35.210571" lon="24.239388">
        <ele>374.22</ele>
      </trkpt>
      <trkpt lat="35.210591" lon="24.239394">
        <ele>375.66</ele>
      </trkpt>
      <trkpt lat="35.210617" lon="24.239386">
        <ele>377.47</ele>
      </trkpt>
      <trkpt lat="35.21064" lon="24.239356">
        <ele>378.67</ele>
      </trkpt>
      <trkpt lat="35.210796" lon="24.238609">
        <ele>382.91</ele>
      </trkpt>
      <trkpt lat="35.210815" lon="24.238467">
        <ele>384.44</ele>
      </trkpt>
      <trkpt lat="35.210815" lon="24.238329">
        <ele>385.37</ele>
      </trkpt>
      <trkpt lat="35.210762" lon="24.238025">
        <ele>387.29</ele>
      </trkpt>
      <trkpt lat="35.210742" lon="24.23792">
        <ele>389.56</ele>
      </trkpt>
      <trkpt lat="35.210752" lon="24.237871">
        <ele>391.98</ele>
      </trkpt>
      <trkpt lat="35.210773" lon="24.237862">
        <ele>393.75</ele>
      </trkpt>
      <trkpt lat="35.210798" lon="24.23787">
        <ele>395.42</ele>
      </trkpt>
      <trkpt lat="35.210821" lon="24.237892">
        <ele>396.47</ele>
      </trkpt>
      <trkpt lat="35.210838" lon="24.237939">
        <ele>396.18</ele>
      </trkpt>
      <trkpt lat="35.210924" lon="24.238275">
        <ele>393.79</ele>
      </trkpt>
      <trkpt lat="35.210942" lon="24.23838">
        <ele>394.23</ele>
      </trkpt>
      <trkpt lat="35.21095" lon="24.238493">
        <ele>394.89</ele>
      </trkpt>
      <trkpt lat="35.210952" lon="24.239016">
        <ele>398.52</ele>
      </trkpt>
      <trkpt lat="35.210959" lon="24.239147">
        <ele>399.19</ele>
      </trkpt>
      <trkpt lat="35.210975" lon="24.239323">
        <ele>400.49</ele>
      </trkpt>
      <trkpt lat="35.211045" lon="24.23972">
        <ele>405.4</ele>
      </trkpt>
      <trkpt lat="35.211042" lon="24.240058">
        <ele>407.02</ele>
      </trkpt>
      <trkpt lat="35.211051" lon="24.240118">
        <ele>407.58</ele>
      </trkpt>
      <trkpt lat="35.211068" lon="24.240134">
        <ele>408.35</ele>
      </trkpt>
      <trkpt lat="35.211089" lon="24.240137">
        <ele>409.44</ele>
      </trkpt>
      <trkpt lat="35.211118" lon="24.240123">
        <ele>410.98</ele>
      </trkpt>
      <trkpt lat="35.21113" lon="24.240105">
        <ele>411.65</ele>
      </trkpt>
      <trkpt lat="35.211151" lon="24.239901">
        <ele>411.65</ele>
      </trkpt>
      <trkpt lat="35.211163" lon="24.239857">
        <ele>412.2</ele>
      </trkpt>
      <trkpt lat="35.21118" lon="24.239837">
        <ele>413.09</ele>
      </trkpt>
      <trkpt lat="35.211208" lon="24.23984">
        <ele>414.58</ele>
      </trkpt>
      <trkpt lat="35.211232" lon="24.239864">
        <ele>415.8</ele>
      </trkpt>
      <trkpt lat="35.211244" lon="24.239897">
        <ele>416.36</ele>
      </trkpt>
      <trkpt lat="35.211241" lon="24.240241">
        <ele>416.89</ele>
      </trkpt>
      <trkpt lat="35.211256" lon="24.240284">
        <ele>417.3</ele>
      </trkpt>
      <trkpt lat="35.211277" lon="24.240302">
        <ele>418.03</ele>
      </trkpt>
      <trkpt lat="35.211305" lon="24.240304">
        <ele>419.31</ele>
      </trkpt>
      <trkpt lat="35.211325" lon="24.240288">
        <ele>420.34</ele>
      </trkpt>
      <trkpt lat="35.211339" lon="24.240254">
        <ele>421.06</ele>
      </trkpt>
      <trkpt lat="35.21135" lon="24.240188">
        <ele>421.56</ele>
      </trkpt>
      <trkpt lat="35.211357" lon="24.239794">
        <ele>422.72</ele>
      </trkpt>
      <trkpt lat="35.211372" lon="24.239694">
        <ele>423.79</ele>
      </trkpt>
      <trkpt lat="35.211381" lon="24.239681">
        <ele>424.29</ele>
      </trkpt>
      <trkpt lat="35.211403" lon="24.239673">
        <ele>425.44</ele>
      </trkpt>
      <trkpt lat="35.211426" lon="24.239681">
        <ele>426.66</ele>
      </trkpt>
      <trkpt lat="35.211447" lon="24.239709">
        <ele>427.66</ele>
      </trkpt>
      <trkpt lat="35.211469" lon="24.239768">
        <ele>428.47</ele>
      </trkpt>
      <trkpt lat="35.211569" lon="24.240211">
        <ele>431.65</ele>
      </trkpt>
      <trkpt lat="35.211585" lon="24.240247">
        <ele>432.34</ele>
      </trkpt>
      <trkpt lat="35.211604" lon="24.240268">
        <ele>433.27</ele>
      </trkpt>
      <trkpt lat="35.211624" lon="24.240275">
        <ele>434.17</ele>
      </trkpt>
      <trkpt lat="35.211648" lon="24.240266">
        <ele>435.25</ele>
      </trkpt>
      <trkpt lat="35.211668" lon="24.240225">
        <ele>436.18</ele>
      </trkpt>
      <trkpt lat="35.211678" lon="24.240127">
        <ele>436.85</ele>
      </trkpt>
      <trkpt lat="35.211656" lon="24.23956">
        <ele>440.72</ele>
      </trkpt>
      <trkpt lat="35.211657" lon="24.23946">
        <ele>442.54</ele>
      </trkpt>
      <trkpt lat="35.211673" lon="24.239383">
        <ele>444.8</ele>
      </trkpt>
      <trkpt lat="35.211689" lon="24.23937">
        <ele>446.02</ele>
      </trkpt>
      <trkpt lat="35.21173" lon="24.239377">
        <ele>448.65</ele>
      </trkpt>
      <trkpt lat="35.211749" lon="24.239399">
        <ele>449.49</ele>
      </trkpt>
      <trkpt lat="35.211766" lon="24.239437">
        <ele>449.95</ele>
      </trkpt>
      <trkpt lat="35.21182" lon="24.239635">
        <ele>449.8</ele>
      </trkpt>
      <trkpt lat="35.211946" lon="24.239942">
        <ele>453.02</ele>
      </trkpt>
      <trkpt lat="35.212138" lon="24.240409">
        <ele>457.91</ele>
      </trkpt>
      <trkpt lat="35.21232" lon="24.240648">
        <ele>461.91</ele>
      </trkpt>
      <trkpt lat="35.212392" lon="24.240701">
        <ele>463.44</ele>
      </trkpt>
      <trkpt lat="35.212582" lon="24.240801">
        <ele>467.61</ele>
      </trkpt>
      <trkpt lat="35.21294" lon="24.240995">
        <ele>472.54</ele>
      </trkpt>
      <trkpt lat="35.213572" lon="24.241319">
        <ele>481.07</ele>
      </trkpt>
      <trkpt lat="35.213609" lon="24.241347">
        <ele>481.34</ele>
      </trkpt>
      <trkpt lat="35.213782" lon="24.241526">
        <ele>483.04</ele>
      </trkpt>
      <trkpt lat="35.213853" lon="24.24165">
        <ele>483.47</ele>
      </trkpt>
      <trkpt lat="35.213931" lon="24.241821">
        <ele>485.74</ele>
      </trkpt>
      <trkpt lat="35.213943" lon="24.24184">
        <ele>486.35</ele>
      </trkpt>
      <trkpt lat="35.213983" lon="24.241859">
        <ele>488.05</ele>
      </trkpt>
      <trkpt lat="35.214005" lon="24.241855">
        <ele>488.89</ele>
      </trkpt>
      <trkpt lat="35.214022" lon="24.241835">
        <ele>489.62</ele>
      </trkpt>
      <trkpt lat="35.214038" lon="24.241796">
        <ele>490.43</ele>
      </trkpt>
      <trkpt lat="35.214042" lon="24.241752">
        <ele>490.91</ele>
      </trkpt>
      <trkpt lat="35.213959" lon="24.241493">
        <ele>490.57</ele>
      </trkpt>
      <trkpt lat="35.213837" lon="24.241132">
        <ele>494.84</ele>
      </trkpt>
      <trkpt lat="35.21378" lon="24.241035">
        <ele>496.17</ele>
      </trkpt>
      <trkpt lat="35.213656" lon="24.240879">
        <ele>497.71</ele>
      </trkpt>
      <trkpt lat="35.213072" lon="24.24031">
        <ele>501.18</ele>
      </trkpt>
      <trkpt lat="35.213046" lon="24.240254">
        <ele>502.42</ele>
      </trkpt>
      <trkpt lat="35.213046" lon="24.240223">
        <ele>503.73</ele>
      </trkpt>
      <trkpt lat="35.213056" lon="24.240196">
        <ele>505.3</ele>
      </trkpt>
      <trkpt lat="35.213078" lon="24.24018">
        <ele>506.91</ele>
      </trkpt>
      <trkpt lat="35.213147" lon="24.240198">
        <ele>508.95</ele>
      </trkpt>
      <trkpt lat="35.21324" lon="24.24026">
        <ele>509.17</ele>
      </trkpt>
      <trkpt lat="35.213443" lon="24.240416">
        <ele>508.94</ele>
      </trkpt>
      <trkpt lat="35.213728" lon="24.240585">
        <ele>510.18</ele>
      </trkpt>
      <trkpt lat="35.214103" lon="24.240824">
        <ele>515.17</ele>
      </trkpt>
      <trkpt lat="35.214126" lon="24.240829">
        <ele>515.88</ele>
      </trkpt>
      <trkpt lat="35.214153" lon="24.240809">
        <ele>517.54</ele>
      </trkpt>
      <trkpt lat="35.214165" lon="24.240779">
        <ele>519.04</ele>
      </trkpt>
      <trkpt lat="35.214162" lon="24.240739">
        <ele>520.26</ele>
      </trkpt>
      <trkpt lat="35.214143" lon="24.240698">
        <ele>520.84</ele>
      </trkpt>
      <trkpt lat="35.214078" lon="24.240624">
        <ele>521.13</ele>
      </trkpt>
      <trkpt lat="35.213694" lon="24.240313">
        <ele>521.01</ele>
      </trkpt>
      <trkpt lat="35.21339" lon="24.240072">
        <ele>525.97</ele>
      </trkpt>
      <trkpt lat="35.213374" lon="24.240017">
        <ele>529.69</ele>
      </trkpt>
      <trkpt lat="35.213379" lon="24.239986">
        <ele>532.36</ele>
      </trkpt>
      <trkpt lat="35.213399" lon="24.23997">
        <ele>534.38</ele>
      </trkpt>
      <trkpt lat="35.213434" lon="24.239966">
        <ele>536.13</ele>
      </trkpt>
      <trkpt lat="35.213479" lon="24.239983">
        <ele>536.25</ele>
      </trkpt>
      <trkpt lat="35.213638" lon="24.240076">
        <ele>533.08</ele>
      </trkpt>
      <trkpt lat="35.213807" lon="24.240154">
        <ele>532.93</ele>
      </trkpt>
      <trkpt lat="35.21418" lon="24.240331">
        <ele>536.59</ele>
      </trkpt>
      <trkpt lat="35.214396" lon="24.2405">
        <ele>538.77</ele>
      </trkpt>
      <trkpt lat="35.214517" lon="24.240634">
        <ele>540.8</ele>
      </trkpt>
      <trkpt lat="35.214587" lon="24.24074">
        <ele>541.96</ele>
      </trkpt>
      <trkpt lat="35.214687" lon="24.241013">
        <ele>542.83</ele>
      </trkpt>
      <trkpt lat="35.214758" lon="24.24131">
        <ele>543.57</ele>
      </trkpt>
      <trkpt lat="35.214798" lon="24.241434">
        <ele>544.84</ele>
      </trkpt>
      <trkpt lat="35.214806" lon="24.24145">
        <ele>545.19</ele>
      </trkpt>
      <trkpt lat="35.214835" lon="24.24146">
        <ele>547.07</ele>
      </trkpt>
      <trkpt lat="35.214857" lon="24.24145">
        <ele>548.84</ele>
      </trkpt>
      <trkpt lat="35.214868" lon="24.241429">
        <ele>549.97</ele>
      </trkpt>
      <trkpt lat="35.214875" lon="24.241377">
        <ele>551.37</ele>
      </trkpt>
      <trkpt lat="35.214868" lon="24.24088">
        <ele>556.69</ele>
      </trkpt>
      <trkpt lat="35.214833" lon="24.240585">
        <ele>558.66</ele>
      </trkpt>
      <trkpt lat="35.214733" lon="24.240312">
        <ele>561.51</ele>
      </trkpt>
      <trkpt lat="35.214666" lon="24.240182">
        <ele>563.29</ele>
      </trkpt>
      <trkpt lat="35.214582" lon="24.240081">
        <ele>563.44</ele>
      </trkpt>
      <trkpt lat="35.214404" lon="24.239887">
        <ele>566.05</ele>
      </trkpt>
      <trkpt lat="35.214308" lon="24.239806">
        <ele>566.94</ele>
      </trkpt>
      <trkpt lat="35.214158" lon="24.239719">
        <ele>568.36</ele>
      </trkpt>
      <trkpt lat="35.214075" lon="24.239664">
        <ele>570.88</ele>
      </trkpt>
      <trkpt lat="35.214055" lon="24.23964">
        <ele>572.35</ele>
      </trkpt>
      <trkpt lat="35.214046" lon="24.239607">
        <ele>574.48</ele>
      </trkpt>
      <trkpt lat="35.214049" lon="24.239574">
        <ele>576.76</ele>
      </trkpt>
      <trkpt lat="35.214063" lon="24.239556">
        <ele>578.15</ele>
      </trkpt>
      <trkpt lat="35.214084" lon="24.239551">
        <ele>578.74</ele>
      </trkpt>
      <trkpt lat="35.214109" lon="24.239556">
        <ele>578.56</ele>
      </trkpt>
      <trkpt lat="35.214293" lon="24.239663">
        <ele>574.86</ele>
      </trkpt>
      <trkpt lat="35.214514" lon="24.239812">
        <ele>574.13</ele>
      </trkpt>
      <trkpt lat="35.214913" lon="24.24006">
        <ele>579.7</ele>
      </trkpt>
      <trkpt lat="35.215086" lon="24.240173">
        <ele>584.07</ele>
      </trkpt>
      <trkpt lat="35.215172" lon="24.240249">
        <ele>585.88</ele>
      </trkpt>
      <trkpt lat="35.215207" lon="24.240304">
        <ele>586.55</ele>
      </trkpt>
      <trkpt lat="35.215225" lon="24.240365">
        <ele>586.43</ele>
      </trkpt>
      <trkpt lat="35.215245" lon="24.240524">
        <ele>585.67</ele>
      </trkpt>
      <trkpt lat="35.215343" lon="24.240999">
        <ele>591.13</ele>
      </trkpt>
      <trkpt lat="35.215408" lon="24.24125">
        <ele>593.27</ele>
      </trkpt>
      <trkpt lat="35.215434" lon="24.241293">
        <ele>594.42</ele>
      </trkpt>
      <trkpt lat="35.215453" lon="24.241307">
        <ele>595.44</ele>
      </trkpt>
      <trkpt lat="35.21548" lon="24.241311">
        <ele>597.04</ele>
      </trkpt>
      <trkpt lat="35.215508" lon="24.241299">
        <ele>599.09</ele>
      </trkpt>
      <trkpt lat="35.215521" lon="24.241272">
        <ele>600.37</ele>
      </trkpt>
      <trkpt lat="35.215529" lon="24.241219">
        <ele>601.77</ele>
      </trkpt>
      <trkpt lat="35.21548" lon="24.240842">
        <ele>602.89</ele>
      </trkpt>
      <trkpt lat="35.215484" lon="24.240703">
        <ele>603.32</ele>
      </trkpt>
      <trkpt lat="35.215587" lon="24.240275">
        <ele>609.16</ele>
      </trkpt>
      <trkpt lat="35.215606" lon="24.240106">
        <ele>611.88</ele>
      </trkpt>
      <trkpt lat="35.215592" lon="24.240007">
        <ele>613.55</ele>
      </trkpt>
      <trkpt lat="35.215559" lon="24.239914">
        <ele>614.59</ele>
      </trkpt>
      <trkpt lat="35.215465" lon="24.23978">
        <ele>615.28</ele>
      </trkpt>
      <trkpt lat="35.215315" lon="24.239604">
        <ele>616.57</ele>
      </trkpt>
      <trkpt lat="35.215154" lon="24.239447">
        <ele>619.41</ele>
      </trkpt>
      <trkpt lat="35.21515" lon="24.239385">
        <ele>622.85</ele>
      </trkpt>
      <trkpt lat="35.215159" lon="24.239363">
        <ele>624.38</ele>
      </trkpt>
      <trkpt lat="35.215176" lon="24.239348">
        <ele>625.69</ele>
      </trkpt>
      <trkpt lat="35.215197" lon="24.239348">
        <ele>626.21</ele>
      </trkpt>
      <trkpt lat="35.21536" lon="24.239446">
        <ele>625.71</ele>
      </trkpt>
      <trkpt lat="35.215536" lon="24.239566">
        <ele>626.07</ele>
      </trkpt>
      <trkpt lat="35.215757" lon="24.239744">
        <ele>628.47</ele>
      </trkpt>
      <trkpt lat="35.215896" lon="24.239875">
        <ele>631.06</ele>
      </trkpt>
      <trkpt lat="35.215991" lon="24.240036">
        <ele>632.52</ele>
      </trkpt>
      <trkpt lat="35.216006" lon="24.240106">
        <ele>632.58</ele>
      </trkpt>
      <trkpt lat="35.216" lon="24.240178">
        <ele>632.8</ele>
      </trkpt>
      <trkpt lat="35.215965" lon="24.240345">
        <ele>633.13</ele>
      </trkpt>
      <trkpt lat="35.215918" lon="24.240482">
        <ele>632.8</ele>
      </trkpt>
      <trkpt lat="35.215916" lon="24.240531">
        <ele>633.66</ele>
      </trkpt>
      <trkpt lat="35.215922" lon="24.24056">
        <ele>634.75</ele>
      </trkpt>
      <trkpt lat="35.215943" lon="24.240582">
        <ele>636.84</ele>
      </trkpt>
      <trkpt lat="35.215972" lon="24.24058">
        <ele>639.02</ele>
      </trkpt>
      <trkpt lat="35.215993" lon="24.240561">
        <ele>640.04</ele>
      </trkpt>
      <trkpt lat="35.216021" lon="24.240518">
        <ele>640.87</ele>
      </trkpt>
      <trkpt lat="35.216126" lon="24.240306">
        <ele>641.75</ele>
      </trkpt>
      <trkpt lat="35.216242" lon="24.240076">
        <ele>645.34</ele>
      </trkpt>
      <trkpt lat="35.216274" lon="24.240005">
        <ele>647.48</ele>
      </trkpt>
      <trkpt lat="35.216286" lon="24.239952">
        <ele>648.36</ele>
      </trkpt>
      <trkpt lat="35.216282" lon="24.239871">
        <ele>649.57</ele>
      </trkpt>
      <trkpt lat="35.216248" lon="24.239787">
        <ele>649.79</ele>
      </trkpt>
      <trkpt lat="35.216072" lon="24.239509">
        <ele>652.18</ele>
      </trkpt>
      <trkpt lat="35.215797" lon="24.239166">
        <ele>655.28</ele>
      </trkpt>
      <trkpt lat="35.215627" lon="24.239008">
        <ele>656.59</ele>
      </trkpt>
      <trkpt lat="35.215443" lon="24.23889">
        <ele>657</ele>
      </trkpt>
      <trkpt lat="35.215397" lon="24.238829">
        <ele>658.73</ele>
      </trkpt>
      <trkpt lat="35.215393" lon="24.238803">
        <ele>659.89</ele>
      </trkpt>
      <trkpt lat="35.215399" lon="24.238776">
        <ele>661.22</ele>
      </trkpt>
      <trkpt lat="35.215413" lon="24.238757">
        <ele>662.31</ele>
      </trkpt>
      <trkpt lat="35.215431" lon="24.238753">
        <ele>663.04</ele>
      </trkpt>
      <trkpt lat="35.215475" lon="24.238766">
        <ele>663.68</ele>
      </trkpt>
      <trkpt lat="35.215584" lon="24.238824">
        <ele>664.11</ele>
      </trkpt>
      <trkpt lat="35.216151" lon="24.239233">
        <ele>667.94</ele>
      </trkpt>
      <trkpt lat="35.216566" lon="24.239574">
        <ele>672.06</ele>
      </trkpt>
      <trkpt lat="35.216785" lon="24.239671">
        <ele>675.94</ele>
      </trkpt>
      <trkpt lat="35.216991" lon="24.239745">
        <ele>679.81</ele>
      </trkpt>
      <trkpt lat="35.217166" lon="24.2398">
        <ele>683.42</ele>
      </trkpt>
      <trkpt lat="35.217246" lon="24.239817">
        <ele>685.11</ele>
      </trkpt>
      <trkpt lat="35.217287" lon="24.239818">
        <ele>685.81</ele>
      </trkpt>
      <trkpt lat="35.217441" lon="24.239761">
        <ele>688.36</ele>
      </trkpt>
      <trkpt lat="35.217547" lon="24.239698">
        <ele>690.28</ele>
      </trkpt>
      <trkpt lat="35.218009" lon="24.239426">
        <ele>696.05</ele>
      </trkpt>
      <trkpt lat="35.218183" lon="24.239367">
        <ele>695.83</ele>
      </trkpt>
      <trkpt lat="35.218448" lon="24.239319">
        <ele>694.16</ele>
      </trkpt>
      <trkpt lat="35.218816" lon="24.23923">
        <ele>691.96</ele>
      </trkpt>
      <trkpt lat="35.219067" lon="24.239133">
        <ele>692.01</ele>
      </trkpt>
      <trkpt lat="35.21957" lon="24.238938">
        <ele>695.32</ele>
      </trkpt>
      <trkpt lat="35.220284" lon="24.23864">
        <ele>702.16</ele>
      </trkpt>
      <trkpt lat="35.220536" lon="24.238538">
        <ele>698.96</ele>
      </trkpt>
      <trkpt lat="35.220536" lon="24.238538">
        <ele>698.96</ele>
      </trkpt>
      <trkpt lat="35.220587" lon="24.238533">
        <ele>698.1</ele>
      </trkpt>
      <trkpt lat="35.220676" lon="24.238562">
        <ele>696.36</ele>
      </trkpt>
      <trkpt lat="35.220741" lon="24.238603">
        <ele>695.24</ele>
      </trkpt>
      <trkpt lat="35.220847" lon="24.238703">
        <ele>693.86</ele>
      </trkpt>
      <trkpt lat="35.22109" lon="24.238899">
        <ele>692.21</ele>
      </trkpt>
      <trkpt lat="35.221338" lon="24.239034">
        <ele>690.13</ele>
      </trkpt>
      <trkpt lat="35.221634" lon="24.239161">
        <ele>688.24</ele>
      </trkpt>
      <trkpt lat="35.22193" lon="24.239287">
        <ele>688.44</ele>
      </trkpt>
      <trkpt lat="35.222391" lon="24.239436">
        <ele>691.85</ele>
      </trkpt>
      <trkpt lat="35.222783" lon="24.239579">
        <ele>695.41</ele>
      </trkpt>
      <trkpt lat="35.222853" lon="24.239591">
        <ele>696.19</ele>
      </trkpt>
      <trkpt lat="35.222946" lon="24.239574">
        <ele>696.47</ele>
      </trkpt>
      <trkpt lat="35.223042" lon="24.239519">
        <ele>696.81</ele>
      </trkpt>
      <trkpt lat="35.223236" lon="24.239292">
        <ele>698.35</ele>
      </trkpt>
      <trkpt lat="35.224012" lon="24.238384">
        <ele>712.33</ele>
      </trkpt>
      <trkpt lat="35.224139" lon="24.238181">
        <ele>714.68</ele>
      </trkpt>
      <trkpt lat="35.224221" lon="24.237999">
        <ele>717.56</ele>
      </trkpt>
      <trkpt lat="35.224526" lon="24.237066">
        <ele>724.37</ele>
      </trkpt>
      <trkpt lat="35.22463" lon="24.236647">
        <ele>729.19</ele>
      </trkpt>
      <trkpt lat="35.224742" lon="24.236399">
        <ele>733.07</ele>
      </trkpt>
      <trkpt lat="35.224863" lon="24.236248">
        <ele>735.39</ele>
      </trkpt>
      <trkpt lat="35.225309" lon="24.235847">
        <ele>738.72</ele>
      </trkpt>
      <trkpt lat="35.225407" lon="24.235784">
        <ele>739.23</ele>
      </trkpt>
      <trkpt lat="35.225479" lon="24.235754">
        <ele>739.96</ele>
      </trkpt>
      <trkpt lat="35.225525" lon="24.235746">
        <ele>740.34</ele>
      </trkpt>
    </trkseg>
  </trk>
</gpx>
