<?xml version="1.0" encoding="UTF-8"?><gpx creator="https://climbfinder.com" version="1.1"  xmlns:xsi="http://www.w3.org/2001/XMLSchema-instance"  xmlns="http://www.topografix.com/GPX/1/1" xsi:schemaLocation="http://www.topografix.com/GPX/1/1 http://www.topografix.com/GPX/1/1/gpx.xsd">
  <metadata>
    <name>la-comella-desde-andorra-la-vella</name>
    <author>
      <link href="https://climbfinder.com">
        <text>climbfinder</text>
        <type>text/html</type>
      </link>
    </author>
  </metadata>
  <trk>
    <name>la-comella-desde-andorra-la-vella</name>
    <trkseg>
			<trkpt lat="42.50345" lon="1.51941">
        <ele>1018.9</ele>
        <time>2026-08-04T09:00:00Z</time>
      </trkpt>
			<trkpt lat="42.5034" lon="1.51944">
        <ele>1019.1</ele>
        <time>2026-08-04T09:00:01Z</time>
      </trkpt>
			<trkpt lat="42.50324" lon="1.51962">
        <ele>1020.2</ele>
        <time>2026-08-04T09:00:07Z</time>
      </trkpt>
			<trkpt lat="42.50309" lon="1.51986">
        <ele>1021.4</ele>
        <time>2026-08-04T09:00:13Z</time>
      </trkpt>
			<trkpt lat="42.50293" lon="1.5201">
        <ele>1022.8</ele>
        <time>2026-08-04T09:00:20Z</time>
      </trkpt>
			<trkpt lat="42.50287" lon="1.52018">
        <ele>1023.3</ele>
        <time>2026-08-04T09:00:23Z</time>
      </trkpt>
			<trkpt lat="42.50282" lon="1.52022">
        <ele>1023.6</ele>
        <time>2026-08-04T09:00:24Z</time>
      </trkpt>
			<trkpt lat="42.50277" lon="1.52025">
        <ele>1024</ele>
        <time>2026-08-04T09:00:26Z</time>
      </trkpt>
			<trkpt lat="42.50273" lon="1.52025">
        <ele>1024.3</ele>
        <time>2026-08-04T09:00:27Z</time>
      </trkpt>
			<trkpt lat="42.50262" lon="1.52022">
        <ele>1024.9</ele>
        <time>2026-08-04T09:00:31Z</time>
      </trkpt>
			<trkpt lat="42.50244" lon="1.52008">
        <ele>1026.3</ele>
        <time>2026-08-04T09:00:37Z</time>
      </trkpt>
			<trkpt lat="42.50234" lon="1.52002">
        <ele>1027</ele>
        <time>2026-08-04T09:00:40Z</time>
      </trkpt>
			<trkpt lat="42.50225" lon="1.51997">
        <ele>1027.6</ele>
        <time>2026-08-04T09:00:43Z</time>
      </trkpt>
			<trkpt lat="42.50204" lon="1.51992">
        <ele>1029.1</ele>
        <time>2026-08-04T09:00:50Z</time>
      </trkpt>
			<trkpt lat="42.50177" lon="1.5199">
        <ele>1031</ele>
        <time>2026-08-04T09:00:58Z</time>
      </trkpt>
			<trkpt lat="42.5015" lon="1.51989">
        <ele>1032.9</ele>
        <time>2026-08-04T09:01:07Z</time>
      </trkpt>
			<trkpt lat="42.50139" lon="1.51985">
        <ele>1033.7</ele>
        <time>2026-08-04T09:01:10Z</time>
      </trkpt>
			<trkpt lat="42.50133" lon="1.51981">
        <ele>1034.2</ele>
        <time>2026-08-04T09:01:12Z</time>
      </trkpt>
			<trkpt lat="42.50125" lon="1.51974">
        <ele>1034.9</ele>
        <time>2026-08-04T09:01:15Z</time>
      </trkpt>
			<trkpt lat="42.5012" lon="1.51965">
        <ele>1035.5</ele>
        <time>2026-08-04T09:01:18Z</time>
      </trkpt>
			<trkpt lat="42.50112" lon="1.51943">
        <ele>1036.8</ele>
        <time>2026-08-04T09:01:24Z</time>
      </trkpt>
			<trkpt lat="42.50111" lon="1.51939">
        <ele>1037.1</ele>
        <time>2026-08-04T09:01:25Z</time>
      </trkpt>
			<trkpt lat="42.50097" lon="1.51902">
        <ele>1039.4</ele>
        <time>2026-08-04T09:01:35Z</time>
      </trkpt>
			<trkpt lat="42.50096" lon="1.51896">
        <ele>1039.8</ele>
        <time>2026-08-04T09:01:37Z</time>
      </trkpt>
			<trkpt lat="42.50095" lon="1.51889">
        <ele>1040.2</ele>
        <time>2026-08-04T09:01:39Z</time>
      </trkpt>
			<trkpt lat="42.50098" lon="1.51854">
        <ele>1042.3</ele>
        <time>2026-08-04T09:01:47Z</time>
      </trkpt>
			<trkpt lat="42.50101" lon="1.51819">
        <ele>1044.6</ele>
        <time>2026-08-04T09:01:58Z</time>
      </trkpt>
			<trkpt lat="42.50102" lon="1.51797">
        <ele>1046.1</ele>
        <time>2026-08-04T09:02:04Z</time>
      </trkpt>
			<trkpt lat="42.50102" lon="1.51791">
        <ele>1046.6</ele>
        <time>2026-08-04T09:02:07Z</time>
      </trkpt>
			<trkpt lat="42.501" lon="1.51787">
        <ele>1047</ele>
        <time>2026-08-04T09:02:08Z</time>
      </trkpt>
			<trkpt lat="42.50098" lon="1.51784">
        <ele>1047.3</ele>
        <time>2026-08-04T09:02:10Z</time>
      </trkpt>
			<trkpt lat="42.5009" lon="1.5178">
        <ele>1048.2</ele>
        <time>2026-08-04T09:02:13Z</time>
      </trkpt>
			<trkpt lat="42.50059" lon="1.51774">
        <ele>1051.9</ele>
        <time>2026-08-04T09:02:29Z</time>
      </trkpt>
			<trkpt lat="42.50027" lon="1.51768">
        <ele>1055.8</ele>
        <time>2026-08-04T09:02:45Z</time>
      </trkpt>
			<trkpt lat="42.49995" lon="1.51754">
        <ele>1060.5</ele>
        <time>2026-08-04T09:03:08Z</time>
      </trkpt>
			<trkpt lat="42.49963" lon="1.5174">
        <ele>1065.5</ele>
        <time>2026-08-04T09:03:30Z</time>
      </trkpt>
			<trkpt lat="42.49924" lon="1.51726">
        <ele>1071.5</ele>
        <time>2026-08-04T09:03:57Z</time>
      </trkpt>
			<trkpt lat="42.49905" lon="1.51716">
        <ele>1074.3</ele>
        <time>2026-08-04T09:04:09Z</time>
      </trkpt>
			<trkpt lat="42.49891" lon="1.51705">
        <ele>1076.6</ele>
        <time>2026-08-04T09:04:19Z</time>
      </trkpt>
			<trkpt lat="42.49885" lon="1.51699">
        <ele>1077.6</ele>
        <time>2026-08-04T09:04:24Z</time>
      </trkpt>
			<trkpt lat="42.49875" lon="1.51686">
        <ele>1079.6</ele>
        <time>2026-08-04T09:04:33Z</time>
      </trkpt>
			<trkpt lat="42.49869" lon="1.51675">
        <ele>1080.9</ele>
        <time>2026-08-04T09:04:39Z</time>
      </trkpt>
			<trkpt lat="42.49862" lon="1.51661">
        <ele>1082.5</ele>
        <time>2026-08-04T09:04:46Z</time>
      </trkpt>
			<trkpt lat="42.49856" lon="1.51648">
        <ele>1083.9</ele>
        <time>2026-08-04T09:04:52Z</time>
      </trkpt>
			<trkpt lat="42.49852" lon="1.51634">
        <ele>1085.2</ele>
        <time>2026-08-04T09:04:57Z</time>
      </trkpt>
			<trkpt lat="42.49845" lon="1.51606">
        <ele>1087.7</ele>
        <time>2026-08-04T09:05:08Z</time>
      </trkpt>
			<trkpt lat="42.49838" lon="1.51577">
        <ele>1090.1</ele>
        <time>2026-08-04T09:05:19Z</time>
      </trkpt>
			<trkpt lat="42.49831" lon="1.51532">
        <ele>1093.6</ele>
        <time>2026-08-04T09:05:34Z</time>
      </trkpt>
			<trkpt lat="42.49823" lon="1.51487">
        <ele>1096.7</ele>
        <time>2026-08-04T09:05:48Z</time>
      </trkpt>
			<trkpt lat="42.49818" lon="1.51467">
        <ele>1098</ele>
        <time>2026-08-04T09:05:54Z</time>
      </trkpt>
			<trkpt lat="42.49813" lon="1.51452">
        <ele>1099.1</ele>
        <time>2026-08-04T09:05:59Z</time>
      </trkpt>
			<trkpt lat="42.49808" lon="1.51441">
        <ele>1099.8</ele>
        <time>2026-08-04T09:06:02Z</time>
      </trkpt>
			<trkpt lat="42.49801" lon="1.5143">
        <ele>1100.7</ele>
        <time>2026-08-04T09:06:07Z</time>
      </trkpt>
			<trkpt lat="42.49781" lon="1.51403">
        <ele>1102.9</ele>
        <time>2026-08-04T09:06:16Z</time>
      </trkpt>
			<trkpt lat="42.49761" lon="1.51376">
        <ele>1105</ele>
        <time>2026-08-04T09:06:25Z</time>
      </trkpt>
			<trkpt lat="42.49741" lon="1.51352">
        <ele>1106.9</ele>
        <time>2026-08-04T09:06:34Z</time>
      </trkpt>
			<trkpt lat="42.49734" lon="1.51342">
        <ele>1107.7</ele>
        <time>2026-08-04T09:06:37Z</time>
      </trkpt>
			<trkpt lat="42.49717" lon="1.51312">
        <ele>1109.7</ele>
        <time>2026-08-04T09:06:46Z</time>
      </trkpt>
			<trkpt lat="42.49711" lon="1.51308">
        <ele>1110.1</ele>
        <time>2026-08-04T09:06:47Z</time>
      </trkpt>
			<trkpt lat="42.49702" lon="1.51309">
        <ele>1110.8</ele>
        <time>2026-08-04T09:06:50Z</time>
      </trkpt>
			<trkpt lat="42.49698" lon="1.51314">
        <ele>1111.1</ele>
        <time>2026-08-04T09:06:52Z</time>
      </trkpt>
			<trkpt lat="42.49698" lon="1.51321">
        <ele>1111.5</ele>
        <time>2026-08-04T09:06:54Z</time>
      </trkpt>
			<trkpt lat="42.497" lon="1.51329">
        <ele>1112</ele>
        <time>2026-08-04T09:06:56Z</time>
      </trkpt>
			<trkpt lat="42.49705" lon="1.51338">
        <ele>1112.6</ele>
        <time>2026-08-04T09:06:58Z</time>
      </trkpt>
			<trkpt lat="42.49724" lon="1.51362">
        <ele>1114.6</ele>
        <time>2026-08-04T09:07:07Z</time>
      </trkpt>
			<trkpt lat="42.49737" lon="1.51385">
        <ele>1116.3</ele>
        <time>2026-08-04T09:07:14Z</time>
      </trkpt>
			<trkpt lat="42.49745" lon="1.51401">
        <ele>1117.5</ele>
        <time>2026-08-04T09:07:20Z</time>
      </trkpt>
			<trkpt lat="42.49758" lon="1.51432">
        <ele>1119.9</ele>
        <time>2026-08-04T09:07:30Z</time>
      </trkpt>
			<trkpt lat="42.49774" lon="1.51487">
        <ele>1124</ele>
        <time>2026-08-04T09:07:48Z</time>
      </trkpt>
			<trkpt lat="42.49781" lon="1.51516">
        <ele>1126.4</ele>
        <time>2026-08-04T09:07:59Z</time>
      </trkpt>
			<trkpt lat="42.49783" lon="1.51531">
        <ele>1127.7</ele>
        <time>2026-08-04T09:08:05Z</time>
      </trkpt>
			<trkpt lat="42.49784" lon="1.51554">
        <ele>1129.6</ele>
        <time>2026-08-04T09:08:13Z</time>
      </trkpt>
			<trkpt lat="42.49782" lon="1.51581">
        <ele>1132</ele>
        <time>2026-08-04T09:08:23Z</time>
      </trkpt>
			<trkpt lat="42.49778" lon="1.51615">
        <ele>1135.2</ele>
        <time>2026-08-04T09:08:36Z</time>
      </trkpt>
			<trkpt lat="42.49776" lon="1.51633">
        <ele>1136.9</ele>
        <time>2026-08-04T09:08:43Z</time>
      </trkpt>
			<trkpt lat="42.49777" lon="1.51665">
        <ele>1140.2</ele>
        <time>2026-08-04T09:08:58Z</time>
      </trkpt>
			<trkpt lat="42.49778" lon="1.51675">
        <ele>1141.3</ele>
        <time>2026-08-04T09:09:03Z</time>
      </trkpt>
			<trkpt lat="42.49785" lon="1.5171">
        <ele>1145.2</ele>
        <time>2026-08-04T09:09:21Z</time>
      </trkpt>
			<trkpt lat="42.49791" lon="1.51745">
        <ele>1149.4</ele>
        <time>2026-08-04T09:09:39Z</time>
      </trkpt>
			<trkpt lat="42.49796" lon="1.51799">
        <ele>1155.8</ele>
        <time>2026-08-04T09:10:06Z</time>
      </trkpt>
			<trkpt lat="42.498" lon="1.51853">
        <ele>1162.3</ele>
        <time>2026-08-04T09:10:38Z</time>
      </trkpt>
			<trkpt lat="42.49799" lon="1.51865">
        <ele>1163.7</ele>
        <time>2026-08-04T09:10:44Z</time>
      </trkpt>
			<trkpt lat="42.49796" lon="1.51877">
        <ele>1165</ele>
        <time>2026-08-04T09:10:50Z</time>
      </trkpt>
			<trkpt lat="42.49773" lon="1.51927">
        <ele>1171</ele>
        <time>2026-08-04T09:11:15Z</time>
      </trkpt>
			<trkpt lat="42.4975" lon="1.51977">
        <ele>1175.2</ele>
        <time>2026-08-04T09:11:34Z</time>
      </trkpt>
			<trkpt lat="42.49745" lon="1.5199">
        <ele>1176.1</ele>
        <time>2026-08-04T09:11:38Z</time>
      </trkpt>
			<trkpt lat="42.49732" lon="1.5204">
        <ele>1178.1</ele>
        <time>2026-08-04T09:11:49Z</time>
      </trkpt>
			<trkpt lat="42.49723" lon="1.52057">
        <ele>1178.5</ele>
        <time>2026-08-04T09:11:52Z</time>
      </trkpt>
			<trkpt lat="42.49717" lon="1.52067">
        <ele>1178.7</ele>
        <time>2026-08-04T09:11:54Z</time>
      </trkpt>
			<trkpt lat="42.49695" lon="1.52093">
        <ele>1178.8</ele>
        <time>2026-08-04T09:11:58Z</time>
      </trkpt>
			<trkpt lat="42.49672" lon="1.52118">
        <ele>1178.5</ele>
        <time>2026-08-04T09:12:01Z</time>
      </trkpt>
			<trkpt lat="42.49668" lon="1.52128">
        <ele>1178.3</ele>
        <time>2026-08-04T09:12:02Z</time>
      </trkpt>
			<trkpt lat="42.49668" lon="1.52135">
        <ele>1178.2</ele>
        <time>2026-08-04T09:12:02Z</time>
      </trkpt>
			<trkpt lat="42.49669" lon="1.52138">
        <ele>1178.2</ele>
        <time>2026-08-04T09:12:02Z</time>
      </trkpt>
			<trkpt lat="42.49674" lon="1.52145">
        <ele>1178</ele>
        <time>2026-08-04T09:12:03Z</time>
      </trkpt>
			<trkpt lat="42.49678" lon="1.52148">
        <ele>1177.9</ele>
        <time>2026-08-04T09:12:04Z</time>
      </trkpt>
			<trkpt lat="42.49684" lon="1.5215">
        <ele>1177.7</ele>
        <time>2026-08-04T09:12:04Z</time>
      </trkpt>
			<trkpt lat="42.49728" lon="1.52147">
        <ele>1176.6</ele>
        <time>2026-08-04T09:12:09Z</time>
      </trkpt>
			<trkpt lat="42.49771" lon="1.52144">
        <ele>1175.6</ele>
        <time>2026-08-04T09:12:13Z</time>
      </trkpt>
			<trkpt lat="42.4979" lon="1.52137">
        <ele>1175.3</ele>
        <time>2026-08-04T09:12:15Z</time>
      </trkpt>
			<trkpt lat="42.49793" lon="1.52137">
        <ele>1175.3</ele>
        <time>2026-08-04T09:12:15Z</time>
      </trkpt>
			<trkpt lat="42.49796" lon="1.52138">
        <ele>1175.2</ele>
        <time>2026-08-04T09:12:15Z</time>
      </trkpt>
			<trkpt lat="42.49799" lon="1.52143">
        <ele>1175.2</ele>
        <time>2026-08-04T09:12:16Z</time>
      </trkpt>
			<trkpt lat="42.49799" lon="1.52154">
        <ele>1175.1</ele>
        <time>2026-08-04T09:12:17Z</time>
      </trkpt>
			<trkpt lat="42.49792" lon="1.52192">
        <ele>1175.1</ele>
        <time>2026-08-04T09:12:21Z</time>
      </trkpt>
			<trkpt lat="42.49792" lon="1.522">
        <ele>1175.1</ele>
        <time>2026-08-04T09:12:22Z</time>
      </trkpt>
			<trkpt lat="42.49792" lon="1.52231">
        <ele>1175.2</ele>
        <time>2026-08-04T09:12:25Z</time>
      </trkpt>
			<trkpt lat="42.49795" lon="1.52251">
        <ele>1175.4</ele>
        <time>2026-08-04T09:12:28Z</time>
      </trkpt>
			<trkpt lat="42.49808" lon="1.52287">
        <ele>1175.9</ele>
        <time>2026-08-04T09:12:34Z</time>
      </trkpt>
			<trkpt lat="42.49823" lon="1.52312">
        <ele>1176.3</ele>
        <time>2026-08-04T09:12:38Z</time>
      </trkpt>
			<trkpt lat="42.49848" lon="1.52347">
        <ele>1176.9</ele>
        <time>2026-08-04T09:12:45Z</time>
      </trkpt>
			<trkpt lat="42.49878" lon="1.52384">
        <ele>1177.6</ele>
        <time>2026-08-04T09:12:53Z</time>
      </trkpt>
			<trkpt lat="42.49896" lon="1.52403">
        <ele>1178</ele>
        <time>2026-08-04T09:12:57Z</time>
      </trkpt>
			<trkpt lat="42.49904" lon="1.52409">
        <ele>1178.2</ele>
        <time>2026-08-04T09:12:59Z</time>
      </trkpt>
			<trkpt lat="42.4991" lon="1.52413">
        <ele>1178.3</ele>
        <time>2026-08-04T09:13:00Z</time>
      </trkpt>
			<trkpt lat="42.49916" lon="1.52414">
        <ele>1178.4</ele>
        <time>2026-08-04T09:13:01Z</time>
      </trkpt>
			<trkpt lat="42.49926" lon="1.52412">
        <ele>1178.6</ele>
        <time>2026-08-04T09:13:03Z</time>
      </trkpt>
			<trkpt lat="42.49929" lon="1.52409">
        <ele>1178.7</ele>
        <time>2026-08-04T09:13:04Z</time>
      </trkpt>
			<trkpt lat="42.49932" lon="1.52405">
        <ele>1178.8</ele>
        <time>2026-08-04T09:13:05Z</time>
      </trkpt>
			<trkpt lat="42.49934" lon="1.52398">
        <ele>1178.9</ele>
        <time>2026-08-04T09:13:06Z</time>
      </trkpt>
			<trkpt lat="42.49935" lon="1.52389">
        <ele>1179.1</ele>
        <time>2026-08-04T09:13:07Z</time>
      </trkpt>
			<trkpt lat="42.49934" lon="1.52354">
        <ele>1179.9</ele>
        <time>2026-08-04T09:13:13Z</time>
      </trkpt>
			<trkpt lat="42.49935" lon="1.52339">
        <ele>1180.3</ele>
        <time>2026-08-04T09:13:15Z</time>
      </trkpt>
			<trkpt lat="42.49936" lon="1.52335">
        <ele>1180.4</ele>
        <time>2026-08-04T09:13:16Z</time>
      </trkpt>
			<trkpt lat="42.49938" lon="1.5233">
        <ele>1180.6</ele>
        <time>2026-08-04T09:13:17Z</time>
      </trkpt>
			<trkpt lat="42.49941" lon="1.52327">
        <ele>1180.8</ele>
        <time>2026-08-04T09:13:18Z</time>
      </trkpt>
			<trkpt lat="42.49945" lon="1.52325">
        <ele>1180.9</ele>
        <time>2026-08-04T09:13:19Z</time>
      </trkpt>
			<trkpt lat="42.4995" lon="1.52324">
        <ele>1181.2</ele>
        <time>2026-08-04T09:13:20Z</time>
      </trkpt>
			<trkpt lat="42.49958" lon="1.52325">
        <ele>1181.6</ele>
        <time>2026-08-04T09:13:22Z</time>
      </trkpt>
			<trkpt lat="42.49968" lon="1.52329">
        <ele>1182.2</ele>
        <time>2026-08-04T09:13:25Z</time>
      </trkpt>
			<trkpt lat="42.49979" lon="1.52335">
        <ele>1183</ele>
        <time>2026-08-04T09:13:29Z</time>
      </trkpt>
			<trkpt lat="42.5" lon="1.52355">
        <ele>1185</ele>
        <time>2026-08-04T09:13:38Z</time>
      </trkpt>
			<trkpt lat="42.5002" lon="1.52375">
        <ele>1187.5</ele>
        <time>2026-08-04T09:13:49Z</time>
      </trkpt>
			<trkpt lat="42.50053" lon="1.52409">
        <ele>1192.9</ele>
        <time>2026-08-04T09:14:12Z</time>
      </trkpt>
			<trkpt lat="42.50074" lon="1.52443">
        <ele>1198.1</ele>
        <time>2026-08-04T09:14:34Z</time>
      </trkpt>
			<trkpt lat="42.50091" lon="1.52477">
        <ele>1203.6</ele>
        <time>2026-08-04T09:14:58Z</time>
      </trkpt>
			<trkpt lat="42.50107" lon="1.52511">
        <ele>1209</ele>
        <time>2026-08-04T09:15:22Z</time>
      </trkpt>
			<trkpt lat="42.50124" lon="1.52545">
        <ele>1214.3</ele>
        <time>2026-08-04T09:15:46Z</time>
      </trkpt>
			<trkpt lat="42.50151" lon="1.52587">
        <ele>1220.4</ele>
        <time>2026-08-04T09:16:14Z</time>
      </trkpt>
			<trkpt lat="42.50172" lon="1.52617">
        <ele>1224.1</ele>
        <time>2026-08-04T09:16:29Z</time>
      </trkpt>
			<trkpt lat="42.50204" lon="1.5265">
        <ele>1227.9</ele>
        <time>2026-08-04T09:16:47Z</time>
      </trkpt>
			<trkpt lat="42.50208" lon="1.52656">
        <ele>1228.4</ele>
        <time>2026-08-04T09:16:49Z</time>
      </trkpt>
			<trkpt lat="42.50209" lon="1.52659">
        <ele>1228.5</ele>
        <time>2026-08-04T09:16:50Z</time>
      </trkpt>
			<trkpt lat="42.50209" lon="1.52664">
        <ele>1228.8</ele>
        <time>2026-08-04T09:16:51Z</time>
      </trkpt>
			<trkpt lat="42.50207" lon="1.52668">
        <ele>1229</ele>
        <time>2026-08-04T09:16:52Z</time>
      </trkpt>
			<trkpt lat="42.50204" lon="1.52671">
        <ele>1229.3</ele>
        <time>2026-08-04T09:16:53Z</time>
      </trkpt>
			<trkpt lat="42.50201" lon="1.52672">
        <ele>1229.5</ele>
        <time>2026-08-04T09:16:54Z</time>
      </trkpt>
			<trkpt lat="42.50199" lon="1.52671">
        <ele>1229.7</ele>
        <time>2026-08-04T09:16:55Z</time>
      </trkpt>
			<trkpt lat="42.50168" lon="1.52639">
        <ele>1232.1</ele>
        <time>2026-08-04T09:17:07Z</time>
      </trkpt>
			<trkpt lat="42.50163" lon="1.52635">
        <ele>1232.4</ele>
        <time>2026-08-04T09:17:09Z</time>
      </trkpt>
			<trkpt lat="42.50156" lon="1.52633">
        <ele>1232.8</ele>
        <time>2026-08-04T09:17:11Z</time>
      </trkpt>
			<trkpt lat="42.50132" lon="1.52632">
        <ele>1234</ele>
        <time>2026-08-04T09:17:17Z</time>
      </trkpt>
			<trkpt lat="42.50125" lon="1.52629">
        <ele>1234.4</ele>
        <time>2026-08-04T09:17:19Z</time>
      </trkpt>
			<trkpt lat="42.50119" lon="1.52624">
        <ele>1234.7</ele>
        <time>2026-08-04T09:17:21Z</time>
      </trkpt>
			<trkpt lat="42.50109" lon="1.52613">
        <ele>1235.3</ele>
        <time>2026-08-04T09:17:24Z</time>
      </trkpt>
			<trkpt lat="42.50079" lon="1.52574">
        <ele>1237.5</ele>
        <time>2026-08-04T09:17:36Z</time>
      </trkpt>
			<trkpt lat="42.50048" lon="1.52535">
        <ele>1239.9</ele>
        <time>2026-08-04T09:17:48Z</time>
      </trkpt>
			<trkpt lat="42.50042" lon="1.52531">
        <ele>1240.4</ele>
        <time>2026-08-04T09:17:50Z</time>
      </trkpt>
			<trkpt lat="42.50036" lon="1.52533">
        <ele>1240.8</ele>
        <time>2026-08-04T09:17:52Z</time>
      </trkpt>
			<trkpt lat="42.50033" lon="1.52537">
        <ele>1241</ele>
        <time>2026-08-04T09:17:53Z</time>
      </trkpt>
			<trkpt lat="42.5003" lon="1.52542">
        <ele>1241.4</ele>
        <time>2026-08-04T09:17:55Z</time>
      </trkpt>
			<trkpt lat="42.5003" lon="1.5255">
        <ele>1241.8</ele>
        <time>2026-08-04T09:17:57Z</time>
      </trkpt>
			<trkpt lat="42.50031" lon="1.52556">
        <ele>1242.1</ele>
        <time>2026-08-04T09:17:58Z</time>
      </trkpt>
			<trkpt lat="42.50037" lon="1.5257">
        <ele>1243</ele>
        <time>2026-08-04T09:18:02Z</time>
      </trkpt>
			<trkpt lat="42.5004" lon="1.52577">
        <ele>1243.4</ele>
        <time>2026-08-04T09:18:04Z</time>
      </trkpt>
			<trkpt lat="42.50065" lon="1.52599">
        <ele>1245.9</ele>
        <time>2026-08-04T09:18:16Z</time>
      </trkpt>
			<trkpt lat="42.50074" lon="1.5261">
        <ele>1247</ele>
        <time>2026-08-04T09:18:21Z</time>
      </trkpt>
			<trkpt lat="42.50083" lon="1.52631">
        <ele>1248.6</ele>
        <time>2026-08-04T09:18:28Z</time>
      </trkpt>
			<trkpt lat="42.50097" lon="1.52665">
        <ele>1251.4</ele>
        <time>2026-08-04T09:18:41Z</time>
      </trkpt>
			<trkpt lat="42.50111" lon="1.52699">
        <ele>1254.2</ele>
        <time>2026-08-04T09:18:54Z</time>
      </trkpt>
			<trkpt lat="42.50119" lon="1.52716">
        <ele>1255.8</ele>
        <time>2026-08-04T09:19:01Z</time>
      </trkpt>
			<trkpt lat="42.50141" lon="1.52751">
        <ele>1259.2</ele>
        <time>2026-08-04T09:19:16Z</time>
      </trkpt>
			<trkpt lat="42.50147" lon="1.52757">
        <ele>1259.9</ele>
        <time>2026-08-04T09:19:19Z</time>
      </trkpt>
			<trkpt lat="42.50155" lon="1.52763">
        <ele>1260.8</ele>
        <time>2026-08-04T09:19:23Z</time>
      </trkpt>
			<trkpt lat="42.50173" lon="1.52772">
        <ele>1262.8</ele>
        <time>2026-08-04T09:19:32Z</time>
      </trkpt>
			<trkpt lat="42.50184" lon="1.5278">
        <ele>1263.9</ele>
        <time>2026-08-04T09:19:37Z</time>
      </trkpt>
			<trkpt lat="42.50212" lon="1.52817">
        <ele>1267.6</ele>
        <time>2026-08-04T09:19:54Z</time>
      </trkpt>
			<trkpt lat="42.50213" lon="1.52828">
        <ele>1268.4</ele>
        <time>2026-08-04T09:19:58Z</time>
      </trkpt>
			<trkpt lat="42.50208" lon="1.52837">
        <ele>1269.1</ele>
        <time>2026-08-04T09:20:01Z</time>
      </trkpt>
			<trkpt lat="42.50202" lon="1.52837">
        <ele>1269.7</ele>
        <time>2026-08-04T09:20:04Z</time>
      </trkpt>
			<trkpt lat="42.50195" lon="1.52827">
        <ele>1270.6</ele>
        <time>2026-08-04T09:20:08Z</time>
      </trkpt>
			<trkpt lat="42.50186" lon="1.5281">
        <ele>1272</ele>
        <time>2026-08-04T09:20:14Z</time>
      </trkpt>
			<trkpt lat="42.5018" lon="1.528">
        <ele>1273</ele>
        <time>2026-08-04T09:20:18Z</time>
      </trkpt>
			<trkpt lat="42.50174" lon="1.52796">
        <ele>1273.6</ele>
        <time>2026-08-04T09:20:21Z</time>
      </trkpt>
			<trkpt lat="42.50158" lon="1.52798">
        <ele>1275.1</ele>
        <time>2026-08-04T09:20:27Z</time>
      </trkpt>
			<trkpt lat="42.50141" lon="1.52803">
        <ele>1276.9</ele>
        <time>2026-08-04T09:20:35Z</time>
      </trkpt>
			<trkpt lat="42.50126" lon="1.52807">
        <ele>1278.4</ele>
        <time>2026-08-04T09:20:42Z</time>
      </trkpt>
			<trkpt lat="42.50117" lon="1.52807">
        <ele>1279.4</ele>
        <time>2026-08-04T09:20:46Z</time>
      </trkpt>
			<trkpt lat="42.50108" lon="1.52803">
        <ele>1280.3</ele>
        <time>2026-08-04T09:20:51Z</time>
      </trkpt>
			<trkpt lat="42.50094" lon="1.52788">
        <ele>1282.2</ele>
        <time>2026-08-04T09:21:00Z</time>
      </trkpt>
			<trkpt lat="42.50088" lon="1.52787">
        <ele>1282.9</ele>
        <time>2026-08-04T09:21:03Z</time>
      </trkpt>
			<trkpt lat="42.50083" lon="1.52789">
        <ele>1283.4</ele>
        <time>2026-08-04T09:21:05Z</time>
      </trkpt>
			<trkpt lat="42.50079" lon="1.52794">
        <ele>1284</ele>
        <time>2026-08-04T09:21:08Z</time>
      </trkpt>
			<trkpt lat="42.50077" lon="1.52804">
        <ele>1284.9</ele>
        <time>2026-08-04T09:21:11Z</time>
      </trkpt>
			<trkpt lat="42.50075" lon="1.52817">
        <ele>1286</ele>
        <time>2026-08-04T09:21:16Z</time>
      </trkpt>
			<trkpt lat="42.50066" lon="1.52867">
        <ele>1290.4</ele>
        <time>2026-08-04T09:21:35Z</time>
      </trkpt>
			<trkpt lat="42.50062" lon="1.52882">
        <ele>1291.7</ele>
        <time>2026-08-04T09:21:41Z</time>
      </trkpt>
			<trkpt lat="42.50059" lon="1.52889">
        <ele>1292.4</ele>
        <time>2026-08-04T09:21:44Z</time>
      </trkpt>
			<trkpt lat="42.50054" lon="1.5289">
        <ele>1292.9</ele>
        <time>2026-08-04T09:21:46Z</time>
      </trkpt>
			<trkpt lat="42.50018" lon="1.52881">
        <ele>1297</ele>
        <time>2026-08-04T09:22:05Z</time>
      </trkpt>
			<trkpt lat="42.49986" lon="1.52875">
        <ele>1300.4</ele>
        <time>2026-08-04T09:22:19Z</time>
      </trkpt>
			<trkpt lat="42.49979" lon="1.52875">
        <ele>1301.1</ele>
        <time>2026-08-04T09:22:22Z</time>
      </trkpt>
			<trkpt lat="42.49974" lon="1.52881">
        <ele>1301.7</ele>
        <time>2026-08-04T09:22:25Z</time>
      </trkpt>
			<trkpt lat="42.49973" lon="1.5289">
        <ele>1302.3</ele>
        <time>2026-08-04T09:22:28Z</time>
      </trkpt>
			<trkpt lat="42.49974" lon="1.52896">
        <ele>1302.7</ele>
        <time>2026-08-04T09:22:29Z</time>
      </trkpt>
			<trkpt lat="42.49977" lon="1.52902">
        <ele>1303.2</ele>
        <time>2026-08-04T09:22:32Z</time>
      </trkpt>
			<trkpt lat="42.49997" lon="1.52916">
        <ele>1305.1</ele>
        <time>2026-08-04T09:22:41Z</time>
      </trkpt>
			<trkpt lat="42.50004" lon="1.52923">
        <ele>1305.7</ele>
        <time>2026-08-04T09:22:43Z</time>
      </trkpt>
			<trkpt lat="42.50011" lon="1.5293">
        <ele>1306.4</ele>
        <time>2026-08-04T09:22:46Z</time>
      </trkpt>
			<trkpt lat="42.50026" lon="1.52955">
        <ele>1308.1</ele>
        <time>2026-08-04T09:22:53Z</time>
      </trkpt>
			<trkpt lat="42.5004" lon="1.52981">
        <ele>1309.6</ele>
        <time>2026-08-04T09:23:01Z</time>
      </trkpt>
			<trkpt lat="42.50049" lon="1.52993">
        <ele>1310.4</ele>
        <time>2026-08-04T09:23:05Z</time>
      </trkpt>
			<trkpt lat="42.50058" lon="1.53">
        <ele>1310.9</ele>
        <time>2026-08-04T09:23:07Z</time>
      </trkpt>
			<trkpt lat="42.50066" lon="1.53006">
        <ele>1311.5</ele>
        <time>2026-08-04T09:23:10Z</time>
      </trkpt>
			<trkpt lat="42.5008" lon="1.53009">
        <ele>1312.2</ele>
        <time>2026-08-04T09:23:14Z</time>
      </trkpt>
			<trkpt lat="42.50084" lon="1.53011">
        <ele>1312.4</ele>
        <time>2026-08-04T09:23:15Z</time>
      </trkpt>
			<trkpt lat="42.50089" lon="1.53015">
        <ele>1312.7</ele>
        <time>2026-08-04T09:23:16Z</time>
      </trkpt>
			<trkpt lat="42.5009" lon="1.53019">
        <ele>1312.9</ele>
        <time>2026-08-04T09:23:17Z</time>
      </trkpt>
			<trkpt lat="42.5009" lon="1.53023">
        <ele>1313.1</ele>
        <time>2026-08-04T09:23:18Z</time>
      </trkpt>
			<trkpt lat="42.50087" lon="1.53031">
        <ele>1313.4</ele>
        <time>2026-08-04T09:23:20Z</time>
      </trkpt>
			<trkpt lat="42.50053" lon="1.53063">
        <ele>1315.6</ele>
        <time>2026-08-04T09:23:32Z</time>
      </trkpt>
			<trkpt lat="42.50034" lon="1.53073">
        <ele>1316.6</ele>
        <time>2026-08-04T09:23:37Z</time>
      </trkpt>
			<trkpt lat="42.50013" lon="1.53074">
        <ele>1317.7</ele>
        <time>2026-08-04T09:23:43Z</time>
      </trkpt>
			<trkpt lat="42.50004" lon="1.53071">
        <ele>1318.1</ele>
        <time>2026-08-04T09:23:45Z</time>
      </trkpt>
			<trkpt lat="42.4997" lon="1.53059">
        <ele>1319.9</ele>
        <time>2026-08-04T09:23:55Z</time>
      </trkpt>
			<trkpt lat="42.49933" lon="1.53054">
        <ele>1321.8</ele>
        <time>2026-08-04T09:24:06Z</time>
      </trkpt>
			<trkpt lat="42.49927" lon="1.53054">
        <ele>1322.1</ele>
        <time>2026-08-04T09:24:07Z</time>
      </trkpt>
			<trkpt lat="42.49923" lon="1.53056">
        <ele>1322.3</ele>
        <time>2026-08-04T09:24:08Z</time>
      </trkpt>
			<trkpt lat="42.49919" lon="1.53061">
        <ele>1322.6</ele>
        <time>2026-08-04T09:24:10Z</time>
      </trkpt>
			<trkpt lat="42.49917" lon="1.53067">
        <ele>1322.8</ele>
        <time>2026-08-04T09:24:11Z</time>
      </trkpt>
			<trkpt lat="42.49918" lon="1.53073">
        <ele>1323</ele>
        <time>2026-08-04T09:24:12Z</time>
      </trkpt>
			<trkpt lat="42.49921" lon="1.53077">
        <ele>1323.2</ele>
        <time>2026-08-04T09:24:13Z</time>
      </trkpt>
			<trkpt lat="42.49954" lon="1.53105">
        <ele>1324.9</ele>
        <time>2026-08-04T09:24:23Z</time>
      </trkpt>
			<trkpt lat="42.49987" lon="1.53133">
        <ele>1326.4</ele>
        <time>2026-08-04T09:24:32Z</time>
      </trkpt>
			<trkpt lat="42.49998" lon="1.5314">
        <ele>1326.8</ele>
        <time>2026-08-04T09:24:34Z</time>
      </trkpt>
			<trkpt lat="42.5001" lon="1.53146">
        <ele>1327.2</ele>
        <time>2026-08-04T09:24:37Z</time>
      </trkpt>
			<trkpt lat="42.50018" lon="1.53149">
        <ele>1327.5</ele>
        <time>2026-08-04T09:24:39Z</time>
      </trkpt>
			<trkpt lat="42.50023" lon="1.5315">
        <ele>1327.6</ele>
        <time>2026-08-04T09:24:40Z</time>
      </trkpt>
			<trkpt lat="42.50061" lon="1.53147">
        <ele>1328.6</ele>
        <time>2026-08-04T09:24:47Z</time>
      </trkpt>
		</trkseg>
	</trk>
</gpx>
