<?xml version="1.0" encoding="UTF-8"?>
<gpx creator="https://gpx.studio" version="1.1" xmlns="http://www.topografix.com/GPX/1/1" xmlns:xsi="http://www.w3.org/2001/XMLSchema-instance" xsi:schemaLocation="http://www.topografix.com/GPX/1/1 http://www.topografix.com/GPX/1/1/gpx.xsd http://www.garmin.com/xmlschemas/GpxExtensions/v3 http://www.garmin.com/xmlschemas/GpxExtensionsv3.xsd http://www.garmin.com/xmlschemas/TrackPointExtension/v1 http://www.garmin.com/xmlschemas/TrackPointExtensionv1.xsd http://www.garmin.com/xmlschemas/PowerExtension/v1 http://www.garmin.com/xmlschemas/PowerExtensionv1.xsd http://www.topografix.com/GPX/gpx_style/0/2 http://www.topografix.com/GPX/gpx_style/0/2/gpx_style.xsd" xmlns:gpxtpx="http://www.garmin.com/xmlschemas/TrackPointExtension/v1" xmlns:gpxx="http://www.garmin.com/xmlschemas/GpxExtensions/v3" xmlns:gpxpx="http://www.garmin.com/xmlschemas/PowerExtension/v1" xmlns:gpx_style="http://www.topografix.com/GPX/gpx_style/0/2">
  <metadata>
    <name>lagos_covadonga_gpxstudio</name>
    <author>
      <name>gpx.studio</name>
      <link href="https://gpx.studio"/>
    </author>
  </metadata>
  <trk>
    <name>lagos_covadonga_gpxstudio</name>
    <trkseg>
      <trkpt lat="43.312623" lon="-5.05909">
        <ele>162.18</ele>
      </trkpt>
      <trkpt lat="43.312598" lon="-5.058953">
        <ele>162.5</ele>
      </trkpt>
      <trkpt lat="43.312512" lon="-5.058765">
        <ele>162.9</ele>
      </trkpt>
      <trkpt lat="43.311919" lon="-5.05785">
        <ele>164.54</ele>
      </trkpt>
      <trkpt lat="43.311823" lon="-5.057674">
        <ele>164.87</ele>
      </trkpt>
      <trkpt lat="43.311781" lon="-5.057549">
        <ele>165.06</ele>
      </trkpt>
      <trkpt lat="43.311763" lon="-5.057415">
        <ele>165.18</ele>
      </trkpt>
      <trkpt lat="43.311769" lon="-5.057164">
        <ele>164.89</ele>
      </trkpt>
      <trkpt lat="43.311764" lon="-5.05697">
        <ele>165.79</ele>
      </trkpt>
      <trkpt lat="43.311751" lon="-5.056861">
        <ele>166.37</ele>
      </trkpt>
      <trkpt lat="43.311717" lon="-5.056744">
        <ele>167.31</ele>
      </trkpt>
      <trkpt lat="43.311634" lon="-5.056572">
        <ele>168.75</ele>
      </trkpt>
      <trkpt lat="43.311517" lon="-5.056432">
        <ele>168.99</ele>
      </trkpt>
      <trkpt lat="43.311303" lon="-5.056235">
        <ele>170.84</ele>
      </trkpt>
      <trkpt lat="43.311198" lon="-5.056117">
        <ele>172.09</ele>
      </trkpt>
      <trkpt lat="43.311131" lon="-5.055991">
        <ele>171.93</ele>
      </trkpt>
      <trkpt lat="43.311105" lon="-5.055895">
        <ele>171.97</ele>
      </trkpt>
      <trkpt lat="43.311087" lon="-5.055732">
        <ele>172.24</ele>
      </trkpt>
      <trkpt lat="43.311104" lon="-5.055644">
        <ele>172.68</ele>
      </trkpt>
      <trkpt lat="43.311169" lon="-5.055467">
        <ele>174.13</ele>
      </trkpt>
      <trkpt lat="43.311357" lon="-5.055089">
        <ele>175.77</ele>
      </trkpt>
      <trkpt lat="43.3114" lon="-5.054943">
        <ele>176</ele>
      </trkpt>
      <trkpt lat="43.31141" lon="-5.0548">
        <ele>176.17</ele>
      </trkpt>
      <trkpt lat="43.311381" lon="-5.05464">
        <ele>177.17</ele>
      </trkpt>
      <trkpt lat="43.31129" lon="-5.054387">
        <ele>178.06</ele>
      </trkpt>
      <trkpt lat="43.311147" lon="-5.054058">
        <ele>180.26</ele>
      </trkpt>
      <trkpt lat="43.310968" lon="-5.05373">
        <ele>181.42</ele>
      </trkpt>
      <trkpt lat="43.310676" lon="-5.053272">
        <ele>183.43</ele>
      </trkpt>
      <trkpt lat="43.3106" lon="-5.05311">
        <ele>183.99</ele>
      </trkpt>
      <trkpt lat="43.31054" lon="-5.052923">
        <ele>186.23</ele>
      </trkpt>
      <trkpt lat="43.310519" lon="-5.052764">
        <ele>186.86</ele>
      </trkpt>
      <trkpt lat="43.310528" lon="-5.052348">
        <ele>188.25</ele>
      </trkpt>
      <trkpt lat="43.310489" lon="-5.052117">
        <ele>189.97</ele>
      </trkpt>
      <trkpt lat="43.310417" lon="-5.051922">
        <ele>190.95</ele>
      </trkpt>
      <trkpt lat="43.310329" lon="-5.051787">
        <ele>191.69</ele>
      </trkpt>
      <trkpt lat="43.310129" lon="-5.0516">
        <ele>193.27</ele>
      </trkpt>
      <trkpt lat="43.310003" lon="-5.051547">
        <ele>194.5</ele>
      </trkpt>
      <trkpt lat="43.309707" lon="-5.051472">
        <ele>196.34</ele>
      </trkpt>
      <trkpt lat="43.309595" lon="-5.051407">
        <ele>196.95</ele>
      </trkpt>
      <trkpt lat="43.309555" lon="-5.05135">
        <ele>197.41</ele>
      </trkpt>
      <trkpt lat="43.309528" lon="-5.051276">
        <ele>197.68</ele>
      </trkpt>
      <trkpt lat="43.309506" lon="-5.05118">
        <ele>198.16</ele>
      </trkpt>
      <trkpt lat="43.309438" lon="-5.050821">
        <ele>199.59</ele>
      </trkpt>
      <trkpt lat="43.309423" lon="-5.050631">
        <ele>200.57</ele>
      </trkpt>
      <trkpt lat="43.309436" lon="-5.050508">
        <ele>201.31</ele>
      </trkpt>
      <trkpt lat="43.309489" lon="-5.050221">
        <ele>202.79</ele>
      </trkpt>
      <trkpt lat="43.309497" lon="-5.050096">
        <ele>203.36</ele>
      </trkpt>
      <trkpt lat="43.309476" lon="-5.049992">
        <ele>203.72</ele>
      </trkpt>
      <trkpt lat="43.309438" lon="-5.049915">
        <ele>203.92</ele>
      </trkpt>
      <trkpt lat="43.309383" lon="-5.049867">
        <ele>204.1</ele>
      </trkpt>
      <trkpt lat="43.309336" lon="-5.049846">
        <ele>204.58</ele>
      </trkpt>
      <trkpt lat="43.309272" lon="-5.049847">
        <ele>205.21</ele>
      </trkpt>
      <trkpt lat="43.309221" lon="-5.049872">
        <ele>205.94</ele>
      </trkpt>
      <trkpt lat="43.309186" lon="-5.049901">
        <ele>206.31</ele>
      </trkpt>
      <trkpt lat="43.309123" lon="-5.049963">
        <ele>209.57</ele>
      </trkpt>
      <trkpt lat="43.309091" lon="-5.050031">
        <ele>211.64</ele>
      </trkpt>
      <trkpt lat="43.309061" lon="-5.050175">
        <ele>209.48</ele>
      </trkpt>
      <trkpt lat="43.308988" lon="-5.050608">
        <ele>210.59</ele>
      </trkpt>
      <trkpt lat="43.308904" lon="-5.050881">
        <ele>211.08</ele>
      </trkpt>
      <trkpt lat="43.308825" lon="-5.051013">
        <ele>210.82</ele>
      </trkpt>
      <trkpt lat="43.308681" lon="-5.0512">
        <ele>210.69</ele>
      </trkpt>
      <trkpt lat="43.308584" lon="-5.051307">
        <ele>212.29</ele>
      </trkpt>
      <trkpt lat="43.308421" lon="-5.051399">
        <ele>213.79</ele>
      </trkpt>
      <trkpt lat="43.308302" lon="-5.051431">
        <ele>213.72</ele>
      </trkpt>
      <trkpt lat="43.307885" lon="-5.051465">
        <ele>217.84</ele>
      </trkpt>
      <trkpt lat="43.30762" lon="-5.051492">
        <ele>219.71</ele>
      </trkpt>
      <trkpt lat="43.307578" lon="-5.051491">
        <ele>220.04</ele>
      </trkpt>
      <trkpt lat="43.307547" lon="-5.051473">
        <ele>220.39</ele>
      </trkpt>
      <trkpt lat="43.307523" lon="-5.051442">
        <ele>220.55</ele>
      </trkpt>
      <trkpt lat="43.307507" lon="-5.051401">
        <ele>220.38</ele>
      </trkpt>
      <trkpt lat="43.307505" lon="-5.051338">
        <ele>220.83</ele>
      </trkpt>
      <trkpt lat="43.307524" lon="-5.05128">
        <ele>221.56</ele>
      </trkpt>
      <trkpt lat="43.307561" lon="-5.051241">
        <ele>221.83</ele>
      </trkpt>
      <trkpt lat="43.307567" lon="-5.051185">
        <ele>222.64</ele>
      </trkpt>
      <trkpt lat="43.307585" lon="-5.051144">
        <ele>223.35</ele>
      </trkpt>
      <trkpt lat="43.30766" lon="-5.051053">
        <ele>223.91</ele>
      </trkpt>
      <trkpt lat="43.307735" lon="-5.051003">
        <ele>224.68</ele>
      </trkpt>
      <trkpt lat="43.307786" lon="-5.050999">
        <ele>224.54</ele>
      </trkpt>
      <trkpt lat="43.307911" lon="-5.050913">
        <ele>226.3</ele>
      </trkpt>
      <trkpt lat="43.307963" lon="-5.050848">
        <ele>227.29</ele>
      </trkpt>
      <trkpt lat="43.307995" lon="-5.050768">
        <ele>228.22</ele>
      </trkpt>
      <trkpt lat="43.308" lon="-5.050666">
        <ele>229.55</ele>
      </trkpt>
      <trkpt lat="43.307975" lon="-5.050585">
        <ele>230.71</ele>
      </trkpt>
      <trkpt lat="43.307931" lon="-5.050496">
        <ele>232.09</ele>
      </trkpt>
      <trkpt lat="43.307886" lon="-5.050448">
        <ele>232.5</ele>
      </trkpt>
      <trkpt lat="43.307844" lon="-5.050415">
        <ele>233.16</ele>
      </trkpt>
      <trkpt lat="43.307788" lon="-5.050415">
        <ele>233.31</ele>
      </trkpt>
      <trkpt lat="43.307509" lon="-5.05047">
        <ele>236.89</ele>
      </trkpt>
      <trkpt lat="43.307427" lon="-5.050482">
        <ele>237.21</ele>
      </trkpt>
      <trkpt lat="43.307333" lon="-5.050479">
        <ele>237.69</ele>
      </trkpt>
      <trkpt lat="43.307201" lon="-5.050455">
        <ele>238.01</ele>
      </trkpt>
      <trkpt lat="43.307084" lon="-5.050413">
        <ele>238.74</ele>
      </trkpt>
      <trkpt lat="43.306959" lon="-5.050347">
        <ele>240.12</ele>
      </trkpt>
      <trkpt lat="43.306861" lon="-5.050275">
        <ele>240.19</ele>
      </trkpt>
      <trkpt lat="43.306403" lon="-5.049799">
        <ele>246.94</ele>
      </trkpt>
      <trkpt lat="43.306308" lon="-5.049753">
        <ele>247.28</ele>
      </trkpt>
      <trkpt lat="43.306072" lon="-5.049711">
        <ele>248.6</ele>
      </trkpt>
      <trkpt lat="43.30601" lon="-5.049691">
        <ele>248.83</ele>
      </trkpt>
      <trkpt lat="43.305927" lon="-5.049639">
        <ele>249.79</ele>
      </trkpt>
      <trkpt lat="43.305864" lon="-5.049571">
        <ele>251.18</ele>
      </trkpt>
      <trkpt lat="43.305207" lon="-5.048692">
        <ele>257.96</ele>
      </trkpt>
      <trkpt lat="43.305094" lon="-5.048559">
        <ele>259.1</ele>
      </trkpt>
      <trkpt lat="43.305008" lon="-5.048481">
        <ele>260.62</ele>
      </trkpt>
      <trkpt lat="43.30491" lon="-5.04844">
        <ele>261.45</ele>
      </trkpt>
      <trkpt lat="43.304817" lon="-5.048437">
        <ele>262.08</ele>
      </trkpt>
      <trkpt lat="43.304698" lon="-5.048481">
        <ele>262.46</ele>
      </trkpt>
      <trkpt lat="43.304598" lon="-5.048545">
        <ele>262.47</ele>
      </trkpt>
      <trkpt lat="43.304382" lon="-5.048749">
        <ele>265.7</ele>
      </trkpt>
      <trkpt lat="43.304289" lon="-5.048875">
        <ele>267.76</ele>
      </trkpt>
      <trkpt lat="43.304238" lon="-5.049045">
        <ele>270.38</ele>
      </trkpt>
      <trkpt lat="43.30423" lon="-5.049156">
        <ele>270.32</ele>
      </trkpt>
      <trkpt lat="43.304235" lon="-5.049281">
        <ele>270.33</ele>
      </trkpt>
      <trkpt lat="43.304256" lon="-5.049423">
        <ele>270.17</ele>
      </trkpt>
      <trkpt lat="43.304305" lon="-5.049571">
        <ele>270.56</ele>
      </trkpt>
      <trkpt lat="43.304439" lon="-5.049848">
        <ele>272.04</ele>
      </trkpt>
      <trkpt lat="43.304485" lon="-5.049905">
        <ele>271.9</ele>
      </trkpt>
      <trkpt lat="43.30454" lon="-5.049951">
        <ele>271.64</ele>
      </trkpt>
      <trkpt lat="43.304633" lon="-5.049988">
        <ele>273.25</ele>
      </trkpt>
      <trkpt lat="43.304934" lon="-5.05007">
        <ele>275.99</ele>
      </trkpt>
      <trkpt lat="43.304994" lon="-5.050109">
        <ele>276.67</ele>
      </trkpt>
      <trkpt lat="43.305081" lon="-5.050202">
        <ele>278.22</ele>
      </trkpt>
      <trkpt lat="43.305112" lon="-5.050351">
        <ele>279.63</ele>
      </trkpt>
      <trkpt lat="43.305104" lon="-5.050469">
        <ele>280.59</ele>
      </trkpt>
      <trkpt lat="43.30506" lon="-5.05058">
        <ele>281.74</ele>
      </trkpt>
      <trkpt lat="43.30499" lon="-5.050657">
        <ele>282.81</ele>
      </trkpt>
      <trkpt lat="43.304926" lon="-5.050683">
        <ele>283.13</ele>
      </trkpt>
      <trkpt lat="43.304833" lon="-5.050686">
        <ele>283.74</ele>
      </trkpt>
      <trkpt lat="43.304731" lon="-5.050658">
        <ele>286.44</ele>
      </trkpt>
      <trkpt lat="43.304421" lon="-5.050486">
        <ele>289.17</ele>
      </trkpt>
      <trkpt lat="43.304156" lon="-5.050301">
        <ele>292.31</ele>
      </trkpt>
      <trkpt lat="43.304023" lon="-5.050166">
        <ele>292.06</ele>
      </trkpt>
      <trkpt lat="43.303851" lon="-5.04991">
        <ele>296.18</ele>
      </trkpt>
      <trkpt lat="43.303721" lon="-5.049647">
        <ele>300.77</ele>
      </trkpt>
      <trkpt lat="43.303639" lon="-5.049433">
        <ele>302.89</ele>
      </trkpt>
      <trkpt lat="43.303533" lon="-5.048979">
        <ele>302.85</ele>
      </trkpt>
      <trkpt lat="43.303445" lon="-5.048641">
        <ele>308.05</ele>
      </trkpt>
      <trkpt lat="43.303347" lon="-5.048408">
        <ele>309.72</ele>
      </trkpt>
      <trkpt lat="43.303192" lon="-5.048156">
        <ele>312.36</ele>
      </trkpt>
      <trkpt lat="43.303071" lon="-5.047933">
        <ele>313.47</ele>
      </trkpt>
      <trkpt lat="43.302953" lon="-5.047699">
        <ele>317.78</ele>
      </trkpt>
      <trkpt lat="43.302898" lon="-5.047517">
        <ele>319.78</ele>
      </trkpt>
      <trkpt lat="43.302865" lon="-5.047332">
        <ele>321.27</ele>
      </trkpt>
      <trkpt lat="43.302842" lon="-5.047039">
        <ele>321.97</ele>
      </trkpt>
      <trkpt lat="43.302744" lon="-5.046564">
        <ele>322.77</ele>
      </trkpt>
      <trkpt lat="43.302625" lon="-5.046158">
        <ele>324.59</ele>
      </trkpt>
      <trkpt lat="43.302506" lon="-5.045753">
        <ele>331.97</ele>
      </trkpt>
      <trkpt lat="43.302419" lon="-5.045357">
        <ele>332.39</ele>
      </trkpt>
      <trkpt lat="43.302332" lon="-5.044961">
        <ele>337.5</ele>
      </trkpt>
      <trkpt lat="43.302264" lon="-5.044489">
        <ele>341.94</ele>
      </trkpt>
      <trkpt lat="43.302218" lon="-5.043738">
        <ele>348.66</ele>
      </trkpt>
      <trkpt lat="43.302194" lon="-5.043414">
        <ele>355.2</ele>
      </trkpt>
      <trkpt lat="43.302167" lon="-5.042984">
        <ele>360.45</ele>
      </trkpt>
      <trkpt lat="43.302159" lon="-5.042714">
        <ele>361.26</ele>
      </trkpt>
      <trkpt lat="43.302163" lon="-5.042592">
        <ele>361.84</ele>
      </trkpt>
      <trkpt lat="43.302176" lon="-5.042557">
        <ele>361.81</ele>
      </trkpt>
      <trkpt lat="43.302212" lon="-5.042512">
        <ele>361.92</ele>
      </trkpt>
      <trkpt lat="43.302268" lon="-5.042471">
        <ele>362.52</ele>
      </trkpt>
      <trkpt lat="43.302418" lon="-5.042386">
        <ele>366.3</ele>
      </trkpt>
      <trkpt lat="43.302476" lon="-5.042377">
        <ele>367.38</ele>
      </trkpt>
      <trkpt lat="43.302542" lon="-5.042407">
        <ele>368.08</ele>
      </trkpt>
      <trkpt lat="43.302944" lon="-5.042653">
        <ele>372.97</ele>
      </trkpt>
      <trkpt lat="43.30318" lon="-5.042783">
        <ele>376.63</ele>
      </trkpt>
      <trkpt lat="43.303281" lon="-5.042819">
        <ele>377.56</ele>
      </trkpt>
      <trkpt lat="43.303741" lon="-5.042957">
        <ele>385.74</ele>
      </trkpt>
      <trkpt lat="43.303983" lon="-5.043033">
        <ele>387.97</ele>
      </trkpt>
      <trkpt lat="43.304048" lon="-5.043065">
        <ele>388.88</ele>
      </trkpt>
      <trkpt lat="43.304136" lon="-5.043143">
        <ele>390.06</ele>
      </trkpt>
      <trkpt lat="43.304267" lon="-5.043303">
        <ele>390.7</ele>
      </trkpt>
      <trkpt lat="43.304439" lon="-5.043488">
        <ele>393.22</ele>
      </trkpt>
      <trkpt lat="43.304625" lon="-5.043635">
        <ele>395.65</ele>
      </trkpt>
      <trkpt lat="43.304875" lon="-5.043796">
        <ele>397.87</ele>
      </trkpt>
      <trkpt lat="43.304962" lon="-5.043845">
        <ele>398.16</ele>
      </trkpt>
      <trkpt lat="43.305024" lon="-5.043866">
        <ele>398.61</ele>
      </trkpt>
      <trkpt lat="43.305091" lon="-5.043859">
        <ele>398.99</ele>
      </trkpt>
      <trkpt lat="43.305154" lon="-5.043832">
        <ele>399.74</ele>
      </trkpt>
      <trkpt lat="43.305223" lon="-5.04378">
        <ele>399.82</ele>
      </trkpt>
      <trkpt lat="43.305273" lon="-5.043723">
        <ele>400.17</ele>
      </trkpt>
      <trkpt lat="43.305313" lon="-5.043658">
        <ele>400.6</ele>
      </trkpt>
      <trkpt lat="43.305333" lon="-5.043608">
        <ele>400.91</ele>
      </trkpt>
      <trkpt lat="43.305332" lon="-5.043518">
        <ele>401.67</ele>
      </trkpt>
      <trkpt lat="43.305317" lon="-5.04348">
        <ele>401.98</ele>
      </trkpt>
      <trkpt lat="43.305297" lon="-5.043452">
        <ele>402.43</ele>
      </trkpt>
      <trkpt lat="43.305224" lon="-5.043434">
        <ele>403.53</ele>
      </trkpt>
      <trkpt lat="43.305186" lon="-5.043446">
        <ele>403.9</ele>
      </trkpt>
      <trkpt lat="43.305018" lon="-5.043563">
        <ele>405.55</ele>
      </trkpt>
      <trkpt lat="43.304979" lon="-5.043574">
        <ele>405.56</ele>
      </trkpt>
      <trkpt lat="43.304932" lon="-5.04357">
        <ele>405.75</ele>
      </trkpt>
      <trkpt lat="43.304892" lon="-5.043552">
        <ele>405.94</ele>
      </trkpt>
      <trkpt lat="43.304808" lon="-5.043475">
        <ele>406.53</ele>
      </trkpt>
      <trkpt lat="43.304659" lon="-5.04326">
        <ele>410.13</ele>
      </trkpt>
      <trkpt lat="43.304258" lon="-5.042642">
        <ele>417.57</ele>
      </trkpt>
      <trkpt lat="43.304098" lon="-5.042416">
        <ele>420.01</ele>
      </trkpt>
      <trkpt lat="43.303897" lon="-5.042168">
        <ele>421.93</ele>
      </trkpt>
      <trkpt lat="43.303516" lon="-5.041775">
        <ele>425.5</ele>
      </trkpt>
      <trkpt lat="43.303366" lon="-5.041608">
        <ele>427.39</ele>
      </trkpt>
      <trkpt lat="43.303259" lon="-5.041451">
        <ele>429.82</ele>
      </trkpt>
      <trkpt lat="43.303142" lon="-5.041257">
        <ele>433.01</ele>
      </trkpt>
      <trkpt lat="43.302564" lon="-5.040235">
        <ele>443.01</ele>
      </trkpt>
      <trkpt lat="43.30239" lon="-5.03993">
        <ele>444.67</ele>
      </trkpt>
      <trkpt lat="43.302109" lon="-5.039475">
        <ele>450.4</ele>
      </trkpt>
      <trkpt lat="43.30196" lon="-5.039314">
        <ele>453</ele>
      </trkpt>
      <trkpt lat="43.301918" lon="-5.039248">
        <ele>454.08</ele>
      </trkpt>
      <trkpt lat="43.301871" lon="-5.039149">
        <ele>454.75</ele>
      </trkpt>
      <trkpt lat="43.301851" lon="-5.039064">
        <ele>455.52</ele>
      </trkpt>
      <trkpt lat="43.301842" lon="-5.038991">
        <ele>456.17</ele>
      </trkpt>
      <trkpt lat="43.301867" lon="-5.038721">
        <ele>457.67</ele>
      </trkpt>
      <trkpt lat="43.301871" lon="-5.038586">
        <ele>458.83</ele>
      </trkpt>
      <trkpt lat="43.301844" lon="-5.038287">
        <ele>461.1</ele>
      </trkpt>
      <trkpt lat="43.301807" lon="-5.038134">
        <ele>462.14</ele>
      </trkpt>
      <trkpt lat="43.301743" lon="-5.037951">
        <ele>462.88</ele>
      </trkpt>
      <trkpt lat="43.301371" lon="-5.037053">
        <ele>472.08</ele>
      </trkpt>
      <trkpt lat="43.301321" lon="-5.036888">
        <ele>473.68</ele>
      </trkpt>
      <trkpt lat="43.30119" lon="-5.036366">
        <ele>479.54</ele>
      </trkpt>
      <trkpt lat="43.301168" lon="-5.036311">
        <ele>479.78</ele>
      </trkpt>
      <trkpt lat="43.301134" lon="-5.036263">
        <ele>479.71</ele>
      </trkpt>
      <trkpt lat="43.301103" lon="-5.036246">
        <ele>479.79</ele>
      </trkpt>
      <trkpt lat="43.301061" lon="-5.036241">
        <ele>479.47</ele>
      </trkpt>
      <trkpt lat="43.301014" lon="-5.036262">
        <ele>479.21</ele>
      </trkpt>
      <trkpt lat="43.300952" lon="-5.036294">
        <ele>480.97</ele>
      </trkpt>
      <trkpt lat="43.3009" lon="-5.03634">
        <ele>482.45</ele>
      </trkpt>
      <trkpt lat="43.300839" lon="-5.036417">
        <ele>483.06</ele>
      </trkpt>
      <trkpt lat="43.300597" lon="-5.036871">
        <ele>485.54</ele>
      </trkpt>
      <trkpt lat="43.300545" lon="-5.036996">
        <ele>486.7</ele>
      </trkpt>
      <trkpt lat="43.300519" lon="-5.037134">
        <ele>487.11</ele>
      </trkpt>
      <trkpt lat="43.300506" lon="-5.037277">
        <ele>487.54</ele>
      </trkpt>
      <trkpt lat="43.300509" lon="-5.037439">
        <ele>488.14</ele>
      </trkpt>
      <trkpt lat="43.300497" lon="-5.037496">
        <ele>488.07</ele>
      </trkpt>
      <trkpt lat="43.30048" lon="-5.03753">
        <ele>488.14</ele>
      </trkpt>
      <trkpt lat="43.300436" lon="-5.037545">
        <ele>489.08</ele>
      </trkpt>
      <trkpt lat="43.300401" lon="-5.037528">
        <ele>489.93</ele>
      </trkpt>
      <trkpt lat="43.30038" lon="-5.037494">
        <ele>490.77</ele>
      </trkpt>
      <trkpt lat="43.300373" lon="-5.037426">
        <ele>491.14</ele>
      </trkpt>
      <trkpt lat="43.300379" lon="-5.036953">
        <ele>494.05</ele>
      </trkpt>
      <trkpt lat="43.300359" lon="-5.036806">
        <ele>495.82</ele>
      </trkpt>
      <trkpt lat="43.300322" lon="-5.036651">
        <ele>496.27</ele>
      </trkpt>
      <trkpt lat="43.300182" lon="-5.036366">
        <ele>499.89</ele>
      </trkpt>
      <trkpt lat="43.300133" lon="-5.036223">
        <ele>500.57</ele>
      </trkpt>
      <trkpt lat="43.300105" lon="-5.036101">
        <ele>501.1</ele>
      </trkpt>
      <trkpt lat="43.299999" lon="-5.035263">
        <ele>506.71</ele>
      </trkpt>
      <trkpt lat="43.299944" lon="-5.034982">
        <ele>508.13</ele>
      </trkpt>
      <trkpt lat="43.299546" lon="-5.033541">
        <ele>518.61</ele>
      </trkpt>
      <trkpt lat="43.299528" lon="-5.033439">
        <ele>519.28</ele>
      </trkpt>
      <trkpt lat="43.29952" lon="-5.03332">
        <ele>520.11</ele>
      </trkpt>
      <trkpt lat="43.299528" lon="-5.033242">
        <ele>520.94</ele>
      </trkpt>
      <trkpt lat="43.299551" lon="-5.033154">
        <ele>521.54</ele>
      </trkpt>
      <trkpt lat="43.299588" lon="-5.03309">
        <ele>521.36</ele>
      </trkpt>
      <trkpt lat="43.299646" lon="-5.03303">
        <ele>521.49</ele>
      </trkpt>
      <trkpt lat="43.299734" lon="-5.032964">
        <ele>522.25</ele>
      </trkpt>
      <trkpt lat="43.299803" lon="-5.032928">
        <ele>523.07</ele>
      </trkpt>
      <trkpt lat="43.299876" lon="-5.032917">
        <ele>524.11</ele>
      </trkpt>
      <trkpt lat="43.299953" lon="-5.032932">
        <ele>524.75</ele>
      </trkpt>
      <trkpt lat="43.300303" lon="-5.033115">
        <ele>527.41</ele>
      </trkpt>
      <trkpt lat="43.30066" lon="-5.033366">
        <ele>529.33</ele>
      </trkpt>
      <trkpt lat="43.301001" lon="-5.033633">
        <ele>531.14</ele>
      </trkpt>
      <trkpt lat="43.301357" lon="-5.033839">
        <ele>532.15</ele>
      </trkpt>
      <trkpt lat="43.301489" lon="-5.03394">
        <ele>533.33</ele>
      </trkpt>
      <trkpt lat="43.3016" lon="-5.034062">
        <ele>533.47</ele>
      </trkpt>
      <trkpt lat="43.301716" lon="-5.034212">
        <ele>533.74</ele>
      </trkpt>
      <trkpt lat="43.30175" lon="-5.034232">
        <ele>534.06</ele>
      </trkpt>
      <trkpt lat="43.30179" lon="-5.034232">
        <ele>534.65</ele>
      </trkpt>
      <trkpt lat="43.301815" lon="-5.034203">
        <ele>535.19</ele>
      </trkpt>
      <trkpt lat="43.301828" lon="-5.034163">
        <ele>535.79</ele>
      </trkpt>
      <trkpt lat="43.301829" lon="-5.034121">
        <ele>536.39</ele>
      </trkpt>
      <trkpt lat="43.301789" lon="-5.034029">
        <ele>537.09</ele>
      </trkpt>
      <trkpt lat="43.301512" lon="-5.033696">
        <ele>539.27</ele>
      </trkpt>
      <trkpt lat="43.301159" lon="-5.033229">
        <ele>544.94</ele>
      </trkpt>
      <trkpt lat="43.301083" lon="-5.03311">
        <ele>545.4</ele>
      </trkpt>
      <trkpt lat="43.301018" lon="-5.032954">
        <ele>547.35</ele>
      </trkpt>
      <trkpt lat="43.300959" lon="-5.03277">
        <ele>548.68</ele>
      </trkpt>
      <trkpt lat="43.300861" lon="-5.03232">
        <ele>552.8</ele>
      </trkpt>
      <trkpt lat="43.300804" lon="-5.032185">
        <ele>554</ele>
      </trkpt>
      <trkpt lat="43.300672" lon="-5.031955">
        <ele>557.13</ele>
      </trkpt>
      <trkpt lat="43.300636" lon="-5.031874">
        <ele>557.5</ele>
      </trkpt>
      <trkpt lat="43.30062" lon="-5.031806">
        <ele>557.96</ele>
      </trkpt>
      <trkpt lat="43.300616" lon="-5.03172">
        <ele>558.94</ele>
      </trkpt>
      <trkpt lat="43.300632" lon="-5.031375">
        <ele>562.09</ele>
      </trkpt>
      <trkpt lat="43.300625" lon="-5.031286">
        <ele>562.51</ele>
      </trkpt>
      <trkpt lat="43.300606" lon="-5.031199">
        <ele>563.47</ele>
      </trkpt>
      <trkpt lat="43.300484" lon="-5.030886">
        <ele>565.65</ele>
      </trkpt>
      <trkpt lat="43.300291" lon="-5.030454">
        <ele>569.43</ele>
      </trkpt>
      <trkpt lat="43.300203" lon="-5.030324">
        <ele>571.42</ele>
      </trkpt>
      <trkpt lat="43.300121" lon="-5.030274">
        <ele>572.51</ele>
      </trkpt>
      <trkpt lat="43.299767" lon="-5.030215">
        <ele>576.28</ele>
      </trkpt>
      <trkpt lat="43.299661" lon="-5.03014">
        <ele>577.22</ele>
      </trkpt>
      <trkpt lat="43.298978" lon="-5.029335">
        <ele>587.33</ele>
      </trkpt>
      <trkpt lat="43.298644" lon="-5.028911">
        <ele>592.73</ele>
      </trkpt>
      <trkpt lat="43.29857" lon="-5.02883">
        <ele>593.91</ele>
      </trkpt>
      <trkpt lat="43.298512" lon="-5.028798">
        <ele>594.54</ele>
      </trkpt>
      <trkpt lat="43.298459" lon="-5.028791">
        <ele>595.63</ele>
      </trkpt>
      <trkpt lat="43.298397" lon="-5.028801">
        <ele>596.63</ele>
      </trkpt>
      <trkpt lat="43.29835" lon="-5.028829">
        <ele>597.48</ele>
      </trkpt>
      <trkpt lat="43.298307" lon="-5.028868">
        <ele>597.93</ele>
      </trkpt>
      <trkpt lat="43.298241" lon="-5.029011">
        <ele>598.86</ele>
      </trkpt>
      <trkpt lat="43.298183" lon="-5.029265">
        <ele>600.36</ele>
      </trkpt>
      <trkpt lat="43.298148" lon="-5.029347">
        <ele>601.14</ele>
      </trkpt>
      <trkpt lat="43.29811" lon="-5.029404">
        <ele>601.42</ele>
      </trkpt>
      <trkpt lat="43.298065" lon="-5.02945">
        <ele>601.78</ele>
      </trkpt>
      <trkpt lat="43.298013" lon="-5.029476">
        <ele>602.72</ele>
      </trkpt>
      <trkpt lat="43.297925" lon="-5.029489">
        <ele>603.57</ele>
      </trkpt>
      <trkpt lat="43.297639" lon="-5.029455">
        <ele>605.3</ele>
      </trkpt>
      <trkpt lat="43.29753" lon="-5.029483">
        <ele>607.76</ele>
      </trkpt>
      <trkpt lat="43.297384" lon="-5.029549">
        <ele>609.01</ele>
      </trkpt>
      <trkpt lat="43.297271" lon="-5.029583">
        <ele>609.87</ele>
      </trkpt>
      <trkpt lat="43.297124" lon="-5.029607">
        <ele>611.36</ele>
      </trkpt>
      <trkpt lat="43.297061" lon="-5.0296">
        <ele>612.07</ele>
      </trkpt>
      <trkpt lat="43.296989" lon="-5.029568">
        <ele>613.4</ele>
      </trkpt>
      <trkpt lat="43.296934" lon="-5.029501">
        <ele>614.51</ele>
      </trkpt>
      <trkpt lat="43.296902" lon="-5.029441">
        <ele>615.21</ele>
      </trkpt>
      <trkpt lat="43.296883" lon="-5.029348">
        <ele>616.13</ele>
      </trkpt>
      <trkpt lat="43.296885" lon="-5.029254">
        <ele>616.6</ele>
      </trkpt>
      <trkpt lat="43.296913" lon="-5.02909">
        <ele>617.91</ele>
      </trkpt>
      <trkpt lat="43.297015" lon="-5.028699">
        <ele>621.8</ele>
      </trkpt>
      <trkpt lat="43.297109" lon="-5.028436">
        <ele>622.79</ele>
      </trkpt>
      <trkpt lat="43.297257" lon="-5.028193">
        <ele>626.67</ele>
      </trkpt>
      <trkpt lat="43.297454" lon="-5.027885">
        <ele>629.13</ele>
      </trkpt>
      <trkpt lat="43.297492" lon="-5.027806">
        <ele>629.87</ele>
      </trkpt>
      <trkpt lat="43.29751" lon="-5.027725">
        <ele>630.46</ele>
      </trkpt>
      <trkpt lat="43.297509" lon="-5.027645">
        <ele>630.94</ele>
      </trkpt>
      <trkpt lat="43.297493" lon="-5.027552">
        <ele>631.76</ele>
      </trkpt>
      <trkpt lat="43.297409" lon="-5.027342">
        <ele>632.95</ele>
      </trkpt>
      <trkpt lat="43.297391" lon="-5.027272">
        <ele>633.33</ele>
      </trkpt>
      <trkpt lat="43.297383" lon="-5.027045">
        <ele>635.61</ele>
      </trkpt>
      <trkpt lat="43.297397" lon="-5.02686">
        <ele>637.69</ele>
      </trkpt>
      <trkpt lat="43.297384" lon="-5.026708">
        <ele>638.1</ele>
      </trkpt>
      <trkpt lat="43.297356" lon="-5.02656">
        <ele>638.4</ele>
      </trkpt>
      <trkpt lat="43.297285" lon="-5.026261">
        <ele>642.37</ele>
      </trkpt>
      <trkpt lat="43.297268" lon="-5.026119">
        <ele>642.9</ele>
      </trkpt>
      <trkpt lat="43.297267" lon="-5.026007">
        <ele>643.53</ele>
      </trkpt>
      <trkpt lat="43.297352" lon="-5.025422">
        <ele>647.64</ele>
      </trkpt>
      <trkpt lat="43.297388" lon="-5.025306">
        <ele>649.42</ele>
      </trkpt>
      <trkpt lat="43.297482" lon="-5.025086">
        <ele>651.19</ele>
      </trkpt>
      <trkpt lat="43.2975" lon="-5.024999">
        <ele>651.82</ele>
      </trkpt>
      <trkpt lat="43.29751" lon="-5.024886">
        <ele>652.74</ele>
      </trkpt>
      <trkpt lat="43.297506" lon="-5.024761">
        <ele>653.36</ele>
      </trkpt>
      <trkpt lat="43.297476" lon="-5.024625">
        <ele>654.05</ele>
      </trkpt>
      <trkpt lat="43.297436" lon="-5.024512">
        <ele>654.97</ele>
      </trkpt>
      <trkpt lat="43.297323" lon="-5.02435">
        <ele>656.11</ele>
      </trkpt>
      <trkpt lat="43.296996" lon="-5.023988">
        <ele>660.45</ele>
      </trkpt>
      <trkpt lat="43.296916" lon="-5.023865">
        <ele>661.45</ele>
      </trkpt>
      <trkpt lat="43.296846" lon="-5.023714">
        <ele>662.93</ele>
      </trkpt>
      <trkpt lat="43.296803" lon="-5.023592">
        <ele>664.4</ele>
      </trkpt>
      <trkpt lat="43.296784" lon="-5.023489">
        <ele>665.7</ele>
      </trkpt>
      <trkpt lat="43.296777" lon="-5.02339">
        <ele>666.78</ele>
      </trkpt>
      <trkpt lat="43.296796" lon="-5.023266">
        <ele>667.67</ele>
      </trkpt>
      <trkpt lat="43.296843" lon="-5.023067">
        <ele>668.8</ele>
      </trkpt>
      <trkpt lat="43.296854" lon="-5.022871">
        <ele>669.86</ele>
      </trkpt>
      <trkpt lat="43.296832" lon="-5.022766">
        <ele>670.77</ele>
      </trkpt>
      <trkpt lat="43.296767" lon="-5.022609">
        <ele>671.96</ele>
      </trkpt>
      <trkpt lat="43.2966" lon="-5.022337">
        <ele>673.95</ele>
      </trkpt>
      <trkpt lat="43.296557" lon="-5.022248">
        <ele>674.9</ele>
      </trkpt>
      <trkpt lat="43.296532" lon="-5.022163">
        <ele>675.99</ele>
      </trkpt>
      <trkpt lat="43.296533" lon="-5.022086">
        <ele>676.99</ele>
      </trkpt>
      <trkpt lat="43.296556" lon="-5.022004">
        <ele>678.3</ele>
      </trkpt>
      <trkpt lat="43.29665" lon="-5.021782">
        <ele>680.26</ele>
      </trkpt>
      <trkpt lat="43.296664" lon="-5.021692">
        <ele>680.99</ele>
      </trkpt>
      <trkpt lat="43.296659" lon="-5.021593">
        <ele>681.49</ele>
      </trkpt>
      <trkpt lat="43.296615" lon="-5.021394">
        <ele>682.75</ele>
      </trkpt>
      <trkpt lat="43.296478" lon="-5.020865">
        <ele>686.21</ele>
      </trkpt>
      <trkpt lat="43.296425" lon="-5.02055">
        <ele>689.68</ele>
      </trkpt>
      <trkpt lat="43.296338" lon="-5.019877">
        <ele>695.95</ele>
      </trkpt>
      <trkpt lat="43.29633" lon="-5.019731">
        <ele>697.08</ele>
      </trkpt>
      <trkpt lat="43.296343" lon="-5.019482">
        <ele>700.77</ele>
      </trkpt>
      <trkpt lat="43.296339" lon="-5.019398">
        <ele>702</ele>
      </trkpt>
      <trkpt lat="43.296323" lon="-5.019335">
        <ele>702.74</ele>
      </trkpt>
      <trkpt lat="43.296277" lon="-5.019215">
        <ele>702.85</ele>
      </trkpt>
      <trkpt lat="43.296262" lon="-5.019149">
        <ele>703.42</ele>
      </trkpt>
      <trkpt lat="43.296242" lon="-5.018887">
        <ele>707.63</ele>
      </trkpt>
      <trkpt lat="43.296224" lon="-5.018769">
        <ele>707.95</ele>
      </trkpt>
      <trkpt lat="43.296179" lon="-5.018574">
        <ele>710.14</ele>
      </trkpt>
      <trkpt lat="43.295912" lon="-5.017774">
        <ele>718.83</ele>
      </trkpt>
      <trkpt lat="43.295885" lon="-5.017662">
        <ele>720.81</ele>
      </trkpt>
      <trkpt lat="43.295706" lon="-5.016197">
        <ele>738.34</ele>
      </trkpt>
      <trkpt lat="43.295655" lon="-5.016008">
        <ele>740.32</ele>
      </trkpt>
      <trkpt lat="43.295543" lon="-5.015715">
        <ele>742.78</ele>
      </trkpt>
      <trkpt lat="43.295386" lon="-5.015355">
        <ele>747.93</ele>
      </trkpt>
      <trkpt lat="43.295345" lon="-5.015231">
        <ele>750.71</ele>
      </trkpt>
      <trkpt lat="43.295315" lon="-5.015084">
        <ele>752.82</ele>
      </trkpt>
      <trkpt lat="43.295277" lon="-5.014715">
        <ele>757.17</ele>
      </trkpt>
      <trkpt lat="43.295255" lon="-5.014608">
        <ele>757.22</ele>
      </trkpt>
      <trkpt lat="43.29522" lon="-5.014504">
        <ele>758.7</ele>
      </trkpt>
      <trkpt lat="43.295149" lon="-5.014363">
        <ele>760.05</ele>
      </trkpt>
      <trkpt lat="43.295" lon="-5.01416">
        <ele>762.65</ele>
      </trkpt>
      <trkpt lat="43.294772" lon="-5.013728">
        <ele>770.07</ele>
      </trkpt>
      <trkpt lat="43.294512" lon="-5.013206">
        <ele>777.96</ele>
      </trkpt>
      <trkpt lat="43.294429" lon="-5.013079">
        <ele>780.26</ele>
      </trkpt>
      <trkpt lat="43.294304" lon="-5.012973">
        <ele>781.94</ele>
      </trkpt>
      <trkpt lat="43.294181" lon="-5.012889">
        <ele>784.09</ele>
      </trkpt>
      <trkpt lat="43.294089" lon="-5.012843">
        <ele>785.51</ele>
      </trkpt>
      <trkpt lat="43.294048" lon="-5.012837">
        <ele>785.88</ele>
      </trkpt>
      <trkpt lat="43.293978" lon="-5.012844">
        <ele>786.68</ele>
      </trkpt>
      <trkpt lat="43.293913" lon="-5.012869">
        <ele>787.51</ele>
      </trkpt>
      <trkpt lat="43.293862" lon="-5.012911">
        <ele>788.13</ele>
      </trkpt>
      <trkpt lat="43.293806" lon="-5.012977">
        <ele>789.08</ele>
      </trkpt>
      <trkpt lat="43.293676" lon="-5.013226">
        <ele>791.67</ele>
      </trkpt>
      <trkpt lat="43.293595" lon="-5.013366">
        <ele>794.24</ele>
      </trkpt>
      <trkpt lat="43.293553" lon="-5.013459">
        <ele>795.31</ele>
      </trkpt>
      <trkpt lat="43.293497" lon="-5.013668">
        <ele>798.21</ele>
      </trkpt>
      <trkpt lat="43.29346" lon="-5.013951">
        <ele>800.98</ele>
      </trkpt>
      <trkpt lat="43.293426" lon="-5.014131">
        <ele>801.65</ele>
      </trkpt>
      <trkpt lat="43.293377" lon="-5.014321">
        <ele>804.04</ele>
      </trkpt>
      <trkpt lat="43.293323" lon="-5.014484">
        <ele>805.28</ele>
      </trkpt>
      <trkpt lat="43.293106" lon="-5.01501">
        <ele>809.46</ele>
      </trkpt>
      <trkpt lat="43.292997" lon="-5.01525">
        <ele>810.23</ele>
      </trkpt>
      <trkpt lat="43.292717" lon="-5.0157">
        <ele>815.23</ele>
      </trkpt>
      <trkpt lat="43.292646" lon="-5.015777">
        <ele>816.7</ele>
      </trkpt>
      <trkpt lat="43.292561" lon="-5.015849">
        <ele>819.74</ele>
      </trkpt>
      <trkpt lat="43.292475" lon="-5.015986">
        <ele>822.41</ele>
      </trkpt>
      <trkpt lat="43.292419" lon="-5.01612">
        <ele>824</ele>
      </trkpt>
      <trkpt lat="43.292386" lon="-5.01616">
        <ele>824.46</ele>
      </trkpt>
      <trkpt lat="43.292349" lon="-5.016183">
        <ele>824.19</ele>
      </trkpt>
      <trkpt lat="43.292292" lon="-5.016187">
        <ele>824.24</ele>
      </trkpt>
      <trkpt lat="43.292148" lon="-5.016147">
        <ele>826.5</ele>
      </trkpt>
      <trkpt lat="43.292067" lon="-5.016133">
        <ele>827.49</ele>
      </trkpt>
      <trkpt lat="43.291873" lon="-5.016143">
        <ele>829.85</ele>
      </trkpt>
      <trkpt lat="43.291744" lon="-5.016106">
        <ele>831.04</ele>
      </trkpt>
      <trkpt lat="43.29126" lon="-5.015759">
        <ele>835.76</ele>
      </trkpt>
      <trkpt lat="43.291193" lon="-5.015736">
        <ele>836.05</ele>
      </trkpt>
      <trkpt lat="43.291114" lon="-5.015724">
        <ele>836.41</ele>
      </trkpt>
      <trkpt lat="43.290737" lon="-5.015753">
        <ele>840.79</ele>
      </trkpt>
      <trkpt lat="43.290679" lon="-5.015738">
        <ele>841.28</ele>
      </trkpt>
      <trkpt lat="43.290634" lon="-5.015708">
        <ele>842.24</ele>
      </trkpt>
      <trkpt lat="43.290594" lon="-5.015664">
        <ele>842.8</ele>
      </trkpt>
      <trkpt lat="43.290553" lon="-5.015597">
        <ele>844.06</ele>
      </trkpt>
      <trkpt lat="43.290479" lon="-5.015438">
        <ele>846.09</ele>
      </trkpt>
      <trkpt lat="43.290408" lon="-5.015234">
        <ele>847.97</ele>
      </trkpt>
      <trkpt lat="43.290352" lon="-5.015007">
        <ele>850.56</ele>
      </trkpt>
      <trkpt lat="43.290291" lon="-5.014709">
        <ele>854.18</ele>
      </trkpt>
      <trkpt lat="43.290226" lon="-5.014558">
        <ele>855.34</ele>
      </trkpt>
      <trkpt lat="43.290073" lon="-5.014283">
        <ele>858.37</ele>
      </trkpt>
      <trkpt lat="43.290038" lon="-5.014248">
        <ele>858.33</ele>
      </trkpt>
      <trkpt lat="43.290004" lon="-5.01423">
        <ele>858.19</ele>
      </trkpt>
      <trkpt lat="43.289923" lon="-5.014223">
        <ele>859.5</ele>
      </trkpt>
      <trkpt lat="43.289621" lon="-5.014226">
        <ele>863.16</ele>
      </trkpt>
      <trkpt lat="43.289478" lon="-5.014213">
        <ele>864.4</ele>
      </trkpt>
      <trkpt lat="43.289408" lon="-5.014192">
        <ele>865.26</ele>
      </trkpt>
      <trkpt lat="43.289365" lon="-5.014159">
        <ele>866.27</ele>
      </trkpt>
      <trkpt lat="43.28933" lon="-5.014099">
        <ele>867.52</ele>
      </trkpt>
      <trkpt lat="43.289312" lon="-5.014042">
        <ele>868.38</ele>
      </trkpt>
      <trkpt lat="43.289307" lon="-5.013984">
        <ele>869.05</ele>
      </trkpt>
      <trkpt lat="43.289341" lon="-5.013782">
        <ele>871.52</ele>
      </trkpt>
      <trkpt lat="43.28939" lon="-5.01361">
        <ele>873.13</ele>
      </trkpt>
      <trkpt lat="43.289397" lon="-5.013537">
        <ele>873.85</ele>
      </trkpt>
      <trkpt lat="43.289393" lon="-5.013452">
        <ele>875.38</ele>
      </trkpt>
      <trkpt lat="43.289375" lon="-5.013368">
        <ele>877.18</ele>
      </trkpt>
      <trkpt lat="43.289322" lon="-5.013215">
        <ele>878.9</ele>
      </trkpt>
      <trkpt lat="43.289309" lon="-5.013085">
        <ele>879.92</ele>
      </trkpt>
      <trkpt lat="43.289321" lon="-5.013036">
        <ele>879.96</ele>
      </trkpt>
      <trkpt lat="43.289348" lon="-5.012971">
        <ele>880.53</ele>
      </trkpt>
      <trkpt lat="43.289386" lon="-5.012907">
        <ele>881.16</ele>
      </trkpt>
      <trkpt lat="43.28944" lon="-5.01285">
        <ele>881.86</ele>
      </trkpt>
      <trkpt lat="43.289487" lon="-5.012823">
        <ele>882.43</ele>
      </trkpt>
      <trkpt lat="43.289536" lon="-5.012814">
        <ele>883.41</ele>
      </trkpt>
      <trkpt lat="43.289581" lon="-5.012822">
        <ele>884.31</ele>
      </trkpt>
      <trkpt lat="43.28963" lon="-5.012844">
        <ele>884.68</ele>
      </trkpt>
      <trkpt lat="43.290035" lon="-5.013218">
        <ele>890.4</ele>
      </trkpt>
      <trkpt lat="43.290175" lon="-5.013316">
        <ele>892.02</ele>
      </trkpt>
      <trkpt lat="43.290212" lon="-5.013323">
        <ele>892.92</ele>
      </trkpt>
      <trkpt lat="43.290247" lon="-5.013311">
        <ele>894.23</ele>
      </trkpt>
      <trkpt lat="43.290274" lon="-5.013283">
        <ele>895.33</ele>
      </trkpt>
      <trkpt lat="43.29029" lon="-5.013249">
        <ele>896.25</ele>
      </trkpt>
      <trkpt lat="43.2903" lon="-5.013188">
        <ele>897.53</ele>
      </trkpt>
      <trkpt lat="43.290288" lon="-5.012903">
        <ele>899.53</ele>
      </trkpt>
      <trkpt lat="43.290292" lon="-5.012813">
        <ele>900.01</ele>
      </trkpt>
      <trkpt lat="43.290305" lon="-5.012715">
        <ele>900.66</ele>
      </trkpt>
      <trkpt lat="43.290376" lon="-5.012462">
        <ele>901.78</ele>
      </trkpt>
      <trkpt lat="43.290397" lon="-5.012325">
        <ele>900.43</ele>
      </trkpt>
      <trkpt lat="43.290389" lon="-5.012246">
        <ele>900.22</ele>
      </trkpt>
      <trkpt lat="43.290371" lon="-5.012166">
        <ele>899.39</ele>
      </trkpt>
      <trkpt lat="43.290266" lon="-5.011881">
        <ele>899.42</ele>
      </trkpt>
      <trkpt lat="43.290139" lon="-5.011579">
        <ele>898.17</ele>
      </trkpt>
      <trkpt lat="43.290117" lon="-5.011506">
        <ele>898.03</ele>
      </trkpt>
      <trkpt lat="43.290109" lon="-5.011441">
        <ele>898.37</ele>
      </trkpt>
      <trkpt lat="43.290107" lon="-5.011353">
        <ele>899.69</ele>
      </trkpt>
      <trkpt lat="43.290116" lon="-5.01124">
        <ele>900.57</ele>
      </trkpt>
      <trkpt lat="43.290109" lon="-5.011014">
        <ele>899.97</ele>
      </trkpt>
      <trkpt lat="43.290113" lon="-5.010952">
        <ele>900.23</ele>
      </trkpt>
      <trkpt lat="43.290144" lon="-5.010862">
        <ele>901.49</ele>
      </trkpt>
      <trkpt lat="43.290339" lon="-5.010593">
        <ele>904.96</ele>
      </trkpt>
      <trkpt lat="43.290382" lon="-5.01052">
        <ele>904.63</ele>
      </trkpt>
      <trkpt lat="43.290413" lon="-5.01045">
        <ele>903.77</ele>
      </trkpt>
      <trkpt lat="43.290432" lon="-5.010372">
        <ele>902.85</ele>
      </trkpt>
      <trkpt lat="43.290442" lon="-5.010298">
        <ele>901.28</ele>
      </trkpt>
      <trkpt lat="43.290456" lon="-5.009941">
        <ele>900.89</ele>
      </trkpt>
      <trkpt lat="43.290472" lon="-5.009882">
        <ele>901.08</ele>
      </trkpt>
      <trkpt lat="43.290499" lon="-5.009829">
        <ele>901.45</ele>
      </trkpt>
      <trkpt lat="43.290533" lon="-5.009792">
        <ele>901.92</ele>
      </trkpt>
      <trkpt lat="43.290576" lon="-5.009769">
        <ele>902.67</ele>
      </trkpt>
      <trkpt lat="43.290633" lon="-5.009754">
        <ele>897.6</ele>
      </trkpt>
      <trkpt lat="43.290829" lon="-5.009716">
        <ele>897.56</ele>
      </trkpt>
      <trkpt lat="43.290881" lon="-5.009695">
        <ele>896.95</ele>
      </trkpt>
      <trkpt lat="43.290922" lon="-5.009664">
        <ele>896.51</ele>
      </trkpt>
      <trkpt lat="43.290979" lon="-5.009596">
        <ele>897.02</ele>
      </trkpt>
      <trkpt lat="43.291043" lon="-5.009494">
        <ele>896.81</ele>
      </trkpt>
      <trkpt lat="43.291072" lon="-5.009426">
        <ele>896.98</ele>
      </trkpt>
      <trkpt lat="43.291097" lon="-5.009312">
        <ele>898.68</ele>
      </trkpt>
      <trkpt lat="43.291095" lon="-5.009239">
        <ele>899.53</ele>
      </trkpt>
      <trkpt lat="43.291077" lon="-5.00917">
        <ele>900.26</ele>
      </trkpt>
      <trkpt lat="43.291018" lon="-5.00904">
        <ele>900.64</ele>
      </trkpt>
      <trkpt lat="43.29099" lon="-5.008944">
        <ele>900.96</ele>
      </trkpt>
      <trkpt lat="43.290965" lon="-5.008808">
        <ele>900.99</ele>
      </trkpt>
      <trkpt lat="43.290955" lon="-5.008653">
        <ele>901.13</ele>
      </trkpt>
      <trkpt lat="43.290968" lon="-5.00854">
        <ele>901.39</ele>
      </trkpt>
      <trkpt lat="43.291018" lon="-5.008416">
        <ele>903.01</ele>
      </trkpt>
      <trkpt lat="43.291227" lon="-5.007991">
        <ele>907.79</ele>
      </trkpt>
      <trkpt lat="43.291251" lon="-5.007914">
        <ele>908.62</ele>
      </trkpt>
      <trkpt lat="43.291261" lon="-5.007853">
        <ele>909.24</ele>
      </trkpt>
      <trkpt lat="43.291259" lon="-5.007791">
        <ele>909.95</ele>
      </trkpt>
      <trkpt lat="43.291244" lon="-5.007709">
        <ele>910.79</ele>
      </trkpt>
      <trkpt lat="43.291188" lon="-5.007545">
        <ele>912.62</ele>
      </trkpt>
      <trkpt lat="43.291025" lon="-5.007155">
        <ele>918.31</ele>
      </trkpt>
      <trkpt lat="43.290998" lon="-5.007111">
        <ele>919.5</ele>
      </trkpt>
      <trkpt lat="43.29095" lon="-5.007064">
        <ele>920.76</ele>
      </trkpt>
      <trkpt lat="43.290886" lon="-5.007038">
        <ele>921.17</ele>
      </trkpt>
      <trkpt lat="43.290364" lon="-5.006936">
        <ele>926.73</ele>
      </trkpt>
      <trkpt lat="43.290268" lon="-5.006873">
        <ele>928.33</ele>
      </trkpt>
      <trkpt lat="43.290227" lon="-5.006807">
        <ele>929.35</ele>
      </trkpt>
      <trkpt lat="43.290204" lon="-5.00674">
        <ele>929.9</ele>
      </trkpt>
      <trkpt lat="43.290193" lon="-5.00665">
        <ele>930.67</ele>
      </trkpt>
      <trkpt lat="43.290189" lon="-5.006472">
        <ele>932.99</ele>
      </trkpt>
      <trkpt lat="43.290174" lon="-5.006334">
        <ele>933.88</ele>
      </trkpt>
      <trkpt lat="43.28998" lon="-5.005226">
        <ele>943.77</ele>
      </trkpt>
      <trkpt lat="43.289948" lon="-5.005133">
        <ele>945.26</ele>
      </trkpt>
      <trkpt lat="43.289909" lon="-5.00506">
        <ele>946.43</ele>
      </trkpt>
      <trkpt lat="43.289851" lon="-5.004981">
        <ele>947.33</ele>
      </trkpt>
      <trkpt lat="43.289761" lon="-5.004906">
        <ele>947.62</ele>
      </trkpt>
      <trkpt lat="43.289583" lon="-5.004782">
        <ele>949.46</ele>
      </trkpt>
      <trkpt lat="43.289472" lon="-5.004729">
        <ele>950.7</ele>
      </trkpt>
      <trkpt lat="43.289386" lon="-5.004703">
        <ele>951.62</ele>
      </trkpt>
      <trkpt lat="43.288524" lon="-5.004605">
        <ele>957.02</ele>
      </trkpt>
      <trkpt lat="43.28846" lon="-5.004611">
        <ele>956.9</ele>
      </trkpt>
      <trkpt lat="43.288402" lon="-5.004641">
        <ele>956.51</ele>
      </trkpt>
      <trkpt lat="43.288341" lon="-5.004693">
        <ele>956.94</ele>
      </trkpt>
      <trkpt lat="43.288274" lon="-5.004797">
        <ele>957.4</ele>
      </trkpt>
      <trkpt lat="43.288225" lon="-5.00489">
        <ele>958.3</ele>
      </trkpt>
      <trkpt lat="43.288192" lon="-5.004978">
        <ele>958.87</ele>
      </trkpt>
      <trkpt lat="43.288172" lon="-5.005088">
        <ele>959.11</ele>
      </trkpt>
      <trkpt lat="43.288171" lon="-5.005201">
        <ele>959.83</ele>
      </trkpt>
      <trkpt lat="43.28821" lon="-5.005865">
        <ele>964.29</ele>
      </trkpt>
      <trkpt lat="43.288205" lon="-5.005923">
        <ele>965.26</ele>
      </trkpt>
      <trkpt lat="43.288187" lon="-5.005977">
        <ele>966.67</ele>
      </trkpt>
      <trkpt lat="43.288156" lon="-5.006026">
        <ele>967.54</ele>
      </trkpt>
      <trkpt lat="43.288098" lon="-5.006084">
        <ele>969.13</ele>
      </trkpt>
      <trkpt lat="43.287949" lon="-5.006198">
        <ele>971.87</ele>
      </trkpt>
      <trkpt lat="43.287794" lon="-5.006341">
        <ele>972.81</ele>
      </trkpt>
      <trkpt lat="43.287575" lon="-5.006595">
        <ele>975.81</ele>
      </trkpt>
      <trkpt lat="43.287538" lon="-5.006624">
        <ele>976.64</ele>
      </trkpt>
      <trkpt lat="43.287479" lon="-5.00665">
        <ele>977.76</ele>
      </trkpt>
      <trkpt lat="43.286982" lon="-5.006787">
        <ele>982.61</ele>
      </trkpt>
      <trkpt lat="43.286758" lon="-5.006858">
        <ele>984.54</ele>
      </trkpt>
      <trkpt lat="43.2867" lon="-5.006881">
        <ele>984.6</ele>
      </trkpt>
      <trkpt lat="43.286664" lon="-5.006913">
        <ele>984.35</ele>
      </trkpt>
      <trkpt lat="43.286638" lon="-5.006959">
        <ele>983.81</ele>
      </trkpt>
      <trkpt lat="43.286615" lon="-5.007033">
        <ele>983.22</ele>
      </trkpt>
      <trkpt lat="43.286588" lon="-5.007166">
        <ele>983.32</ele>
      </trkpt>
      <trkpt lat="43.286567" lon="-5.007327">
        <ele>983.13</ele>
      </trkpt>
      <trkpt lat="43.286566" lon="-5.007429">
        <ele>982.9</ele>
      </trkpt>
      <trkpt lat="43.28659" lon="-5.007616">
        <ele>982.19</ele>
      </trkpt>
      <trkpt lat="43.286589" lon="-5.007663">
        <ele>982.84</ele>
      </trkpt>
      <trkpt lat="43.286577" lon="-5.007716">
        <ele>984.46</ele>
      </trkpt>
      <trkpt lat="43.286527" lon="-5.007819">
        <ele>987.46</ele>
      </trkpt>
      <trkpt lat="43.28649" lon="-5.007861">
        <ele>988.54</ele>
      </trkpt>
      <trkpt lat="43.286443" lon="-5.007889">
        <ele>988.98</ele>
      </trkpt>
      <trkpt lat="43.286379" lon="-5.007909">
        <ele>989.74</ele>
      </trkpt>
      <trkpt lat="43.286192" lon="-5.007906">
        <ele>988.85</ele>
      </trkpt>
      <trkpt lat="43.28607" lon="-5.007939">
        <ele>989.61</ele>
      </trkpt>
      <trkpt lat="43.285859" lon="-5.008064">
        <ele>995.44</ele>
      </trkpt>
      <trkpt lat="43.285795" lon="-5.008123">
        <ele>997.22</ele>
      </trkpt>
      <trkpt lat="43.285754" lon="-5.008187">
        <ele>997.11</ele>
      </trkpt>
      <trkpt lat="43.28572" lon="-5.008286">
        <ele>997.02</ele>
      </trkpt>
      <trkpt lat="43.285681" lon="-5.00846">
        <ele>996.48</ele>
      </trkpt>
      <trkpt lat="43.285663" lon="-5.008504">
        <ele>997.2</ele>
      </trkpt>
      <trkpt lat="43.285629" lon="-5.008559">
        <ele>998.84</ele>
      </trkpt>
      <trkpt lat="43.285584" lon="-5.008603">
        <ele>1001.31</ele>
      </trkpt>
      <trkpt lat="43.285533" lon="-5.008622">
        <ele>1003.76</ele>
      </trkpt>
      <trkpt lat="43.285469" lon="-5.008624">
        <ele>1005.71</ele>
      </trkpt>
      <trkpt lat="43.285386" lon="-5.008595">
        <ele>1007.56</ele>
      </trkpt>
      <trkpt lat="43.285254" lon="-5.008518">
        <ele>1008.36</ele>
      </trkpt>
      <trkpt lat="43.285209" lon="-5.008504">
        <ele>1009.03</ele>
      </trkpt>
      <trkpt lat="43.285159" lon="-5.008515">
        <ele>1008.57</ele>
      </trkpt>
      <trkpt lat="43.285108" lon="-5.008561">
        <ele>1006.89</ele>
      </trkpt>
      <trkpt lat="43.284978" lon="-5.008701">
        <ele>1007.16</ele>
      </trkpt>
      <trkpt lat="43.284932" lon="-5.008739">
        <ele>1008.08</ele>
      </trkpt>
      <trkpt lat="43.284878" lon="-5.008764">
        <ele>1008.95</ele>
      </trkpt>
      <trkpt lat="43.28482" lon="-5.008766">
        <ele>1010.07</ele>
      </trkpt>
      <trkpt lat="43.284732" lon="-5.008729">
        <ele>1011.87</ele>
      </trkpt>
      <trkpt lat="43.284578" lon="-5.008613">
        <ele>1011.78</ele>
      </trkpt>
      <trkpt lat="43.284494" lon="-5.008521">
        <ele>1011.22</ele>
      </trkpt>
      <trkpt lat="43.284354" lon="-5.008321">
        <ele>1010.9</ele>
      </trkpt>
      <trkpt lat="43.284283" lon="-5.008248">
        <ele>1010.87</ele>
      </trkpt>
      <trkpt lat="43.28417" lon="-5.008168">
        <ele>1011.97</ele>
      </trkpt>
      <trkpt lat="43.284127" lon="-5.008117">
        <ele>1012.77</ele>
      </trkpt>
      <trkpt lat="43.284096" lon="-5.008047">
        <ele>1013.11</ele>
      </trkpt>
      <trkpt lat="43.284002" lon="-5.007693">
        <ele>1013.39</ele>
      </trkpt>
      <trkpt lat="43.283965" lon="-5.00758">
        <ele>1013.93</ele>
      </trkpt>
      <trkpt lat="43.283914" lon="-5.007475">
        <ele>1013.68</ele>
      </trkpt>
      <trkpt lat="43.283749" lon="-5.007222">
        <ele>1012.61</ele>
      </trkpt>
      <trkpt lat="43.283699" lon="-5.007124">
        <ele>1012.75</ele>
      </trkpt>
      <trkpt lat="43.283515" lon="-5.006591">
        <ele>1013.08</ele>
      </trkpt>
      <trkpt lat="43.283363" lon="-5.006125">
        <ele>1008.57</ele>
      </trkpt>
      <trkpt lat="43.283291" lon="-5.005865">
        <ele>1006.69</ele>
      </trkpt>
      <trkpt lat="43.283253" lon="-5.005699">
        <ele>1005.34</ele>
      </trkpt>
      <trkpt lat="43.283141" lon="-5.005047">
        <ele>999.75</ele>
      </trkpt>
      <trkpt lat="43.283118" lon="-5.004941">
        <ele>998.89</ele>
      </trkpt>
      <trkpt lat="43.283092" lon="-5.004855">
        <ele>998.55</ele>
      </trkpt>
      <trkpt lat="43.282917" lon="-5.00445">
        <ele>993.73</ele>
      </trkpt>
      <trkpt lat="43.282847" lon="-5.004217">
        <ele>989.95</ele>
      </trkpt>
      <trkpt lat="43.28282" lon="-5.004083">
        <ele>988.3</ele>
      </trkpt>
      <trkpt lat="43.282808" lon="-5.003969">
        <ele>986.92</ele>
      </trkpt>
      <trkpt lat="43.282812" lon="-5.003858">
        <ele>985.89</ele>
      </trkpt>
      <trkpt lat="43.282829" lon="-5.003753">
        <ele>985.08</ele>
      </trkpt>
      <trkpt lat="43.282866" lon="-5.003638">
        <ele>983.99</ele>
      </trkpt>
      <trkpt lat="43.282917" lon="-5.003506">
        <ele>985.73</ele>
      </trkpt>
      <trkpt lat="43.282924" lon="-5.003451">
        <ele>985.49</ele>
      </trkpt>
      <trkpt lat="43.282918" lon="-5.003396">
        <ele>984.21</ele>
      </trkpt>
      <trkpt lat="43.282907" lon="-5.003363">
        <ele>982.61</ele>
      </trkpt>
      <trkpt lat="43.282882" lon="-5.003337">
        <ele>980.49</ele>
      </trkpt>
      <trkpt lat="43.282848" lon="-5.003328">
        <ele>979.26</ele>
      </trkpt>
      <trkpt lat="43.2828" lon="-5.003334">
        <ele>978.45</ele>
      </trkpt>
      <trkpt lat="43.282737" lon="-5.003381">
        <ele>978.23</ele>
      </trkpt>
      <trkpt lat="43.282531" lon="-5.003616">
        <ele>975.81</ele>
      </trkpt>
      <trkpt lat="43.282488" lon="-5.003638">
        <ele>975.31</ele>
      </trkpt>
      <trkpt lat="43.282434" lon="-5.003647">
        <ele>974.93</ele>
      </trkpt>
      <trkpt lat="43.28236" lon="-5.003634">
        <ele>974.4</ele>
      </trkpt>
      <trkpt lat="43.282251" lon="-5.003597">
        <ele>974.96</ele>
      </trkpt>
      <trkpt lat="43.282092" lon="-5.003585">
        <ele>977.38</ele>
      </trkpt>
      <trkpt lat="43.281784" lon="-5.003683">
        <ele>980.99</ele>
      </trkpt>
      <trkpt lat="43.281709" lon="-5.003687">
        <ele>982.07</ele>
      </trkpt>
      <trkpt lat="43.281563" lon="-5.003654">
        <ele>984.06</ele>
      </trkpt>
      <trkpt lat="43.281501" lon="-5.003616">
        <ele>985.2</ele>
      </trkpt>
      <trkpt lat="43.281454" lon="-5.003573">
        <ele>986</ele>
      </trkpt>
      <trkpt lat="43.281396" lon="-5.003489">
        <ele>987.38</ele>
      </trkpt>
      <trkpt lat="43.281154" lon="-5.002996">
        <ele>992.26</ele>
      </trkpt>
      <trkpt lat="43.281075" lon="-5.002857">
        <ele>994.04</ele>
      </trkpt>
      <trkpt lat="43.281023" lon="-5.002789">
        <ele>994.8</ele>
      </trkpt>
      <trkpt lat="43.280955" lon="-5.002733">
        <ele>995.66</ele>
      </trkpt>
      <trkpt lat="43.280875" lon="-5.002706">
        <ele>996.13</ele>
      </trkpt>
      <trkpt lat="43.280801" lon="-5.002711">
        <ele>996.6</ele>
      </trkpt>
      <trkpt lat="43.280345" lon="-5.002818">
        <ele>1002.54</ele>
      </trkpt>
      <trkpt lat="43.280224" lon="-5.00281">
        <ele>1004.38</ele>
      </trkpt>
      <trkpt lat="43.280068" lon="-5.002762">
        <ele>1006.53</ele>
      </trkpt>
      <trkpt lat="43.279971" lon="-5.002754">
        <ele>1008.32</ele>
      </trkpt>
      <trkpt lat="43.279876" lon="-5.002776">
        <ele>1009.96</ele>
      </trkpt>
      <trkpt lat="43.279784" lon="-5.002843">
        <ele>1010.37</ele>
      </trkpt>
      <trkpt lat="43.279629" lon="-5.003">
        <ele>1011.45</ele>
      </trkpt>
      <trkpt lat="43.279567" lon="-5.003056">
        <ele>1012.84</ele>
      </trkpt>
      <trkpt lat="43.279503" lon="-5.003086">
        <ele>1015.14</ele>
      </trkpt>
      <trkpt lat="43.279205" lon="-5.003119">
        <ele>1021.1</ele>
      </trkpt>
      <trkpt lat="43.279089" lon="-5.003153">
        <ele>1020.68</ele>
      </trkpt>
      <trkpt lat="43.27892" lon="-5.003221">
        <ele>1019.79</ele>
      </trkpt>
      <trkpt lat="43.278743" lon="-5.003312">
        <ele>1022.49</ele>
      </trkpt>
      <trkpt lat="43.27855" lon="-5.003445">
        <ele>1022.78</ele>
      </trkpt>
      <trkpt lat="43.27819" lon="-5.003881">
        <ele>1028.73</ele>
      </trkpt>
      <trkpt lat="43.278119" lon="-5.003957">
        <ele>1029.61</ele>
      </trkpt>
      <trkpt lat="43.278071" lon="-5.003992">
        <ele>1030.57</ele>
      </trkpt>
      <trkpt lat="43.278006" lon="-5.004019">
        <ele>1032.16</ele>
      </trkpt>
      <trkpt lat="43.277894" lon="-5.004034">
        <ele>1034.51</ele>
      </trkpt>
      <trkpt lat="43.277638" lon="-5.00403">
        <ele>1037.48</ele>
      </trkpt>
      <trkpt lat="43.277575" lon="-5.004039">
        <ele>1037.76</ele>
      </trkpt>
      <trkpt lat="43.277523" lon="-5.004075">
        <ele>1037</ele>
      </trkpt>
      <trkpt lat="43.277477" lon="-5.004125">
        <ele>1036.64</ele>
      </trkpt>
      <trkpt lat="43.277441" lon="-5.004195">
        <ele>1036.49</ele>
      </trkpt>
      <trkpt lat="43.277385" lon="-5.004425">
        <ele>1037.66</ele>
      </trkpt>
      <trkpt lat="43.277349" lon="-5.004542">
        <ele>1039.57</ele>
      </trkpt>
      <trkpt lat="43.276998" lon="-5.005282">
        <ele>1047.42</ele>
      </trkpt>
      <trkpt lat="43.276939" lon="-5.005372">
        <ele>1049.28</ele>
      </trkpt>
      <trkpt lat="43.276878" lon="-5.005436">
        <ele>1050.97</ele>
      </trkpt>
      <trkpt lat="43.276821" lon="-5.00547">
        <ele>1052.12</ele>
      </trkpt>
      <trkpt lat="43.276756" lon="-5.005481">
        <ele>1053.83</ele>
      </trkpt>
      <trkpt lat="43.276645" lon="-5.005456">
        <ele>1056.13</ele>
      </trkpt>
      <trkpt lat="43.276477" lon="-5.005395">
        <ele>1057.48</ele>
      </trkpt>
      <trkpt lat="43.276351" lon="-5.005329">
        <ele>1059.6</ele>
      </trkpt>
      <trkpt lat="43.276287" lon="-5.005275">
        <ele>1060.28</ele>
      </trkpt>
      <trkpt lat="43.276238" lon="-5.005209">
        <ele>1061.02</ele>
      </trkpt>
      <trkpt lat="43.276068" lon="-5.004816">
        <ele>1064.73</ele>
      </trkpt>
      <trkpt lat="43.275851" lon="-5.004421">
        <ele>1068.15</ele>
      </trkpt>
      <trkpt lat="43.275751" lon="-5.00419">
        <ele>1070.41</ele>
      </trkpt>
      <trkpt lat="43.275716" lon="-5.004079">
        <ele>1071.15</ele>
      </trkpt>
      <trkpt lat="43.275544" lon="-5.003365">
        <ele>1074.77</ele>
      </trkpt>
      <trkpt lat="43.275472" lon="-5.002927">
        <ele>1078.82</ele>
      </trkpt>
      <trkpt lat="43.275468" lon="-5.002805">
        <ele>1079.83</ele>
      </trkpt>
      <trkpt lat="43.27548" lon="-5.00269">
        <ele>1080.36</ele>
      </trkpt>
      <trkpt lat="43.275512" lon="-5.002527">
        <ele>1081.71</ele>
      </trkpt>
      <trkpt lat="43.275669" lon="-5.002001">
        <ele>1084.91</ele>
      </trkpt>
      <trkpt lat="43.275718" lon="-5.001771">
        <ele>1086.74</ele>
      </trkpt>
      <trkpt lat="43.27572" lon="-5.001682">
        <ele>1087.22</ele>
      </trkpt>
      <trkpt lat="43.275708" lon="-5.001535">
        <ele>1087.59</ele>
      </trkpt>
      <trkpt lat="43.275667" lon="-5.001272">
        <ele>1087.96</ele>
      </trkpt>
      <trkpt lat="43.275606" lon="-5.000967">
        <ele>1089.28</ele>
      </trkpt>
      <trkpt lat="43.275544" lon="-5.000663">
        <ele>1093.03</ele>
      </trkpt>
      <trkpt lat="43.275515" lon="-5.000469">
        <ele>1094.06</ele>
      </trkpt>
      <trkpt lat="43.275505" lon="-5.000333">
        <ele>1095.31</ele>
      </trkpt>
      <trkpt lat="43.275507" lon="-5.000208">
        <ele>1096.22</ele>
      </trkpt>
      <trkpt lat="43.275597" lon="-4.999541">
        <ele>1101.08</ele>
      </trkpt>
      <trkpt lat="43.275609" lon="-4.999403">
        <ele>1101.5</ele>
      </trkpt>
      <trkpt lat="43.275621" lon="-4.999225">
        <ele>1102.5</ele>
      </trkpt>
      <trkpt lat="43.275634" lon="-4.998357">
        <ele>1102.4</ele>
      </trkpt>
      <trkpt lat="43.275656" lon="-4.998105">
        <ele>1102.38</ele>
      </trkpt>
      <trkpt lat="43.27568" lon="-4.998015">
        <ele>1103</ele>
      </trkpt>
      <trkpt lat="43.275719" lon="-4.997939">
        <ele>1103.54</ele>
      </trkpt>
      <trkpt lat="43.275772" lon="-4.997875">
        <ele>1104.64</ele>
      </trkpt>
      <trkpt lat="43.275847" lon="-4.997803">
        <ele>1105.31</ele>
      </trkpt>
      <trkpt lat="43.276032" lon="-4.997675">
        <ele>1104.02</ele>
      </trkpt>
      <trkpt lat="43.276081" lon="-4.997622">
        <ele>1104.49</ele>
      </trkpt>
      <trkpt lat="43.276129" lon="-4.997544">
        <ele>1105.41</ele>
      </trkpt>
      <trkpt lat="43.276159" lon="-4.997449">
        <ele>1105.8</ele>
      </trkpt>
      <trkpt lat="43.27618" lon="-4.997332">
        <ele>1106.25</ele>
      </trkpt>
      <trkpt lat="43.276278" lon="-4.996481">
        <ele>1107.64</ele>
      </trkpt>
      <trkpt lat="43.27628" lon="-4.996374">
        <ele>1107.48</ele>
      </trkpt>
      <trkpt lat="43.276271" lon="-4.996292">
        <ele>1107.57</ele>
      </trkpt>
      <trkpt lat="43.276247" lon="-4.996193">
        <ele>1107.4</ele>
      </trkpt>
      <trkpt lat="43.276194" lon="-4.996052">
        <ele>1107.81</ele>
      </trkpt>
      <trkpt lat="43.276003" lon="-4.995606">
        <ele>1109.95</ele>
      </trkpt>
      <trkpt lat="43.275862" lon="-4.995371">
        <ele>1111.54</ele>
      </trkpt>
      <trkpt lat="43.27575" lon="-4.995244">
        <ele>1112.57</ele>
      </trkpt>
      <trkpt lat="43.275654" lon="-4.995177">
        <ele>1112.28</ele>
      </trkpt>
      <trkpt lat="43.275559" lon="-4.995143">
        <ele>1111.71</ele>
      </trkpt>
      <trkpt lat="43.275424" lon="-4.995126">
        <ele>1111.89</ele>
      </trkpt>
      <trkpt lat="43.274788" lon="-4.995137">
        <ele>1114.65</ele>
      </trkpt>
      <trkpt lat="43.274553" lon="-4.995224">
        <ele>1113.82</ele>
      </trkpt>
      <trkpt lat="43.274485" lon="-4.995227">
        <ele>1113.04</ele>
      </trkpt>
      <trkpt lat="43.274432" lon="-4.995197">
        <ele>1112.44</ele>
      </trkpt>
      <trkpt lat="43.274399" lon="-4.995158">
        <ele>1111.78</ele>
      </trkpt>
      <trkpt lat="43.274385" lon="-4.995093">
        <ele>1110.76</ele>
      </trkpt>
      <trkpt lat="43.274382" lon="-4.99501">
        <ele>1109.67</ele>
      </trkpt>
      <trkpt lat="43.274467" lon="-4.994587">
        <ele>1106.71</ele>
      </trkpt>
      <trkpt lat="43.274477" lon="-4.994493">
        <ele>1106.86</ele>
      </trkpt>
      <trkpt lat="43.274473" lon="-4.994399">
        <ele>1107.02</ele>
      </trkpt>
      <trkpt lat="43.274457" lon="-4.994304">
        <ele>1106.93</ele>
      </trkpt>
      <trkpt lat="43.274326" lon="-4.993824">
        <ele>1102.8</ele>
      </trkpt>
      <trkpt lat="43.274305" lon="-4.993661">
        <ele>1101.32</ele>
      </trkpt>
      <trkpt lat="43.274301" lon="-4.993437">
        <ele>1101.41</ele>
      </trkpt>
      <trkpt lat="43.274258" lon="-4.993142">
        <ele>1101.23</ele>
      </trkpt>
      <trkpt lat="43.274103" lon="-4.99261">
        <ele>1095.55</ele>
      </trkpt>
      <trkpt lat="43.274027" lon="-4.992325">
        <ele>1093.24</ele>
      </trkpt>
      <trkpt lat="43.273936" lon="-4.991934">
        <ele>1090.19</ele>
      </trkpt>
      <trkpt lat="43.273872" lon="-4.991527">
        <ele>1087.04</ele>
      </trkpt>
      <trkpt lat="43.273836" lon="-4.991193">
        <ele>1084.05</ele>
      </trkpt>
      <trkpt lat="43.27381" lon="-4.990897">
        <ele>1082.82</ele>
      </trkpt>
      <trkpt lat="43.273758" lon="-4.989864">
        <ele>1076.28</ele>
      </trkpt>
      <trkpt lat="43.273767" lon="-4.989692">
        <ele>1075.58</ele>
      </trkpt>
      <trkpt lat="43.273782" lon="-4.989607">
        <ele>1075.21</ele>
      </trkpt>
      <trkpt lat="43.273935" lon="-4.988966">
        <ele>1072.07</ele>
      </trkpt>
      <trkpt lat="43.273934" lon="-4.98882">
        <ele>1071.71</ele>
      </trkpt>
      <trkpt lat="43.27392" lon="-4.988752">
        <ele>1071.25</ele>
      </trkpt>
      <trkpt lat="43.27378" lon="-4.988381">
        <ele>1070.67</ele>
      </trkpt>
      <trkpt lat="43.273728" lon="-4.988296">
        <ele>1071.83</ele>
      </trkpt>
      <trkpt lat="43.273688" lon="-4.988249">
        <ele>1072.26</ele>
      </trkpt>
      <trkpt lat="43.273504" lon="-4.988123">
        <ele>1074.79</ele>
      </trkpt>
      <trkpt lat="43.273316" lon="-4.988035">
        <ele>1076.56</ele>
      </trkpt>
      <trkpt lat="43.27317" lon="-4.987983">
        <ele>1077.94</ele>
      </trkpt>
      <trkpt lat="43.272948" lon="-4.987924">
        <ele>1079.95</ele>
      </trkpt>
      <trkpt lat="43.272599" lon="-4.987848">
        <ele>1082.89</ele>
      </trkpt>
      <trkpt lat="43.272479" lon="-4.98781">
        <ele>1084.29</ele>
      </trkpt>
      <trkpt lat="43.272362" lon="-4.987762">
        <ele>1084.86</ele>
      </trkpt>
      <trkpt lat="43.272249" lon="-4.987688">
        <ele>1085.89</ele>
      </trkpt>
      <trkpt lat="43.272096" lon="-4.987572">
        <ele>1087.09</ele>
      </trkpt>
      <trkpt lat="43.272002" lon="-4.987473">
        <ele>1088.41</ele>
      </trkpt>
      <trkpt lat="43.271972" lon="-4.987421">
        <ele>1088.95</ele>
      </trkpt>
      <trkpt lat="43.27195" lon="-4.987358">
        <ele>1089.49</ele>
      </trkpt>
      <trkpt lat="43.271941" lon="-4.987246">
        <ele>1090.22</ele>
      </trkpt>
      <trkpt lat="43.271946" lon="-4.987134">
        <ele>1091.27</ele>
      </trkpt>
      <trkpt lat="43.271967" lon="-4.986962">
        <ele>1092.58</ele>
      </trkpt>
      <trkpt lat="43.272024" lon="-4.986709">
        <ele>1095.1</ele>
      </trkpt>
      <trkpt lat="43.272086" lon="-4.986593">
        <ele>1096.46</ele>
      </trkpt>
      <trkpt lat="43.272143" lon="-4.986519">
        <ele>1096.89</ele>
      </trkpt>
      <trkpt lat="43.272754" lon="-4.985976">
        <ele>1100.8</ele>
      </trkpt>
      <trkpt lat="43.272814" lon="-4.985935">
        <ele>1101.34</ele>
      </trkpt>
      <trkpt lat="43.272872" lon="-4.98591">
        <ele>1101.8</ele>
      </trkpt>
      <trkpt lat="43.273216" lon="-4.985801">
        <ele>1103.48</ele>
      </trkpt>
      <trkpt lat="43.273311" lon="-4.985741">
        <ele>1103.21</ele>
      </trkpt>
      <trkpt lat="43.273807" lon="-4.985281">
        <ele>1107.28</ele>
      </trkpt>
      <trkpt lat="43.274194" lon="-4.984994">
        <ele>1109.01</ele>
      </trkpt>
      <trkpt lat="43.27426" lon="-4.984927">
        <ele>1109.05</ele>
      </trkpt>
      <trkpt lat="43.274339" lon="-4.984821">
        <ele>1108.81</ele>
      </trkpt>
      <trkpt lat="43.274396" lon="-4.984704">
        <ele>1108.26</ele>
      </trkpt>
      <trkpt lat="43.274463" lon="-4.984499">
        <ele>1110.88</ele>
      </trkpt>
      <trkpt lat="43.274503" lon="-4.984445">
        <ele>1111.83</ele>
      </trkpt>
      <trkpt lat="43.274557" lon="-4.9844">
        <ele>1112.35</ele>
      </trkpt>
      <trkpt lat="43.275114" lon="-4.984078">
        <ele>1115.6</ele>
      </trkpt>
      <trkpt lat="43.275245" lon="-4.983997">
        <ele>1114.9</ele>
      </trkpt>
      <trkpt lat="43.27539" lon="-4.983878">
        <ele>1115.43</ele>
      </trkpt>
      <trkpt lat="43.275441" lon="-4.983827">
        <ele>1115.8</ele>
      </trkpt>
      <trkpt lat="43.275473" lon="-4.983772">
        <ele>1116.18</ele>
      </trkpt>
      <trkpt lat="43.275496" lon="-4.983677">
        <ele>1115.7</ele>
      </trkpt>
      <trkpt lat="43.275495" lon="-4.983614">
        <ele>1115.53</ele>
      </trkpt>
      <trkpt lat="43.275487" lon="-4.983572">
        <ele>1114.74</ele>
      </trkpt>
      <trkpt lat="43.27546" lon="-4.983507">
        <ele>1114</ele>
      </trkpt>
      <trkpt lat="43.275308" lon="-4.983356">
        <ele>1114.68</ele>
      </trkpt>
      <trkpt lat="43.275161" lon="-4.98326">
        <ele>1116.1</ele>
      </trkpt>
      <trkpt lat="43.274984" lon="-4.983175">
        <ele>1116.97</ele>
      </trkpt>
      <trkpt lat="43.274866" lon="-4.983055">
        <ele>1117.82</ele>
      </trkpt>
      <trkpt lat="43.27481" lon="-4.982972">
        <ele>1117.8</ele>
      </trkpt>
      <trkpt lat="43.274747" lon="-4.982903">
        <ele>1117.56</ele>
      </trkpt>
      <trkpt lat="43.274243" lon="-4.982569">
        <ele>1119.08</ele>
      </trkpt>
      <trkpt lat="43.274147" lon="-4.982464">
        <ele>1119.51</ele>
      </trkpt>
      <trkpt lat="43.274082" lon="-4.982344">
        <ele>1119.99</ele>
      </trkpt>
      <trkpt lat="43.273935" lon="-4.981895">
        <ele>1122.02</ele>
      </trkpt>
      <trkpt lat="43.273879" lon="-4.981783">
        <ele>1122.05</ele>
      </trkpt>
      <trkpt lat="43.273817" lon="-4.981721">
        <ele>1122.41</ele>
      </trkpt>
      <trkpt lat="43.273744" lon="-4.981682">
        <ele>1122.66</ele>
      </trkpt>
      <trkpt lat="43.273668" lon="-4.981674">
        <ele>1122.71</ele>
      </trkpt>
      <trkpt lat="43.273574" lon="-4.981714">
        <ele>1123.3</ele>
      </trkpt>
    </trkseg>
  </trk>
</gpx>
