<?xml version="1.0" encoding="UTF-8"?>
<gpx creator="Wikiloc - https://www.wikiloc.com" version="1.1" xmlns="http://www.topografix.com/GPX/1/1" xmlns:xsi="http://www.w3.org/2001/XMLSchema-instance" xsi:schemaLocation="http://www.topografix.com/GPX/1/1 http://www.topografix.com/GPX/1/1/gpx.xsd">
  <metadata>
    <name>Wikiloc - LAGO DEL SAMBUCO-LAGO DEL NARÈT (por Bignasco)</name>
    <link href="https://www.wikiloc.com/cycling-trails/lago-del-sambuco-lago-del-naret-por-bignasco-272807785">
      <text>LAGO DEL SAMBUCO-LAGO DEL NARÈT (por Bignasco) - Wikiloc on Wikiloc</text>
    </link>
    <time>2026-07-16T11:01:30.733Z</time>
  </metadata>
  <trk>
    <name>LAGO DEL SAMBUCO-LAGO DEL NARÈT (por Bignasco) - Wikiloc</name>
    <cmt></cmt>
    <desc></desc>
    <trkseg>
      <trkpt lat="46.340500" lon="8.607950">
        <ele>439.831</ele>
        <time>2026-07-16T11:01:30.732Z</time>
      </trkpt>
      <trkpt lat="46.341400" lon="8.609450">
        <ele>450.061</ele>
        <time>2026-07-16T11:01:50.732Z</time>
      </trkpt>
      <trkpt lat="46.343140" lon="8.609940">
        <ele>447.607</ele>
        <time>2026-07-16T11:02:10.732Z</time>
      </trkpt>
      <trkpt lat="46.347730" lon="8.612980">
        <ele>484.509</ele>
        <time>2026-07-16T11:02:30.732Z</time>
      </trkpt>
      <trkpt lat="46.348760" lon="8.615180">
        <ele>509.835</ele>
        <time>2026-07-16T11:02:50.732Z</time>
      </trkpt>
      <trkpt lat="46.348700" lon="8.616010">
        <ele>503.240</ele>
        <time>2026-07-16T11:03:10.732Z</time>
      </trkpt>
      <trkpt lat="46.349240" lon="8.616650">
        <ele>510.455</ele>
        <time>2026-07-16T11:03:30.732Z</time>
      </trkpt>
      <trkpt lat="46.349870" lon="8.617160">
        <ele>509.321</ele>
        <time>2026-07-16T11:03:50.732Z</time>
      </trkpt>
      <trkpt lat="46.349570" lon="8.616700">
        <ele>516.963</ele>
        <time>2026-07-16T11:04:10.732Z</time>
      </trkpt>
      <trkpt lat="46.350090" lon="8.617080">
        <ele>525.060</ele>
        <time>2026-07-16T11:04:30.732Z</time>
      </trkpt>
      <trkpt lat="46.351120" lon="8.618120">
        <ele>533.510</ele>
        <time>2026-07-16T11:04:50.732Z</time>
      </trkpt>
      <trkpt lat="46.351650" lon="8.618720">
        <ele>532.391</ele>
        <time>2026-07-16T11:05:10.732Z</time>
      </trkpt>
      <trkpt lat="46.352000" lon="8.619410">
        <ele>532.888</ele>
        <time>2026-07-16T11:05:30.732Z</time>
      </trkpt>
      <trkpt lat="46.352710" lon="8.621180">
        <ele>549.436</ele>
        <time>2026-07-16T11:05:50.732Z</time>
      </trkpt>
      <trkpt lat="46.353160" lon="8.622800">
        <ele>562.717</ele>
        <time>2026-07-16T11:06:10.732Z</time>
      </trkpt>
      <trkpt lat="46.352960" lon="8.623500">
        <ele>558.718</ele>
        <time>2026-07-16T11:06:30.732Z</time>
      </trkpt>
      <trkpt lat="46.353130" lon="8.624620">
        <ele>569.809</ele>
        <time>2026-07-16T11:06:50.732Z</time>
      </trkpt>
      <trkpt lat="46.352890" lon="8.626160">
        <ele>582.935</ele>
        <time>2026-07-16T11:07:10.732Z</time>
      </trkpt>
      <trkpt lat="46.353150" lon="8.627230">
        <ele>587.030</ele>
        <time>2026-07-16T11:07:30.732Z</time>
      </trkpt>
      <trkpt lat="46.353050" lon="8.627820">
        <ele>581.385</ele>
        <time>2026-07-16T11:07:50.732Z</time>
      </trkpt>
      <trkpt lat="46.353180" lon="8.628840">
        <ele>583.411</ele>
        <time>2026-07-16T11:08:10.732Z</time>
      </trkpt>
      <trkpt lat="46.353750" lon="8.630450">
        <ele>573.873</ele>
        <time>2026-07-16T11:08:30.732Z</time>
      </trkpt>
      <trkpt lat="46.353870" lon="8.632260">
        <ele>574.650</ele>
        <time>2026-07-16T11:08:50.732Z</time>
      </trkpt>
      <trkpt lat="46.354770" lon="8.634150">
        <ele>586.050</ele>
        <time>2026-07-16T11:09:10.732Z</time>
      </trkpt>
      <trkpt lat="46.355520" lon="8.636400">
        <ele>593.571</ele>
        <time>2026-07-16T11:09:30.732Z</time>
      </trkpt>
      <trkpt lat="46.356840" lon="8.638240">
        <ele>591.228</ele>
        <time>2026-07-16T11:09:50.732Z</time>
      </trkpt>
      <trkpt lat="46.357200" lon="8.639140">
        <ele>592.625</ele>
        <time>2026-07-16T11:10:10.732Z</time>
      </trkpt>
      <trkpt lat="46.358290" lon="8.640990">
        <ele>598.826</ele>
        <time>2026-07-16T11:10:30.732Z</time>
      </trkpt>
      <trkpt lat="46.358680" lon="8.642150">
        <ele>604.008</ele>
        <time>2026-07-16T11:10:50.732Z</time>
      </trkpt>
      <trkpt lat="46.358660" lon="8.643320">
        <ele>608.509</ele>
        <time>2026-07-16T11:11:10.732Z</time>
      </trkpt>
      <trkpt lat="46.359440" lon="8.644910">
        <ele>619.854</ele>
        <time>2026-07-16T11:11:30.732Z</time>
      </trkpt>
      <trkpt lat="46.359560" lon="8.647220">
        <ele>625.069</ele>
        <time>2026-07-16T11:11:50.732Z</time>
      </trkpt>
      <trkpt lat="46.360090" lon="8.648200">
        <ele>633.264</ele>
        <time>2026-07-16T11:12:10.732Z</time>
      </trkpt>
      <trkpt lat="46.362780" lon="8.650390">
        <ele>636.240</ele>
        <time>2026-07-16T11:12:30.732Z</time>
      </trkpt>
      <trkpt lat="46.365620" lon="8.654290">
        <ele>642.932</ele>
        <time>2026-07-16T11:12:50.732Z</time>
      </trkpt>
      <trkpt lat="46.371130" lon="8.658110">
        <ele>674.869</ele>
        <time>2026-07-16T11:13:10.732Z</time>
      </trkpt>
      <trkpt lat="46.384070" lon="8.662940">
        <ele>702.439</ele>
        <time>2026-07-16T11:13:30.732Z</time>
      </trkpt>
      <trkpt lat="46.385550" lon="8.663200">
        <ele>698.570</ele>
        <time>2026-07-16T11:13:50.732Z</time>
      </trkpt>
      <trkpt lat="46.389190" lon="8.661450">
        <ele>714.527</ele>
        <time>2026-07-16T11:14:10.732Z</time>
      </trkpt>
      <trkpt lat="46.390710" lon="8.660200">
        <ele>719.444</ele>
        <time>2026-07-16T11:14:30.732Z</time>
      </trkpt>
      <trkpt lat="46.393660" lon="8.657010">
        <ele>732.505</ele>
        <time>2026-07-16T11:14:50.732Z</time>
      </trkpt>
      <trkpt lat="46.394650" lon="8.655150">
        <ele>745.515</ele>
        <time>2026-07-16T11:15:10.732Z</time>
      </trkpt>
      <trkpt lat="46.395060" lon="8.655350">
        <ele>744.209</ele>
        <time>2026-07-16T11:15:30.732Z</time>
      </trkpt>
      <trkpt lat="46.395870" lon="8.654440">
        <ele>747.426</ele>
        <time>2026-07-16T11:15:50.732Z</time>
      </trkpt>
      <trkpt lat="46.398870" lon="8.653410">
        <ele>755.481</ele>
        <time>2026-07-16T11:16:10.732Z</time>
      </trkpt>
      <trkpt lat="46.399850" lon="8.652800">
        <ele>761.536</ele>
        <time>2026-07-16T11:16:30.732Z</time>
      </trkpt>
      <trkpt lat="46.401170" lon="8.651030">
        <ele>769.742</ele>
        <time>2026-07-16T11:16:50.732Z</time>
      </trkpt>
      <trkpt lat="46.401930" lon="8.650570">
        <ele>772.324</ele>
        <time>2026-07-16T11:17:10.732Z</time>
      </trkpt>
      <trkpt lat="46.403270" lon="8.649050">
        <ele>785.831</ele>
        <time>2026-07-16T11:17:30.732Z</time>
      </trkpt>
      <trkpt lat="46.404470" lon="8.649030">
        <ele>801.181</ele>
        <time>2026-07-16T11:17:50.732Z</time>
      </trkpt>
      <trkpt lat="46.404910" lon="8.648860">
        <ele>805.462</ele>
        <time>2026-07-16T11:18:10.732Z</time>
      </trkpt>
      <trkpt lat="46.405700" lon="8.647920">
        <ele>816.119</ele>
        <time>2026-07-16T11:18:30.732Z</time>
      </trkpt>
      <trkpt lat="46.406490" lon="8.647890">
        <ele>831.843</ele>
        <time>2026-07-16T11:18:50.732Z</time>
      </trkpt>
      <trkpt lat="46.407140" lon="8.647320">
        <ele>829.164</ele>
        <time>2026-07-16T11:19:10.732Z</time>
      </trkpt>
      <trkpt lat="46.407500" lon="8.647260">
        <ele>836.710</ele>
        <time>2026-07-16T11:19:30.732Z</time>
      </trkpt>
      <trkpt lat="46.407620" lon="8.647530">
        <ele>843.109</ele>
        <time>2026-07-16T11:19:50.732Z</time>
      </trkpt>
      <trkpt lat="46.407510" lon="8.648180">
        <ele>850.426</ele>
        <time>2026-07-16T11:20:10.732Z</time>
      </trkpt>
      <trkpt lat="46.408050" lon="8.647920">
        <ele>851.081</ele>
        <time>2026-07-16T11:20:30.732Z</time>
      </trkpt>
      <trkpt lat="46.408500" lon="8.647960">
        <ele>858.586</ele>
        <time>2026-07-16T11:20:50.732Z</time>
      </trkpt>
      <trkpt lat="46.407950" lon="8.649110">
        <ele>870.792</ele>
        <time>2026-07-16T11:21:10.732Z</time>
      </trkpt>
      <trkpt lat="46.407750" lon="8.649230">
        <ele>873.984</ele>
        <time>2026-07-16T11:21:30.732Z</time>
      </trkpt>
      <trkpt lat="46.408040" lon="8.649440">
        <ele>877.191</ele>
        <time>2026-07-16T11:21:50.732Z</time>
      </trkpt>
      <trkpt lat="46.408960" lon="8.649000">
        <ele>886.241</ele>
        <time>2026-07-16T11:22:10.732Z</time>
      </trkpt>
      <trkpt lat="46.408570" lon="8.649630">
        <ele>893.792</ele>
        <time>2026-07-16T11:22:30.732Z</time>
      </trkpt>
      <trkpt lat="46.408170" lon="8.649910">
        <ele>896.949</ele>
        <time>2026-07-16T11:22:50.732Z</time>
      </trkpt>
      <trkpt lat="46.407700" lon="8.649790">
        <ele>904.512</ele>
        <time>2026-07-16T11:23:10.732Z</time>
      </trkpt>
      <trkpt lat="46.407670" lon="8.649890">
        <ele>908.532</ele>
        <time>2026-07-16T11:23:30.732Z</time>
      </trkpt>
      <trkpt lat="46.407900" lon="8.650040">
        <ele>910.105</ele>
        <time>2026-07-16T11:23:50.732Z</time>
      </trkpt>
      <trkpt lat="46.409020" lon="8.650150">
        <ele>918.609</ele>
        <time>2026-07-16T11:24:10.732Z</time>
      </trkpt>
      <trkpt lat="46.409640" lon="8.649840">
        <ele>929.133</ele>
        <time>2026-07-16T11:24:30.732Z</time>
      </trkpt>
      <trkpt lat="46.409280" lon="8.650370">
        <ele>931.458</ele>
        <time>2026-07-16T11:24:50.732Z</time>
      </trkpt>
      <trkpt lat="46.408980" lon="8.650480">
        <ele>934.023</ele>
        <time>2026-07-16T11:25:10.732Z</time>
      </trkpt>
      <trkpt lat="46.409110" lon="8.650520">
        <ele>935.279</ele>
        <time>2026-07-16T11:25:30.732Z</time>
      </trkpt>
      <trkpt lat="46.409540" lon="8.650420">
        <ele>940.141</ele>
        <time>2026-07-16T11:25:50.732Z</time>
      </trkpt>
      <trkpt lat="46.409990" lon="8.649790">
        <ele>945.448</ele>
        <time>2026-07-16T11:26:10.732Z</time>
      </trkpt>
      <trkpt lat="46.409540" lon="8.650930">
        <ele>958.828</ele>
        <time>2026-07-16T11:26:30.732Z</time>
      </trkpt>
      <trkpt lat="46.409020" lon="8.650930">
        <ele>967.719</ele>
        <time>2026-07-16T11:26:50.732Z</time>
      </trkpt>
      <trkpt lat="46.409590" lon="8.651220">
        <ele>974.146</ele>
        <time>2026-07-16T11:27:10.732Z</time>
      </trkpt>
      <trkpt lat="46.410350" lon="8.650570">
        <ele>974.054</ele>
        <time>2026-07-16T11:27:30.732Z</time>
      </trkpt>
      <trkpt lat="46.409840" lon="8.651490">
        <ele>991.356</ele>
        <time>2026-07-16T11:27:50.732Z</time>
      </trkpt>
      <trkpt lat="46.411040" lon="8.650600">
        <ele>994.911</ele>
        <time>2026-07-16T11:28:10.732Z</time>
      </trkpt>
      <trkpt lat="46.411750" lon="8.650960">
        <ele>1009.509</ele>
        <time>2026-07-16T11:28:30.732Z</time>
      </trkpt>
      <trkpt lat="46.412030" lon="8.650930">
        <ele>1009.267</ele>
        <time>2026-07-16T11:28:50.732Z</time>
      </trkpt>
      <trkpt lat="46.411870" lon="8.651110">
        <ele>1016.972</ele>
        <time>2026-07-16T11:29:10.732Z</time>
      </trkpt>
      <trkpt lat="46.411430" lon="8.650990">
        <ele>1012.497</ele>
        <time>2026-07-16T11:29:30.732Z</time>
      </trkpt>
      <trkpt lat="46.411380" lon="8.651090">
        <ele>1016.213</ele>
        <time>2026-07-16T11:29:50.732Z</time>
      </trkpt>
      <trkpt lat="46.411870" lon="8.651320">
        <ele>1027.765</ele>
        <time>2026-07-16T11:30:10.732Z</time>
      </trkpt>
      <trkpt lat="46.412410" lon="8.651270">
        <ele>1028.582</ele>
        <time>2026-07-16T11:30:30.732Z</time>
      </trkpt>
      <trkpt lat="46.412890" lon="8.651460">
        <ele>1036.382</ele>
        <time>2026-07-16T11:30:50.732Z</time>
      </trkpt>
      <trkpt lat="46.413560" lon="8.651220">
        <ele>1045.273</ele>
        <time>2026-07-16T11:31:10.732Z</time>
      </trkpt>
      <trkpt lat="46.413950" lon="8.650660">
        <ele>1049.530</ele>
        <time>2026-07-16T11:31:30.732Z</time>
      </trkpt>
      <trkpt lat="46.414620" lon="8.650300">
        <ele>1058.611</ele>
        <time>2026-07-16T11:31:50.732Z</time>
      </trkpt>
      <trkpt lat="46.414150" lon="8.650620">
        <ele>1063.921</ele>
        <time>2026-07-16T11:32:10.732Z</time>
      </trkpt>
      <trkpt lat="46.414150" lon="8.650750">
        <ele>1070.403</ele>
        <time>2026-07-16T11:32:30.732Z</time>
      </trkpt>
      <trkpt lat="46.415160" lon="8.650420">
        <ele>1073.309</ele>
        <time>2026-07-16T11:32:50.732Z</time>
      </trkpt>
      <trkpt lat="46.416200" lon="8.650640">
        <ele>1088.823</ele>
        <time>2026-07-16T11:33:10.732Z</time>
      </trkpt>
      <trkpt lat="46.416770" lon="8.650460">
        <ele>1088.418</ele>
        <time>2026-07-16T11:33:30.732Z</time>
      </trkpt>
      <trkpt lat="46.417810" lon="8.651450">
        <ele>1097.213</ele>
        <time>2026-07-16T11:33:50.732Z</time>
      </trkpt>
      <trkpt lat="46.418530" lon="8.651850">
        <ele>1102.589</ele>
        <time>2026-07-16T11:34:10.732Z</time>
      </trkpt>
      <trkpt lat="46.418970" lon="8.652330">
        <ele>1108.521</ele>
        <time>2026-07-16T11:34:30.732Z</time>
      </trkpt>
      <trkpt lat="46.419220" lon="8.652320">
        <ele>1106.818</ele>
        <time>2026-07-16T11:34:50.732Z</time>
      </trkpt>
      <trkpt lat="46.419700" lon="8.652890">
        <ele>1110.458</ele>
        <time>2026-07-16T11:35:10.732Z</time>
      </trkpt>
      <trkpt lat="46.420380" lon="8.653310">
        <ele>1115.969</ele>
        <time>2026-07-16T11:35:30.732Z</time>
      </trkpt>
      <trkpt lat="46.421080" lon="8.653410">
        <ele>1117.366</ele>
        <time>2026-07-16T11:35:50.732Z</time>
      </trkpt>
      <trkpt lat="46.422340" lon="8.655180">
        <ele>1122.463</ele>
        <time>2026-07-16T11:36:10.732Z</time>
      </trkpt>
      <trkpt lat="46.422780" lon="8.655530">
        <ele>1120.044</ele>
        <time>2026-07-16T11:36:30.732Z</time>
      </trkpt>
      <trkpt lat="46.423880" lon="8.655820">
        <ele>1120.018</ele>
        <time>2026-07-16T11:36:50.732Z</time>
      </trkpt>
      <trkpt lat="46.424700" lon="8.655820">
        <ele>1128.809</ele>
        <time>2026-07-16T11:37:10.732Z</time>
      </trkpt>
      <trkpt lat="46.425680" lon="8.656150">
        <ele>1139.978</ele>
        <time>2026-07-16T11:37:30.732Z</time>
      </trkpt>
      <trkpt lat="46.426130" lon="8.656190">
        <ele>1144.373</ele>
        <time>2026-07-16T11:37:50.732Z</time>
      </trkpt>
      <trkpt lat="46.426980" lon="8.655870">
        <ele>1140.028</ele>
        <time>2026-07-16T11:38:10.732Z</time>
      </trkpt>
      <trkpt lat="46.427370" lon="8.655950">
        <ele>1140.294</ele>
        <time>2026-07-16T11:38:30.732Z</time>
      </trkpt>
      <trkpt lat="46.427550" lon="8.656830">
        <ele>1150.446</ele>
        <time>2026-07-16T11:38:50.732Z</time>
      </trkpt>
      <trkpt lat="46.427850" lon="8.657270">
        <ele>1148.483</ele>
        <time>2026-07-16T11:39:10.732Z</time>
      </trkpt>
      <trkpt lat="46.428210" lon="8.657170">
        <ele>1158.543</ele>
        <time>2026-07-16T11:39:30.732Z</time>
      </trkpt>
      <trkpt lat="46.428720" lon="8.657810">
        <ele>1168.834</ele>
        <time>2026-07-16T11:39:50.732Z</time>
      </trkpt>
      <trkpt lat="46.429020" lon="8.658580">
        <ele>1166.561</ele>
        <time>2026-07-16T11:40:10.732Z</time>
      </trkpt>
      <trkpt lat="46.429690" lon="8.658880">
        <ele>1165.213</ele>
        <time>2026-07-16T11:40:30.732Z</time>
      </trkpt>
      <trkpt lat="46.430960" lon="8.660030">
        <ele>1165.043</ele>
        <time>2026-07-16T11:40:50.732Z</time>
      </trkpt>
      <trkpt lat="46.432800" lon="8.661180">
        <ele>1169.307</ele>
        <time>2026-07-16T11:41:10.732Z</time>
      </trkpt>
      <trkpt lat="46.433250" lon="8.661870">
        <ele>1170.009</ele>
        <time>2026-07-16T11:41:30.732Z</time>
      </trkpt>
      <trkpt lat="46.433780" lon="8.663360">
        <ele>1177.843</ele>
        <time>2026-07-16T11:41:50.732Z</time>
      </trkpt>
      <trkpt lat="46.434840" lon="8.663540">
        <ele>1191.628</ele>
        <time>2026-07-16T11:42:10.732Z</time>
      </trkpt>
      <trkpt lat="46.435460" lon="8.663160">
        <ele>1190.243</ele>
        <time>2026-07-16T11:42:30.732Z</time>
      </trkpt>
      <trkpt lat="46.436070" lon="8.663460">
        <ele>1195.769</ele>
        <time>2026-07-16T11:42:50.732Z</time>
      </trkpt>
      <trkpt lat="46.437370" lon="8.663370">
        <ele>1198.561</ele>
        <time>2026-07-16T11:43:10.732Z</time>
      </trkpt>
      <trkpt lat="46.438150" lon="8.662160">
        <ele>1206.648</ele>
        <time>2026-07-16T11:43:30.732Z</time>
      </trkpt>
      <trkpt lat="46.438010" lon="8.661350">
        <ele>1214.028</ele>
        <time>2026-07-16T11:43:50.732Z</time>
      </trkpt>
      <trkpt lat="46.438050" lon="8.661620">
        <ele>1214.149</ele>
        <time>2026-07-16T11:44:10.732Z</time>
      </trkpt>
      <trkpt lat="46.438290" lon="8.661760">
        <ele>1221.286</ele>
        <time>2026-07-16T11:44:30.732Z</time>
      </trkpt>
      <trkpt lat="46.439160" lon="8.661410">
        <ele>1229.918</ele>
        <time>2026-07-16T11:44:50.732Z</time>
      </trkpt>
      <trkpt lat="46.439150" lon="8.661270">
        <ele>1231.598</ele>
        <time>2026-07-16T11:45:10.732Z</time>
      </trkpt>
      <trkpt lat="46.438390" lon="8.661220">
        <ele>1234.017</ele>
        <time>2026-07-16T11:45:30.732Z</time>
      </trkpt>
      <trkpt lat="46.438420" lon="8.661100">
        <ele>1236.209</ele>
        <time>2026-07-16T11:45:50.732Z</time>
      </trkpt>
      <trkpt lat="46.438740" lon="8.661130">
        <ele>1240.313</ele>
        <time>2026-07-16T11:46:10.732Z</time>
      </trkpt>
      <trkpt lat="46.439240" lon="8.660790">
        <ele>1245.088</ele>
        <time>2026-07-16T11:46:30.732Z</time>
      </trkpt>
      <trkpt lat="46.440570" lon="8.660540">
        <ele>1254.353</ele>
        <time>2026-07-16T11:46:50.732Z</time>
      </trkpt>
      <trkpt lat="46.441010" lon="8.661130">
        <ele>1266.329</ele>
        <time>2026-07-16T11:47:10.732Z</time>
      </trkpt>
      <trkpt lat="46.441380" lon="8.662180">
        <ele>1264.431</ele>
        <time>2026-07-16T11:47:30.732Z</time>
      </trkpt>
      <trkpt lat="46.441660" lon="8.662400">
        <ele>1267.598</ele>
        <time>2026-07-16T11:47:50.732Z</time>
      </trkpt>
      <trkpt lat="46.442330" lon="8.662530">
        <ele>1269.488</ele>
        <time>2026-07-16T11:48:10.732Z</time>
      </trkpt>
      <trkpt lat="46.443090" lon="8.663150">
        <ele>1270.899</ele>
        <time>2026-07-16T11:48:30.732Z</time>
      </trkpt>
      <trkpt lat="46.443640" lon="8.663220">
        <ele>1266.566</ele>
        <time>2026-07-16T11:48:50.732Z</time>
      </trkpt>
      <trkpt lat="46.443580" lon="8.663930">
        <ele>1277.159</ele>
        <time>2026-07-16T11:49:10.732Z</time>
      </trkpt>
      <trkpt lat="46.443850" lon="8.664660">
        <ele>1280.103</ele>
        <time>2026-07-16T11:49:30.732Z</time>
      </trkpt>
      <trkpt lat="46.444110" lon="8.664860">
        <ele>1281.023</ele>
        <time>2026-07-16T11:49:50.732Z</time>
      </trkpt>
      <trkpt lat="46.445360" lon="8.664510">
        <ele>1280.909</ele>
        <time>2026-07-16T11:50:10.732Z</time>
      </trkpt>
      <trkpt lat="46.445780" lon="8.664210">
        <ele>1282.487</ele>
        <time>2026-07-16T11:50:30.732Z</time>
      </trkpt>
      <trkpt lat="46.446970" lon="8.663960">
        <ele>1294.092</ele>
        <time>2026-07-16T11:50:50.732Z</time>
      </trkpt>
      <trkpt lat="46.447750" lon="8.662960">
        <ele>1305.667</ele>
        <time>2026-07-16T11:51:10.732Z</time>
      </trkpt>
      <trkpt lat="46.448640" lon="8.662350">
        <ele>1312.093</ele>
        <time>2026-07-16T11:51:30.732Z</time>
      </trkpt>
      <trkpt lat="46.449590" lon="8.662020">
        <ele>1314.065</ele>
        <time>2026-07-16T11:51:50.732Z</time>
      </trkpt>
      <trkpt lat="46.449640" lon="8.662220">
        <ele>1329.082</ele>
        <time>2026-07-16T11:52:10.732Z</time>
      </trkpt>
      <trkpt lat="46.448860" lon="8.662610">
        <ele>1330.782</ele>
        <time>2026-07-16T11:52:30.732Z</time>
      </trkpt>
      <trkpt lat="46.448140" lon="8.663530">
        <ele>1343.043</ele>
        <time>2026-07-16T11:52:50.732Z</time>
      </trkpt>
      <trkpt lat="46.447860" lon="8.664910">
        <ele>1353.740</ele>
        <time>2026-07-16T11:53:10.732Z</time>
      </trkpt>
      <trkpt lat="46.448430" lon="8.666080">
        <ele>1368.288</ele>
        <time>2026-07-16T11:53:30.732Z</time>
      </trkpt>
      <trkpt lat="46.448530" lon="8.667590">
        <ele>1380.024</ele>
        <time>2026-07-16T11:53:50.732Z</time>
      </trkpt>
      <trkpt lat="46.448090" lon="8.668690">
        <ele>1396.226</ele>
        <time>2026-07-16T11:54:10.732Z</time>
      </trkpt>
      <trkpt lat="46.448860" lon="8.668720">
        <ele>1398.009</ele>
        <time>2026-07-16T11:54:30.732Z</time>
      </trkpt>
      <trkpt lat="46.449630" lon="8.667100">
        <ele>1405.490</ele>
        <time>2026-07-16T11:54:50.732Z</time>
      </trkpt>
      <trkpt lat="46.449240" lon="8.666320">
        <ele>1405.495</ele>
        <time>2026-07-16T11:55:10.732Z</time>
      </trkpt>
      <trkpt lat="46.449370" lon="8.665720">
        <ele>1417.160</ele>
        <time>2026-07-16T11:55:30.732Z</time>
      </trkpt>
      <trkpt lat="46.451030" lon="8.664730">
        <ele>1431.046</ele>
        <time>2026-07-16T11:55:50.732Z</time>
      </trkpt>
      <trkpt lat="46.452050" lon="8.663840">
        <ele>1441.868</ele>
        <time>2026-07-16T11:56:10.732Z</time>
      </trkpt>
      <trkpt lat="46.452180" lon="8.663830">
        <ele>1441.825</ele>
        <time>2026-07-16T11:56:30.732Z</time>
      </trkpt>
      <trkpt lat="46.452610" lon="8.664710">
        <ele>1446.265</ele>
        <time>2026-07-16T11:56:50.732Z</time>
      </trkpt>
      <trkpt lat="46.453530" lon="8.664770">
        <ele>1450.696</ele>
        <time>2026-07-16T11:57:10.732Z</time>
      </trkpt>
      <trkpt lat="46.454050" lon="8.664440">
        <ele>1456.963</ele>
        <time>2026-07-16T11:57:30.732Z</time>
      </trkpt>
      <trkpt lat="46.454130" lon="8.662870">
        <ele>1461.527</ele>
        <time>2026-07-16T11:57:50.732Z</time>
      </trkpt>
      <trkpt lat="46.454340" lon="8.662510">
        <ele>1462.268</ele>
        <time>2026-07-16T11:58:10.732Z</time>
      </trkpt>
      <trkpt lat="46.455570" lon="8.662170">
        <ele>1465.014</ele>
        <time>2026-07-16T11:58:30.732Z</time>
      </trkpt>
      <trkpt lat="46.458020" lon="8.660850">
        <ele>1479.309</ele>
        <time>2026-07-16T11:58:50.732Z</time>
      </trkpt>
      <trkpt lat="46.458390" lon="8.660420">
        <ele>1465.944</ele>
        <time>2026-07-16T11:59:10.732Z</time>
      </trkpt>
      <trkpt lat="46.459180" lon="8.660740">
        <ele>1463.889</ele>
        <time>2026-07-16T11:59:30.732Z</time>
      </trkpt>
      <trkpt lat="46.459920" lon="8.660420">
        <ele>1463.824</ele>
        <time>2026-07-16T11:59:50.732Z</time>
      </trkpt>
      <trkpt lat="46.460800" lon="8.659540">
        <ele>1463.890</ele>
        <time>2026-07-16T12:00:10.732Z</time>
      </trkpt>
      <trkpt lat="46.461260" lon="8.658310">
        <ele>1465.442</ele>
        <time>2026-07-16T12:00:30.732Z</time>
      </trkpt>
      <trkpt lat="46.462230" lon="8.656990">
        <ele>1463.139</ele>
        <time>2026-07-16T12:00:50.732Z</time>
      </trkpt>
      <trkpt lat="46.463200" lon="8.654400">
        <ele>1464.979</ele>
        <time>2026-07-16T12:01:10.732Z</time>
      </trkpt>
      <trkpt lat="46.466220" lon="8.650580">
        <ele>1465.710</ele>
        <time>2026-07-16T12:01:30.732Z</time>
      </trkpt>
      <trkpt lat="46.466560" lon="8.650410">
        <ele>1481.177</ele>
        <time>2026-07-16T12:01:50.732Z</time>
      </trkpt>
      <trkpt lat="46.466680" lon="8.649780">
        <ele>1463.227</ele>
        <time>2026-07-16T12:02:10.732Z</time>
      </trkpt>
      <trkpt lat="46.467750" lon="8.648210">
        <ele>1471.768</ele>
        <time>2026-07-16T12:02:30.732Z</time>
      </trkpt>
      <trkpt lat="46.470020" lon="8.644070">
        <ele>1465.814</ele>
        <time>2026-07-16T12:02:50.732Z</time>
      </trkpt>
      <trkpt lat="46.471280" lon="8.642180">
        <ele>1468.209</ele>
        <time>2026-07-16T12:03:10.732Z</time>
      </trkpt>
      <trkpt lat="46.474020" lon="8.638810">
        <ele>1465.174</ele>
        <time>2026-07-16T12:03:30.732Z</time>
      </trkpt>
      <trkpt lat="46.474510" lon="8.638540">
        <ele>1469.069</ele>
        <time>2026-07-16T12:03:50.732Z</time>
      </trkpt>
      <trkpt lat="46.474500" lon="8.637920">
        <ele>1466.454</ele>
        <time>2026-07-16T12:04:10.732Z</time>
      </trkpt>
      <trkpt lat="46.474710" lon="8.637310">
        <ele>1467.680</ele>
        <time>2026-07-16T12:04:30.732Z</time>
      </trkpt>
      <trkpt lat="46.475200" lon="8.636870">
        <ele>1471.522</ele>
        <time>2026-07-16T12:04:50.732Z</time>
      </trkpt>
      <trkpt lat="46.475270" lon="8.636570">
        <ele>1470.789</ele>
        <time>2026-07-16T12:05:10.732Z</time>
      </trkpt>
      <trkpt lat="46.475960" lon="8.635700">
        <ele>1476.149</ele>
        <time>2026-07-16T12:05:30.732Z</time>
      </trkpt>
      <trkpt lat="46.476120" lon="8.635290">
        <ele>1475.330</ele>
        <time>2026-07-16T12:05:50.732Z</time>
      </trkpt>
      <trkpt lat="46.476450" lon="8.634110">
        <ele>1484.977</ele>
        <time>2026-07-16T12:06:10.732Z</time>
      </trkpt>
      <trkpt lat="46.476390" lon="8.633480">
        <ele>1486.513</ele>
        <time>2026-07-16T12:06:30.732Z</time>
      </trkpt>
      <trkpt lat="46.476560" lon="8.632960">
        <ele>1488.443</ele>
        <time>2026-07-16T12:06:50.732Z</time>
      </trkpt>
      <trkpt lat="46.477110" lon="8.631850">
        <ele>1496.307</ele>
        <time>2026-07-16T12:07:10.732Z</time>
      </trkpt>
      <trkpt lat="46.477940" lon="8.631090">
        <ele>1511.109</ele>
        <time>2026-07-16T12:07:30.732Z</time>
      </trkpt>
      <trkpt lat="46.478490" lon="8.629980">
        <ele>1524.873</ele>
        <time>2026-07-16T12:07:50.732Z</time>
      </trkpt>
      <trkpt lat="46.479650" lon="8.626460">
        <ele>1548.028</ele>
        <time>2026-07-16T12:08:10.732Z</time>
      </trkpt>
      <trkpt lat="46.479420" lon="8.628890">
        <ele>1572.713</ele>
        <time>2026-07-16T12:08:30.732Z</time>
      </trkpt>
      <trkpt lat="46.480280" lon="8.626540">
        <ele>1585.399</ele>
        <time>2026-07-16T12:08:50.732Z</time>
      </trkpt>
      <trkpt lat="46.481320" lon="8.625050">
        <ele>1595.091</ele>
        <time>2026-07-16T12:09:10.732Z</time>
      </trkpt>
      <trkpt lat="46.481710" lon="8.624000">
        <ele>1594.078</ele>
        <time>2026-07-16T12:09:30.732Z</time>
      </trkpt>
      <trkpt lat="46.482690" lon="8.622730">
        <ele>1610.828</ele>
        <time>2026-07-16T12:09:50.732Z</time>
      </trkpt>
      <trkpt lat="46.483950" lon="8.621680">
        <ele>1639.799</ele>
        <time>2026-07-16T12:10:10.732Z</time>
      </trkpt>
      <trkpt lat="46.485650" lon="8.618760">
        <ele>1681.956</ele>
        <time>2026-07-16T12:10:30.732Z</time>
      </trkpt>
      <trkpt lat="46.486160" lon="8.617040">
        <ele>1704.079</ele>
        <time>2026-07-16T12:10:50.732Z</time>
      </trkpt>
      <trkpt lat="46.486070" lon="8.615740">
        <ele>1710.905</ele>
        <time>2026-07-16T12:11:10.732Z</time>
      </trkpt>
      <trkpt lat="46.487010" lon="8.612340">
        <ele>1741.725</ele>
        <time>2026-07-16T12:11:30.732Z</time>
      </trkpt>
      <trkpt lat="46.487630" lon="8.611520">
        <ele>1744.709</ele>
        <time>2026-07-16T12:11:50.732Z</time>
      </trkpt>
      <trkpt lat="46.487310" lon="8.609740">
        <ele>1756.789</ele>
        <time>2026-07-16T12:12:10.732Z</time>
      </trkpt>
      <trkpt lat="46.487350" lon="8.608320">
        <ele>1755.784</ele>
        <time>2026-07-16T12:12:30.732Z</time>
      </trkpt>
      <trkpt lat="46.486740" lon="8.606430">
        <ele>1761.259</ele>
        <time>2026-07-16T12:12:50.732Z</time>
      </trkpt>
      <trkpt lat="46.486690" lon="8.605420">
        <ele>1758.495</ele>
        <time>2026-07-16T12:13:10.732Z</time>
      </trkpt>
      <trkpt lat="46.486400" lon="8.604060">
        <ele>1750.247</ele>
        <time>2026-07-16T12:13:30.732Z</time>
      </trkpt>
      <trkpt lat="46.486050" lon="8.603500">
        <ele>1749.854</ele>
        <time>2026-07-16T12:13:50.732Z</time>
      </trkpt>
      <trkpt lat="46.485310" lon="8.603270">
        <ele>1746.554</ele>
        <time>2026-07-16T12:14:10.732Z</time>
      </trkpt>
      <trkpt lat="46.484920" lon="8.603460">
        <ele>1748.755</ele>
        <time>2026-07-16T12:14:30.732Z</time>
      </trkpt>
      <trkpt lat="46.484240" lon="8.606810">
        <ele>1782.652</ele>
        <time>2026-07-16T12:14:50.732Z</time>
      </trkpt>
      <trkpt lat="46.484050" lon="8.606860">
        <ele>1787.042</ele>
        <time>2026-07-16T12:15:10.732Z</time>
      </trkpt>
      <trkpt lat="46.483640" lon="8.607540">
        <ele>1796.422</ele>
        <time>2026-07-16T12:15:30.732Z</time>
      </trkpt>
      <trkpt lat="46.483190" lon="8.607870">
        <ele>1806.814</ele>
        <time>2026-07-16T12:15:50.732Z</time>
      </trkpt>
      <trkpt lat="46.482080" lon="8.609450">
        <ele>1827.609</ele>
        <time>2026-07-16T12:16:10.732Z</time>
      </trkpt>
      <trkpt lat="46.482330" lon="8.608310">
        <ele>1839.846</ele>
        <time>2026-07-16T12:16:30.732Z</time>
      </trkpt>
      <trkpt lat="46.482530" lon="8.608210">
        <ele>1839.041</ele>
        <time>2026-07-16T12:16:50.732Z</time>
      </trkpt>
      <trkpt lat="46.482600" lon="8.605440">
        <ele>1870.686</ele>
        <time>2026-07-16T12:17:10.732Z</time>
      </trkpt>
      <trkpt lat="46.483080" lon="8.604590">
        <ele>1875.572</ele>
        <time>2026-07-16T12:17:30.732Z</time>
      </trkpt>
      <trkpt lat="46.483090" lon="8.603770">
        <ele>1884.494</ele>
        <time>2026-07-16T12:17:50.732Z</time>
      </trkpt>
      <trkpt lat="46.482700" lon="8.604260">
        <ele>1893.571</ele>
        <time>2026-07-16T12:18:10.732Z</time>
      </trkpt>
      <trkpt lat="46.482520" lon="8.604240">
        <ele>1897.341</ele>
        <time>2026-07-16T12:18:30.732Z</time>
      </trkpt>
      <trkpt lat="46.482440" lon="8.604380">
        <ele>1898.772</ele>
        <time>2026-07-16T12:18:50.732Z</time>
      </trkpt>
      <trkpt lat="46.482040" lon="8.605710">
        <ele>1906.489</ele>
        <time>2026-07-16T12:19:10.732Z</time>
      </trkpt>
      <trkpt lat="46.482310" lon="8.603260">
        <ele>1926.646</ele>
        <time>2026-07-16T12:19:30.732Z</time>
      </trkpt>
      <trkpt lat="46.482570" lon="8.603010">
        <ele>1925.388</ele>
        <time>2026-07-16T12:19:50.732Z</time>
      </trkpt>
      <trkpt lat="46.482600" lon="8.602440">
        <ele>1932.216</ele>
        <time>2026-07-16T12:20:10.732Z</time>
      </trkpt>
      <trkpt lat="46.482370" lon="8.601850">
        <ele>1939.009</ele>
        <time>2026-07-16T12:20:30.732Z</time>
      </trkpt>
      <trkpt lat="46.482100" lon="8.601480">
        <ele>1944.776</ele>
        <time>2026-07-16T12:20:50.732Z</time>
      </trkpt>
      <trkpt lat="46.481990" lon="8.601520">
        <ele>1948.711</ele>
        <time>2026-07-16T12:21:10.732Z</time>
      </trkpt>
      <trkpt lat="46.481790" lon="8.602850">
        <ele>1962.966</ele>
        <time>2026-07-16T12:21:30.732Z</time>
      </trkpt>
      <trkpt lat="46.481210" lon="8.603820">
        <ele>1977.162</ele>
        <time>2026-07-16T12:21:50.732Z</time>
      </trkpt>
      <trkpt lat="46.481360" lon="8.602090">
        <ele>2000.564</ele>
        <time>2026-07-16T12:22:10.732Z</time>
      </trkpt>
      <trkpt lat="46.481260" lon="8.601680">
        <ele>1998.931</ele>
        <time>2026-07-16T12:22:30.732Z</time>
      </trkpt>
      <trkpt lat="46.480710" lon="8.601230">
        <ele>2009.721</ele>
        <time>2026-07-16T12:22:50.732Z</time>
      </trkpt>
      <trkpt lat="46.479920" lon="8.601130">
        <ele>2022.952</ele>
        <time>2026-07-16T12:23:10.732Z</time>
      </trkpt>
      <trkpt lat="46.479570" lon="8.600890">
        <ele>2025.799</ele>
        <time>2026-07-16T12:23:30.732Z</time>
      </trkpt>
      <trkpt lat="46.479030" lon="8.600050">
        <ele>2030.664</ele>
        <time>2026-07-16T12:23:50.732Z</time>
      </trkpt>
      <trkpt lat="46.478690" lon="8.598620">
        <ele>2046.706</ele>
        <time>2026-07-16T12:24:10.732Z</time>
      </trkpt>
      <trkpt lat="46.478580" lon="8.597120">
        <ele>2057.116</ele>
        <time>2026-07-16T12:24:30.732Z</time>
      </trkpt>
      <trkpt lat="46.478350" lon="8.596210">
        <ele>2063.109</ele>
        <time>2026-07-16T12:24:50.732Z</time>
      </trkpt>
      <trkpt lat="46.477940" lon="8.595610">
        <ele>2069.318</ele>
        <time>2026-07-16T12:25:10.732Z</time>
      </trkpt>
      <trkpt lat="46.477950" lon="8.595290">
        <ele>2071.513</ele>
        <time>2026-07-16T12:25:30.732Z</time>
      </trkpt>
      <trkpt lat="46.478320" lon="8.594860">
        <ele>2081.498</ele>
        <time>2026-07-16T12:25:50.732Z</time>
      </trkpt>
      <trkpt lat="46.477840" lon="8.593650">
        <ele>2093.374</ele>
        <time>2026-07-16T12:26:10.732Z</time>
      </trkpt>
      <trkpt lat="46.476950" lon="8.589200">
        <ele>2124.036</ele>
        <time>2026-07-16T12:26:30.732Z</time>
      </trkpt>
      <trkpt lat="46.477000" lon="8.588790">
        <ele>2128.543</ele>
        <time>2026-07-16T12:26:50.732Z</time>
      </trkpt>
      <trkpt lat="46.477290" lon="8.588760">
        <ele>2135.373</ele>
        <time>2026-07-16T12:27:10.732Z</time>
      </trkpt>
      <trkpt lat="46.477440" lon="8.588570">
        <ele>2138.294</ele>
        <time>2026-07-16T12:27:30.732Z</time>
      </trkpt>
      <trkpt lat="46.477620" lon="8.586390">
        <ele>2158.931</ele>
        <time>2026-07-16T12:27:50.732Z</time>
      </trkpt>
      <trkpt lat="46.477940" lon="8.587420">
        <ele>2173.918</ele>
        <time>2026-07-16T12:28:10.732Z</time>
      </trkpt>
      <trkpt lat="46.478360" lon="8.590690">
        <ele>2191.798</ele>
        <time>2026-07-16T12:28:30.732Z</time>
      </trkpt>
      <trkpt lat="46.478550" lon="8.590710">
        <ele>2192.517</ele>
        <time>2026-07-16T12:28:50.732Z</time>
      </trkpt>
      <trkpt lat="46.478860" lon="8.589200">
        <ele>2213.409</ele>
        <time>2026-07-16T12:29:10.732Z</time>
      </trkpt>
      <trkpt lat="46.478770" lon="8.589160">
        <ele>2214.123</ele>
        <time>2026-07-16T12:29:30.732Z</time>
      </trkpt>
      <trkpt lat="46.478550" lon="8.589480">
        <ele>2208.158</ele>
        <time>2026-07-16T12:29:50.732Z</time>
      </trkpt>
      <trkpt lat="46.478500" lon="8.588620">
        <ele>2215.353</ele>
        <time>2026-07-16T12:30:10.732Z</time>
      </trkpt>
      <trkpt lat="46.478960" lon="8.583530">
        <ele>2263.399</ele>
        <time>2026-07-16T12:30:30.732Z</time>
      </trkpt>
      <trkpt lat="46.478660" lon="8.581470">
        <ele>2273.691</ele>
        <time>2026-07-16T12:30:50.732Z</time>
      </trkpt>
      <trkpt lat="46.479460" lon="8.578390">
        <ele>2272.788</ele>
        <time>2026-07-16T12:31:10.732Z</time>
      </trkpt>
      <trkpt lat="46.479340" lon="8.578180">
        <ele>2272.918</ele>
        <time>2026-07-16T12:31:30.732Z</time>
      </trkpt>
      <trkpt lat="46.479230" lon="8.576490">
        <ele>2292.749</ele>
        <time>2026-07-16T12:31:50.732Z</time>
      </trkpt>
      <trkpt lat="46.479000" lon="8.575720">
        <ele>2289.116</ele>
        <time>2026-07-16T12:32:10.732Z</time>
      </trkpt>
      <trkpt lat="46.479080" lon="8.575610">
        <ele>2293.615</ele>
        <time>2026-07-16T12:32:30.732Z</time>
      </trkpt>
      <trkpt lat="46.479340" lon="8.575700">
        <ele>2299.065</ele>
        <time>2026-07-16T12:32:50.732Z</time>
      </trkpt>
      <trkpt lat="46.479470" lon="8.576130">
        <ele>2305.611</ele>
        <time>2026-07-16T12:33:10.732Z</time>
      </trkpt>
      <trkpt lat="46.479660" lon="8.575590">
        <ele>2309.209</ele>
        <time>2026-07-16T12:33:30.732Z</time>
      </trkpt>
    </trkseg>
  </trk></gpx>