<?xml version="1.0" encoding="UTF-8"?>
<gpx creator="Wikiloc - https://www.wikiloc.com" version="1.1" xmlns="http://www.topografix.com/GPX/1/1" xmlns:xsi="http://www.w3.org/2001/XMLSchema-instance" xsi:schemaLocation="http://www.topografix.com/GPX/1/1 http://www.topografix.com/GPX/1/1/gpx.xsd">
  <metadata>
    <name>Wikiloc - Le Mont Ventoux 1.911m (Bedoin)</name>
    <link href="https://www.wikiloc.com/cycling-trails/le-mont-ventoux-1-911m-bedoin-216522701">
      <text>Le Mont Ventoux 1.911m (Bedoin) - Wikiloc on Wikiloc</text>
    </link>
    <time>2025-05-02T09:54:26Z</time>
  </metadata>
  <trk>
    <name>Le Mont Ventoux 1.911m (Bedoin) - Wikiloc</name>
    <cmt></cmt>
    <desc></desc>
    <trkseg>
      <trkpt lat="44.122006" lon="5.178700">
        <ele>303.684</ele>
        <time>2025-05-02T08:08:10Z</time>
      </trkpt>
      <trkpt lat="44.123185" lon="5.180417">
        <ele>308.607</ele>
        <time>2025-05-02T08:09:11Z</time>
      </trkpt>
      <trkpt lat="44.123693" lon="5.180782">
        <ele>310.817</ele>
        <time>2025-05-02T08:09:34Z</time>
      </trkpt>
      <trkpt lat="44.124227" lon="5.180800">
        <ele>313.009</ele>
        <time>2025-05-02T08:09:51Z</time>
      </trkpt>
      <trkpt lat="44.125306" lon="5.180258">
        <ele>317.260</ele>
        <time>2025-05-02T08:10:21Z</time>
      </trkpt>
      <trkpt lat="44.125211" lon="5.180347">
        <ele>317.429</ele>
        <time>2025-05-02T08:10:29Z</time>
      </trkpt>
      <trkpt lat="44.125295" lon="5.180630">
        <ele>317.014</ele>
        <time>2025-05-02T08:10:38Z</time>
      </trkpt>
      <trkpt lat="44.124997" lon="5.182295">
        <ele>318.083</ele>
        <time>2025-05-02T08:11:08Z</time>
      </trkpt>
      <trkpt lat="44.124406" lon="5.184494">
        <ele>321.490</ele>
        <time>2025-05-02T08:11:44Z</time>
      </trkpt>
      <trkpt lat="44.123571" lon="5.188469">
        <ele>330.460</ele>
        <time>2025-05-02T08:12:40Z</time>
      </trkpt>
      <trkpt lat="44.123109" lon="5.189287">
        <ele>334.295</ele>
        <time>2025-05-02T08:12:55Z</time>
      </trkpt>
      <trkpt lat="44.122308" lon="5.189931">
        <ele>337.648</ele>
        <time>2025-05-02T08:13:14Z</time>
      </trkpt>
      <trkpt lat="44.122109" lon="5.190232">
        <ele>338.499</ele>
        <time>2025-05-02T08:13:20Z</time>
      </trkpt>
      <trkpt lat="44.121347" lon="5.192163">
        <ele>341.613</ele>
        <time>2025-05-02T08:13:49Z</time>
      </trkpt>
      <trkpt lat="44.120507" lon="5.195207">
        <ele>348.043</ele>
        <time>2025-05-02T08:14:34Z</time>
      </trkpt>
      <trkpt lat="44.119981" lon="5.196542">
        <ele>351.807</ele>
        <time>2025-05-02T08:14:54Z</time>
      </trkpt>
      <trkpt lat="44.118840" lon="5.198848">
        <ele>358.009</ele>
        <time>2025-05-02T08:15:33Z</time>
      </trkpt>
      <trkpt lat="44.118428" lon="5.200203">
        <ele>363.653</ele>
        <time>2025-05-02T08:15:55Z</time>
      </trkpt>
      <trkpt lat="44.118550" lon="5.200463">
        <ele>365.072</ele>
        <time>2025-05-02T08:16:01Z</time>
      </trkpt>
      <trkpt lat="44.119451" lon="5.201039">
        <ele>369.267</ele>
        <time>2025-05-02T08:16:21Z</time>
      </trkpt>
      <trkpt lat="44.119885" lon="5.201827">
        <ele>371.826</ele>
        <time>2025-05-02T08:16:36Z</time>
      </trkpt>
      <trkpt lat="44.120175" lon="5.205132">
        <ele>383.243</ele>
        <time>2025-05-02T08:17:26Z</time>
      </trkpt>
      <trkpt lat="44.119889" lon="5.208744">
        <ele>393.673</ele>
        <time>2025-05-02T08:18:19Z</time>
      </trkpt>
      <trkpt lat="44.119981" lon="5.209811">
        <ele>396.428</ele>
        <time>2025-05-02T08:18:34Z</time>
      </trkpt>
      <trkpt lat="44.120290" lon="5.211568">
        <ele>405.091</ele>
        <time>2025-05-02T08:19:04Z</time>
      </trkpt>
      <trkpt lat="44.121888" lon="5.214605">
        <ele>419.682</ele>
        <time>2025-05-02T08:20:06Z</time>
      </trkpt>
      <trkpt lat="44.122193" lon="5.215651">
        <ele>424.688</ele>
        <time>2025-05-02T08:20:25Z</time>
      </trkpt>
      <trkpt lat="44.122098" lon="5.216581">
        <ele>429.424</ele>
        <time>2025-05-02T08:20:43Z</time>
      </trkpt>
      <trkpt lat="44.121278" lon="5.219387">
        <ele>445.626</ele>
        <time>2025-05-02T08:21:41Z</time>
      </trkpt>
      <trkpt lat="44.120687" lon="5.220784">
        <ele>452.409</ele>
        <time>2025-05-02T08:22:09Z</time>
      </trkpt>
      <trkpt lat="44.120221" lon="5.222517">
        <ele>458.410</ele>
        <time>2025-05-02T08:22:46Z</time>
      </trkpt>
      <trkpt lat="44.120526" lon="5.224138">
        <ele>465.079</ele>
        <time>2025-05-02T08:23:19Z</time>
      </trkpt>
      <trkpt lat="44.120214" lon="5.227524">
        <ele>480.064</ele>
        <time>2025-05-02T08:24:26Z</time>
      </trkpt>
      <trkpt lat="44.120534" lon="5.230245">
        <ele>494.673</ele>
        <time>2025-05-02T08:25:22Z</time>
      </trkpt>
      <trkpt lat="44.120381" lon="5.230688">
        <ele>497.090</ele>
        <time>2025-05-02T08:25:31Z</time>
      </trkpt>
      <trkpt lat="44.118009" lon="5.233928">
        <ele>517.470</ele>
        <time>2025-05-02T08:26:55Z</time>
      </trkpt>
      <trkpt lat="44.117848" lon="5.234644">
        <ele>519.665</ele>
        <time>2025-05-02T08:27:09Z</time>
      </trkpt>
      <trkpt lat="44.117475" lon="5.235275">
        <ele>521.628</ele>
        <time>2025-05-02T08:27:22Z</time>
      </trkpt>
      <trkpt lat="44.117539" lon="5.236761">
        <ele>524.469</ele>
        <time>2025-05-02T08:27:45Z</time>
      </trkpt>
      <trkpt lat="44.117341" lon="5.237975">
        <ele>528.266</ele>
        <time>2025-05-02T08:28:05Z</time>
      </trkpt>
      <trkpt lat="44.117139" lon="5.238425">
        <ele>530.229</ele>
        <time>2025-05-02T08:28:14Z</time>
      </trkpt>
      <trkpt lat="44.116075" lon="5.239802">
        <ele>532.021</ele>
        <time>2025-05-02T08:28:41Z</time>
      </trkpt>
      <trkpt lat="44.115689" lon="5.240144">
        <ele>532.009</ele>
        <time>2025-05-02T08:28:48Z</time>
      </trkpt>
      <trkpt lat="44.114854" lon="5.240217">
        <ele>533.218</ele>
        <time>2025-05-02T08:29:01Z</time>
      </trkpt>
      <trkpt lat="44.113996" lon="5.239705">
        <ele>537.237</ele>
        <time>2025-05-02T08:29:19Z</time>
      </trkpt>
      <trkpt lat="44.113576" lon="5.239618">
        <ele>539.842</ele>
        <time>2025-05-02T08:29:29Z</time>
      </trkpt>
      <trkpt lat="44.113477" lon="5.239719">
        <ele>541.411</ele>
        <time>2025-05-02T08:29:33Z</time>
      </trkpt>
      <trkpt lat="44.114041" lon="5.240337">
        <ele>547.848</ele>
        <time>2025-05-02T08:29:52Z</time>
      </trkpt>
      <trkpt lat="44.114900" lon="5.241609">
        <ele>559.688</ele>
        <time>2025-05-02T08:30:30Z</time>
      </trkpt>
      <trkpt lat="44.116132" lon="5.242643">
        <ele>573.823</ele>
        <time>2025-05-02T08:31:16Z</time>
      </trkpt>
      <trkpt lat="44.115445" lon="5.243898">
        <ele>587.426</ele>
        <time>2025-05-02T08:31:57Z</time>
      </trkpt>
      <trkpt lat="44.115483" lon="5.244323">
        <ele>589.637</ele>
        <time>2025-05-02T08:32:07Z</time>
      </trkpt>
      <trkpt lat="44.115769" lon="5.244773">
        <ele>593.058</ele>
        <time>2025-05-02T08:32:21Z</time>
      </trkpt>
      <trkpt lat="44.117314" lon="5.246661">
        <ele>611.652</ele>
        <time>2025-05-02T08:33:28Z</time>
      </trkpt>
      <trkpt lat="44.118058" lon="5.247319">
        <ele>620.417</ele>
        <time>2025-05-02T08:33:57Z</time>
      </trkpt>
      <trkpt lat="44.118573" lon="5.247535">
        <ele>625.809</ele>
        <time>2025-05-02T08:34:16Z</time>
      </trkpt>
      <trkpt lat="44.118856" lon="5.247901">
        <ele>630.867</ele>
        <time>2025-05-02T08:34:31Z</time>
      </trkpt>
      <trkpt lat="44.119447" lon="5.248251">
        <ele>638.056</ele>
        <time>2025-05-02T08:34:57Z</time>
      </trkpt>
      <trkpt lat="44.119687" lon="5.248548">
        <ele>641.431</ele>
        <time>2025-05-02T08:35:08Z</time>
      </trkpt>
      <trkpt lat="44.120927" lon="5.248839">
        <ele>655.480</ele>
        <time>2025-05-02T08:35:53Z</time>
      </trkpt>
      <trkpt lat="44.121354" lon="5.249370">
        <ele>661.817</ele>
        <time>2025-05-02T08:36:16Z</time>
      </trkpt>
      <trkpt lat="44.121785" lon="5.249213">
        <ele>666.867</ele>
        <time>2025-05-02T08:36:32Z</time>
      </trkpt>
      <trkpt lat="44.122155" lon="5.249361">
        <ele>670.442</ele>
        <time>2025-05-02T08:36:45Z</time>
      </trkpt>
      <trkpt lat="44.122560" lon="5.249817">
        <ele>675.495</ele>
        <time>2025-05-02T08:37:03Z</time>
      </trkpt>
      <trkpt lat="44.123456" lon="5.251238">
        <ele>687.876</ele>
        <time>2025-05-02T08:37:50Z</time>
      </trkpt>
      <trkpt lat="44.124139" lon="5.252413">
        <ele>697.258</ele>
        <time>2025-05-02T08:38:24Z</time>
      </trkpt>
      <trkpt lat="44.124658" lon="5.253593">
        <ele>707.052</ele>
        <time>2025-05-02T08:38:57Z</time>
      </trkpt>
      <trkpt lat="44.124608" lon="5.255219">
        <ele>720.017</ele>
        <time>2025-05-02T08:39:40Z</time>
      </trkpt>
      <trkpt lat="44.125093" lon="5.256773">
        <ele>733.609</ele>
        <time>2025-05-02T08:40:27Z</time>
      </trkpt>
      <trkpt lat="44.125173" lon="5.257520">
        <ele>738.897</ele>
        <time>2025-05-02T08:40:46Z</time>
      </trkpt>
      <trkpt lat="44.124997" lon="5.258120">
        <ele>744.666</ele>
        <time>2025-05-02T08:41:05Z</time>
      </trkpt>
      <trkpt lat="44.124494" lon="5.258757">
        <ele>752.021</ele>
        <time>2025-05-02T08:41:30Z</time>
      </trkpt>
      <trkpt lat="44.124333" lon="5.259159">
        <ele>754.850</ele>
        <time>2025-05-02T08:41:40Z</time>
      </trkpt>
      <trkpt lat="44.124314" lon="5.260427">
        <ele>764.097</ele>
        <time>2025-05-02T08:42:13Z</time>
      </trkpt>
      <trkpt lat="44.124635" lon="5.261605">
        <ele>774.067</ele>
        <time>2025-05-02T08:42:50Z</time>
      </trkpt>
      <trkpt lat="44.124257" lon="5.262777">
        <ele>785.252</ele>
        <time>2025-05-02T08:43:27Z</time>
      </trkpt>
      <trkpt lat="44.123990" lon="5.264595">
        <ele>800.235</ele>
        <time>2025-05-02T08:44:19Z</time>
      </trkpt>
      <trkpt lat="44.124333" lon="5.265692">
        <ele>810.216</ele>
        <time>2025-05-02T08:44:56Z</time>
      </trkpt>
      <trkpt lat="44.125264" lon="5.267403">
        <ele>829.883</ele>
        <time>2025-05-02T08:46:03Z</time>
      </trkpt>
      <trkpt lat="44.125360" lon="5.267880">
        <ele>834.425</ele>
        <time>2025-05-02T08:46:18Z</time>
      </trkpt>
      <trkpt lat="44.126115" lon="5.269637">
        <ele>850.817</ele>
        <time>2025-05-02T08:47:20Z</time>
      </trkpt>
      <trkpt lat="44.126542" lon="5.271292">
        <ele>862.609</ele>
        <time>2025-05-02T08:48:11Z</time>
      </trkpt>
      <trkpt lat="44.126657" lon="5.273213">
        <ele>876.470</ele>
        <time>2025-05-02T08:49:05Z</time>
      </trkpt>
      <trkpt lat="44.125859" lon="5.275097">
        <ele>892.829</ele>
        <time>2025-05-02T08:50:10Z</time>
      </trkpt>
      <trkpt lat="44.125752" lon="5.275624">
        <ele>896.854</ele>
        <time>2025-05-02T08:50:26Z</time>
      </trkpt>
      <trkpt lat="44.126145" lon="5.278145">
        <ele>911.893</ele>
        <time>2025-05-02T08:51:29Z</time>
      </trkpt>
      <trkpt lat="44.126485" lon="5.278579">
        <ele>916.490</ele>
        <time>2025-05-02T08:51:49Z</time>
      </trkpt>
      <trkpt lat="44.126542" lon="5.278839">
        <ele>918.440</ele>
        <time>2025-05-02T08:51:56Z</time>
      </trkpt>
      <trkpt lat="44.126546" lon="5.280243">
        <ele>927.645</ele>
        <time>2025-05-02T08:52:35Z</time>
      </trkpt>
      <trkpt lat="44.127004" lon="5.281948">
        <ele>940.278</ele>
        <time>2025-05-02T08:53:24Z</time>
      </trkpt>
      <trkpt lat="44.126927" lon="5.283451">
        <ele>952.639</ele>
        <time>2025-05-02T08:54:07Z</time>
      </trkpt>
      <trkpt lat="44.127324" lon="5.283858">
        <ele>958.662</ele>
        <time>2025-05-02T08:54:31Z</time>
      </trkpt>
      <trkpt lat="44.127881" lon="5.283681">
        <ele>964.283</ele>
        <time>2025-05-02T08:54:57Z</time>
      </trkpt>
      <trkpt lat="44.128663" lon="5.283903">
        <ele>973.411</ele>
        <time>2025-05-02T08:55:31Z</time>
      </trkpt>
      <trkpt lat="44.128442" lon="5.284326">
        <ele>978.209</ele>
        <time>2025-05-02T08:55:49Z</time>
      </trkpt>
      <trkpt lat="44.128835" lon="5.285147">
        <ele>984.688</ele>
        <time>2025-05-02T08:56:17Z</time>
      </trkpt>
      <trkpt lat="44.128995" lon="5.286208">
        <ele>993.637</ele>
        <time>2025-05-02T08:56:50Z</time>
      </trkpt>
      <trkpt lat="44.129537" lon="5.287244">
        <ele>1004.272</ele>
        <time>2025-05-02T08:57:29Z</time>
      </trkpt>
      <trkpt lat="44.129605" lon="5.288258">
        <ele>1012.471</ele>
        <time>2025-05-02T08:58:00Z</time>
      </trkpt>
      <trkpt lat="44.130319" lon="5.288850">
        <ele>1021.288</ele>
        <time>2025-05-02T08:58:35Z</time>
      </trkpt>
      <trkpt lat="44.130616" lon="5.289237">
        <ele>1024.628</ele>
        <time>2025-05-02T08:58:51Z</time>
      </trkpt>
      <trkpt lat="44.130948" lon="5.290309">
        <ele>1034.473</ele>
        <time>2025-05-02T08:59:27Z</time>
      </trkpt>
      <trkpt lat="44.131711" lon="5.291646">
        <ele>1048.036</ele>
        <time>2025-05-02T09:00:18Z</time>
      </trkpt>
      <trkpt lat="44.132276" lon="5.293315">
        <ele>1063.667</ele>
        <time>2025-05-02T09:01:17Z</time>
      </trkpt>
      <trkpt lat="44.133279" lon="5.295068">
        <ele>1079.847</ele>
        <time>2025-05-02T09:02:19Z</time>
      </trkpt>
      <trkpt lat="44.133847" lon="5.296541">
        <ele>1091.829</ele>
        <time>2025-05-02T09:03:10Z</time>
      </trkpt>
      <trkpt lat="44.134355" lon="5.297423">
        <ele>1100.421</ele>
        <time>2025-05-02T09:03:43Z</time>
      </trkpt>
      <trkpt lat="44.134461" lon="5.298930">
        <ele>1111.809</ele>
        <time>2025-05-02T09:04:25Z</time>
      </trkpt>
      <trkpt lat="44.134812" lon="5.300964">
        <ele>1126.816</ele>
        <time>2025-05-02T09:05:23Z</time>
      </trkpt>
      <trkpt lat="44.135831" lon="5.302906">
        <ele>1144.085</ele>
        <time>2025-05-02T09:06:36Z</time>
      </trkpt>
      <trkpt lat="44.135778" lon="5.303694">
        <ele>1150.450</ele>
        <time>2025-05-02T09:07:00Z</time>
      </trkpt>
      <trkpt lat="44.135472" lon="5.305146">
        <ele>1160.859</ele>
        <time>2025-05-02T09:07:46Z</time>
      </trkpt>
      <trkpt lat="44.135537" lon="5.306343">
        <ele>1167.856</ele>
        <time>2025-05-02T09:08:18Z</time>
      </trkpt>
      <trkpt lat="44.136033" lon="5.307359">
        <ele>1176.216</ele>
        <time>2025-05-02T09:08:51Z</time>
      </trkpt>
      <trkpt lat="44.137013" lon="5.308668">
        <ele>1188.051</ele>
        <time>2025-05-02T09:09:44Z</time>
      </trkpt>
      <trkpt lat="44.138005" lon="5.310463">
        <ele>1203.884</ele>
        <time>2025-05-02T09:10:49Z</time>
      </trkpt>
      <trkpt lat="44.138463" lon="5.313785">
        <ele>1229.885</ele>
        <time>2025-05-02T09:12:22Z</time>
      </trkpt>
      <trkpt lat="44.138616" lon="5.314200">
        <ele>1233.249</ele>
        <time>2025-05-02T09:12:34Z</time>
      </trkpt>
      <trkpt lat="44.139779" lon="5.316180">
        <ele>1252.402</ele>
        <time>2025-05-02T09:13:45Z</time>
      </trkpt>
      <trkpt lat="44.140527" lon="5.317111">
        <ele>1263.222</ele>
        <time>2025-05-02T09:14:25Z</time>
      </trkpt>
      <trkpt lat="44.140809" lon="5.317698">
        <ele>1269.009</ele>
        <time>2025-05-02T09:14:46Z</time>
      </trkpt>
      <trkpt lat="44.141278" lon="5.318149">
        <ele>1274.676</ele>
        <time>2025-05-02T09:15:08Z</time>
      </trkpt>
      <trkpt lat="44.141698" lon="5.318461">
        <ele>1280.075</ele>
        <time>2025-05-02T09:15:29Z</time>
      </trkpt>
      <trkpt lat="44.142232" lon="5.318370">
        <ele>1285.030</ele>
        <time>2025-05-02T09:15:50Z</time>
      </trkpt>
      <trkpt lat="44.142758" lon="5.318525">
        <ele>1290.869</ele>
        <time>2025-05-02T09:16:10Z</time>
      </trkpt>
      <trkpt lat="44.143598" lon="5.318007">
        <ele>1299.466</ele>
        <time>2025-05-02T09:16:45Z</time>
      </trkpt>
      <trkpt lat="44.144227" lon="5.317442">
        <ele>1307.626</ele>
        <time>2025-05-02T09:17:15Z</time>
      </trkpt>
      <trkpt lat="44.144624" lon="5.317382">
        <ele>1312.821</ele>
        <time>2025-05-02T09:17:33Z</time>
      </trkpt>
      <trkpt lat="44.145330" lon="5.317641">
        <ele>1321.684</ele>
        <time>2025-05-02T09:18:09Z</time>
      </trkpt>
      <trkpt lat="44.145856" lon="5.317651">
        <ele>1326.075</ele>
        <time>2025-05-02T09:18:30Z</time>
      </trkpt>
      <trkpt lat="44.145505" lon="5.316471">
        <ele>1333.257</ele>
        <time>2025-05-02T09:19:09Z</time>
      </trkpt>
      <trkpt lat="44.146054" lon="5.315485">
        <ele>1337.200</ele>
        <time>2025-05-02T09:19:39Z</time>
      </trkpt>
      <trkpt lat="44.146249" lon="5.315313">
        <ele>1339.020</ele>
        <time>2025-05-02T09:19:47Z</time>
      </trkpt>
      <trkpt lat="44.146459" lon="5.315295">
        <ele>1341.209</ele>
        <time>2025-05-02T09:19:54Z</time>
      </trkpt>
      <trkpt lat="44.147000" lon="5.315446">
        <ele>1347.467</ele>
        <time>2025-05-02T09:20:16Z</time>
      </trkpt>
      <trkpt lat="44.147439" lon="5.315980">
        <ele>1353.456</ele>
        <time>2025-05-02T09:20:39Z</time>
      </trkpt>
      <trkpt lat="44.148088" lon="5.316247">
        <ele>1359.861</ele>
        <time>2025-05-02T09:21:04Z</time>
      </trkpt>
      <trkpt lat="44.149766" lon="5.317361">
        <ele>1377.030</ele>
        <time>2025-05-02T09:22:12Z</time>
      </trkpt>
      <trkpt lat="44.150853" lon="5.317856">
        <ele>1382.217</ele>
        <time>2025-05-02T09:22:48Z</time>
      </trkpt>
      <trkpt lat="44.151376" lon="5.318458">
        <ele>1385.637</ele>
        <time>2025-05-02T09:23:08Z</time>
      </trkpt>
      <trkpt lat="44.152028" lon="5.318946">
        <ele>1390.092</ele>
        <time>2025-05-02T09:23:30Z</time>
      </trkpt>
      <trkpt lat="44.152257" lon="5.318541">
        <ele>1391.665</ele>
        <time>2025-05-02T09:23:40Z</time>
      </trkpt>
      <trkpt lat="44.152093" lon="5.317551">
        <ele>1395.416</ele>
        <time>2025-05-02T09:24:01Z</time>
      </trkpt>
      <trkpt lat="44.151319" lon="5.315065">
        <ele>1412.268</ele>
        <time>2025-05-02T09:25:02Z</time>
      </trkpt>
      <trkpt lat="44.150987" lon="5.314320">
        <ele>1416.442</ele>
        <time>2025-05-02T09:25:20Z</time>
      </trkpt>
      <trkpt lat="44.151052" lon="5.314020">
        <ele>1418.626</ele>
        <time>2025-05-02T09:25:27Z</time>
      </trkpt>
      <trkpt lat="44.151303" lon="5.313714">
        <ele>1422.409</ele>
        <time>2025-05-02T09:25:38Z</time>
      </trkpt>
      <trkpt lat="44.151662" lon="5.313505">
        <ele>1425.438</ele>
        <time>2025-05-02T09:25:51Z</time>
      </trkpt>
      <trkpt lat="44.152379" lon="5.313600">
        <ele>1431.657</ele>
        <time>2025-05-02T09:26:15Z</time>
      </trkpt>
      <trkpt lat="44.152978" lon="5.314325">
        <ele>1439.622</ele>
        <time>2025-05-02T09:26:40Z</time>
      </trkpt>
      <trkpt lat="44.153543" lon="5.314560">
        <ele>1443.221</ele>
        <time>2025-05-02T09:26:57Z</time>
      </trkpt>
      <trkpt lat="44.154847" lon="5.315512">
        <ele>1455.838</ele>
        <time>2025-05-02T09:27:41Z</time>
      </trkpt>
      <trkpt lat="44.155004" lon="5.315372">
        <ele>1457.218</ele>
        <time>2025-05-02T09:27:47Z</time>
      </trkpt>
      <trkpt lat="44.154859" lon="5.314771">
        <ele>1458.423</ele>
        <time>2025-05-02T09:27:59Z</time>
      </trkpt>
      <trkpt lat="44.154847" lon="5.313905">
        <ele>1461.086</ele>
        <time>2025-05-02T09:28:16Z</time>
      </trkpt>
      <trkpt lat="44.155011" lon="5.312513">
        <ele>1467.227</ele>
        <time>2025-05-02T09:28:46Z</time>
      </trkpt>
      <trkpt lat="44.155152" lon="5.312242">
        <ele>1468.841</ele>
        <time>2025-05-02T09:28:54Z</time>
      </trkpt>
      <trkpt lat="44.155545" lon="5.312218">
        <ele>1471.881</ele>
        <time>2025-05-02T09:29:07Z</time>
      </trkpt>
      <trkpt lat="44.156194" lon="5.312706">
        <ele>1476.609</ele>
        <time>2025-05-02T09:29:29Z</time>
      </trkpt>
      <trkpt lat="44.157155" lon="5.313212">
        <ele>1481.409</ele>
        <time>2025-05-02T09:30:01Z</time>
      </trkpt>
      <trkpt lat="44.157510" lon="5.313536">
        <ele>1483.656</ele>
        <time>2025-05-02T09:30:13Z</time>
      </trkpt>
      <trkpt lat="44.157785" lon="5.313489">
        <ele>1484.875</ele>
        <time>2025-05-02T09:30:21Z</time>
      </trkpt>
      <trkpt lat="44.157899" lon="5.313137">
        <ele>1485.690</ele>
        <time>2025-05-02T09:30:28Z</time>
      </trkpt>
      <trkpt lat="44.157842" lon="5.312184">
        <ele>1490.499</ele>
        <time>2025-05-02T09:30:50Z</time>
      </trkpt>
      <trkpt lat="44.157598" lon="5.311473">
        <ele>1495.286</ele>
        <time>2025-05-02T09:31:08Z</time>
      </trkpt>
      <trkpt lat="44.157472" lon="5.310574">
        <ele>1501.026</ele>
        <time>2025-05-02T09:31:31Z</time>
      </trkpt>
      <trkpt lat="44.157731" lon="5.309197">
        <ele>1509.031</ele>
        <time>2025-05-02T09:32:07Z</time>
      </trkpt>
      <trkpt lat="44.158052" lon="5.308637">
        <ele>1513.484</ele>
        <time>2025-05-02T09:32:25Z</time>
      </trkpt>
      <trkpt lat="44.158673" lon="5.308234">
        <ele>1518.885</ele>
        <time>2025-05-02T09:32:46Z</time>
      </trkpt>
      <trkpt lat="44.159272" lon="5.308077">
        <ele>1523.035</ele>
        <time>2025-05-02T09:33:04Z</time>
      </trkpt>
      <trkpt lat="44.160085" lon="5.308252">
        <ele>1530.086</ele>
        <time>2025-05-02T09:33:31Z</time>
      </trkpt>
      <trkpt lat="44.160321" lon="5.308034">
        <ele>1531.614</ele>
        <time>2025-05-02T09:33:40Z</time>
      </trkpt>
      <trkpt lat="44.160321" lon="5.307783">
        <ele>1532.409</ele>
        <time>2025-05-02T09:33:45Z</time>
      </trkpt>
      <trkpt lat="44.159894" lon="5.306757">
        <ele>1537.245</ele>
        <time>2025-05-02T09:34:10Z</time>
      </trkpt>
      <trkpt lat="44.159677" lon="5.305232">
        <ele>1546.424</ele>
        <time>2025-05-02T09:34:45Z</time>
      </trkpt>
      <trkpt lat="44.160092" lon="5.303272">
        <ele>1558.639</ele>
        <time>2025-05-02T09:35:30Z</time>
      </trkpt>
      <trkpt lat="44.160619" lon="5.301710">
        <ele>1568.268</ele>
        <time>2025-05-02T09:36:09Z</time>
      </trkpt>
      <trkpt lat="44.161317" lon="5.300930">
        <ele>1575.215</ele>
        <time>2025-05-02T09:36:37Z</time>
      </trkpt>
      <trkpt lat="44.161828" lon="5.300707">
        <ele>1580.045</ele>
        <time>2025-05-02T09:36:54Z</time>
      </trkpt>
      <trkpt lat="44.162000" lon="5.300820">
        <ele>1582.260</ele>
        <time>2025-05-02T09:37:00Z</time>
      </trkpt>
      <trkpt lat="44.162686" lon="5.302215">
        <ele>1593.293</ele>
        <time>2025-05-02T09:37:39Z</time>
      </trkpt>
      <trkpt lat="44.162992" lon="5.302592">
        <ele>1596.444</ele>
        <time>2025-05-02T09:37:55Z</time>
      </trkpt>
      <trkpt lat="44.163167" lon="5.302564">
        <ele>1597.052</ele>
        <time>2025-05-02T09:38:02Z</time>
      </trkpt>
      <trkpt lat="44.163869" lon="5.302012">
        <ele>1601.653</ele>
        <time>2025-05-02T09:38:29Z</time>
      </trkpt>
      <trkpt lat="44.164369" lon="5.300499">
        <ele>1610.408</ele>
        <time>2025-05-02T09:39:08Z</time>
      </trkpt>
      <trkpt lat="44.165166" lon="5.299010">
        <ele>1621.009</ele>
        <time>2025-05-02T09:39:48Z</time>
      </trkpt>
      <trkpt lat="44.165425" lon="5.297398">
        <ele>1631.097</ele>
        <time>2025-05-02T09:40:27Z</time>
      </trkpt>
      <trkpt lat="44.165818" lon="5.296946">
        <ele>1635.256</ele>
        <time>2025-05-02T09:40:42Z</time>
      </trkpt>
      <trkpt lat="44.167150" lon="5.296058">
        <ele>1649.881</ele>
        <time>2025-05-02T09:41:30Z</time>
      </trkpt>
      <trkpt lat="44.167645" lon="5.295440">
        <ele>1655.820</ele>
        <time>2025-05-02T09:41:55Z</time>
      </trkpt>
      <trkpt lat="44.167722" lon="5.294913">
        <ele>1658.297</ele>
        <time>2025-05-02T09:42:08Z</time>
      </trkpt>
      <trkpt lat="44.167131" lon="5.293192">
        <ele>1668.097</ele>
        <time>2025-05-02T09:42:55Z</time>
      </trkpt>
      <trkpt lat="44.167302" lon="5.292288">
        <ele>1675.432</ele>
        <time>2025-05-02T09:43:19Z</time>
      </trkpt>
      <trkpt lat="44.167726" lon="5.291871">
        <ele>1680.435</ele>
        <time>2025-05-02T09:43:38Z</time>
      </trkpt>
      <trkpt lat="44.169088" lon="5.291317">
        <ele>1695.296</ele>
        <time>2025-05-02T09:44:37Z</time>
      </trkpt>
      <trkpt lat="44.169469" lon="5.290990">
        <ele>1699.495</ele>
        <time>2025-05-02T09:44:54Z</time>
      </trkpt>
      <trkpt lat="44.169354" lon="5.290557">
        <ele>1702.649</ele>
        <time>2025-05-02T09:45:06Z</time>
      </trkpt>
      <trkpt lat="44.168775" lon="5.289862">
        <ele>1706.823</ele>
        <time>2025-05-02T09:45:31Z</time>
      </trkpt>
      <trkpt lat="44.168641" lon="5.289228">
        <ele>1711.409</ele>
        <time>2025-05-02T09:45:49Z</time>
      </trkpt>
      <trkpt lat="44.168847" lon="5.287871">
        <ele>1719.821</ele>
        <time>2025-05-02T09:46:22Z</time>
      </trkpt>
      <trkpt lat="44.169278" lon="5.286647">
        <ele>1728.620</ele>
        <time>2025-05-02T09:46:52Z</time>
      </trkpt>
      <trkpt lat="44.169774" lon="5.285936">
        <ele>1736.015</ele>
        <time>2025-05-02T09:47:18Z</time>
      </trkpt>
      <trkpt lat="44.170697" lon="5.285166">
        <ele>1748.044</ele>
        <time>2025-05-02T09:47:57Z</time>
      </trkpt>
      <trkpt lat="44.171044" lon="5.284605">
        <ele>1754.071</ele>
        <time>2025-05-02T09:48:17Z</time>
      </trkpt>
      <trkpt lat="44.171300" lon="5.284413">
        <ele>1757.081</ele>
        <time>2025-05-02T09:48:27Z</time>
      </trkpt>
      <trkpt lat="44.172647" lon="5.284093">
        <ele>1771.466</ele>
        <time>2025-05-02T09:49:22Z</time>
      </trkpt>
      <trkpt lat="44.173715" lon="5.283991">
        <ele>1783.899</ele>
        <time>2025-05-02T09:50:04Z</time>
      </trkpt>
      <trkpt lat="44.174237" lon="5.283759">
        <ele>1789.240</ele>
        <time>2025-05-02T09:50:22Z</time>
      </trkpt>
      <trkpt lat="44.174321" lon="5.283330">
        <ele>1793.294</ele>
        <time>2025-05-02T09:50:34Z</time>
      </trkpt>
      <trkpt lat="44.173894" lon="5.281008">
        <ele>1813.457</ele>
        <time>2025-05-02T09:51:41Z</time>
      </trkpt>
      <trkpt lat="44.173028" lon="5.279010">
        <ele>1830.622</ele>
        <time>2025-05-02T09:52:53Z</time>
      </trkpt>
      <trkpt lat="44.173043" lon="5.278211">
        <ele>1837.009</ele>
        <time>2025-05-02T09:53:15Z</time>
      </trkpt>
      <trkpt lat="44.173314" lon="5.277125">
        <ele>1846.031</ele>
        <time>2025-05-02T09:53:44Z</time>
      </trkpt>
      <trkpt lat="44.173467" lon="5.276984">
        <ele>1847.680</ele>
        <time>2025-05-02T09:53:52Z</time>
      </trkpt>
      <trkpt lat="44.173570" lon="5.277135">
        <ele>1851.235</ele>
        <time>2025-05-02T09:54:00Z</time>
      </trkpt>
      <trkpt lat="44.173322" lon="5.278054">
        <ele>1850.864</ele>
        <time>2025-05-02T09:54:26Z</time>
      </trkpt>
    </trkseg>
  </trk></gpx>