<?xml version="1.0" encoding="UTF-8"?>
<gpx creator="Wikiloc - https://www.wikiloc.com" version="1.1" xmlns="http://www.topografix.com/GPX/1/1" xmlns:xsi="http://www.w3.org/2001/XMLSchema-instance" xsi:schemaLocation="http://www.topografix.com/GPX/1/1 http://www.topografix.com/GPX/1/1/gpx.xsd">
  <metadata>
    <name>Wikiloc - Subida Somport desde Canfranc estacion</name>
    <link href="https://www.wikiloc.com/cycling-trails/los-aranones-candanchu-106759586">
      <text>Subida Somport desde Canfranc estacion - Wikiloc on Wikiloc</text>
    </link>
    <time>2022-06-03T09:56:12Z</time>
  </metadata>
  <trk>
    <name>Subida Somport desde Canfranc estacion - Wikiloc</name>
    <cmt></cmt>
    <desc></desc>
    <trkseg>
      <trkpt lat="42.751261" lon="-0.515356">
        <ele>1162.028</ele>
        <time>2022-06-03T09:25:51Z</time>
      </trkpt>
      <trkpt lat="42.751681" lon="-0.515300">
        <ele>1161.289</ele>
        <time>2022-06-03T09:25:58Z</time>
      </trkpt>
      <trkpt lat="42.752491" lon="-0.515023">
        <ele>1159.217</ele>
        <time>2022-06-03T09:26:10Z</time>
      </trkpt>
      <trkpt lat="42.755111" lon="-0.514916">
        <ele>1162.409</ele>
        <time>2022-06-03T09:26:50Z</time>
      </trkpt>
      <trkpt lat="42.755418" lon="-0.514841">
        <ele>1164.293</ele>
        <time>2022-06-03T09:26:57Z</time>
      </trkpt>
      <trkpt lat="42.755592" lon="-0.514668">
        <ele>1165.682</ele>
        <time>2022-06-03T09:27:02Z</time>
      </trkpt>
      <trkpt lat="42.755741" lon="-0.514202">
        <ele>1168.028</ele>
        <time>2022-06-03T09:27:10Z</time>
      </trkpt>
      <trkpt lat="42.755803" lon="-0.513146">
        <ele>1171.279</ele>
        <time>2022-06-03T09:27:26Z</time>
      </trkpt>
      <trkpt lat="42.755917" lon="-0.512901">
        <ele>1171.457</ele>
        <time>2022-06-03T09:27:30Z</time>
      </trkpt>
      <trkpt lat="42.756135" lon="-0.512669">
        <ele>1172.011</ele>
        <time>2022-06-03T09:27:35Z</time>
      </trkpt>
      <trkpt lat="42.756915" lon="-0.512412">
        <ele>1172.297</ele>
        <time>2022-06-03T09:27:48Z</time>
      </trkpt>
      <trkpt lat="42.758202" lon="-0.512370">
        <ele>1174.620</ele>
        <time>2022-06-03T09:28:10Z</time>
      </trkpt>
      <trkpt lat="42.758716" lon="-0.512296">
        <ele>1175.858</ele>
        <time>2022-06-03T09:28:19Z</time>
      </trkpt>
      <trkpt lat="42.760774" lon="-0.511402">
        <ele>1191.699</ele>
        <time>2022-06-03T09:29:18Z</time>
      </trkpt>
      <trkpt lat="42.761071" lon="-0.511405">
        <ele>1193.407</ele>
        <time>2022-06-03T09:29:26Z</time>
      </trkpt>
      <trkpt lat="42.761449" lon="-0.511531">
        <ele>1195.427</ele>
        <time>2022-06-03T09:29:36Z</time>
      </trkpt>
      <trkpt lat="42.762439" lon="-0.512505">
        <ele>1200.809</ele>
        <time>2022-06-03T09:30:04Z</time>
      </trkpt>
      <trkpt lat="42.762843" lon="-0.512716">
        <ele>1201.690</ele>
        <time>2022-06-03T09:30:13Z</time>
      </trkpt>
      <trkpt lat="42.763235" lon="-0.512820">
        <ele>1203.239</ele>
        <time>2022-06-03T09:30:22Z</time>
      </trkpt>
      <trkpt lat="42.765087" lon="-0.512902">
        <ele>1213.695</ele>
        <time>2022-06-03T09:31:08Z</time>
      </trkpt>
      <trkpt lat="42.766410" lon="-0.512683">
        <ele>1225.066</ele>
        <time>2022-06-03T09:31:51Z</time>
      </trkpt>
      <trkpt lat="42.766816" lon="-0.512562">
        <ele>1228.864</ele>
        <time>2022-06-03T09:32:07Z</time>
      </trkpt>
      <trkpt lat="42.767388" lon="-0.512508">
        <ele>1233.218</ele>
        <time>2022-06-03T09:32:28Z</time>
      </trkpt>
      <trkpt lat="42.767875" lon="-0.512372">
        <ele>1237.254</ele>
        <time>2022-06-03T09:32:44Z</time>
      </trkpt>
      <trkpt lat="42.768460" lon="-0.512089">
        <ele>1243.077</ele>
        <time>2022-06-03T09:33:06Z</time>
      </trkpt>
      <trkpt lat="42.768813" lon="-0.511757">
        <ele>1247.075</ele>
        <time>2022-06-03T09:33:22Z</time>
      </trkpt>
      <trkpt lat="42.769172" lon="-0.511535">
        <ele>1249.863</ele>
        <time>2022-06-03T09:33:33Z</time>
      </trkpt>
      <trkpt lat="42.770598" lon="-0.509802">
        <ele>1264.444</ele>
        <time>2022-06-03T09:34:32Z</time>
      </trkpt>
      <trkpt lat="42.771404" lon="-0.509145">
        <ele>1272.218</ele>
        <time>2022-06-03T09:35:03Z</time>
      </trkpt>
      <trkpt lat="42.772971" lon="-0.508488">
        <ele>1284.609</ele>
        <time>2022-06-03T09:35:55Z</time>
      </trkpt>
      <trkpt lat="42.773317" lon="-0.508429">
        <ele>1287.477</ele>
        <time>2022-06-03T09:36:06Z</time>
      </trkpt>
      <trkpt lat="42.773677" lon="-0.508464">
        <ele>1290.496</ele>
        <time>2022-06-03T09:36:17Z</time>
      </trkpt>
      <trkpt lat="42.774232" lon="-0.508744">
        <ele>1294.262</ele>
        <time>2022-06-03T09:36:35Z</time>
      </trkpt>
      <trkpt lat="42.774868" lon="-0.509453">
        <ele>1301.233</ele>
        <time>2022-06-03T09:37:01Z</time>
      </trkpt>
      <trkpt lat="42.775897" lon="-0.511442">
        <ele>1317.261</ele>
        <time>2022-06-03T09:38:00Z</time>
      </trkpt>
      <trkpt lat="42.775972" lon="-0.511679">
        <ele>1319.015</ele>
        <time>2022-06-03T09:38:07Z</time>
      </trkpt>
      <trkpt lat="42.775988" lon="-0.512247">
        <ele>1323.051</ele>
        <time>2022-06-03T09:38:22Z</time>
      </trkpt>
      <trkpt lat="42.775832" lon="-0.512880">
        <ele>1326.894</ele>
        <time>2022-06-03T09:38:37Z</time>
      </trkpt>
      <trkpt lat="42.775286" lon="-0.514008">
        <ele>1335.862</ele>
        <time>2022-06-03T09:39:10Z</time>
      </trkpt>
      <trkpt lat="42.775084" lon="-0.515144">
        <ele>1343.277</ele>
        <time>2022-06-03T09:39:38Z</time>
      </trkpt>
      <trkpt lat="42.774840" lon="-0.515718">
        <ele>1347.461</ele>
        <time>2022-06-03T09:39:54Z</time>
      </trkpt>
      <trkpt lat="42.774444" lon="-0.516151">
        <ele>1351.627</ele>
        <time>2022-06-03T09:40:10Z</time>
      </trkpt>
      <trkpt lat="42.772908" lon="-0.517158">
        <ele>1361.809</ele>
        <time>2022-06-03T09:40:56Z</time>
      </trkpt>
      <trkpt lat="42.772630" lon="-0.517489">
        <ele>1363.018</ele>
        <time>2022-06-03T09:41:03Z</time>
      </trkpt>
      <trkpt lat="42.772519" lon="-0.517878">
        <ele>1363.417</ele>
        <time>2022-06-03T09:41:08Z</time>
      </trkpt>
      <trkpt lat="42.772532" lon="-0.518246">
        <ele>1363.493</ele>
        <time>2022-06-03T09:41:12Z</time>
      </trkpt>
      <trkpt lat="42.772659" lon="-0.518584">
        <ele>1363.414</ele>
        <time>2022-06-03T09:41:16Z</time>
      </trkpt>
      <trkpt lat="42.772829" lon="-0.518778">
        <ele>1363.462</ele>
        <time>2022-06-03T09:41:19Z</time>
      </trkpt>
      <trkpt lat="42.773101" lon="-0.518905">
        <ele>1363.066</ele>
        <time>2022-06-03T09:41:23Z</time>
      </trkpt>
      <trkpt lat="42.773422" lon="-0.518834">
        <ele>1363.072</ele>
        <time>2022-06-03T09:41:28Z</time>
      </trkpt>
      <trkpt lat="42.774503" lon="-0.517809">
        <ele>1373.265</ele>
        <time>2022-06-03T09:42:08Z</time>
      </trkpt>
      <trkpt lat="42.775227" lon="-0.517411">
        <ele>1379.223</ele>
        <time>2022-06-03T09:42:32Z</time>
      </trkpt>
      <trkpt lat="42.775656" lon="-0.517295">
        <ele>1382.084</ele>
        <time>2022-06-03T09:42:45Z</time>
      </trkpt>
      <trkpt lat="42.776336" lon="-0.517274">
        <ele>1387.407</ele>
        <time>2022-06-03T09:43:06Z</time>
      </trkpt>
      <trkpt lat="42.778275" lon="-0.517506">
        <ele>1402.217</ele>
        <time>2022-06-03T09:44:04Z</time>
      </trkpt>
      <trkpt lat="42.779392" lon="-0.517523">
        <ele>1404.209</ele>
        <time>2022-06-03T09:44:25Z</time>
      </trkpt>
      <trkpt lat="42.780188" lon="-0.517906">
        <ele>1404.449</ele>
        <time>2022-06-03T09:44:37Z</time>
      </trkpt>
      <trkpt lat="42.780518" lon="-0.518153">
        <ele>1404.668</ele>
        <time>2022-06-03T09:44:43Z</time>
      </trkpt>
      <trkpt lat="42.780782" lon="-0.518470">
        <ele>1406.214</ele>
        <time>2022-06-03T09:44:50Z</time>
      </trkpt>
      <trkpt lat="42.781033" lon="-0.519069">
        <ele>1410.075</ele>
        <time>2022-06-03T09:45:01Z</time>
      </trkpt>
      <trkpt lat="42.781223" lon="-0.520288">
        <ele>1415.253</ele>
        <time>2022-06-03T09:45:22Z</time>
      </trkpt>
      <trkpt lat="42.781371" lon="-0.520837">
        <ele>1418.437</ele>
        <time>2022-06-03T09:45:33Z</time>
      </trkpt>
      <trkpt lat="42.781559" lon="-0.521175">
        <ele>1421.213</ele>
        <time>2022-06-03T09:45:41Z</time>
      </trkpt>
      <trkpt lat="42.781908" lon="-0.521452">
        <ele>1424.686</ele>
        <time>2022-06-03T09:45:53Z</time>
      </trkpt>
      <trkpt lat="42.782198" lon="-0.521649">
        <ele>1427.884</ele>
        <time>2022-06-03T09:46:03Z</time>
      </trkpt>
      <trkpt lat="42.782843" lon="-0.521847">
        <ele>1434.064</ele>
        <time>2022-06-03T09:46:24Z</time>
      </trkpt>
      <trkpt lat="42.784652" lon="-0.522137">
        <ele>1452.206</ele>
        <time>2022-06-03T09:47:28Z</time>
      </trkpt>
      <trkpt lat="42.785166" lon="-0.522271">
        <ele>1457.416</ele>
        <time>2022-06-03T09:47:47Z</time>
      </trkpt>
      <trkpt lat="42.785791" lon="-0.522530">
        <ele>1463.209</ele>
        <time>2022-06-03T09:48:10Z</time>
      </trkpt>
      <trkpt lat="42.786934" lon="-0.523307">
        <ele>1475.457</ele>
        <time>2022-06-03T09:48:55Z</time>
      </trkpt>
      <trkpt lat="42.787338" lon="-0.523462">
        <ele>1478.836</ele>
        <time>2022-06-03T09:49:10Z</time>
      </trkpt>
      <trkpt lat="42.787675" lon="-0.523496">
        <ele>1482.882</ele>
        <time>2022-06-03T09:49:22Z</time>
      </trkpt>
      <trkpt lat="42.790550" lon="-0.522820">
        <ele>1506.233</ele>
        <time>2022-06-03T09:50:54Z</time>
      </trkpt>
      <trkpt lat="42.791978" lon="-0.522877">
        <ele>1515.281</ele>
        <time>2022-06-03T09:51:33Z</time>
      </trkpt>
      <trkpt lat="42.792384" lon="-0.522755">
        <ele>1518.245</ele>
        <time>2022-06-03T09:51:45Z</time>
      </trkpt>
      <trkpt lat="42.793097" lon="-0.522375">
        <ele>1524.891</ele>
        <time>2022-06-03T09:52:08Z</time>
      </trkpt>
      <trkpt lat="42.794209" lon="-0.522178">
        <ele>1531.274</ele>
        <time>2022-06-03T09:52:35Z</time>
      </trkpt>
      <trkpt lat="42.796454" lon="-0.520303">
        <ele>1546.262</ele>
        <time>2022-06-03T09:53:41Z</time>
      </trkpt>
      <trkpt lat="42.796775" lon="-0.520117">
        <ele>1549.042</ele>
        <time>2022-06-03T09:53:52Z</time>
      </trkpt>
      <trkpt lat="42.797009" lon="-0.520116">
        <ele>1551.022</ele>
        <time>2022-06-03T09:53:59Z</time>
      </trkpt>
      <trkpt lat="42.797294" lon="-0.520268">
        <ele>1553.214</ele>
        <time>2022-06-03T09:54:08Z</time>
      </trkpt>
      <trkpt lat="42.797493" lon="-0.520521">
        <ele>1555.209</ele>
        <time>2022-06-03T09:54:16Z</time>
      </trkpt>
      <trkpt lat="42.797589" lon="-0.520826">
        <ele>1557.045</ele>
        <time>2022-06-03T09:54:23Z</time>
      </trkpt>
      <trkpt lat="42.797585" lon="-0.521331">
        <ele>1559.674</ele>
        <time>2022-06-03T09:54:34Z</time>
      </trkpt>
      <trkpt lat="42.797494" lon="-0.521589">
        <ele>1561.450</ele>
        <time>2022-06-03T09:54:40Z</time>
      </trkpt>
      <trkpt lat="42.797240" lon="-0.521920">
        <ele>1564.071</ele>
        <time>2022-06-03T09:54:50Z</time>
      </trkpt>
      <trkpt lat="42.796192" lon="-0.522906">
        <ele>1574.219</ele>
        <time>2022-06-03T09:55:26Z</time>
      </trkpt>
      <trkpt lat="42.795920" lon="-0.523283">
        <ele>1576.633</ele>
        <time>2022-06-03T09:55:36Z</time>
      </trkpt>
      <trkpt lat="42.795792" lon="-0.523891">
        <ele>1578.669</ele>
        <time>2022-06-03T09:55:47Z</time>
      </trkpt>
      <trkpt lat="42.795765" lon="-0.525514">
        <ele>1582.062</ele>
        <time>2022-06-03T09:56:12Z</time>
      </trkpt>
    </trkseg>
  </trk></gpx>