<?xml version="1.0" encoding="UTF-8"?>
<gpx xmlns:gpxdata="http://www.cluetrust.com/XML/GPXDATA/1/0" xmlns:xsi="http://www.w3.org/2001/XMLSchema-instance" xmlns="http://www.topografix.com/GPX/1/1" version="1.1" creator="http://ridewithgps.com/" xsi:schemaLocation="http://www.topografix.com/GPX/1/1 http://www.topografix.com/GPX/1/1/gpx.xsd http://www.cluetrust.com/XML/GPXDATA/1/0 http://www.cluetrust.com/Schemas/gpxdata10.xsd">
  <metadata>
    <name>Military Road, Glenmalure</name>
    <link href="https://ridewithgps.com/routes/30162986">
      <text>Military Road, Glenmalure</text>
    </link>
    <time>2019-06-02T23:53:22Z</time>
  </metadata>
  <trk>
    <name>Military Road, Glenmalure</name>
    <trkseg>
      <trkpt lat="52.955199" lon="-6.357953">
        <ele>133.2</ele>
      </trkpt>
      <trkpt lat="52.955093" lon="-6.357984">
        <ele>133.6</ele>
      </trkpt>
      <trkpt lat="52.954856" lon="-6.358091">
        <ele>134.6</ele>
      </trkpt>
      <trkpt lat="52.954762" lon="-6.358151">
        <ele>134.8</ele>
      </trkpt>
      <trkpt lat="52.954667" lon="-6.358211">
        <ele>135.0</ele>
      </trkpt>
      <trkpt lat="52.954621" lon="-6.35824">
        <ele>135.4</ele>
      </trkpt>
      <trkpt lat="52.954576" lon="-6.358275">
        <ele>135.8</ele>
      </trkpt>
      <trkpt lat="52.954448" lon="-6.35837">
        <ele>137.2</ele>
      </trkpt>
      <trkpt lat="52.954268" lon="-6.358484">
        <ele>138.0</ele>
      </trkpt>
      <trkpt lat="52.954179" lon="-6.358548">
        <ele>138.4</ele>
      </trkpt>
      <trkpt lat="52.954032" lon="-6.358649">
        <ele>138.6</ele>
      </trkpt>
      <trkpt lat="52.953847" lon="-6.358765">
        <ele>139.6</ele>
      </trkpt>
      <trkpt lat="52.953804" lon="-6.358788">
        <ele>139.8</ele>
      </trkpt>
      <trkpt lat="52.95367" lon="-6.358835">
        <ele>140.4</ele>
      </trkpt>
      <trkpt lat="52.953579" lon="-6.35885">
        <ele>141.0</ele>
      </trkpt>
      <trkpt lat="52.953532" lon="-6.358847">
        <ele>141.2</ele>
      </trkpt>
      <trkpt lat="52.953358" lon="-6.35873">
        <ele>142.0</ele>
      </trkpt>
      <trkpt lat="52.953257" lon="-6.358585">
        <ele>142.2</ele>
      </trkpt>
      <trkpt lat="52.953083" lon="-6.358308">
        <ele>143.2</ele>
      </trkpt>
      <trkpt lat="52.952979" lon="-6.35813">
        <ele>144.2</ele>
      </trkpt>
      <trkpt lat="52.952829" lon="-6.357876">
        <ele>145.4</ele>
      </trkpt>
      <trkpt lat="52.952732" lon="-6.357698">
        <ele>146.6</ele>
      </trkpt>
      <trkpt lat="52.952643" lon="-6.357515">
        <ele>147.6</ele>
      </trkpt>
      <trkpt lat="52.952568" lon="-6.357347">
        <ele>148.8</ele>
      </trkpt>
      <trkpt lat="52.952521" lon="-6.357264">
        <ele>150.2</ele>
      </trkpt>
      <trkpt lat="52.952444" lon="-6.357102">
        <ele>151.4</ele>
      </trkpt>
      <trkpt lat="52.952371" lon="-6.356947">
        <ele>152.4</ele>
      </trkpt>
      <trkpt lat="52.952284" lon="-6.35673">
        <ele>153.8</ele>
      </trkpt>
      <trkpt lat="52.952182" lon="-6.35647">
        <ele>155.0</ele>
      </trkpt>
      <trkpt lat="52.952033" lon="-6.356342">
        <ele>156.0</ele>
      </trkpt>
      <trkpt lat="52.95187" lon="-6.356266">
        <ele>157.0</ele>
      </trkpt>
      <trkpt lat="52.951779" lon="-6.356198">
        <ele>158.2</ele>
      </trkpt>
      <trkpt lat="52.951663" lon="-6.35604">
        <ele>159.4</ele>
      </trkpt>
      <trkpt lat="52.95154" lon="-6.35584">
        <ele>160.6</ele>
      </trkpt>
      <trkpt lat="52.951414" lon="-6.355644">
        <ele>162.0</ele>
      </trkpt>
      <trkpt lat="52.951327" lon="-6.355552">
        <ele>163.4</ele>
      </trkpt>
      <trkpt lat="52.951236" lon="-6.355495">
        <ele>164.6</ele>
      </trkpt>
      <trkpt lat="52.951178" lon="-6.355474">
        <ele>165.2</ele>
      </trkpt>
      <trkpt lat="52.951151" lon="-6.35547">
        <ele>165.6</ele>
      </trkpt>
      <trkpt lat="52.951094" lon="-6.355468">
        <ele>166.6</ele>
      </trkpt>
      <trkpt lat="52.950958" lon="-6.355494">
        <ele>167.8</ele>
      </trkpt>
      <trkpt lat="52.95089" lon="-6.355498">
        <ele>169.0</ele>
      </trkpt>
      <trkpt lat="52.950797" lon="-6.355479">
        <ele>170.4</ele>
      </trkpt>
      <trkpt lat="52.950685" lon="-6.355423">
        <ele>171.6</ele>
      </trkpt>
      <trkpt lat="52.950584" lon="-6.355359">
        <ele>172.8</ele>
      </trkpt>
      <trkpt lat="52.950521" lon="-6.355324">
        <ele>174.0</ele>
      </trkpt>
      <trkpt lat="52.950454" lon="-6.355279">
        <ele>175.0</ele>
      </trkpt>
      <trkpt lat="52.950364" lon="-6.355214">
        <ele>176.4</ele>
      </trkpt>
      <trkpt lat="52.950296" lon="-6.355164">
        <ele>177.2</ele>
      </trkpt>
      <trkpt lat="52.950225" lon="-6.355128">
        <ele>178.4</ele>
      </trkpt>
      <trkpt lat="52.950173" lon="-6.355088">
        <ele>179.6</ele>
      </trkpt>
      <trkpt lat="52.950068" lon="-6.354988">
        <ele>181.0</ele>
      </trkpt>
      <trkpt lat="52.949976" lon="-6.354904">
        <ele>182.2</ele>
      </trkpt>
      <trkpt lat="52.949896" lon="-6.354809">
        <ele>183.4</ele>
      </trkpt>
      <trkpt lat="52.94984" lon="-6.354755">
        <ele>184.4</ele>
      </trkpt>
      <trkpt lat="52.949754" lon="-6.354678">
        <ele>185.8</ele>
      </trkpt>
      <trkpt lat="52.94967" lon="-6.35455">
        <ele>187.0</ele>
      </trkpt>
      <trkpt lat="52.949585" lon="-6.354399">
        <ele>188.2</ele>
      </trkpt>
      <trkpt lat="52.949545" lon="-6.35434">
        <ele>189.2</ele>
      </trkpt>
      <trkpt lat="52.949461" lon="-6.354209">
        <ele>190.4</ele>
      </trkpt>
      <trkpt lat="52.949359" lon="-6.354073">
        <ele>191.8</ele>
      </trkpt>
      <trkpt lat="52.949235" lon="-6.35393">
        <ele>193.0</ele>
      </trkpt>
      <trkpt lat="52.949105" lon="-6.353808">
        <ele>194.2</ele>
      </trkpt>
      <trkpt lat="52.948999" lon="-6.353732">
        <ele>195.2</ele>
      </trkpt>
      <trkpt lat="52.948891" lon="-6.353671">
        <ele>196.2</ele>
      </trkpt>
      <trkpt lat="52.948747" lon="-6.353601">
        <ele>197.6</ele>
      </trkpt>
      <trkpt lat="52.948642" lon="-6.35355">
        <ele>198.8</ele>
      </trkpt>
      <trkpt lat="52.94854" lon="-6.353502">
        <ele>200.0</ele>
      </trkpt>
      <trkpt lat="52.948439" lon="-6.353447">
        <ele>201.4</ele>
      </trkpt>
      <trkpt lat="52.948336" lon="-6.353403">
        <ele>202.4</ele>
      </trkpt>
      <trkpt lat="52.948229" lon="-6.353382">
        <ele>203.4</ele>
      </trkpt>
      <trkpt lat="52.948079" lon="-6.353438">
        <ele>204.6</ele>
      </trkpt>
      <trkpt lat="52.947981" lon="-6.353518">
        <ele>205.8</ele>
      </trkpt>
      <trkpt lat="52.947889" lon="-6.353618">
        <ele>206.8</ele>
      </trkpt>
      <trkpt lat="52.947793" lon="-6.353714">
        <ele>208.2</ele>
      </trkpt>
      <trkpt lat="52.947695" lon="-6.353797">
        <ele>209.2</ele>
      </trkpt>
      <trkpt lat="52.947632" lon="-6.353858">
        <ele>210.4</ele>
      </trkpt>
      <trkpt lat="52.947506" lon="-6.353966">
        <ele>211.6</ele>
      </trkpt>
      <trkpt lat="52.947382" lon="-6.354088">
        <ele>212.8</ele>
      </trkpt>
      <trkpt lat="52.947293" lon="-6.354178">
        <ele>214.0</ele>
      </trkpt>
      <trkpt lat="52.94719" lon="-6.354332">
        <ele>215.2</ele>
      </trkpt>
      <trkpt lat="52.947106" lon="-6.354507">
        <ele>216.4</ele>
      </trkpt>
      <trkpt lat="52.947046" lon="-6.354642">
        <ele>217.2</ele>
      </trkpt>
      <trkpt lat="52.947029" lon="-6.354688">
        <ele>217.6</ele>
      </trkpt>
      <trkpt lat="52.94696" lon="-6.354878">
        <ele>218.8</ele>
      </trkpt>
      <trkpt lat="52.946904" lon="-6.355021">
        <ele>220.0</ele>
      </trkpt>
      <trkpt lat="52.946833" lon="-6.355218">
        <ele>221.4</ele>
      </trkpt>
      <trkpt lat="52.946747" lon="-6.355471">
        <ele>222.6</ele>
      </trkpt>
      <trkpt lat="52.946703" lon="-6.355624">
        <ele>223.6</ele>
      </trkpt>
      <trkpt lat="52.94662" lon="-6.355923">
        <ele>224.8</ele>
      </trkpt>
      <trkpt lat="52.946551" lon="-6.356108">
        <ele>226.0</ele>
      </trkpt>
      <trkpt lat="52.946486" lon="-6.356312">
        <ele>227.2</ele>
      </trkpt>
      <trkpt lat="52.946447" lon="-6.35642">
        <ele>228.2</ele>
      </trkpt>
      <trkpt lat="52.946384" lon="-6.35658">
        <ele>229.4</ele>
      </trkpt>
      <trkpt lat="52.946318" lon="-6.356729">
        <ele>230.4</ele>
      </trkpt>
      <trkpt lat="52.946257" lon="-6.35688">
        <ele>231.6</ele>
      </trkpt>
      <trkpt lat="52.946167" lon="-6.35707">
        <ele>232.8</ele>
      </trkpt>
      <trkpt lat="52.946092" lon="-6.357202">
        <ele>234.0</ele>
      </trkpt>
      <trkpt lat="52.946012" lon="-6.357325">
        <ele>235.2</ele>
      </trkpt>
      <trkpt lat="52.945925" lon="-6.357427">
        <ele>236.2</ele>
      </trkpt>
      <trkpt lat="52.945813" lon="-6.357557">
        <ele>237.6</ele>
      </trkpt>
      <trkpt lat="52.945728" lon="-6.357657">
        <ele>238.8</ele>
      </trkpt>
      <trkpt lat="52.94565" lon="-6.357766">
        <ele>239.8</ele>
      </trkpt>
      <trkpt lat="52.945599" lon="-6.357848">
        <ele>241.0</ele>
      </trkpt>
      <trkpt lat="52.945537" lon="-6.357988">
        <ele>242.2</ele>
      </trkpt>
      <trkpt lat="52.945456" lon="-6.358181">
        <ele>243.8</ele>
      </trkpt>
      <trkpt lat="52.945404" lon="-6.358336">
        <ele>244.8</ele>
      </trkpt>
      <trkpt lat="52.945358" lon="-6.358493">
        <ele>246.0</ele>
      </trkpt>
      <trkpt lat="52.945298" lon="-6.358704">
        <ele>247.2</ele>
      </trkpt>
      <trkpt lat="52.945239" lon="-6.358918">
        <ele>248.6</ele>
      </trkpt>
      <trkpt lat="52.945209" lon="-6.359025">
        <ele>250.0</ele>
      </trkpt>
      <trkpt lat="52.945136" lon="-6.35923">
        <ele>251.4</ele>
      </trkpt>
      <trkpt lat="52.945055" lon="-6.359416">
        <ele>252.4</ele>
      </trkpt>
      <trkpt lat="52.944995" lon="-6.359552">
        <ele>253.6</ele>
      </trkpt>
      <trkpt lat="52.944938" lon="-6.359693">
        <ele>254.6</ele>
      </trkpt>
      <trkpt lat="52.944879" lon="-6.359833">
        <ele>255.8</ele>
      </trkpt>
      <trkpt lat="52.944816" lon="-6.359965">
        <ele>257.0</ele>
      </trkpt>
      <trkpt lat="52.944726" lon="-6.360137">
        <ele>258.6</ele>
      </trkpt>
      <trkpt lat="52.944626" lon="-6.360299">
        <ele>259.6</ele>
      </trkpt>
      <trkpt lat="52.94457" lon="-6.360371">
        <ele>260.8</ele>
      </trkpt>
      <trkpt lat="52.944446" lon="-6.360482">
        <ele>261.6</ele>
      </trkpt>
      <trkpt lat="52.944317" lon="-6.36057">
        <ele>262.6</ele>
      </trkpt>
      <trkpt lat="52.944151" lon="-6.360672">
        <ele>264.0</ele>
      </trkpt>
      <trkpt lat="52.944049" lon="-6.360737">
        <ele>265.4</ele>
      </trkpt>
      <trkpt lat="52.943945" lon="-6.360819">
        <ele>266.6</ele>
      </trkpt>
      <trkpt lat="52.943817" lon="-6.360943">
        <ele>267.8</ele>
      </trkpt>
      <trkpt lat="52.9437" lon="-6.361092">
        <ele>269.0</ele>
      </trkpt>
      <trkpt lat="52.943615" lon="-6.361207">
        <ele>270.4</ele>
      </trkpt>
      <trkpt lat="52.943506" lon="-6.36137">
        <ele>271.8</ele>
      </trkpt>
      <trkpt lat="52.943425" lon="-6.361493">
        <ele>273.0</ele>
      </trkpt>
      <trkpt lat="52.943309" lon="-6.361652">
        <ele>274.2</ele>
      </trkpt>
      <trkpt lat="52.943202" lon="-6.361827">
        <ele>275.8</ele>
      </trkpt>
      <trkpt lat="52.943125" lon="-6.361967">
        <ele>277.2</ele>
      </trkpt>
      <trkpt lat="52.943074" lon="-6.362063">
        <ele>278.2</ele>
      </trkpt>
      <trkpt lat="52.942976" lon="-6.362255">
        <ele>279.4</ele>
      </trkpt>
      <trkpt lat="52.942883" lon="-6.362461">
        <ele>280.8</ele>
      </trkpt>
      <trkpt lat="52.942812" lon="-6.362608">
        <ele>282.0</ele>
      </trkpt>
      <trkpt lat="52.94274" lon="-6.362756">
        <ele>283.0</ele>
      </trkpt>
      <trkpt lat="52.942644" lon="-6.362949">
        <ele>284.2</ele>
      </trkpt>
      <trkpt lat="52.942568" lon="-6.363084">
        <ele>285.4</ele>
      </trkpt>
      <trkpt lat="52.942487" lon="-6.363214">
        <ele>286.4</ele>
      </trkpt>
      <trkpt lat="52.942362" lon="-6.363452">
        <ele>287.6</ele>
      </trkpt>
      <trkpt lat="52.942271" lon="-6.363648">
        <ele>289.0</ele>
      </trkpt>
      <trkpt lat="52.942185" lon="-6.363853">
        <ele>290.4</ele>
      </trkpt>
      <trkpt lat="52.94212" lon="-6.364005">
        <ele>291.6</ele>
      </trkpt>
      <trkpt lat="52.942054" lon="-6.364154">
        <ele>292.6</ele>
      </trkpt>
      <trkpt lat="52.941971" lon="-6.364359">
        <ele>293.8</ele>
      </trkpt>
      <trkpt lat="52.941892" lon="-6.364575">
        <ele>294.8</ele>
      </trkpt>
      <trkpt lat="52.941815" lon="-6.364794">
        <ele>296.2</ele>
      </trkpt>
      <trkpt lat="52.941737" lon="-6.365017">
        <ele>297.2</ele>
      </trkpt>
      <trkpt lat="52.941664" lon="-6.365274">
        <ele>298.4</ele>
      </trkpt>
      <trkpt lat="52.941649" lon="-6.365341">
        <ele>298.8</ele>
      </trkpt>
      <trkpt lat="52.94162" lon="-6.365471">
        <ele>299.6</ele>
      </trkpt>
      <trkpt lat="52.941583" lon="-6.365671">
        <ele>300.4</ele>
      </trkpt>
      <trkpt lat="52.941573" lon="-6.365736">
        <ele>300.6</ele>
      </trkpt>
      <trkpt lat="52.941504" lon="-6.366068">
        <ele>302.0</ele>
      </trkpt>
      <trkpt lat="52.94145" lon="-6.366266">
        <ele>303.0</ele>
      </trkpt>
      <trkpt lat="52.941375" lon="-6.366513">
        <ele>304.4</ele>
      </trkpt>
      <trkpt lat="52.941322" lon="-6.366699">
        <ele>305.0</ele>
      </trkpt>
      <trkpt lat="52.941306" lon="-6.366763">
        <ele>305.4</ele>
      </trkpt>
      <trkpt lat="52.941275" lon="-6.366888">
        <ele>305.8</ele>
      </trkpt>
      <trkpt lat="52.941237" lon="-6.367085">
        <ele>306.6</ele>
      </trkpt>
      <trkpt lat="52.941228" lon="-6.36715">
        <ele>307.0</ele>
      </trkpt>
      <trkpt lat="52.941207" lon="-6.367351">
        <ele>307.8</ele>
      </trkpt>
      <trkpt lat="52.941195" lon="-6.36756">
        <ele>309.0</ele>
      </trkpt>
      <trkpt lat="52.941192" lon="-6.367772">
        <ele>310.6</ele>
      </trkpt>
      <trkpt lat="52.941186" lon="-6.367979">
        <ele>311.8</ele>
      </trkpt>
      <trkpt lat="52.941146" lon="-6.368381">
        <ele>312.8</ele>
      </trkpt>
      <trkpt lat="52.941111" lon="-6.36864">
        <ele>314.2</ele>
      </trkpt>
      <trkpt lat="52.94108" lon="-6.368834">
        <ele>315.2</ele>
      </trkpt>
      <trkpt lat="52.941028" lon="-6.369089">
        <ele>316.4</ele>
      </trkpt>
      <trkpt lat="52.940981" lon="-6.369341">
        <ele>317.8</ele>
      </trkpt>
      <trkpt lat="52.94094" lon="-6.369601">
        <ele>319.0</ele>
      </trkpt>
      <trkpt lat="52.940908" lon="-6.369862">
        <ele>320.2</ele>
      </trkpt>
      <trkpt lat="52.940893" lon="-6.370057">
        <ele>321.6</ele>
      </trkpt>
      <trkpt lat="52.940852" lon="-6.370318">
        <ele>322.8</ele>
      </trkpt>
      <trkpt lat="52.940842" lon="-6.370386">
        <ele>323.2</ele>
      </trkpt>
      <trkpt lat="52.940827" lon="-6.370521">
        <ele>324.0</ele>
      </trkpt>
      <trkpt lat="52.940771" lon="-6.370777">
        <ele>325.4</ele>
      </trkpt>
      <trkpt lat="52.940725" lon="-6.370958">
        <ele>326.6</ele>
      </trkpt>
      <trkpt lat="52.94066" lon="-6.371198">
        <ele>328.0</ele>
      </trkpt>
      <trkpt lat="52.940556" lon="-6.371559">
        <ele>329.2</ele>
      </trkpt>
      <trkpt lat="52.940511" lon="-6.37174">
        <ele>330.6</ele>
      </trkpt>
      <trkpt lat="52.940456" lon="-6.371984">
        <ele>331.6</ele>
      </trkpt>
      <trkpt lat="52.940416" lon="-6.372177">
        <ele>332.6</ele>
      </trkpt>
      <trkpt lat="52.940335" lon="-6.372492">
        <ele>333.8</ele>
      </trkpt>
      <trkpt lat="52.940283" lon="-6.372679">
        <ele>335.0</ele>
      </trkpt>
      <trkpt lat="52.940233" lon="-6.372874">
        <ele>336.4</ele>
      </trkpt>
      <trkpt lat="52.940187" lon="-6.373066">
        <ele>337.6</ele>
      </trkpt>
      <trkpt lat="52.940146" lon="-6.373263">
        <ele>338.6</ele>
      </trkpt>
      <trkpt lat="52.940071" lon="-6.373583">
        <ele>340.2</ele>
      </trkpt>
      <trkpt lat="52.94001" lon="-6.373836">
        <ele>341.4</ele>
      </trkpt>
      <trkpt lat="52.939968" lon="-6.374022">
        <ele>342.4</ele>
      </trkpt>
      <trkpt lat="52.939907" lon="-6.374269">
        <ele>343.4</ele>
      </trkpt>
      <trkpt lat="52.939847" lon="-6.374524">
        <ele>344.8</ele>
      </trkpt>
      <trkpt lat="52.939815" lon="-6.374649">
        <ele>345.6</ele>
      </trkpt>
      <trkpt lat="52.939796" lon="-6.37471">
        <ele>345.8</ele>
      </trkpt>
      <trkpt lat="52.939741" lon="-6.374894">
        <ele>347.0</ele>
      </trkpt>
      <trkpt lat="52.939722" lon="-6.374954">
        <ele>347.4</ele>
      </trkpt>
      <trkpt lat="52.939677" lon="-6.375069">
        <ele>348.2</ele>
      </trkpt>
      <trkpt lat="52.939588" lon="-6.375294">
        <ele>349.2</ele>
      </trkpt>
      <trkpt lat="52.939486" lon="-6.375504">
        <ele>350.6</ele>
      </trkpt>
      <trkpt lat="52.939407" lon="-6.375667">
        <ele>351.8</ele>
      </trkpt>
      <trkpt lat="52.939328" lon="-6.375832">
        <ele>353.0</ele>
      </trkpt>
      <trkpt lat="52.939247" lon="-6.375989">
        <ele>354.0</ele>
      </trkpt>
      <trkpt lat="52.939126" lon="-6.376271">
        <ele>355.2</ele>
      </trkpt>
      <trkpt lat="52.939082" lon="-6.376391">
        <ele>355.8</ele>
      </trkpt>
      <trkpt lat="52.939064" lon="-6.376453">
        <ele>356.4</ele>
      </trkpt>
      <trkpt lat="52.93902" lon="-6.376569">
        <ele>357.0</ele>
      </trkpt>
      <trkpt lat="52.93897" lon="-6.376678">
        <ele>357.4</ele>
      </trkpt>
      <trkpt lat="52.938877" lon="-6.376907">
        <ele>358.6</ele>
      </trkpt>
      <trkpt lat="52.938803" lon="-6.37708">
        <ele>359.6</ele>
      </trkpt>
      <trkpt lat="52.93869" lon="-6.37729">
        <ele>361.0</ele>
      </trkpt>
      <trkpt lat="52.93861" lon="-6.377446">
        <ele>362.2</ele>
      </trkpt>
      <trkpt lat="52.938487" lon="-6.377637">
        <ele>363.2</ele>
      </trkpt>
      <trkpt lat="52.93835" lon="-6.377802">
        <ele>364.2</ele>
      </trkpt>
      <trkpt lat="52.938256" lon="-6.377924">
        <ele>365.4</ele>
      </trkpt>
      <trkpt lat="52.93815" lon="-6.378033">
        <ele>366.4</ele>
      </trkpt>
      <trkpt lat="52.938013" lon="-6.378198">
        <ele>367.6</ele>
      </trkpt>
      <trkpt lat="52.937912" lon="-6.378325">
        <ele>368.6</ele>
      </trkpt>
      <trkpt lat="52.937878" lon="-6.378366">
        <ele>368.8</ele>
      </trkpt>
      <trkpt lat="52.937776" lon="-6.378491">
        <ele>370.2</ele>
      </trkpt>
      <trkpt lat="52.937684" lon="-6.37862">
        <ele>371.0</ele>
      </trkpt>
      <trkpt lat="52.937651" lon="-6.37866">
        <ele>371.2</ele>
      </trkpt>
      <trkpt lat="52.937519" lon="-6.378818">
        <ele>372.4</ele>
      </trkpt>
      <trkpt lat="52.937422" lon="-6.378938">
        <ele>373.6</ele>
      </trkpt>
      <trkpt lat="52.937323" lon="-6.379061">
        <ele>374.8</ele>
      </trkpt>
      <trkpt lat="52.937251" lon="-6.379132">
        <ele>375.6</ele>
      </trkpt>
      <trkpt lat="52.937218" lon="-6.379174">
        <ele>375.8</ele>
      </trkpt>
      <trkpt lat="52.937184" lon="-6.379209">
        <ele>376.4</ele>
      </trkpt>
      <trkpt lat="52.937071" lon="-6.379292">
        <ele>377.0</ele>
      </trkpt>
      <trkpt lat="52.936876" lon="-6.379437">
        <ele>378.4</ele>
      </trkpt>
      <trkpt lat="52.936752" lon="-6.379493">
        <ele>379.2</ele>
      </trkpt>
      <trkpt lat="52.936711" lon="-6.379506">
        <ele>379.6</ele>
      </trkpt>
      <trkpt lat="52.936549" lon="-6.379557">
        <ele>380.8</ele>
      </trkpt>
      <trkpt lat="52.936302" lon="-6.379627">
        <ele>382.2</ele>
      </trkpt>
      <trkpt lat="52.93614" lon="-6.379673">
        <ele>383.4</ele>
      </trkpt>
      <trkpt lat="52.936059" lon="-6.379709">
        <ele>384.4</ele>
      </trkpt>
      <trkpt lat="52.935977" lon="-6.379745">
        <ele>384.8</ele>
      </trkpt>
      <trkpt lat="52.935854" lon="-6.379819">
        <ele>385.6</ele>
      </trkpt>
      <trkpt lat="52.9357" lon="-6.379935">
        <ele>386.8</ele>
      </trkpt>
      <trkpt lat="52.935626" lon="-6.379997">
        <ele>387.2</ele>
      </trkpt>
      <trkpt lat="52.935589" lon="-6.380029">
        <ele>387.4</ele>
      </trkpt>
      <trkpt lat="52.935553" lon="-6.380063">
        <ele>387.8</ele>
      </trkpt>
      <trkpt lat="52.935409" lon="-6.380209">
        <ele>389.0</ele>
      </trkpt>
      <trkpt lat="52.93527" lon="-6.380362">
        <ele>390.4</ele>
      </trkpt>
      <trkpt lat="52.935169" lon="-6.38048">
        <ele>391.4</ele>
      </trkpt>
      <trkpt lat="52.935065" lon="-6.380597">
        <ele>392.6</ele>
      </trkpt>
      <trkpt lat="52.935032" lon="-6.380637">
        <ele>393.4</ele>
      </trkpt>
      <trkpt lat="52.935" lon="-6.380679">
        <ele>394.0</ele>
      </trkpt>
      <trkpt lat="52.934905" lon="-6.380804">
        <ele>395.4</ele>
      </trkpt>
      <trkpt lat="52.934815" lon="-6.380921">
        <ele>396.4</ele>
      </trkpt>
      <trkpt lat="52.934731" lon="-6.381038">
        <ele>397.6</ele>
      </trkpt>
      <trkpt lat="52.934644" lon="-6.381155">
        <ele>398.8</ele>
      </trkpt>
      <trkpt lat="52.934556" lon="-6.381268">
        <ele>400.0</ele>
      </trkpt>
      <trkpt lat="52.93447" lon="-6.381382">
        <ele>401.4</ele>
      </trkpt>
      <trkpt lat="52.934379" lon="-6.381489">
        <ele>402.6</ele>
      </trkpt>
      <trkpt lat="52.934295" lon="-6.381605">
        <ele>403.8</ele>
      </trkpt>
      <trkpt lat="52.934206" lon="-6.381713">
        <ele>404.8</ele>
      </trkpt>
      <trkpt lat="52.934122" lon="-6.381823">
        <ele>406.0</ele>
      </trkpt>
      <trkpt lat="52.934033" lon="-6.381916">
        <ele>407.4</ele>
      </trkpt>
      <trkpt lat="52.933948" lon="-6.382024">
        <ele>408.6</ele>
      </trkpt>
      <trkpt lat="52.933867" lon="-6.382131">
        <ele>409.8</ele>
      </trkpt>
      <trkpt lat="52.933788" lon="-6.382243">
        <ele>411.2</ele>
      </trkpt>
      <trkpt lat="52.933711" lon="-6.382362">
        <ele>412.4</ele>
      </trkpt>
      <trkpt lat="52.933642" lon="-6.382486">
        <ele>413.4</ele>
      </trkpt>
      <trkpt lat="52.933537" lon="-6.38263">
        <ele>414.8</ele>
      </trkpt>
      <trkpt lat="52.933451" lon="-6.382725">
        <ele>416.0</ele>
      </trkpt>
      <trkpt lat="52.933354" lon="-6.382787">
        <ele>417.4</ele>
      </trkpt>
      <trkpt lat="52.933255" lon="-6.382827">
        <ele>418.2</ele>
      </trkpt>
      <trkpt lat="52.933222" lon="-6.382836">
        <ele>418.4</ele>
      </trkpt>
      <trkpt lat="52.93312" lon="-6.382869">
        <ele>419.6</ele>
      </trkpt>
      <trkpt lat="52.933085" lon="-6.382878">
        <ele>420.0</ele>
      </trkpt>
      <trkpt lat="52.932983" lon="-6.38292">
        <ele>421.0</ele>
      </trkpt>
      <trkpt lat="52.932876" lon="-6.382938">
        <ele>422.2</ele>
      </trkpt>
      <trkpt lat="52.932803" lon="-6.382942">
        <ele>423.0</ele>
      </trkpt>
      <trkpt lat="52.932767" lon="-6.382944">
        <ele>423.4</ele>
      </trkpt>
      <trkpt lat="52.932658" lon="-6.382945">
        <ele>424.4</ele>
      </trkpt>
      <trkpt lat="52.93255" lon="-6.382956">
        <ele>425.4</ele>
      </trkpt>
      <trkpt lat="52.932441" lon="-6.38297">
        <ele>426.6</ele>
      </trkpt>
      <trkpt lat="52.932332" lon="-6.382988">
        <ele>428.0</ele>
      </trkpt>
      <trkpt lat="52.932151" lon="-6.383014">
        <ele>429.0</ele>
      </trkpt>
      <trkpt lat="52.932007" lon="-6.383032">
        <ele>430.2</ele>
      </trkpt>
      <trkpt lat="52.931865" lon="-6.383047">
        <ele>431.4</ele>
      </trkpt>
      <trkpt lat="52.931721" lon="-6.383055">
        <ele>432.6</ele>
      </trkpt>
      <trkpt lat="52.93161" lon="-6.383059">
        <ele>434.0</ele>
      </trkpt>
      <trkpt lat="52.9315" lon="-6.383074">
        <ele>435.2</ele>
      </trkpt>
      <trkpt lat="52.931389" lon="-6.383082">
        <ele>436.6</ele>
      </trkpt>
      <trkpt lat="52.931242" lon="-6.383092">
        <ele>438.2</ele>
      </trkpt>
      <trkpt lat="52.93109" lon="-6.38309">
        <ele>439.4</ele>
      </trkpt>
      <trkpt lat="52.930979" lon="-6.3831">
        <ele>440.4</ele>
      </trkpt>
      <trkpt lat="52.930867" lon="-6.383092">
        <ele>441.8</ele>
      </trkpt>
      <trkpt lat="52.930717" lon="-6.383085">
        <ele>443.2</ele>
      </trkpt>
      <trkpt lat="52.930605" lon="-6.383099">
        <ele>444.2</ele>
      </trkpt>
      <trkpt lat="52.930455" lon="-6.383098">
        <ele>445.4</ele>
      </trkpt>
      <trkpt lat="52.930345" lon="-6.383097">
        <ele>446.4</ele>
      </trkpt>
      <trkpt lat="52.930274" lon="-6.383091">
        <ele>446.8</ele>
      </trkpt>
      <trkpt lat="52.930202" lon="-6.383093">
        <ele>447.8</ele>
      </trkpt>
      <trkpt lat="52.93013" lon="-6.383085">
        <ele>449.0</ele>
      </trkpt>
      <trkpt lat="52.930022" lon="-6.383085">
        <ele>450.2</ele>
      </trkpt>
      <trkpt lat="52.92988" lon="-6.383079">
        <ele>451.2</ele>
      </trkpt>
      <trkpt lat="52.92973" lon="-6.383042">
        <ele>452.4</ele>
      </trkpt>
      <trkpt lat="52.929614" lon="-6.383033">
        <ele>453.4</ele>
      </trkpt>
      <trkpt lat="52.929497" lon="-6.383021">
        <ele>454.6</ele>
      </trkpt>
      <trkpt lat="52.929341" lon="-6.383004">
        <ele>456.0</ele>
      </trkpt>
      <trkpt lat="52.929222" lon="-6.383003">
        <ele>457.2</ele>
      </trkpt>
      <trkpt lat="52.929144" lon="-6.383013">
        <ele>457.8</ele>
      </trkpt>
      <trkpt lat="52.929068" lon="-6.383031">
        <ele>458.4</ele>
      </trkpt>
      <trkpt lat="52.928915" lon="-6.383126">
        <ele>459.6</ele>
      </trkpt>
      <trkpt lat="52.9288" lon="-6.383207">
        <ele>460.8</ele>
      </trkpt>
      <trkpt lat="52.928568" lon="-6.383411">
        <ele>462.0</ele>
      </trkpt>
      <trkpt lat="52.928092" lon="-6.383979">
        <ele>462.4</ele>
      </trkpt>
      <trkpt lat="52.92779" lon="-6.384577">
        <ele>461.6</ele>
      </trkpt>
    </trkseg>
  </trk>
</gpx>
