<?xml version="1.0" encoding="UTF-8"?>
<gpx creator="https://gpx.studio" version="1.1" xmlns="http://www.topografix.com/GPX/1/1" xmlns:xsi="http://www.w3.org/2001/XMLSchema-instance" xsi:schemaLocation="http://www.topografix.com/GPX/1/1 http://www.topografix.com/GPX/1/1/gpx.xsd http://www.garmin.com/xmlschemas/GpxExtensions/v3 http://www.garmin.com/xmlschemas/GpxExtensionsv3.xsd http://www.garmin.com/xmlschemas/TrackPointExtension/v1 http://www.garmin.com/xmlschemas/TrackPointExtensionv1.xsd http://www.garmin.com/xmlschemas/PowerExtension/v1 http://www.garmin.com/xmlschemas/PowerExtensionv1.xsd http://www.topografix.com/GPX/gpx_style/0/2 http://www.topografix.com/GPX/gpx_style/0/2/gpx_style.xsd" xmlns:gpxtpx="http://www.garmin.com/xmlschemas/TrackPointExtension/v1" xmlns:gpxx="http://www.garmin.com/xmlschemas/GpxExtensions/v3" xmlns:gpxpx="http://www.garmin.com/xmlschemas/PowerExtension/v1" xmlns:gpx_style="http://www.topografix.com/GPX/gpx_style/0/2">
  <metadata>
    <name>monasterio_san_juan_cruce_osia_por_bernues</name>
    <author>
      <name>gpx.studio</name>
      <link href="https://gpx.studio"/>
    </author>
  </metadata>
  <trk>
    <name>monasterio_san_juan_cruce_osia_por_bernues</name>
    <trkseg>
      <trkpt lat="42.45099" lon="-0.61537">
        <ele>701.13</ele>
      </trkpt>
      <trkpt lat="42.451425" lon="-0.615376">
        <ele>703.15</ele>
      </trkpt>
      <trkpt lat="42.451731" lon="-0.61535">
        <ele>705.09</ele>
      </trkpt>
      <trkpt lat="42.451836" lon="-0.615329">
        <ele>705.99</ele>
      </trkpt>
      <trkpt lat="42.45192" lon="-0.615298">
        <ele>706.77</ele>
      </trkpt>
      <trkpt lat="42.451985" lon="-0.615257">
        <ele>707.09</ele>
      </trkpt>
      <trkpt lat="42.452046" lon="-0.615188">
        <ele>704.37</ele>
      </trkpt>
      <trkpt lat="42.452104" lon="-0.615109">
        <ele>704.72</ele>
      </trkpt>
      <trkpt lat="42.452187" lon="-0.614939">
        <ele>704.98</ele>
      </trkpt>
      <trkpt lat="42.452226" lon="-0.614835">
        <ele>705.13</ele>
      </trkpt>
      <trkpt lat="42.452338" lon="-0.614424">
        <ele>707.39</ele>
      </trkpt>
      <trkpt lat="42.452388" lon="-0.614308">
        <ele>708.29</ele>
      </trkpt>
      <trkpt lat="42.452416" lon="-0.614262">
        <ele>708.58</ele>
      </trkpt>
      <trkpt lat="42.452462" lon="-0.614219">
        <ele>708.7</ele>
      </trkpt>
      <trkpt lat="42.452512" lon="-0.614192">
        <ele>708.83</ele>
      </trkpt>
      <trkpt lat="42.452589" lon="-0.614171">
        <ele>709.42</ele>
      </trkpt>
      <trkpt lat="42.452702" lon="-0.614161">
        <ele>710.19</ele>
      </trkpt>
      <trkpt lat="42.452784" lon="-0.614166">
        <ele>710.44</ele>
      </trkpt>
      <trkpt lat="42.452863" lon="-0.614183">
        <ele>710.67</ele>
      </trkpt>
      <trkpt lat="42.452968" lon="-0.614222">
        <ele>709.31</ele>
      </trkpt>
      <trkpt lat="42.453285" lon="-0.614424">
        <ele>708.19</ele>
      </trkpt>
      <trkpt lat="42.453419" lon="-0.6145">
        <ele>708.89</ele>
      </trkpt>
      <trkpt lat="42.453702" lon="-0.614629">
        <ele>710.31</ele>
      </trkpt>
      <trkpt lat="42.45386" lon="-0.614678">
        <ele>710.55</ele>
      </trkpt>
      <trkpt lat="42.453958" lon="-0.614698">
        <ele>710.54</ele>
      </trkpt>
      <trkpt lat="42.454112" lon="-0.614693">
        <ele>710.05</ele>
      </trkpt>
      <trkpt lat="42.454211" lon="-0.614659">
        <ele>709.79</ele>
      </trkpt>
      <trkpt lat="42.4545" lon="-0.614533">
        <ele>710.96</ele>
      </trkpt>
      <trkpt lat="42.454568" lon="-0.614492">
        <ele>711.21</ele>
      </trkpt>
      <trkpt lat="42.454627" lon="-0.614439">
        <ele>711.39</ele>
      </trkpt>
      <trkpt lat="42.454703" lon="-0.614345">
        <ele>711.87</ele>
      </trkpt>
      <trkpt lat="42.454793" lon="-0.6142">
        <ele>712.47</ele>
      </trkpt>
      <trkpt lat="42.455744" lon="-0.612495">
        <ele>719.42</ele>
      </trkpt>
      <trkpt lat="42.45617" lon="-0.611743">
        <ele>721.27</ele>
      </trkpt>
      <trkpt lat="42.456303" lon="-0.611558">
        <ele>721.91</ele>
      </trkpt>
      <trkpt lat="42.456447" lon="-0.61139">
        <ele>722.46</ele>
      </trkpt>
      <trkpt lat="42.456597" lon="-0.611252">
        <ele>722.69</ele>
      </trkpt>
      <trkpt lat="42.456697" lon="-0.611179">
        <ele>721.85</ele>
      </trkpt>
      <trkpt lat="42.456848" lon="-0.61111">
        <ele>722.11</ele>
      </trkpt>
      <trkpt lat="42.457011" lon="-0.611091">
        <ele>722.79</ele>
      </trkpt>
      <trkpt lat="42.457085" lon="-0.611104">
        <ele>722.96</ele>
      </trkpt>
      <trkpt lat="42.457203" lon="-0.611146">
        <ele>722.8</ele>
      </trkpt>
      <trkpt lat="42.457319" lon="-0.611234">
        <ele>723.44</ele>
      </trkpt>
      <trkpt lat="42.457485" lon="-0.611399">
        <ele>724.05</ele>
      </trkpt>
      <trkpt lat="42.457544" lon="-0.61144">
        <ele>724.29</ele>
      </trkpt>
      <trkpt lat="42.457608" lon="-0.611467">
        <ele>724.28</ele>
      </trkpt>
      <trkpt lat="42.457681" lon="-0.611481">
        <ele>724.43</ele>
      </trkpt>
      <trkpt lat="42.45775" lon="-0.611481">
        <ele>724.5</ele>
      </trkpt>
      <trkpt lat="42.457829" lon="-0.611457">
        <ele>724.84</ele>
      </trkpt>
      <trkpt lat="42.457956" lon="-0.611395">
        <ele>725.48</ele>
      </trkpt>
      <trkpt lat="42.458065" lon="-0.61131">
        <ele>725.85</ele>
      </trkpt>
      <trkpt lat="42.458199" lon="-0.611178">
        <ele>726.13</ele>
      </trkpt>
      <trkpt lat="42.458275" lon="-0.611085">
        <ele>726.51</ele>
      </trkpt>
      <trkpt lat="42.458427" lon="-0.610786">
        <ele>727.09</ele>
      </trkpt>
      <trkpt lat="42.459549" lon="-0.60874">
        <ele>733.86</ele>
      </trkpt>
      <trkpt lat="42.459609" lon="-0.608632">
        <ele>734.33</ele>
      </trkpt>
      <trkpt lat="42.459682" lon="-0.608534">
        <ele>734.47</ele>
      </trkpt>
      <trkpt lat="42.459771" lon="-0.608432">
        <ele>734.56</ele>
      </trkpt>
      <trkpt lat="42.459897" lon="-0.608319">
        <ele>734.89</ele>
      </trkpt>
      <trkpt lat="42.460199" lon="-0.608061">
        <ele>735.77</ele>
      </trkpt>
      <trkpt lat="42.460347" lon="-0.60796">
        <ele>736.35</ele>
      </trkpt>
      <trkpt lat="42.460435" lon="-0.607909">
        <ele>736.83</ele>
      </trkpt>
      <trkpt lat="42.460504" lon="-0.607884">
        <ele>736.96</ele>
      </trkpt>
      <trkpt lat="42.460577" lon="-0.607875">
        <ele>736.94</ele>
      </trkpt>
      <trkpt lat="42.46084" lon="-0.60787">
        <ele>737.82</ele>
      </trkpt>
      <trkpt lat="42.460938" lon="-0.607839">
        <ele>737.91</ele>
      </trkpt>
      <trkpt lat="42.460993" lon="-0.607801">
        <ele>738.66</ele>
      </trkpt>
      <trkpt lat="42.461053" lon="-0.607741">
        <ele>739.03</ele>
      </trkpt>
      <trkpt lat="42.461109" lon="-0.60767">
        <ele>739.62</ele>
      </trkpt>
      <trkpt lat="42.461164" lon="-0.607579">
        <ele>740.7</ele>
      </trkpt>
      <trkpt lat="42.461213" lon="-0.607476">
        <ele>740.83</ele>
      </trkpt>
      <trkpt lat="42.461264" lon="-0.607305">
        <ele>740.82</ele>
      </trkpt>
      <trkpt lat="42.461305" lon="-0.607138">
        <ele>742.27</ele>
      </trkpt>
      <trkpt lat="42.461334" lon="-0.606949">
        <ele>743.49</ele>
      </trkpt>
      <trkpt lat="42.461365" lon="-0.606455">
        <ele>746.34</ele>
      </trkpt>
      <trkpt lat="42.461365" lon="-0.606215">
        <ele>745.89</ele>
      </trkpt>
      <trkpt lat="42.461359" lon="-0.605597">
        <ele>749.24</ele>
      </trkpt>
      <trkpt lat="42.461372" lon="-0.605488">
        <ele>749.63</ele>
      </trkpt>
      <trkpt lat="42.461402" lon="-0.60537">
        <ele>749.89</ele>
      </trkpt>
      <trkpt lat="42.461436" lon="-0.605272">
        <ele>750.26</ele>
      </trkpt>
      <trkpt lat="42.461479" lon="-0.605185">
        <ele>749.14</ele>
      </trkpt>
      <trkpt lat="42.461874" lon="-0.604715">
        <ele>751.59</ele>
      </trkpt>
      <trkpt lat="42.461969" lon="-0.604592">
        <ele>752.53</ele>
      </trkpt>
      <trkpt lat="42.46206" lon="-0.604455">
        <ele>753.71</ele>
      </trkpt>
      <trkpt lat="42.462159" lon="-0.604284">
        <ele>754.07</ele>
      </trkpt>
      <trkpt lat="42.462282" lon="-0.604047">
        <ele>755.53</ele>
      </trkpt>
      <trkpt lat="42.462431" lon="-0.603739">
        <ele>756.57</ele>
      </trkpt>
      <trkpt lat="42.462535" lon="-0.603605">
        <ele>757.36</ele>
      </trkpt>
      <trkpt lat="42.462595" lon="-0.603547">
        <ele>757.84</ele>
      </trkpt>
      <trkpt lat="42.462727" lon="-0.603473">
        <ele>757.08</ele>
      </trkpt>
      <trkpt lat="42.462889" lon="-0.603451">
        <ele>756.13</ele>
      </trkpt>
      <trkpt lat="42.463065" lon="-0.603439">
        <ele>756.64</ele>
      </trkpt>
      <trkpt lat="42.463286" lon="-0.603397">
        <ele>758.21</ele>
      </trkpt>
      <trkpt lat="42.463364" lon="-0.603361">
        <ele>758.72</ele>
      </trkpt>
      <trkpt lat="42.463449" lon="-0.603303">
        <ele>759.04</ele>
      </trkpt>
      <trkpt lat="42.463616" lon="-0.603132">
        <ele>760.22</ele>
      </trkpt>
      <trkpt lat="42.463947" lon="-0.602703">
        <ele>764.02</ele>
      </trkpt>
      <trkpt lat="42.464353" lon="-0.602183">
        <ele>765.06</ele>
      </trkpt>
      <trkpt lat="42.464455" lon="-0.602046">
        <ele>766.71</ele>
      </trkpt>
      <trkpt lat="42.464546" lon="-0.6019">
        <ele>767.02</ele>
      </trkpt>
      <trkpt lat="42.464968" lon="-0.601115">
        <ele>771.87</ele>
      </trkpt>
      <trkpt lat="42.465177" lon="-0.600746">
        <ele>771.94</ele>
      </trkpt>
      <trkpt lat="42.465284" lon="-0.600584">
        <ele>773.21</ele>
      </trkpt>
      <trkpt lat="42.465379" lon="-0.600457">
        <ele>774.03</ele>
      </trkpt>
      <trkpt lat="42.465468" lon="-0.600355">
        <ele>775.48</ele>
      </trkpt>
      <trkpt lat="42.465537" lon="-0.600301">
        <ele>776.27</ele>
      </trkpt>
      <trkpt lat="42.465619" lon="-0.600254">
        <ele>776.8</ele>
      </trkpt>
      <trkpt lat="42.465709" lon="-0.600224">
        <ele>776.57</ele>
      </trkpt>
      <trkpt lat="42.465861" lon="-0.600199">
        <ele>775.96</ele>
      </trkpt>
      <trkpt lat="42.46619" lon="-0.600164">
        <ele>776.53</ele>
      </trkpt>
      <trkpt lat="42.466513" lon="-0.60012">
        <ele>779.7</ele>
      </trkpt>
      <trkpt lat="42.466628" lon="-0.600098">
        <ele>781.13</ele>
      </trkpt>
      <trkpt lat="42.467269" lon="-0.599939">
        <ele>783.66</ele>
      </trkpt>
      <trkpt lat="42.467425" lon="-0.599912">
        <ele>784.85</ele>
      </trkpt>
      <trkpt lat="42.467535" lon="-0.599906">
        <ele>785.29</ele>
      </trkpt>
      <trkpt lat="42.467637" lon="-0.599925">
        <ele>785.95</ele>
      </trkpt>
      <trkpt lat="42.467736" lon="-0.599967">
        <ele>787.2</ele>
      </trkpt>
      <trkpt lat="42.467981" lon="-0.600161">
        <ele>788.55</ele>
      </trkpt>
      <trkpt lat="42.468036" lon="-0.600183">
        <ele>788.47</ele>
      </trkpt>
      <trkpt lat="42.468096" lon="-0.600191">
        <ele>788.61</ele>
      </trkpt>
      <trkpt lat="42.46816" lon="-0.600184">
        <ele>789.03</ele>
      </trkpt>
      <trkpt lat="42.468213" lon="-0.600152">
        <ele>789.89</ele>
      </trkpt>
      <trkpt lat="42.468269" lon="-0.600097">
        <ele>791.14</ele>
      </trkpt>
      <trkpt lat="42.468329" lon="-0.60001">
        <ele>791.65</ele>
      </trkpt>
      <trkpt lat="42.468777" lon="-0.599291">
        <ele>792.86</ele>
      </trkpt>
      <trkpt lat="42.468937" lon="-0.599042">
        <ele>798.34</ele>
      </trkpt>
      <trkpt lat="42.469525" lon="-0.598127">
        <ele>802.03</ele>
      </trkpt>
      <trkpt lat="42.469596" lon="-0.597999">
        <ele>802.21</ele>
      </trkpt>
      <trkpt lat="42.469762" lon="-0.597599">
        <ele>804.24</ele>
      </trkpt>
      <trkpt lat="42.469818" lon="-0.597481">
        <ele>804.4</ele>
      </trkpt>
      <trkpt lat="42.469932" lon="-0.59729">
        <ele>805.08</ele>
      </trkpt>
      <trkpt lat="42.470072" lon="-0.597127">
        <ele>806.38</ele>
      </trkpt>
      <trkpt lat="42.470157" lon="-0.597048">
        <ele>806.87</ele>
      </trkpt>
      <trkpt lat="42.470316" lon="-0.596921">
        <ele>807.14</ele>
      </trkpt>
      <trkpt lat="42.470443" lon="-0.59684">
        <ele>808.54</ele>
      </trkpt>
      <trkpt lat="42.470642" lon="-0.596752">
        <ele>809.31</ele>
      </trkpt>
      <trkpt lat="42.470915" lon="-0.596684">
        <ele>811.17</ele>
      </trkpt>
      <trkpt lat="42.471029" lon="-0.596646">
        <ele>813.14</ele>
      </trkpt>
      <trkpt lat="42.471074" lon="-0.596619">
        <ele>813.16</ele>
      </trkpt>
      <trkpt lat="42.471179" lon="-0.596522">
        <ele>813.44</ele>
      </trkpt>
      <trkpt lat="42.47125" lon="-0.59644">
        <ele>813.42</ele>
      </trkpt>
      <trkpt lat="42.471298" lon="-0.596366">
        <ele>814.07</ele>
      </trkpt>
      <trkpt lat="42.471339" lon="-0.596284">
        <ele>814.44</ele>
      </trkpt>
      <trkpt lat="42.471371" lon="-0.596167">
        <ele>814.38</ele>
      </trkpt>
      <trkpt lat="42.471422" lon="-0.595827">
        <ele>815.62</ele>
      </trkpt>
      <trkpt lat="42.471449" lon="-0.595681">
        <ele>814.1</ele>
      </trkpt>
      <trkpt lat="42.471479" lon="-0.595587">
        <ele>813.57</ele>
      </trkpt>
      <trkpt lat="42.471514" lon="-0.595514">
        <ele>813.74</ele>
      </trkpt>
      <trkpt lat="42.471557" lon="-0.595448">
        <ele>814.99</ele>
      </trkpt>
      <trkpt lat="42.471596" lon="-0.595411">
        <ele>816.46</ele>
      </trkpt>
      <trkpt lat="42.471662" lon="-0.595376">
        <ele>818.08</ele>
      </trkpt>
      <trkpt lat="42.471785" lon="-0.595367">
        <ele>819.26</ele>
      </trkpt>
      <trkpt lat="42.471915" lon="-0.595404">
        <ele>819.88</ele>
      </trkpt>
      <trkpt lat="42.472334" lon="-0.595575">
        <ele>822.88</ele>
      </trkpt>
      <trkpt lat="42.472532" lon="-0.595612">
        <ele>824.63</ele>
      </trkpt>
      <trkpt lat="42.47269" lon="-0.595598">
        <ele>825.41</ele>
      </trkpt>
      <trkpt lat="42.473462" lon="-0.595343">
        <ele>829.07</ele>
      </trkpt>
      <trkpt lat="42.473534" lon="-0.595337">
        <ele>830.1</ele>
      </trkpt>
      <trkpt lat="42.473601" lon="-0.595343">
        <ele>831.06</ele>
      </trkpt>
      <trkpt lat="42.473664" lon="-0.595366">
        <ele>831.45</ele>
      </trkpt>
      <trkpt lat="42.473727" lon="-0.595404">
        <ele>831.99</ele>
      </trkpt>
      <trkpt lat="42.473791" lon="-0.595466">
        <ele>832.6</ele>
      </trkpt>
      <trkpt lat="42.474787" lon="-0.596502">
        <ele>840.83</ele>
      </trkpt>
      <trkpt lat="42.474966" lon="-0.596799">
        <ele>840.98</ele>
      </trkpt>
      <trkpt lat="42.47505" lon="-0.596923">
        <ele>840.03</ele>
      </trkpt>
      <trkpt lat="42.475203" lon="-0.597105">
        <ele>840.59</ele>
      </trkpt>
      <trkpt lat="42.475274" lon="-0.597175">
        <ele>840.71</ele>
      </trkpt>
      <trkpt lat="42.475474" lon="-0.597322">
        <ele>840.48</ele>
      </trkpt>
      <trkpt lat="42.475681" lon="-0.597437">
        <ele>839.31</ele>
      </trkpt>
      <trkpt lat="42.475755" lon="-0.597464">
        <ele>838.99</ele>
      </trkpt>
      <trkpt lat="42.475866" lon="-0.597486">
        <ele>839.07</ele>
      </trkpt>
      <trkpt lat="42.475945" lon="-0.597487">
        <ele>839.07</ele>
      </trkpt>
      <trkpt lat="42.476011" lon="-0.597465">
        <ele>838.54</ele>
      </trkpt>
      <trkpt lat="42.476074" lon="-0.597421">
        <ele>838.18</ele>
      </trkpt>
      <trkpt lat="42.476131" lon="-0.597358">
        <ele>838.16</ele>
      </trkpt>
      <trkpt lat="42.476172" lon="-0.597283">
        <ele>837.09</ele>
      </trkpt>
      <trkpt lat="42.476206" lon="-0.597195">
        <ele>836.5</ele>
      </trkpt>
      <trkpt lat="42.476221" lon="-0.597103">
        <ele>836.69</ele>
      </trkpt>
      <trkpt lat="42.476222" lon="-0.597001">
        <ele>836.63</ele>
      </trkpt>
      <trkpt lat="42.476211" lon="-0.596909">
        <ele>838.97</ele>
      </trkpt>
      <trkpt lat="42.47618" lon="-0.596814">
        <ele>841.24</ele>
      </trkpt>
      <trkpt lat="42.476107" lon="-0.596695">
        <ele>843.05</ele>
      </trkpt>
      <trkpt lat="42.476056" lon="-0.596642">
        <ele>844.6</ele>
      </trkpt>
      <trkpt lat="42.475871" lon="-0.596521">
        <ele>845.21</ele>
      </trkpt>
      <trkpt lat="42.475766" lon="-0.596442">
        <ele>846.34</ele>
      </trkpt>
      <trkpt lat="42.475697" lon="-0.59638">
        <ele>846.37</ele>
      </trkpt>
      <trkpt lat="42.475615" lon="-0.596278">
        <ele>846.56</ele>
      </trkpt>
      <trkpt lat="42.475573" lon="-0.596194">
        <ele>846.62</ele>
      </trkpt>
      <trkpt lat="42.475534" lon="-0.596093">
        <ele>846.96</ele>
      </trkpt>
      <trkpt lat="42.475499" lon="-0.595967">
        <ele>847.31</ele>
      </trkpt>
      <trkpt lat="42.475474" lon="-0.595828">
        <ele>847.98</ele>
      </trkpt>
      <trkpt lat="42.475462" lon="-0.595696">
        <ele>848.61</ele>
      </trkpt>
      <trkpt lat="42.475466" lon="-0.595555">
        <ele>849.64</ele>
      </trkpt>
      <trkpt lat="42.47548" lon="-0.595421">
        <ele>850.87</ele>
      </trkpt>
      <trkpt lat="42.475499" lon="-0.595333">
        <ele>851.76</ele>
      </trkpt>
      <trkpt lat="42.475537" lon="-0.595241">
        <ele>851.06</ele>
      </trkpt>
      <trkpt lat="42.475588" lon="-0.595155">
        <ele>850</ele>
      </trkpt>
      <trkpt lat="42.475772" lon="-0.594897">
        <ele>850.95</ele>
      </trkpt>
      <trkpt lat="42.475863" lon="-0.59478">
        <ele>851.93</ele>
      </trkpt>
      <trkpt lat="42.47596" lon="-0.594677">
        <ele>851.85</ele>
      </trkpt>
      <trkpt lat="42.476071" lon="-0.594574">
        <ele>852.75</ele>
      </trkpt>
      <trkpt lat="42.476412" lon="-0.594329">
        <ele>856.31</ele>
      </trkpt>
      <trkpt lat="42.47658" lon="-0.594203">
        <ele>856.64</ele>
      </trkpt>
      <trkpt lat="42.476693" lon="-0.594108">
        <ele>857.35</ele>
      </trkpt>
      <trkpt lat="42.476782" lon="-0.594016">
        <ele>858.11</ele>
      </trkpt>
      <trkpt lat="42.47685" lon="-0.593929">
        <ele>858.81</ele>
      </trkpt>
      <trkpt lat="42.476912" lon="-0.593829">
        <ele>858.9</ele>
      </trkpt>
      <trkpt lat="42.476963" lon="-0.593719">
        <ele>858.91</ele>
      </trkpt>
      <trkpt lat="42.477012" lon="-0.593592">
        <ele>860.12</ele>
      </trkpt>
      <trkpt lat="42.477052" lon="-0.593447">
        <ele>859.99</ele>
      </trkpt>
      <trkpt lat="42.47708" lon="-0.593308">
        <ele>860.41</ele>
      </trkpt>
      <trkpt lat="42.477105" lon="-0.593117">
        <ele>861.95</ele>
      </trkpt>
      <trkpt lat="42.477224" lon="-0.592027">
        <ele>866.65</ele>
      </trkpt>
      <trkpt lat="42.477273" lon="-0.591472">
        <ele>869.11</ele>
      </trkpt>
      <trkpt lat="42.477277" lon="-0.591155">
        <ele>870.17</ele>
      </trkpt>
      <trkpt lat="42.477248" lon="-0.590807">
        <ele>871.43</ele>
      </trkpt>
      <trkpt lat="42.477252" lon="-0.590664">
        <ele>872.38</ele>
      </trkpt>
      <trkpt lat="42.477266" lon="-0.590518">
        <ele>873.68</ele>
      </trkpt>
      <trkpt lat="42.477283" lon="-0.590431">
        <ele>874.08</ele>
      </trkpt>
      <trkpt lat="42.477335" lon="-0.590255">
        <ele>874.39</ele>
      </trkpt>
      <trkpt lat="42.47743" lon="-0.590059">
        <ele>874.67</ele>
      </trkpt>
      <trkpt lat="42.477548" lon="-0.589882">
        <ele>875.34</ele>
      </trkpt>
      <trkpt lat="42.478548" lon="-0.588616">
        <ele>884.1</ele>
      </trkpt>
      <trkpt lat="42.478948" lon="-0.588109">
        <ele>885.72</ele>
      </trkpt>
      <trkpt lat="42.479547" lon="-0.587349">
        <ele>891.98</ele>
      </trkpt>
      <trkpt lat="42.480009" lon="-0.586782">
        <ele>895.03</ele>
      </trkpt>
      <trkpt lat="42.480091" lon="-0.586656">
        <ele>895.26</ele>
      </trkpt>
      <trkpt lat="42.480162" lon="-0.586517">
        <ele>895.52</ele>
      </trkpt>
      <trkpt lat="42.480217" lon="-0.586377">
        <ele>894.84</ele>
      </trkpt>
      <trkpt lat="42.480266" lon="-0.586221">
        <ele>896.43</ele>
      </trkpt>
      <trkpt lat="42.480323" lon="-0.585999">
        <ele>898.19</ele>
      </trkpt>
      <trkpt lat="42.480371" lon="-0.585766">
        <ele>897.55</ele>
      </trkpt>
      <trkpt lat="42.480431" lon="-0.585426">
        <ele>901.27</ele>
      </trkpt>
      <trkpt lat="42.480613" lon="-0.584403">
        <ele>908.19</ele>
      </trkpt>
      <trkpt lat="42.480952" lon="-0.582507">
        <ele>914.05</ele>
      </trkpt>
      <trkpt lat="42.481033" lon="-0.582192">
        <ele>913.93</ele>
      </trkpt>
      <trkpt lat="42.481088" lon="-0.582022">
        <ele>914.12</ele>
      </trkpt>
      <trkpt lat="42.481223" lon="-0.581675">
        <ele>914.07</ele>
      </trkpt>
      <trkpt lat="42.481253" lon="-0.581672">
        <ele>914.29</ele>
      </trkpt>
      <trkpt lat="42.481541" lon="-0.581855">
        <ele>916.03</ele>
      </trkpt>
      <trkpt lat="42.481649" lon="-0.581953">
        <ele>917.05</ele>
      </trkpt>
      <trkpt lat="42.481714" lon="-0.582025">
        <ele>917.21</ele>
      </trkpt>
      <trkpt lat="42.481785" lon="-0.58212">
        <ele>918.42</ele>
      </trkpt>
      <trkpt lat="42.482509" lon="-0.58346">
        <ele>923.39</ele>
      </trkpt>
      <trkpt lat="42.482583" lon="-0.583555">
        <ele>924.01</ele>
      </trkpt>
      <trkpt lat="42.482662" lon="-0.583623">
        <ele>924.22</ele>
      </trkpt>
      <trkpt lat="42.482757" lon="-0.58367">
        <ele>924.82</ele>
      </trkpt>
      <trkpt lat="42.482944" lon="-0.583727">
        <ele>925.02</ele>
      </trkpt>
      <trkpt lat="42.483047" lon="-0.58377">
        <ele>925.41</ele>
      </trkpt>
      <trkpt lat="42.483132" lon="-0.583833">
        <ele>925.61</ele>
      </trkpt>
      <trkpt lat="42.483182" lon="-0.583911">
        <ele>925.5</ele>
      </trkpt>
      <trkpt lat="42.483228" lon="-0.584011">
        <ele>925.53</ele>
      </trkpt>
      <trkpt lat="42.483256" lon="-0.584143">
        <ele>925.72</ele>
      </trkpt>
      <trkpt lat="42.483272" lon="-0.584311">
        <ele>927.02</ele>
      </trkpt>
      <trkpt lat="42.483267" lon="-0.584436">
        <ele>926.91</ele>
      </trkpt>
      <trkpt lat="42.483237" lon="-0.584559">
        <ele>926.86</ele>
      </trkpt>
      <trkpt lat="42.483187" lon="-0.584669">
        <ele>927.22</ele>
      </trkpt>
      <trkpt lat="42.482938" lon="-0.585006">
        <ele>928.69</ele>
      </trkpt>
      <trkpt lat="42.482894" lon="-0.585099">
        <ele>929.98</ele>
      </trkpt>
      <trkpt lat="42.482865" lon="-0.585198">
        <ele>931.13</ele>
      </trkpt>
      <trkpt lat="42.482852" lon="-0.58533">
        <ele>931.96</ele>
      </trkpt>
      <trkpt lat="42.48286" lon="-0.58547">
        <ele>931.41</ele>
      </trkpt>
      <trkpt lat="42.482884" lon="-0.585619">
        <ele>932.71</ele>
      </trkpt>
      <trkpt lat="42.482923" lon="-0.585764">
        <ele>933.38</ele>
      </trkpt>
      <trkpt lat="42.483168" lon="-0.586285">
        <ele>935.88</ele>
      </trkpt>
      <trkpt lat="42.48326" lon="-0.586451">
        <ele>937.09</ele>
      </trkpt>
      <trkpt lat="42.483308" lon="-0.586522">
        <ele>937.82</ele>
      </trkpt>
      <trkpt lat="42.483366" lon="-0.586568">
        <ele>938.83</ele>
      </trkpt>
      <trkpt lat="42.483424" lon="-0.586607">
        <ele>939.53</ele>
      </trkpt>
      <trkpt lat="42.483512" lon="-0.586647">
        <ele>940.55</ele>
      </trkpt>
      <trkpt lat="42.483626" lon="-0.586674">
        <ele>941.29</ele>
      </trkpt>
      <trkpt lat="42.484132" lon="-0.586689">
        <ele>945.02</ele>
      </trkpt>
      <trkpt lat="42.484285" lon="-0.586756">
        <ele>945.62</ele>
      </trkpt>
      <trkpt lat="42.484685" lon="-0.58715">
        <ele>947.4</ele>
      </trkpt>
      <trkpt lat="42.485086" lon="-0.587545">
        <ele>951.27</ele>
      </trkpt>
      <trkpt lat="42.485182" lon="-0.587716">
        <ele>951.8</ele>
      </trkpt>
      <trkpt lat="42.48522" lon="-0.587878">
        <ele>951.45</ele>
      </trkpt>
      <trkpt lat="42.485224" lon="-0.588084">
        <ele>951.84</ele>
      </trkpt>
      <trkpt lat="42.485191" lon="-0.588389">
        <ele>954.92</ele>
      </trkpt>
      <trkpt lat="42.485123" lon="-0.589">
        <ele>956.83</ele>
      </trkpt>
      <trkpt lat="42.485074" lon="-0.589188">
        <ele>958.48</ele>
      </trkpt>
      <trkpt lat="42.484991" lon="-0.589331">
        <ele>959.73</ele>
      </trkpt>
      <trkpt lat="42.484875" lon="-0.589437">
        <ele>960.99</ele>
      </trkpt>
      <trkpt lat="42.484459" lon="-0.589652">
        <ele>961.54</ele>
      </trkpt>
      <trkpt lat="42.484344" lon="-0.589773">
        <ele>963.42</ele>
      </trkpt>
      <trkpt lat="42.484256" lon="-0.58994">
        <ele>964.93</ele>
      </trkpt>
      <trkpt lat="42.484245" lon="-0.590181">
        <ele>965.38</ele>
      </trkpt>
      <trkpt lat="42.484323" lon="-0.590484">
        <ele>966.83</ele>
      </trkpt>
      <trkpt lat="42.484595" lon="-0.591133">
        <ele>970.35</ele>
      </trkpt>
      <trkpt lat="42.485175" lon="-0.592084">
        <ele>975.44</ele>
      </trkpt>
      <trkpt lat="42.485623" lon="-0.592959">
        <ele>980.02</ele>
      </trkpt>
      <trkpt lat="42.485741" lon="-0.593072">
        <ele>981.47</ele>
      </trkpt>
      <trkpt lat="42.485907" lon="-0.593149">
        <ele>983.62</ele>
      </trkpt>
      <trkpt lat="42.486015" lon="-0.593143">
        <ele>985.27</ele>
      </trkpt>
      <trkpt lat="42.486183" lon="-0.593049">
        <ele>986.34</ele>
      </trkpt>
      <trkpt lat="42.486787" lon="-0.592413">
        <ele>990.85</ele>
      </trkpt>
      <trkpt lat="42.487378" lon="-0.591876">
        <ele>991.6</ele>
      </trkpt>
      <trkpt lat="42.487479" lon="-0.59171">
        <ele>993.14</ele>
      </trkpt>
      <trkpt lat="42.487518" lon="-0.59154">
        <ele>994.25</ele>
      </trkpt>
      <trkpt lat="42.487557" lon="-0.591088">
        <ele>995.01</ele>
      </trkpt>
      <trkpt lat="42.487611" lon="-0.59092">
        <ele>994.51</ele>
      </trkpt>
      <trkpt lat="42.487739" lon="-0.590724">
        <ele>993.79</ele>
      </trkpt>
      <trkpt lat="42.488093" lon="-0.590529">
        <ele>998.14</ele>
      </trkpt>
      <trkpt lat="42.488384" lon="-0.590208">
        <ele>998.25</ele>
      </trkpt>
      <trkpt lat="42.488498" lon="-0.590168">
        <ele>999.21</ele>
      </trkpt>
      <trkpt lat="42.488697" lon="-0.590169">
        <ele>1000.81</ele>
      </trkpt>
      <trkpt lat="42.488849" lon="-0.590121">
        <ele>1000.73</ele>
      </trkpt>
      <trkpt lat="42.489373" lon="-0.589809">
        <ele>1004.31</ele>
      </trkpt>
      <trkpt lat="42.489897" lon="-0.589497">
        <ele>1010.45</ele>
      </trkpt>
      <trkpt lat="42.490144" lon="-0.589285">
        <ele>1013.09</ele>
      </trkpt>
      <trkpt lat="42.490238" lon="-0.589262">
        <ele>1013.03</ele>
      </trkpt>
      <trkpt lat="42.490373" lon="-0.589267">
        <ele>1012.3</ele>
      </trkpt>
      <trkpt lat="42.490506" lon="-0.589345">
        <ele>1013.09</ele>
      </trkpt>
      <trkpt lat="42.490582" lon="-0.589444">
        <ele>1014.95</ele>
      </trkpt>
      <trkpt lat="42.490663" lon="-0.589604">
        <ele>1018.09</ele>
      </trkpt>
      <trkpt lat="42.490697" lon="-0.589749">
        <ele>1018.78</ele>
      </trkpt>
      <trkpt lat="42.490681" lon="-0.589952">
        <ele>1021.07</ele>
      </trkpt>
      <trkpt lat="42.490608" lon="-0.59015">
        <ele>1021.01</ele>
      </trkpt>
      <trkpt lat="42.490424" lon="-0.590397">
        <ele>1021.18</ele>
      </trkpt>
      <trkpt lat="42.490326" lon="-0.590602">
        <ele>1020.45</ele>
      </trkpt>
      <trkpt lat="42.490288" lon="-0.590748">
        <ele>1020.81</ele>
      </trkpt>
      <trkpt lat="42.49027" lon="-0.591048">
        <ele>1020.75</ele>
      </trkpt>
      <trkpt lat="42.49027" lon="-0.591335">
        <ele>1021.56</ele>
      </trkpt>
      <trkpt lat="42.490311" lon="-0.591511">
        <ele>1022.32</ele>
      </trkpt>
      <trkpt lat="42.490542" lon="-0.591862">
        <ele>1020.98</ele>
      </trkpt>
      <trkpt lat="42.490702" lon="-0.592015">
        <ele>1022.77</ele>
      </trkpt>
      <trkpt lat="42.490807" lon="-0.592072">
        <ele>1023.26</ele>
      </trkpt>
      <trkpt lat="42.490899" lon="-0.59207">
        <ele>1022.61</ele>
      </trkpt>
      <trkpt lat="42.491015" lon="-0.592029">
        <ele>1021.32</ele>
      </trkpt>
      <trkpt lat="42.491241" lon="-0.591817">
        <ele>1021.7</ele>
      </trkpt>
      <trkpt lat="42.491348" lon="-0.59177">
        <ele>1022.12</ele>
      </trkpt>
      <trkpt lat="42.491454" lon="-0.591763">
        <ele>1022.78</ele>
      </trkpt>
      <trkpt lat="42.491642" lon="-0.591803">
        <ele>1023.86</ele>
      </trkpt>
      <trkpt lat="42.491748" lon="-0.591792">
        <ele>1022.21</ele>
      </trkpt>
      <trkpt lat="42.492007" lon="-0.591656">
        <ele>1022.5</ele>
      </trkpt>
      <trkpt lat="42.492203" lon="-0.591621">
        <ele>1024.7</ele>
      </trkpt>
      <trkpt lat="42.492409" lon="-0.591661">
        <ele>1025.2</ele>
      </trkpt>
      <trkpt lat="42.492569" lon="-0.591734">
        <ele>1026.35</ele>
      </trkpt>
      <trkpt lat="42.492681" lon="-0.591857">
        <ele>1024.28</ele>
      </trkpt>
      <trkpt lat="42.492752" lon="-0.59198">
        <ele>1022.41</ele>
      </trkpt>
      <trkpt lat="42.492776" lon="-0.592152">
        <ele>1021.22</ele>
      </trkpt>
      <trkpt lat="42.492775" lon="-0.592339">
        <ele>1022.32</ele>
      </trkpt>
      <trkpt lat="42.492718" lon="-0.592494">
        <ele>1025.11</ele>
      </trkpt>
      <trkpt lat="42.492604" lon="-0.592626">
        <ele>1027.05</ele>
      </trkpt>
      <trkpt lat="42.492156" lon="-0.592915">
        <ele>1028.05</ele>
      </trkpt>
      <trkpt lat="42.492049" lon="-0.593021">
        <ele>1028.88</ele>
      </trkpt>
      <trkpt lat="42.491964" lon="-0.593179">
        <ele>1029.77</ele>
      </trkpt>
      <trkpt lat="42.491833" lon="-0.593625">
        <ele>1030.3</ele>
      </trkpt>
      <trkpt lat="42.491807" lon="-0.593798">
        <ele>1031.96</ele>
      </trkpt>
      <trkpt lat="42.491821" lon="-0.593983">
        <ele>1033.27</ele>
      </trkpt>
      <trkpt lat="42.491997" lon="-0.594618">
        <ele>1036.82</ele>
      </trkpt>
      <trkpt lat="42.49204" lon="-0.59483">
        <ele>1037.24</ele>
      </trkpt>
      <trkpt lat="42.49208" lon="-0.595319">
        <ele>1035.36</ele>
      </trkpt>
      <trkpt lat="42.492132" lon="-0.595486">
        <ele>1037.04</ele>
      </trkpt>
      <trkpt lat="42.492217" lon="-0.595624">
        <ele>1037.9</ele>
      </trkpt>
      <trkpt lat="42.492323" lon="-0.595702">
        <ele>1037.96</ele>
      </trkpt>
      <trkpt lat="42.492467" lon="-0.595696">
        <ele>1037.36</ele>
      </trkpt>
      <trkpt lat="42.492576" lon="-0.59562">
        <ele>1037.37</ele>
      </trkpt>
      <trkpt lat="42.492666" lon="-0.595498">
        <ele>1036.96</ele>
      </trkpt>
      <trkpt lat="42.492713" lon="-0.595354">
        <ele>1037.84</ele>
      </trkpt>
      <trkpt lat="42.492738" lon="-0.595027">
        <ele>1041.07</ele>
      </trkpt>
      <trkpt lat="42.492785" lon="-0.594816">
        <ele>1042.78</ele>
      </trkpt>
      <trkpt lat="42.492902" lon="-0.594605">
        <ele>1044.6</ele>
      </trkpt>
      <trkpt lat="42.493046" lon="-0.594444">
        <ele>1045.25</ele>
      </trkpt>
      <trkpt lat="42.493166" lon="-0.59437">
        <ele>1046.37</ele>
      </trkpt>
      <trkpt lat="42.49329" lon="-0.594353">
        <ele>1047.4</ele>
      </trkpt>
      <trkpt lat="42.493444" lon="-0.594401">
        <ele>1048.65</ele>
      </trkpt>
      <trkpt lat="42.493557" lon="-0.594472">
        <ele>1049.33</ele>
      </trkpt>
      <trkpt lat="42.494035" lon="-0.594991">
        <ele>1053.26</ele>
      </trkpt>
      <trkpt lat="42.494167" lon="-0.595043">
        <ele>1053.17</ele>
      </trkpt>
      <trkpt lat="42.49436" lon="-0.595">
        <ele>1053.36</ele>
      </trkpt>
      <trkpt lat="42.494477" lon="-0.594926">
        <ele>1053.56</ele>
      </trkpt>
      <trkpt lat="42.494556" lon="-0.594829">
        <ele>1053.35</ele>
      </trkpt>
      <trkpt lat="42.494661" lon="-0.594607">
        <ele>1054.48</ele>
      </trkpt>
      <trkpt lat="42.494782" lon="-0.594494">
        <ele>1054.18</ele>
      </trkpt>
      <trkpt lat="42.494888" lon="-0.594422">
        <ele>1055.92</ele>
      </trkpt>
      <trkpt lat="42.495015" lon="-0.594401">
        <ele>1056.8</ele>
      </trkpt>
      <trkpt lat="42.495167" lon="-0.59443">
        <ele>1059.48</ele>
      </trkpt>
      <trkpt lat="42.495263" lon="-0.594499">
        <ele>1061.7</ele>
      </trkpt>
      <trkpt lat="42.495366" lon="-0.594666">
        <ele>1064.33</ele>
      </trkpt>
      <trkpt lat="42.495435" lon="-0.594836">
        <ele>1065.12</ele>
      </trkpt>
      <trkpt lat="42.495463" lon="-0.595017">
        <ele>1065.92</ele>
      </trkpt>
      <trkpt lat="42.495465" lon="-0.595992">
        <ele>1067.8</ele>
      </trkpt>
      <trkpt lat="42.495488" lon="-0.596244">
        <ele>1067.92</ele>
      </trkpt>
      <trkpt lat="42.495529" lon="-0.596389">
        <ele>1068.07</ele>
      </trkpt>
      <trkpt lat="42.495626" lon="-0.596491">
        <ele>1067.65</ele>
      </trkpt>
      <trkpt lat="42.495751" lon="-0.596538">
        <ele>1067.84</ele>
      </trkpt>
      <trkpt lat="42.495898" lon="-0.596497">
        <ele>1068.76</ele>
      </trkpt>
      <trkpt lat="42.496074" lon="-0.596397">
        <ele>1069.06</ele>
      </trkpt>
      <trkpt lat="42.496259" lon="-0.596213">
        <ele>1071.44</ele>
      </trkpt>
      <trkpt lat="42.496359" lon="-0.596001">
        <ele>1070.91</ele>
      </trkpt>
      <trkpt lat="42.496473" lon="-0.595639">
        <ele>1073.47</ele>
      </trkpt>
      <trkpt lat="42.49661" lon="-0.595375">
        <ele>1075.33</ele>
      </trkpt>
      <trkpt lat="42.496814" lon="-0.595081">
        <ele>1077.36</ele>
      </trkpt>
      <trkpt lat="42.496992" lon="-0.594921">
        <ele>1079.46</ele>
      </trkpt>
      <trkpt lat="42.497222" lon="-0.594859">
        <ele>1081.96</ele>
      </trkpt>
      <trkpt lat="42.497433" lon="-0.59485">
        <ele>1082.04</ele>
      </trkpt>
      <trkpt lat="42.497556" lon="-0.594907">
        <ele>1081.19</ele>
      </trkpt>
      <trkpt lat="42.497649" lon="-0.594998">
        <ele>1081.73</ele>
      </trkpt>
      <trkpt lat="42.49773" lon="-0.595128">
        <ele>1084.56</ele>
      </trkpt>
      <trkpt lat="42.497776" lon="-0.595279">
        <ele>1084.84</ele>
      </trkpt>
      <trkpt lat="42.49781" lon="-0.59557">
        <ele>1086.86</ele>
      </trkpt>
      <trkpt lat="42.497859" lon="-0.59577">
        <ele>1088.84</ele>
      </trkpt>
      <trkpt lat="42.497957" lon="-0.595935">
        <ele>1089.27</ele>
      </trkpt>
      <trkpt lat="42.498124" lon="-0.596053">
        <ele>1090.22</ele>
      </trkpt>
      <trkpt lat="42.498477" lon="-0.59617">
        <ele>1094.16</ele>
      </trkpt>
      <trkpt lat="42.498772" lon="-0.596339">
        <ele>1095.59</ele>
      </trkpt>
      <trkpt lat="42.498912" lon="-0.596504">
        <ele>1095.49</ele>
      </trkpt>
      <trkpt lat="42.498966" lon="-0.596645">
        <ele>1096.41</ele>
      </trkpt>
      <trkpt lat="42.499009" lon="-0.597017">
        <ele>1097.15</ele>
      </trkpt>
      <trkpt lat="42.499052" lon="-0.597389">
        <ele>1100.58</ele>
      </trkpt>
      <trkpt lat="42.499019" lon="-0.59772">
        <ele>1101.19</ele>
      </trkpt>
      <trkpt lat="42.498932" lon="-0.597979">
        <ele>1099.57</ele>
      </trkpt>
      <trkpt lat="42.498845" lon="-0.598239">
        <ele>1100.73</ele>
      </trkpt>
      <trkpt lat="42.498832" lon="-0.59838">
        <ele>1101.16</ele>
      </trkpt>
      <trkpt lat="42.498873" lon="-0.598536">
        <ele>1102.74</ele>
      </trkpt>
      <trkpt lat="42.499096" lon="-0.598945">
        <ele>1102.92</ele>
      </trkpt>
      <trkpt lat="42.499142" lon="-0.599093">
        <ele>1102.75</ele>
      </trkpt>
      <trkpt lat="42.499144" lon="-0.599244">
        <ele>1101.99</ele>
      </trkpt>
      <trkpt lat="42.499103" lon="-0.599388">
        <ele>1101.52</ele>
      </trkpt>
      <trkpt lat="42.498964" lon="-0.599656">
        <ele>1100.99</ele>
      </trkpt>
      <trkpt lat="42.498804" lon="-0.600214">
        <ele>1102.14</ele>
      </trkpt>
      <trkpt lat="42.498764" lon="-0.600459">
        <ele>1103.1</ele>
      </trkpt>
      <trkpt lat="42.498762" lon="-0.600764">
        <ele>1105.14</ele>
      </trkpt>
      <trkpt lat="42.498903" lon="-0.601433">
        <ele>1106.15</ele>
      </trkpt>
      <trkpt lat="42.498913" lon="-0.60161">
        <ele>1106.16</ele>
      </trkpt>
      <trkpt lat="42.498827" lon="-0.602277">
        <ele>1103.61</ele>
      </trkpt>
      <trkpt lat="42.498783" lon="-0.602453">
        <ele>1103.13</ele>
      </trkpt>
      <trkpt lat="42.498653" lon="-0.602701">
        <ele>1102.11</ele>
      </trkpt>
      <trkpt lat="42.498624" lon="-0.602883">
        <ele>1102.97</ele>
      </trkpt>
      <trkpt lat="42.498668" lon="-0.603035">
        <ele>1103.06</ele>
      </trkpt>
      <trkpt lat="42.498755" lon="-0.603158">
        <ele>1103.45</ele>
      </trkpt>
      <trkpt lat="42.499022" lon="-0.603295">
        <ele>1105.39</ele>
      </trkpt>
      <trkpt lat="42.499201" lon="-0.603428">
        <ele>1107.18</ele>
      </trkpt>
      <trkpt lat="42.499314" lon="-0.603593">
        <ele>1105.87</ele>
      </trkpt>
      <trkpt lat="42.499376" lon="-0.60375">
        <ele>1106.4</ele>
      </trkpt>
      <trkpt lat="42.49939" lon="-0.603918">
        <ele>1105.86</ele>
      </trkpt>
      <trkpt lat="42.499381" lon="-0.6041">
        <ele>1105.4</ele>
      </trkpt>
      <trkpt lat="42.499291" lon="-0.60443">
        <ele>1105.26</ele>
      </trkpt>
      <trkpt lat="42.499257" lon="-0.604657">
        <ele>1105.6</ele>
      </trkpt>
      <trkpt lat="42.499277" lon="-0.604912">
        <ele>1106.18</ele>
      </trkpt>
      <trkpt lat="42.499345" lon="-0.605103">
        <ele>1106.26</ele>
      </trkpt>
      <trkpt lat="42.499434" lon="-0.605233">
        <ele>1107.05</ele>
      </trkpt>
      <trkpt lat="42.499798" lon="-0.605509">
        <ele>1110.19</ele>
      </trkpt>
      <trkpt lat="42.499894" lon="-0.605624">
        <ele>1110.28</ele>
      </trkpt>
      <trkpt lat="42.50002" lon="-0.605879">
        <ele>1110.88</ele>
      </trkpt>
      <trkpt lat="42.500114" lon="-0.606146">
        <ele>1109.65</ele>
      </trkpt>
      <trkpt lat="42.50013" lon="-0.606335">
        <ele>1108.83</ele>
      </trkpt>
      <trkpt lat="42.500123" lon="-0.606659">
        <ele>1108.65</ele>
      </trkpt>
      <trkpt lat="42.500151" lon="-0.606916">
        <ele>1109.51</ele>
      </trkpt>
      <trkpt lat="42.500207" lon="-0.607095">
        <ele>1109.58</ele>
      </trkpt>
      <trkpt lat="42.500476" lon="-0.607518">
        <ele>1109.55</ele>
      </trkpt>
      <trkpt lat="42.500526" lon="-0.607679">
        <ele>1108.87</ele>
      </trkpt>
      <trkpt lat="42.500537" lon="-0.607835">
        <ele>1108.38</ele>
      </trkpt>
      <trkpt lat="42.500507" lon="-0.608015">
        <ele>1108.02</ele>
      </trkpt>
      <trkpt lat="42.50039" lon="-0.608279">
        <ele>1107.55</ele>
      </trkpt>
      <trkpt lat="42.500342" lon="-0.608432">
        <ele>1107.69</ele>
      </trkpt>
      <trkpt lat="42.500328" lon="-0.608622">
        <ele>1108.78</ele>
      </trkpt>
      <trkpt lat="42.500381" lon="-0.609083">
        <ele>1109.17</ele>
      </trkpt>
      <trkpt lat="42.500354" lon="-0.609311">
        <ele>1108.14</ele>
      </trkpt>
      <trkpt lat="42.500272" lon="-0.609539">
        <ele>1107.51</ele>
      </trkpt>
      <trkpt lat="42.500031" lon="-0.609899">
        <ele>1107.39</ele>
      </trkpt>
      <trkpt lat="42.499958" lon="-0.61011">
        <ele>1107.95</ele>
      </trkpt>
      <trkpt lat="42.499944" lon="-0.610345">
        <ele>1109.17</ele>
      </trkpt>
      <trkpt lat="42.500005" lon="-0.610592">
        <ele>1110.1</ele>
      </trkpt>
      <trkpt lat="42.500129" lon="-0.610804">
        <ele>1110.24</ele>
      </trkpt>
      <trkpt lat="42.500589" lon="-0.611265">
        <ele>1112.43</ele>
      </trkpt>
      <trkpt lat="42.500589" lon="-0.611265">
        <ele>1112.43</ele>
      </trkpt>
      <trkpt lat="42.500667" lon="-0.611343">
        <ele>1112.8</ele>
      </trkpt>
      <trkpt lat="42.501158" lon="-0.612001">
        <ele>1115.25</ele>
      </trkpt>
      <trkpt lat="42.501271" lon="-0.612253">
        <ele>1115.85</ele>
      </trkpt>
      <trkpt lat="42.5013" lon="-0.612532">
        <ele>1113.95</ele>
      </trkpt>
      <trkpt lat="42.501263" lon="-0.612786">
        <ele>1112.95</ele>
      </trkpt>
      <trkpt lat="42.501272" lon="-0.612976">
        <ele>1114.5</ele>
      </trkpt>
      <trkpt lat="42.501367" lon="-0.613138">
        <ele>1114.98</ele>
      </trkpt>
      <trkpt lat="42.501581" lon="-0.613288">
        <ele>1114.52</ele>
      </trkpt>
      <trkpt lat="42.501691" lon="-0.613406">
        <ele>1114.92</ele>
      </trkpt>
      <trkpt lat="42.50176" lon="-0.613561">
        <ele>1115.21</ele>
      </trkpt>
      <trkpt lat="42.501767" lon="-0.613731">
        <ele>1114.18</ele>
      </trkpt>
      <trkpt lat="42.501672" lon="-0.614214">
        <ele>1112.41</ele>
      </trkpt>
      <trkpt lat="42.501668" lon="-0.614361">
        <ele>1114.03</ele>
      </trkpt>
      <trkpt lat="42.501718" lon="-0.614492">
        <ele>1114.82</ele>
      </trkpt>
      <trkpt lat="42.502102" lon="-0.614999">
        <ele>1116.14</ele>
      </trkpt>
      <trkpt lat="42.502142" lon="-0.615136">
        <ele>1115.52</ele>
      </trkpt>
      <trkpt lat="42.502137" lon="-0.615517">
        <ele>1113.56</ele>
      </trkpt>
      <trkpt lat="42.502132" lon="-0.615899">
        <ele>1114.13</ele>
      </trkpt>
      <trkpt lat="42.502151" lon="-0.616119">
        <ele>1114.29</ele>
      </trkpt>
      <trkpt lat="42.502218" lon="-0.616285">
        <ele>1113.11</ele>
      </trkpt>
      <trkpt lat="42.502399" lon="-0.61654">
        <ele>1113.28</ele>
      </trkpt>
      <trkpt lat="42.502476" lon="-0.616737">
        <ele>1114.7</ele>
      </trkpt>
      <trkpt lat="42.502479" lon="-0.616949">
        <ele>1115.91</ele>
      </trkpt>
      <trkpt lat="42.502328" lon="-0.618373">
        <ele>1111.64</ele>
      </trkpt>
      <trkpt lat="42.502215" lon="-0.61944">
        <ele>1111.15</ele>
      </trkpt>
      <trkpt lat="42.50214" lon="-0.620152">
        <ele>1109.1</ele>
      </trkpt>
      <trkpt lat="42.502137" lon="-0.620339">
        <ele>1109.42</ele>
      </trkpt>
      <trkpt lat="42.502188" lon="-0.620566">
        <ele>1109.5</ele>
      </trkpt>
      <trkpt lat="42.502298" lon="-0.620722">
        <ele>1107.71</ele>
      </trkpt>
      <trkpt lat="42.502489" lon="-0.620851">
        <ele>1106.36</ele>
      </trkpt>
      <trkpt lat="42.502631" lon="-0.620891">
        <ele>1106.43</ele>
      </trkpt>
      <trkpt lat="42.502753" lon="-0.620864">
        <ele>1104.23</ele>
      </trkpt>
      <trkpt lat="42.50301" lon="-0.620671">
        <ele>1102.45</ele>
      </trkpt>
      <trkpt lat="42.503137" lon="-0.620631">
        <ele>1102.77</ele>
      </trkpt>
      <trkpt lat="42.503266" lon="-0.620631">
        <ele>1104.11</ele>
      </trkpt>
      <trkpt lat="42.503771" lon="-0.620983">
        <ele>1103.25</ele>
      </trkpt>
      <trkpt lat="42.503939" lon="-0.621178">
        <ele>1104.56</ele>
      </trkpt>
      <trkpt lat="42.504044" lon="-0.62144">
        <ele>1104.16</ele>
      </trkpt>
      <trkpt lat="42.504086" lon="-0.62152">
        <ele>1103.74</ele>
      </trkpt>
      <trkpt lat="42.504319" lon="-0.621815">
        <ele>1103.38</ele>
      </trkpt>
      <trkpt lat="42.504427" lon="-0.622096">
        <ele>1103.08</ele>
      </trkpt>
      <trkpt lat="42.504536" lon="-0.622376">
        <ele>1105.43</ele>
      </trkpt>
      <trkpt lat="42.504648" lon="-0.622955">
        <ele>1107.49</ele>
      </trkpt>
      <trkpt lat="42.504652" lon="-0.623144">
        <ele>1108.6</ele>
      </trkpt>
      <trkpt lat="42.504627" lon="-0.623243">
        <ele>1109.5</ele>
      </trkpt>
      <trkpt lat="42.504452" lon="-0.623543">
        <ele>1110.7</ele>
      </trkpt>
      <trkpt lat="42.504434" lon="-0.623701">
        <ele>1110.51</ele>
      </trkpt>
      <trkpt lat="42.504455" lon="-0.623845">
        <ele>1110.39</ele>
      </trkpt>
      <trkpt lat="42.504693" lon="-0.624301">
        <ele>1111.44</ele>
      </trkpt>
      <trkpt lat="42.504804" lon="-0.624696">
        <ele>1112.99</ele>
      </trkpt>
      <trkpt lat="42.504829" lon="-0.624964">
        <ele>1115.23</ele>
      </trkpt>
      <trkpt lat="42.504805" lon="-0.625421">
        <ele>1114.06</ele>
      </trkpt>
      <trkpt lat="42.504874" lon="-0.626034">
        <ele>1116.05</ele>
      </trkpt>
      <trkpt lat="42.50487" lon="-0.626165">
        <ele>1116.6</ele>
      </trkpt>
      <trkpt lat="42.504835" lon="-0.62628">
        <ele>1116.59</ele>
      </trkpt>
      <trkpt lat="42.504568" lon="-0.626762">
        <ele>1117.55</ele>
      </trkpt>
      <trkpt lat="42.50456" lon="-0.626954">
        <ele>1115.97</ele>
      </trkpt>
      <trkpt lat="42.504615" lon="-0.627121">
        <ele>1115.45</ele>
      </trkpt>
      <trkpt lat="42.504825" lon="-0.627358">
        <ele>1114.9</ele>
      </trkpt>
      <trkpt lat="42.505034" lon="-0.627595">
        <ele>1117.86</ele>
      </trkpt>
      <trkpt lat="42.505098" lon="-0.627747">
        <ele>1119.13</ele>
      </trkpt>
      <trkpt lat="42.50515" lon="-0.628203">
        <ele>1118.96</ele>
      </trkpt>
      <trkpt lat="42.505202" lon="-0.628341">
        <ele>1119.03</ele>
      </trkpt>
      <trkpt lat="42.505484" lon="-0.628698">
        <ele>1119.97</ele>
      </trkpt>
      <trkpt lat="42.505591" lon="-0.628907">
        <ele>1121.34</ele>
      </trkpt>
      <trkpt lat="42.505622" lon="-0.62909">
        <ele>1121.87</ele>
      </trkpt>
      <trkpt lat="42.505601" lon="-0.629246">
        <ele>1122.23</ele>
      </trkpt>
      <trkpt lat="42.505439" lon="-0.629594">
        <ele>1123.48</ele>
      </trkpt>
      <trkpt lat="42.505423" lon="-0.62974">
        <ele>1123.07</ele>
      </trkpt>
      <trkpt lat="42.505447" lon="-0.629944">
        <ele>1123.64</ele>
      </trkpt>
      <trkpt lat="42.505602" lon="-0.630407">
        <ele>1124.71</ele>
      </trkpt>
      <trkpt lat="42.505634" lon="-0.630554">
        <ele>1125.79</ele>
      </trkpt>
      <trkpt lat="42.505624" lon="-0.630714">
        <ele>1126.14</ele>
      </trkpt>
      <trkpt lat="42.505494" lon="-0.631338">
        <ele>1126.47</ele>
      </trkpt>
      <trkpt lat="42.505408" lon="-0.632249">
        <ele>1128.35</ele>
      </trkpt>
      <trkpt lat="42.505437" lon="-0.632991">
        <ele>1129.62</ele>
      </trkpt>
      <trkpt lat="42.505417" lon="-0.633234">
        <ele>1130.22</ele>
      </trkpt>
      <trkpt lat="42.505242" lon="-0.633916">
        <ele>1131.71</ele>
      </trkpt>
      <trkpt lat="42.505224" lon="-0.634115">
        <ele>1131.88</ele>
      </trkpt>
      <trkpt lat="42.505239" lon="-0.634293">
        <ele>1131.3</ele>
      </trkpt>
      <trkpt lat="42.505643" lon="-0.635749">
        <ele>1125.21</ele>
      </trkpt>
      <trkpt lat="42.505654" lon="-0.635963">
        <ele>1124.23</ele>
      </trkpt>
      <trkpt lat="42.50562" lon="-0.636284">
        <ele>1121.51</ele>
      </trkpt>
      <trkpt lat="42.50549" lon="-0.636612">
        <ele>1122.09</ele>
      </trkpt>
      <trkpt lat="42.50535" lon="-0.636834">
        <ele>1124.42</ele>
      </trkpt>
      <trkpt lat="42.505239" lon="-0.6369">
        <ele>1126.36</ele>
      </trkpt>
      <trkpt lat="42.504897" lon="-0.637001">
        <ele>1130.67</ele>
      </trkpt>
      <trkpt lat="42.504744" lon="-0.637096">
        <ele>1131.73</ele>
      </trkpt>
      <trkpt lat="42.504657" lon="-0.637258">
        <ele>1131.99</ele>
      </trkpt>
      <trkpt lat="42.504596" lon="-0.637621">
        <ele>1133.28</ele>
      </trkpt>
      <trkpt lat="42.504535" lon="-0.637783">
        <ele>1134.31</ele>
      </trkpt>
      <trkpt lat="42.504449" lon="-0.637872">
        <ele>1135.17</ele>
      </trkpt>
      <trkpt lat="42.504334" lon="-0.637911">
        <ele>1135.54</ele>
      </trkpt>
      <trkpt lat="42.504141" lon="-0.637885">
        <ele>1136.88</ele>
      </trkpt>
      <trkpt lat="42.50402" lon="-0.637912">
        <ele>1138.35</ele>
      </trkpt>
      <trkpt lat="42.50393" lon="-0.637992">
        <ele>1138.69</ele>
      </trkpt>
      <trkpt lat="42.503865" lon="-0.638137">
        <ele>1139.04</ele>
      </trkpt>
      <trkpt lat="42.503835" lon="-0.638308">
        <ele>1139.74</ele>
      </trkpt>
      <trkpt lat="42.503853" lon="-0.638462">
        <ele>1140.99</ele>
      </trkpt>
      <trkpt lat="42.50394" lon="-0.638629">
        <ele>1142.29</ele>
      </trkpt>
      <trkpt lat="42.504149" lon="-0.638798">
        <ele>1143.95</ele>
      </trkpt>
      <trkpt lat="42.504326" lon="-0.639009">
        <ele>1147.29</ele>
      </trkpt>
      <trkpt lat="42.504492" lon="-0.639472">
        <ele>1151.09</ele>
      </trkpt>
      <trkpt lat="42.504497" lon="-0.639626">
        <ele>1151.6</ele>
      </trkpt>
      <trkpt lat="42.504466" lon="-0.639766">
        <ele>1151.8</ele>
      </trkpt>
      <trkpt lat="42.504196" lon="-0.640055">
        <ele>1155.23</ele>
      </trkpt>
      <trkpt lat="42.504144" lon="-0.640172">
        <ele>1156.81</ele>
      </trkpt>
      <trkpt lat="42.504127" lon="-0.640287">
        <ele>1156.43</ele>
      </trkpt>
      <trkpt lat="42.504139" lon="-0.640402">
        <ele>1156.64</ele>
      </trkpt>
      <trkpt lat="42.504268" lon="-0.640921">
        <ele>1160.61</ele>
      </trkpt>
      <trkpt lat="42.504265" lon="-0.64108">
        <ele>1160.95</ele>
      </trkpt>
      <trkpt lat="42.504215" lon="-0.641211">
        <ele>1161.6</ele>
      </trkpt>
      <trkpt lat="42.503819" lon="-0.641675">
        <ele>1166.52</ele>
      </trkpt>
      <trkpt lat="42.503653" lon="-0.642008">
        <ele>1168.46</ele>
      </trkpt>
      <trkpt lat="42.50356" lon="-0.642372">
        <ele>1170.04</ele>
      </trkpt>
      <trkpt lat="42.503495" lon="-0.64315">
        <ele>1171.9</ele>
      </trkpt>
      <trkpt lat="42.503495" lon="-0.64377">
        <ele>1174.81</ele>
      </trkpt>
      <trkpt lat="42.503571" lon="-0.644056">
        <ele>1177.32</ele>
      </trkpt>
      <trkpt lat="42.503647" lon="-0.644342">
        <ele>1177</ele>
      </trkpt>
      <trkpt lat="42.503851" lon="-0.644936">
        <ele>1178.34</ele>
      </trkpt>
      <trkpt lat="42.504161" lon="-0.645427">
        <ele>1182.6</ele>
      </trkpt>
      <trkpt lat="42.504321" lon="-0.645626">
        <ele>1183.01</ele>
      </trkpt>
      <trkpt lat="42.504383" lon="-0.645666">
        <ele>1183</ele>
      </trkpt>
      <trkpt lat="42.504715" lon="-0.645767">
        <ele>1185.29</ele>
      </trkpt>
      <trkpt lat="42.504856" lon="-0.645866">
        <ele>1186.06</ele>
      </trkpt>
      <trkpt lat="42.50495" lon="-0.646041">
        <ele>1187.16</ele>
      </trkpt>
      <trkpt lat="42.505208" lon="-0.646872">
        <ele>1188.73</ele>
      </trkpt>
      <trkpt lat="42.505259" lon="-0.647186">
        <ele>1187.65</ele>
      </trkpt>
      <trkpt lat="42.50528" lon="-0.647717">
        <ele>1191.51</ele>
      </trkpt>
      <trkpt lat="42.50535" lon="-0.647987">
        <ele>1191.69</ele>
      </trkpt>
      <trkpt lat="42.505481" lon="-0.648222">
        <ele>1192.35</ele>
      </trkpt>
      <trkpt lat="42.505629" lon="-0.648401">
        <ele>1192.56</ele>
      </trkpt>
      <trkpt lat="42.505775" lon="-0.648488">
        <ele>1193.2</ele>
      </trkpt>
      <trkpt lat="42.506074" lon="-0.648712">
        <ele>1193.8</ele>
      </trkpt>
      <trkpt lat="42.506339" lon="-0.649006">
        <ele>1194.99</ele>
      </trkpt>
      <trkpt lat="42.506425" lon="-0.649206">
        <ele>1195.68</ele>
      </trkpt>
      <trkpt lat="42.506445" lon="-0.649409">
        <ele>1196.2</ele>
      </trkpt>
      <trkpt lat="42.506439" lon="-0.649682">
        <ele>1197.33</ele>
      </trkpt>
      <trkpt lat="42.506263" lon="-0.650361">
        <ele>1198.76</ele>
      </trkpt>
      <trkpt lat="42.506165" lon="-0.650952">
        <ele>1198.43</ele>
      </trkpt>
      <trkpt lat="42.506179" lon="-0.651798">
        <ele>1196.92</ele>
      </trkpt>
      <trkpt lat="42.506237" lon="-0.652876">
        <ele>1196.55</ele>
      </trkpt>
      <trkpt lat="42.506357" lon="-0.653778">
        <ele>1199.83</ele>
      </trkpt>
      <trkpt lat="42.506433" lon="-0.654032">
        <ele>1200.23</ele>
      </trkpt>
      <trkpt lat="42.5066" lon="-0.654297">
        <ele>1200.06</ele>
      </trkpt>
      <trkpt lat="42.506623" lon="-0.65454">
        <ele>1201.64</ele>
      </trkpt>
      <trkpt lat="42.506575" lon="-0.654733">
        <ele>1203.05</ele>
      </trkpt>
      <trkpt lat="42.506404" lon="-0.654992">
        <ele>1200.28</ele>
      </trkpt>
      <trkpt lat="42.506234" lon="-0.65525">
        <ele>1200.36</ele>
      </trkpt>
      <trkpt lat="42.50613" lon="-0.655574">
        <ele>1200.27</ele>
      </trkpt>
      <trkpt lat="42.506116" lon="-0.655944">
        <ele>1199.94</ele>
      </trkpt>
      <trkpt lat="42.506536" lon="-0.657734">
        <ele>1206.76</ele>
      </trkpt>
      <trkpt lat="42.506845" lon="-0.6587">
        <ele>1208.45</ele>
      </trkpt>
      <trkpt lat="42.507023" lon="-0.659763">
        <ele>1209.96</ele>
      </trkpt>
      <trkpt lat="42.507082" lon="-0.660117">
        <ele>1212.9</ele>
      </trkpt>
      <trkpt lat="42.50726" lon="-0.661179">
        <ele>1216.92</ele>
      </trkpt>
      <trkpt lat="42.507478" lon="-0.662483">
        <ele>1217.53</ele>
      </trkpt>
    </trkseg>
  </trk>
</gpx>
