<?xml version="1.0" encoding="UTF-8"?><gpx creator="https://climbfinder.com" version="1.1"  xmlns:xsi="http://www.w3.org/2001/XMLSchema-instance"  xmlns="http://www.topografix.com/GPX/1/1" xsi:schemaLocation="http://www.topografix.com/GPX/1/1 http://www.topografix.com/GPX/1/1/gpx.xsd">
  <metadata>
    <name>orcieres-merlette-1850</name>
    <author>
      <link href="https://climbfinder.com">
        <text>climbfinder</text>
        <type>text/html</type>
      </link>
    </author>
  </metadata>
  <trk>
    <name>orcieres-merlette-1850</name>
    <trkseg>
			<trkpt lat="44.66729" lon="6.22938">
        <ele>1126.7</ele>
        <time>2026-08-05T09:00:00Z</time>
      </trkpt>
			<trkpt lat="44.66721" lon="6.22924">
        <ele>1126.7</ele>
        <time>2026-08-05T09:00:01Z</time>
      </trkpt>
			<trkpt lat="44.66719" lon="6.22926">
        <ele>1126.8</ele>
        <time>2026-08-05T09:00:02Z</time>
      </trkpt>
			<trkpt lat="44.66736" lon="6.22958">
        <ele>1127</ele>
        <time>2026-08-05T09:00:07Z</time>
      </trkpt>
			<trkpt lat="44.6675" lon="6.22985">
        <ele>1127.2</ele>
        <time>2026-08-05T09:00:11Z</time>
      </trkpt>
			<trkpt lat="44.66764" lon="6.23013">
        <ele>1127.5</ele>
        <time>2026-08-05T09:00:15Z</time>
      </trkpt>
			<trkpt lat="44.66771" lon="6.23029">
        <ele>1127.6</ele>
        <time>2026-08-05T09:00:18Z</time>
      </trkpt>
			<trkpt lat="44.66782" lon="6.23057">
        <ele>1127.9</ele>
        <time>2026-08-05T09:00:22Z</time>
      </trkpt>
			<trkpt lat="44.668" lon="6.23109">
        <ele>1128.4</ele>
        <time>2026-08-05T09:00:29Z</time>
      </trkpt>
			<trkpt lat="44.66818" lon="6.2316">
        <ele>1129</ele>
        <time>2026-08-05T09:00:36Z</time>
      </trkpt>
			<trkpt lat="44.66835" lon="6.23212">
        <ele>1129.7</ele>
        <time>2026-08-05T09:00:44Z</time>
      </trkpt>
			<trkpt lat="44.66853" lon="6.23264">
        <ele>1130.3</ele>
        <time>2026-08-05T09:00:51Z</time>
      </trkpt>
			<trkpt lat="44.66855" lon="6.2327">
        <ele>1130.3</ele>
        <time>2026-08-05T09:00:51Z</time>
      </trkpt>
			<trkpt lat="44.66872" lon="6.23323">
        <ele>1130.9</ele>
        <time>2026-08-05T09:00:59Z</time>
      </trkpt>
			<trkpt lat="44.66889" lon="6.23376">
        <ele>1131.5</ele>
        <time>2026-08-05T09:01:06Z</time>
      </trkpt>
			<trkpt lat="44.66906" lon="6.23429">
        <ele>1131.9</ele>
        <time>2026-08-05T09:01:13Z</time>
      </trkpt>
			<trkpt lat="44.66924" lon="6.23481">
        <ele>1132.3</ele>
        <time>2026-08-05T09:01:20Z</time>
      </trkpt>
			<trkpt lat="44.66941" lon="6.23534">
        <ele>1132.7</ele>
        <time>2026-08-05T09:01:27Z</time>
      </trkpt>
			<trkpt lat="44.66958" lon="6.23587">
        <ele>1133</ele>
        <time>2026-08-05T09:01:35Z</time>
      </trkpt>
			<trkpt lat="44.66975" lon="6.2364">
        <ele>1133.3</ele>
        <time>2026-08-05T09:01:42Z</time>
      </trkpt>
			<trkpt lat="44.6698" lon="6.23665">
        <ele>1133.5</ele>
        <time>2026-08-05T09:01:45Z</time>
      </trkpt>
			<trkpt lat="44.66988" lon="6.23722">
        <ele>1133.8</ele>
        <time>2026-08-05T09:01:52Z</time>
      </trkpt>
			<trkpt lat="44.66997" lon="6.23778">
        <ele>1134.1</ele>
        <time>2026-08-05T09:01:59Z</time>
      </trkpt>
			<trkpt lat="44.67005" lon="6.23835">
        <ele>1134.6</ele>
        <time>2026-08-05T09:02:06Z</time>
      </trkpt>
			<trkpt lat="44.6701" lon="6.23855">
        <ele>1134.7</ele>
        <time>2026-08-05T09:02:09Z</time>
      </trkpt>
			<trkpt lat="44.67014" lon="6.23871">
        <ele>1134.9</ele>
        <time>2026-08-05T09:02:11Z</time>
      </trkpt>
			<trkpt lat="44.6702" lon="6.23887">
        <ele>1135</ele>
        <time>2026-08-05T09:02:13Z</time>
      </trkpt>
			<trkpt lat="44.67041" lon="6.23938">
        <ele>1135.6</ele>
        <time>2026-08-05T09:02:21Z</time>
      </trkpt>
			<trkpt lat="44.67062" lon="6.23989">
        <ele>1136.3</ele>
        <time>2026-08-05T09:02:29Z</time>
      </trkpt>
			<trkpt lat="44.67082" lon="6.24041">
        <ele>1137</ele>
        <time>2026-08-05T09:02:36Z</time>
      </trkpt>
			<trkpt lat="44.67103" lon="6.24092">
        <ele>1137.8</ele>
        <time>2026-08-05T09:02:44Z</time>
      </trkpt>
			<trkpt lat="44.67123" lon="6.24136">
        <ele>1138.5</ele>
        <time>2026-08-05T09:02:51Z</time>
      </trkpt>
			<trkpt lat="44.67133" lon="6.24155">
        <ele>1138.8</ele>
        <time>2026-08-05T09:02:54Z</time>
      </trkpt>
			<trkpt lat="44.67151" lon="6.24185">
        <ele>1139.3</ele>
        <time>2026-08-05T09:03:00Z</time>
      </trkpt>
			<trkpt lat="44.67169" lon="6.24215">
        <ele>1139.8</ele>
        <time>2026-08-05T09:03:05Z</time>
      </trkpt>
			<trkpt lat="44.67194" lon="6.24255">
        <ele>1140.4</ele>
        <time>2026-08-05T09:03:12Z</time>
      </trkpt>
			<trkpt lat="44.67219" lon="6.24296">
        <ele>1141</ele>
        <time>2026-08-05T09:03:18Z</time>
      </trkpt>
			<trkpt lat="44.6724" lon="6.24334">
        <ele>1141.5</ele>
        <time>2026-08-05T09:03:24Z</time>
      </trkpt>
			<trkpt lat="44.67249" lon="6.24356">
        <ele>1141.8</ele>
        <time>2026-08-05T09:03:27Z</time>
      </trkpt>
			<trkpt lat="44.67257" lon="6.24381">
        <ele>1142.1</ele>
        <time>2026-08-05T09:03:31Z</time>
      </trkpt>
			<trkpt lat="44.67267" lon="6.24423">
        <ele>1142.5</ele>
        <time>2026-08-05T09:03:36Z</time>
      </trkpt>
			<trkpt lat="44.67276" lon="6.24464">
        <ele>1142.9</ele>
        <time>2026-08-05T09:03:41Z</time>
      </trkpt>
			<trkpt lat="44.67286" lon="6.24506">
        <ele>1143.4</ele>
        <time>2026-08-05T09:03:47Z</time>
      </trkpt>
			<trkpt lat="44.67292" lon="6.24526">
        <ele>1143.6</ele>
        <time>2026-08-05T09:03:50Z</time>
      </trkpt>
			<trkpt lat="44.67299" lon="6.24546">
        <ele>1143.9</ele>
        <time>2026-08-05T09:03:53Z</time>
      </trkpt>
			<trkpt lat="44.67319" lon="6.24594">
        <ele>1144.5</ele>
        <time>2026-08-05T09:04:00Z</time>
      </trkpt>
			<trkpt lat="44.6734" lon="6.24643">
        <ele>1145.2</ele>
        <time>2026-08-05T09:04:07Z</time>
      </trkpt>
			<trkpt lat="44.6736" lon="6.24691">
        <ele>1146</ele>
        <time>2026-08-05T09:04:15Z</time>
      </trkpt>
			<trkpt lat="44.67381" lon="6.24739">
        <ele>1146.9</ele>
        <time>2026-08-05T09:04:23Z</time>
      </trkpt>
			<trkpt lat="44.67401" lon="6.24787">
        <ele>1147.8</ele>
        <time>2026-08-05T09:04:30Z</time>
      </trkpt>
			<trkpt lat="44.67422" lon="6.24836">
        <ele>1148.7</ele>
        <time>2026-08-05T09:04:38Z</time>
      </trkpt>
			<trkpt lat="44.67442" lon="6.24884">
        <ele>1149.7</ele>
        <time>2026-08-05T09:04:45Z</time>
      </trkpt>
			<trkpt lat="44.67454" lon="6.24909">
        <ele>1150.2</ele>
        <time>2026-08-05T09:04:49Z</time>
      </trkpt>
			<trkpt lat="44.67466" lon="6.24932">
        <ele>1150.7</ele>
        <time>2026-08-05T09:04:53Z</time>
      </trkpt>
			<trkpt lat="44.67482" lon="6.24956">
        <ele>1151.3</ele>
        <time>2026-08-05T09:04:58Z</time>
      </trkpt>
			<trkpt lat="44.675" lon="6.24982">
        <ele>1151.9</ele>
        <time>2026-08-05T09:05:03Z</time>
      </trkpt>
			<trkpt lat="44.67522" lon="6.25007">
        <ele>1152.6</ele>
        <time>2026-08-05T09:05:08Z</time>
      </trkpt>
			<trkpt lat="44.67544" lon="6.25033">
        <ele>1153.4</ele>
        <time>2026-08-05T09:05:14Z</time>
      </trkpt>
			<trkpt lat="44.67566" lon="6.25061">
        <ele>1154.1</ele>
        <time>2026-08-05T09:05:20Z</time>
      </trkpt>
			<trkpt lat="44.67588" lon="6.25089">
        <ele>1154.9</ele>
        <time>2026-08-05T09:05:26Z</time>
      </trkpt>
			<trkpt lat="44.67612" lon="6.25122">
        <ele>1155.7</ele>
        <time>2026-08-05T09:05:32Z</time>
      </trkpt>
			<trkpt lat="44.67636" lon="6.25156">
        <ele>1156.6</ele>
        <time>2026-08-05T09:05:39Z</time>
      </trkpt>
			<trkpt lat="44.6766" lon="6.25189">
        <ele>1157.3</ele>
        <time>2026-08-05T09:05:45Z</time>
      </trkpt>
			<trkpt lat="44.67689" lon="6.25229">
        <ele>1158.2</ele>
        <time>2026-08-05T09:05:53Z</time>
      </trkpt>
			<trkpt lat="44.67719" lon="6.25269">
        <ele>1159</ele>
        <time>2026-08-05T09:06:01Z</time>
      </trkpt>
			<trkpt lat="44.67748" lon="6.2531">
        <ele>1159.8</ele>
        <time>2026-08-05T09:06:09Z</time>
      </trkpt>
			<trkpt lat="44.67778" lon="6.2535">
        <ele>1160.5</ele>
        <time>2026-08-05T09:06:16Z</time>
      </trkpt>
			<trkpt lat="44.67807" lon="6.2539">
        <ele>1161.3</ele>
        <time>2026-08-05T09:06:24Z</time>
      </trkpt>
			<trkpt lat="44.67826" lon="6.25414">
        <ele>1161.9</ele>
        <time>2026-08-05T09:06:29Z</time>
      </trkpt>
			<trkpt lat="44.67856" lon="6.25448">
        <ele>1163</ele>
        <time>2026-08-05T09:06:38Z</time>
      </trkpt>
			<trkpt lat="44.67886" lon="6.25482">
        <ele>1164.4</ele>
        <time>2026-08-05T09:06:46Z</time>
      </trkpt>
			<trkpt lat="44.67916" lon="6.25516">
        <ele>1166.1</ele>
        <time>2026-08-05T09:06:56Z</time>
      </trkpt>
			<trkpt lat="44.67943" lon="6.25548">
        <ele>1168</ele>
        <time>2026-08-05T09:07:06Z</time>
      </trkpt>
			<trkpt lat="44.6797" lon="6.25579">
        <ele>1170.2</ele>
        <time>2026-08-05T09:07:17Z</time>
      </trkpt>
			<trkpt lat="44.67997" lon="6.25611">
        <ele>1172.6</ele>
        <time>2026-08-05T09:07:27Z</time>
      </trkpt>
			<trkpt lat="44.68021" lon="6.25636">
        <ele>1174.8</ele>
        <time>2026-08-05T09:07:37Z</time>
      </trkpt>
			<trkpt lat="44.68045" lon="6.25662">
        <ele>1177</ele>
        <time>2026-08-05T09:07:48Z</time>
      </trkpt>
			<trkpt lat="44.68077" lon="6.25691">
        <ele>1179.6</ele>
        <time>2026-08-05T09:07:59Z</time>
      </trkpt>
			<trkpt lat="44.68108" lon="6.2572">
        <ele>1182</ele>
        <time>2026-08-05T09:08:11Z</time>
      </trkpt>
			<trkpt lat="44.68135" lon="6.25747">
        <ele>1183.7</ele>
        <time>2026-08-05T09:08:20Z</time>
      </trkpt>
			<trkpt lat="44.68162" lon="6.25775">
        <ele>1185.1</ele>
        <time>2026-08-05T09:08:29Z</time>
      </trkpt>
			<trkpt lat="44.68189" lon="6.25802">
        <ele>1186.1</ele>
        <time>2026-08-05T09:08:36Z</time>
      </trkpt>
			<trkpt lat="44.68215" lon="6.2583">
        <ele>1186.7</ele>
        <time>2026-08-05T09:08:42Z</time>
      </trkpt>
			<trkpt lat="44.68241" lon="6.25858">
        <ele>1187.1</ele>
        <time>2026-08-05T09:08:48Z</time>
      </trkpt>
			<trkpt lat="44.68259" lon="6.25878">
        <ele>1187.2</ele>
        <time>2026-08-05T09:08:51Z</time>
      </trkpt>
			<trkpt lat="44.68276" lon="6.25899">
        <ele>1187.2</ele>
        <time>2026-08-05T09:08:55Z</time>
      </trkpt>
			<trkpt lat="44.68298" lon="6.25932">
        <ele>1187.1</ele>
        <time>2026-08-05T09:08:59Z</time>
      </trkpt>
			<trkpt lat="44.68323" lon="6.25972">
        <ele>1187</ele>
        <time>2026-08-05T09:09:05Z</time>
      </trkpt>
			<trkpt lat="44.68339" lon="6.25992">
        <ele>1186.9</ele>
        <time>2026-08-05T09:09:08Z</time>
      </trkpt>
			<trkpt lat="44.68358" lon="6.26012">
        <ele>1186.8</ele>
        <time>2026-08-05T09:09:12Z</time>
      </trkpt>
			<trkpt lat="44.68382" lon="6.26033">
        <ele>1186.7</ele>
        <time>2026-08-05T09:09:16Z</time>
      </trkpt>
			<trkpt lat="44.68408" lon="6.26058">
        <ele>1186.7</ele>
        <time>2026-08-05T09:09:21Z</time>
      </trkpt>
			<trkpt lat="44.68433" lon="6.26084">
        <ele>1186.7</ele>
        <time>2026-08-05T09:09:25Z</time>
      </trkpt>
			<trkpt lat="44.68457" lon="6.26104">
        <ele>1186.8</ele>
        <time>2026-08-05T09:09:29Z</time>
      </trkpt>
			<trkpt lat="44.68494" lon="6.2613">
        <ele>1187</ele>
        <time>2026-08-05T09:09:35Z</time>
      </trkpt>
			<trkpt lat="44.68529" lon="6.2615">
        <ele>1187.3</ele>
        <time>2026-08-05T09:09:42Z</time>
      </trkpt>
			<trkpt lat="44.68559" lon="6.26168">
        <ele>1187.6</ele>
        <time>2026-08-05T09:09:48Z</time>
      </trkpt>
			<trkpt lat="44.68589" lon="6.26189">
        <ele>1187.8</ele>
        <time>2026-08-05T09:09:54Z</time>
      </trkpt>
			<trkpt lat="44.68624" lon="6.26214">
        <ele>1188.1</ele>
        <time>2026-08-05T09:10:00Z</time>
      </trkpt>
			<trkpt lat="44.6866" lon="6.26239">
        <ele>1188.4</ele>
        <time>2026-08-05T09:10:07Z</time>
      </trkpt>
			<trkpt lat="44.68695" lon="6.26264">
        <ele>1188.6</ele>
        <time>2026-08-05T09:10:13Z</time>
      </trkpt>
			<trkpt lat="44.6872" lon="6.2628">
        <ele>1188.7</ele>
        <time>2026-08-05T09:10:17Z</time>
      </trkpt>
			<trkpt lat="44.68758" lon="6.26296">
        <ele>1188.7</ele>
        <time>2026-08-05T09:10:23Z</time>
      </trkpt>
			<trkpt lat="44.68795" lon="6.26313">
        <ele>1188.8</ele>
        <time>2026-08-05T09:10:29Z</time>
      </trkpt>
			<trkpt lat="44.68833" lon="6.26329">
        <ele>1188.7</ele>
        <time>2026-08-05T09:10:35Z</time>
      </trkpt>
			<trkpt lat="44.6887" lon="6.26346">
        <ele>1188.7</ele>
        <time>2026-08-05T09:10:41Z</time>
      </trkpt>
			<trkpt lat="44.6888" lon="6.26352">
        <ele>1188.6</ele>
        <time>2026-08-05T09:10:42Z</time>
      </trkpt>
			<trkpt lat="44.68888" lon="6.2636">
        <ele>1188.6</ele>
        <time>2026-08-05T09:10:43Z</time>
      </trkpt>
			<trkpt lat="44.68893" lon="6.26367">
        <ele>1188.6</ele>
        <time>2026-08-05T09:10:44Z</time>
      </trkpt>
			<trkpt lat="44.6892" lon="6.26415">
        <ele>1188.5</ele>
        <time>2026-08-05T09:10:51Z</time>
      </trkpt>
			<trkpt lat="44.68927" lon="6.2643">
        <ele>1188.5</ele>
        <time>2026-08-05T09:10:52Z</time>
      </trkpt>
			<trkpt lat="44.6893" lon="6.2644">
        <ele>1188.5</ele>
        <time>2026-08-05T09:10:54Z</time>
      </trkpt>
			<trkpt lat="44.68933" lon="6.2645">
        <ele>1188.5</ele>
        <time>2026-08-05T09:10:55Z</time>
      </trkpt>
			<trkpt lat="44.68936" lon="6.26471">
        <ele>1188.5</ele>
        <time>2026-08-05T09:10:57Z</time>
      </trkpt>
			<trkpt lat="44.68937" lon="6.26486">
        <ele>1188.5</ele>
        <time>2026-08-05T09:10:59Z</time>
      </trkpt>
			<trkpt lat="44.68936" lon="6.26504">
        <ele>1188.5</ele>
        <time>2026-08-05T09:11:01Z</time>
      </trkpt>
			<trkpt lat="44.68931" lon="6.26541">
        <ele>1188.6</ele>
        <time>2026-08-05T09:11:04Z</time>
      </trkpt>
			<trkpt lat="44.68925" lon="6.26578">
        <ele>1188.6</ele>
        <time>2026-08-05T09:11:08Z</time>
      </trkpt>
			<trkpt lat="44.68919" lon="6.26611">
        <ele>1188.7</ele>
        <time>2026-08-05T09:11:12Z</time>
      </trkpt>
			<trkpt lat="44.68913" lon="6.26643">
        <ele>1188.8</ele>
        <time>2026-08-05T09:11:16Z</time>
      </trkpt>
			<trkpt lat="44.68906" lon="6.26692">
        <ele>1188.9</ele>
        <time>2026-08-05T09:11:21Z</time>
      </trkpt>
			<trkpt lat="44.68898" lon="6.26741">
        <ele>1189.1</ele>
        <time>2026-08-05T09:11:27Z</time>
      </trkpt>
			<trkpt lat="44.68894" lon="6.26777">
        <ele>1189.2</ele>
        <time>2026-08-05T09:11:31Z</time>
      </trkpt>
			<trkpt lat="44.6889" lon="6.26813">
        <ele>1189.3</ele>
        <time>2026-08-05T09:11:35Z</time>
      </trkpt>
			<trkpt lat="44.68886" lon="6.26848">
        <ele>1189.4</ele>
        <time>2026-08-05T09:11:38Z</time>
      </trkpt>
			<trkpt lat="44.68879" lon="6.26883">
        <ele>1189.6</ele>
        <time>2026-08-05T09:11:43Z</time>
      </trkpt>
			<trkpt lat="44.68869" lon="6.2692">
        <ele>1189.7</ele>
        <time>2026-08-05T09:11:47Z</time>
      </trkpt>
			<trkpt lat="44.68852" lon="6.26964">
        <ele>1190</ele>
        <time>2026-08-05T09:11:53Z</time>
      </trkpt>
			<trkpt lat="44.68834" lon="6.27008">
        <ele>1190.4</ele>
        <time>2026-08-05T09:12:00Z</time>
      </trkpt>
			<trkpt lat="44.68817" lon="6.27051">
        <ele>1190.9</ele>
        <time>2026-08-05T09:12:06Z</time>
      </trkpt>
			<trkpt lat="44.68799" lon="6.27095">
        <ele>1191.5</ele>
        <time>2026-08-05T09:12:12Z</time>
      </trkpt>
			<trkpt lat="44.68781" lon="6.27135">
        <ele>1192.1</ele>
        <time>2026-08-05T09:12:18Z</time>
      </trkpt>
			<trkpt lat="44.68763" lon="6.27171">
        <ele>1192.7</ele>
        <time>2026-08-05T09:12:24Z</time>
      </trkpt>
			<trkpt lat="44.68744" lon="6.27207">
        <ele>1193.3</ele>
        <time>2026-08-05T09:12:30Z</time>
      </trkpt>
			<trkpt lat="44.68726" lon="6.27243">
        <ele>1193.8</ele>
        <time>2026-08-05T09:12:36Z</time>
      </trkpt>
			<trkpt lat="44.68712" lon="6.27266">
        <ele>1194.2</ele>
        <time>2026-08-05T09:12:40Z</time>
      </trkpt>
			<trkpt lat="44.68692" lon="6.27292">
        <ele>1194.7</ele>
        <time>2026-08-05T09:12:45Z</time>
      </trkpt>
			<trkpt lat="44.68672" lon="6.27317">
        <ele>1195.3</ele>
        <time>2026-08-05T09:12:50Z</time>
      </trkpt>
			<trkpt lat="44.68661" lon="6.27332">
        <ele>1195.6</ele>
        <time>2026-08-05T09:12:53Z</time>
      </trkpt>
			<trkpt lat="44.6865" lon="6.2735">
        <ele>1195.9</ele>
        <time>2026-08-05T09:12:56Z</time>
      </trkpt>
			<trkpt lat="44.68641" lon="6.27374">
        <ele>1196.3</ele>
        <time>2026-08-05T09:13:00Z</time>
      </trkpt>
			<trkpt lat="44.68636" lon="6.27394">
        <ele>1196.7</ele>
        <time>2026-08-05T09:13:03Z</time>
      </trkpt>
			<trkpt lat="44.68633" lon="6.27413">
        <ele>1197.1</ele>
        <time>2026-08-05T09:13:06Z</time>
      </trkpt>
			<trkpt lat="44.68633" lon="6.27432">
        <ele>1197.4</ele>
        <time>2026-08-05T09:13:09Z</time>
      </trkpt>
			<trkpt lat="44.68635" lon="6.27477">
        <ele>1198.4</ele>
        <time>2026-08-05T09:13:16Z</time>
      </trkpt>
			<trkpt lat="44.68639" lon="6.27528">
        <ele>1199.6</ele>
        <time>2026-08-05T09:13:24Z</time>
      </trkpt>
			<trkpt lat="44.68643" lon="6.27579">
        <ele>1201.1</ele>
        <time>2026-08-05T09:13:33Z</time>
      </trkpt>
			<trkpt lat="44.68643" lon="6.27604">
        <ele>1201.9</ele>
        <time>2026-08-05T09:13:37Z</time>
      </trkpt>
			<trkpt lat="44.68642" lon="6.2763">
        <ele>1202.8</ele>
        <time>2026-08-05T09:13:42Z</time>
      </trkpt>
			<trkpt lat="44.68637" lon="6.27682">
        <ele>1204.6</ele>
        <time>2026-08-05T09:13:51Z</time>
      </trkpt>
			<trkpt lat="44.6863" lon="6.27736">
        <ele>1206.6</ele>
        <time>2026-08-05T09:14:03Z</time>
      </trkpt>
			<trkpt lat="44.68622" lon="6.2779">
        <ele>1208.6</ele>
        <time>2026-08-05T09:14:14Z</time>
      </trkpt>
			<trkpt lat="44.68616" lon="6.27822">
        <ele>1209.8</ele>
        <time>2026-08-05T09:14:20Z</time>
      </trkpt>
			<trkpt lat="44.68608" lon="6.27848">
        <ele>1210.8</ele>
        <time>2026-08-05T09:14:26Z</time>
      </trkpt>
			<trkpt lat="44.68594" lon="6.27873">
        <ele>1212</ele>
        <time>2026-08-05T09:14:32Z</time>
      </trkpt>
			<trkpt lat="44.68582" lon="6.27887">
        <ele>1212.8</ele>
        <time>2026-08-05T09:14:36Z</time>
      </trkpt>
			<trkpt lat="44.68561" lon="6.27908">
        <ele>1214.2</ele>
        <time>2026-08-05T09:14:44Z</time>
      </trkpt>
			<trkpt lat="44.68536" lon="6.27933">
        <ele>1215.8</ele>
        <time>2026-08-05T09:14:53Z</time>
      </trkpt>
			<trkpt lat="44.6851" lon="6.27958">
        <ele>1217.6</ele>
        <time>2026-08-05T09:15:02Z</time>
      </trkpt>
			<trkpt lat="44.68495" lon="6.27979">
        <ele>1218.8</ele>
        <time>2026-08-05T09:15:08Z</time>
      </trkpt>
			<trkpt lat="44.68484" lon="6.28001">
        <ele>1220</ele>
        <time>2026-08-05T09:15:14Z</time>
      </trkpt>
			<trkpt lat="44.68462" lon="6.28053">
        <ele>1222.8</ele>
        <time>2026-08-05T09:15:27Z</time>
      </trkpt>
			<trkpt lat="44.68449" lon="6.28089">
        <ele>1224.7</ele>
        <time>2026-08-05T09:15:36Z</time>
      </trkpt>
			<trkpt lat="44.68436" lon="6.28125">
        <ele>1226.7</ele>
        <time>2026-08-05T09:15:44Z</time>
      </trkpt>
			<trkpt lat="44.68427" lon="6.28151">
        <ele>1228.1</ele>
        <time>2026-08-05T09:15:51Z</time>
      </trkpt>
			<trkpt lat="44.68422" lon="6.28177">
        <ele>1229.4</ele>
        <time>2026-08-05T09:15:57Z</time>
      </trkpt>
			<trkpt lat="44.68422" lon="6.28206">
        <ele>1230.8</ele>
        <time>2026-08-05T09:16:03Z</time>
      </trkpt>
			<trkpt lat="44.68426" lon="6.28258">
        <ele>1233.1</ele>
        <time>2026-08-05T09:16:14Z</time>
      </trkpt>
			<trkpt lat="44.68429" lon="6.28309">
        <ele>1235.4</ele>
        <time>2026-08-05T09:16:26Z</time>
      </trkpt>
			<trkpt lat="44.68433" lon="6.28361">
        <ele>1237.5</ele>
        <time>2026-08-05T09:16:36Z</time>
      </trkpt>
			<trkpt lat="44.68433" lon="6.28393">
        <ele>1238.7</ele>
        <time>2026-08-05T09:16:43Z</time>
      </trkpt>
			<trkpt lat="44.68429" lon="6.2842">
        <ele>1239.8</ele>
        <time>2026-08-05T09:16:48Z</time>
      </trkpt>
			<trkpt lat="44.68421" lon="6.28449">
        <ele>1241</ele>
        <time>2026-08-05T09:16:55Z</time>
      </trkpt>
			<trkpt lat="44.68407" lon="6.28478">
        <ele>1242.4</ele>
        <time>2026-08-05T09:17:02Z</time>
      </trkpt>
			<trkpt lat="44.6839" lon="6.28508">
        <ele>1243.9</ele>
        <time>2026-08-05T09:17:10Z</time>
      </trkpt>
			<trkpt lat="44.68373" lon="6.28537">
        <ele>1245.5</ele>
        <time>2026-08-05T09:17:17Z</time>
      </trkpt>
			<trkpt lat="44.68361" lon="6.2856">
        <ele>1246.8</ele>
        <time>2026-08-05T09:17:24Z</time>
      </trkpt>
			<trkpt lat="44.68349" lon="6.28588">
        <ele>1248.3</ele>
        <time>2026-08-05T09:17:31Z</time>
      </trkpt>
			<trkpt lat="44.68331" lon="6.2864">
        <ele>1251.2</ele>
        <time>2026-08-05T09:17:43Z</time>
      </trkpt>
			<trkpt lat="44.68312" lon="6.28691">
        <ele>1254.1</ele>
        <time>2026-08-05T09:17:56Z</time>
      </trkpt>
			<trkpt lat="44.68294" lon="6.28743">
        <ele>1257.1</ele>
        <time>2026-08-05T09:18:10Z</time>
      </trkpt>
			<trkpt lat="44.68281" lon="6.28781">
        <ele>1259.2</ele>
        <time>2026-08-05T09:18:19Z</time>
      </trkpt>
			<trkpt lat="44.68268" lon="6.28818">
        <ele>1261.2</ele>
        <time>2026-08-05T09:18:28Z</time>
      </trkpt>
			<trkpt lat="44.68252" lon="6.28871">
        <ele>1263.6</ele>
        <time>2026-08-05T09:18:40Z</time>
      </trkpt>
			<trkpt lat="44.68248" lon="6.28895">
        <ele>1264.7</ele>
        <time>2026-08-05T09:18:45Z</time>
      </trkpt>
			<trkpt lat="44.68245" lon="6.28921">
        <ele>1265.7</ele>
        <time>2026-08-05T09:18:50Z</time>
      </trkpt>
			<trkpt lat="44.68244" lon="6.28945">
        <ele>1266.6</ele>
        <time>2026-08-05T09:18:55Z</time>
      </trkpt>
			<trkpt lat="44.68245" lon="6.28965">
        <ele>1267.3</ele>
        <time>2026-08-05T09:18:59Z</time>
      </trkpt>
			<trkpt lat="44.68249" lon="6.29002">
        <ele>1268.6</ele>
        <time>2026-08-05T09:19:06Z</time>
      </trkpt>
			<trkpt lat="44.68254" lon="6.2903">
        <ele>1269.6</ele>
        <time>2026-08-05T09:19:11Z</time>
      </trkpt>
			<trkpt lat="44.68262" lon="6.29056">
        <ele>1270.5</ele>
        <time>2026-08-05T09:19:16Z</time>
      </trkpt>
			<trkpt lat="44.68272" lon="6.29082">
        <ele>1271.5</ele>
        <time>2026-08-05T09:19:21Z</time>
      </trkpt>
			<trkpt lat="44.68278" lon="6.29093">
        <ele>1271.9</ele>
        <time>2026-08-05T09:19:23Z</time>
      </trkpt>
			<trkpt lat="44.68289" lon="6.29112">
        <ele>1272.7</ele>
        <time>2026-08-05T09:19:28Z</time>
      </trkpt>
			<trkpt lat="44.68318" lon="6.2915">
        <ele>1274.3</ele>
        <time>2026-08-05T09:19:38Z</time>
      </trkpt>
			<trkpt lat="44.68346" lon="6.29189">
        <ele>1275.8</ele>
        <time>2026-08-05T09:19:46Z</time>
      </trkpt>
			<trkpt lat="44.68356" lon="6.29202">
        <ele>1276.3</ele>
        <time>2026-08-05T09:19:50Z</time>
      </trkpt>
			<trkpt lat="44.68366" lon="6.29217">
        <ele>1276.8</ele>
        <time>2026-08-05T09:19:53Z</time>
      </trkpt>
			<trkpt lat="44.68375" lon="6.29237">
        <ele>1277.4</ele>
        <time>2026-08-05T09:19:57Z</time>
      </trkpt>
			<trkpt lat="44.68381" lon="6.29257">
        <ele>1278</ele>
        <time>2026-08-05T09:20:00Z</time>
      </trkpt>
			<trkpt lat="44.68386" lon="6.29282">
        <ele>1278.7</ele>
        <time>2026-08-05T09:20:04Z</time>
      </trkpt>
			<trkpt lat="44.68387" lon="6.29309">
        <ele>1279.3</ele>
        <time>2026-08-05T09:20:08Z</time>
      </trkpt>
			<trkpt lat="44.68386" lon="6.29334">
        <ele>1280</ele>
        <time>2026-08-05T09:20:13Z</time>
      </trkpt>
			<trkpt lat="44.68381" lon="6.29376">
        <ele>1281.1</ele>
        <time>2026-08-05T09:20:20Z</time>
      </trkpt>
			<trkpt lat="44.68377" lon="6.29433">
        <ele>1282.8</ele>
        <time>2026-08-05T09:20:30Z</time>
      </trkpt>
			<trkpt lat="44.68373" lon="6.2949">
        <ele>1284.4</ele>
        <time>2026-08-05T09:20:40Z</time>
      </trkpt>
			<trkpt lat="44.68369" lon="6.29524">
        <ele>1285.3</ele>
        <time>2026-08-05T09:20:45Z</time>
      </trkpt>
			<trkpt lat="44.68362" lon="6.29553">
        <ele>1286.2</ele>
        <time>2026-08-05T09:20:51Z</time>
      </trkpt>
			<trkpt lat="44.68353" lon="6.29583">
        <ele>1287</ele>
        <time>2026-08-05T09:20:56Z</time>
      </trkpt>
			<trkpt lat="44.68349" lon="6.29606">
        <ele>1287.5</ele>
        <time>2026-08-05T09:21:00Z</time>
      </trkpt>
			<trkpt lat="44.68348" lon="6.29627">
        <ele>1288</ele>
        <time>2026-08-05T09:21:03Z</time>
      </trkpt>
			<trkpt lat="44.6835" lon="6.29645">
        <ele>1288.4</ele>
        <time>2026-08-05T09:21:06Z</time>
      </trkpt>
			<trkpt lat="44.68354" lon="6.2966">
        <ele>1288.7</ele>
        <time>2026-08-05T09:21:08Z</time>
      </trkpt>
			<trkpt lat="44.68362" lon="6.29674">
        <ele>1289</ele>
        <time>2026-08-05T09:21:10Z</time>
      </trkpt>
			<trkpt lat="44.68385" lon="6.29705">
        <ele>1289.8</ele>
        <time>2026-08-05T09:21:17Z</time>
      </trkpt>
			<trkpt lat="44.68395" lon="6.29724">
        <ele>1290.1</ele>
        <time>2026-08-05T09:21:20Z</time>
      </trkpt>
			<trkpt lat="44.68402" lon="6.29745">
        <ele>1290.4</ele>
        <time>2026-08-05T09:21:23Z</time>
      </trkpt>
			<trkpt lat="44.68406" lon="6.29775">
        <ele>1290.7</ele>
        <time>2026-08-05T09:21:27Z</time>
      </trkpt>
			<trkpt lat="44.68407" lon="6.29809">
        <ele>1290.9</ele>
        <time>2026-08-05T09:21:31Z</time>
      </trkpt>
			<trkpt lat="44.68406" lon="6.29856">
        <ele>1291.1</ele>
        <time>2026-08-05T09:21:37Z</time>
      </trkpt>
			<trkpt lat="44.68405" lon="6.29903">
        <ele>1291.2</ele>
        <time>2026-08-05T09:21:42Z</time>
      </trkpt>
			<trkpt lat="44.68402" lon="6.29951">
        <ele>1291.1</ele>
        <time>2026-08-05T09:21:47Z</time>
      </trkpt>
			<trkpt lat="44.68399" lon="6.29998">
        <ele>1290.9</ele>
        <time>2026-08-05T09:21:50Z</time>
      </trkpt>
			<trkpt lat="44.684" lon="6.30034">
        <ele>1290.7</ele>
        <time>2026-08-05T09:21:53Z</time>
      </trkpt>
			<trkpt lat="44.68401" lon="6.3007">
        <ele>1290.4</ele>
        <time>2026-08-05T09:21:55Z</time>
      </trkpt>
			<trkpt lat="44.68399" lon="6.30106">
        <ele>1290.2</ele>
        <time>2026-08-05T09:21:58Z</time>
      </trkpt>
			<trkpt lat="44.68399" lon="6.3014">
        <ele>1290.1</ele>
        <time>2026-08-05T09:22:01Z</time>
      </trkpt>
			<trkpt lat="44.684" lon="6.30194">
        <ele>1290.1</ele>
        <time>2026-08-05T09:22:07Z</time>
      </trkpt>
			<trkpt lat="44.68401" lon="6.30248">
        <ele>1290.4</ele>
        <time>2026-08-05T09:22:13Z</time>
      </trkpt>
			<trkpt lat="44.68402" lon="6.30302">
        <ele>1291.1</ele>
        <time>2026-08-05T09:22:21Z</time>
      </trkpt>
			<trkpt lat="44.68401" lon="6.3033">
        <ele>1291.7</ele>
        <time>2026-08-05T09:22:25Z</time>
      </trkpt>
			<trkpt lat="44.68398" lon="6.30358">
        <ele>1292.4</ele>
        <time>2026-08-05T09:22:30Z</time>
      </trkpt>
			<trkpt lat="44.68393" lon="6.30386">
        <ele>1293.4</ele>
        <time>2026-08-05T09:22:35Z</time>
      </trkpt>
			<trkpt lat="44.68392" lon="6.30413">
        <ele>1294.3</ele>
        <time>2026-08-05T09:22:40Z</time>
      </trkpt>
			<trkpt lat="44.68393" lon="6.30463">
        <ele>1296.6</ele>
        <time>2026-08-05T09:22:51Z</time>
      </trkpt>
			<trkpt lat="44.68394" lon="6.30514">
        <ele>1299.3</ele>
        <time>2026-08-05T09:23:03Z</time>
      </trkpt>
			<trkpt lat="44.68395" lon="6.30564">
        <ele>1302.4</ele>
        <time>2026-08-05T09:23:17Z</time>
      </trkpt>
			<trkpt lat="44.68393" lon="6.30592">
        <ele>1304.2</ele>
        <time>2026-08-05T09:23:25Z</time>
      </trkpt>
			<trkpt lat="44.68388" lon="6.30618">
        <ele>1306</ele>
        <time>2026-08-05T09:23:33Z</time>
      </trkpt>
			<trkpt lat="44.68385" lon="6.3064">
        <ele>1307.6</ele>
        <time>2026-08-05T09:23:40Z</time>
      </trkpt>
			<trkpt lat="44.68382" lon="6.30684">
        <ele>1310.8</ele>
        <time>2026-08-05T09:23:54Z</time>
      </trkpt>
			<trkpt lat="44.68379" lon="6.30727">
        <ele>1313.9</ele>
        <time>2026-08-05T09:24:07Z</time>
      </trkpt>
			<trkpt lat="44.68376" lon="6.30771">
        <ele>1317</ele>
        <time>2026-08-05T09:24:21Z</time>
      </trkpt>
			<trkpt lat="44.68373" lon="6.30801">
        <ele>1319.1</ele>
        <time>2026-08-05T09:24:31Z</time>
      </trkpt>
			<trkpt lat="44.68366" lon="6.30837">
        <ele>1321.5</ele>
        <time>2026-08-05T09:24:42Z</time>
      </trkpt>
			<trkpt lat="44.68357" lon="6.30875">
        <ele>1323.7</ele>
        <time>2026-08-05T09:24:51Z</time>
      </trkpt>
			<trkpt lat="44.68348" lon="6.30913">
        <ele>1325.8</ele>
        <time>2026-08-05T09:25:01Z</time>
      </trkpt>
			<trkpt lat="44.68343" lon="6.30941">
        <ele>1327.1</ele>
        <time>2026-08-05T09:25:07Z</time>
      </trkpt>
			<trkpt lat="44.68341" lon="6.30969">
        <ele>1328.3</ele>
        <time>2026-08-05T09:25:13Z</time>
      </trkpt>
			<trkpt lat="44.6834" lon="6.31005">
        <ele>1329.6</ele>
        <time>2026-08-05T09:25:20Z</time>
      </trkpt>
			<trkpt lat="44.68339" lon="6.31041">
        <ele>1330.8</ele>
        <time>2026-08-05T09:25:26Z</time>
      </trkpt>
			<trkpt lat="44.68337" lon="6.31063">
        <ele>1331.4</ele>
        <time>2026-08-05T09:25:30Z</time>
      </trkpt>
			<trkpt lat="44.6833" lon="6.31094">
        <ele>1332.3</ele>
        <time>2026-08-05T09:25:36Z</time>
      </trkpt>
			<trkpt lat="44.68316" lon="6.3113">
        <ele>1333.4</ele>
        <time>2026-08-05T09:25:42Z</time>
      </trkpt>
			<trkpt lat="44.68298" lon="6.31168">
        <ele>1334.6</ele>
        <time>2026-08-05T09:25:49Z</time>
      </trkpt>
			<trkpt lat="44.68288" lon="6.31191">
        <ele>1335.3</ele>
        <time>2026-08-05T09:25:54Z</time>
      </trkpt>
			<trkpt lat="44.68283" lon="6.3121">
        <ele>1335.8</ele>
        <time>2026-08-05T09:25:57Z</time>
      </trkpt>
			<trkpt lat="44.68278" lon="6.31236">
        <ele>1336.5</ele>
        <time>2026-08-05T09:26:01Z</time>
      </trkpt>
			<trkpt lat="44.68275" lon="6.31272">
        <ele>1337.5</ele>
        <time>2026-08-05T09:26:07Z</time>
      </trkpt>
			<trkpt lat="44.68276" lon="6.31298">
        <ele>1338.3</ele>
        <time>2026-08-05T09:26:11Z</time>
      </trkpt>
			<trkpt lat="44.68279" lon="6.31354">
        <ele>1340.1</ele>
        <time>2026-08-05T09:26:21Z</time>
      </trkpt>
			<trkpt lat="44.68281" lon="6.3141">
        <ele>1341.9</ele>
        <time>2026-08-05T09:26:31Z</time>
      </trkpt>
			<trkpt lat="44.68279" lon="6.3143">
        <ele>1342.6</ele>
        <time>2026-08-05T09:26:35Z</time>
      </trkpt>
			<trkpt lat="44.68276" lon="6.31447">
        <ele>1343.2</ele>
        <time>2026-08-05T09:26:38Z</time>
      </trkpt>
			<trkpt lat="44.68259" lon="6.31505">
        <ele>1345.4</ele>
        <time>2026-08-05T09:26:49Z</time>
      </trkpt>
			<trkpt lat="44.68253" lon="6.31534">
        <ele>1346.5</ele>
        <time>2026-08-05T09:26:55Z</time>
      </trkpt>
			<trkpt lat="44.6825" lon="6.31581">
        <ele>1348.2</ele>
        <time>2026-08-05T09:27:05Z</time>
      </trkpt>
			<trkpt lat="44.68247" lon="6.31628">
        <ele>1349.9</ele>
        <time>2026-08-05T09:27:15Z</time>
      </trkpt>
			<trkpt lat="44.68247" lon="6.31654">
        <ele>1350.9</ele>
        <time>2026-08-05T09:27:20Z</time>
      </trkpt>
			<trkpt lat="44.68248" lon="6.31671">
        <ele>1351.5</ele>
        <time>2026-08-05T09:27:23Z</time>
      </trkpt>
			<trkpt lat="44.68253" lon="6.31704">
        <ele>1352.7</ele>
        <time>2026-08-05T09:27:29Z</time>
      </trkpt>
			<trkpt lat="44.68259" lon="6.31726">
        <ele>1353.5</ele>
        <time>2026-08-05T09:27:33Z</time>
      </trkpt>
			<trkpt lat="44.68266" lon="6.31745">
        <ele>1354.3</ele>
        <time>2026-08-05T09:27:37Z</time>
      </trkpt>
			<trkpt lat="44.68286" lon="6.31788">
        <ele>1356.1</ele>
        <time>2026-08-05T09:27:47Z</time>
      </trkpt>
			<trkpt lat="44.68292" lon="6.31802">
        <ele>1356.6</ele>
        <time>2026-08-05T09:27:49Z</time>
      </trkpt>
			<trkpt lat="44.68294" lon="6.31809">
        <ele>1356.9</ele>
        <time>2026-08-05T09:27:51Z</time>
      </trkpt>
			<trkpt lat="44.68295" lon="6.31828">
        <ele>1357.5</ele>
        <time>2026-08-05T09:27:54Z</time>
      </trkpt>
			<trkpt lat="44.68295" lon="6.31847">
        <ele>1358.1</ele>
        <time>2026-08-05T09:27:58Z</time>
      </trkpt>
			<trkpt lat="44.68297" lon="6.31875">
        <ele>1359.1</ele>
        <time>2026-08-05T09:28:03Z</time>
      </trkpt>
			<trkpt lat="44.68304" lon="6.31924">
        <ele>1360.7</ele>
        <time>2026-08-05T09:28:12Z</time>
      </trkpt>
			<trkpt lat="44.68311" lon="6.31973">
        <ele>1362.4</ele>
        <time>2026-08-05T09:28:21Z</time>
      </trkpt>
			<trkpt lat="44.68316" lon="6.32012">
        <ele>1363.8</ele>
        <time>2026-08-05T09:28:28Z</time>
      </trkpt>
			<trkpt lat="44.68316" lon="6.32025">
        <ele>1364.3</ele>
        <time>2026-08-05T09:28:30Z</time>
      </trkpt>
			<trkpt lat="44.68315" lon="6.32037">
        <ele>1364.8</ele>
        <time>2026-08-05T09:28:33Z</time>
      </trkpt>
			<trkpt lat="44.68309" lon="6.32078">
        <ele>1366.5</ele>
        <time>2026-08-05T09:28:41Z</time>
      </trkpt>
			<trkpt lat="44.6831" lon="6.32098">
        <ele>1367.4</ele>
        <time>2026-08-05T09:28:46Z</time>
      </trkpt>
			<trkpt lat="44.68307" lon="6.32124">
        <ele>1368.6</ele>
        <time>2026-08-05T09:28:51Z</time>
      </trkpt>
			<trkpt lat="44.68299" lon="6.32167">
        <ele>1370.9</ele>
        <time>2026-08-05T09:29:02Z</time>
      </trkpt>
			<trkpt lat="44.68298" lon="6.3218">
        <ele>1371.7</ele>
        <time>2026-08-05T09:29:06Z</time>
      </trkpt>
			<trkpt lat="44.68299" lon="6.32195">
        <ele>1372.5</ele>
        <time>2026-08-05T09:29:09Z</time>
      </trkpt>
			<trkpt lat="44.68307" lon="6.32255">
        <ele>1376.2</ele>
        <time>2026-08-05T09:29:27Z</time>
      </trkpt>
			<trkpt lat="44.68307" lon="6.32276">
        <ele>1377.5</ele>
        <time>2026-08-05T09:29:33Z</time>
      </trkpt>
			<trkpt lat="44.68303" lon="6.32307">
        <ele>1379.7</ele>
        <time>2026-08-05T09:29:43Z</time>
      </trkpt>
			<trkpt lat="44.68302" lon="6.32326">
        <ele>1381.1</ele>
        <time>2026-08-05T09:29:49Z</time>
      </trkpt>
			<trkpt lat="44.68304" lon="6.32337">
        <ele>1381.9</ele>
        <time>2026-08-05T09:29:52Z</time>
      </trkpt>
			<trkpt lat="44.68312" lon="6.32367">
        <ele>1384.4</ele>
        <time>2026-08-05T09:30:04Z</time>
      </trkpt>
			<trkpt lat="44.68313" lon="6.32377">
        <ele>1385.2</ele>
        <time>2026-08-05T09:30:07Z</time>
      </trkpt>
			<trkpt lat="44.68313" lon="6.32387">
        <ele>1386</ele>
        <time>2026-08-05T09:30:11Z</time>
      </trkpt>
			<trkpt lat="44.68311" lon="6.32401">
        <ele>1387.1</ele>
        <time>2026-08-05T09:30:16Z</time>
      </trkpt>
			<trkpt lat="44.68306" lon="6.32424">
        <ele>1389</ele>
        <time>2026-08-05T09:30:24Z</time>
      </trkpt>
			<trkpt lat="44.68305" lon="6.32434">
        <ele>1389.9</ele>
        <time>2026-08-05T09:30:28Z</time>
      </trkpt>
			<trkpt lat="44.68307" lon="6.32446">
        <ele>1391</ele>
        <time>2026-08-05T09:30:32Z</time>
      </trkpt>
			<trkpt lat="44.68313" lon="6.32464">
        <ele>1392.6</ele>
        <time>2026-08-05T09:30:39Z</time>
      </trkpt>
			<trkpt lat="44.68323" lon="6.32495">
        <ele>1395.6</ele>
        <time>2026-08-05T09:30:51Z</time>
      </trkpt>
			<trkpt lat="44.68337" lon="6.32528">
        <ele>1399.1</ele>
        <time>2026-08-05T09:31:07Z</time>
      </trkpt>
			<trkpt lat="44.68345" lon="6.32556">
        <ele>1401.9</ele>
        <time>2026-08-05T09:31:19Z</time>
      </trkpt>
			<trkpt lat="44.68349" lon="6.32577">
        <ele>1403.9</ele>
        <time>2026-08-05T09:31:28Z</time>
      </trkpt>
			<trkpt lat="44.68355" lon="6.32611">
        <ele>1407.1</ele>
        <time>2026-08-05T09:31:42Z</time>
      </trkpt>
			<trkpt lat="44.6836" lon="6.32622">
        <ele>1408.5</ele>
        <time>2026-08-05T09:31:49Z</time>
      </trkpt>
			<trkpt lat="44.68363" lon="6.32628">
        <ele>1409.2</ele>
        <time>2026-08-05T09:31:52Z</time>
      </trkpt>
			<trkpt lat="44.68369" lon="6.32633">
        <ele>1410</ele>
        <time>2026-08-05T09:31:55Z</time>
      </trkpt>
			<trkpt lat="44.68375" lon="6.32636">
        <ele>1410.9</ele>
        <time>2026-08-05T09:31:59Z</time>
      </trkpt>
			<trkpt lat="44.68383" lon="6.32635">
        <ele>1412</ele>
        <time>2026-08-05T09:32:04Z</time>
      </trkpt>
			<trkpt lat="44.68389" lon="6.32633">
        <ele>1412.8</ele>
        <time>2026-08-05T09:32:07Z</time>
      </trkpt>
			<trkpt lat="44.68394" lon="6.32628">
        <ele>1413.7</ele>
        <time>2026-08-05T09:32:12Z</time>
      </trkpt>
			<trkpt lat="44.68398" lon="6.32622">
        <ele>1414.4</ele>
        <time>2026-08-05T09:32:14Z</time>
      </trkpt>
			<trkpt lat="44.68411" lon="6.32579">
        <ele>1418.8</ele>
        <time>2026-08-05T09:32:33Z</time>
      </trkpt>
			<trkpt lat="44.68416" lon="6.32561">
        <ele>1420.7</ele>
        <time>2026-08-05T09:32:41Z</time>
      </trkpt>
			<trkpt lat="44.68421" lon="6.32523">
        <ele>1424.1</ele>
        <time>2026-08-05T09:32:55Z</time>
      </trkpt>
			<trkpt lat="44.68423" lon="6.32492">
        <ele>1426.8</ele>
        <time>2026-08-05T09:33:06Z</time>
      </trkpt>
			<trkpt lat="44.68437" lon="6.32505">
        <ele>1428.8</ele>
        <time>2026-08-05T09:33:15Z</time>
      </trkpt>
			<trkpt lat="44.68442" lon="6.32507">
        <ele>1429.4</ele>
        <time>2026-08-05T09:33:17Z</time>
      </trkpt>
			<trkpt lat="44.68455" lon="6.32505">
        <ele>1430.9</ele>
        <time>2026-08-05T09:33:24Z</time>
      </trkpt>
			<trkpt lat="44.68462" lon="6.32506">
        <ele>1431.7</ele>
        <time>2026-08-05T09:33:27Z</time>
      </trkpt>
			<trkpt lat="44.6848" lon="6.32529">
        <ele>1434.3</ele>
        <time>2026-08-05T09:33:39Z</time>
      </trkpt>
			<trkpt lat="44.68495" lon="6.3255">
        <ele>1436.4</ele>
        <time>2026-08-05T09:33:49Z</time>
      </trkpt>
			<trkpt lat="44.685" lon="6.32559">
        <ele>1437.2</ele>
        <time>2026-08-05T09:33:52Z</time>
      </trkpt>
			<trkpt lat="44.68509" lon="6.3254">
        <ele>1438.8</ele>
        <time>2026-08-05T09:34:00Z</time>
      </trkpt>
			<trkpt lat="44.68511" lon="6.3254">
        <ele>1439</ele>
        <time>2026-08-05T09:34:01Z</time>
      </trkpt>
			<trkpt lat="44.68513" lon="6.32535">
        <ele>1439.4</ele>
        <time>2026-08-05T09:34:02Z</time>
      </trkpt>
			<trkpt lat="44.68516" lon="6.3253">
        <ele>1439.8</ele>
        <time>2026-08-05T09:34:04Z</time>
      </trkpt>
			<trkpt lat="44.68519" lon="6.32534">
        <ele>1440.2</ele>
        <time>2026-08-05T09:34:06Z</time>
      </trkpt>
			<trkpt lat="44.68523" lon="6.32535">
        <ele>1440.5</ele>
        <time>2026-08-05T09:34:07Z</time>
      </trkpt>
			<trkpt lat="44.68527" lon="6.32533">
        <ele>1440.9</ele>
        <time>2026-08-05T09:34:09Z</time>
      </trkpt>
			<trkpt lat="44.68529" lon="6.3253">
        <ele>1441.2</ele>
        <time>2026-08-05T09:34:10Z</time>
      </trkpt>
			<trkpt lat="44.68531" lon="6.32524">
        <ele>1441.7</ele>
        <time>2026-08-05T09:34:13Z</time>
      </trkpt>
			<trkpt lat="44.68533" lon="6.32494">
        <ele>1443.5</ele>
        <time>2026-08-05T09:34:21Z</time>
      </trkpt>
			<trkpt lat="44.68534" lon="6.32482">
        <ele>1444.2</ele>
        <time>2026-08-05T09:34:24Z</time>
      </trkpt>
			<trkpt lat="44.68545" lon="6.32445">
        <ele>1446.6</ele>
        <time>2026-08-05T09:34:36Z</time>
      </trkpt>
			<trkpt lat="44.6855" lon="6.32422">
        <ele>1448</ele>
        <time>2026-08-05T09:34:41Z</time>
      </trkpt>
			<trkpt lat="44.68555" lon="6.32395">
        <ele>1449.5</ele>
        <time>2026-08-05T09:34:48Z</time>
      </trkpt>
			<trkpt lat="44.68558" lon="6.32378">
        <ele>1450.5</ele>
        <time>2026-08-05T09:34:52Z</time>
      </trkpt>
			<trkpt lat="44.68562" lon="6.32326">
        <ele>1453.2</ele>
        <time>2026-08-05T09:35:04Z</time>
      </trkpt>
			<trkpt lat="44.68567" lon="6.323">
        <ele>1454.6</ele>
        <time>2026-08-05T09:35:11Z</time>
      </trkpt>
			<trkpt lat="44.68567" lon="6.32287">
        <ele>1455.2</ele>
        <time>2026-08-05T09:35:14Z</time>
      </trkpt>
			<trkpt lat="44.68566" lon="6.32272">
        <ele>1456</ele>
        <time>2026-08-05T09:35:17Z</time>
      </trkpt>
			<trkpt lat="44.68563" lon="6.32257">
        <ele>1456.7</ele>
        <time>2026-08-05T09:35:21Z</time>
      </trkpt>
			<trkpt lat="44.68555" lon="6.32228">
        <ele>1458.1</ele>
        <time>2026-08-05T09:35:28Z</time>
      </trkpt>
			<trkpt lat="44.68549" lon="6.32214">
        <ele>1458.9</ele>
        <time>2026-08-05T09:35:31Z</time>
      </trkpt>
			<trkpt lat="44.68541" lon="6.32199">
        <ele>1459.7</ele>
        <time>2026-08-05T09:35:35Z</time>
      </trkpt>
			<trkpt lat="44.68518" lon="6.32164">
        <ele>1461.7</ele>
        <time>2026-08-05T09:35:45Z</time>
      </trkpt>
			<trkpt lat="44.68505" lon="6.32141">
        <ele>1462.8</ele>
        <time>2026-08-05T09:35:51Z</time>
      </trkpt>
			<trkpt lat="44.68488" lon="6.3212">
        <ele>1464</ele>
        <time>2026-08-05T09:35:57Z</time>
      </trkpt>
			<trkpt lat="44.68475" lon="6.32106">
        <ele>1464.9</ele>
        <time>2026-08-05T09:36:02Z</time>
      </trkpt>
			<trkpt lat="44.68473" lon="6.32101">
        <ele>1465.1</ele>
        <time>2026-08-05T09:36:03Z</time>
      </trkpt>
			<trkpt lat="44.68472" lon="6.32096">
        <ele>1465.3</ele>
        <time>2026-08-05T09:36:04Z</time>
      </trkpt>
			<trkpt lat="44.68472" lon="6.32091">
        <ele>1465.5</ele>
        <time>2026-08-05T09:36:05Z</time>
      </trkpt>
			<trkpt lat="44.68475" lon="6.32086">
        <ele>1465.7</ele>
        <time>2026-08-05T09:36:06Z</time>
      </trkpt>
			<trkpt lat="44.6848" lon="6.32083">
        <ele>1466</ele>
        <time>2026-08-05T09:36:08Z</time>
      </trkpt>
			<trkpt lat="44.68483" lon="6.32084">
        <ele>1466.2</ele>
        <time>2026-08-05T09:36:08Z</time>
      </trkpt>
			<trkpt lat="44.68488" lon="6.32087">
        <ele>1466.5</ele>
        <time>2026-08-05T09:36:10Z</time>
      </trkpt>
			<trkpt lat="44.68505" lon="6.32114">
        <ele>1467.8</ele>
        <time>2026-08-05T09:36:17Z</time>
      </trkpt>
			<trkpt lat="44.68517" lon="6.32127">
        <ele>1468.6</ele>
        <time>2026-08-05T09:36:22Z</time>
      </trkpt>
			<trkpt lat="44.68555" lon="6.3216">
        <ele>1471</ele>
        <time>2026-08-05T09:36:34Z</time>
      </trkpt>
			<trkpt lat="44.68562" lon="6.32168">
        <ele>1471.4</ele>
        <time>2026-08-05T09:36:37Z</time>
      </trkpt>
			<trkpt lat="44.68571" lon="6.32183">
        <ele>1472.1</ele>
        <time>2026-08-05T09:36:41Z</time>
      </trkpt>
			<trkpt lat="44.68578" lon="6.32196">
        <ele>1472.7</ele>
        <time>2026-08-05T09:36:44Z</time>
      </trkpt>
			<trkpt lat="44.68586" lon="6.32216">
        <ele>1473.5</ele>
        <time>2026-08-05T09:36:48Z</time>
      </trkpt>
			<trkpt lat="44.68601" lon="6.32265">
        <ele>1475.2</ele>
        <time>2026-08-05T09:36:58Z</time>
      </trkpt>
			<trkpt lat="44.68609" lon="6.32283">
        <ele>1475.9</ele>
        <time>2026-08-05T09:37:01Z</time>
      </trkpt>
			<trkpt lat="44.68624" lon="6.32309">
        <ele>1476.9</ele>
        <time>2026-08-05T09:37:07Z</time>
      </trkpt>
			<trkpt lat="44.68638" lon="6.32336">
        <ele>1477.7</ele>
        <time>2026-08-05T09:37:13Z</time>
      </trkpt>
			<trkpt lat="44.68641" lon="6.32343">
        <ele>1477.9</ele>
        <time>2026-08-05T09:37:14Z</time>
      </trkpt>
			<trkpt lat="44.68645" lon="6.32355">
        <ele>1478.3</ele>
        <time>2026-08-05T09:37:16Z</time>
      </trkpt>
			<trkpt lat="44.68646" lon="6.32366">
        <ele>1478.6</ele>
        <time>2026-08-05T09:37:18Z</time>
      </trkpt>
			<trkpt lat="44.68646" lon="6.32379">
        <ele>1478.9</ele>
        <time>2026-08-05T09:37:20Z</time>
      </trkpt>
			<trkpt lat="44.68644" lon="6.32411">
        <ele>1479.7</ele>
        <time>2026-08-05T09:37:25Z</time>
      </trkpt>
			<trkpt lat="44.68645" lon="6.32425">
        <ele>1480.1</ele>
        <time>2026-08-05T09:37:28Z</time>
      </trkpt>
			<trkpt lat="44.68648" lon="6.32441">
        <ele>1480.6</ele>
        <time>2026-08-05T09:37:31Z</time>
      </trkpt>
			<trkpt lat="44.68652" lon="6.32455">
        <ele>1481</ele>
        <time>2026-08-05T09:37:33Z</time>
      </trkpt>
			<trkpt lat="44.68656" lon="6.32461">
        <ele>1481.3</ele>
        <time>2026-08-05T09:37:35Z</time>
      </trkpt>
			<trkpt lat="44.6866" lon="6.32463">
        <ele>1481.5</ele>
        <time>2026-08-05T09:37:36Z</time>
      </trkpt>
			<trkpt lat="44.68664" lon="6.32462">
        <ele>1481.7</ele>
        <time>2026-08-05T09:37:37Z</time>
      </trkpt>
			<trkpt lat="44.68667" lon="6.3246">
        <ele>1481.8</ele>
        <time>2026-08-05T09:37:37Z</time>
      </trkpt>
			<trkpt lat="44.68668" lon="6.32455">
        <ele>1482</ele>
        <time>2026-08-05T09:37:39Z</time>
      </trkpt>
			<trkpt lat="44.68669" lon="6.32449">
        <ele>1482.2</ele>
        <time>2026-08-05T09:37:40Z</time>
      </trkpt>
			<trkpt lat="44.68666" lon="6.32434">
        <ele>1482.8</ele>
        <time>2026-08-05T09:37:43Z</time>
      </trkpt>
			<trkpt lat="44.68664" lon="6.32419">
        <ele>1483.4</ele>
        <time>2026-08-05T09:37:46Z</time>
      </trkpt>
			<trkpt lat="44.68663" lon="6.32405">
        <ele>1484</ele>
        <time>2026-08-05T09:37:49Z</time>
      </trkpt>
			<trkpt lat="44.68665" lon="6.32369">
        <ele>1485.7</ele>
        <time>2026-08-05T09:37:57Z</time>
      </trkpt>
			<trkpt lat="44.68665" lon="6.32355">
        <ele>1486.4</ele>
        <time>2026-08-05T09:38:00Z</time>
      </trkpt>
			<trkpt lat="44.68664" lon="6.32344">
        <ele>1487.1</ele>
        <time>2026-08-05T09:38:03Z</time>
      </trkpt>
			<trkpt lat="44.68662" lon="6.32329">
        <ele>1488</ele>
        <time>2026-08-05T09:38:07Z</time>
      </trkpt>
			<trkpt lat="44.68652" lon="6.32289">
        <ele>1490.9</ele>
        <time>2026-08-05T09:38:20Z</time>
      </trkpt>
			<trkpt lat="44.68649" lon="6.3225">
        <ele>1494</ele>
        <time>2026-08-05T09:38:34Z</time>
      </trkpt>
			<trkpt lat="44.68645" lon="6.32211">
        <ele>1497.7</ele>
        <time>2026-08-05T09:38:50Z</time>
      </trkpt>
			<trkpt lat="44.68645" lon="6.32176">
        <ele>1501</ele>
        <time>2026-08-05T09:39:04Z</time>
      </trkpt>
			<trkpt lat="44.68645" lon="6.32141">
        <ele>1504.6</ele>
        <time>2026-08-05T09:39:21Z</time>
      </trkpt>
			<trkpt lat="44.68642" lon="6.32126">
        <ele>1506.1</ele>
        <time>2026-08-05T09:39:27Z</time>
      </trkpt>
			<trkpt lat="44.68632" lon="6.32092">
        <ele>1509.8</ele>
        <time>2026-08-05T09:39:45Z</time>
      </trkpt>
			<trkpt lat="44.68623" lon="6.32068">
        <ele>1512.5</ele>
        <time>2026-08-05T09:39:57Z</time>
      </trkpt>
			<trkpt lat="44.68616" lon="6.32052">
        <ele>1514.3</ele>
        <time>2026-08-05T09:40:05Z</time>
      </trkpt>
			<trkpt lat="44.68587" lon="6.32006">
        <ele>1519.6</ele>
        <time>2026-08-05T09:40:27Z</time>
      </trkpt>
			<trkpt lat="44.68576" lon="6.31984">
        <ele>1521.8</ele>
        <time>2026-08-05T09:40:36Z</time>
      </trkpt>
			<trkpt lat="44.68569" lon="6.31968">
        <ele>1523.2</ele>
        <time>2026-08-05T09:40:42Z</time>
      </trkpt>
			<trkpt lat="44.68567" lon="6.3196">
        <ele>1523.9</ele>
        <time>2026-08-05T09:40:45Z</time>
      </trkpt>
			<trkpt lat="44.68567" lon="6.31955">
        <ele>1524.3</ele>
        <time>2026-08-05T09:40:47Z</time>
      </trkpt>
			<trkpt lat="44.6857" lon="6.31951">
        <ele>1524.7</ele>
        <time>2026-08-05T09:40:49Z</time>
      </trkpt>
			<trkpt lat="44.68572" lon="6.31948">
        <ele>1525</ele>
        <time>2026-08-05T09:40:50Z</time>
      </trkpt>
			<trkpt lat="44.68576" lon="6.31948">
        <ele>1525.4</ele>
        <time>2026-08-05T09:40:52Z</time>
      </trkpt>
			<trkpt lat="44.6858" lon="6.3195">
        <ele>1525.8</ele>
        <time>2026-08-05T09:40:54Z</time>
      </trkpt>
			<trkpt lat="44.68597" lon="6.31973">
        <ele>1528.1</ele>
        <time>2026-08-05T09:41:04Z</time>
      </trkpt>
			<trkpt lat="44.68614" lon="6.31997">
        <ele>1530.3</ele>
        <time>2026-08-05T09:41:14Z</time>
      </trkpt>
			<trkpt lat="44.68628" lon="6.3201">
        <ele>1531.8</ele>
        <time>2026-08-05T09:41:21Z</time>
      </trkpt>
			<trkpt lat="44.68653" lon="6.32031">
        <ele>1534.3</ele>
        <time>2026-08-05T09:41:32Z</time>
      </trkpt>
			<trkpt lat="44.68677" lon="6.32052">
        <ele>1536.8</ele>
        <time>2026-08-05T09:41:44Z</time>
      </trkpt>
			<trkpt lat="44.68685" lon="6.32064">
        <ele>1537.8</ele>
        <time>2026-08-05T09:41:48Z</time>
      </trkpt>
			<trkpt lat="44.68693" lon="6.32081">
        <ele>1539.1</ele>
        <time>2026-08-05T09:41:54Z</time>
      </trkpt>
			<trkpt lat="44.68699" lon="6.32105">
        <ele>1540.7</ele>
        <time>2026-08-05T09:42:01Z</time>
      </trkpt>
			<trkpt lat="44.68702" lon="6.32131">
        <ele>1542.3</ele>
        <time>2026-08-05T09:42:09Z</time>
      </trkpt>
			<trkpt lat="44.68704" lon="6.32175">
        <ele>1545.2</ele>
        <time>2026-08-05T09:42:21Z</time>
      </trkpt>
			<trkpt lat="44.6871" lon="6.322">
        <ele>1547</ele>
        <time>2026-08-05T09:42:30Z</time>
      </trkpt>
			<trkpt lat="44.68715" lon="6.3221">
        <ele>1547.8</ele>
        <time>2026-08-05T09:42:33Z</time>
      </trkpt>
			<trkpt lat="44.6872" lon="6.32218">
        <ele>1548.5</ele>
        <time>2026-08-05T09:42:36Z</time>
      </trkpt>
			<trkpt lat="44.68746" lon="6.32245">
        <ele>1551.6</ele>
        <time>2026-08-05T09:42:51Z</time>
      </trkpt>
			<trkpt lat="44.68771" lon="6.32272">
        <ele>1554.6</ele>
        <time>2026-08-05T09:43:05Z</time>
      </trkpt>
			<trkpt lat="44.68782" lon="6.32289">
        <ele>1556.2</ele>
        <time>2026-08-05T09:43:12Z</time>
      </trkpt>
			<trkpt lat="44.6879" lon="6.32303">
        <ele>1557.5</ele>
        <time>2026-08-05T09:43:18Z</time>
      </trkpt>
			<trkpt lat="44.68797" lon="6.32321">
        <ele>1558.9</ele>
        <time>2026-08-05T09:43:24Z</time>
      </trkpt>
			<trkpt lat="44.68812" lon="6.32374">
        <ele>1562.6</ele>
        <time>2026-08-05T09:43:40Z</time>
      </trkpt>
			<trkpt lat="44.68825" lon="6.32414">
        <ele>1565.5</ele>
        <time>2026-08-05T09:43:53Z</time>
      </trkpt>
			<trkpt lat="44.68828" lon="6.32431">
        <ele>1566.6</ele>
        <time>2026-08-05T09:43:58Z</time>
      </trkpt>
			<trkpt lat="44.68832" lon="6.32462">
        <ele>1568.5</ele>
        <time>2026-08-05T09:44:07Z</time>
      </trkpt>
			<trkpt lat="44.68834" lon="6.32473">
        <ele>1569.2</ele>
        <time>2026-08-05T09:44:10Z</time>
      </trkpt>
			<trkpt lat="44.68837" lon="6.32479">
        <ele>1569.7</ele>
        <time>2026-08-05T09:44:12Z</time>
      </trkpt>
			<trkpt lat="44.68841" lon="6.32483">
        <ele>1570.1</ele>
        <time>2026-08-05T09:44:14Z</time>
      </trkpt>
			<trkpt lat="44.68845" lon="6.32483">
        <ele>1570.4</ele>
        <time>2026-08-05T09:44:15Z</time>
      </trkpt>
			<trkpt lat="44.68849" lon="6.32482">
        <ele>1570.8</ele>
        <time>2026-08-05T09:44:17Z</time>
      </trkpt>
			<trkpt lat="44.68852" lon="6.32479">
        <ele>1571.1</ele>
        <time>2026-08-05T09:44:18Z</time>
      </trkpt>
			<trkpt lat="44.68854" lon="6.32474">
        <ele>1571.4</ele>
        <time>2026-08-05T09:44:20Z</time>
      </trkpt>
			<trkpt lat="44.68855" lon="6.32468">
        <ele>1571.8</ele>
        <time>2026-08-05T09:44:21Z</time>
      </trkpt>
			<trkpt lat="44.68855" lon="6.32459">
        <ele>1572.4</ele>
        <time>2026-08-05T09:44:24Z</time>
      </trkpt>
			<trkpt lat="44.68853" lon="6.32444">
        <ele>1573.3</ele>
        <time>2026-08-05T09:44:28Z</time>
      </trkpt>
			<trkpt lat="44.68851" lon="6.32408">
        <ele>1575.5</ele>
        <time>2026-08-05T09:44:38Z</time>
      </trkpt>
			<trkpt lat="44.68849" lon="6.32373">
        <ele>1577.8</ele>
        <time>2026-08-05T09:44:48Z</time>
      </trkpt>
			<trkpt lat="44.68848" lon="6.32329">
        <ele>1580.5</ele>
        <time>2026-08-05T09:45:00Z</time>
      </trkpt>
			<trkpt lat="44.6885" lon="6.32295">
        <ele>1582.7</ele>
        <time>2026-08-05T09:45:10Z</time>
      </trkpt>
			<trkpt lat="44.68849" lon="6.32279">
        <ele>1583.7</ele>
        <time>2026-08-05T09:45:15Z</time>
      </trkpt>
			<trkpt lat="44.68844" lon="6.32238">
        <ele>1586.4</ele>
        <time>2026-08-05T09:45:27Z</time>
      </trkpt>
			<trkpt lat="44.68838" lon="6.32197">
        <ele>1589</ele>
        <time>2026-08-05T09:45:38Z</time>
      </trkpt>
			<trkpt lat="44.68827" lon="6.32155">
        <ele>1591.8</ele>
        <time>2026-08-05T09:45:51Z</time>
      </trkpt>
			<trkpt lat="44.68819" lon="6.32137">
        <ele>1593.1</ele>
        <time>2026-08-05T09:45:57Z</time>
      </trkpt>
			<trkpt lat="44.68797" lon="6.32092">
        <ele>1596.4</ele>
        <time>2026-08-05T09:46:13Z</time>
      </trkpt>
			<trkpt lat="44.68794" lon="6.32082">
        <ele>1597.1</ele>
        <time>2026-08-05T09:46:16Z</time>
      </trkpt>
			<trkpt lat="44.68793" lon="6.32074">
        <ele>1597.5</ele>
        <time>2026-08-05T09:46:18Z</time>
      </trkpt>
			<trkpt lat="44.68794" lon="6.32068">
        <ele>1597.9</ele>
        <time>2026-08-05T09:46:19Z</time>
      </trkpt>
			<trkpt lat="44.68799" lon="6.32061">
        <ele>1598.5</ele>
        <time>2026-08-05T09:46:22Z</time>
      </trkpt>
			<trkpt lat="44.68803" lon="6.32061">
        <ele>1598.9</ele>
        <time>2026-08-05T09:46:24Z</time>
      </trkpt>
			<trkpt lat="44.68808" lon="6.32062">
        <ele>1599.3</ele>
        <time>2026-08-05T09:46:26Z</time>
      </trkpt>
			<trkpt lat="44.68811" lon="6.32066">
        <ele>1599.7</ele>
        <time>2026-08-05T09:46:28Z</time>
      </trkpt>
			<trkpt lat="44.68816" lon="6.32073">
        <ele>1600.3</ele>
        <time>2026-08-05T09:46:30Z</time>
      </trkpt>
			<trkpt lat="44.68837" lon="6.3212">
        <ele>1603.6</ele>
        <time>2026-08-05T09:46:46Z</time>
      </trkpt>
			<trkpt lat="44.68849" lon="6.32135">
        <ele>1605.1</ele>
        <time>2026-08-05T09:46:53Z</time>
      </trkpt>
			<trkpt lat="44.68858" lon="6.32144">
        <ele>1606.1</ele>
        <time>2026-08-05T09:46:57Z</time>
      </trkpt>
			<trkpt lat="44.68869" lon="6.32151">
        <ele>1607.2</ele>
        <time>2026-08-05T09:47:02Z</time>
      </trkpt>
			<trkpt lat="44.68882" lon="6.32155">
        <ele>1608.5</ele>
        <time>2026-08-05T09:47:08Z</time>
      </trkpt>
			<trkpt lat="44.68908" lon="6.3216">
        <ele>1610.9</ele>
        <time>2026-08-05T09:47:18Z</time>
      </trkpt>
			<trkpt lat="44.68922" lon="6.32161">
        <ele>1612.3</ele>
        <time>2026-08-05T09:47:24Z</time>
      </trkpt>
			<trkpt lat="44.68929" lon="6.32158">
        <ele>1613</ele>
        <time>2026-08-05T09:47:28Z</time>
      </trkpt>
			<trkpt lat="44.68935" lon="6.32153">
        <ele>1613.6</ele>
        <time>2026-08-05T09:47:31Z</time>
      </trkpt>
			<trkpt lat="44.68939" lon="6.32146">
        <ele>1614.3</ele>
        <time>2026-08-05T09:47:34Z</time>
      </trkpt>
			<trkpt lat="44.68942" lon="6.32138">
        <ele>1614.9</ele>
        <time>2026-08-05T09:47:36Z</time>
      </trkpt>
			<trkpt lat="44.68943" lon="6.32127">
        <ele>1615.6</ele>
        <time>2026-08-05T09:47:39Z</time>
      </trkpt>
			<trkpt lat="44.68943" lon="6.32082">
        <ele>1618.8</ele>
        <time>2026-08-05T09:47:54Z</time>
      </trkpt>
			<trkpt lat="44.68943" lon="6.32037">
        <ele>1621.9</ele>
        <time>2026-08-05T09:48:08Z</time>
      </trkpt>
			<trkpt lat="44.68941" lon="6.32018">
        <ele>1623.2</ele>
        <time>2026-08-05T09:48:14Z</time>
      </trkpt>
			<trkpt lat="44.68931" lon="6.31979">
        <ele>1625.9</ele>
        <time>2026-08-05T09:48:26Z</time>
      </trkpt>
			<trkpt lat="44.68929" lon="6.31959">
        <ele>1627.1</ele>
        <time>2026-08-05T09:48:32Z</time>
      </trkpt>
			<trkpt lat="44.6893" lon="6.3194">
        <ele>1628.2</ele>
        <time>2026-08-05T09:48:36Z</time>
      </trkpt>
			<trkpt lat="44.68934" lon="6.31921">
        <ele>1629.3</ele>
        <time>2026-08-05T09:48:41Z</time>
      </trkpt>
			<trkpt lat="44.68947" lon="6.3189">
        <ele>1631.3</ele>
        <time>2026-08-05T09:48:49Z</time>
      </trkpt>
			<trkpt lat="44.68961" lon="6.31867">
        <ele>1632.9</ele>
        <time>2026-08-05T09:48:56Z</time>
      </trkpt>
			<trkpt lat="44.68966" lon="6.31862">
        <ele>1633.3</ele>
        <time>2026-08-05T09:48:58Z</time>
      </trkpt>
			<trkpt lat="44.68972" lon="6.31859">
        <ele>1633.8</ele>
        <time>2026-08-05T09:49:00Z</time>
      </trkpt>
			<trkpt lat="44.68978" lon="6.31858">
        <ele>1634.2</ele>
        <time>2026-08-05T09:49:02Z</time>
      </trkpt>
			<trkpt lat="44.68985" lon="6.3186">
        <ele>1634.7</ele>
        <time>2026-08-05T09:49:05Z</time>
      </trkpt>
			<trkpt lat="44.68991" lon="6.31864">
        <ele>1635.2</ele>
        <time>2026-08-05T09:49:07Z</time>
      </trkpt>
			<trkpt lat="44.68998" lon="6.31872">
        <ele>1635.8</ele>
        <time>2026-08-05T09:49:10Z</time>
      </trkpt>
			<trkpt lat="44.69013" lon="6.31897">
        <ele>1637.3</ele>
        <time>2026-08-05T09:49:17Z</time>
      </trkpt>
			<trkpt lat="44.6902" lon="6.31918">
        <ele>1638.5</ele>
        <time>2026-08-05T09:49:22Z</time>
      </trkpt>
			<trkpt lat="44.69024" lon="6.3195">
        <ele>1640.1</ele>
        <time>2026-08-05T09:49:29Z</time>
      </trkpt>
			<trkpt lat="44.69026" lon="6.31959">
        <ele>1640.6</ele>
        <time>2026-08-05T09:49:32Z</time>
      </trkpt>
			<trkpt lat="44.69032" lon="6.31969">
        <ele>1641.3</ele>
        <time>2026-08-05T09:49:35Z</time>
      </trkpt>
			<trkpt lat="44.69047" lon="6.31993">
        <ele>1643.1</ele>
        <time>2026-08-05T09:49:42Z</time>
      </trkpt>
			<trkpt lat="44.69053" lon="6.32011">
        <ele>1644.2</ele>
        <time>2026-08-05T09:49:47Z</time>
      </trkpt>
			<trkpt lat="44.69055" lon="6.32022">
        <ele>1644.9</ele>
        <time>2026-08-05T09:49:50Z</time>
      </trkpt>
			<trkpt lat="44.69059" lon="6.32049">
        <ele>1646.8</ele>
        <time>2026-08-05T09:49:59Z</time>
      </trkpt>
			<trkpt lat="44.69062" lon="6.32069">
        <ele>1648.2</ele>
        <time>2026-08-05T09:50:05Z</time>
      </trkpt>
			<trkpt lat="44.69066" lon="6.32084">
        <ele>1649.4</ele>
        <time>2026-08-05T09:50:10Z</time>
      </trkpt>
			<trkpt lat="44.69084" lon="6.32128">
        <ele>1653.6</ele>
        <time>2026-08-05T09:50:28Z</time>
      </trkpt>
			<trkpt lat="44.69102" lon="6.32172">
        <ele>1658.1</ele>
        <time>2026-08-05T09:50:47Z</time>
      </trkpt>
			<trkpt lat="44.6912" lon="6.32216">
        <ele>1662.8</ele>
        <time>2026-08-05T09:51:07Z</time>
      </trkpt>
			<trkpt lat="44.69135" lon="6.32243">
        <ele>1665.9</ele>
        <time>2026-08-05T09:51:19Z</time>
      </trkpt>
			<trkpt lat="44.69144" lon="6.32255">
        <ele>1667.5</ele>
        <time>2026-08-05T09:51:26Z</time>
      </trkpt>
			<trkpt lat="44.69147" lon="6.32264">
        <ele>1668.4</ele>
        <time>2026-08-05T09:51:30Z</time>
      </trkpt>
			<trkpt lat="44.69156" lon="6.32296">
        <ele>1671.2</ele>
        <time>2026-08-05T09:51:42Z</time>
      </trkpt>
			<trkpt lat="44.69165" lon="6.32338">
        <ele>1674.6</ele>
        <time>2026-08-05T09:51:58Z</time>
      </trkpt>
			<trkpt lat="44.69168" lon="6.32346">
        <ele>1675.2</ele>
        <time>2026-08-05T09:52:00Z</time>
      </trkpt>
			<trkpt lat="44.69172" lon="6.32353">
        <ele>1675.8</ele>
        <time>2026-08-05T09:52:03Z</time>
      </trkpt>
			<trkpt lat="44.69177" lon="6.32359">
        <ele>1676.3</ele>
        <time>2026-08-05T09:52:05Z</time>
      </trkpt>
			<trkpt lat="44.69189" lon="6.32368">
        <ele>1677.6</ele>
        <time>2026-08-05T09:52:11Z</time>
      </trkpt>
			<trkpt lat="44.6921" lon="6.3238">
        <ele>1679.4</ele>
        <time>2026-08-05T09:52:19Z</time>
      </trkpt>
			<trkpt lat="44.69227" lon="6.32391">
        <ele>1680.7</ele>
        <time>2026-08-05T09:52:24Z</time>
      </trkpt>
			<trkpt lat="44.69252" lon="6.32411">
        <ele>1682.5</ele>
        <time>2026-08-05T09:52:33Z</time>
      </trkpt>
			<trkpt lat="44.69258" lon="6.32414">
        <ele>1682.9</ele>
        <time>2026-08-05T09:52:35Z</time>
      </trkpt>
			<trkpt lat="44.69262" lon="6.32414">
        <ele>1683</ele>
        <time>2026-08-05T09:52:36Z</time>
      </trkpt>
			<trkpt lat="44.69266" lon="6.32413">
        <ele>1683.3</ele>
        <time>2026-08-05T09:52:37Z</time>
      </trkpt>
			<trkpt lat="44.69269" lon="6.3241">
        <ele>1683.5</ele>
        <time>2026-08-05T09:52:38Z</time>
      </trkpt>
			<trkpt lat="44.69271" lon="6.32406">
        <ele>1683.7</ele>
        <time>2026-08-05T09:52:39Z</time>
      </trkpt>
			<trkpt lat="44.69271" lon="6.32401">
        <ele>1683.8</ele>
        <time>2026-08-05T09:52:40Z</time>
      </trkpt>
			<trkpt lat="44.6927" lon="6.32397">
        <ele>1684</ele>
        <time>2026-08-05T09:52:41Z</time>
      </trkpt>
			<trkpt lat="44.69268" lon="6.32392">
        <ele>1684.1</ele>
        <time>2026-08-05T09:52:42Z</time>
      </trkpt>
			<trkpt lat="44.69263" lon="6.32388">
        <ele>1684.4</ele>
        <time>2026-08-05T09:52:44Z</time>
      </trkpt>
			<trkpt lat="44.69252" lon="6.32383">
        <ele>1684.9</ele>
        <time>2026-08-05T09:52:47Z</time>
      </trkpt>
			<trkpt lat="44.69243" lon="6.32378">
        <ele>1685.3</ele>
        <time>2026-08-05T09:52:49Z</time>
      </trkpt>
			<trkpt lat="44.69234" lon="6.32367">
        <ele>1685.8</ele>
        <time>2026-08-05T09:52:52Z</time>
      </trkpt>
			<trkpt lat="44.69227" lon="6.32355">
        <ele>1686.2</ele>
        <time>2026-08-05T09:52:54Z</time>
      </trkpt>
			<trkpt lat="44.69219" lon="6.32327">
        <ele>1687</ele>
        <time>2026-08-05T09:52:59Z</time>
      </trkpt>
			<trkpt lat="44.69211" lon="6.32292">
        <ele>1687.8</ele>
        <time>2026-08-05T09:53:05Z</time>
      </trkpt>
			<trkpt lat="44.69202" lon="6.32258">
        <ele>1688.6</ele>
        <time>2026-08-05T09:53:11Z</time>
      </trkpt>
			<trkpt lat="44.69199" lon="6.32245">
        <ele>1688.9</ele>
        <time>2026-08-05T09:53:13Z</time>
      </trkpt>
			<trkpt lat="44.69199" lon="6.32231">
        <ele>1689.2</ele>
        <time>2026-08-05T09:53:15Z</time>
      </trkpt>
			<trkpt lat="44.69204" lon="6.32189">
        <ele>1690.2</ele>
        <time>2026-08-05T09:53:22Z</time>
      </trkpt>
			<trkpt lat="44.69205" lon="6.32169">
        <ele>1690.7</ele>
        <time>2026-08-05T09:53:25Z</time>
      </trkpt>
			<trkpt lat="44.69204" lon="6.32152">
        <ele>1691.1</ele>
        <time>2026-08-05T09:53:28Z</time>
      </trkpt>
			<trkpt lat="44.692" lon="6.32117">
        <ele>1692</ele>
        <time>2026-08-05T09:53:33Z</time>
      </trkpt>
			<trkpt lat="44.69196" lon="6.32083">
        <ele>1693.1</ele>
        <time>2026-08-05T09:53:39Z</time>
      </trkpt>
			<trkpt lat="44.69195" lon="6.32069">
        <ele>1693.5</ele>
        <time>2026-08-05T09:53:42Z</time>
      </trkpt>
			<trkpt lat="44.69195" lon="6.32055">
        <ele>1693.9</ele>
        <time>2026-08-05T09:53:44Z</time>
      </trkpt>
			<trkpt lat="44.69198" lon="6.32017">
        <ele>1695.3</ele>
        <time>2026-08-05T09:53:52Z</time>
      </trkpt>
			<trkpt lat="44.69201" lon="6.31979">
        <ele>1696.7</ele>
        <time>2026-08-05T09:54:00Z</time>
      </trkpt>
			<trkpt lat="44.69202" lon="6.3193">
        <ele>1698.7</ele>
        <time>2026-08-05T09:54:10Z</time>
      </trkpt>
			<trkpt lat="44.69199" lon="6.31906">
        <ele>1699.7</ele>
        <time>2026-08-05T09:54:15Z</time>
      </trkpt>
			<trkpt lat="44.69194" lon="6.31883">
        <ele>1700.7</ele>
        <time>2026-08-05T09:54:20Z</time>
      </trkpt>
			<trkpt lat="44.69188" lon="6.31861">
        <ele>1701.8</ele>
        <time>2026-08-05T09:54:25Z</time>
      </trkpt>
			<trkpt lat="44.69168" lon="6.31809">
        <ele>1704.6</ele>
        <time>2026-08-05T09:54:38Z</time>
      </trkpt>
			<trkpt lat="44.69159" lon="6.31781">
        <ele>1706.1</ele>
        <time>2026-08-05T09:54:45Z</time>
      </trkpt>
			<trkpt lat="44.69154" lon="6.3176">
        <ele>1707.2</ele>
        <time>2026-08-05T09:54:49Z</time>
      </trkpt>
			<trkpt lat="44.69152" lon="6.31732">
        <ele>1708.6</ele>
        <time>2026-08-05T09:54:56Z</time>
      </trkpt>
			<trkpt lat="44.69148" lon="6.31708">
        <ele>1709.9</ele>
        <time>2026-08-05T09:55:01Z</time>
      </trkpt>
			<trkpt lat="44.69142" lon="6.31674">
        <ele>1711.7</ele>
        <time>2026-08-05T09:55:10Z</time>
      </trkpt>
			<trkpt lat="44.69135" lon="6.31641">
        <ele>1713.5</ele>
        <time>2026-08-05T09:55:18Z</time>
      </trkpt>
			<trkpt lat="44.69131" lon="6.31628">
        <ele>1714.3</ele>
        <time>2026-08-05T09:55:21Z</time>
      </trkpt>
			<trkpt lat="44.69126" lon="6.31615">
        <ele>1715.1</ele>
        <time>2026-08-05T09:55:25Z</time>
      </trkpt>
			<trkpt lat="44.69111" lon="6.31591">
        <ele>1716.8</ele>
        <time>2026-08-05T09:55:32Z</time>
      </trkpt>
			<trkpt lat="44.69105" lon="6.3158">
        <ele>1717.5</ele>
        <time>2026-08-05T09:55:35Z</time>
      </trkpt>
			<trkpt lat="44.69101" lon="6.31567">
        <ele>1718.3</ele>
        <time>2026-08-05T09:55:39Z</time>
      </trkpt>
			<trkpt lat="44.69093" lon="6.3153">
        <ele>1720.3</ele>
        <time>2026-08-05T09:55:48Z</time>
      </trkpt>
			<trkpt lat="44.6909" lon="6.31501">
        <ele>1721.8</ele>
        <time>2026-08-05T09:55:54Z</time>
      </trkpt>
			<trkpt lat="44.6909" lon="6.31487">
        <ele>1722.5</ele>
        <time>2026-08-05T09:55:57Z</time>
      </trkpt>
			<trkpt lat="44.69091" lon="6.31475">
        <ele>1723.1</ele>
        <time>2026-08-05T09:56:00Z</time>
      </trkpt>
			<trkpt lat="44.69098" lon="6.31437">
        <ele>1725</ele>
        <time>2026-08-05T09:56:09Z</time>
      </trkpt>
			<trkpt lat="44.69103" lon="6.31401">
        <ele>1726.8</ele>
        <time>2026-08-05T09:56:17Z</time>
      </trkpt>
			<trkpt lat="44.69107" lon="6.31379">
        <ele>1727.8</ele>
        <time>2026-08-05T09:56:22Z</time>
      </trkpt>
			<trkpt lat="44.69116" lon="6.31339">
        <ele>1729.6</ele>
        <time>2026-08-05T09:56:30Z</time>
      </trkpt>
			<trkpt lat="44.69119" lon="6.31319">
        <ele>1730.4</ele>
        <time>2026-08-05T09:56:34Z</time>
      </trkpt>
			<trkpt lat="44.69118" lon="6.31302">
        <ele>1731</ele>
        <time>2026-08-05T09:56:37Z</time>
      </trkpt>
			<trkpt lat="44.69116" lon="6.31284">
        <ele>1731.8</ele>
        <time>2026-08-05T09:56:41Z</time>
      </trkpt>
			<trkpt lat="44.6911" lon="6.31253">
        <ele>1733</ele>
        <time>2026-08-05T09:56:48Z</time>
      </trkpt>
			<trkpt lat="44.69105" lon="6.31219">
        <ele>1734.4</ele>
        <time>2026-08-05T09:56:55Z</time>
      </trkpt>
			<trkpt lat="44.691" lon="6.31185">
        <ele>1735.8</ele>
        <time>2026-08-05T09:57:02Z</time>
      </trkpt>
			<trkpt lat="44.69098" lon="6.31159">
        <ele>1736.9</ele>
        <time>2026-08-05T09:57:07Z</time>
      </trkpt>
			<trkpt lat="44.69099" lon="6.31147">
        <ele>1737.4</ele>
        <time>2026-08-05T09:57:10Z</time>
      </trkpt>
			<trkpt lat="44.69102" lon="6.31142">
        <ele>1737.7</ele>
        <time>2026-08-05T09:57:11Z</time>
      </trkpt>
			<trkpt lat="44.69106" lon="6.3114">
        <ele>1737.9</ele>
        <time>2026-08-05T09:57:12Z</time>
      </trkpt>
			<trkpt lat="44.69111" lon="6.31141">
        <ele>1738.3</ele>
        <time>2026-08-05T09:57:14Z</time>
      </trkpt>
			<trkpt lat="44.69114" lon="6.31144">
        <ele>1738.5</ele>
        <time>2026-08-05T09:57:15Z</time>
      </trkpt>
			<trkpt lat="44.69116" lon="6.31149">
        <ele>1738.8</ele>
        <time>2026-08-05T09:57:16Z</time>
      </trkpt>
			<trkpt lat="44.69118" lon="6.31159">
        <ele>1739.2</ele>
        <time>2026-08-05T09:57:18Z</time>
      </trkpt>
			<trkpt lat="44.69119" lon="6.31177">
        <ele>1740.1</ele>
        <time>2026-08-05T09:57:22Z</time>
      </trkpt>
			<trkpt lat="44.69123" lon="6.31194">
        <ele>1741</ele>
        <time>2026-08-05T09:57:26Z</time>
      </trkpt>
			<trkpt lat="44.69127" lon="6.31208">
        <ele>1741.7</ele>
        <time>2026-08-05T09:57:30Z</time>
      </trkpt>
			<trkpt lat="44.69134" lon="6.31226">
        <ele>1742.8</ele>
        <time>2026-08-05T09:57:34Z</time>
      </trkpt>
			<trkpt lat="44.69157" lon="6.31278">
        <ele>1746.6</ele>
        <time>2026-08-05T09:57:52Z</time>
      </trkpt>
			<trkpt lat="44.6918" lon="6.31331">
        <ele>1750.9</ele>
        <time>2026-08-05T09:58:12Z</time>
      </trkpt>
			<trkpt lat="44.6919" lon="6.31349">
        <ele>1752.5</ele>
        <time>2026-08-05T09:58:19Z</time>
      </trkpt>
			<trkpt lat="44.69211" lon="6.31374">
        <ele>1755.4</ele>
        <time>2026-08-05T09:58:31Z</time>
      </trkpt>
			<trkpt lat="44.69224" lon="6.31392">
        <ele>1757.4</ele>
        <time>2026-08-05T09:58:40Z</time>
      </trkpt>
			<trkpt lat="44.69232" lon="6.31405">
        <ele>1758.7</ele>
        <time>2026-08-05T09:58:46Z</time>
      </trkpt>
			<trkpt lat="44.69239" lon="6.3142">
        <ele>1760</ele>
        <time>2026-08-05T09:58:52Z</time>
      </trkpt>
			<trkpt lat="44.69254" lon="6.31478">
        <ele>1764.5</ele>
        <time>2026-08-05T09:59:11Z</time>
      </trkpt>
			<trkpt lat="44.69262" lon="6.31496">
        <ele>1766</ele>
        <time>2026-08-05T09:59:18Z</time>
      </trkpt>
			<trkpt lat="44.69268" lon="6.31508">
        <ele>1767</ele>
        <time>2026-08-05T09:59:23Z</time>
      </trkpt>
			<trkpt lat="44.69296" lon="6.31557">
        <ele>1770.8</ele>
        <time>2026-08-05T09:59:41Z</time>
      </trkpt>
			<trkpt lat="44.69302" lon="6.31573">
        <ele>1771.8</ele>
        <time>2026-08-05T09:59:45Z</time>
      </trkpt>
			<trkpt lat="44.69306" lon="6.31587">
        <ele>1772.7</ele>
        <time>2026-08-05T09:59:49Z</time>
      </trkpt>
			<trkpt lat="44.69308" lon="6.31602">
        <ele>1773.5</ele>
        <time>2026-08-05T09:59:53Z</time>
      </trkpt>
			<trkpt lat="44.69311" lon="6.31648">
        <ele>1775.8</ele>
        <time>2026-08-05T10:00:03Z</time>
      </trkpt>
			<trkpt lat="44.69315" lon="6.31669">
        <ele>1776.9</ele>
        <time>2026-08-05T10:00:08Z</time>
      </trkpt>
			<trkpt lat="44.69319" lon="6.3168">
        <ele>1777.5</ele>
        <time>2026-08-05T10:00:10Z</time>
      </trkpt>
			<trkpt lat="44.69332" lon="6.31705">
        <ele>1779.1</ele>
        <time>2026-08-05T10:00:18Z</time>
      </trkpt>
			<trkpt lat="44.69336" lon="6.31715">
        <ele>1779.6</ele>
        <time>2026-08-05T10:00:20Z</time>
      </trkpt>
			<trkpt lat="44.69338" lon="6.31724">
        <ele>1780.1</ele>
        <time>2026-08-05T10:00:23Z</time>
      </trkpt>
			<trkpt lat="44.6934" lon="6.31771">
        <ele>1782.3</ele>
        <time>2026-08-05T10:00:33Z</time>
      </trkpt>
			<trkpt lat="44.69345" lon="6.3181">
        <ele>1784.3</ele>
        <time>2026-08-05T10:00:42Z</time>
      </trkpt>
			<trkpt lat="44.69349" lon="6.3185">
        <ele>1786.2</ele>
        <time>2026-08-05T10:00:50Z</time>
      </trkpt>
			<trkpt lat="44.69353" lon="6.31911">
        <ele>1789.2</ele>
        <time>2026-08-05T10:01:04Z</time>
      </trkpt>
			<trkpt lat="44.69355" lon="6.31928">
        <ele>1790</ele>
        <time>2026-08-05T10:01:08Z</time>
      </trkpt>
			<trkpt lat="44.69369" lon="6.31988">
        <ele>1793</ele>
        <time>2026-08-05T10:01:21Z</time>
      </trkpt>
			<trkpt lat="44.69375" lon="6.32015">
        <ele>1794.3</ele>
        <time>2026-08-05T10:01:28Z</time>
      </trkpt>
			<trkpt lat="44.69382" lon="6.32038">
        <ele>1795.5</ele>
        <time>2026-08-05T10:01:33Z</time>
      </trkpt>
			<trkpt lat="44.69388" lon="6.3205">
        <ele>1796.1</ele>
        <time>2026-08-05T10:01:36Z</time>
      </trkpt>
			<trkpt lat="44.69395" lon="6.32061">
        <ele>1796.8</ele>
        <time>2026-08-05T10:01:39Z</time>
      </trkpt>
			<trkpt lat="44.69412" lon="6.32081">
        <ele>1798.2</ele>
        <time>2026-08-05T10:01:46Z</time>
      </trkpt>
			<trkpt lat="44.69449" lon="6.32101">
        <ele>1800.7</ele>
        <time>2026-08-05T10:01:58Z</time>
      </trkpt>
			<trkpt lat="44.69486" lon="6.32122">
        <ele>1803</ele>
        <time>2026-08-05T10:02:10Z</time>
      </trkpt>
			<trkpt lat="44.69493" lon="6.32128">
        <ele>1803.4</ele>
        <time>2026-08-05T10:02:12Z</time>
      </trkpt>
			<trkpt lat="44.69501" lon="6.32137">
        <ele>1804</ele>
        <time>2026-08-05T10:02:15Z</time>
      </trkpt>
			<trkpt lat="44.69513" lon="6.32153">
        <ele>1804.9</ele>
        <time>2026-08-05T10:02:19Z</time>
      </trkpt>
			<trkpt lat="44.69525" lon="6.32169">
        <ele>1805.7</ele>
        <time>2026-08-05T10:02:24Z</time>
      </trkpt>
			<trkpt lat="44.6955" lon="6.32192">
        <ele>1807.1</ele>
        <time>2026-08-05T10:02:31Z</time>
      </trkpt>
			<trkpt lat="44.69563" lon="6.32206">
        <ele>1807.9</ele>
        <time>2026-08-05T10:02:35Z</time>
      </trkpt>
			<trkpt lat="44.69584" lon="6.32235">
        <ele>1809</ele>
        <time>2026-08-05T10:02:42Z</time>
      </trkpt>
			<trkpt lat="44.69591" lon="6.32246">
        <ele>1809.4</ele>
        <time>2026-08-05T10:02:44Z</time>
      </trkpt>
			<trkpt lat="44.69602" lon="6.32269">
        <ele>1810</ele>
        <time>2026-08-05T10:02:48Z</time>
      </trkpt>
			<trkpt lat="44.69617" lon="6.32301">
        <ele>1810.8</ele>
        <time>2026-08-05T10:02:54Z</time>
      </trkpt>
			<trkpt lat="44.69632" lon="6.32333">
        <ele>1811.5</ele>
        <time>2026-08-05T10:03:00Z</time>
      </trkpt>
			<trkpt lat="44.69661" lon="6.32314">
        <ele>1812.1</ele>
        <time>2026-08-05T10:03:06Z</time>
      </trkpt>
			<trkpt lat="44.69667" lon="6.3231">
        <ele>1812.2</ele>
        <time>2026-08-05T10:03:07Z</time>
      </trkpt>
			<trkpt lat="44.69673" lon="6.32299">
        <ele>1812.4</ele>
        <time>2026-08-05T10:03:09Z</time>
      </trkpt>
			<trkpt lat="44.69676" lon="6.3229">
        <ele>1812.5</ele>
        <time>2026-08-05T10:03:10Z</time>
      </trkpt>
			<trkpt lat="44.69676" lon="6.32281">
        <ele>1812.6</ele>
        <time>2026-08-05T10:03:11Z</time>
      </trkpt>
			<trkpt lat="44.69675" lon="6.32272">
        <ele>1812.7</ele>
        <time>2026-08-05T10:03:12Z</time>
      </trkpt>
			<trkpt lat="44.69672" lon="6.32263">
        <ele>1812.8</ele>
        <time>2026-08-05T10:03:13Z</time>
      </trkpt>
			<trkpt lat="44.69652" lon="6.32229">
        <ele>1813.1</ele>
        <time>2026-08-05T10:03:19Z</time>
      </trkpt>
			<trkpt lat="44.69649" lon="6.32235">
        <ele>1813.2</ele>
        <time>2026-08-05T10:03:20Z</time>
      </trkpt>
			<trkpt lat="44.69667" lon="6.32265">
        <ele>1813.5</ele>
        <time>2026-08-05T10:03:25Z</time>
      </trkpt>
			<trkpt lat="44.69668" lon="6.32269">
        <ele>1813.5</ele>
        <time>2026-08-05T10:03:25Z</time>
      </trkpt>
			<trkpt lat="44.6967" lon="6.32273">
        <ele>1813.5</ele>
        <time>2026-08-05T10:03:26Z</time>
      </trkpt>
			<trkpt lat="44.6967" lon="6.3228">
        <ele>1813.6</ele>
        <time>2026-08-05T10:03:27Z</time>
      </trkpt>
			<trkpt lat="44.6967" lon="6.32286">
        <ele>1813.6</ele>
        <time>2026-08-05T10:03:27Z</time>
      </trkpt>
			<trkpt lat="44.69667" lon="6.32295">
        <ele>1813.7</ele>
        <time>2026-08-05T10:03:29Z</time>
      </trkpt>
			<trkpt lat="44.69663" lon="6.32303">
        <ele>1813.7</ele>
        <time>2026-08-05T10:03:30Z</time>
      </trkpt>
			<trkpt lat="44.69658" lon="6.32309">
        <ele>1813.8</ele>
        <time>2026-08-05T10:03:31Z</time>
      </trkpt>
			<trkpt lat="44.6964" lon="6.32319">
        <ele>1814</ele>
        <time>2026-08-05T10:03:34Z</time>
      </trkpt>
			<trkpt lat="44.69642" lon="6.32326">
        <ele>1814</ele>
        <time>2026-08-05T10:03:35Z</time>
      </trkpt>
			<trkpt lat="44.69661" lon="6.32314">
        <ele>1814.2</ele>
        <time>2026-08-05T10:03:38Z</time>
      </trkpt>
			<trkpt lat="44.69667" lon="6.3231">
        <ele>1814.2</ele>
        <time>2026-08-05T10:03:39Z</time>
      </trkpt>
			<trkpt lat="44.69673" lon="6.32299">
        <ele>1814.3</ele>
        <time>2026-08-05T10:03:41Z</time>
      </trkpt>
			<trkpt lat="44.69676" lon="6.3229">
        <ele>1814.4</ele>
        <time>2026-08-05T10:03:42Z</time>
      </trkpt>
			<trkpt lat="44.69676" lon="6.32281">
        <ele>1814.4</ele>
        <time>2026-08-05T10:03:43Z</time>
      </trkpt>
			<trkpt lat="44.69675" lon="6.32272">
        <ele>1814.5</ele>
        <time>2026-08-05T10:03:44Z</time>
      </trkpt>
			<trkpt lat="44.69672" lon="6.32263">
        <ele>1814.5</ele>
        <time>2026-08-05T10:03:46Z</time>
      </trkpt>
			<trkpt lat="44.69649" lon="6.32225">
        <ele>1814.9</ele>
        <time>2026-08-05T10:03:52Z</time>
      </trkpt>
			<trkpt lat="44.69643" lon="6.32211">
        <ele>1815</ele>
        <time>2026-08-05T10:03:54Z</time>
      </trkpt>
			<trkpt lat="44.69643" lon="6.32203">
        <ele>1815</ele>
        <time>2026-08-05T10:03:55Z</time>
      </trkpt>
			<trkpt lat="44.69645" lon="6.32199">
        <ele>1815.1</ele>
        <time>2026-08-05T10:03:55Z</time>
      </trkpt>
			<trkpt lat="44.69649" lon="6.32192">
        <ele>1815.1</ele>
        <time>2026-08-05T10:03:56Z</time>
      </trkpt>
			<trkpt lat="44.6962" lon="6.32159">
        <ele>1815.5</ele>
        <time>2026-08-05T10:04:03Z</time>
      </trkpt>
			<trkpt lat="44.6959" lon="6.32125">
        <ele>1815.9</ele>
        <time>2026-08-05T10:04:09Z</time>
      </trkpt>
			<trkpt lat="44.69561" lon="6.32092">
        <ele>1816.3</ele>
        <time>2026-08-05T10:04:16Z</time>
      </trkpt>
			<trkpt lat="44.69555" lon="6.32087">
        <ele>1816.4</ele>
        <time>2026-08-05T10:04:17Z</time>
      </trkpt>
			<trkpt lat="44.69548" lon="6.32084">
        <ele>1816.5</ele>
        <time>2026-08-05T10:04:18Z</time>
      </trkpt>
			<trkpt lat="44.69541" lon="6.32085">
        <ele>1816.5</ele>
        <time>2026-08-05T10:04:20Z</time>
      </trkpt>
		</trkseg>
	</trk>
</gpx>
