<?xml version="1.0" encoding="UTF-8"?>
<gpx creator="Wikiloc - https://www.wikiloc.com" version="1.1" xmlns="http://www.topografix.com/GPX/1/1" xmlns:xsi="http://www.w3.org/2001/XMLSchema-instance" xsi:schemaLocation="http://www.topografix.com/GPX/1/1 http://www.topografix.com/GPX/1/1/gpx.xsd">
  <metadata>
    <name>Wikiloc - PASSO GIAU (por Selva di Cadore)</name>
    <link href="https://www.wikiloc.com/cycling-trails/passo-giau-por-selva-di-cadore-266807099">
      <text>PASSO GIAU (por Selva di Cadore) - Wikiloc on Wikiloc</text>
    </link>
    <time>2026-07-16T10:13:20.080Z</time>
  </metadata>
  <trk>
    <name>PASSO GIAU (por Selva di Cadore) - Wikiloc</name>
    <cmt></cmt>
    <desc></desc>
    <trkseg>
      <trkpt lat="46.456290" lon="12.031620">
        <ele>1315.973</ele>
        <time>2026-07-16T10:13:20.078Z</time>
      </trkpt>
      <trkpt lat="46.456530" lon="12.031500">
        <ele>1315.085</ele>
        <time>2026-07-16T10:13:40.078Z</time>
      </trkpt>
      <trkpt lat="46.456760" lon="12.031470">
        <ele>1316.313</ele>
        <time>2026-07-16T10:14:00.078Z</time>
      </trkpt>
      <trkpt lat="46.457150" lon="12.031550">
        <ele>1321.609</ele>
        <time>2026-07-16T10:14:20.078Z</time>
      </trkpt>
      <trkpt lat="46.458030" lon="12.031920">
        <ele>1331.699</ele>
        <time>2026-07-16T10:14:40.078Z</time>
      </trkpt>
      <trkpt lat="46.458470" lon="12.031980">
        <ele>1338.953</ele>
        <time>2026-07-16T10:15:00.078Z</time>
      </trkpt>
      <trkpt lat="46.458590" lon="12.032010">
        <ele>1340.353</ele>
        <time>2026-07-16T10:15:20.078Z</time>
      </trkpt>
      <trkpt lat="46.458720" lon="12.032000">
        <ele>1341.325</ele>
        <time>2026-07-16T10:15:40.078Z</time>
      </trkpt>
      <trkpt lat="46.458790" lon="12.031930">
        <ele>1339.647</ele>
        <time>2026-07-16T10:16:00.078Z</time>
      </trkpt>
      <trkpt lat="46.458960" lon="12.031590">
        <ele>1337.184</ele>
        <time>2026-07-16T10:16:20.078Z</time>
      </trkpt>
      <trkpt lat="46.459050" lon="12.031530">
        <ele>1340.377</ele>
        <time>2026-07-16T10:16:40.078Z</time>
      </trkpt>
      <trkpt lat="46.459140" lon="12.031520">
        <ele>1342.336</ele>
        <time>2026-07-16T10:17:00.078Z</time>
      </trkpt>
      <trkpt lat="46.459330" lon="12.031610">
        <ele>1342.256</ele>
        <time>2026-07-16T10:17:20.078Z</time>
      </trkpt>
      <trkpt lat="46.459730" lon="12.031660">
        <ele>1345.462</ele>
        <time>2026-07-16T10:17:40.078Z</time>
      </trkpt>
      <trkpt lat="46.460010" lon="12.031660">
        <ele>1349.683</ele>
        <time>2026-07-16T10:18:00.078Z</time>
      </trkpt>
      <trkpt lat="46.460150" lon="12.031730">
        <ele>1352.911</ele>
        <time>2026-07-16T10:18:20.078Z</time>
      </trkpt>
      <trkpt lat="46.460340" lon="12.031890">
        <ele>1354.909</ele>
        <time>2026-07-16T10:18:40.078Z</time>
      </trkpt>
      <trkpt lat="46.460490" lon="12.031930">
        <ele>1356.418</ele>
        <time>2026-07-16T10:19:00.078Z</time>
      </trkpt>
      <trkpt lat="46.460650" lon="12.031940">
        <ele>1358.232</ele>
        <time>2026-07-16T10:19:20.078Z</time>
      </trkpt>
      <trkpt lat="46.461040" lon="12.031770">
        <ele>1364.352</ele>
        <time>2026-07-16T10:19:40.078Z</time>
      </trkpt>
      <trkpt lat="46.461290" lon="12.031740">
        <ele>1366.544</ele>
        <time>2026-07-16T10:20:00.078Z</time>
      </trkpt>
      <trkpt lat="46.461570" lon="12.031820">
        <ele>1369.896</ele>
        <time>2026-07-16T10:20:20.078Z</time>
      </trkpt>
      <trkpt lat="46.461710" lon="12.031820">
        <ele>1372.163</ele>
        <time>2026-07-16T10:20:40.078Z</time>
      </trkpt>
      <trkpt lat="46.462970" lon="12.031160">
        <ele>1392.086</ele>
        <time>2026-07-16T10:21:00.078Z</time>
      </trkpt>
      <trkpt lat="46.464070" lon="12.030830">
        <ele>1404.145</ele>
        <time>2026-07-16T10:21:20.078Z</time>
      </trkpt>
      <trkpt lat="46.464190" lon="12.030780">
        <ele>1405.885</ele>
        <time>2026-07-16T10:21:40.078Z</time>
      </trkpt>
      <trkpt lat="46.464720" lon="12.030370">
        <ele>1413.796</ele>
        <time>2026-07-16T10:22:00.078Z</time>
      </trkpt>
      <trkpt lat="46.465420" lon="12.030180">
        <ele>1422.031</ele>
        <time>2026-07-16T10:22:20.078Z</time>
      </trkpt>
      <trkpt lat="46.465670" lon="12.030000">
        <ele>1426.424</ele>
        <time>2026-07-16T10:22:40.078Z</time>
      </trkpt>
      <trkpt lat="46.465800" lon="12.029950">
        <ele>1428.409</ele>
        <time>2026-07-16T10:23:00.078Z</time>
      </trkpt>
      <trkpt lat="46.465900" lon="12.029990">
        <ele>1428.971</ele>
        <time>2026-07-16T10:23:20.078Z</time>
      </trkpt>
      <trkpt lat="46.466210" lon="12.030280">
        <ele>1431.855</ele>
        <time>2026-07-16T10:23:40.078Z</time>
      </trkpt>
      <trkpt lat="46.466320" lon="12.030330">
        <ele>1433.775</ele>
        <time>2026-07-16T10:24:00.078Z</time>
      </trkpt>
      <trkpt lat="46.466370" lon="12.030290">
        <ele>1434.627</ele>
        <time>2026-07-16T10:24:20.078Z</time>
      </trkpt>
      <trkpt lat="46.466380" lon="12.030180">
        <ele>1435.979</ele>
        <time>2026-07-16T10:24:40.078Z</time>
      </trkpt>
      <trkpt lat="46.466280" lon="12.029990">
        <ele>1436.616</ele>
        <time>2026-07-16T10:25:00.078Z</time>
      </trkpt>
      <trkpt lat="46.466260" lon="12.029860">
        <ele>1438.779</ele>
        <time>2026-07-16T10:25:20.078Z</time>
      </trkpt>
      <trkpt lat="46.466310" lon="12.029760">
        <ele>1441.698</ele>
        <time>2026-07-16T10:25:40.078Z</time>
      </trkpt>
      <trkpt lat="46.466400" lon="12.029760">
        <ele>1443.318</ele>
        <time>2026-07-16T10:26:00.078Z</time>
      </trkpt>
      <trkpt lat="46.466580" lon="12.029910">
        <ele>1442.985</ele>
        <time>2026-07-16T10:26:20.078Z</time>
      </trkpt>
      <trkpt lat="46.466710" lon="12.029980">
        <ele>1444.289</ele>
        <time>2026-07-16T10:26:40.078Z</time>
      </trkpt>
      <trkpt lat="46.466860" lon="12.029970">
        <ele>1447.517</ele>
        <time>2026-07-16T10:27:00.078Z</time>
      </trkpt>
      <trkpt lat="46.467320" lon="12.029870">
        <ele>1456.609</ele>
        <time>2026-07-16T10:27:20.078Z</time>
      </trkpt>
      <trkpt lat="46.467430" lon="12.029930">
        <ele>1456.750</ele>
        <time>2026-07-16T10:27:40.078Z</time>
      </trkpt>
      <trkpt lat="46.467510" lon="12.030040">
        <ele>1455.754</ele>
        <time>2026-07-16T10:28:00.078Z</time>
      </trkpt>
      <trkpt lat="46.467580" lon="12.030560">
        <ele>1456.844</ele>
        <time>2026-07-16T10:28:20.079Z</time>
      </trkpt>
      <trkpt lat="46.467550" lon="12.030670">
        <ele>1458.826</ele>
        <time>2026-07-16T10:28:40.079Z</time>
      </trkpt>
      <trkpt lat="46.467360" lon="12.030860">
        <ele>1460.128</ele>
        <time>2026-07-16T10:29:00.079Z</time>
      </trkpt>
      <trkpt lat="46.467060" lon="12.031280">
        <ele>1463.095</ele>
        <time>2026-07-16T10:29:20.079Z</time>
      </trkpt>
      <trkpt lat="46.466780" lon="12.031760">
        <ele>1465.118</ele>
        <time>2026-07-16T10:29:40.079Z</time>
      </trkpt>
      <trkpt lat="46.466720" lon="12.031910">
        <ele>1467.797</ele>
        <time>2026-07-16T10:30:00.079Z</time>
      </trkpt>
      <trkpt lat="46.466680" lon="12.032020">
        <ele>1470.097</ele>
        <time>2026-07-16T10:30:20.079Z</time>
      </trkpt>
      <trkpt lat="46.466680" lon="12.032170">
        <ele>1473.728</ele>
        <time>2026-07-16T10:30:40.079Z</time>
      </trkpt>
      <trkpt lat="46.466750" lon="12.032230">
        <ele>1475.589</ele>
        <time>2026-07-16T10:31:00.079Z</time>
      </trkpt>
      <trkpt lat="46.466860" lon="12.032240">
        <ele>1476.217</ele>
        <time>2026-07-16T10:31:20.079Z</time>
      </trkpt>
      <trkpt lat="46.467670" lon="12.031630">
        <ele>1478.609</ele>
        <time>2026-07-16T10:31:40.079Z</time>
      </trkpt>
      <trkpt lat="46.468460" lon="12.031530">
        <ele>1488.624</ele>
        <time>2026-07-16T10:32:00.079Z</time>
      </trkpt>
      <trkpt lat="46.469630" lon="12.031930">
        <ele>1508.028</ele>
        <time>2026-07-16T10:32:20.079Z</time>
      </trkpt>
      <trkpt lat="46.469800" lon="12.032040">
        <ele>1511.278</ele>
        <time>2026-07-16T10:32:40.079Z</time>
      </trkpt>
      <trkpt lat="46.470000" lon="12.032220">
        <ele>1513.990</ele>
        <time>2026-07-16T10:33:00.079Z</time>
      </trkpt>
      <trkpt lat="46.470170" lon="12.032200">
        <ele>1511.162</ele>
        <time>2026-07-16T10:33:20.079Z</time>
      </trkpt>
      <trkpt lat="46.470450" lon="12.032030">
        <ele>1513.339</ele>
        <time>2026-07-16T10:33:40.079Z</time>
      </trkpt>
      <trkpt lat="46.470520" lon="12.031740">
        <ele>1512.022</ele>
        <time>2026-07-16T10:34:00.079Z</time>
      </trkpt>
      <trkpt lat="46.470560" lon="12.031450">
        <ele>1512.131</ele>
        <time>2026-07-16T10:34:20.079Z</time>
      </trkpt>
      <trkpt lat="46.470610" lon="12.031220">
        <ele>1514.341</ele>
        <time>2026-07-16T10:34:40.079Z</time>
      </trkpt>
      <trkpt lat="46.470700" lon="12.031210">
        <ele>1517.176</ele>
        <time>2026-07-16T10:35:00.079Z</time>
      </trkpt>
      <trkpt lat="46.470760" lon="12.031290">
        <ele>1518.590</ele>
        <time>2026-07-16T10:35:20.079Z</time>
      </trkpt>
      <trkpt lat="46.470770" lon="12.031470">
        <ele>1518.619</ele>
        <time>2026-07-16T10:35:40.079Z</time>
      </trkpt>
      <trkpt lat="46.470720" lon="12.031910">
        <ele>1522.509</ele>
        <time>2026-07-16T10:36:00.079Z</time>
      </trkpt>
      <trkpt lat="46.470640" lon="12.032230">
        <ele>1521.289</ele>
        <time>2026-07-16T10:36:20.079Z</time>
      </trkpt>
      <trkpt lat="46.470710" lon="12.032410">
        <ele>1520.483</ele>
        <time>2026-07-16T10:36:40.079Z</time>
      </trkpt>
      <trkpt lat="46.470820" lon="12.032540">
        <ele>1522.043</ele>
        <time>2026-07-16T10:37:00.079Z</time>
      </trkpt>
      <trkpt lat="46.470930" lon="12.032610">
        <ele>1523.515</ele>
        <time>2026-07-16T10:37:20.079Z</time>
      </trkpt>
      <trkpt lat="46.471000" lon="12.032560">
        <ele>1525.757</ele>
        <time>2026-07-16T10:37:40.079Z</time>
      </trkpt>
      <trkpt lat="46.470960" lon="12.032410">
        <ele>1527.574</ele>
        <time>2026-07-16T10:38:00.079Z</time>
      </trkpt>
      <trkpt lat="46.470870" lon="12.032230">
        <ele>1529.577</ele>
        <time>2026-07-16T10:38:20.079Z</time>
      </trkpt>
      <trkpt lat="46.470890" lon="12.032120">
        <ele>1530.086</ele>
        <time>2026-07-16T10:38:40.079Z</time>
      </trkpt>
      <trkpt lat="46.470980" lon="12.031940">
        <ele>1532.796</ele>
        <time>2026-07-16T10:39:00.079Z</time>
      </trkpt>
      <trkpt lat="46.471170" lon="12.031470">
        <ele>1537.458</ele>
        <time>2026-07-16T10:39:20.079Z</time>
      </trkpt>
      <trkpt lat="46.471200" lon="12.031090">
        <ele>1539.452</ele>
        <time>2026-07-16T10:39:40.079Z</time>
      </trkpt>
      <trkpt lat="46.471100" lon="12.030730">
        <ele>1540.917</ele>
        <time>2026-07-16T10:40:00.079Z</time>
      </trkpt>
      <trkpt lat="46.470810" lon="12.030290">
        <ele>1542.509</ele>
        <time>2026-07-16T10:40:20.079Z</time>
      </trkpt>
      <trkpt lat="46.470470" lon="12.030020">
        <ele>1535.497</ele>
        <time>2026-07-16T10:40:40.079Z</time>
      </trkpt>
      <trkpt lat="46.470410" lon="12.029880">
        <ele>1535.011</ele>
        <time>2026-07-16T10:41:00.079Z</time>
      </trkpt>
      <trkpt lat="46.470400" lon="12.029800">
        <ele>1536.161</ele>
        <time>2026-07-16T10:41:20.079Z</time>
      </trkpt>
      <trkpt lat="46.470480" lon="12.029740">
        <ele>1541.243</ele>
        <time>2026-07-16T10:41:40.079Z</time>
      </trkpt>
      <trkpt lat="46.470550" lon="12.029780">
        <ele>1543.965</ele>
        <time>2026-07-16T10:42:00.079Z</time>
      </trkpt>
      <trkpt lat="46.470800" lon="12.029990">
        <ele>1553.552</ele>
        <time>2026-07-16T10:42:20.079Z</time>
      </trkpt>
      <trkpt lat="46.471050" lon="12.030100">
        <ele>1559.255</ele>
        <time>2026-07-16T10:42:40.079Z</time>
      </trkpt>
      <trkpt lat="46.471410" lon="12.030370">
        <ele>1564.824</ele>
        <time>2026-07-16T10:43:00.079Z</time>
      </trkpt>
      <trkpt lat="46.471500" lon="12.030500">
        <ele>1566.944</ele>
        <time>2026-07-16T10:43:20.079Z</time>
      </trkpt>
      <trkpt lat="46.471550" lon="12.030630">
        <ele>1567.624</ele>
        <time>2026-07-16T10:43:40.079Z</time>
      </trkpt>
      <trkpt lat="46.471590" lon="12.030860">
        <ele>1567.004</ele>
        <time>2026-07-16T10:44:00.079Z</time>
      </trkpt>
      <trkpt lat="46.471640" lon="12.031260">
        <ele>1568.314</ele>
        <time>2026-07-16T10:44:20.079Z</time>
      </trkpt>
      <trkpt lat="46.471670" lon="12.031610">
        <ele>1570.009</ele>
        <time>2026-07-16T10:44:40.079Z</time>
      </trkpt>
      <trkpt lat="46.471700" lon="12.031700">
        <ele>1569.734</ele>
        <time>2026-07-16T10:45:00.079Z</time>
      </trkpt>
      <trkpt lat="46.471780" lon="12.031700">
        <ele>1570.588</ele>
        <time>2026-07-16T10:45:20.079Z</time>
      </trkpt>
      <trkpt lat="46.471980" lon="12.031350">
        <ele>1578.688</ele>
        <time>2026-07-16T10:45:40.079Z</time>
      </trkpt>
      <trkpt lat="46.472190" lon="12.031160">
        <ele>1582.690</ele>
        <time>2026-07-16T10:46:00.079Z</time>
      </trkpt>
      <trkpt lat="46.472410" lon="12.031060">
        <ele>1584.242</ele>
        <time>2026-07-16T10:46:20.079Z</time>
      </trkpt>
      <trkpt lat="46.474470" lon="12.030680">
        <ele>1611.279</ele>
        <time>2026-07-16T10:46:40.079Z</time>
      </trkpt>
      <trkpt lat="46.474600" lon="12.030730">
        <ele>1612.332</ele>
        <time>2026-07-16T10:47:00.079Z</time>
      </trkpt>
      <trkpt lat="46.474660" lon="12.030860">
        <ele>1610.841</ele>
        <time>2026-07-16T10:47:20.079Z</time>
      </trkpt>
      <trkpt lat="46.474760" lon="12.031220">
        <ele>1611.921</ele>
        <time>2026-07-16T10:47:40.079Z</time>
      </trkpt>
      <trkpt lat="46.474800" lon="12.031420">
        <ele>1614.735</ele>
        <time>2026-07-16T10:48:00.079Z</time>
      </trkpt>
      <trkpt lat="46.474750" lon="12.031790">
        <ele>1618.686</ele>
        <time>2026-07-16T10:48:20.079Z</time>
      </trkpt>
      <trkpt lat="46.474770" lon="12.031940">
        <ele>1620.314</ele>
        <time>2026-07-16T10:48:40.079Z</time>
      </trkpt>
      <trkpt lat="46.474820" lon="12.031980">
        <ele>1622.109</ele>
        <time>2026-07-16T10:49:00.079Z</time>
      </trkpt>
      <trkpt lat="46.474910" lon="12.031970">
        <ele>1624.635</ele>
        <time>2026-07-16T10:49:20.079Z</time>
      </trkpt>
      <trkpt lat="46.475010" lon="12.031770">
        <ele>1624.849</ele>
        <time>2026-07-16T10:49:40.079Z</time>
      </trkpt>
      <trkpt lat="46.475180" lon="12.031320">
        <ele>1626.189</ele>
        <time>2026-07-16T10:50:00.079Z</time>
      </trkpt>
      <trkpt lat="46.475260" lon="12.031080">
        <ele>1628.261</ele>
        <time>2026-07-16T10:50:20.079Z</time>
      </trkpt>
      <trkpt lat="46.475330" lon="12.031000">
        <ele>1630.793</ele>
        <time>2026-07-16T10:50:40.079Z</time>
      </trkpt>
      <trkpt lat="46.475410" lon="12.031040">
        <ele>1634.020</ele>
        <time>2026-07-16T10:51:00.079Z</time>
      </trkpt>
      <trkpt lat="46.475430" lon="12.031170">
        <ele>1635.473</ele>
        <time>2026-07-16T10:51:20.079Z</time>
      </trkpt>
      <trkpt lat="46.475410" lon="12.031370">
        <ele>1635.632</ele>
        <time>2026-07-16T10:51:40.079Z</time>
      </trkpt>
      <trkpt lat="46.475300" lon="12.031840">
        <ele>1636.012</ele>
        <time>2026-07-16T10:52:00.079Z</time>
      </trkpt>
      <trkpt lat="46.475180" lon="12.032810">
        <ele>1645.845</ele>
        <time>2026-07-16T10:52:20.079Z</time>
      </trkpt>
      <trkpt lat="46.475140" lon="12.032980">
        <ele>1650.247</ele>
        <time>2026-07-16T10:52:40.079Z</time>
      </trkpt>
      <trkpt lat="46.475070" lon="12.033030">
        <ele>1650.911</ele>
        <time>2026-07-16T10:53:00.079Z</time>
      </trkpt>
      <trkpt lat="46.474750" lon="12.033020">
        <ele>1652.209</ele>
        <time>2026-07-16T10:53:20.079Z</time>
      </trkpt>
      <trkpt lat="46.474660" lon="12.033100">
        <ele>1653.996</ele>
        <time>2026-07-16T10:53:40.079Z</time>
      </trkpt>
      <trkpt lat="46.474610" lon="12.033270">
        <ele>1657.150</ele>
        <time>2026-07-16T10:54:00.079Z</time>
      </trkpt>
      <trkpt lat="46.474600" lon="12.033910">
        <ele>1657.720</ele>
        <time>2026-07-16T10:54:20.079Z</time>
      </trkpt>
      <trkpt lat="46.474710" lon="12.034110">
        <ele>1657.732</ele>
        <time>2026-07-16T10:54:40.079Z</time>
      </trkpt>
      <trkpt lat="46.475130" lon="12.034550">
        <ele>1666.334</ele>
        <time>2026-07-16T10:55:00.079Z</time>
      </trkpt>
      <trkpt lat="46.475190" lon="12.034720">
        <ele>1666.661</ele>
        <time>2026-07-16T10:55:20.079Z</time>
      </trkpt>
      <trkpt lat="46.475230" lon="12.034980">
        <ele>1667.844</ele>
        <time>2026-07-16T10:55:40.079Z</time>
      </trkpt>
      <trkpt lat="46.475240" lon="12.035470">
        <ele>1679.473</ele>
        <time>2026-07-16T10:56:00.079Z</time>
      </trkpt>
      <trkpt lat="46.475200" lon="12.035640">
        <ele>1680.793</ele>
        <time>2026-07-16T10:56:20.079Z</time>
      </trkpt>
      <trkpt lat="46.475070" lon="12.035980">
        <ele>1675.848</ele>
        <time>2026-07-16T10:56:40.079Z</time>
      </trkpt>
      <trkpt lat="46.475060" lon="12.036170">
        <ele>1675.261</ele>
        <time>2026-07-16T10:57:00.079Z</time>
      </trkpt>
      <trkpt lat="46.475080" lon="12.036370">
        <ele>1675.017</ele>
        <time>2026-07-16T10:57:20.079Z</time>
      </trkpt>
      <trkpt lat="46.475190" lon="12.036590">
        <ele>1680.909</ele>
        <time>2026-07-16T10:57:40.079Z</time>
      </trkpt>
      <trkpt lat="46.475220" lon="12.036790">
        <ele>1682.616</ele>
        <time>2026-07-16T10:58:00.079Z</time>
      </trkpt>
      <trkpt lat="46.475270" lon="12.037670">
        <ele>1688.890</ele>
        <time>2026-07-16T10:58:20.079Z</time>
      </trkpt>
      <trkpt lat="46.475270" lon="12.038230">
        <ele>1692.980</ele>
        <time>2026-07-16T10:58:40.079Z</time>
      </trkpt>
      <trkpt lat="46.475180" lon="12.039030">
        <ele>1691.342</ele>
        <time>2026-07-16T10:59:00.079Z</time>
      </trkpt>
      <trkpt lat="46.475190" lon="12.039210">
        <ele>1692.724</ele>
        <time>2026-07-16T10:59:20.079Z</time>
      </trkpt>
      <trkpt lat="46.475210" lon="12.039300">
        <ele>1694.641</ele>
        <time>2026-07-16T10:59:40.079Z</time>
      </trkpt>
      <trkpt lat="46.475290" lon="12.039320">
        <ele>1698.344</ele>
        <time>2026-07-16T11:00:00.079Z</time>
      </trkpt>
      <trkpt lat="46.475360" lon="12.039230">
        <ele>1700.623</ele>
        <time>2026-07-16T11:00:20.079Z</time>
      </trkpt>
      <trkpt lat="46.475430" lon="12.038740">
        <ele>1704.063</ele>
        <time>2026-07-16T11:00:40.079Z</time>
      </trkpt>
      <trkpt lat="46.475670" lon="12.037590">
        <ele>1708.585</ele>
        <time>2026-07-16T11:01:00.079Z</time>
      </trkpt>
      <trkpt lat="46.475800" lon="12.036330">
        <ele>1715.689</ele>
        <time>2026-07-16T11:01:20.079Z</time>
      </trkpt>
      <trkpt lat="46.475850" lon="12.036070">
        <ele>1719.017</ele>
        <time>2026-07-16T11:01:40.079Z</time>
      </trkpt>
      <trkpt lat="46.475980" lon="12.035750">
        <ele>1724.509</ele>
        <time>2026-07-16T11:02:00.079Z</time>
      </trkpt>
      <trkpt lat="46.476070" lon="12.035380">
        <ele>1722.250</ele>
        <time>2026-07-16T11:02:20.079Z</time>
      </trkpt>
      <trkpt lat="46.476210" lon="12.034940">
        <ele>1726.544</ele>
        <time>2026-07-16T11:02:40.079Z</time>
      </trkpt>
      <trkpt lat="46.476230" lon="12.034770">
        <ele>1728.924</ele>
        <time>2026-07-16T11:03:00.079Z</time>
      </trkpt>
      <trkpt lat="46.476210" lon="12.034400">
        <ele>1731.386</ele>
        <time>2026-07-16T11:03:20.079Z</time>
      </trkpt>
      <trkpt lat="46.476290" lon="12.034050">
        <ele>1735.918</ele>
        <time>2026-07-16T11:03:40.079Z</time>
      </trkpt>
      <trkpt lat="46.476360" lon="12.033430">
        <ele>1738.935</ele>
        <time>2026-07-16T11:04:00.079Z</time>
      </trkpt>
      <trkpt lat="46.476490" lon="12.033190">
        <ele>1741.198</ele>
        <time>2026-07-16T11:04:20.079Z</time>
      </trkpt>
      <trkpt lat="46.476600" lon="12.033100">
        <ele>1744.097</ele>
        <time>2026-07-16T11:04:40.079Z</time>
      </trkpt>
      <trkpt lat="46.476840" lon="12.033050">
        <ele>1751.457</ele>
        <time>2026-07-16T11:05:00.079Z</time>
      </trkpt>
      <trkpt lat="46.476980" lon="12.032980">
        <ele>1755.054</ele>
        <time>2026-07-16T11:05:20.079Z</time>
      </trkpt>
      <trkpt lat="46.477140" lon="12.032780">
        <ele>1758.856</ele>
        <time>2026-07-16T11:05:40.079Z</time>
      </trkpt>
      <trkpt lat="46.477220" lon="12.032610">
        <ele>1758.411</ele>
        <time>2026-07-16T11:06:00.079Z</time>
      </trkpt>
      <trkpt lat="46.477250" lon="12.032490">
        <ele>1757.209</ele>
        <time>2026-07-16T11:06:20.079Z</time>
      </trkpt>
      <trkpt lat="46.477360" lon="12.032300">
        <ele>1762.247</ele>
        <time>2026-07-16T11:06:40.079Z</time>
      </trkpt>
      <trkpt lat="46.477670" lon="12.031960">
        <ele>1768.751</ele>
        <time>2026-07-16T11:07:00.079Z</time>
      </trkpt>
      <trkpt lat="46.477860" lon="12.031560">
        <ele>1766.431</ele>
        <time>2026-07-16T11:07:20.079Z</time>
      </trkpt>
      <trkpt lat="46.478090" lon="12.031250">
        <ele>1769.423</ele>
        <time>2026-07-16T11:07:40.079Z</time>
      </trkpt>
      <trkpt lat="46.478200" lon="12.031160">
        <ele>1769.965</ele>
        <time>2026-07-16T11:08:00.079Z</time>
      </trkpt>
      <trkpt lat="46.478250" lon="12.031130">
        <ele>1770.462</ele>
        <time>2026-07-16T11:08:20.079Z</time>
      </trkpt>
      <trkpt lat="46.478310" lon="12.031130">
        <ele>1771.955</ele>
        <time>2026-07-16T11:08:40.079Z</time>
      </trkpt>
      <trkpt lat="46.478390" lon="12.031200">
        <ele>1773.554</ele>
        <time>2026-07-16T11:09:00.079Z</time>
      </trkpt>
      <trkpt lat="46.478480" lon="12.031400">
        <ele>1776.694</ele>
        <time>2026-07-16T11:09:20.079Z</time>
      </trkpt>
      <trkpt lat="46.478620" lon="12.031620">
        <ele>1778.956</ele>
        <time>2026-07-16T11:09:40.079Z</time>
      </trkpt>
      <trkpt lat="46.478900" lon="12.031900">
        <ele>1783.959</ele>
        <time>2026-07-16T11:10:00.079Z</time>
      </trkpt>
      <trkpt lat="46.478920" lon="12.031990">
        <ele>1786.514</ele>
        <time>2026-07-16T11:10:20.079Z</time>
      </trkpt>
      <trkpt lat="46.478870" lon="12.032090">
        <ele>1789.309</ele>
        <time>2026-07-16T11:10:40.079Z</time>
      </trkpt>
      <trkpt lat="46.478810" lon="12.032100">
        <ele>1790.077</ele>
        <time>2026-07-16T11:11:00.079Z</time>
      </trkpt>
      <trkpt lat="46.478360" lon="12.031830">
        <ele>1788.761</ele>
        <time>2026-07-16T11:11:20.079Z</time>
      </trkpt>
      <trkpt lat="46.478310" lon="12.031810">
        <ele>1788.121</ele>
        <time>2026-07-16T11:11:40.079Z</time>
      </trkpt>
      <trkpt lat="46.478270" lon="12.031820">
        <ele>1787.673</ele>
        <time>2026-07-16T11:12:00.079Z</time>
      </trkpt>
      <trkpt lat="46.478210" lon="12.031900">
        <ele>1788.385</ele>
        <time>2026-07-16T11:12:20.079Z</time>
      </trkpt>
      <trkpt lat="46.478190" lon="12.032010">
        <ele>1790.352</ele>
        <time>2026-07-16T11:12:40.079Z</time>
      </trkpt>
      <trkpt lat="46.478230" lon="12.032090">
        <ele>1792.625</ele>
        <time>2026-07-16T11:13:00.079Z</time>
      </trkpt>
      <trkpt lat="46.478390" lon="12.032170">
        <ele>1794.894</ele>
        <time>2026-07-16T11:13:20.079Z</time>
      </trkpt>
      <trkpt lat="46.479060" lon="12.032640">
        <ele>1810.574</ele>
        <time>2026-07-16T11:13:40.079Z</time>
      </trkpt>
      <trkpt lat="46.479550" lon="12.032890">
        <ele>1815.492</ele>
        <time>2026-07-16T11:14:00.079Z</time>
      </trkpt>
      <trkpt lat="46.479660" lon="12.032870">
        <ele>1814.973</ele>
        <time>2026-07-16T11:14:20.079Z</time>
      </trkpt>
      <trkpt lat="46.479860" lon="12.032680">
        <ele>1813.220</ele>
        <time>2026-07-16T11:14:40.079Z</time>
      </trkpt>
      <trkpt lat="46.479900" lon="12.032660">
        <ele>1813.609</ele>
        <time>2026-07-16T11:15:00.079Z</time>
      </trkpt>
      <trkpt lat="46.480160" lon="12.032710">
        <ele>1818.941</ele>
        <time>2026-07-16T11:15:20.079Z</time>
      </trkpt>
      <trkpt lat="46.480220" lon="12.032690">
        <ele>1819.135</ele>
        <time>2026-07-16T11:15:40.079Z</time>
      </trkpt>
      <trkpt lat="46.480330" lon="12.032600">
        <ele>1819.935</ele>
        <time>2026-07-16T11:16:00.079Z</time>
      </trkpt>
      <trkpt lat="46.480460" lon="12.032440">
        <ele>1821.277</ele>
        <time>2026-07-16T11:16:20.079Z</time>
      </trkpt>
      <trkpt lat="46.480520" lon="12.032450">
        <ele>1823.199</ele>
        <time>2026-07-16T11:16:40.079Z</time>
      </trkpt>
      <trkpt lat="46.480550" lon="12.032500">
        <ele>1824.826</ele>
        <time>2026-07-16T11:17:00.079Z</time>
      </trkpt>
      <trkpt lat="46.480550" lon="12.032600">
        <ele>1826.359</ele>
        <time>2026-07-16T11:17:20.079Z</time>
      </trkpt>
      <trkpt lat="46.480520" lon="12.032660">
        <ele>1826.348</ele>
        <time>2026-07-16T11:17:40.079Z</time>
      </trkpt>
      <trkpt lat="46.480290" lon="12.033060">
        <ele>1828.418</ele>
        <time>2026-07-16T11:18:00.079Z</time>
      </trkpt>
      <trkpt lat="46.480240" lon="12.033120">
        <ele>1829.427</ele>
        <time>2026-07-16T11:18:20.079Z</time>
      </trkpt>
      <trkpt lat="46.479990" lon="12.033280">
        <ele>1831.568</ele>
        <time>2026-07-16T11:18:40.079Z</time>
      </trkpt>
      <trkpt lat="46.479960" lon="12.033350">
        <ele>1833.214</ele>
        <time>2026-07-16T11:19:00.079Z</time>
      </trkpt>
      <trkpt lat="46.479990" lon="12.033440">
        <ele>1836.809</ele>
        <time>2026-07-16T11:19:20.079Z</time>
      </trkpt>
      <trkpt lat="46.480050" lon="12.033460">
        <ele>1837.864</ele>
        <time>2026-07-16T11:19:40.079Z</time>
      </trkpt>
      <trkpt lat="46.481010" lon="12.033250">
        <ele>1843.588</ele>
        <time>2026-07-16T11:20:00.079Z</time>
      </trkpt>
      <trkpt lat="46.481120" lon="12.033290">
        <ele>1845.338</ele>
        <time>2026-07-16T11:20:20.079Z</time>
      </trkpt>
      <trkpt lat="46.481150" lon="12.033320">
        <ele>1845.970</ele>
        <time>2026-07-16T11:20:40.079Z</time>
      </trkpt>
      <trkpt lat="46.481160" lon="12.033410">
        <ele>1847.792</ele>
        <time>2026-07-16T11:21:00.079Z</time>
      </trkpt>
      <trkpt lat="46.481110" lon="12.033520">
        <ele>1849.329</ele>
        <time>2026-07-16T11:21:20.079Z</time>
      </trkpt>
      <trkpt lat="46.481050" lon="12.033570">
        <ele>1849.682</ele>
        <time>2026-07-16T11:21:40.079Z</time>
      </trkpt>
      <trkpt lat="46.480530" lon="12.033770">
        <ele>1851.851</ele>
        <time>2026-07-16T11:22:00.079Z</time>
      </trkpt>
      <trkpt lat="46.480500" lon="12.033850">
        <ele>1853.911</ele>
        <time>2026-07-16T11:22:20.079Z</time>
      </trkpt>
      <trkpt lat="46.480510" lon="12.033950">
        <ele>1858.098</ele>
        <time>2026-07-16T11:22:40.079Z</time>
      </trkpt>
      <trkpt lat="46.480590" lon="12.033990">
        <ele>1860.015</ele>
        <time>2026-07-16T11:23:00.079Z</time>
      </trkpt>
      <trkpt lat="46.481080" lon="12.034020">
        <ele>1860.326</ele>
        <time>2026-07-16T11:23:20.079Z</time>
      </trkpt>
      <trkpt lat="46.481360" lon="12.034080">
        <ele>1864.809</ele>
        <time>2026-07-16T11:23:40.079Z</time>
      </trkpt>
      <trkpt lat="46.482940" lon="12.034550">
        <ele>1886.721</ele>
        <time>2026-07-16T11:24:00.079Z</time>
      </trkpt>
      <trkpt lat="46.483350" lon="12.034580">
        <ele>1889.065</ele>
        <time>2026-07-16T11:24:20.079Z</time>
      </trkpt>
      <trkpt lat="46.483630" lon="12.034550">
        <ele>1889.715</ele>
        <time>2026-07-16T11:24:40.079Z</time>
      </trkpt>
      <trkpt lat="46.483710" lon="12.034590">
        <ele>1891.057</ele>
        <time>2026-07-16T11:25:00.079Z</time>
      </trkpt>
      <trkpt lat="46.483720" lon="12.034670">
        <ele>1893.139</ele>
        <time>2026-07-16T11:25:20.079Z</time>
      </trkpt>
      <trkpt lat="46.483680" lon="12.034730">
        <ele>1894.616</ele>
        <time>2026-07-16T11:25:40.079Z</time>
      </trkpt>
      <trkpt lat="46.483030" lon="12.034980">
        <ele>1898.329</ele>
        <time>2026-07-16T11:26:00.079Z</time>
      </trkpt>
      <trkpt lat="46.482530" lon="12.035120">
        <ele>1905.968</ele>
        <time>2026-07-16T11:26:20.079Z</time>
      </trkpt>
      <trkpt lat="46.481800" lon="12.035250">
        <ele>1907.528</ele>
        <time>2026-07-16T11:26:40.079Z</time>
      </trkpt>
      <trkpt lat="46.481780" lon="12.035280">
        <ele>1908.148</ele>
        <time>2026-07-16T11:27:00.079Z</time>
      </trkpt>
      <trkpt lat="46.481760" lon="12.035340">
        <ele>1910.161</ele>
        <time>2026-07-16T11:27:20.079Z</time>
      </trkpt>
      <trkpt lat="46.481770" lon="12.035400">
        <ele>1912.517</ele>
        <time>2026-07-16T11:27:40.079Z</time>
      </trkpt>
      <trkpt lat="46.481820" lon="12.035470">
        <ele>1916.009</ele>
        <time>2026-07-16T11:28:00.079Z</time>
      </trkpt>
      <trkpt lat="46.482910" lon="12.035540">
        <ele>1925.396</ele>
        <time>2026-07-16T11:28:20.079Z</time>
      </trkpt>
      <trkpt lat="46.483910" lon="12.035650">
        <ele>1936.850</ele>
        <time>2026-07-16T11:28:40.079Z</time>
      </trkpt>
      <trkpt lat="46.484280" lon="12.035540">
        <ele>1939.170</ele>
        <time>2026-07-16T11:29:00.079Z</time>
      </trkpt>
      <trkpt lat="46.484920" lon="12.035250">
        <ele>1941.742</ele>
        <time>2026-07-16T11:29:20.079Z</time>
      </trkpt>
      <trkpt lat="46.484990" lon="12.035240">
        <ele>1942.634</ele>
        <time>2026-07-16T11:29:40.079Z</time>
      </trkpt>
      <trkpt lat="46.485040" lon="12.035300">
        <ele>1944.291</ele>
        <time>2026-07-16T11:30:00.079Z</time>
      </trkpt>
      <trkpt lat="46.485050" lon="12.035380">
        <ele>1945.824</ele>
        <time>2026-07-16T11:30:20.079Z</time>
      </trkpt>
      <trkpt lat="46.485010" lon="12.035470">
        <ele>1947.513</ele>
        <time>2026-07-16T11:30:40.079Z</time>
      </trkpt>
      <trkpt lat="46.484930" lon="12.035560">
        <ele>1948.273</ele>
        <time>2026-07-16T11:31:00.079Z</time>
      </trkpt>
      <trkpt lat="46.484730" lon="12.035740">
        <ele>1950.559</ele>
        <time>2026-07-16T11:31:20.079Z</time>
      </trkpt>
      <trkpt lat="46.484370" lon="12.035920">
        <ele>1953.203</ele>
        <time>2026-07-16T11:31:40.079Z</time>
      </trkpt>
      <trkpt lat="46.484340" lon="12.035990">
        <ele>1954.823</ele>
        <time>2026-07-16T11:32:00.079Z</time>
      </trkpt>
      <trkpt lat="46.484340" lon="12.036040">
        <ele>1956.409</ele>
        <time>2026-07-16T11:32:20.079Z</time>
      </trkpt>
      <trkpt lat="46.484370" lon="12.036090">
        <ele>1958.387</ele>
        <time>2026-07-16T11:32:40.079Z</time>
      </trkpt>
      <trkpt lat="46.484540" lon="12.036100">
        <ele>1960.461</ele>
        <time>2026-07-16T11:33:00.079Z</time>
      </trkpt>
      <trkpt lat="46.485010" lon="12.035960">
        <ele>1964.291</ele>
        <time>2026-07-16T11:33:20.079Z</time>
      </trkpt>
      <trkpt lat="46.485300" lon="12.035960">
        <ele>1966.733</ele>
        <time>2026-07-16T11:33:40.079Z</time>
      </trkpt>
      <trkpt lat="46.485670" lon="12.035870">
        <ele>1971.125</ele>
        <time>2026-07-16T11:34:00.079Z</time>
      </trkpt>
      <trkpt lat="46.486700" lon="12.035870">
        <ele>1983.082</ele>
        <time>2026-07-16T11:34:20.079Z</time>
      </trkpt>
      <trkpt lat="46.486810" lon="12.035840">
        <ele>1984.875</ele>
        <time>2026-07-16T11:34:40.079Z</time>
      </trkpt>
      <trkpt lat="46.486880" lon="12.035760">
        <ele>1984.954</ele>
        <time>2026-07-16T11:35:00.079Z</time>
      </trkpt>
      <trkpt lat="46.486930" lon="12.035660">
        <ele>1984.474</ele>
        <time>2026-07-16T11:35:20.079Z</time>
      </trkpt>
      <trkpt lat="46.486950" lon="12.035510">
        <ele>1983.339</ele>
        <time>2026-07-16T11:35:40.079Z</time>
      </trkpt>
      <trkpt lat="46.486950" lon="12.035370">
        <ele>1983.801</ele>
        <time>2026-07-16T11:36:00.079Z</time>
      </trkpt>
      <trkpt lat="46.486860" lon="12.035050">
        <ele>1984.721</ele>
        <time>2026-07-16T11:36:20.079Z</time>
      </trkpt>
      <trkpt lat="46.486860" lon="12.035000">
        <ele>1985.509</ele>
        <time>2026-07-16T11:36:40.079Z</time>
      </trkpt>
      <trkpt lat="46.486890" lon="12.034950">
        <ele>1986.195</ele>
        <time>2026-07-16T11:37:00.079Z</time>
      </trkpt>
      <trkpt lat="46.486990" lon="12.034870">
        <ele>1988.119</ele>
        <time>2026-07-16T11:37:20.079Z</time>
      </trkpt>
      <trkpt lat="46.487070" lon="12.034860">
        <ele>1990.299</ele>
        <time>2026-07-16T11:37:40.079Z</time>
      </trkpt>
      <trkpt lat="46.487130" lon="12.034880">
        <ele>1991.761</ele>
        <time>2026-07-16T11:38:00.079Z</time>
      </trkpt>
      <trkpt lat="46.487170" lon="12.034930">
        <ele>1992.753</ele>
        <time>2026-07-16T11:38:20.079Z</time>
      </trkpt>
      <trkpt lat="46.487280" lon="12.035140">
        <ele>1993.910</ele>
        <time>2026-07-16T11:38:40.079Z</time>
      </trkpt>
      <trkpt lat="46.487550" lon="12.035850">
        <ele>1997.163</ele>
        <time>2026-07-16T11:39:00.079Z</time>
      </trkpt>
      <trkpt lat="46.487560" lon="12.035940">
        <ele>1999.022</ele>
        <time>2026-07-16T11:39:20.079Z</time>
      </trkpt>
      <trkpt lat="46.487540" lon="12.036040">
        <ele>2000.382</ele>
        <time>2026-07-16T11:39:40.079Z</time>
      </trkpt>
      <trkpt lat="46.487480" lon="12.036140">
        <ele>2001.887</ele>
        <time>2026-07-16T11:40:00.079Z</time>
      </trkpt>
      <trkpt lat="46.487090" lon="12.036430">
        <ele>2005.842</ele>
        <time>2026-07-16T11:40:20.079Z</time>
      </trkpt>
      <trkpt lat="46.486670" lon="12.036910">
        <ele>2011.326</ele>
        <time>2026-07-16T11:40:40.079Z</time>
      </trkpt>
      <trkpt lat="46.486370" lon="12.037190">
        <ele>2014.509</ele>
        <time>2026-07-16T11:41:00.079Z</time>
      </trkpt>
      <trkpt lat="46.486330" lon="12.037340">
        <ele>2016.350</ele>
        <time>2026-07-16T11:41:20.079Z</time>
      </trkpt>
      <trkpt lat="46.486330" lon="12.037420">
        <ele>2017.194</ele>
        <time>2026-07-16T11:41:40.079Z</time>
      </trkpt>
      <trkpt lat="46.486380" lon="12.037530">
        <ele>2018.624</ele>
        <time>2026-07-16T11:42:00.079Z</time>
      </trkpt>
      <trkpt lat="46.486420" lon="12.037600">
        <ele>2020.486</ele>
        <time>2026-07-16T11:42:20.079Z</time>
      </trkpt>
      <trkpt lat="46.486540" lon="12.037630">
        <ele>2022.178</ele>
        <time>2026-07-16T11:42:40.079Z</time>
      </trkpt>
      <trkpt lat="46.487510" lon="12.037010">
        <ele>2025.285</ele>
        <time>2026-07-16T11:43:00.079Z</time>
      </trkpt>
      <trkpt lat="46.487570" lon="12.036990">
        <ele>2025.168</ele>
        <time>2026-07-16T11:43:20.079Z</time>
      </trkpt>
      <trkpt lat="46.487680" lon="12.037020">
        <ele>2026.297</ele>
        <time>2026-07-16T11:43:40.079Z</time>
      </trkpt>
      <trkpt lat="46.487720" lon="12.037050">
        <ele>2027.067</ele>
        <time>2026-07-16T11:44:00.079Z</time>
      </trkpt>
      <trkpt lat="46.487750" lon="12.037130">
        <ele>2028.846</ele>
        <time>2026-07-16T11:44:20.079Z</time>
      </trkpt>
      <trkpt lat="46.487760" lon="12.037290">
        <ele>2032.588</ele>
        <time>2026-07-16T11:44:40.079Z</time>
      </trkpt>
      <trkpt lat="46.487740" lon="12.037360">
        <ele>2034.116</ele>
        <time>2026-07-16T11:45:00.079Z</time>
      </trkpt>
      <trkpt lat="46.487680" lon="12.037440">
        <ele>2035.209</ele>
        <time>2026-07-16T11:45:20.079Z</time>
      </trkpt>
      <trkpt lat="46.486430" lon="12.038460">
        <ele>2046.546</ele>
        <time>2026-07-16T11:45:40.079Z</time>
      </trkpt>
      <trkpt lat="46.485670" lon="12.038970">
        <ele>2057.150</ele>
        <time>2026-07-16T11:46:00.079Z</time>
      </trkpt>
      <trkpt lat="46.485480" lon="12.039160">
        <ele>2057.590</ele>
        <time>2026-07-16T11:46:20.079Z</time>
      </trkpt>
      <trkpt lat="46.485240" lon="12.039470">
        <ele>2060.272</ele>
        <time>2026-07-16T11:46:40.079Z</time>
      </trkpt>
      <trkpt lat="46.485180" lon="12.039530">
        <ele>2062.714</ele>
        <time>2026-07-16T11:47:00.079Z</time>
      </trkpt>
      <trkpt lat="46.485040" lon="12.039590">
        <ele>2064.811</ele>
        <time>2026-07-16T11:47:20.079Z</time>
      </trkpt>
      <trkpt lat="46.484340" lon="12.039690">
        <ele>2065.994</ele>
        <time>2026-07-16T11:47:40.079Z</time>
      </trkpt>
      <trkpt lat="46.484280" lon="12.039720">
        <ele>2066.423</ele>
        <time>2026-07-16T11:48:00.079Z</time>
      </trkpt>
      <trkpt lat="46.484210" lon="12.039810">
        <ele>2067.293</ele>
        <time>2026-07-16T11:48:20.079Z</time>
      </trkpt>
      <trkpt lat="46.484200" lon="12.039950">
        <ele>2068.882</ele>
        <time>2026-07-16T11:48:40.079Z</time>
      </trkpt>
      <trkpt lat="46.484210" lon="12.040000">
        <ele>2069.543</ele>
        <time>2026-07-16T11:49:00.079Z</time>
      </trkpt>
      <trkpt lat="46.484280" lon="12.040070">
        <ele>2070.417</ele>
        <time>2026-07-16T11:49:20.079Z</time>
      </trkpt>
      <trkpt lat="46.484390" lon="12.040090">
        <ele>2071.509</ele>
        <time>2026-07-16T11:49:40.079Z</time>
      </trkpt>
      <trkpt lat="46.484690" lon="12.040050">
        <ele>2075.140</ele>
        <time>2026-07-16T11:50:00.079Z</time>
      </trkpt>
      <trkpt lat="46.484870" lon="12.040050">
        <ele>2077.394</ele>
        <time>2026-07-16T11:50:20.079Z</time>
      </trkpt>
      <trkpt lat="46.485200" lon="12.040120">
        <ele>2081.914</ele>
        <time>2026-07-16T11:50:40.079Z</time>
      </trkpt>
      <trkpt lat="46.485630" lon="12.040350">
        <ele>2088.756</ele>
        <time>2026-07-16T11:51:00.079Z</time>
      </trkpt>
      <trkpt lat="46.485720" lon="12.040460">
        <ele>2089.638</ele>
        <time>2026-07-16T11:51:20.079Z</time>
      </trkpt>
      <trkpt lat="46.485750" lon="12.040510">
        <ele>2089.995</ele>
        <time>2026-07-16T11:51:40.079Z</time>
      </trkpt>
      <trkpt lat="46.485760" lon="12.040640">
        <ele>2091.018</ele>
        <time>2026-07-16T11:52:00.079Z</time>
      </trkpt>
      <trkpt lat="46.485630" lon="12.041270">
        <ele>2093.817</ele>
        <time>2026-07-16T11:52:20.079Z</time>
      </trkpt>
      <trkpt lat="46.485620" lon="12.041390">
        <ele>2094.227</ele>
        <time>2026-07-16T11:52:40.079Z</time>
      </trkpt>
      <trkpt lat="46.485630" lon="12.041530">
        <ele>2094.039</ele>
        <time>2026-07-16T11:53:00.079Z</time>
      </trkpt>
      <trkpt lat="46.485710" lon="12.041660">
        <ele>2095.301</ele>
        <time>2026-07-16T11:53:20.079Z</time>
      </trkpt>
      <trkpt lat="46.485760" lon="12.041710">
        <ele>2096.821</ele>
        <time>2026-07-16T11:53:40.079Z</time>
      </trkpt>
      <trkpt lat="46.485860" lon="12.041730">
        <ele>2099.009</ele>
        <time>2026-07-16T11:54:00.079Z</time>
      </trkpt>
      <trkpt lat="46.486320" lon="12.041640">
        <ele>2104.125</ele>
        <time>2026-07-16T11:54:20.079Z</time>
      </trkpt>
      <trkpt lat="46.486460" lon="12.041630">
        <ele>2105.519</ele>
        <time>2026-07-16T11:54:40.079Z</time>
      </trkpt>
      <trkpt lat="46.486560" lon="12.041710">
        <ele>2108.199</ele>
        <time>2026-07-16T11:55:00.079Z</time>
      </trkpt>
      <trkpt lat="46.486620" lon="12.041830">
        <ele>2110.811</ele>
        <time>2026-07-16T11:55:20.079Z</time>
      </trkpt>
      <trkpt lat="46.486620" lon="12.042030">
        <ele>2113.973</ele>
        <time>2026-07-16T11:55:40.079Z</time>
      </trkpt>
      <trkpt lat="46.486570" lon="12.042260">
        <ele>2116.340</ele>
        <time>2026-07-16T11:56:00.079Z</time>
      </trkpt>
      <trkpt lat="46.486160" lon="12.043820">
        <ele>2128.243</ele>
        <time>2026-07-16T11:56:20.079Z</time>
      </trkpt>
      <trkpt lat="46.486070" lon="12.044020">
        <ele>2129.482</ele>
        <time>2026-07-16T11:56:40.079Z</time>
      </trkpt>
      <trkpt lat="46.485270" lon="12.045390">
        <ele>2142.242</ele>
        <time>2026-07-16T11:57:00.079Z</time>
      </trkpt>
      <trkpt lat="46.485200" lon="12.045480">
        <ele>2143.151</ele>
        <time>2026-07-16T11:57:20.079Z</time>
      </trkpt>
      <trkpt lat="46.484790" lon="12.045850">
        <ele>2147.001</ele>
        <time>2026-07-16T11:57:40.079Z</time>
      </trkpt>
      <trkpt lat="46.484660" lon="12.046020">
        <ele>2148.111</ele>
        <time>2026-07-16T11:58:00.079Z</time>
      </trkpt>
      <trkpt lat="46.484640" lon="12.046150">
        <ele>2149.409</ele>
        <time>2026-07-16T11:58:20.079Z</time>
      </trkpt>
      <trkpt lat="46.484710" lon="12.047550">
        <ele>2159.857</ele>
        <time>2026-07-16T11:58:40.079Z</time>
      </trkpt>
      <trkpt lat="46.484710" lon="12.047670">
        <ele>2161.591</ele>
        <time>2026-07-16T11:59:00.079Z</time>
      </trkpt>
      <trkpt lat="46.484680" lon="12.047830">
        <ele>2163.671</ele>
        <time>2026-07-16T11:59:20.079Z</time>
      </trkpt>
      <trkpt lat="46.484630" lon="12.047880">
        <ele>2164.273</ele>
        <time>2026-07-16T11:59:40.079Z</time>
      </trkpt>
      <trkpt lat="46.484580" lon="12.047900">
        <ele>2164.515</ele>
        <time>2026-07-16T12:00:00.079Z</time>
      </trkpt>
      <trkpt lat="46.483910" lon="12.047990">
        <ele>2170.142</ele>
        <time>2026-07-16T12:00:20.079Z</time>
      </trkpt>
      <trkpt lat="46.483820" lon="12.048040">
        <ele>2170.875</ele>
        <time>2026-07-16T12:00:40.079Z</time>
      </trkpt>
      <trkpt lat="46.483750" lon="12.048140">
        <ele>2172.144</ele>
        <time>2026-07-16T12:01:00.079Z</time>
      </trkpt>
      <trkpt lat="46.483720" lon="12.048250">
        <ele>2173.594</ele>
        <time>2026-07-16T12:01:20.079Z</time>
      </trkpt>
      <trkpt lat="46.483730" lon="12.048330">
        <ele>2174.583</ele>
        <time>2026-07-16T12:01:40.079Z</time>
      </trkpt>
      <trkpt lat="46.483940" lon="12.048890">
        <ele>2180.025</ele>
        <time>2026-07-16T12:02:00.079Z</time>
      </trkpt>
      <trkpt lat="46.484010" lon="12.049000">
        <ele>2181.617</ele>
        <time>2026-07-16T12:02:20.079Z</time>
      </trkpt>
      <trkpt lat="46.484090" lon="12.049070">
        <ele>2182.609</ele>
        <time>2026-07-16T12:02:40.079Z</time>
      </trkpt>
      <trkpt lat="46.484280" lon="12.049110">
        <ele>2182.980</ele>
        <time>2026-07-16T12:03:00.079Z</time>
      </trkpt>
      <trkpt lat="46.484360" lon="12.049160">
        <ele>2183.264</ele>
        <time>2026-07-16T12:03:20.079Z</time>
      </trkpt>
      <trkpt lat="46.484440" lon="12.049260">
        <ele>2184.094</ele>
        <time>2026-07-16T12:03:40.079Z</time>
      </trkpt>
      <trkpt lat="46.484450" lon="12.049320">
        <ele>2184.676</ele>
        <time>2026-07-16T12:04:00.079Z</time>
      </trkpt>
      <trkpt lat="46.484440" lon="12.049420">
        <ele>2185.898</ele>
        <time>2026-07-16T12:04:20.079Z</time>
      </trkpt>
      <trkpt lat="46.484420" lon="12.049490">
        <ele>2186.745</ele>
        <time>2026-07-16T12:04:40.079Z</time>
      </trkpt>
      <trkpt lat="46.484340" lon="12.049570">
        <ele>2188.178</ele>
        <time>2026-07-16T12:05:00.079Z</time>
      </trkpt>
      <trkpt lat="46.484000" lon="12.049610">
        <ele>2190.447</ele>
        <time>2026-07-16T12:05:20.079Z</time>
      </trkpt>
      <trkpt lat="46.483890" lon="12.049700">
        <ele>2191.857</ele>
        <time>2026-07-16T12:05:40.079Z</time>
      </trkpt>
      <trkpt lat="46.483850" lon="12.049750">
        <ele>2192.467</ele>
        <time>2026-07-16T12:06:00.079Z</time>
      </trkpt>
      <trkpt lat="46.483800" lon="12.049970">
        <ele>2195.081</ele>
        <time>2026-07-16T12:06:20.079Z</time>
      </trkpt>
      <trkpt lat="46.483820" lon="12.050170">
        <ele>2197.119</ele>
        <time>2026-07-16T12:06:40.079Z</time>
      </trkpt>
      <trkpt lat="46.483910" lon="12.050330">
        <ele>2198.709</ele>
        <time>2026-07-16T12:07:00.079Z</time>
      </trkpt>
      <trkpt lat="46.483980" lon="12.050400">
        <ele>2199.328</ele>
        <time>2026-07-16T12:07:20.079Z</time>
      </trkpt>
      <trkpt lat="46.484330" lon="12.050580">
        <ele>2200.962</ele>
        <time>2026-07-16T12:07:40.079Z</time>
      </trkpt>
      <trkpt lat="46.484510" lon="12.050710">
        <ele>2202.272</ele>
        <time>2026-07-16T12:08:00.079Z</time>
      </trkpt>
      <trkpt lat="46.484550" lon="12.050780">
        <ele>2202.784</ele>
        <time>2026-07-16T12:08:20.079Z</time>
      </trkpt>
      <trkpt lat="46.484580" lon="12.050860">
        <ele>2203.386</ele>
        <time>2026-07-16T12:08:40.079Z</time>
      </trkpt>
      <trkpt lat="46.484580" lon="12.051020">
        <ele>2205.043</ele>
        <time>2026-07-16T12:09:00.079Z</time>
      </trkpt>
      <trkpt lat="46.484560" lon="12.051100">
        <ele>2206.016</ele>
        <time>2026-07-16T12:09:20.079Z</time>
      </trkpt>
      <trkpt lat="46.484530" lon="12.051160">
        <ele>2207.065</ele>
        <time>2026-07-16T12:09:40.079Z</time>
      </trkpt>
      <trkpt lat="46.484210" lon="12.051540">
        <ele>2211.735</ele>
        <time>2026-07-16T12:10:00.079Z</time>
      </trkpt>
      <trkpt lat="46.484080" lon="12.051720">
        <ele>2213.428</ele>
        <time>2026-07-16T12:10:20.079Z</time>
      </trkpt>
      <trkpt lat="46.483670" lon="12.052790">
        <ele>2226.489</ele>
        <time>2026-07-16T12:10:40.079Z</time>
      </trkpt>
      <trkpt lat="46.483630" lon="12.052850">
        <ele>2227.417</ele>
        <time>2026-07-16T12:11:00.079Z</time>
      </trkpt>
      <trkpt lat="46.483450" lon="12.052960">
        <ele>2228.709</ele>
        <time>2026-07-16T12:11:20.079Z</time>
      </trkpt>
      <trkpt lat="46.482810" lon="12.053060">
        <ele>2232.984</ele>
        <time>2026-07-16T12:11:40.079Z</time>
      </trkpt>
      <trkpt lat="46.482620" lon="12.053130">
        <ele>2233.888</ele>
        <time>2026-07-16T12:12:00.079Z</time>
      </trkpt>
      <trkpt lat="46.482530" lon="12.053260">
        <ele>2235.228</ele>
        <time>2026-07-16T12:12:20.079Z</time>
      </trkpt>
      <trkpt lat="46.482520" lon="12.053360">
        <ele>2236.220</ele>
        <time>2026-07-16T12:12:40.079Z</time>
      </trkpt>
      <trkpt lat="46.482510" lon="12.053660">
        <ele>2237.762</ele>
        <time>2026-07-16T12:13:00.079Z</time>
      </trkpt>
      <trkpt lat="46.482510" lon="12.053690">
        <ele>2237.659</ele>
        <time>2026-07-16T12:13:20.079Z</time>
      </trkpt>
    </trkseg>
  </trk></gpx>