<?xml version="1.0" encoding="UTF-8"?>
<gpx creator="https://gpx.studio" version="1.1" xmlns="http://www.topografix.com/GPX/1/1" xmlns:xsi="http://www.w3.org/2001/XMLSchema-instance" xsi:schemaLocation="http://www.topografix.com/GPX/1/1 http://www.topografix.com/GPX/1/1/gpx.xsd http://www.garmin.com/xmlschemas/GpxExtensions/v3 http://www.garmin.com/xmlschemas/GpxExtensionsv3.xsd http://www.garmin.com/xmlschemas/TrackPointExtension/v1 http://www.garmin.com/xmlschemas/TrackPointExtensionv1.xsd http://www.garmin.com/xmlschemas/PowerExtension/v1 http://www.garmin.com/xmlschemas/PowerExtensionv1.xsd http://www.topografix.com/GPX/gpx_style/0/2 http://www.topografix.com/GPX/gpx_style/0/2/gpx_style.xsd" xmlns:gpxtpx="http://www.garmin.com/xmlschemas/TrackPointExtension/v1" xmlns:gpxx="http://www.garmin.com/xmlschemas/GpxExtensions/v3" xmlns:gpxpx="http://www.garmin.com/xmlschemas/PowerExtension/v1" xmlns:gpx_style="http://www.topografix.com/GPX/gpx_style/0/2">
  <metadata>
    <name>penas_negras_trapagaran_gpxstudio</name>
    <author>
      <name>gpx.studio</name>
      <link href="https://gpx.studio"/>
    </author>
  </metadata>
  <trk>
    <name>penas_negras_trapagaran_gpxstudio</name>
    <trkseg>
      <trkpt lat="43.304937" lon="-3.037378">
        <ele>31.6</ele>
      </trkpt>
      <trkpt lat="43.304955" lon="-3.037421">
        <ele>31.98</ele>
      </trkpt>
      <trkpt lat="43.304847" lon="-3.037448">
        <ele>31.86</ele>
      </trkpt>
      <trkpt lat="43.304771" lon="-3.037487">
        <ele>32.31</ele>
      </trkpt>
      <trkpt lat="43.304554" lon="-3.037657">
        <ele>34.09</ele>
      </trkpt>
      <trkpt lat="43.304127" lon="-3.038012">
        <ele>35.03</ele>
      </trkpt>
      <trkpt lat="43.304037" lon="-3.0381">
        <ele>35.6</ele>
      </trkpt>
      <trkpt lat="43.303942" lon="-3.038217">
        <ele>36.23</ele>
      </trkpt>
      <trkpt lat="43.30379" lon="-3.038427">
        <ele>37.5</ele>
      </trkpt>
      <trkpt lat="43.303568" lon="-3.038798">
        <ele>38.8</ele>
      </trkpt>
      <trkpt lat="43.303533" lon="-3.038878">
        <ele>39.17</ele>
      </trkpt>
      <trkpt lat="43.303494" lon="-3.039002">
        <ele>39.9</ele>
      </trkpt>
      <trkpt lat="43.303447" lon="-3.03924">
        <ele>42.28</ele>
      </trkpt>
      <trkpt lat="43.303431" lon="-3.039481">
        <ele>43.68</ele>
      </trkpt>
      <trkpt lat="43.30354" lon="-3.040695">
        <ele>52.74</ele>
      </trkpt>
      <trkpt lat="43.303543" lon="-3.04084">
        <ele>53.58</ele>
      </trkpt>
      <trkpt lat="43.303532" lon="-3.040969">
        <ele>54</ele>
      </trkpt>
      <trkpt lat="43.30352" lon="-3.041052">
        <ele>53.95</ele>
      </trkpt>
      <trkpt lat="43.303494" lon="-3.041129">
        <ele>53.87</ele>
      </trkpt>
      <trkpt lat="43.303409" lon="-3.041349">
        <ele>55.48</ele>
      </trkpt>
      <trkpt lat="43.303063" lon="-3.042082">
        <ele>58.43</ele>
      </trkpt>
      <trkpt lat="43.303005" lon="-3.042213">
        <ele>59.59</ele>
      </trkpt>
      <trkpt lat="43.302957" lon="-3.042368">
        <ele>61.34</ele>
      </trkpt>
      <trkpt lat="43.302953" lon="-3.042467">
        <ele>62.45</ele>
      </trkpt>
      <trkpt lat="43.302963" lon="-3.042537">
        <ele>62.94</ele>
      </trkpt>
      <trkpt lat="43.303022" lon="-3.042764">
        <ele>64.36</ele>
      </trkpt>
      <trkpt lat="43.303024" lon="-3.042872">
        <ele>65.42</ele>
      </trkpt>
      <trkpt lat="43.303011" lon="-3.04292">
        <ele>65.8</ele>
      </trkpt>
      <trkpt lat="43.302956" lon="-3.042984">
        <ele>66.64</ele>
      </trkpt>
      <trkpt lat="43.302879" lon="-3.043001">
        <ele>67.98</ele>
      </trkpt>
      <trkpt lat="43.302801" lon="-3.042959">
        <ele>69.32</ele>
      </trkpt>
      <trkpt lat="43.302648" lon="-3.042777">
        <ele>70.87</ele>
      </trkpt>
      <trkpt lat="43.302585" lon="-3.042728">
        <ele>71.32</ele>
      </trkpt>
      <trkpt lat="43.302556" lon="-3.042719">
        <ele>71.64</ele>
      </trkpt>
      <trkpt lat="43.302498" lon="-3.042739">
        <ele>72.37</ele>
      </trkpt>
      <trkpt lat="43.302471" lon="-3.042766">
        <ele>72.78</ele>
      </trkpt>
      <trkpt lat="43.302452" lon="-3.042803">
        <ele>73.17</ele>
      </trkpt>
      <trkpt lat="43.302443" lon="-3.042841">
        <ele>73.76</ele>
      </trkpt>
      <trkpt lat="43.30245" lon="-3.04293">
        <ele>74.68</ele>
      </trkpt>
      <trkpt lat="43.302487" lon="-3.043014">
        <ele>75.13</ele>
      </trkpt>
      <trkpt lat="43.302589" lon="-3.043193">
        <ele>76.01</ele>
      </trkpt>
      <trkpt lat="43.30264" lon="-3.043337">
        <ele>76.46</ele>
      </trkpt>
      <trkpt lat="43.302657" lon="-3.043419">
        <ele>77.04</ele>
      </trkpt>
      <trkpt lat="43.302675" lon="-3.043716">
        <ele>78.74</ele>
      </trkpt>
      <trkpt lat="43.302674" lon="-3.043962">
        <ele>79.59</ele>
      </trkpt>
      <trkpt lat="43.302662" lon="-3.044058">
        <ele>80.09</ele>
      </trkpt>
      <trkpt lat="43.302641" lon="-3.044129">
        <ele>80.84</ele>
      </trkpt>
      <trkpt lat="43.302573" lon="-3.044273">
        <ele>81.24</ele>
      </trkpt>
      <trkpt lat="43.302509" lon="-3.044365">
        <ele>82.07</ele>
      </trkpt>
      <trkpt lat="43.302457" lon="-3.044425">
        <ele>82.37</ele>
      </trkpt>
      <trkpt lat="43.302402" lon="-3.044476">
        <ele>82.98</ele>
      </trkpt>
      <trkpt lat="43.302288" lon="-3.044555">
        <ele>84.81</ele>
      </trkpt>
      <trkpt lat="43.302174" lon="-3.044596">
        <ele>86.62</ele>
      </trkpt>
      <trkpt lat="43.301731" lon="-3.044673">
        <ele>90.63</ele>
      </trkpt>
      <trkpt lat="43.301617" lon="-3.044666">
        <ele>91.52</ele>
      </trkpt>
      <trkpt lat="43.301489" lon="-3.044608">
        <ele>92.99</ele>
      </trkpt>
      <trkpt lat="43.301437" lon="-3.044562">
        <ele>93.48</ele>
      </trkpt>
      <trkpt lat="43.301252" lon="-3.044355">
        <ele>93.62</ele>
      </trkpt>
      <trkpt lat="43.301179" lon="-3.044283">
        <ele>94.37</ele>
      </trkpt>
      <trkpt lat="43.30104" lon="-3.044213">
        <ele>93.92</ele>
      </trkpt>
      <trkpt lat="43.300947" lon="-3.044183">
        <ele>93.07</ele>
      </trkpt>
      <trkpt lat="43.300792" lon="-3.044154">
        <ele>92.02</ele>
      </trkpt>
      <trkpt lat="43.300585" lon="-3.044132">
        <ele>93.1</ele>
      </trkpt>
      <trkpt lat="43.300424" lon="-3.044161">
        <ele>93.33</ele>
      </trkpt>
      <trkpt lat="43.300321" lon="-3.04421">
        <ele>94.74</ele>
      </trkpt>
      <trkpt lat="43.300154" lon="-3.044237">
        <ele>96.9</ele>
      </trkpt>
      <trkpt lat="43.299854" lon="-3.044186">
        <ele>100.55</ele>
      </trkpt>
      <trkpt lat="43.299756" lon="-3.044192">
        <ele>101.55</ele>
      </trkpt>
      <trkpt lat="43.299652" lon="-3.044213">
        <ele>102.92</ele>
      </trkpt>
      <trkpt lat="43.299562" lon="-3.044247">
        <ele>102.3</ele>
      </trkpt>
      <trkpt lat="43.299257" lon="-3.044401">
        <ele>105.04</ele>
      </trkpt>
      <trkpt lat="43.299204" lon="-3.044412">
        <ele>105.95</ele>
      </trkpt>
      <trkpt lat="43.299138" lon="-3.044395">
        <ele>106.4</ele>
      </trkpt>
      <trkpt lat="43.29907" lon="-3.044334">
        <ele>105.99</ele>
      </trkpt>
      <trkpt lat="43.298998" lon="-3.044223">
        <ele>106.96</ele>
      </trkpt>
      <trkpt lat="43.298962" lon="-3.044091">
        <ele>107.94</ele>
      </trkpt>
      <trkpt lat="43.298961" lon="-3.043987">
        <ele>108.94</ele>
      </trkpt>
      <trkpt lat="43.298971" lon="-3.043942">
        <ele>109.66</ele>
      </trkpt>
      <trkpt lat="43.298986" lon="-3.043899">
        <ele>110.1</ele>
      </trkpt>
      <trkpt lat="43.299189" lon="-3.043631">
        <ele>113.16</ele>
      </trkpt>
      <trkpt lat="43.299528" lon="-3.043141">
        <ele>113.82</ele>
      </trkpt>
      <trkpt lat="43.299578" lon="-3.043045">
        <ele>112.87</ele>
      </trkpt>
      <trkpt lat="43.299602" lon="-3.042979">
        <ele>112.98</ele>
      </trkpt>
      <trkpt lat="43.299607" lon="-3.042935">
        <ele>113.06</ele>
      </trkpt>
      <trkpt lat="43.299601" lon="-3.042872">
        <ele>113.65</ele>
      </trkpt>
      <trkpt lat="43.299567" lon="-3.042762">
        <ele>114.72</ele>
      </trkpt>
      <trkpt lat="43.299527" lon="-3.042673">
        <ele>116.58</ele>
      </trkpt>
      <trkpt lat="43.299427" lon="-3.042519">
        <ele>117.53</ele>
      </trkpt>
      <trkpt lat="43.29917" lon="-3.042219">
        <ele>119.74</ele>
      </trkpt>
      <trkpt lat="43.299104" lon="-3.042157">
        <ele>120.23</ele>
      </trkpt>
      <trkpt lat="43.299005" lon="-3.042109">
        <ele>120.86</ele>
      </trkpt>
      <trkpt lat="43.298953" lon="-3.042104">
        <ele>121.1</ele>
      </trkpt>
      <trkpt lat="43.298901" lon="-3.042112">
        <ele>121.81</ele>
      </trkpt>
      <trkpt lat="43.298799" lon="-3.042154">
        <ele>122.66</ele>
      </trkpt>
      <trkpt lat="43.298713" lon="-3.042221">
        <ele>123.27</ele>
      </trkpt>
      <trkpt lat="43.298688" lon="-3.042253">
        <ele>123.96</ele>
      </trkpt>
      <trkpt lat="43.29866" lon="-3.042312">
        <ele>125.27</ele>
      </trkpt>
      <trkpt lat="43.298654" lon="-3.042352">
        <ele>125.74</ele>
      </trkpt>
      <trkpt lat="43.298672" lon="-3.042414">
        <ele>126.46</ele>
      </trkpt>
      <trkpt lat="43.298726" lon="-3.042465">
        <ele>127.12</ele>
      </trkpt>
      <trkpt lat="43.298809" lon="-3.042481">
        <ele>127.84</ele>
      </trkpt>
      <trkpt lat="43.298948" lon="-3.042485">
        <ele>128.36</ele>
      </trkpt>
      <trkpt lat="43.298998" lon="-3.042506">
        <ele>128.58</ele>
      </trkpt>
      <trkpt lat="43.29904" lon="-3.042543">
        <ele>128.59</ele>
      </trkpt>
      <trkpt lat="43.299078" lon="-3.0426">
        <ele>128.63</ele>
      </trkpt>
      <trkpt lat="43.299108" lon="-3.042665">
        <ele>129.06</ele>
      </trkpt>
      <trkpt lat="43.299124" lon="-3.042727">
        <ele>129.81</ele>
      </trkpt>
      <trkpt lat="43.29913" lon="-3.042804">
        <ele>130.99</ele>
      </trkpt>
      <trkpt lat="43.299125" lon="-3.042878">
        <ele>131.07</ele>
      </trkpt>
      <trkpt lat="43.299109" lon="-3.042937">
        <ele>131.23</ele>
      </trkpt>
      <trkpt lat="43.299078" lon="-3.042992">
        <ele>131.25</ele>
      </trkpt>
      <trkpt lat="43.299037" lon="-3.04304">
        <ele>131.28</ele>
      </trkpt>
      <trkpt lat="43.29892" lon="-3.04311">
        <ele>133.48</ele>
      </trkpt>
      <trkpt lat="43.298865" lon="-3.043115">
        <ele>134.45</ele>
      </trkpt>
      <trkpt lat="43.298815" lon="-3.043108">
        <ele>135.14</ele>
      </trkpt>
      <trkpt lat="43.298649" lon="-3.043059">
        <ele>136.96</ele>
      </trkpt>
      <trkpt lat="43.298566" lon="-3.043083">
        <ele>138.52</ele>
      </trkpt>
      <trkpt lat="43.298538" lon="-3.043109">
        <ele>138.93</ele>
      </trkpt>
      <trkpt lat="43.298326" lon="-3.043476">
        <ele>144.97</ele>
      </trkpt>
      <trkpt lat="43.298264" lon="-3.043639">
        <ele>144.83</ele>
      </trkpt>
      <trkpt lat="43.29814" lon="-3.044076">
        <ele>146.47</ele>
      </trkpt>
      <trkpt lat="43.298055" lon="-3.044298">
        <ele>147.37</ele>
      </trkpt>
      <trkpt lat="43.297803" lon="-3.044868">
        <ele>149.21</ele>
      </trkpt>
      <trkpt lat="43.297762" lon="-3.044984">
        <ele>149.09</ele>
      </trkpt>
      <trkpt lat="43.297732" lon="-3.045137">
        <ele>149.7</ele>
      </trkpt>
      <trkpt lat="43.29774" lon="-3.045283">
        <ele>149.89</ele>
      </trkpt>
      <trkpt lat="43.297758" lon="-3.045354">
        <ele>150.01</ele>
      </trkpt>
      <trkpt lat="43.297785" lon="-3.045418">
        <ele>150.06</ele>
      </trkpt>
      <trkpt lat="43.297859" lon="-3.045508">
        <ele>150.33</ele>
      </trkpt>
      <trkpt lat="43.2979" lon="-3.045531">
        <ele>150.33</ele>
      </trkpt>
      <trkpt lat="43.297951" lon="-3.045545">
        <ele>149.79</ele>
      </trkpt>
      <trkpt lat="43.298059" lon="-3.045544">
        <ele>148.91</ele>
      </trkpt>
      <trkpt lat="43.298315" lon="-3.045525">
        <ele>150.51</ele>
      </trkpt>
      <trkpt lat="43.29842" lon="-3.045529">
        <ele>151.56</ele>
      </trkpt>
      <trkpt lat="43.298496" lon="-3.045542">
        <ele>152.47</ele>
      </trkpt>
      <trkpt lat="43.298686" lon="-3.045603">
        <ele>153.67</ele>
      </trkpt>
      <trkpt lat="43.298871" lon="-3.045694">
        <ele>153.45</ele>
      </trkpt>
      <trkpt lat="43.298945" lon="-3.045768">
        <ele>154.15</ele>
      </trkpt>
      <trkpt lat="43.299008" lon="-3.045853">
        <ele>155.01</ele>
      </trkpt>
      <trkpt lat="43.299167" lon="-3.046087">
        <ele>155.87</ele>
      </trkpt>
      <trkpt lat="43.299255" lon="-3.046154">
        <ele>155.71</ele>
      </trkpt>
      <trkpt lat="43.299354" lon="-3.046187">
        <ele>156.11</ele>
      </trkpt>
      <trkpt lat="43.299651" lon="-3.046212">
        <ele>156.9</ele>
      </trkpt>
      <trkpt lat="43.299742" lon="-3.046243">
        <ele>157.97</ele>
      </trkpt>
      <trkpt lat="43.29982" lon="-3.046304">
        <ele>158.54</ele>
      </trkpt>
      <trkpt lat="43.299883" lon="-3.046414">
        <ele>159.21</ele>
      </trkpt>
      <trkpt lat="43.299908" lon="-3.046491">
        <ele>159.27</ele>
      </trkpt>
      <trkpt lat="43.299922" lon="-3.046575">
        <ele>159.53</ele>
      </trkpt>
      <trkpt lat="43.299915" lon="-3.047055">
        <ele>162.44</ele>
      </trkpt>
      <trkpt lat="43.2999" lon="-3.047175">
        <ele>162.09</ele>
      </trkpt>
      <trkpt lat="43.299779" lon="-3.047519">
        <ele>163.31</ele>
      </trkpt>
      <trkpt lat="43.299741" lon="-3.047673">
        <ele>164.75</ele>
      </trkpt>
      <trkpt lat="43.299735" lon="-3.047817">
        <ele>165.31</ele>
      </trkpt>
      <trkpt lat="43.299745" lon="-3.047885">
        <ele>165.38</ele>
      </trkpt>
      <trkpt lat="43.299786" lon="-3.047992">
        <ele>165.19</ele>
      </trkpt>
      <trkpt lat="43.299815" lon="-3.04803">
        <ele>165.26</ele>
      </trkpt>
      <trkpt lat="43.299907" lon="-3.048091">
        <ele>164.95</ele>
      </trkpt>
      <trkpt lat="43.300142" lon="-3.048171">
        <ele>165.87</ele>
      </trkpt>
      <trkpt lat="43.300214" lon="-3.048189">
        <ele>166.22</ele>
      </trkpt>
      <trkpt lat="43.300289" lon="-3.048194">
        <ele>166.47</ele>
      </trkpt>
      <trkpt lat="43.300592" lon="-3.048172">
        <ele>168.51</ele>
      </trkpt>
      <trkpt lat="43.300645" lon="-3.048183">
        <ele>168.56</ele>
      </trkpt>
      <trkpt lat="43.30074" lon="-3.048245">
        <ele>169.26</ele>
      </trkpt>
      <trkpt lat="43.300787" lon="-3.048299">
        <ele>169.67</ele>
      </trkpt>
      <trkpt lat="43.300945" lon="-3.048573">
        <ele>171.53</ele>
      </trkpt>
      <trkpt lat="43.30102" lon="-3.048741">
        <ele>172.65</ele>
      </trkpt>
      <trkpt lat="43.30109" lon="-3.048942">
        <ele>173.96</ele>
      </trkpt>
      <trkpt lat="43.30116" lon="-3.049206">
        <ele>174.8</ele>
      </trkpt>
      <trkpt lat="43.301206" lon="-3.049429">
        <ele>175.22</ele>
      </trkpt>
      <trkpt lat="43.301218" lon="-3.049524">
        <ele>175.93</ele>
      </trkpt>
      <trkpt lat="43.301219" lon="-3.049639">
        <ele>176.92</ele>
      </trkpt>
      <trkpt lat="43.301206" lon="-3.049799">
        <ele>177.65</ele>
      </trkpt>
      <trkpt lat="43.301167" lon="-3.049928">
        <ele>178.58</ele>
      </trkpt>
      <trkpt lat="43.30114" lon="-3.049984">
        <ele>179.19</ele>
      </trkpt>
      <trkpt lat="43.301105" lon="-3.050031">
        <ele>179.67</ele>
      </trkpt>
      <trkpt lat="43.301068" lon="-3.050062">
        <ele>179.91</ele>
      </trkpt>
      <trkpt lat="43.301021" lon="-3.050082">
        <ele>180.39</ele>
      </trkpt>
      <trkpt lat="43.300979" lon="-3.050084">
        <ele>180.47</ele>
      </trkpt>
      <trkpt lat="43.300888" lon="-3.050056">
        <ele>181.27</ele>
      </trkpt>
      <trkpt lat="43.300726" lon="-3.049977">
        <ele>181.52</ele>
      </trkpt>
      <trkpt lat="43.30064" lon="-3.049959">
        <ele>181.28</ele>
      </trkpt>
      <trkpt lat="43.300589" lon="-3.049961">
        <ele>181.64</ele>
      </trkpt>
      <trkpt lat="43.30048" lon="-3.050002">
        <ele>181.81</ele>
      </trkpt>
      <trkpt lat="43.300428" lon="-3.050037">
        <ele>181.6</ele>
      </trkpt>
      <trkpt lat="43.300143" lon="-3.050288">
        <ele>181.6</ele>
      </trkpt>
      <trkpt lat="43.300017" lon="-3.050417">
        <ele>182.52</ele>
      </trkpt>
      <trkpt lat="43.299954" lon="-3.0505">
        <ele>182.07</ele>
      </trkpt>
      <trkpt lat="43.299913" lon="-3.050573">
        <ele>181.96</ele>
      </trkpt>
      <trkpt lat="43.299886" lon="-3.050643">
        <ele>182.8</ele>
      </trkpt>
      <trkpt lat="43.299867" lon="-3.050717">
        <ele>183.5</ele>
      </trkpt>
      <trkpt lat="43.299856" lon="-3.050879">
        <ele>184.92</ele>
      </trkpt>
      <trkpt lat="43.299864" lon="-3.051053">
        <ele>186.27</ele>
      </trkpt>
      <trkpt lat="43.299909" lon="-3.051564">
        <ele>188.5</ele>
      </trkpt>
      <trkpt lat="43.299908" lon="-3.051667">
        <ele>189.23</ele>
      </trkpt>
      <trkpt lat="43.299896" lon="-3.051728">
        <ele>189.94</ele>
      </trkpt>
      <trkpt lat="43.299876" lon="-3.051791">
        <ele>190.57</ele>
      </trkpt>
      <trkpt lat="43.299815" lon="-3.051872">
        <ele>191.21</ele>
      </trkpt>
      <trkpt lat="43.299674" lon="-3.051971">
        <ele>192.76</ele>
      </trkpt>
      <trkpt lat="43.299601" lon="-3.052056">
        <ele>193.89</ele>
      </trkpt>
      <trkpt lat="43.299571" lon="-3.052111">
        <ele>194.29</ele>
      </trkpt>
      <trkpt lat="43.299546" lon="-3.052186">
        <ele>194.6</ele>
      </trkpt>
      <trkpt lat="43.299533" lon="-3.052263">
        <ele>194.59</ele>
      </trkpt>
      <trkpt lat="43.299534" lon="-3.052423">
        <ele>195.54</ele>
      </trkpt>
      <trkpt lat="43.299569" lon="-3.05258">
        <ele>196.17</ele>
      </trkpt>
      <trkpt lat="43.299827" lon="-3.053254">
        <ele>198.19</ele>
      </trkpt>
      <trkpt lat="43.299887" lon="-3.053462">
        <ele>199.15</ele>
      </trkpt>
      <trkpt lat="43.299893" lon="-3.053514">
        <ele>199.36</ele>
      </trkpt>
      <trkpt lat="43.299887" lon="-3.053608">
        <ele>200</ele>
      </trkpt>
      <trkpt lat="43.299858" lon="-3.053665">
        <ele>200.73</ele>
      </trkpt>
      <trkpt lat="43.299834" lon="-3.053682">
        <ele>201.26</ele>
      </trkpt>
      <trkpt lat="43.299787" lon="-3.053672">
        <ele>202.09</ele>
      </trkpt>
      <trkpt lat="43.299744" lon="-3.0536">
        <ele>203.65</ele>
      </trkpt>
      <trkpt lat="43.299715" lon="-3.05351">
        <ele>204.62</ele>
      </trkpt>
      <trkpt lat="43.29968" lon="-3.053358">
        <ele>204.57</ele>
      </trkpt>
      <trkpt lat="43.299638" lon="-3.053216">
        <ele>204.5</ele>
      </trkpt>
      <trkpt lat="43.299554" lon="-3.052997">
        <ele>204.1</ele>
      </trkpt>
      <trkpt lat="43.299458" lon="-3.052789">
        <ele>203.71</ele>
      </trkpt>
      <trkpt lat="43.29935" lon="-3.052491">
        <ele>205.81</ele>
      </trkpt>
      <trkpt lat="43.299312" lon="-3.052336">
        <ele>206.34</ele>
      </trkpt>
      <trkpt lat="43.299283" lon="-3.052137">
        <ele>206.7</ele>
      </trkpt>
      <trkpt lat="43.299234" lon="-3.051431">
        <ele>210.44</ele>
      </trkpt>
      <trkpt lat="43.29921" lon="-3.051234">
        <ele>210.97</ele>
      </trkpt>
      <trkpt lat="43.299164" lon="-3.051021">
        <ele>212.14</ele>
      </trkpt>
      <trkpt lat="43.299099" lon="-3.05087">
        <ele>212.82</ele>
      </trkpt>
      <trkpt lat="43.299059" lon="-3.050813">
        <ele>212.79</ele>
      </trkpt>
      <trkpt lat="43.298879" lon="-3.050619">
        <ele>215.33</ele>
      </trkpt>
      <trkpt lat="43.298845" lon="-3.050564">
        <ele>215.86</ele>
      </trkpt>
      <trkpt lat="43.29881" lon="-3.050444">
        <ele>216.96</ele>
      </trkpt>
      <trkpt lat="43.298804" lon="-3.050386">
        <ele>217.39</ele>
      </trkpt>
      <trkpt lat="43.298812" lon="-3.050322">
        <ele>218.22</ele>
      </trkpt>
      <trkpt lat="43.298831" lon="-3.050249">
        <ele>219.19</ele>
      </trkpt>
      <trkpt lat="43.298898" lon="-3.050112">
        <ele>220.99</ele>
      </trkpt>
      <trkpt lat="43.299021" lon="-3.049881">
        <ele>221.57</ele>
      </trkpt>
      <trkpt lat="43.299041" lon="-3.049827">
        <ele>221.74</ele>
      </trkpt>
      <trkpt lat="43.299059" lon="-3.04971">
        <ele>222.2</ele>
      </trkpt>
      <trkpt lat="43.299055" lon="-3.049649">
        <ele>222.25</ele>
      </trkpt>
      <trkpt lat="43.299041" lon="-3.049582">
        <ele>222.09</ele>
      </trkpt>
      <trkpt lat="43.298989" lon="-3.049451">
        <ele>222.77</ele>
      </trkpt>
      <trkpt lat="43.298949" lon="-3.049377">
        <ele>222.95</ele>
      </trkpt>
      <trkpt lat="43.298635" lon="-3.048949">
        <ele>224.6</ele>
      </trkpt>
      <trkpt lat="43.298574" lon="-3.048833">
        <ele>225.03</ele>
      </trkpt>
      <trkpt lat="43.298534" lon="-3.048697">
        <ele>225.72</ele>
      </trkpt>
      <trkpt lat="43.298488" lon="-3.048335">
        <ele>227.13</ele>
      </trkpt>
      <trkpt lat="43.29845" lon="-3.048172">
        <ele>227.46</ele>
      </trkpt>
      <trkpt lat="43.2984" lon="-3.048047">
        <ele>228.31</ele>
      </trkpt>
      <trkpt lat="43.298362" lon="-3.04798">
        <ele>228.92</ele>
      </trkpt>
      <trkpt lat="43.298231" lon="-3.047788">
        <ele>229.17</ele>
      </trkpt>
      <trkpt lat="43.298046" lon="-3.047544">
        <ele>228.61</ele>
      </trkpt>
      <trkpt lat="43.298009" lon="-3.047521">
        <ele>228.83</ele>
      </trkpt>
      <trkpt lat="43.297922" lon="-3.047498">
        <ele>228.26</ele>
      </trkpt>
      <trkpt lat="43.297843" lon="-3.047512">
        <ele>228.63</ele>
      </trkpt>
      <trkpt lat="43.297785" lon="-3.047553">
        <ele>229.96</ele>
      </trkpt>
      <trkpt lat="43.297767" lon="-3.04758">
        <ele>230.8</ele>
      </trkpt>
      <trkpt lat="43.297753" lon="-3.047642">
        <ele>232.3</ele>
      </trkpt>
      <trkpt lat="43.297772" lon="-3.047702">
        <ele>233.41</ele>
      </trkpt>
      <trkpt lat="43.297795" lon="-3.047729">
        <ele>233.69</ele>
      </trkpt>
      <trkpt lat="43.298014" lon="-3.04787">
        <ele>235.96</ele>
      </trkpt>
      <trkpt lat="43.298049" lon="-3.047908">
        <ele>235.96</ele>
      </trkpt>
      <trkpt lat="43.298098" lon="-3.047995">
        <ele>236.76</ele>
      </trkpt>
      <trkpt lat="43.298136" lon="-3.048132">
        <ele>237.27</ele>
      </trkpt>
      <trkpt lat="43.298248" lon="-3.048838">
        <ele>239.87</ele>
      </trkpt>
      <trkpt lat="43.298339" lon="-3.049352">
        <ele>243.48</ele>
      </trkpt>
      <trkpt lat="43.29835" lon="-3.049501">
        <ele>244.96</ele>
      </trkpt>
      <trkpt lat="43.298339" lon="-3.049558">
        <ele>245.24</ele>
      </trkpt>
      <trkpt lat="43.298292" lon="-3.049682">
        <ele>245.66</ele>
      </trkpt>
      <trkpt lat="43.298076" lon="-3.050088">
        <ele>249.22</ele>
      </trkpt>
      <trkpt lat="43.29802" lon="-3.050216">
        <ele>248.9</ele>
      </trkpt>
      <trkpt lat="43.297993" lon="-3.050368">
        <ele>249.72</ele>
      </trkpt>
      <trkpt lat="43.298009" lon="-3.050727">
        <ele>250.48</ele>
      </trkpt>
      <trkpt lat="43.298044" lon="-3.051099">
        <ele>252.55</ele>
      </trkpt>
      <trkpt lat="43.298091" lon="-3.051255">
        <ele>253.38</ele>
      </trkpt>
      <trkpt lat="43.298175" lon="-3.051407">
        <ele>253.88</ele>
      </trkpt>
      <trkpt lat="43.298205" lon="-3.051477">
        <ele>254.32</ele>
      </trkpt>
      <trkpt lat="43.298227" lon="-3.051554">
        <ele>255.22</ele>
      </trkpt>
      <trkpt lat="43.298369" lon="-3.052321">
        <ele>258.92</ele>
      </trkpt>
      <trkpt lat="43.298405" lon="-3.052624">
        <ele>259.73</ele>
      </trkpt>
      <trkpt lat="43.298442" lon="-3.053093">
        <ele>261.34</ele>
      </trkpt>
      <trkpt lat="43.2985" lon="-3.05356">
        <ele>261.95</ele>
      </trkpt>
      <trkpt lat="43.298487" lon="-3.053655">
        <ele>262.48</ele>
      </trkpt>
      <trkpt lat="43.29847" lon="-3.053693">
        <ele>262.62</ele>
      </trkpt>
      <trkpt lat="43.298417" lon="-3.05374">
        <ele>263.55</ele>
      </trkpt>
      <trkpt lat="43.298385" lon="-3.053745">
        <ele>264.19</ele>
      </trkpt>
      <trkpt lat="43.298333" lon="-3.053722">
        <ele>265.27</ele>
      </trkpt>
      <trkpt lat="43.298309" lon="-3.053688">
        <ele>265.89</ele>
      </trkpt>
      <trkpt lat="43.298291" lon="-3.053641">
        <ele>266.49</ele>
      </trkpt>
      <trkpt lat="43.298276" lon="-3.05356">
        <ele>266.86</ele>
      </trkpt>
      <trkpt lat="43.298256" lon="-3.053324">
        <ele>268.33</ele>
      </trkpt>
      <trkpt lat="43.298209" lon="-3.052923">
        <ele>269.8</ele>
      </trkpt>
      <trkpt lat="43.298176" lon="-3.052713">
        <ele>269.9</ele>
      </trkpt>
      <trkpt lat="43.298093" lon="-3.05235">
        <ele>271.36</ele>
      </trkpt>
      <trkpt lat="43.297963" lon="-3.051982">
        <ele>272.24</ele>
      </trkpt>
      <trkpt lat="43.297793" lon="-3.051584">
        <ele>274.12</ele>
      </trkpt>
      <trkpt lat="43.297693" lon="-3.051388">
        <ele>274.67</ele>
      </trkpt>
      <trkpt lat="43.297637" lon="-3.051297">
        <ele>275.58</ele>
      </trkpt>
      <trkpt lat="43.297487" lon="-3.051091">
        <ele>276.69</ele>
      </trkpt>
      <trkpt lat="43.297434" lon="-3.050973">
        <ele>277.04</ele>
      </trkpt>
      <trkpt lat="43.297422" lon="-3.050913">
        <ele>277.18</ele>
      </trkpt>
      <trkpt lat="43.297419" lon="-3.050846">
        <ele>277.7</ele>
      </trkpt>
      <trkpt lat="43.297446" lon="-3.050546">
        <ele>279.9</ele>
      </trkpt>
      <trkpt lat="43.297441" lon="-3.050314">
        <ele>280.51</ele>
      </trkpt>
      <trkpt lat="43.29738" lon="-3.049938">
        <ele>282.5</ele>
      </trkpt>
      <trkpt lat="43.297311" lon="-3.049674">
        <ele>283.91</ele>
      </trkpt>
      <trkpt lat="43.297218" lon="-3.049405">
        <ele>284.91</ele>
      </trkpt>
      <trkpt lat="43.297164" lon="-3.049285">
        <ele>284.82</ele>
      </trkpt>
      <trkpt lat="43.297099" lon="-3.049165">
        <ele>285.38</ele>
      </trkpt>
      <trkpt lat="43.297018" lon="-3.04905">
        <ele>285.94</ele>
      </trkpt>
      <trkpt lat="43.296932" lon="-3.048944">
        <ele>286.77</ele>
      </trkpt>
      <trkpt lat="43.296846" lon="-3.04886">
        <ele>287.9</ele>
      </trkpt>
      <trkpt lat="43.296694" lon="-3.04876">
        <ele>288.26</ele>
      </trkpt>
      <trkpt lat="43.29661" lon="-3.048721">
        <ele>289.19</ele>
      </trkpt>
      <trkpt lat="43.296521" lon="-3.048694">
        <ele>290.37</ele>
      </trkpt>
      <trkpt lat="43.296402" lon="-3.048672">
        <ele>290</ele>
      </trkpt>
      <trkpt lat="43.2959" lon="-3.04864">
        <ele>292.29</ele>
      </trkpt>
      <trkpt lat="43.295818" lon="-3.048645">
        <ele>292.7</ele>
      </trkpt>
      <trkpt lat="43.295728" lon="-3.048674">
        <ele>293.96</ele>
      </trkpt>
      <trkpt lat="43.295702" lon="-3.048701">
        <ele>294.74</ele>
      </trkpt>
      <trkpt lat="43.295687" lon="-3.048745">
        <ele>295.56</ele>
      </trkpt>
      <trkpt lat="43.295685" lon="-3.048839">
        <ele>296.97</ele>
      </trkpt>
      <trkpt lat="43.295701" lon="-3.048881">
        <ele>297.68</ele>
      </trkpt>
      <trkpt lat="43.295726" lon="-3.048912">
        <ele>298.01</ele>
      </trkpt>
      <trkpt lat="43.295761" lon="-3.048925">
        <ele>297.83</ele>
      </trkpt>
      <trkpt lat="43.296002" lon="-3.048899">
        <ele>298.55</ele>
      </trkpt>
      <trkpt lat="43.296312" lon="-3.048887">
        <ele>300.2</ele>
      </trkpt>
      <trkpt lat="43.296398" lon="-3.048905">
        <ele>300.21</ele>
      </trkpt>
      <trkpt lat="43.296537" lon="-3.048993">
        <ele>301.42</ele>
      </trkpt>
      <trkpt lat="43.2966" lon="-3.049065">
        <ele>301.74</ele>
      </trkpt>
      <trkpt lat="43.296649" lon="-3.049141">
        <ele>302.17</ele>
      </trkpt>
      <trkpt lat="43.296694" lon="-3.049234">
        <ele>302.52</ele>
      </trkpt>
      <trkpt lat="43.296729" lon="-3.04933">
        <ele>303.06</ele>
      </trkpt>
      <trkpt lat="43.296758" lon="-3.04944">
        <ele>303.55</ele>
      </trkpt>
      <trkpt lat="43.296784" lon="-3.049641">
        <ele>304.22</ele>
      </trkpt>
      <trkpt lat="43.296868" lon="-3.050723">
        <ele>308.24</ele>
      </trkpt>
      <trkpt lat="43.296908" lon="-3.051378">
        <ele>310.15</ele>
      </trkpt>
      <trkpt lat="43.296902" lon="-3.052099">
        <ele>314.58</ele>
      </trkpt>
      <trkpt lat="43.29689" lon="-3.052293">
        <ele>315.34</ele>
      </trkpt>
      <trkpt lat="43.296833" lon="-3.052883">
        <ele>317.93</ele>
      </trkpt>
      <trkpt lat="43.296802" lon="-3.053122">
        <ele>318.46</ele>
      </trkpt>
      <trkpt lat="43.296772" lon="-3.053208">
        <ele>319.39</ele>
      </trkpt>
      <trkpt lat="43.29675" lon="-3.053238">
        <ele>319.91</ele>
      </trkpt>
      <trkpt lat="43.296693" lon="-3.053261">
        <ele>320.64</ele>
      </trkpt>
      <trkpt lat="43.296641" lon="-3.053245">
        <ele>321.35</ele>
      </trkpt>
      <trkpt lat="43.296594" lon="-3.05319">
        <ele>323.18</ele>
      </trkpt>
      <trkpt lat="43.296578" lon="-3.053144">
        <ele>323.97</ele>
      </trkpt>
      <trkpt lat="43.296567" lon="-3.053073">
        <ele>324.89</ele>
      </trkpt>
      <trkpt lat="43.29657" lon="-3.053012">
        <ele>325.39</ele>
      </trkpt>
      <trkpt lat="43.296607" lon="-3.052589">
        <ele>327.17</ele>
      </trkpt>
      <trkpt lat="43.296613" lon="-3.052381">
        <ele>327.43</ele>
      </trkpt>
      <trkpt lat="43.296607" lon="-3.052181">
        <ele>328.16</ele>
      </trkpt>
      <trkpt lat="43.296585" lon="-3.051966">
        <ele>329.59</ele>
      </trkpt>
      <trkpt lat="43.296527" lon="-3.051571">
        <ele>330.64</ele>
      </trkpt>
      <trkpt lat="43.296489" lon="-3.051372">
        <ele>332.11</ele>
      </trkpt>
      <trkpt lat="43.296389" lon="-3.050999">
        <ele>333.76</ele>
      </trkpt>
      <trkpt lat="43.296224" lon="-3.050544">
        <ele>336.03</ele>
      </trkpt>
      <trkpt lat="43.295944" lon="-3.049843">
        <ele>338.34</ele>
      </trkpt>
      <trkpt lat="43.295911" lon="-3.049781">
        <ele>337.53</ele>
      </trkpt>
      <trkpt lat="43.295884" lon="-3.04975">
        <ele>337.13</ele>
      </trkpt>
      <trkpt lat="43.295853" lon="-3.049733">
        <ele>336.72</ele>
      </trkpt>
      <trkpt lat="43.295813" lon="-3.049728">
        <ele>336.45</ele>
      </trkpt>
      <trkpt lat="43.295766" lon="-3.049739">
        <ele>336.59</ele>
      </trkpt>
      <trkpt lat="43.295729" lon="-3.049772">
        <ele>337.86</ele>
      </trkpt>
      <trkpt lat="43.295704" lon="-3.049819">
        <ele>339.69</ele>
      </trkpt>
      <trkpt lat="43.295701" lon="-3.049881">
        <ele>341.42</ele>
      </trkpt>
      <trkpt lat="43.29571" lon="-3.049946">
        <ele>342.2</ele>
      </trkpt>
      <trkpt lat="43.295747" lon="-3.050021">
        <ele>342.39</ele>
      </trkpt>
      <trkpt lat="43.295893" lon="-3.050266">
        <ele>343.13</ele>
      </trkpt>
      <trkpt lat="43.295941" lon="-3.050372">
        <ele>343.43</ele>
      </trkpt>
      <trkpt lat="43.295992" lon="-3.050513">
        <ele>344.26</ele>
      </trkpt>
      <trkpt lat="43.296063" lon="-3.050878">
        <ele>346.04</ele>
      </trkpt>
      <trkpt lat="43.2961" lon="-3.051292">
        <ele>348.69</ele>
      </trkpt>
      <trkpt lat="43.296099" lon="-3.051444">
        <ele>349.4</ele>
      </trkpt>
      <trkpt lat="43.296082" lon="-3.051599">
        <ele>349.93</ele>
      </trkpt>
      <trkpt lat="43.295964" lon="-3.052218">
        <ele>352.69</ele>
      </trkpt>
      <trkpt lat="43.295853" lon="-3.052699">
        <ele>354.71</ele>
      </trkpt>
      <trkpt lat="43.295685" lon="-3.053277">
        <ele>356.73</ele>
      </trkpt>
      <trkpt lat="43.295604" lon="-3.053483">
        <ele>357.69</ele>
      </trkpt>
      <trkpt lat="43.295565" lon="-3.053545">
        <ele>358.67</ele>
      </trkpt>
      <trkpt lat="43.295538" lon="-3.05357">
        <ele>359.25</ele>
      </trkpt>
      <trkpt lat="43.295507" lon="-3.053581">
        <ele>359.81</ele>
      </trkpt>
      <trkpt lat="43.295452" lon="-3.05357">
        <ele>360.61</ele>
      </trkpt>
      <trkpt lat="43.295406" lon="-3.053524">
        <ele>361.08</ele>
      </trkpt>
      <trkpt lat="43.295379" lon="-3.053468">
        <ele>361.3</ele>
      </trkpt>
      <trkpt lat="43.295364" lon="-3.053398">
        <ele>362.48</ele>
      </trkpt>
      <trkpt lat="43.295364" lon="-3.053317">
        <ele>363.41</ele>
      </trkpt>
      <trkpt lat="43.295397" lon="-3.053097">
        <ele>364.22</ele>
      </trkpt>
      <trkpt lat="43.295457" lon="-3.052635">
        <ele>368.2</ele>
      </trkpt>
      <trkpt lat="43.295465" lon="-3.052427">
        <ele>369.64</ele>
      </trkpt>
      <trkpt lat="43.295454" lon="-3.052187">
        <ele>370.23</ele>
      </trkpt>
      <trkpt lat="43.295412" lon="-3.051755">
        <ele>372.5</ele>
      </trkpt>
      <trkpt lat="43.295365" lon="-3.051502">
        <ele>374.74</ele>
      </trkpt>
      <trkpt lat="43.295289" lon="-3.05125">
        <ele>376.28</ele>
      </trkpt>
      <trkpt lat="43.295175" lon="-3.050978">
        <ele>378.45</ele>
      </trkpt>
      <trkpt lat="43.294964" lon="-3.05062">
        <ele>381.29</ele>
      </trkpt>
      <trkpt lat="43.294733" lon="-3.050327">
        <ele>381.78</ele>
      </trkpt>
      <trkpt lat="43.294203" lon="-3.049749">
        <ele>383.73</ele>
      </trkpt>
      <trkpt lat="43.293573" lon="-3.049144">
        <ele>383.72</ele>
      </trkpt>
      <trkpt lat="43.293427" lon="-3.049044">
        <ele>383.88</ele>
      </trkpt>
      <trkpt lat="43.293338" lon="-3.049013">
        <ele>384.59</ele>
      </trkpt>
      <trkpt lat="43.293261" lon="-3.049001">
        <ele>385.07</ele>
      </trkpt>
      <trkpt lat="43.293127" lon="-3.048998">
        <ele>386.03</ele>
      </trkpt>
      <trkpt lat="43.292859" lon="-3.049016">
        <ele>387.08</ele>
      </trkpt>
      <trkpt lat="43.292651" lon="-3.049038">
        <ele>389.64</ele>
      </trkpt>
      <trkpt lat="43.292468" lon="-3.049082">
        <ele>389.99</ele>
      </trkpt>
      <trkpt lat="43.29228" lon="-3.049151">
        <ele>390.12</ele>
      </trkpt>
      <trkpt lat="43.292217" lon="-3.049161">
        <ele>390.34</ele>
      </trkpt>
      <trkpt lat="43.292134" lon="-3.04916">
        <ele>390.97</ele>
      </trkpt>
      <trkpt lat="43.291897" lon="-3.049121">
        <ele>392.36</ele>
      </trkpt>
      <trkpt lat="43.291774" lon="-3.049117">
        <ele>393.03</ele>
      </trkpt>
      <trkpt lat="43.29141" lon="-3.049229">
        <ele>396.16</ele>
      </trkpt>
      <trkpt lat="43.291261" lon="-3.049238">
        <ele>397.39</ele>
      </trkpt>
      <trkpt lat="43.291166" lon="-3.049221">
        <ele>398.58</ele>
      </trkpt>
      <trkpt lat="43.291068" lon="-3.049189">
        <ele>399.53</ele>
      </trkpt>
      <trkpt lat="43.290945" lon="-3.049175">
        <ele>400</ele>
      </trkpt>
      <trkpt lat="43.290564" lon="-3.049223">
        <ele>401.56</ele>
      </trkpt>
      <trkpt lat="43.290468" lon="-3.049217">
        <ele>402.33</ele>
      </trkpt>
      <trkpt lat="43.290368" lon="-3.049186">
        <ele>402.86</ele>
      </trkpt>
      <trkpt lat="43.290318" lon="-3.049157">
        <ele>402.58</ele>
      </trkpt>
      <trkpt lat="43.290238" lon="-3.049084">
        <ele>401.75</ele>
      </trkpt>
      <trkpt lat="43.290135" lon="-3.048952">
        <ele>401.07</ele>
      </trkpt>
      <trkpt lat="43.29005" lon="-3.048791">
        <ele>400.01</ele>
      </trkpt>
      <trkpt lat="43.289867" lon="-3.048343">
        <ele>397.14</ele>
      </trkpt>
      <trkpt lat="43.289826" lon="-3.048269">
        <ele>397.35</ele>
      </trkpt>
      <trkpt lat="43.289782" lon="-3.04821">
        <ele>396.94</ele>
      </trkpt>
      <trkpt lat="43.28968" lon="-3.048127">
        <ele>395.54</ele>
      </trkpt>
      <trkpt lat="43.289186" lon="-3.047838">
        <ele>391.39</ele>
      </trkpt>
      <trkpt lat="43.289086" lon="-3.047784">
        <ele>390.67</ele>
      </trkpt>
      <trkpt lat="43.289011" lon="-3.047756">
        <ele>390.35</ele>
      </trkpt>
      <trkpt lat="43.288927" lon="-3.047745">
        <ele>389.31</ele>
      </trkpt>
      <trkpt lat="43.288838" lon="-3.047747">
        <ele>388.1</ele>
      </trkpt>
      <trkpt lat="43.288747" lon="-3.047764">
        <ele>387.08</ele>
      </trkpt>
      <trkpt lat="43.288619" lon="-3.047799">
        <ele>385.84</ele>
      </trkpt>
      <trkpt lat="43.288439" lon="-3.047868">
        <ele>384.7</ele>
      </trkpt>
      <trkpt lat="43.287907" lon="-3.048129">
        <ele>382.13</ele>
      </trkpt>
      <trkpt lat="43.28765" lon="-3.048241">
        <ele>380.84</ele>
      </trkpt>
      <trkpt lat="43.287445" lon="-3.04832">
        <ele>381.07</ele>
      </trkpt>
      <trkpt lat="43.287317" lon="-3.048392">
        <ele>380.75</ele>
      </trkpt>
      <trkpt lat="43.287259" lon="-3.048436">
        <ele>380.08</ele>
      </trkpt>
      <trkpt lat="43.287204" lon="-3.048512">
        <ele>379.93</ele>
      </trkpt>
      <trkpt lat="43.287144" lon="-3.048652">
        <ele>379.5</ele>
      </trkpt>
      <trkpt lat="43.287125" lon="-3.048736">
        <ele>378.5</ele>
      </trkpt>
      <trkpt lat="43.287102" lon="-3.048912">
        <ele>377.89</ele>
      </trkpt>
      <trkpt lat="43.287117" lon="-3.049364">
        <ele>376.69</ele>
      </trkpt>
      <trkpt lat="43.287116" lon="-3.049523">
        <ele>375.9</ele>
      </trkpt>
      <trkpt lat="43.287101" lon="-3.049672">
        <ele>375.78</ele>
      </trkpt>
      <trkpt lat="43.287033" lon="-3.050123">
        <ele>374.87</ele>
      </trkpt>
      <trkpt lat="43.286901" lon="-3.050882">
        <ele>372.76</ele>
      </trkpt>
      <trkpt lat="43.286808" lon="-3.051461">
        <ele>369.56</ele>
      </trkpt>
      <trkpt lat="43.286735" lon="-3.051415">
        <ele>369.85</ele>
      </trkpt>
      <trkpt lat="43.286789" lon="-3.051187">
        <ele>371.97</ele>
      </trkpt>
      <trkpt lat="43.286904" lon="-3.050503">
        <ele>374.6</ele>
      </trkpt>
      <trkpt lat="43.286936" lon="-3.050301">
        <ele>373.97</ele>
      </trkpt>
      <trkpt lat="43.286998" lon="-3.049802">
        <ele>374.88</ele>
      </trkpt>
      <trkpt lat="43.286998" lon="-3.049802">
        <ele>374.88</ele>
      </trkpt>
      <trkpt lat="43.286936" lon="-3.050301">
        <ele>373.97</ele>
      </trkpt>
      <trkpt lat="43.286904" lon="-3.050503">
        <ele>374.6</ele>
      </trkpt>
      <trkpt lat="43.286789" lon="-3.051187">
        <ele>371.97</ele>
      </trkpt>
      <trkpt lat="43.286735" lon="-3.051415">
        <ele>369.85</ele>
      </trkpt>
      <trkpt lat="43.286808" lon="-3.051461">
        <ele>369.56</ele>
      </trkpt>
      <trkpt lat="43.286726" lon="-3.051902">
        <ele>368.09</ele>
      </trkpt>
      <trkpt lat="43.286674" lon="-3.052137">
        <ele>369.43</ele>
      </trkpt>
      <trkpt lat="43.286594" lon="-3.052465">
        <ele>373.21</ele>
      </trkpt>
      <trkpt lat="43.28656" lon="-3.052649">
        <ele>374.89</ele>
      </trkpt>
      <trkpt lat="43.286551" lon="-3.052886">
        <ele>376</ele>
      </trkpt>
      <trkpt lat="43.286619" lon="-3.052889">
        <ele>376</ele>
      </trkpt>
      <trkpt lat="43.286683" lon="-3.05292">
        <ele>376.36</ele>
      </trkpt>
      <trkpt lat="43.286736" lon="-3.052976">
        <ele>376.89</ele>
      </trkpt>
      <trkpt lat="43.286775" lon="-3.053053">
        <ele>377</ele>
      </trkpt>
      <trkpt lat="43.286794" lon="-3.05314">
        <ele>377.03</ele>
      </trkpt>
      <trkpt lat="43.286793" lon="-3.053231">
        <ele>377.2</ele>
      </trkpt>
      <trkpt lat="43.286773" lon="-3.053317">
        <ele>377.2</ele>
      </trkpt>
      <trkpt lat="43.286734" lon="-3.053391">
        <ele>377.07</ele>
      </trkpt>
      <trkpt lat="43.286681" lon="-3.053445">
        <ele>377.08</ele>
      </trkpt>
      <trkpt lat="43.286618" lon="-3.053475">
        <ele>377</ele>
      </trkpt>
      <trkpt lat="43.286552" lon="-3.053477">
        <ele>377</ele>
      </trkpt>
      <trkpt lat="43.286487" lon="-3.053451">
        <ele>376.99</ele>
      </trkpt>
      <trkpt lat="43.286431" lon="-3.053399">
        <ele>376.77</ele>
      </trkpt>
      <trkpt lat="43.28639" lon="-3.053326">
        <ele>376.26</ele>
      </trkpt>
      <trkpt lat="43.286367" lon="-3.053239">
        <ele>376</ele>
      </trkpt>
      <trkpt lat="43.286139" lon="-3.053296">
        <ele>376.9</ele>
      </trkpt>
      <trkpt lat="43.286031" lon="-3.053337">
        <ele>377.18</ele>
      </trkpt>
      <trkpt lat="43.285797" lon="-3.053464">
        <ele>378.59</ele>
      </trkpt>
      <trkpt lat="43.284938" lon="-3.053903">
        <ele>377.53</ele>
      </trkpt>
      <trkpt lat="43.285196" lon="-3.054621">
        <ele>381</ele>
      </trkpt>
      <trkpt lat="43.285331" lon="-3.054973">
        <ele>380.25</ele>
      </trkpt>
      <trkpt lat="43.285161" lon="-3.055071">
        <ele>379.19</ele>
      </trkpt>
      <trkpt lat="43.285117" lon="-3.055066">
        <ele>379.05</ele>
      </trkpt>
      <trkpt lat="43.284963" lon="-3.054993">
        <ele>380.14</ele>
      </trkpt>
      <trkpt lat="43.284908" lon="-3.055004">
        <ele>380.07</ele>
      </trkpt>
      <trkpt lat="43.284584" lon="-3.05521">
        <ele>382.52</ele>
      </trkpt>
      <trkpt lat="43.284321" lon="-3.055417">
        <ele>385.71</ele>
      </trkpt>
      <trkpt lat="43.2842" lon="-3.05549">
        <ele>387.02</ele>
      </trkpt>
      <trkpt lat="43.284152" lon="-3.055491">
        <ele>387.77</ele>
      </trkpt>
      <trkpt lat="43.284101" lon="-3.055476">
        <ele>388.81</ele>
      </trkpt>
      <trkpt lat="43.283987" lon="-3.055412">
        <ele>391.11</ele>
      </trkpt>
      <trkpt lat="43.283952" lon="-3.055415">
        <ele>391.49</ele>
      </trkpt>
      <trkpt lat="43.2839" lon="-3.055629">
        <ele>392.88</ele>
      </trkpt>
      <trkpt lat="43.283769" lon="-3.056026">
        <ele>396.6</ele>
      </trkpt>
      <trkpt lat="43.283691" lon="-3.056144">
        <ele>397.56</ele>
      </trkpt>
      <trkpt lat="43.283617" lon="-3.05623">
        <ele>397.81</ele>
      </trkpt>
      <trkpt lat="43.283503" lon="-3.056339">
        <ele>397.77</ele>
      </trkpt>
      <trkpt lat="43.283477" lon="-3.056417">
        <ele>397.74</ele>
      </trkpt>
      <trkpt lat="43.283487" lon="-3.056508">
        <ele>397.89</ele>
      </trkpt>
      <trkpt lat="43.283509" lon="-3.056586">
        <ele>397.59</ele>
      </trkpt>
      <trkpt lat="43.283518" lon="-3.05668">
        <ele>398.46</ele>
      </trkpt>
      <trkpt lat="43.283515" lon="-3.056711">
        <ele>399.07</ele>
      </trkpt>
      <trkpt lat="43.283503" lon="-3.056736">
        <ele>399.83</ele>
      </trkpt>
      <trkpt lat="43.283466" lon="-3.056761">
        <ele>401.16</ele>
      </trkpt>
      <trkpt lat="43.283423" lon="-3.056755">
        <ele>402.21</ele>
      </trkpt>
      <trkpt lat="43.283366" lon="-3.056726">
        <ele>403.06</ele>
      </trkpt>
      <trkpt lat="43.283304" lon="-3.056643">
        <ele>403.78</ele>
      </trkpt>
      <trkpt lat="43.283273" lon="-3.056541">
        <ele>403.51</ele>
      </trkpt>
      <trkpt lat="43.283261" lon="-3.056465">
        <ele>405.15</ele>
      </trkpt>
      <trkpt lat="43.283265" lon="-3.056391">
        <ele>406.19</ele>
      </trkpt>
      <trkpt lat="43.283341" lon="-3.056179">
        <ele>406.68</ele>
      </trkpt>
      <trkpt lat="43.283361" lon="-3.056073">
        <ele>407.07</ele>
      </trkpt>
      <trkpt lat="43.283352" lon="-3.055976">
        <ele>408.06</ele>
      </trkpt>
      <trkpt lat="43.283327" lon="-3.055876">
        <ele>409.44</ele>
      </trkpt>
      <trkpt lat="43.283249" lon="-3.055675">
        <ele>410.74</ele>
      </trkpt>
      <trkpt lat="43.283167" lon="-3.055543">
        <ele>412.02</ele>
      </trkpt>
      <trkpt lat="43.283071" lon="-3.05547">
        <ele>412.74</ele>
      </trkpt>
      <trkpt lat="43.283001" lon="-3.055455">
        <ele>413.58</ele>
      </trkpt>
      <trkpt lat="43.282944" lon="-3.055504">
        <ele>415.14</ele>
      </trkpt>
      <trkpt lat="43.28293" lon="-3.055648">
        <ele>417.4</ele>
      </trkpt>
      <trkpt lat="43.282936" lon="-3.055826">
        <ele>419.01</ele>
      </trkpt>
      <trkpt lat="43.282909" lon="-3.055985">
        <ele>420.1</ele>
      </trkpt>
      <trkpt lat="43.282873" lon="-3.056105">
        <ele>420.96</ele>
      </trkpt>
      <trkpt lat="43.282838" lon="-3.056266">
        <ele>422.05</ele>
      </trkpt>
      <trkpt lat="43.282831" lon="-3.056348">
        <ele>422.29</ele>
      </trkpt>
      <trkpt lat="43.282846" lon="-3.056499">
        <ele>423.04</ele>
      </trkpt>
      <trkpt lat="43.282922" lon="-3.056833">
        <ele>424.35</ele>
      </trkpt>
      <trkpt lat="43.282949" lon="-3.05705">
        <ele>424.46</ele>
      </trkpt>
      <trkpt lat="43.282996" lon="-3.057366">
        <ele>420.35</ele>
      </trkpt>
      <trkpt lat="43.283022" lon="-3.057501">
        <ele>420.16</ele>
      </trkpt>
      <trkpt lat="43.283107" lon="-3.057892">
        <ele>426.57</ele>
      </trkpt>
      <trkpt lat="43.283167" lon="-3.058161">
        <ele>427.21</ele>
      </trkpt>
      <trkpt lat="43.283327" lon="-3.059189">
        <ele>430.87</ele>
      </trkpt>
      <trkpt lat="43.283447" lon="-3.060151">
        <ele>434.07</ele>
      </trkpt>
      <trkpt lat="43.283487" lon="-3.06053">
        <ele>435.25</ele>
      </trkpt>
      <trkpt lat="43.283494" lon="-3.060732">
        <ele>435.31</ele>
      </trkpt>
      <trkpt lat="43.283467" lon="-3.061062">
        <ele>436.31</ele>
      </trkpt>
      <trkpt lat="43.283467" lon="-3.061062">
        <ele>436.31</ele>
      </trkpt>
      <trkpt lat="43.283272" lon="-3.063387">
        <ele>443.41</ele>
      </trkpt>
      <trkpt lat="43.283232" lon="-3.064105">
        <ele>446.47</ele>
      </trkpt>
      <trkpt lat="43.283139" lon="-3.064631">
        <ele>448.69</ele>
      </trkpt>
      <trkpt lat="43.283072" lon="-3.065179">
        <ele>450.24</ele>
      </trkpt>
      <trkpt lat="43.283061" lon="-3.065432">
        <ele>451.52</ele>
      </trkpt>
      <trkpt lat="43.283069" lon="-3.065553">
        <ele>452.1</ele>
      </trkpt>
      <trkpt lat="43.283097" lon="-3.065659">
        <ele>452.28</ele>
      </trkpt>
      <trkpt lat="43.283169" lon="-3.065738">
        <ele>452.17</ele>
      </trkpt>
      <trkpt lat="43.283263" lon="-3.065775">
        <ele>452.28</ele>
      </trkpt>
      <trkpt lat="43.283362" lon="-3.065783">
        <ele>452.95</ele>
      </trkpt>
      <trkpt lat="43.283422" lon="-3.065835">
        <ele>454.61</ele>
      </trkpt>
      <trkpt lat="43.283474" lon="-3.065948">
        <ele>455.66</ele>
      </trkpt>
      <trkpt lat="43.283562" lon="-3.066271">
        <ele>456.21</ele>
      </trkpt>
      <trkpt lat="43.283657" lon="-3.066508">
        <ele>456.77</ele>
      </trkpt>
      <trkpt lat="43.28377" lon="-3.06666">
        <ele>457.12</ele>
      </trkpt>
      <trkpt lat="43.283812" lon="-3.066684">
        <ele>457.43</ele>
      </trkpt>
      <trkpt lat="43.283937" lon="-3.066674">
        <ele>457.89</ele>
      </trkpt>
      <trkpt lat="43.28424" lon="-3.066515">
        <ele>457.86</ele>
      </trkpt>
      <trkpt lat="43.284321" lon="-3.066504">
        <ele>456.85</ele>
      </trkpt>
      <trkpt lat="43.284411" lon="-3.066514">
        <ele>455.93</ele>
      </trkpt>
      <trkpt lat="43.284514" lon="-3.066543">
        <ele>455.72</ele>
      </trkpt>
      <trkpt lat="43.284777" lon="-3.066683">
        <ele>455.22</ele>
      </trkpt>
      <trkpt lat="43.285003" lon="-3.066761">
        <ele>455.71</ele>
      </trkpt>
      <trkpt lat="43.285091" lon="-3.066798">
        <ele>457.01</ele>
      </trkpt>
      <trkpt lat="43.285168" lon="-3.066845">
        <ele>457.75</ele>
      </trkpt>
      <trkpt lat="43.285374" lon="-3.06701">
        <ele>458.22</ele>
      </trkpt>
      <trkpt lat="43.285554" lon="-3.067193">
        <ele>457.44</ele>
      </trkpt>
      <trkpt lat="43.285698" lon="-3.067382">
        <ele>458.46</ele>
      </trkpt>
      <trkpt lat="43.285867" lon="-3.067664">
        <ele>459.29</ele>
      </trkpt>
      <trkpt lat="43.286024" lon="-3.067981">
        <ele>460.05</ele>
      </trkpt>
      <trkpt lat="43.286171" lon="-3.068316">
        <ele>460.03</ele>
      </trkpt>
      <trkpt lat="43.286218" lon="-3.068482">
        <ele>460.2</ele>
      </trkpt>
      <trkpt lat="43.286241" lon="-3.068645">
        <ele>460.59</ele>
      </trkpt>
      <trkpt lat="43.286317" lon="-3.070086">
        <ele>460.4</ele>
      </trkpt>
      <trkpt lat="43.286355" lon="-3.070807">
        <ele>461.86</ele>
      </trkpt>
      <trkpt lat="43.286352" lon="-3.070951">
        <ele>462.2</ele>
      </trkpt>
      <trkpt lat="43.286331" lon="-3.071083">
        <ele>462.67</ele>
      </trkpt>
      <trkpt lat="43.286221" lon="-3.07148">
        <ele>463.51</ele>
      </trkpt>
      <trkpt lat="43.286162" lon="-3.071666">
        <ele>463.74</ele>
      </trkpt>
      <trkpt lat="43.286119" lon="-3.07185">
        <ele>463.56</ele>
      </trkpt>
      <trkpt lat="43.286072" lon="-3.072095">
        <ele>463.71</ele>
      </trkpt>
      <trkpt lat="43.285996" lon="-3.07272">
        <ele>463.35</ele>
      </trkpt>
      <trkpt lat="43.285953" lon="-3.073021">
        <ele>464.39</ele>
      </trkpt>
      <trkpt lat="43.285838" lon="-3.073643">
        <ele>464.23</ele>
      </trkpt>
      <trkpt lat="43.285799" lon="-3.073973">
        <ele>464.33</ele>
      </trkpt>
      <trkpt lat="43.285773" lon="-3.074084">
        <ele>465.57</ele>
      </trkpt>
      <trkpt lat="43.285707" lon="-3.07427">
        <ele>466.37</ele>
      </trkpt>
      <trkpt lat="43.285432" lon="-3.074908">
        <ele>470.42</ele>
      </trkpt>
      <trkpt lat="43.285372" lon="-3.075032">
        <ele>468.97</ele>
      </trkpt>
      <trkpt lat="43.285312" lon="-3.075087">
        <ele>469.09</ele>
      </trkpt>
      <trkpt lat="43.285231" lon="-3.075114">
        <ele>469.9</ele>
      </trkpt>
      <trkpt lat="43.285071" lon="-3.075135">
        <ele>471.98</ele>
      </trkpt>
      <trkpt lat="43.284956" lon="-3.075135">
        <ele>473.48</ele>
      </trkpt>
      <trkpt lat="43.284328" lon="-3.075035">
        <ele>478.19</ele>
      </trkpt>
      <trkpt lat="43.284212" lon="-3.075033">
        <ele>478.79</ele>
      </trkpt>
      <trkpt lat="43.284151" lon="-3.075041">
        <ele>479.08</ele>
      </trkpt>
      <trkpt lat="43.284082" lon="-3.075068">
        <ele>479.33</ele>
      </trkpt>
      <trkpt lat="43.283945" lon="-3.075176">
        <ele>479.22</ele>
      </trkpt>
      <trkpt lat="43.283812" lon="-3.075262">
        <ele>479.84</ele>
      </trkpt>
      <trkpt lat="43.283505" lon="-3.075396">
        <ele>480.47</ele>
      </trkpt>
      <trkpt lat="43.283389" lon="-3.075485">
        <ele>479.85</ele>
      </trkpt>
      <trkpt lat="43.283289" lon="-3.075626">
        <ele>479.83</ele>
      </trkpt>
      <trkpt lat="43.283227" lon="-3.075812">
        <ele>480.16</ele>
      </trkpt>
      <trkpt lat="43.28319" lon="-3.075946">
        <ele>480.45</ele>
      </trkpt>
      <trkpt lat="43.283175" lon="-3.076084">
        <ele>480.86</ele>
      </trkpt>
      <trkpt lat="43.283168" lon="-3.076255">
        <ele>482.58</ele>
      </trkpt>
      <trkpt lat="43.283244" lon="-3.076643">
        <ele>483.61</ele>
      </trkpt>
      <trkpt lat="43.28338" lon="-3.077053">
        <ele>485.02</ele>
      </trkpt>
      <trkpt lat="43.283509" lon="-3.077643">
        <ele>486.75</ele>
      </trkpt>
      <trkpt lat="43.283559" lon="-3.077907">
        <ele>488.11</ele>
      </trkpt>
      <trkpt lat="43.28356" lon="-3.078039">
        <ele>488.85</ele>
      </trkpt>
      <trkpt lat="43.283522" lon="-3.07821">
        <ele>488.76</ele>
      </trkpt>
      <trkpt lat="43.283438" lon="-3.078324">
        <ele>488.09</ele>
      </trkpt>
      <trkpt lat="43.283269" lon="-3.078551">
        <ele>490.32</ele>
      </trkpt>
      <trkpt lat="43.283235" lon="-3.078616">
        <ele>491.77</ele>
      </trkpt>
      <trkpt lat="43.283226" lon="-3.07869">
        <ele>492.63</ele>
      </trkpt>
      <trkpt lat="43.28324" lon="-3.078798">
        <ele>492.89</ele>
      </trkpt>
      <trkpt lat="43.283351" lon="-3.079401">
        <ele>494.68</ele>
      </trkpt>
      <trkpt lat="43.283412" lon="-3.079877">
        <ele>494.57</ele>
      </trkpt>
    </trkseg>
  </trk>
</gpx>
