<?xml version="1.0" encoding="UTF-8"?>
<gpx creator="Wikiloc - https://www.wikiloc.com" version="1.1" xmlns="http://www.topografix.com/GPX/1/1" xmlns:xsi="http://www.w3.org/2001/XMLSchema-instance" xsi:schemaLocation="http://www.topografix.com/GPX/1/1 http://www.topografix.com/GPX/1/1/gpx.xsd">
  <metadata>
    <name>Wikiloc - Peñas Blancas y Cima Los Reales desde Genal (Por Jubrique) 1...</name>
    <link href="https://www.wikiloc.com/cycling-trails/penas-blancas-y-cima-los-reales-desde-genal-por-jubrique-1-447m-76053750">
      <text>Peñas Blancas y Cima Los Reales desde Genal (Por Jubrique) 1... on Wikiloc</text>
    </link>
    <time>2021-06-14T08:38:54Z</time>
  </metadata>
  <trk>
    <name>Peñas Blancas y Cima Los Reales desde Genal (Por Jubrique) 1... - Wikiloc</name>
    <cmt></cmt>
    <desc></desc>
    <trkseg>
      <trkpt lat="36.567150" lon="-5.245845">
        <ele>229.943</ele>
        <time>2021-06-14T06:35:02Z</time>
      </trkpt>
      <trkpt lat="36.567140" lon="-5.245472">
        <ele>230.764</ele>
        <time>2021-06-14T06:35:14Z</time>
      </trkpt>
      <trkpt lat="36.567653" lon="-5.245208">
        <ele>235.910</ele>
        <time>2021-06-14T06:35:36Z</time>
      </trkpt>
      <trkpt lat="36.567573" lon="-5.244658">
        <ele>241.208</ele>
        <time>2021-06-14T06:35:54Z</time>
      </trkpt>
      <trkpt lat="36.567789" lon="-5.244224">
        <ele>244.571</ele>
        <time>2021-06-14T06:36:11Z</time>
      </trkpt>
      <trkpt lat="36.568061" lon="-5.243934">
        <ele>247.030</ele>
        <time>2021-06-14T06:36:25Z</time>
      </trkpt>
      <trkpt lat="36.568585" lon="-5.243677">
        <ele>250.464</ele>
        <time>2021-06-14T06:36:44Z</time>
      </trkpt>
      <trkpt lat="36.568650" lon="-5.243486">
        <ele>251.779</ele>
        <time>2021-06-14T06:36:49Z</time>
      </trkpt>
      <trkpt lat="36.567929" lon="-5.243184">
        <ele>257.587</ele>
        <time>2021-06-14T06:37:18Z</time>
      </trkpt>
      <trkpt lat="36.567282" lon="-5.243240">
        <ele>261.821</ele>
        <time>2021-06-14T06:37:43Z</time>
      </trkpt>
      <trkpt lat="36.567115" lon="-5.243355">
        <ele>263.219</ele>
        <time>2021-06-14T06:37:49Z</time>
      </trkpt>
      <trkpt lat="36.566790" lon="-5.244049">
        <ele>268.674</ele>
        <time>2021-06-14T06:38:07Z</time>
      </trkpt>
      <trkpt lat="36.566564" lon="-5.244112">
        <ele>271.089</ele>
        <time>2021-06-14T06:38:15Z</time>
      </trkpt>
      <trkpt lat="36.566208" lon="-5.243630">
        <ele>276.906</ele>
        <time>2021-06-14T06:38:35Z</time>
      </trkpt>
      <trkpt lat="36.566086" lon="-5.243189">
        <ele>280.826</ele>
        <time>2021-06-14T06:38:49Z</time>
      </trkpt>
      <trkpt lat="36.565748" lon="-5.242904">
        <ele>285.408</ele>
        <time>2021-06-14T06:39:07Z</time>
      </trkpt>
      <trkpt lat="36.565821" lon="-5.241600">
        <ele>296.945</ele>
        <time>2021-06-14T06:39:42Z</time>
      </trkpt>
      <trkpt lat="36.565975" lon="-5.241523">
        <ele>299.654</ele>
        <time>2021-06-14T06:39:54Z</time>
      </trkpt>
      <trkpt lat="36.565954" lon="-5.242066">
        <ele>304.118</ele>
        <time>2021-06-14T06:40:12Z</time>
      </trkpt>
      <trkpt lat="36.566148" lon="-5.242200">
        <ele>306.883</ele>
        <time>2021-06-14T06:40:23Z</time>
      </trkpt>
      <trkpt lat="36.566422" lon="-5.242068">
        <ele>310.411</ele>
        <time>2021-06-14T06:40:33Z</time>
      </trkpt>
      <trkpt lat="36.566789" lon="-5.241614">
        <ele>316.225</ele>
        <time>2021-06-14T06:40:51Z</time>
      </trkpt>
      <trkpt lat="36.566779" lon="-5.241491">
        <ele>317.663</ele>
        <time>2021-06-14T06:40:55Z</time>
      </trkpt>
      <trkpt lat="36.566529" lon="-5.241391">
        <ele>320.928</ele>
        <time>2021-06-14T06:41:09Z</time>
      </trkpt>
      <trkpt lat="36.566496" lon="-5.241126">
        <ele>323.375</ele>
        <time>2021-06-14T06:41:18Z</time>
      </trkpt>
      <trkpt lat="36.567134" lon="-5.239688">
        <ele>336.028</ele>
        <time>2021-06-14T06:42:10Z</time>
      </trkpt>
      <trkpt lat="36.568316" lon="-5.237923">
        <ele>353.720</ele>
        <time>2021-06-14T06:43:14Z</time>
      </trkpt>
      <trkpt lat="36.568188" lon="-5.236908">
        <ele>358.508</ele>
        <time>2021-06-14T06:43:42Z</time>
      </trkpt>
      <trkpt lat="36.567380" lon="-5.236023">
        <ele>363.874</ele>
        <time>2021-06-14T06:44:18Z</time>
      </trkpt>
      <trkpt lat="36.566955" lon="-5.235847">
        <ele>363.543</ele>
        <time>2021-06-14T06:44:29Z</time>
      </trkpt>
      <trkpt lat="36.566776" lon="-5.235945">
        <ele>363.217</ele>
        <time>2021-06-14T06:44:35Z</time>
      </trkpt>
      <trkpt lat="36.566547" lon="-5.235867">
        <ele>362.982</ele>
        <time>2021-06-14T06:44:38Z</time>
      </trkpt>
      <trkpt lat="36.565082" lon="-5.235100">
        <ele>366.220</ele>
        <time>2021-06-14T06:45:05Z</time>
      </trkpt>
      <trkpt lat="36.565071" lon="-5.234846">
        <ele>367.474</ele>
        <time>2021-06-14T06:45:10Z</time>
      </trkpt>
      <trkpt lat="36.565340" lon="-5.234493">
        <ele>369.472</ele>
        <time>2021-06-14T06:45:19Z</time>
      </trkpt>
      <trkpt lat="36.566163" lon="-5.233837">
        <ele>373.857</ele>
        <time>2021-06-14T06:45:45Z</time>
      </trkpt>
      <trkpt lat="36.566930" lon="-5.233466">
        <ele>375.228</ele>
        <time>2021-06-14T06:46:04Z</time>
      </trkpt>
      <trkpt lat="36.566919" lon="-5.233198">
        <ele>375.689</ele>
        <time>2021-06-14T06:46:09Z</time>
      </trkpt>
      <trkpt lat="36.566521" lon="-5.232453">
        <ele>377.417</ele>
        <time>2021-06-14T06:46:25Z</time>
      </trkpt>
      <trkpt lat="36.566109" lon="-5.232169">
        <ele>378.808</ele>
        <time>2021-06-14T06:46:36Z</time>
      </trkpt>
      <trkpt lat="36.565739" lon="-5.232083">
        <ele>380.259</ele>
        <time>2021-06-14T06:46:45Z</time>
      </trkpt>
      <trkpt lat="36.565197" lon="-5.232084">
        <ele>383.768</ele>
        <time>2021-06-14T06:46:59Z</time>
      </trkpt>
      <trkpt lat="36.564847" lon="-5.232305">
        <ele>386.392</ele>
        <time>2021-06-14T06:47:09Z</time>
      </trkpt>
      <trkpt lat="36.564529" lon="-5.232329">
        <ele>388.287</ele>
        <time>2021-06-14T06:47:19Z</time>
      </trkpt>
      <trkpt lat="36.564311" lon="-5.232184">
        <ele>389.995</ele>
        <time>2021-06-14T06:47:26Z</time>
      </trkpt>
      <trkpt lat="36.564243" lon="-5.231919">
        <ele>391.329</ele>
        <time>2021-06-14T06:47:35Z</time>
      </trkpt>
      <trkpt lat="36.564575" lon="-5.231164">
        <ele>394.857</ele>
        <time>2021-06-14T06:47:56Z</time>
      </trkpt>
      <trkpt lat="36.565632" lon="-5.229928">
        <ele>403.022</ele>
        <time>2021-06-14T06:48:42Z</time>
      </trkpt>
      <trkpt lat="36.565970" lon="-5.228915">
        <ele>409.884</ele>
        <time>2021-06-14T06:49:02Z</time>
      </trkpt>
      <trkpt lat="36.567507" lon="-5.227730">
        <ele>415.507</ele>
        <time>2021-06-14T06:49:42Z</time>
      </trkpt>
      <trkpt lat="36.568092" lon="-5.227110">
        <ele>416.317</ele>
        <time>2021-06-14T06:49:57Z</time>
      </trkpt>
      <trkpt lat="36.568872" lon="-5.226597">
        <ele>421.908</ele>
        <time>2021-06-14T06:50:19Z</time>
      </trkpt>
      <trkpt lat="36.569242" lon="-5.225982">
        <ele>426.835</ele>
        <time>2021-06-14T06:50:39Z</time>
      </trkpt>
      <trkpt lat="36.569065" lon="-5.225871">
        <ele>428.294</ele>
        <time>2021-06-14T06:50:46Z</time>
      </trkpt>
      <trkpt lat="36.568843" lon="-5.226003">
        <ele>429.898</ele>
        <time>2021-06-14T06:50:55Z</time>
      </trkpt>
      <trkpt lat="36.568317" lon="-5.225980">
        <ele>432.443</ele>
        <time>2021-06-14T06:51:11Z</time>
      </trkpt>
      <trkpt lat="36.566666" lon="-5.225691">
        <ele>443.111</ele>
        <time>2021-06-14T06:51:58Z</time>
      </trkpt>
      <trkpt lat="36.565721" lon="-5.225926">
        <ele>450.535</ele>
        <time>2021-06-14T06:52:27Z</time>
      </trkpt>
      <trkpt lat="36.565336" lon="-5.225766">
        <ele>453.883</ele>
        <time>2021-06-14T06:52:43Z</time>
      </trkpt>
      <trkpt lat="36.564869" lon="-5.225773">
        <ele>457.678</ele>
        <time>2021-06-14T06:53:01Z</time>
      </trkpt>
      <trkpt lat="36.564533" lon="-5.225129">
        <ele>464.758</ele>
        <time>2021-06-14T06:53:24Z</time>
      </trkpt>
      <trkpt lat="36.564611" lon="-5.224478">
        <ele>468.452</ele>
        <time>2021-06-14T06:53:44Z</time>
      </trkpt>
      <trkpt lat="36.564974" lon="-5.223606">
        <ele>474.717</ele>
        <time>2021-06-14T06:54:07Z</time>
      </trkpt>
      <trkpt lat="36.565822" lon="-5.222939">
        <ele>481.508</ele>
        <time>2021-06-14T06:54:39Z</time>
      </trkpt>
      <trkpt lat="36.566819" lon="-5.221843">
        <ele>491.282</ele>
        <time>2021-06-14T06:55:18Z</time>
      </trkpt>
      <trkpt lat="36.567277" lon="-5.221663">
        <ele>495.111</ele>
        <time>2021-06-14T06:55:34Z</time>
      </trkpt>
      <trkpt lat="36.567409" lon="-5.221373">
        <ele>496.865</ele>
        <time>2021-06-14T06:55:44Z</time>
      </trkpt>
      <trkpt lat="36.566943" lon="-5.220928">
        <ele>500.680</ele>
        <time>2021-06-14T06:56:06Z</time>
      </trkpt>
      <trkpt lat="36.566035" lon="-5.220761">
        <ele>503.438</ele>
        <time>2021-06-14T06:56:42Z</time>
      </trkpt>
      <trkpt lat="36.565125" lon="-5.219923">
        <ele>510.322</ele>
        <time>2021-06-14T06:57:12Z</time>
      </trkpt>
      <trkpt lat="36.564690" lon="-5.218180">
        <ele>521.770</ele>
        <time>2021-06-14T06:57:55Z</time>
      </trkpt>
      <trkpt lat="36.564278" lon="-5.217905">
        <ele>524.925</ele>
        <time>2021-06-14T06:58:10Z</time>
      </trkpt>
      <trkpt lat="36.564132" lon="-5.217626">
        <ele>526.935</ele>
        <time>2021-06-14T06:58:19Z</time>
      </trkpt>
      <trkpt lat="36.564223" lon="-5.216491">
        <ele>533.786</ele>
        <time>2021-06-14T06:58:53Z</time>
      </trkpt>
      <trkpt lat="36.563970" lon="-5.215305">
        <ele>532.314</ele>
        <time>2021-06-14T06:59:21Z</time>
      </trkpt>
      <trkpt lat="36.564147" lon="-5.214540">
        <ele>551.508</ele>
        <time>2021-06-14T06:59:31Z</time>
      </trkpt>
      <trkpt lat="36.564055" lon="-5.213785">
        <ele>544.520</ele>
        <time>2021-06-14T06:59:46Z</time>
      </trkpt>
      <trkpt lat="36.564610" lon="-5.213510">
        <ele>542.469</ele>
        <time>2021-06-14T07:00:10Z</time>
      </trkpt>
      <trkpt lat="36.565801" lon="-5.212143">
        <ele>538.443</ele>
        <time>2021-06-14T07:00:38Z</time>
      </trkpt>
      <trkpt lat="36.566100" lon="-5.210760">
        <ele>536.968</ele>
        <time>2021-06-14T07:00:59Z</time>
      </trkpt>
      <trkpt lat="36.566708" lon="-5.209476">
        <ele>535.416</ele>
        <time>2021-06-14T07:01:20Z</time>
      </trkpt>
      <trkpt lat="36.566403" lon="-5.209329">
        <ele>535.660</ele>
        <time>2021-06-14T07:01:26Z</time>
      </trkpt>
      <trkpt lat="36.565266" lon="-5.209823">
        <ele>536.518</ele>
        <time>2021-06-14T07:01:50Z</time>
      </trkpt>
      <trkpt lat="36.564202" lon="-5.209717">
        <ele>537.653</ele>
        <time>2021-06-14T07:02:18Z</time>
      </trkpt>
      <trkpt lat="36.564126" lon="-5.209309">
        <ele>538.212</ele>
        <time>2021-06-14T07:02:26Z</time>
      </trkpt>
      <trkpt lat="36.564925" lon="-5.208063">
        <ele>540.332</ele>
        <time>2021-06-14T07:02:53Z</time>
      </trkpt>
      <trkpt lat="36.564902" lon="-5.207749">
        <ele>540.705</ele>
        <time>2021-06-14T07:02:58Z</time>
      </trkpt>
      <trkpt lat="36.564383" lon="-5.207389">
        <ele>542.608</ele>
        <time>2021-06-14T07:03:10Z</time>
      </trkpt>
      <trkpt lat="36.564259" lon="-5.206820">
        <ele>544.188</ele>
        <time>2021-06-14T07:03:20Z</time>
      </trkpt>
      <trkpt lat="36.564067" lon="-5.206817">
        <ele>544.817</ele>
        <time>2021-06-14T07:03:24Z</time>
      </trkpt>
      <trkpt lat="36.563618" lon="-5.207146">
        <ele>546.561</ele>
        <time>2021-06-14T07:03:35Z</time>
      </trkpt>
      <trkpt lat="36.562865" lon="-5.206823">
        <ele>549.126</ele>
        <time>2021-06-14T07:03:52Z</time>
      </trkpt>
      <trkpt lat="36.562517" lon="-5.206377">
        <ele>551.144</ele>
        <time>2021-06-14T07:04:03Z</time>
      </trkpt>
      <trkpt lat="36.562551" lon="-5.205923">
        <ele>552.388</ele>
        <time>2021-06-14T07:04:12Z</time>
      </trkpt>
      <trkpt lat="36.563054" lon="-5.204947">
        <ele>553.526</ele>
        <time>2021-06-14T07:04:31Z</time>
      </trkpt>
      <trkpt lat="36.563108" lon="-5.204373">
        <ele>553.181</ele>
        <time>2021-06-14T07:04:39Z</time>
      </trkpt>
      <trkpt lat="36.563462" lon="-5.203477">
        <ele>554.328</ele>
        <time>2021-06-14T07:04:53Z</time>
      </trkpt>
      <trkpt lat="36.563306" lon="-5.203404">
        <ele>555.189</ele>
        <time>2021-06-14T07:04:55Z</time>
      </trkpt>
      <trkpt lat="36.562679" lon="-5.203546">
        <ele>558.617</ele>
        <time>2021-06-14T07:05:10Z</time>
      </trkpt>
      <trkpt lat="36.561684" lon="-5.203225">
        <ele>564.208</ele>
        <time>2021-06-14T07:05:34Z</time>
      </trkpt>
      <trkpt lat="36.561308" lon="-5.203376">
        <ele>567.049</ele>
        <time>2021-06-14T07:05:45Z</time>
      </trkpt>
      <trkpt lat="36.561039" lon="-5.203330">
        <ele>569.128</ele>
        <time>2021-06-14T07:05:54Z</time>
      </trkpt>
      <trkpt lat="36.561206" lon="-5.202706">
        <ele>569.652</ele>
        <time>2021-06-14T07:06:08Z</time>
      </trkpt>
      <trkpt lat="36.561761" lon="-5.202397">
        <ele>567.937</ele>
        <time>2021-06-14T07:06:19Z</time>
      </trkpt>
      <trkpt lat="36.561996" lon="-5.202043">
        <ele>567.155</ele>
        <time>2021-06-14T07:06:25Z</time>
      </trkpt>
      <trkpt lat="36.562366" lon="-5.200305">
        <ele>565.939</ele>
        <time>2021-06-14T07:06:50Z</time>
      </trkpt>
      <trkpt lat="36.561844" lon="-5.199331">
        <ele>562.867</ele>
        <time>2021-06-14T07:07:04Z</time>
      </trkpt>
      <trkpt lat="36.561883" lon="-5.198804">
        <ele>559.412</ele>
        <time>2021-06-14T07:07:10Z</time>
      </trkpt>
      <trkpt lat="36.561564" lon="-5.198593">
        <ele>556.785</ele>
        <time>2021-06-14T07:07:14Z</time>
      </trkpt>
      <trkpt lat="36.561472" lon="-5.198372">
        <ele>555.889</ele>
        <time>2021-06-14T07:07:16Z</time>
      </trkpt>
      <trkpt lat="36.561453" lon="-5.198154">
        <ele>554.817</ele>
        <time>2021-06-14T07:07:18Z</time>
      </trkpt>
      <trkpt lat="36.561753" lon="-5.197625">
        <ele>552.708</ele>
        <time>2021-06-14T07:07:24Z</time>
      </trkpt>
      <trkpt lat="36.561541" lon="-5.197358">
        <ele>554.535</ele>
        <time>2021-06-14T07:07:28Z</time>
      </trkpt>
      <trkpt lat="36.560979" lon="-5.197134">
        <ele>565.244</ele>
        <time>2021-06-14T07:07:51Z</time>
      </trkpt>
      <trkpt lat="36.560574" lon="-5.196406">
        <ele>575.998</ele>
        <time>2021-06-14T07:08:23Z</time>
      </trkpt>
      <trkpt lat="36.560779" lon="-5.196352">
        <ele>579.933</ele>
        <time>2021-06-14T07:08:33Z</time>
      </trkpt>
      <trkpt lat="36.561142" lon="-5.196578">
        <ele>584.511</ele>
        <time>2021-06-14T07:08:53Z</time>
      </trkpt>
      <trkpt lat="36.561525" lon="-5.196275">
        <ele>590.425</ele>
        <time>2021-06-14T07:09:13Z</time>
      </trkpt>
      <trkpt lat="36.561836" lon="-5.195604">
        <ele>598.793</ele>
        <time>2021-06-14T07:09:40Z</time>
      </trkpt>
      <trkpt lat="36.561890" lon="-5.194565">
        <ele>608.388</ele>
        <time>2021-06-14T07:10:17Z</time>
      </trkpt>
      <trkpt lat="36.561720" lon="-5.194527">
        <ele>610.998</ele>
        <time>2021-06-14T07:10:29Z</time>
      </trkpt>
      <trkpt lat="36.560931" lon="-5.195138">
        <ele>619.715</ele>
        <time>2021-06-14T07:11:04Z</time>
      </trkpt>
      <trkpt lat="36.560564" lon="-5.194945">
        <ele>623.526</ele>
        <time>2021-06-14T07:11:19Z</time>
      </trkpt>
      <trkpt lat="36.560374" lon="-5.194618">
        <ele>626.908</ele>
        <time>2021-06-14T07:11:31Z</time>
      </trkpt>
      <trkpt lat="36.560091" lon="-5.193252">
        <ele>639.686</ele>
        <time>2021-06-14T07:12:17Z</time>
      </trkpt>
      <trkpt lat="36.559788" lon="-5.192747">
        <ele>644.625</ele>
        <time>2021-06-14T07:12:36Z</time>
      </trkpt>
      <trkpt lat="36.559690" lon="-5.192027">
        <ele>650.189</ele>
        <time>2021-06-14T07:12:55Z</time>
      </trkpt>
      <trkpt lat="36.559310" lon="-5.191443">
        <ele>654.754</ele>
        <time>2021-06-14T07:13:15Z</time>
      </trkpt>
      <trkpt lat="36.559028" lon="-5.190428">
        <ele>661.112</ele>
        <time>2021-06-14T07:13:43Z</time>
      </trkpt>
      <trkpt lat="36.558801" lon="-5.190199">
        <ele>663.126</ele>
        <time>2021-06-14T07:13:51Z</time>
      </trkpt>
      <trkpt lat="36.558347" lon="-5.190141">
        <ele>667.494</ele>
        <time>2021-06-14T07:14:07Z</time>
      </trkpt>
      <trkpt lat="36.558137" lon="-5.189726">
        <ele>672.779</ele>
        <time>2021-06-14T07:14:20Z</time>
      </trkpt>
      <trkpt lat="36.558612" lon="-5.188145">
        <ele>684.976</ele>
        <time>2021-06-14T07:15:06Z</time>
      </trkpt>
      <trkpt lat="36.558729" lon="-5.187091">
        <ele>692.090</ele>
        <time>2021-06-14T07:15:34Z</time>
      </trkpt>
      <trkpt lat="36.559819" lon="-5.186402">
        <ele>705.119</ele>
        <time>2021-06-14T07:16:18Z</time>
      </trkpt>
      <trkpt lat="36.560226" lon="-5.185852">
        <ele>710.508</ele>
        <time>2021-06-14T07:16:39Z</time>
      </trkpt>
      <trkpt lat="36.560133" lon="-5.185031">
        <ele>714.244</ele>
        <time>2021-06-14T07:17:00Z</time>
      </trkpt>
      <trkpt lat="36.560510" lon="-5.184555">
        <ele>716.823</ele>
        <time>2021-06-14T07:17:14Z</time>
      </trkpt>
      <trkpt lat="36.560674" lon="-5.184130">
        <ele>719.977</ele>
        <time>2021-06-14T07:17:25Z</time>
      </trkpt>
      <trkpt lat="36.560181" lon="-5.181704">
        <ele>738.762</ele>
        <time>2021-06-14T07:18:33Z</time>
      </trkpt>
      <trkpt lat="36.560226" lon="-5.180880">
        <ele>745.220</ele>
        <time>2021-06-14T07:18:56Z</time>
      </trkpt>
      <trkpt lat="36.560452" lon="-5.180079">
        <ele>751.884</ele>
        <time>2021-06-14T07:19:18Z</time>
      </trkpt>
      <trkpt lat="36.560263" lon="-5.178624">
        <ele>759.132</ele>
        <time>2021-06-14T07:19:53Z</time>
      </trkpt>
      <trkpt lat="36.560146" lon="-5.178285">
        <ele>758.467</ele>
        <time>2021-06-14T07:19:59Z</time>
      </trkpt>
      <trkpt lat="36.559980" lon="-5.178269">
        <ele>757.946</ele>
        <time>2021-06-14T07:20:02Z</time>
      </trkpt>
      <trkpt lat="36.560010" lon="-5.179363">
        <ele>753.588</ele>
        <time>2021-06-14T07:20:17Z</time>
      </trkpt>
      <trkpt lat="36.559292" lon="-5.180805">
        <ele>748.216</ele>
        <time>2021-06-14T07:20:32Z</time>
      </trkpt>
      <trkpt lat="36.559374" lon="-5.182602">
        <ele>746.508</ele>
        <time>2021-06-14T07:20:52Z</time>
      </trkpt>
      <trkpt lat="36.558405" lon="-5.182941">
        <ele>744.621</ele>
        <time>2021-06-14T07:21:13Z</time>
      </trkpt>
      <trkpt lat="36.558555" lon="-5.183422">
        <ele>739.720</ele>
        <time>2021-06-14T07:21:35Z</time>
      </trkpt>
      <trkpt lat="36.558020" lon="-5.184834">
        <ele>728.394</ele>
        <time>2021-06-14T07:21:50Z</time>
      </trkpt>
      <trkpt lat="36.557263" lon="-5.185505">
        <ele>720.879</ele>
        <time>2021-06-14T07:22:00Z</time>
      </trkpt>
      <trkpt lat="36.556826" lon="-5.186609">
        <ele>710.427</ele>
        <time>2021-06-14T07:22:08Z</time>
      </trkpt>
      <trkpt lat="36.556424" lon="-5.187211">
        <ele>707.681</ele>
        <time>2021-06-14T07:22:13Z</time>
      </trkpt>
      <trkpt lat="36.556062" lon="-5.187403">
        <ele>706.439</ele>
        <time>2021-06-14T07:22:17Z</time>
      </trkpt>
      <trkpt lat="36.555270" lon="-5.187512">
        <ele>702.644</ele>
        <time>2021-06-14T07:22:25Z</time>
      </trkpt>
      <trkpt lat="36.554794" lon="-5.187397">
        <ele>700.738</ele>
        <time>2021-06-14T07:22:30Z</time>
      </trkpt>
      <trkpt lat="36.553976" lon="-5.186777">
        <ele>699.370</ele>
        <time>2021-06-14T07:22:40Z</time>
      </trkpt>
      <trkpt lat="36.552938" lon="-5.187200">
        <ele>705.917</ele>
        <time>2021-06-14T07:23:05Z</time>
      </trkpt>
      <trkpt lat="36.551901" lon="-5.186914">
        <ele>711.508</ele>
        <time>2021-06-14T07:23:29Z</time>
      </trkpt>
      <trkpt lat="36.551760" lon="-5.186653">
        <ele>712.810</ele>
        <time>2021-06-14T07:23:35Z</time>
      </trkpt>
      <trkpt lat="36.552074" lon="-5.186016">
        <ele>713.959</ele>
        <time>2021-06-14T07:23:50Z</time>
      </trkpt>
      <trkpt lat="36.552048" lon="-5.185436">
        <ele>715.423</ele>
        <time>2021-06-14T07:24:00Z</time>
      </trkpt>
      <trkpt lat="36.550869" lon="-5.184725">
        <ele>719.298</ele>
        <time>2021-06-14T07:24:32Z</time>
      </trkpt>
      <trkpt lat="36.550538" lon="-5.183211">
        <ele>720.756</ele>
        <time>2021-06-14T07:24:56Z</time>
      </trkpt>
      <trkpt lat="36.552239" lon="-5.181185">
        <ele>728.340</ele>
        <time>2021-06-14T07:25:46Z</time>
      </trkpt>
      <trkpt lat="36.552807" lon="-5.179944">
        <ele>734.678</ele>
        <time>2021-06-14T07:26:14Z</time>
      </trkpt>
      <trkpt lat="36.553166" lon="-5.178823">
        <ele>739.663</ele>
        <time>2021-06-14T07:26:37Z</time>
      </trkpt>
      <trkpt lat="36.552892" lon="-5.178240">
        <ele>742.048</ele>
        <time>2021-06-14T07:26:50Z</time>
      </trkpt>
      <trkpt lat="36.552792" lon="-5.177606">
        <ele>744.461</ele>
        <time>2021-06-14T07:27:01Z</time>
      </trkpt>
      <trkpt lat="36.552890" lon="-5.176774">
        <ele>750.917</ele>
        <time>2021-06-14T07:27:19Z</time>
      </trkpt>
      <trkpt lat="36.552584" lon="-5.176837">
        <ele>753.508</ele>
        <time>2021-06-14T07:27:31Z</time>
      </trkpt>
      <trkpt lat="36.552079" lon="-5.177558">
        <ele>759.321</ele>
        <time>2021-06-14T07:27:57Z</time>
      </trkpt>
      <trkpt lat="36.551848" lon="-5.177631">
        <ele>761.370</ele>
        <time>2021-06-14T07:28:05Z</time>
      </trkpt>
      <trkpt lat="36.551669" lon="-5.176851">
        <ele>762.034</ele>
        <time>2021-06-14T07:28:25Z</time>
      </trkpt>
      <trkpt lat="36.551050" lon="-5.175552">
        <ele>764.479</ele>
        <time>2021-06-14T07:28:51Z</time>
      </trkpt>
      <trkpt lat="36.550611" lon="-5.174150">
        <ele>769.477</ele>
        <time>2021-06-14T07:29:18Z</time>
      </trkpt>
      <trkpt lat="36.550512" lon="-5.172755">
        <ele>774.841</ele>
        <time>2021-06-14T07:29:46Z</time>
      </trkpt>
      <trkpt lat="36.549874" lon="-5.172834">
        <ele>781.599</ele>
        <time>2021-06-14T07:30:14Z</time>
      </trkpt>
      <trkpt lat="36.549636" lon="-5.172319">
        <ele>786.814</ele>
        <time>2021-06-14T07:30:35Z</time>
      </trkpt>
      <trkpt lat="36.549365" lon="-5.172484">
        <ele>790.772</ele>
        <time>2021-06-14T07:30:50Z</time>
      </trkpt>
      <trkpt lat="36.549159" lon="-5.172898">
        <ele>793.913</ele>
        <time>2021-06-14T07:31:03Z</time>
      </trkpt>
      <trkpt lat="36.549053" lon="-5.173399">
        <ele>796.914</ele>
        <time>2021-06-14T07:31:15Z</time>
      </trkpt>
      <trkpt lat="36.549126" lon="-5.173779">
        <ele>799.608</ele>
        <time>2021-06-14T07:31:25Z</time>
      </trkpt>
      <trkpt lat="36.548791" lon="-5.174124">
        <ele>804.164</ele>
        <time>2021-06-14T07:31:40Z</time>
      </trkpt>
      <trkpt lat="36.548635" lon="-5.174672">
        <ele>807.183</ele>
        <time>2021-06-14T07:31:54Z</time>
      </trkpt>
      <trkpt lat="36.547778" lon="-5.175171">
        <ele>813.647</ele>
        <time>2021-06-14T07:32:23Z</time>
      </trkpt>
      <trkpt lat="36.547699" lon="-5.175954">
        <ele>818.972</ele>
        <time>2021-06-14T07:32:42Z</time>
      </trkpt>
      <trkpt lat="36.547881" lon="-5.176657">
        <ele>824.370</ele>
        <time>2021-06-14T07:33:05Z</time>
      </trkpt>
      <trkpt lat="36.547617" lon="-5.177109">
        <ele>826.014</ele>
        <time>2021-06-14T07:33:19Z</time>
      </trkpt>
      <trkpt lat="36.546568" lon="-5.177146">
        <ele>835.482</ele>
        <time>2021-06-14T07:33:54Z</time>
      </trkpt>
      <trkpt lat="36.546185" lon="-5.176710">
        <ele>838.387</ele>
        <time>2021-06-14T07:34:09Z</time>
      </trkpt>
      <trkpt lat="36.546214" lon="-5.175568">
        <ele>840.434</ele>
        <time>2021-06-14T07:34:33Z</time>
      </trkpt>
      <trkpt lat="36.546471" lon="-5.174991">
        <ele>841.555</ele>
        <time>2021-06-14T07:34:46Z</time>
      </trkpt>
      <trkpt lat="36.546543" lon="-5.174394">
        <ele>842.410</ele>
        <time>2021-06-14T07:34:57Z</time>
      </trkpt>
      <trkpt lat="36.546345" lon="-5.173584">
        <ele>846.108</ele>
        <time>2021-06-14T07:35:15Z</time>
      </trkpt>
      <trkpt lat="36.546316" lon="-5.172839">
        <ele>847.980</ele>
        <time>2021-06-14T07:35:29Z</time>
      </trkpt>
      <trkpt lat="36.545743" lon="-5.171689">
        <ele>849.399</ele>
        <time>2021-06-14T07:35:54Z</time>
      </trkpt>
      <trkpt lat="36.545332" lon="-5.171764">
        <ele>849.883</ele>
        <time>2021-06-14T07:36:04Z</time>
      </trkpt>
      <trkpt lat="36.544515" lon="-5.170637">
        <ele>852.378</ele>
        <time>2021-06-14T07:36:31Z</time>
      </trkpt>
      <trkpt lat="36.544199" lon="-5.171101">
        <ele>855.476</ele>
        <time>2021-06-14T07:36:43Z</time>
      </trkpt>
      <trkpt lat="36.543654" lon="-5.171266">
        <ele>860.150</ele>
        <time>2021-06-14T07:36:58Z</time>
      </trkpt>
      <trkpt lat="36.543694" lon="-5.172590">
        <ele>867.168</ele>
        <time>2021-06-14T07:37:32Z</time>
      </trkpt>
      <trkpt lat="36.543433" lon="-5.173239">
        <ele>872.053</ele>
        <time>2021-06-14T07:37:50Z</time>
      </trkpt>
      <trkpt lat="36.543163" lon="-5.173376">
        <ele>874.554</ele>
        <time>2021-06-14T07:38:00Z</time>
      </trkpt>
      <trkpt lat="36.542585" lon="-5.173377">
        <ele>878.156</ele>
        <time>2021-06-14T07:38:18Z</time>
      </trkpt>
      <trkpt lat="36.541895" lon="-5.172830">
        <ele>883.711</ele>
        <time>2021-06-14T07:38:43Z</time>
      </trkpt>
      <trkpt lat="36.541061" lon="-5.173150">
        <ele>889.508</ele>
        <time>2021-06-14T07:39:13Z</time>
      </trkpt>
      <trkpt lat="36.540615" lon="-5.174104">
        <ele>895.932</ele>
        <time>2021-06-14T07:39:40Z</time>
      </trkpt>
      <trkpt lat="36.540724" lon="-5.174928">
        <ele>900.581</ele>
        <time>2021-06-14T07:40:03Z</time>
      </trkpt>
      <trkpt lat="36.540593" lon="-5.175465">
        <ele>904.675</ele>
        <time>2021-06-14T07:40:19Z</time>
      </trkpt>
      <trkpt lat="36.539819" lon="-5.175850">
        <ele>909.540</ele>
        <time>2021-06-14T07:40:49Z</time>
      </trkpt>
      <trkpt lat="36.539313" lon="-5.175929">
        <ele>913.678</ele>
        <time>2021-06-14T07:41:02Z</time>
      </trkpt>
      <trkpt lat="36.538768" lon="-5.175436">
        <ele>916.822</ele>
        <time>2021-06-14T07:41:22Z</time>
      </trkpt>
      <trkpt lat="36.537917" lon="-5.174179">
        <ele>921.410</ele>
        <time>2021-06-14T07:41:56Z</time>
      </trkpt>
      <trkpt lat="36.537313" lon="-5.172415">
        <ele>920.135</ele>
        <time>2021-06-14T07:42:28Z</time>
      </trkpt>
      <trkpt lat="36.536780" lon="-5.171318">
        <ele>916.111</ele>
        <time>2021-06-14T07:42:43Z</time>
      </trkpt>
      <trkpt lat="36.536390" lon="-5.170834">
        <ele>913.821</ele>
        <time>2021-06-14T07:42:51Z</time>
      </trkpt>
      <trkpt lat="36.536359" lon="-5.170321">
        <ele>911.903</ele>
        <time>2021-06-14T07:42:57Z</time>
      </trkpt>
      <trkpt lat="36.536044" lon="-5.169326">
        <ele>908.908</ele>
        <time>2021-06-14T07:43:09Z</time>
      </trkpt>
      <trkpt lat="36.536039" lon="-5.168422">
        <ele>906.568</ele>
        <time>2021-06-14T07:43:19Z</time>
      </trkpt>
      <trkpt lat="36.535015" lon="-5.168465">
        <ele>898.747</ele>
        <time>2021-06-14T07:43:30Z</time>
      </trkpt>
      <trkpt lat="36.534715" lon="-5.168337">
        <ele>897.111</ele>
        <time>2021-06-14T07:43:33Z</time>
      </trkpt>
      <trkpt lat="36.534269" lon="-5.167793">
        <ele>894.426</ele>
        <time>2021-06-14T07:43:40Z</time>
      </trkpt>
      <trkpt lat="36.533776" lon="-5.166364">
        <ele>890.974</ele>
        <time>2021-06-14T07:43:55Z</time>
      </trkpt>
      <trkpt lat="36.533499" lon="-5.166210">
        <ele>890.958</ele>
        <time>2021-06-14T07:44:03Z</time>
      </trkpt>
      <trkpt lat="36.533076" lon="-5.166489">
        <ele>892.586</ele>
        <time>2021-06-14T07:44:16Z</time>
      </trkpt>
      <trkpt lat="36.532773" lon="-5.166896">
        <ele>895.341</ele>
        <time>2021-06-14T07:44:27Z</time>
      </trkpt>
      <trkpt lat="36.532357" lon="-5.167128">
        <ele>898.154</ele>
        <time>2021-06-14T07:44:39Z</time>
      </trkpt>
      <trkpt lat="36.531526" lon="-5.168553">
        <ele>905.856</ele>
        <time>2021-06-14T07:45:14Z</time>
      </trkpt>
      <trkpt lat="36.530999" lon="-5.169919">
        <ele>912.811</ele>
        <time>2021-06-14T07:45:43Z</time>
      </trkpt>
      <trkpt lat="36.530221" lon="-5.170948">
        <ele>921.208</ele>
        <time>2021-06-14T07:46:12Z</time>
      </trkpt>
      <trkpt lat="36.530159" lon="-5.172530">
        <ele>929.822</ele>
        <time>2021-06-14T07:46:45Z</time>
      </trkpt>
      <trkpt lat="36.529799" lon="-5.173124">
        <ele>932.871</ele>
        <time>2021-06-14T07:47:05Z</time>
      </trkpt>
      <trkpt lat="36.528315" lon="-5.174593">
        <ele>940.555</ele>
        <time>2021-06-14T07:47:50Z</time>
      </trkpt>
      <trkpt lat="36.527996" lon="-5.176647">
        <ele>946.070</ele>
        <time>2021-06-14T07:48:26Z</time>
      </trkpt>
      <trkpt lat="36.527620" lon="-5.177234">
        <ele>946.868</ele>
        <time>2021-06-14T07:48:40Z</time>
      </trkpt>
      <trkpt lat="36.526136" lon="-5.178144">
        <ele>948.982</ele>
        <time>2021-06-14T07:49:13Z</time>
      </trkpt>
      <trkpt lat="36.525616" lon="-5.178193">
        <ele>950.750</ele>
        <time>2021-06-14T07:49:25Z</time>
      </trkpt>
      <trkpt lat="36.524157" lon="-5.178698">
        <ele>958.995</ele>
        <time>2021-06-14T07:50:01Z</time>
      </trkpt>
      <trkpt lat="36.523328" lon="-5.178518">
        <ele>964.061</ele>
        <time>2021-06-14T07:50:23Z</time>
      </trkpt>
      <trkpt lat="36.522963" lon="-5.179088">
        <ele>967.321</ele>
        <time>2021-06-14T07:50:38Z</time>
      </trkpt>
      <trkpt lat="36.522742" lon="-5.179930">
        <ele>972.213</ele>
        <time>2021-06-14T07:50:59Z</time>
      </trkpt>
      <trkpt lat="36.522972" lon="-5.180705">
        <ele>977.208</ele>
        <time>2021-06-14T07:51:19Z</time>
      </trkpt>
      <trkpt lat="36.522967" lon="-5.181395">
        <ele>980.913</ele>
        <time>2021-06-14T07:51:34Z</time>
      </trkpt>
      <trkpt lat="36.523144" lon="-5.181971">
        <ele>984.782</ele>
        <time>2021-06-14T07:51:48Z</time>
      </trkpt>
      <trkpt lat="36.523402" lon="-5.182137">
        <ele>987.676</ele>
        <time>2021-06-14T07:51:59Z</time>
      </trkpt>
      <trkpt lat="36.523539" lon="-5.182471">
        <ele>990.611</ele>
        <time>2021-06-14T07:52:08Z</time>
      </trkpt>
      <trkpt lat="36.523343" lon="-5.184059">
        <ele>998.969</ele>
        <time>2021-06-14T07:52:50Z</time>
      </trkpt>
      <trkpt lat="36.523513" lon="-5.184688">
        <ele>1002.363</ele>
        <time>2021-06-14T07:53:08Z</time>
      </trkpt>
      <trkpt lat="36.524021" lon="-5.185496">
        <ele>1005.841</ele>
        <time>2021-06-14T07:53:27Z</time>
      </trkpt>
      <trkpt lat="36.524078" lon="-5.185929">
        <ele>1007.196</ele>
        <time>2021-06-14T07:53:35Z</time>
      </trkpt>
      <trkpt lat="36.522493" lon="-5.187970">
        <ele>1011.392</ele>
        <time>2021-06-14T07:54:30Z</time>
      </trkpt>
      <trkpt lat="36.522368" lon="-5.188294">
        <ele>1011.873</ele>
        <time>2021-06-14T07:54:37Z</time>
      </trkpt>
      <trkpt lat="36.522552" lon="-5.189142">
        <ele>1011.520</ele>
        <time>2021-06-14T07:54:50Z</time>
      </trkpt>
      <trkpt lat="36.522533" lon="-5.189655">
        <ele>1011.608</ele>
        <time>2021-06-14T07:55:06Z</time>
      </trkpt>
      <trkpt lat="36.522315" lon="-5.189464">
        <ele>1010.776</ele>
        <time>2021-06-14T07:56:27Z</time>
      </trkpt>
      <trkpt lat="36.521809" lon="-5.189371">
        <ele>1008.575</ele>
        <time>2021-06-14T07:56:39Z</time>
      </trkpt>
      <trkpt lat="36.520698" lon="-5.188672">
        <ele>1002.929</ele>
        <time>2021-06-14T07:56:55Z</time>
      </trkpt>
      <trkpt lat="36.519751" lon="-5.189505">
        <ele>998.154</ele>
        <time>2021-06-14T07:57:09Z</time>
      </trkpt>
      <trkpt lat="36.519195" lon="-5.189660">
        <ele>994.022</ele>
        <time>2021-06-14T07:57:15Z</time>
      </trkpt>
      <trkpt lat="36.518361" lon="-5.190163">
        <ele>990.056</ele>
        <time>2021-06-14T07:57:24Z</time>
      </trkpt>
      <trkpt lat="36.517974" lon="-5.190136">
        <ele>988.934</ele>
        <time>2021-06-14T07:57:28Z</time>
      </trkpt>
      <trkpt lat="36.517503" lon="-5.189825">
        <ele>987.559</ele>
        <time>2021-06-14T07:57:34Z</time>
      </trkpt>
      <trkpt lat="36.517053" lon="-5.188915">
        <ele>982.849</ele>
        <time>2021-06-14T07:57:43Z</time>
      </trkpt>
      <trkpt lat="36.516638" lon="-5.187216">
        <ele>975.602</ele>
        <time>2021-06-14T07:57:57Z</time>
      </trkpt>
      <trkpt lat="36.516622" lon="-5.186112">
        <ele>971.222</ele>
        <time>2021-06-14T07:58:06Z</time>
      </trkpt>
      <trkpt lat="36.515330" lon="-5.185150">
        <ele>962.108</ele>
        <time>2021-06-14T07:58:21Z</time>
      </trkpt>
      <trkpt lat="36.515021" lon="-5.185106">
        <ele>960.721</ele>
        <time>2021-06-14T07:58:24Z</time>
      </trkpt>
      <trkpt lat="36.514242" lon="-5.185427">
        <ele>957.680</ele>
        <time>2021-06-14T07:58:32Z</time>
      </trkpt>
      <trkpt lat="36.513943" lon="-5.185413">
        <ele>957.424</ele>
        <time>2021-06-14T07:58:35Z</time>
      </trkpt>
      <trkpt lat="36.512811" lon="-5.184560">
        <ele>955.149</ele>
        <time>2021-06-14T07:58:51Z</time>
      </trkpt>
      <trkpt lat="36.512259" lon="-5.184414">
        <ele>953.687</ele>
        <time>2021-06-14T07:58:58Z</time>
      </trkpt>
      <trkpt lat="36.511743" lon="-5.184089">
        <ele>951.731</ele>
        <time>2021-06-14T07:59:04Z</time>
      </trkpt>
      <trkpt lat="36.510759" lon="-5.183864">
        <ele>948.329</ele>
        <time>2021-06-14T07:59:15Z</time>
      </trkpt>
      <trkpt lat="36.510102" lon="-5.184288">
        <ele>944.484</ele>
        <time>2021-06-14T07:59:23Z</time>
      </trkpt>
      <trkpt lat="36.509462" lon="-5.184198">
        <ele>943.242</ele>
        <time>2021-06-14T07:59:31Z</time>
      </trkpt>
      <trkpt lat="36.507860" lon="-5.184575">
        <ele>945.822</ele>
        <time>2021-06-14T07:59:58Z</time>
      </trkpt>
      <trkpt lat="36.507710" lon="-5.184820">
        <ele>945.714</ele>
        <time>2021-06-14T08:00:02Z</time>
      </trkpt>
      <trkpt lat="36.507609" lon="-5.185641">
        <ele>944.908</ele>
        <time>2021-06-14T08:00:12Z</time>
      </trkpt>
      <trkpt lat="36.507069" lon="-5.186448">
        <ele>946.871</ele>
        <time>2021-06-14T08:00:26Z</time>
      </trkpt>
      <trkpt lat="36.506236" lon="-5.187521">
        <ele>948.710</ele>
        <time>2021-06-14T08:00:49Z</time>
      </trkpt>
      <trkpt lat="36.504692" lon="-5.188841">
        <ele>951.894</ele>
        <time>2021-06-14T08:01:26Z</time>
      </trkpt>
      <trkpt lat="36.504668" lon="-5.188562">
        <ele>952.069</ele>
        <time>2021-06-14T08:01:39Z</time>
      </trkpt>
      <trkpt lat="36.504755" lon="-5.188759">
        <ele>952.867</ele>
        <time>2021-06-14T08:01:55Z</time>
      </trkpt>
      <trkpt lat="36.504650" lon="-5.188742">
        <ele>953.291</ele>
        <time>2021-06-14T08:03:43Z</time>
      </trkpt>
      <trkpt lat="36.504559" lon="-5.188975">
        <ele>954.639</ele>
        <time>2021-06-14T08:03:50Z</time>
      </trkpt>
      <trkpt lat="36.503048" lon="-5.188998">
        <ele>963.044</ele>
        <time>2021-06-14T08:04:47Z</time>
      </trkpt>
      <trkpt lat="36.501936" lon="-5.189584">
        <ele>971.237</ele>
        <time>2021-06-14T08:05:27Z</time>
      </trkpt>
      <trkpt lat="36.500815" lon="-5.189958">
        <ele>979.549</ele>
        <time>2021-06-14T08:06:13Z</time>
      </trkpt>
      <trkpt lat="36.500584" lon="-5.190238">
        <ele>980.713</ele>
        <time>2021-06-14T08:06:23Z</time>
      </trkpt>
      <trkpt lat="36.499910" lon="-5.191874">
        <ele>988.608</ele>
        <time>2021-06-14T08:07:03Z</time>
      </trkpt>
      <trkpt lat="36.498525" lon="-5.193125">
        <ele>1000.930</ele>
        <time>2021-06-14T08:07:52Z</time>
      </trkpt>
      <trkpt lat="36.497653" lon="-5.193482">
        <ele>1007.469</ele>
        <time>2021-06-14T08:08:19Z</time>
      </trkpt>
      <trkpt lat="36.497082" lon="-5.193885">
        <ele>1011.453</ele>
        <time>2021-06-14T08:08:39Z</time>
      </trkpt>
      <trkpt lat="36.496229" lon="-5.194021">
        <ele>1016.798</ele>
        <time>2021-06-14T08:09:04Z</time>
      </trkpt>
      <trkpt lat="36.494432" lon="-5.194654">
        <ele>1025.686</ele>
        <time>2021-06-14T08:09:51Z</time>
      </trkpt>
      <trkpt lat="36.493588" lon="-5.194820">
        <ele>1030.750</ele>
        <time>2021-06-14T08:10:13Z</time>
      </trkpt>
      <trkpt lat="36.492868" lon="-5.195444">
        <ele>1037.998</ele>
        <time>2021-06-14T08:10:43Z</time>
      </trkpt>
      <trkpt lat="36.492516" lon="-5.195579">
        <ele>1040.173</ele>
        <time>2021-06-14T08:10:56Z</time>
      </trkpt>
      <trkpt lat="36.492485" lon="-5.195731">
        <ele>1045.052</ele>
        <time>2021-06-14T08:11:02Z</time>
      </trkpt>
      <trkpt lat="36.492739" lon="-5.195871">
        <ele>1048.853</ele>
        <time>2021-06-14T08:11:23Z</time>
      </trkpt>
      <trkpt lat="36.493826" lon="-5.196101">
        <ele>1058.408</ele>
        <time>2021-06-14T08:12:10Z</time>
      </trkpt>
      <trkpt lat="36.493856" lon="-5.196766">
        <ele>1063.108</ele>
        <time>2021-06-14T08:12:27Z</time>
      </trkpt>
      <trkpt lat="36.492853" lon="-5.198081">
        <ele>1076.272</ele>
        <time>2021-06-14T08:13:29Z</time>
      </trkpt>
      <trkpt lat="36.492650" lon="-5.198049">
        <ele>1081.251</ele>
        <time>2021-06-14T08:13:36Z</time>
      </trkpt>
      <trkpt lat="36.492703" lon="-5.197628">
        <ele>1084.185</ele>
        <time>2021-06-14T08:13:55Z</time>
      </trkpt>
      <trkpt lat="36.493220" lon="-5.196807">
        <ele>1090.120</ele>
        <time>2021-06-14T08:14:29Z</time>
      </trkpt>
      <trkpt lat="36.492900" lon="-5.197059">
        <ele>1093.198</ele>
        <time>2021-06-14T08:15:07Z</time>
      </trkpt>
      <trkpt lat="36.493168" lon="-5.196778">
        <ele>1091.822</ele>
        <time>2021-06-14T08:15:18Z</time>
      </trkpt>
      <trkpt lat="36.493233" lon="-5.196899">
        <ele>1090.740</ele>
        <time>2021-06-14T08:15:22Z</time>
      </trkpt>
      <trkpt lat="36.493128" lon="-5.197084">
        <ele>1090.495</ele>
        <time>2021-06-14T08:15:32Z</time>
      </trkpt>
      <trkpt lat="36.493238" lon="-5.196765">
        <ele>1093.195</ele>
        <time>2021-06-14T08:16:04Z</time>
      </trkpt>
      <trkpt lat="36.492293" lon="-5.197716">
        <ele>1103.249</ele>
        <time>2021-06-14T08:16:59Z</time>
      </trkpt>
      <trkpt lat="36.492106" lon="-5.198306">
        <ele>1107.423</ele>
        <time>2021-06-14T08:17:19Z</time>
      </trkpt>
      <trkpt lat="36.492059" lon="-5.199617">
        <ele>1115.708</ele>
        <time>2021-06-14T08:17:57Z</time>
      </trkpt>
      <trkpt lat="36.491423" lon="-5.200655">
        <ele>1126.746</ele>
        <time>2021-06-14T08:18:36Z</time>
      </trkpt>
      <trkpt lat="36.491299" lon="-5.200590">
        <ele>1130.285</ele>
        <time>2021-06-14T08:18:42Z</time>
      </trkpt>
      <trkpt lat="36.491669" lon="-5.199780">
        <ele>1136.269</ele>
        <time>2021-06-14T08:19:13Z</time>
      </trkpt>
      <trkpt lat="36.491676" lon="-5.199409">
        <ele>1138.324</ele>
        <time>2021-06-14T08:19:25Z</time>
      </trkpt>
      <trkpt lat="36.490718" lon="-5.198451">
        <ele>1148.022</ele>
        <time>2021-06-14T08:20:19Z</time>
      </trkpt>
      <trkpt lat="36.489139" lon="-5.197869">
        <ele>1162.066</ele>
        <time>2021-06-14T08:21:09Z</time>
      </trkpt>
      <trkpt lat="36.488734" lon="-5.197574">
        <ele>1166.014</ele>
        <time>2021-06-14T08:21:27Z</time>
      </trkpt>
      <trkpt lat="36.487526" lon="-5.197460">
        <ele>1176.259</ele>
        <time>2021-06-14T08:22:14Z</time>
      </trkpt>
      <trkpt lat="36.486919" lon="-5.197761">
        <ele>1181.745</ele>
        <time>2021-06-14T08:22:35Z</time>
      </trkpt>
      <trkpt lat="36.486627" lon="-5.198270">
        <ele>1185.947</ele>
        <time>2021-06-14T08:22:54Z</time>
      </trkpt>
      <trkpt lat="36.486499" lon="-5.198945">
        <ele>1190.711</ele>
        <time>2021-06-14T08:23:18Z</time>
      </trkpt>
      <trkpt lat="36.485798" lon="-5.199734">
        <ele>1198.608</ele>
        <time>2021-06-14T08:23:53Z</time>
      </trkpt>
      <trkpt lat="36.485287" lon="-5.199926">
        <ele>1203.061</ele>
        <time>2021-06-14T08:24:05Z</time>
      </trkpt>
      <trkpt lat="36.484707" lon="-5.199912">
        <ele>1207.910</ele>
        <time>2021-06-14T08:24:23Z</time>
      </trkpt>
      <trkpt lat="36.484026" lon="-5.199344">
        <ele>1215.364</ele>
        <time>2021-06-14T08:24:57Z</time>
      </trkpt>
      <trkpt lat="36.484275" lon="-5.200089">
        <ele>1220.479</ele>
        <time>2021-06-14T08:25:24Z</time>
      </trkpt>
      <trkpt lat="36.484969" lon="-5.200560">
        <ele>1226.077</ele>
        <time>2021-06-14T08:25:57Z</time>
      </trkpt>
      <trkpt lat="36.484979" lon="-5.200711">
        <ele>1227.961</ele>
        <time>2021-06-14T08:26:04Z</time>
      </trkpt>
      <trkpt lat="36.484574" lon="-5.200890">
        <ele>1232.179</ele>
        <time>2021-06-14T08:26:25Z</time>
      </trkpt>
      <trkpt lat="36.484190" lon="-5.200886">
        <ele>1235.284</ele>
        <time>2021-06-14T08:26:41Z</time>
      </trkpt>
      <trkpt lat="36.483620" lon="-5.200591">
        <ele>1239.326</ele>
        <time>2021-06-14T08:27:05Z</time>
      </trkpt>
      <trkpt lat="36.483145" lon="-5.200079">
        <ele>1243.047</ele>
        <time>2021-06-14T08:27:42Z</time>
      </trkpt>
      <trkpt lat="36.483284" lon="-5.200192">
        <ele>1242.911</ele>
        <time>2021-06-14T08:27:53Z</time>
      </trkpt>
      <trkpt lat="36.483186" lon="-5.200044">
        <ele>1242.808</ele>
        <time>2021-06-14T08:28:02Z</time>
      </trkpt>
      <trkpt lat="36.483254" lon="-5.200664">
        <ele>1248.919</ele>
        <time>2021-06-14T08:28:44Z</time>
      </trkpt>
      <trkpt lat="36.483092" lon="-5.201320">
        <ele>1259.098</ele>
        <time>2021-06-14T08:29:12Z</time>
      </trkpt>
      <trkpt lat="36.482601" lon="-5.202030">
        <ele>1268.482</ele>
        <time>2021-06-14T08:29:44Z</time>
      </trkpt>
      <trkpt lat="36.482108" lon="-5.202172">
        <ele>1277.457</ele>
        <time>2021-06-14T08:30:03Z</time>
      </trkpt>
      <trkpt lat="36.482101" lon="-5.202334">
        <ele>1280.175</ele>
        <time>2021-06-14T08:30:12Z</time>
      </trkpt>
      <trkpt lat="36.482371" lon="-5.202531">
        <ele>1284.179</ele>
        <time>2021-06-14T08:30:32Z</time>
      </trkpt>
      <trkpt lat="36.483267" lon="-5.202254">
        <ele>1295.947</ele>
        <time>2021-06-14T08:31:07Z</time>
      </trkpt>
      <trkpt lat="36.483942" lon="-5.202194">
        <ele>1306.172</ele>
        <time>2021-06-14T08:31:33Z</time>
      </trkpt>
      <trkpt lat="36.484302" lon="-5.202361">
        <ele>1311.831</ele>
        <time>2021-06-14T08:31:48Z</time>
      </trkpt>
      <trkpt lat="36.484513" lon="-5.202691">
        <ele>1317.561</ele>
        <time>2021-06-14T08:32:01Z</time>
      </trkpt>
      <trkpt lat="36.483844" lon="-5.203279">
        <ele>1325.607</ele>
        <time>2021-06-14T08:32:37Z</time>
      </trkpt>
      <trkpt lat="36.483228" lon="-5.203630">
        <ele>1333.508</ele>
        <time>2021-06-14T08:32:57Z</time>
      </trkpt>
      <trkpt lat="36.482708" lon="-5.204232">
        <ele>1343.160</ele>
        <time>2021-06-14T08:33:22Z</time>
      </trkpt>
      <trkpt lat="36.481436" lon="-5.204629">
        <ele>1361.719</ele>
        <time>2021-06-14T08:34:11Z</time>
      </trkpt>
      <trkpt lat="36.482431" lon="-5.205582">
        <ele>1377.593</ele>
        <time>2021-06-14T08:35:04Z</time>
      </trkpt>
      <trkpt lat="36.482574" lon="-5.206120">
        <ele>1383.578</ele>
        <time>2021-06-14T08:35:24Z</time>
      </trkpt>
      <trkpt lat="36.483436" lon="-5.206647">
        <ele>1395.626</ele>
        <time>2021-06-14T08:36:05Z</time>
      </trkpt>
      <trkpt lat="36.483481" lon="-5.207006">
        <ele>1399.470</ele>
        <time>2021-06-14T08:36:20Z</time>
      </trkpt>
      <trkpt lat="36.483984" lon="-5.206893">
        <ele>1406.118</ele>
        <time>2021-06-14T08:36:45Z</time>
      </trkpt>
      <trkpt lat="36.484418" lon="-5.206607">
        <ele>1412.593</ele>
        <time>2021-06-14T08:37:04Z</time>
      </trkpt>
      <trkpt lat="36.484427" lon="-5.207115">
        <ele>1417.849</ele>
        <time>2021-06-14T08:37:23Z</time>
      </trkpt>
      <trkpt lat="36.483971" lon="-5.207850">
        <ele>1427.902</ele>
        <time>2021-06-14T08:37:56Z</time>
      </trkpt>
      <trkpt lat="36.484995" lon="-5.207727">
        <ele>1438.922</ele>
        <time>2021-06-14T08:38:54Z</time>
      </trkpt>
    </trkseg>
  </trk></gpx>