<?xml version="1.0" encoding="UTF-8"?>
<gpx creator="Wikiloc - https://www.wikiloc.com" version="1.1" xmlns="http://www.topografix.com/GPX/1/1" xmlns:xsi="http://www.w3.org/2001/XMLSchema-instance" xsi:schemaLocation="http://www.topografix.com/GPX/1/1 http://www.topografix.com/GPX/1/1/gpx.xsd">
  <metadata>
    <name>Wikiloc - Pic du Midi de Bigorre 2.877m desde Col du Tourmalet - Wikil...</name>
    <link href="https://www.wikiloc.com/gravel-bike-trails/pic-du-midi-de-bigorre-2-877m-desde-col-du-tourmalet-238164602">
      <text>Pic du Midi de Bigorre 2.877m desde Col du Tourmalet - Wikil... on Wikiloc</text>
    </link>
    <time>2025-06-23T07:43:21Z</time>
  </metadata>
  <trk>
    <name>Pic du Midi de Bigorre 2.877m desde Col du Tourmalet - Wikil... - Wikiloc</name>
    <cmt></cmt>
    <desc></desc>
    <trkseg>
      <trkpt lat="42.908231" lon="0.145047">
        <ele>2123.839</ele>
        <time>2025-06-23T06:32:07Z</time>
      </trkpt>
      <trkpt lat="42.908464" lon="0.144497">
        <ele>2126.601</ele>
        <time>2025-06-23T06:32:31Z</time>
      </trkpt>
      <trkpt lat="42.908521" lon="0.144182">
        <ele>2128.421</ele>
        <time>2025-06-23T06:32:40Z</time>
      </trkpt>
      <trkpt lat="42.908700" lon="0.143718">
        <ele>2131.009</ele>
        <time>2025-06-23T06:32:55Z</time>
      </trkpt>
      <trkpt lat="42.908795" lon="0.142680">
        <ele>2138.015</ele>
        <time>2025-06-23T06:33:29Z</time>
      </trkpt>
      <trkpt lat="42.908891" lon="0.142487">
        <ele>2138.656</ele>
        <time>2025-06-23T06:33:32Z</time>
      </trkpt>
      <trkpt lat="42.908902" lon="0.142363">
        <ele>2139.641</ele>
        <time>2025-06-23T06:33:37Z</time>
      </trkpt>
      <trkpt lat="42.909261" lon="0.141842">
        <ele>2144.014</ele>
        <time>2025-06-23T06:34:03Z</time>
      </trkpt>
      <trkpt lat="42.909417" lon="0.141715">
        <ele>2145.269</ele>
        <time>2025-06-23T06:34:11Z</time>
      </trkpt>
      <trkpt lat="42.909539" lon="0.141748">
        <ele>2146.097</ele>
        <time>2025-06-23T06:34:17Z</time>
      </trkpt>
      <trkpt lat="42.909806" lon="0.142068">
        <ele>2149.279</ele>
        <time>2025-06-23T06:34:33Z</time>
      </trkpt>
      <trkpt lat="42.910123" lon="0.142230">
        <ele>2151.643</ele>
        <time>2025-06-23T06:34:47Z</time>
      </trkpt>
      <trkpt lat="42.910550" lon="0.142325">
        <ele>2156.075</ele>
        <time>2025-06-23T06:35:06Z</time>
      </trkpt>
      <trkpt lat="42.910768" lon="0.142315">
        <ele>2157.284</ele>
        <time>2025-06-23T06:35:14Z</time>
      </trkpt>
      <trkpt lat="42.911111" lon="0.142383">
        <ele>2160.007</ele>
        <time>2025-06-23T06:35:29Z</time>
      </trkpt>
      <trkpt lat="42.911408" lon="0.142285">
        <ele>2162.617</ele>
        <time>2025-06-23T06:35:42Z</time>
      </trkpt>
      <trkpt lat="42.911801" lon="0.142497">
        <ele>2166.209</ele>
        <time>2025-06-23T06:36:00Z</time>
      </trkpt>
      <trkpt lat="42.911893" lon="0.142440">
        <ele>2167.270</ele>
        <time>2025-06-23T06:36:05Z</time>
      </trkpt>
      <trkpt lat="42.912019" lon="0.142192">
        <ele>2168.811</ele>
        <time>2025-06-23T06:36:14Z</time>
      </trkpt>
      <trkpt lat="42.912038" lon="0.141985">
        <ele>2169.256</ele>
        <time>2025-06-23T06:36:16Z</time>
      </trkpt>
      <trkpt lat="42.912087" lon="0.141955">
        <ele>2169.669</ele>
        <time>2025-06-23T06:36:18Z</time>
      </trkpt>
      <trkpt lat="42.912095" lon="0.141875">
        <ele>2170.014</ele>
        <time>2025-06-23T06:36:19Z</time>
      </trkpt>
      <trkpt lat="42.912393" lon="0.141848">
        <ele>2172.252</ele>
        <time>2025-06-23T06:36:32Z</time>
      </trkpt>
      <trkpt lat="42.912904" lon="0.141903">
        <ele>2176.844</ele>
        <time>2025-06-23T06:36:52Z</time>
      </trkpt>
      <trkpt lat="42.913468" lon="0.142367">
        <ele>2182.058</ele>
        <time>2025-06-23T06:37:19Z</time>
      </trkpt>
      <trkpt lat="42.913690" lon="0.142860">
        <ele>2185.280</ele>
        <time>2025-06-23T06:37:37Z</time>
      </trkpt>
      <trkpt lat="42.914327" lon="0.143395">
        <ele>2191.222</ele>
        <time>2025-06-23T06:38:08Z</time>
      </trkpt>
      <trkpt lat="42.914689" lon="0.143868">
        <ele>2195.462</ele>
        <time>2025-06-23T06:38:30Z</time>
      </trkpt>
      <trkpt lat="42.915158" lon="0.144128">
        <ele>2199.608</ele>
        <time>2025-06-23T06:38:52Z</time>
      </trkpt>
      <trkpt lat="42.915330" lon="0.144168">
        <ele>2200.809</ele>
        <time>2025-06-23T06:38:59Z</time>
      </trkpt>
      <trkpt lat="42.915605" lon="0.144160">
        <ele>2203.034</ele>
        <time>2025-06-23T06:39:11Z</time>
      </trkpt>
      <trkpt lat="42.915784" lon="0.144005">
        <ele>2204.665</ele>
        <time>2025-06-23T06:39:21Z</time>
      </trkpt>
      <trkpt lat="42.915902" lon="0.143708">
        <ele>2206.840</ele>
        <time>2025-06-23T06:39:32Z</time>
      </trkpt>
      <trkpt lat="42.916013" lon="0.143548">
        <ele>2208.473</ele>
        <time>2025-06-23T06:39:39Z</time>
      </trkpt>
      <trkpt lat="42.916139" lon="0.143175">
        <ele>2210.618</ele>
        <time>2025-06-23T06:39:52Z</time>
      </trkpt>
      <trkpt lat="42.916451" lon="0.142707">
        <ele>2213.696</ele>
        <time>2025-06-23T06:40:11Z</time>
      </trkpt>
      <trkpt lat="42.916551" lon="0.142353">
        <ele>2216.288</ele>
        <time>2025-06-23T06:40:23Z</time>
      </trkpt>
      <trkpt lat="42.916673" lon="0.142115">
        <ele>2218.032</ele>
        <time>2025-06-23T06:40:32Z</time>
      </trkpt>
      <trkpt lat="42.916970" lon="0.141842">
        <ele>2221.464</ele>
        <time>2025-06-23T06:40:47Z</time>
      </trkpt>
      <trkpt lat="42.917043" lon="0.141683">
        <ele>2222.411</ele>
        <time>2025-06-23T06:40:53Z</time>
      </trkpt>
      <trkpt lat="42.916947" lon="0.141208">
        <ele>2225.221</ele>
        <time>2025-06-23T06:41:08Z</time>
      </trkpt>
      <trkpt lat="42.916547" lon="0.140142">
        <ele>2233.403</ele>
        <time>2025-06-23T06:41:49Z</time>
      </trkpt>
      <trkpt lat="42.916768" lon="0.139798">
        <ele>2235.209</ele>
        <time>2025-06-23T06:42:53Z</time>
      </trkpt>
      <trkpt lat="42.916951" lon="0.139647">
        <ele>2237.813</ele>
        <time>2025-06-23T06:43:03Z</time>
      </trkpt>
      <trkpt lat="42.917100" lon="0.139613">
        <ele>2239.074</ele>
        <time>2025-06-23T06:43:10Z</time>
      </trkpt>
      <trkpt lat="42.917398" lon="0.139900">
        <ele>2241.459</ele>
        <time>2025-06-23T06:43:27Z</time>
      </trkpt>
      <trkpt lat="42.917691" lon="0.139942">
        <ele>2243.292</ele>
        <time>2025-06-23T06:43:39Z</time>
      </trkpt>
      <trkpt lat="42.917989" lon="0.140143">
        <ele>2245.077</ele>
        <time>2025-06-23T06:43:51Z</time>
      </trkpt>
      <trkpt lat="42.918096" lon="0.140167">
        <ele>2245.475</ele>
        <time>2025-06-23T06:43:55Z</time>
      </trkpt>
      <trkpt lat="42.918302" lon="0.140115">
        <ele>2246.427</ele>
        <time>2025-06-23T06:44:03Z</time>
      </trkpt>
      <trkpt lat="42.918782" lon="0.140223">
        <ele>2249.471</ele>
        <time>2025-06-23T06:44:23Z</time>
      </trkpt>
      <trkpt lat="42.918923" lon="0.140157">
        <ele>2250.263</ele>
        <time>2025-06-23T06:44:30Z</time>
      </trkpt>
      <trkpt lat="42.919107" lon="0.140285">
        <ele>2251.426</ele>
        <time>2025-06-23T06:44:39Z</time>
      </trkpt>
      <trkpt lat="42.919278" lon="0.140035">
        <ele>2252.847</ele>
        <time>2025-06-23T06:44:48Z</time>
      </trkpt>
      <trkpt lat="42.919477" lon="0.139898">
        <ele>2254.611</ele>
        <time>2025-06-23T06:44:56Z</time>
      </trkpt>
      <trkpt lat="42.919820" lon="0.139775">
        <ele>2256.809</ele>
        <time>2025-06-23T06:45:08Z</time>
      </trkpt>
      <trkpt lat="42.919927" lon="0.139648">
        <ele>2257.434</ele>
        <time>2025-06-23T06:45:12Z</time>
      </trkpt>
      <trkpt lat="42.920518" lon="0.139532">
        <ele>2261.215</ele>
        <time>2025-06-23T06:45:35Z</time>
      </trkpt>
      <trkpt lat="42.920880" lon="0.139208">
        <ele>2264.020</ele>
        <time>2025-06-23T06:45:51Z</time>
      </trkpt>
      <trkpt lat="42.921174" lon="0.139080">
        <ele>2265.863</ele>
        <time>2025-06-23T06:46:02Z</time>
      </trkpt>
      <trkpt lat="42.921300" lon="0.138975">
        <ele>2267.698</ele>
        <time>2025-06-23T06:46:08Z</time>
      </trkpt>
      <trkpt lat="42.922071" lon="0.138680">
        <ele>2273.686</ele>
        <time>2025-06-23T06:46:39Z</time>
      </trkpt>
      <trkpt lat="42.922414" lon="0.138405">
        <ele>2277.058</ele>
        <time>2025-06-23T06:46:54Z</time>
      </trkpt>
      <trkpt lat="42.922631" lon="0.138085">
        <ele>2280.482</ele>
        <time>2025-06-23T06:47:08Z</time>
      </trkpt>
      <trkpt lat="42.922929" lon="0.137990">
        <ele>2283.064</ele>
        <time>2025-06-23T06:47:20Z</time>
      </trkpt>
      <trkpt lat="42.923051" lon="0.137853">
        <ele>2284.231</ele>
        <time>2025-06-23T06:47:26Z</time>
      </trkpt>
      <trkpt lat="42.923291" lon="0.137318">
        <ele>2288.461</ele>
        <time>2025-06-23T06:47:45Z</time>
      </trkpt>
      <trkpt lat="42.923341" lon="0.136815">
        <ele>2291.607</ele>
        <time>2025-06-23T06:48:00Z</time>
      </trkpt>
      <trkpt lat="42.923528" lon="0.136397">
        <ele>2294.009</ele>
        <time>2025-06-23T06:48:13Z</time>
      </trkpt>
      <trkpt lat="42.923844" lon="0.136000">
        <ele>2297.265</ele>
        <time>2025-06-23T06:48:28Z</time>
      </trkpt>
      <trkpt lat="42.923986" lon="0.135970">
        <ele>2299.046</ele>
        <time>2025-06-23T06:48:35Z</time>
      </trkpt>
      <trkpt lat="42.924157" lon="0.136052">
        <ele>2301.461</ele>
        <time>2025-06-23T06:48:46Z</time>
      </trkpt>
      <trkpt lat="42.924703" lon="0.136608">
        <ele>2306.494</ele>
        <time>2025-06-23T06:49:20Z</time>
      </trkpt>
      <trkpt lat="42.924905" lon="0.136755">
        <ele>2308.019</ele>
        <time>2025-06-23T06:49:29Z</time>
      </trkpt>
      <trkpt lat="42.924893" lon="0.136815">
        <ele>2308.677</ele>
        <time>2025-06-23T06:49:32Z</time>
      </trkpt>
      <trkpt lat="42.924977" lon="0.136940">
        <ele>2309.889</ele>
        <time>2025-06-23T06:49:40Z</time>
      </trkpt>
      <trkpt lat="42.925763" lon="0.137460">
        <ele>2317.263</ele>
        <time>2025-06-23T06:50:29Z</time>
      </trkpt>
      <trkpt lat="42.925962" lon="0.137517">
        <ele>2319.045</ele>
        <time>2025-06-23T06:51:01Z</time>
      </trkpt>
      <trkpt lat="42.926000" lon="0.137550">
        <ele>2319.246</ele>
        <time>2025-06-23T06:51:05Z</time>
      </trkpt>
      <trkpt lat="42.925954" lon="0.137585">
        <ele>2319.688</ele>
        <time>2025-06-23T06:51:07Z</time>
      </trkpt>
      <trkpt lat="42.926602" lon="0.137755">
        <ele>2324.616</ele>
        <time>2025-06-23T06:51:33Z</time>
      </trkpt>
      <trkpt lat="42.926946" lon="0.137782">
        <ele>2327.609</ele>
        <time>2025-06-23T06:51:47Z</time>
      </trkpt>
      <trkpt lat="42.927411" lon="0.138027">
        <ele>2331.616</ele>
        <time>2025-06-23T06:52:07Z</time>
      </trkpt>
      <trkpt lat="42.927648" lon="0.138107">
        <ele>2333.667</ele>
        <time>2025-06-23T06:52:17Z</time>
      </trkpt>
      <trkpt lat="42.927823" lon="0.138245">
        <ele>2336.232</ele>
        <time>2025-06-23T06:52:28Z</time>
      </trkpt>
      <trkpt lat="42.928460" lon="0.138495">
        <ele>2342.035</ele>
        <time>2025-06-23T06:52:59Z</time>
      </trkpt>
      <trkpt lat="42.928918" lon="0.138557">
        <ele>2345.860</ele>
        <time>2025-06-23T06:53:21Z</time>
      </trkpt>
      <trkpt lat="42.929338" lon="0.138498">
        <ele>2350.438</ele>
        <time>2025-06-23T06:53:40Z</time>
      </trkpt>
      <trkpt lat="42.929547" lon="0.138368">
        <ele>2352.410</ele>
        <time>2025-06-23T06:53:52Z</time>
      </trkpt>
      <trkpt lat="42.929833" lon="0.138300">
        <ele>2355.044</ele>
        <time>2025-06-23T06:54:11Z</time>
      </trkpt>
      <trkpt lat="42.929997" lon="0.138288">
        <ele>2356.016</ele>
        <time>2025-06-23T06:54:26Z</time>
      </trkpt>
      <trkpt lat="42.930196" lon="0.138342">
        <ele>2358.029</ele>
        <time>2025-06-23T06:54:39Z</time>
      </trkpt>
      <trkpt lat="42.930375" lon="0.138247">
        <ele>2359.400</ele>
        <time>2025-06-23T06:54:48Z</time>
      </trkpt>
      <trkpt lat="42.930558" lon="0.137988">
        <ele>2361.820</ele>
        <time>2025-06-23T06:55:00Z</time>
      </trkpt>
      <trkpt lat="42.930661" lon="0.137940">
        <ele>2362.809</ele>
        <time>2025-06-23T06:55:05Z</time>
      </trkpt>
      <trkpt lat="42.930692" lon="0.137962">
        <ele>2363.084</ele>
        <time>2025-06-23T06:55:07Z</time>
      </trkpt>
      <trkpt lat="42.930894" lon="0.138257">
        <ele>2364.825</ele>
        <time>2025-06-23T06:55:20Z</time>
      </trkpt>
      <trkpt lat="42.930932" lon="0.138937">
        <ele>2368.840</ele>
        <time>2025-06-23T06:55:43Z</time>
      </trkpt>
      <trkpt lat="42.931245" lon="0.139390">
        <ele>2374.043</ele>
        <time>2025-06-23T06:56:06Z</time>
      </trkpt>
      <trkpt lat="42.931405" lon="0.139937">
        <ele>2379.428</ele>
        <time>2025-06-23T06:56:29Z</time>
      </trkpt>
      <trkpt lat="42.931523" lon="0.140590">
        <ele>2385.836</ele>
        <time>2025-06-23T06:56:55Z</time>
      </trkpt>
      <trkpt lat="42.931748" lon="0.141162">
        <ele>2392.088</ele>
        <time>2025-06-23T06:57:21Z</time>
      </trkpt>
      <trkpt lat="42.931844" lon="0.142010">
        <ele>2400.482</ele>
        <time>2025-06-23T06:57:56Z</time>
      </trkpt>
      <trkpt lat="42.931722" lon="0.142947">
        <ele>2410.484</ele>
        <time>2025-06-23T06:58:35Z</time>
      </trkpt>
      <trkpt lat="42.931748" lon="0.143030">
        <ele>2410.247</ele>
        <time>2025-06-23T06:58:39Z</time>
      </trkpt>
      <trkpt lat="42.931825" lon="0.143062">
        <ele>2410.429</ele>
        <time>2025-06-23T06:58:44Z</time>
      </trkpt>
      <trkpt lat="42.931932" lon="0.142927">
        <ele>2412.621</ele>
        <time>2025-06-23T06:58:52Z</time>
      </trkpt>
      <trkpt lat="42.932096" lon="0.141797">
        <ele>2421.209</ele>
        <time>2025-06-23T06:59:36Z</time>
      </trkpt>
      <trkpt lat="42.932179" lon="0.141612">
        <ele>2423.466</ele>
        <time>2025-06-23T06:59:45Z</time>
      </trkpt>
      <trkpt lat="42.932206" lon="0.141207">
        <ele>2427.227</ele>
        <time>2025-06-23T07:00:01Z</time>
      </trkpt>
      <trkpt lat="42.932179" lon="0.140763">
        <ele>2431.262</ele>
        <time>2025-06-23T07:00:17Z</time>
      </trkpt>
      <trkpt lat="42.932263" lon="0.140335">
        <ele>2435.425</ele>
        <time>2025-06-23T07:00:35Z</time>
      </trkpt>
      <trkpt lat="42.932248" lon="0.140118">
        <ele>2437.060</ele>
        <time>2025-06-23T07:00:43Z</time>
      </trkpt>
      <trkpt lat="42.932492" lon="0.139448">
        <ele>2443.448</ele>
        <time>2025-06-23T07:01:11Z</time>
      </trkpt>
      <trkpt lat="42.932534" lon="0.138950">
        <ele>2447.410</ele>
        <time>2025-06-23T07:01:31Z</time>
      </trkpt>
      <trkpt lat="42.932763" lon="0.138375">
        <ele>2454.234</ele>
        <time>2025-06-23T07:01:59Z</time>
      </trkpt>
      <trkpt lat="42.932858" lon="0.137753">
        <ele>2460.636</ele>
        <time>2025-06-23T07:02:31Z</time>
      </trkpt>
      <trkpt lat="42.932839" lon="0.137602">
        <ele>2462.026</ele>
        <time>2025-06-23T07:02:39Z</time>
      </trkpt>
      <trkpt lat="42.932759" lon="0.137468">
        <ele>2463.047</ele>
        <time>2025-06-23T07:02:57Z</time>
      </trkpt>
      <trkpt lat="42.932847" lon="0.137368">
        <ele>2463.811</ele>
        <time>2025-06-23T07:03:30Z</time>
      </trkpt>
      <trkpt lat="42.932950" lon="0.137442">
        <ele>2464.609</ele>
        <time>2025-06-23T07:03:36Z</time>
      </trkpt>
      <trkpt lat="42.932935" lon="0.137947">
        <ele>2468.634</ele>
        <time>2025-06-23T07:03:54Z</time>
      </trkpt>
      <trkpt lat="42.933026" lon="0.138730">
        <ele>2475.055</ele>
        <time>2025-06-23T07:04:24Z</time>
      </trkpt>
      <trkpt lat="42.933007" lon="0.139133">
        <ele>2478.680</ele>
        <time>2025-06-23T07:04:41Z</time>
      </trkpt>
      <trkpt lat="42.933045" lon="0.139433">
        <ele>2481.813</ele>
        <time>2025-06-23T07:04:53Z</time>
      </trkpt>
      <trkpt lat="42.932988" lon="0.140462">
        <ele>2492.038</ele>
        <time>2025-06-23T07:05:39Z</time>
      </trkpt>
      <trkpt lat="42.932904" lon="0.140837">
        <ele>2496.056</ele>
        <time>2025-06-23T07:05:58Z</time>
      </trkpt>
      <trkpt lat="42.932973" lon="0.140898">
        <ele>2497.498</ele>
        <time>2025-06-23T07:06:04Z</time>
      </trkpt>
      <trkpt lat="42.933045" lon="0.140863">
        <ele>2498.012</ele>
        <time>2025-06-23T07:06:08Z</time>
      </trkpt>
      <trkpt lat="42.933103" lon="0.140707">
        <ele>2499.264</ele>
        <time>2025-06-23T07:06:15Z</time>
      </trkpt>
      <trkpt lat="42.933171" lon="0.140252">
        <ele>2503.688</ele>
        <time>2025-06-23T07:06:34Z</time>
      </trkpt>
      <trkpt lat="42.933312" lon="0.139928">
        <ele>2506.624</ele>
        <time>2025-06-23T07:06:49Z</time>
      </trkpt>
      <trkpt lat="42.933412" lon="0.139328">
        <ele>2512.426</ele>
        <time>2025-06-23T07:07:14Z</time>
      </trkpt>
      <trkpt lat="42.933484" lon="0.139223">
        <ele>2513.809</ele>
        <time>2025-06-23T07:07:21Z</time>
      </trkpt>
      <trkpt lat="42.933526" lon="0.138692">
        <ele>2518.870</ele>
        <time>2025-06-23T07:07:44Z</time>
      </trkpt>
      <trkpt lat="42.933686" lon="0.137932">
        <ele>2525.691</ele>
        <time>2025-06-23T07:08:18Z</time>
      </trkpt>
      <trkpt lat="42.933713" lon="0.137647">
        <ele>2527.466</ele>
        <time>2025-06-23T07:08:30Z</time>
      </trkpt>
      <trkpt lat="42.933667" lon="0.137295">
        <ele>2530.479</ele>
        <time>2025-06-23T07:08:45Z</time>
      </trkpt>
      <trkpt lat="42.933686" lon="0.136848">
        <ele>2534.634</ele>
        <time>2025-06-23T07:09:03Z</time>
      </trkpt>
      <trkpt lat="42.933866" lon="0.136463">
        <ele>2538.842</ele>
        <time>2025-06-23T07:09:24Z</time>
      </trkpt>
      <trkpt lat="42.933980" lon="0.136097">
        <ele>2543.064</ele>
        <time>2025-06-23T07:09:46Z</time>
      </trkpt>
      <trkpt lat="42.933965" lon="0.135742">
        <ele>2546.268</ele>
        <time>2025-06-23T07:10:03Z</time>
      </trkpt>
      <trkpt lat="42.934041" lon="0.134958">
        <ele>2552.840</ele>
        <time>2025-06-23T07:10:38Z</time>
      </trkpt>
      <trkpt lat="42.933953" lon="0.134458">
        <ele>2558.421</ele>
        <time>2025-06-23T07:11:11Z</time>
      </trkpt>
      <trkpt lat="42.934060" lon="0.134408">
        <ele>2558.841</ele>
        <time>2025-06-23T07:11:32Z</time>
      </trkpt>
      <trkpt lat="42.934152" lon="0.134458">
        <ele>2560.005</ele>
        <time>2025-06-23T07:11:38Z</time>
      </trkpt>
      <trkpt lat="42.934190" lon="0.134588">
        <ele>2561.009</ele>
        <time>2025-06-23T07:11:43Z</time>
      </trkpt>
      <trkpt lat="42.934155" lon="0.135612">
        <ele>2570.244</ele>
        <time>2025-06-23T07:12:22Z</time>
      </trkpt>
      <trkpt lat="42.934220" lon="0.135918">
        <ele>2573.295</ele>
        <time>2025-06-23T07:12:35Z</time>
      </trkpt>
      <trkpt lat="42.934213" lon="0.136405">
        <ele>2577.490</ele>
        <time>2025-06-23T07:12:55Z</time>
      </trkpt>
      <trkpt lat="42.934270" lon="0.136743">
        <ele>2580.653</ele>
        <time>2025-06-23T07:13:09Z</time>
      </trkpt>
      <trkpt lat="42.934400" lon="0.137063">
        <ele>2583.418</ele>
        <time>2025-06-23T07:13:24Z</time>
      </trkpt>
      <trkpt lat="42.934526" lon="0.137105">
        <ele>2584.696</ele>
        <time>2025-06-23T07:13:31Z</time>
      </trkpt>
      <trkpt lat="42.934590" lon="0.137022">
        <ele>2585.648</ele>
        <time>2025-06-23T07:13:37Z</time>
      </trkpt>
      <trkpt lat="42.934621" lon="0.136877">
        <ele>2586.632</ele>
        <time>2025-06-23T07:13:45Z</time>
      </trkpt>
      <trkpt lat="42.934499" lon="0.136707">
        <ele>2587.844</ele>
        <time>2025-06-23T07:13:53Z</time>
      </trkpt>
      <trkpt lat="42.934392" lon="0.136660">
        <ele>2589.442</ele>
        <time>2025-06-23T07:14:02Z</time>
      </trkpt>
      <trkpt lat="42.934335" lon="0.136383">
        <ele>2591.622</ele>
        <time>2025-06-23T07:14:24Z</time>
      </trkpt>
      <trkpt lat="42.934335" lon="0.136265">
        <ele>2592.814</ele>
        <time>2025-06-23T07:14:30Z</time>
      </trkpt>
      <trkpt lat="42.934468" lon="0.135988">
        <ele>2595.809</ele>
        <time>2025-06-23T07:14:44Z</time>
      </trkpt>
      <trkpt lat="42.934514" lon="0.135768">
        <ele>2597.686</ele>
        <time>2025-06-23T07:14:54Z</time>
      </trkpt>
      <trkpt lat="42.934602" lon="0.135653">
        <ele>2599.457</ele>
        <time>2025-06-23T07:15:02Z</time>
      </trkpt>
      <trkpt lat="42.934877" lon="0.135490">
        <ele>2602.872</ele>
        <time>2025-06-23T07:15:18Z</time>
      </trkpt>
      <trkpt lat="42.934918" lon="0.135412">
        <ele>2604.025</ele>
        <time>2025-06-23T07:15:22Z</time>
      </trkpt>
      <trkpt lat="42.935357" lon="0.135060">
        <ele>2610.020</ele>
        <time>2025-06-23T07:15:49Z</time>
      </trkpt>
      <trkpt lat="42.935582" lon="0.135073">
        <ele>2612.878</ele>
        <time>2025-06-23T07:16:01Z</time>
      </trkpt>
      <trkpt lat="42.935697" lon="0.135335">
        <ele>2616.860</ele>
        <time>2025-06-23T07:16:15Z</time>
      </trkpt>
      <trkpt lat="42.935689" lon="0.136035">
        <ele>2622.254</ele>
        <time>2025-06-23T07:16:45Z</time>
      </trkpt>
      <trkpt lat="42.935384" lon="0.136945">
        <ele>2631.696</ele>
        <time>2025-06-23T07:17:33Z</time>
      </trkpt>
      <trkpt lat="42.935468" lon="0.137220">
        <ele>2633.662</ele>
        <time>2025-06-23T07:17:48Z</time>
      </trkpt>
      <trkpt lat="42.935517" lon="0.137198">
        <ele>2634.083</ele>
        <time>2025-06-23T07:17:52Z</time>
      </trkpt>
      <trkpt lat="42.935613" lon="0.136965">
        <ele>2635.811</ele>
        <time>2025-06-23T07:18:04Z</time>
      </trkpt>
      <trkpt lat="42.935792" lon="0.136750">
        <ele>2638.809</ele>
        <time>2025-06-23T07:18:20Z</time>
      </trkpt>
      <trkpt lat="42.936387" lon="0.136332">
        <ele>2652.028</ele>
        <time>2025-06-23T07:19:06Z</time>
      </trkpt>
      <trkpt lat="42.936357" lon="0.138140">
        <ele>2689.679</ele>
        <time>2025-06-23T07:22:13Z</time>
      </trkpt>
      <trkpt lat="42.936387" lon="0.138153">
        <ele>2690.014</ele>
        <time>2025-06-23T07:22:39Z</time>
      </trkpt>
      <trkpt lat="42.936517" lon="0.137947">
        <ele>2691.827</ele>
        <time>2025-06-23T07:22:53Z</time>
      </trkpt>
      <trkpt lat="42.936750" lon="0.137742">
        <ele>2698.022</ele>
        <time>2025-06-23T07:23:12Z</time>
      </trkpt>
      <trkpt lat="42.936612" lon="0.138418">
        <ele>2707.680</ele>
        <time>2025-06-23T07:23:52Z</time>
      </trkpt>
      <trkpt lat="42.936955" lon="0.138125">
        <ele>2716.282</ele>
        <time>2025-06-23T07:24:29Z</time>
      </trkpt>
      <trkpt lat="42.936883" lon="0.138548">
        <ele>2721.816</ele>
        <time>2025-06-23T07:24:56Z</time>
      </trkpt>
      <trkpt lat="42.936711" lon="0.139020">
        <ele>2727.698</ele>
        <time>2025-06-23T07:25:25Z</time>
      </trkpt>
      <trkpt lat="42.936578" lon="0.139708">
        <ele>2741.673</ele>
        <time>2025-06-23T07:26:19Z</time>
      </trkpt>
      <trkpt lat="42.936624" lon="0.139755">
        <ele>2742.685</ele>
        <time>2025-06-23T07:26:26Z</time>
      </trkpt>
      <trkpt lat="42.936708" lon="0.139720">
        <ele>2744.013</ele>
        <time>2025-06-23T07:26:34Z</time>
      </trkpt>
      <trkpt lat="42.936738" lon="0.139633">
        <ele>2744.809</ele>
        <time>2025-06-23T07:26:44Z</time>
      </trkpt>
      <trkpt lat="42.936955" lon="0.139378">
        <ele>2750.499</ele>
        <time>2025-06-23T07:27:34Z</time>
      </trkpt>
      <trkpt lat="42.937127" lon="0.139250">
        <ele>2754.480</ele>
        <time>2025-06-23T07:27:47Z</time>
      </trkpt>
      <trkpt lat="42.936975" lon="0.140090">
        <ele>2772.895</ele>
        <time>2025-06-23T07:29:22Z</time>
      </trkpt>
      <trkpt lat="42.937215" lon="0.139962">
        <ele>2781.048</ele>
        <time>2025-06-23T07:30:06Z</time>
      </trkpt>
      <trkpt lat="42.937223" lon="0.140057">
        <ele>2782.873</ele>
        <time>2025-06-23T07:30:17Z</time>
      </trkpt>
      <trkpt lat="42.937131" lon="0.140263">
        <ele>2788.211</ele>
        <time>2025-06-23T07:30:44Z</time>
      </trkpt>
      <trkpt lat="42.937158" lon="0.140280">
        <ele>2789.053</ele>
        <time>2025-06-23T07:30:49Z</time>
      </trkpt>
      <trkpt lat="42.937299" lon="0.140197">
        <ele>2794.087</ele>
        <time>2025-06-23T07:31:19Z</time>
      </trkpt>
      <trkpt lat="42.937474" lon="0.139802">
        <ele>2794.819</ele>
        <time>2025-06-23T07:31:45Z</time>
      </trkpt>
      <trkpt lat="42.937520" lon="0.139772">
        <ele>2794.652</ele>
        <time>2025-06-23T07:31:52Z</time>
      </trkpt>
      <trkpt lat="42.937482" lon="0.139763">
        <ele>2795.053</ele>
        <time>2025-06-23T07:32:05Z</time>
      </trkpt>
      <trkpt lat="42.937532" lon="0.139747">
        <ele>2795.008</ele>
        <time>2025-06-23T07:33:13Z</time>
      </trkpt>
      <trkpt lat="42.937131" lon="0.140435">
        <ele>2795.009</ele>
        <time>2025-06-23T07:34:39Z</time>
      </trkpt>
      <trkpt lat="42.937089" lon="0.140645">
        <ele>2800.077</ele>
        <time>2025-06-23T07:35:08Z</time>
      </trkpt>
      <trkpt lat="42.936997" lon="0.140800">
        <ele>2804.838</ele>
        <time>2025-06-23T07:35:34Z</time>
      </trkpt>
      <trkpt lat="42.937036" lon="0.140898">
        <ele>2807.623</ele>
        <time>2025-06-23T07:35:49Z</time>
      </trkpt>
      <trkpt lat="42.936955" lon="0.141043">
        <ele>2814.656</ele>
        <time>2025-06-23T07:36:21Z</time>
      </trkpt>
      <trkpt lat="42.936948" lon="0.141290">
        <ele>2822.041</ele>
        <time>2025-06-23T07:36:54Z</time>
      </trkpt>
      <trkpt lat="42.936883" lon="0.141262">
        <ele>2822.479</ele>
        <time>2025-06-23T07:37:19Z</time>
      </trkpt>
      <trkpt lat="42.936860" lon="0.141298">
        <ele>2822.021</ele>
        <time>2025-06-23T07:38:12Z</time>
      </trkpt>
      <trkpt lat="42.936860" lon="0.141245">
        <ele>2822.475</ele>
        <time>2025-06-23T07:39:19Z</time>
      </trkpt>
      <trkpt lat="42.936784" lon="0.141305">
        <ele>2822.277</ele>
        <time>2025-06-23T07:43:21Z</time>
      </trkpt>
    </trkseg>
  </trk></gpx>