<?xml version="1.0" encoding="UTF-8"?>
<gpx creator="Wikiloc - https://www.wikiloc.com" version="1.1" xmlns="http://www.topografix.com/GPX/1/1" xmlns:xsi="http://www.w3.org/2001/XMLSchema-instance" xsi:schemaLocation="http://www.topografix.com/GPX/1/1 http://www.topografix.com/GPX/1/1/gpx.xsd">
  <metadata>
    <name>Wikiloc - Pico Jano 1.133m , desde Bárcena ( Cantabria)</name>
    <link href="https://www.wikiloc.com/cycling-trails/pico-jano-1-133m-desde-barcena-cantabria-261602286">
      <text>Pico Jano 1.133m , desde Bárcena ( Cantabria) - Wikiloc on Wikiloc</text>
    </link>
    <time>2026-04-26T07:35:56Z</time>
  </metadata>
  <trk>
    <name>Pico Jano 1.133m , desde Bárcena ( Cantabria) - Wikiloc</name>
    <cmt></cmt>
    <desc></desc>
    <trkseg>
      <trkpt lat="43.127392" lon="-4.054847">
        <ele>292.511</ele>
        <time>2026-04-26T06:30:04Z</time>
      </trkpt>
      <trkpt lat="43.127076" lon="-4.054582">
        <ele>294.821</ele>
        <time>2026-04-26T06:30:26Z</time>
      </trkpt>
      <trkpt lat="43.126719" lon="-4.053902">
        <ele>298.803</ele>
        <time>2026-04-26T06:30:59Z</time>
      </trkpt>
      <trkpt lat="43.126231" lon="-4.053688">
        <ele>300.409</ele>
        <time>2026-04-26T06:31:16Z</time>
      </trkpt>
      <trkpt lat="43.125532" lon="-4.053601">
        <ele>303.713</ele>
        <time>2026-04-26T06:31:39Z</time>
      </trkpt>
      <trkpt lat="43.125490" lon="-4.053423">
        <ele>304.427</ele>
        <time>2026-04-26T06:31:46Z</time>
      </trkpt>
      <trkpt lat="43.125359" lon="-4.053542">
        <ele>305.122</ele>
        <time>2026-04-26T06:31:53Z</time>
      </trkpt>
      <trkpt lat="43.125081" lon="-4.053499">
        <ele>306.077</ele>
        <time>2026-04-26T06:32:04Z</time>
      </trkpt>
      <trkpt lat="43.124285" lon="-4.052699">
        <ele>310.031</ele>
        <time>2026-04-26T06:32:32Z</time>
      </trkpt>
      <trkpt lat="43.123934" lon="-4.051622">
        <ele>313.913</ele>
        <time>2026-04-26T06:33:03Z</time>
      </trkpt>
      <trkpt lat="43.122250" lon="-4.049180">
        <ele>326.733</ele>
        <time>2026-04-26T06:34:10Z</time>
      </trkpt>
      <trkpt lat="43.121958" lon="-4.048523">
        <ele>329.919</ele>
        <time>2026-04-26T06:34:25Z</time>
      </trkpt>
      <trkpt lat="43.121144" lon="-4.047809">
        <ele>334.017</ele>
        <time>2026-04-26T06:34:50Z</time>
      </trkpt>
      <trkpt lat="43.120769" lon="-4.046786">
        <ele>339.267</ele>
        <time>2026-04-26T06:35:14Z</time>
      </trkpt>
      <trkpt lat="43.119498" lon="-4.045654">
        <ele>355.281</ele>
        <time>2026-04-26T06:36:19Z</time>
      </trkpt>
      <trkpt lat="43.118786" lon="-4.044761">
        <ele>365.319</ele>
        <time>2026-04-26T06:36:54Z</time>
      </trkpt>
      <trkpt lat="43.118306" lon="-4.044287">
        <ele>371.809</ele>
        <time>2026-04-26T06:37:17Z</time>
      </trkpt>
      <trkpt lat="43.118301" lon="-4.044174">
        <ele>372.948</ele>
        <time>2026-04-26T06:37:21Z</time>
      </trkpt>
      <trkpt lat="43.118421" lon="-4.044095">
        <ele>374.512</ele>
        <time>2026-04-26T06:37:29Z</time>
      </trkpt>
      <trkpt lat="43.118578" lon="-4.044297">
        <ele>376.747</ele>
        <time>2026-04-26T06:37:40Z</time>
      </trkpt>
      <trkpt lat="43.119332" lon="-4.044730">
        <ele>380.582</ele>
        <time>2026-04-26T06:38:07Z</time>
      </trkpt>
      <trkpt lat="43.119841" lon="-4.044671">
        <ele>384.886</ele>
        <time>2026-04-26T06:38:24Z</time>
      </trkpt>
      <trkpt lat="43.120194" lon="-4.044453">
        <ele>388.738</ele>
        <time>2026-04-26T06:38:35Z</time>
      </trkpt>
      <trkpt lat="43.120843" lon="-4.043828">
        <ele>396.428</ele>
        <time>2026-04-26T06:39:04Z</time>
      </trkpt>
      <trkpt lat="43.121275" lon="-4.043254">
        <ele>402.364</ele>
        <time>2026-04-26T06:39:25Z</time>
      </trkpt>
      <trkpt lat="43.122103" lon="-4.041379">
        <ele>418.122</ele>
        <time>2026-04-26T06:40:24Z</time>
      </trkpt>
      <trkpt lat="43.122368" lon="-4.040361">
        <ele>425.956</ele>
        <time>2026-04-26T06:40:52Z</time>
      </trkpt>
      <trkpt lat="43.122365" lon="-4.039749">
        <ele>430.859</ele>
        <time>2026-04-26T06:41:10Z</time>
      </trkpt>
      <trkpt lat="43.122222" lon="-4.037676">
        <ele>447.714</ele>
        <time>2026-04-26T06:42:09Z</time>
      </trkpt>
      <trkpt lat="43.121970" lon="-4.035966">
        <ele>463.309</ele>
        <time>2026-04-26T06:42:58Z</time>
      </trkpt>
      <trkpt lat="43.121977" lon="-4.035375">
        <ele>468.637</ele>
        <time>2026-04-26T06:43:16Z</time>
      </trkpt>
      <trkpt lat="43.121741" lon="-4.034181">
        <ele>478.041</ele>
        <time>2026-04-26T06:43:52Z</time>
      </trkpt>
      <trkpt lat="43.121588" lon="-4.033938">
        <ele>480.976</ele>
        <time>2026-04-26T06:44:03Z</time>
      </trkpt>
      <trkpt lat="43.121412" lon="-4.034092">
        <ele>483.181</ele>
        <time>2026-04-26T06:44:14Z</time>
      </trkpt>
      <trkpt lat="43.121135" lon="-4.034794">
        <ele>488.055</ele>
        <time>2026-04-26T06:44:39Z</time>
      </trkpt>
      <trkpt lat="43.121034" lon="-4.035636">
        <ele>494.527</ele>
        <time>2026-04-26T06:45:03Z</time>
      </trkpt>
      <trkpt lat="43.120960" lon="-4.035796">
        <ele>496.157</ele>
        <time>2026-04-26T06:45:08Z</time>
      </trkpt>
      <trkpt lat="43.120828" lon="-4.035822">
        <ele>497.713</ele>
        <time>2026-04-26T06:45:14Z</time>
      </trkpt>
      <trkpt lat="43.120297" lon="-4.034947">
        <ele>505.821</ele>
        <time>2026-04-26T06:45:50Z</time>
      </trkpt>
      <trkpt lat="43.120031" lon="-4.033314">
        <ele>515.565</ele>
        <time>2026-04-26T06:46:32Z</time>
      </trkpt>
      <trkpt lat="43.119847" lon="-4.032900">
        <ele>519.068</ele>
        <time>2026-04-26T06:46:46Z</time>
      </trkpt>
      <trkpt lat="43.119696" lon="-4.032724">
        <ele>520.914</ele>
        <time>2026-04-26T06:46:55Z</time>
      </trkpt>
      <trkpt lat="43.119131" lon="-4.032438">
        <ele>527.109</ele>
        <time>2026-04-26T06:47:19Z</time>
      </trkpt>
      <trkpt lat="43.118572" lon="-4.031896">
        <ele>534.428</ele>
        <time>2026-04-26T06:47:47Z</time>
      </trkpt>
      <trkpt lat="43.118124" lon="-4.031307">
        <ele>541.222</ele>
        <time>2026-04-26T06:48:11Z</time>
      </trkpt>
      <trkpt lat="43.117566" lon="-4.030772">
        <ele>548.577</ele>
        <time>2026-04-26T06:48:38Z</time>
      </trkpt>
      <trkpt lat="43.117333" lon="-4.030404">
        <ele>551.422</ele>
        <time>2026-04-26T06:48:51Z</time>
      </trkpt>
      <trkpt lat="43.116967" lon="-4.029378">
        <ele>560.576</ele>
        <time>2026-04-26T06:49:23Z</time>
      </trkpt>
      <trkpt lat="43.116500" lon="-4.027226">
        <ele>576.478</ele>
        <time>2026-04-26T06:50:26Z</time>
      </trkpt>
      <trkpt lat="43.115916" lon="-4.025959">
        <ele>588.228</ele>
        <time>2026-04-26T06:51:09Z</time>
      </trkpt>
      <trkpt lat="43.115366" lon="-4.024320">
        <ele>601.784</ele>
        <time>2026-04-26T06:51:59Z</time>
      </trkpt>
      <trkpt lat="43.114891" lon="-4.023288">
        <ele>610.722</ele>
        <time>2026-04-26T06:52:36Z</time>
      </trkpt>
      <trkpt lat="43.114051" lon="-4.022037">
        <ele>622.453</ele>
        <time>2026-04-26T06:53:24Z</time>
      </trkpt>
      <trkpt lat="43.112663" lon="-4.020531">
        <ele>640.504</ele>
        <time>2026-04-26T06:54:27Z</time>
      </trkpt>
      <trkpt lat="43.111867" lon="-4.019504">
        <ele>650.914</ele>
        <time>2026-04-26T06:55:08Z</time>
      </trkpt>
      <trkpt lat="43.110444" lon="-4.016749">
        <ele>676.009</ele>
        <time>2026-04-26T06:56:43Z</time>
      </trkpt>
      <trkpt lat="43.109568" lon="-4.015428">
        <ele>688.397</ele>
        <time>2026-04-26T06:57:30Z</time>
      </trkpt>
      <trkpt lat="43.108802" lon="-4.014606">
        <ele>697.171</ele>
        <time>2026-04-26T06:58:07Z</time>
      </trkpt>
      <trkpt lat="43.108410" lon="-4.014054">
        <ele>702.516</ele>
        <time>2026-04-26T06:58:29Z</time>
      </trkpt>
      <trkpt lat="43.108267" lon="-4.013557">
        <ele>704.441</ele>
        <time>2026-04-26T06:58:43Z</time>
      </trkpt>
      <trkpt lat="43.108311" lon="-4.013050">
        <ele>705.265</ele>
        <time>2026-04-26T06:58:57Z</time>
      </trkpt>
      <trkpt lat="43.108743" lon="-4.011634">
        <ele>708.117</ele>
        <time>2026-04-26T06:59:26Z</time>
      </trkpt>
      <trkpt lat="43.108611" lon="-4.009843">
        <ele>721.167</ele>
        <time>2026-04-26T07:00:13Z</time>
      </trkpt>
      <trkpt lat="43.109215" lon="-4.008250">
        <ele>732.943</ele>
        <time>2026-04-26T07:01:06Z</time>
      </trkpt>
      <trkpt lat="43.109467" lon="-4.007920">
        <ele>735.841</ele>
        <time>2026-04-26T07:01:16Z</time>
      </trkpt>
      <trkpt lat="43.109541" lon="-4.007671">
        <ele>737.688</ele>
        <time>2026-04-26T07:01:22Z</time>
      </trkpt>
      <trkpt lat="43.109507" lon="-4.007497">
        <ele>739.224</ele>
        <time>2026-04-26T07:01:28Z</time>
      </trkpt>
      <trkpt lat="43.109437" lon="-4.007449">
        <ele>740.326</ele>
        <time>2026-04-26T07:01:32Z</time>
      </trkpt>
      <trkpt lat="43.109357" lon="-4.007514">
        <ele>741.609</ele>
        <time>2026-04-26T07:01:38Z</time>
      </trkpt>
      <trkpt lat="43.108944" lon="-4.008271">
        <ele>748.250</ele>
        <time>2026-04-26T07:02:07Z</time>
      </trkpt>
      <trkpt lat="43.108370" lon="-4.008755">
        <ele>754.134</ele>
        <time>2026-04-26T07:02:32Z</time>
      </trkpt>
      <trkpt lat="43.107951" lon="-4.009738">
        <ele>762.129</ele>
        <time>2026-04-26T07:03:08Z</time>
      </trkpt>
      <trkpt lat="43.107763" lon="-4.010442">
        <ele>767.464</ele>
        <time>2026-04-26T07:03:28Z</time>
      </trkpt>
      <trkpt lat="43.107778" lon="-4.010644">
        <ele>768.988</ele>
        <time>2026-04-26T07:03:39Z</time>
      </trkpt>
      <trkpt lat="43.107427" lon="-4.010711">
        <ele>772.950</ele>
        <time>2026-04-26T07:04:15Z</time>
      </trkpt>
      <trkpt lat="43.105882" lon="-4.009002">
        <ele>790.010</ele>
        <time>2026-04-26T07:05:33Z</time>
      </trkpt>
      <trkpt lat="43.105278" lon="-4.008832">
        <ele>793.146</ele>
        <time>2026-04-26T07:05:53Z</time>
      </trkpt>
      <trkpt lat="43.105007" lon="-4.008674">
        <ele>794.514</ele>
        <time>2026-04-26T07:06:01Z</time>
      </trkpt>
      <trkpt lat="43.104903" lon="-4.008735">
        <ele>795.248</ele>
        <time>2026-04-26T07:06:10Z</time>
      </trkpt>
      <trkpt lat="43.104612" lon="-4.008497">
        <ele>797.361</ele>
        <time>2026-04-26T07:06:23Z</time>
      </trkpt>
      <trkpt lat="43.104359" lon="-4.008451">
        <ele>799.017</ele>
        <time>2026-04-26T07:06:31Z</time>
      </trkpt>
      <trkpt lat="43.103908" lon="-4.008552">
        <ele>802.309</ele>
        <time>2026-04-26T07:06:45Z</time>
      </trkpt>
      <trkpt lat="43.103558" lon="-4.008539">
        <ele>805.286</ele>
        <time>2026-04-26T07:07:05Z</time>
      </trkpt>
      <trkpt lat="43.103253" lon="-4.008037">
        <ele>808.050</ele>
        <time>2026-04-26T07:07:22Z</time>
      </trkpt>
      <trkpt lat="43.103049" lon="-4.007416">
        <ele>811.175</ele>
        <time>2026-04-26T07:07:36Z</time>
      </trkpt>
      <trkpt lat="43.102407" lon="-4.006600">
        <ele>817.160</ele>
        <time>2026-04-26T07:08:02Z</time>
      </trkpt>
      <trkpt lat="43.102145" lon="-4.006497">
        <ele>819.174</ele>
        <time>2026-04-26T07:08:10Z</time>
      </trkpt>
      <trkpt lat="43.101741" lon="-4.006511">
        <ele>821.666</ele>
        <time>2026-04-26T07:08:22Z</time>
      </trkpt>
      <trkpt lat="43.101392" lon="-4.006245">
        <ele>822.796</ele>
        <time>2026-04-26T07:08:32Z</time>
      </trkpt>
      <trkpt lat="43.100715" lon="-4.006326">
        <ele>822.792</ele>
        <time>2026-04-26T07:08:46Z</time>
      </trkpt>
      <trkpt lat="43.100225" lon="-4.006530">
        <ele>822.820</ele>
        <time>2026-04-26T07:08:56Z</time>
      </trkpt>
      <trkpt lat="43.100088" lon="-4.006475">
        <ele>822.986</ele>
        <time>2026-04-26T07:08:59Z</time>
      </trkpt>
      <trkpt lat="43.099988" lon="-4.006235">
        <ele>822.760</ele>
        <time>2026-04-26T07:09:03Z</time>
      </trkpt>
      <trkpt lat="43.099895" lon="-4.004874">
        <ele>822.226</ele>
        <time>2026-04-26T07:09:21Z</time>
      </trkpt>
      <trkpt lat="43.099605" lon="-4.004095">
        <ele>822.109</ele>
        <time>2026-04-26T07:09:32Z</time>
      </trkpt>
      <trkpt lat="43.099143" lon="-4.003478">
        <ele>822.310</ele>
        <time>2026-04-26T07:09:43Z</time>
      </trkpt>
      <trkpt lat="43.098846" lon="-4.003248">
        <ele>822.564</ele>
        <time>2026-04-26T07:09:49Z</time>
      </trkpt>
      <trkpt lat="43.098135" lon="-4.003553">
        <ele>823.349</ele>
        <time>2026-04-26T07:10:03Z</time>
      </trkpt>
      <trkpt lat="43.097970" lon="-4.003476">
        <ele>823.554</ele>
        <time>2026-04-26T07:10:06Z</time>
      </trkpt>
      <trkpt lat="43.097566" lon="-4.002557">
        <ele>826.128</ele>
        <time>2026-04-26T07:10:51Z</time>
      </trkpt>
      <trkpt lat="43.096993" lon="-4.001915">
        <ele>827.590</ele>
        <time>2026-04-26T07:11:10Z</time>
      </trkpt>
      <trkpt lat="43.096721" lon="-4.000381">
        <ele>829.490</ele>
        <time>2026-04-26T07:11:35Z</time>
      </trkpt>
      <trkpt lat="43.096463" lon="-3.999850">
        <ele>832.036</ele>
        <time>2026-04-26T07:11:45Z</time>
      </trkpt>
      <trkpt lat="43.096079" lon="-3.999438">
        <ele>836.064</ele>
        <time>2026-04-26T07:11:58Z</time>
      </trkpt>
      <trkpt lat="43.095535" lon="-3.999162">
        <ele>840.022</ele>
        <time>2026-04-26T07:12:14Z</time>
      </trkpt>
      <trkpt lat="43.095196" lon="-3.999126">
        <ele>841.162</ele>
        <time>2026-04-26T07:12:25Z</time>
      </trkpt>
      <trkpt lat="43.094826" lon="-3.999646">
        <ele>840.608</ele>
        <time>2026-04-26T07:12:43Z</time>
      </trkpt>
      <trkpt lat="43.094630" lon="-4.000346">
        <ele>840.209</ele>
        <time>2026-04-26T07:12:59Z</time>
      </trkpt>
      <trkpt lat="43.094596" lon="-4.000783">
        <ele>840.394</ele>
        <time>2026-04-26T07:13:06Z</time>
      </trkpt>
      <trkpt lat="43.094415" lon="-4.000942">
        <ele>840.338</ele>
        <time>2026-04-26T07:13:11Z</time>
      </trkpt>
      <trkpt lat="43.094203" lon="-4.000831">
        <ele>840.423</ele>
        <time>2026-04-26T07:13:16Z</time>
      </trkpt>
      <trkpt lat="43.093338" lon="-3.999962">
        <ele>841.538</ele>
        <time>2026-04-26T07:13:42Z</time>
      </trkpt>
      <trkpt lat="43.092532" lon="-3.999629">
        <ele>843.932</ele>
        <time>2026-04-26T07:14:02Z</time>
      </trkpt>
      <trkpt lat="43.092002" lon="-3.999238">
        <ele>846.344</ele>
        <time>2026-04-26T07:14:16Z</time>
      </trkpt>
      <trkpt lat="43.091885" lon="-3.999233">
        <ele>847.124</ele>
        <time>2026-04-26T07:14:19Z</time>
      </trkpt>
      <trkpt lat="43.091834" lon="-3.999447">
        <ele>848.150</ele>
        <time>2026-04-26T07:14:25Z</time>
      </trkpt>
      <trkpt lat="43.092188" lon="-3.999997">
        <ele>850.648</ele>
        <time>2026-04-26T07:15:21Z</time>
      </trkpt>
      <trkpt lat="43.092724" lon="-4.000392">
        <ele>855.527</ele>
        <time>2026-04-26T07:15:40Z</time>
      </trkpt>
      <trkpt lat="43.093757" lon="-4.001577">
        <ele>865.968</ele>
        <time>2026-04-26T07:16:23Z</time>
      </trkpt>
      <trkpt lat="43.094371" lon="-4.001901">
        <ele>869.114</ele>
        <time>2026-04-26T07:16:43Z</time>
      </trkpt>
      <trkpt lat="43.094502" lon="-4.002096">
        <ele>870.309</ele>
        <time>2026-04-26T07:16:49Z</time>
      </trkpt>
      <trkpt lat="43.094485" lon="-4.002261">
        <ele>871.144</ele>
        <time>2026-04-26T07:16:53Z</time>
      </trkpt>
      <trkpt lat="43.094312" lon="-4.002341">
        <ele>872.278</ele>
        <time>2026-04-26T07:16:59Z</time>
      </trkpt>
      <trkpt lat="43.094012" lon="-4.002109">
        <ele>873.813</ele>
        <time>2026-04-26T07:17:10Z</time>
      </trkpt>
      <trkpt lat="43.092951" lon="-4.001653">
        <ele>883.688</ele>
        <time>2026-04-26T07:17:49Z</time>
      </trkpt>
      <trkpt lat="43.092605" lon="-4.001664">
        <ele>887.372</ele>
        <time>2026-04-26T07:18:02Z</time>
      </trkpt>
      <trkpt lat="43.092099" lon="-4.001873">
        <ele>892.274</ele>
        <time>2026-04-26T07:18:21Z</time>
      </trkpt>
      <trkpt lat="43.091709" lon="-4.001943">
        <ele>895.344</ele>
        <time>2026-04-26T07:18:35Z</time>
      </trkpt>
      <trkpt lat="43.091313" lon="-4.001854">
        <ele>898.190</ele>
        <time>2026-04-26T07:18:48Z</time>
      </trkpt>
      <trkpt lat="43.090783" lon="-4.001482">
        <ele>902.018</ele>
        <time>2026-04-26T07:19:07Z</time>
      </trkpt>
      <trkpt lat="43.090679" lon="-4.001530">
        <ele>902.734</ele>
        <time>2026-04-26T07:19:11Z</time>
      </trkpt>
      <trkpt lat="43.090686" lon="-4.001629">
        <ele>903.155</ele>
        <time>2026-04-26T07:19:14Z</time>
      </trkpt>
      <trkpt lat="43.091272" lon="-4.002236">
        <ele>908.110</ele>
        <time>2026-04-26T07:19:42Z</time>
      </trkpt>
      <trkpt lat="43.092127" lon="-4.002790">
        <ele>917.809</ele>
        <time>2026-04-26T07:20:14Z</time>
      </trkpt>
      <trkpt lat="43.093160" lon="-4.004407">
        <ele>932.665</ele>
        <time>2026-04-26T07:21:04Z</time>
      </trkpt>
      <trkpt lat="43.093647" lon="-4.004846">
        <ele>937.569</ele>
        <time>2026-04-26T07:21:24Z</time>
      </trkpt>
      <trkpt lat="43.093732" lon="-4.005093">
        <ele>939.034</ele>
        <time>2026-04-26T07:21:31Z</time>
      </trkpt>
      <trkpt lat="43.093639" lon="-4.005113">
        <ele>939.679</ele>
        <time>2026-04-26T07:21:35Z</time>
      </trkpt>
      <trkpt lat="43.092322" lon="-4.004363">
        <ele>949.473</ele>
        <time>2026-04-26T07:22:28Z</time>
      </trkpt>
      <trkpt lat="43.091772" lon="-4.003999">
        <ele>953.935</ele>
        <time>2026-04-26T07:22:48Z</time>
      </trkpt>
      <trkpt lat="43.091153" lon="-4.003433">
        <ele>960.255</ele>
        <time>2026-04-26T07:23:12Z</time>
      </trkpt>
      <trkpt lat="43.090885" lon="-4.003390">
        <ele>962.971</ele>
        <time>2026-04-26T07:23:21Z</time>
      </trkpt>
      <trkpt lat="43.090513" lon="-4.003476">
        <ele>966.729</ele>
        <time>2026-04-26T07:23:34Z</time>
      </trkpt>
      <trkpt lat="43.090177" lon="-4.003720">
        <ele>970.299</ele>
        <time>2026-04-26T07:23:48Z</time>
      </trkpt>
      <trkpt lat="43.089752" lon="-4.004360">
        <ele>975.407</ele>
        <time>2026-04-26T07:24:12Z</time>
      </trkpt>
      <trkpt lat="43.089424" lon="-4.005141">
        <ele>980.327</ele>
        <time>2026-04-26T07:24:35Z</time>
      </trkpt>
      <trkpt lat="43.089219" lon="-4.006016">
        <ele>985.409</ele>
        <time>2026-04-26T07:24:59Z</time>
      </trkpt>
      <trkpt lat="43.089080" lon="-4.007184">
        <ele>992.421</ele>
        <time>2026-04-26T07:25:30Z</time>
      </trkpt>
      <trkpt lat="43.088339" lon="-4.008684">
        <ele>1005.215</ele>
        <time>2026-04-26T07:26:18Z</time>
      </trkpt>
      <trkpt lat="43.087681" lon="-4.011055">
        <ele>1021.070</ele>
        <time>2026-04-26T07:27:24Z</time>
      </trkpt>
      <trkpt lat="43.087725" lon="-4.011266">
        <ele>1022.115</ele>
        <time>2026-04-26T07:27:29Z</time>
      </trkpt>
      <trkpt lat="43.087834" lon="-4.011285">
        <ele>1022.819</ele>
        <time>2026-04-26T07:27:34Z</time>
      </trkpt>
      <trkpt lat="43.088055" lon="-4.010799">
        <ele>1024.341</ele>
        <time>2026-04-26T07:27:49Z</time>
      </trkpt>
      <trkpt lat="43.088312" lon="-4.010449">
        <ele>1025.951</ele>
        <time>2026-04-26T07:28:02Z</time>
      </trkpt>
      <trkpt lat="43.088844" lon="-4.010017">
        <ele>1030.547</ele>
        <time>2026-04-26T07:28:23Z</time>
      </trkpt>
      <trkpt lat="43.089420" lon="-4.009702">
        <ele>1035.735</ele>
        <time>2026-04-26T07:28:41Z</time>
      </trkpt>
      <trkpt lat="43.091234" lon="-4.008104">
        <ele>1055.185</ele>
        <time>2026-04-26T07:29:55Z</time>
      </trkpt>
      <trkpt lat="43.091617" lon="-4.007676">
        <ele>1060.189</ele>
        <time>2026-04-26T07:30:12Z</time>
      </trkpt>
      <trkpt lat="43.091838" lon="-4.007527">
        <ele>1062.617</ele>
        <time>2026-04-26T07:30:22Z</time>
      </trkpt>
      <trkpt lat="43.091987" lon="-4.007529">
        <ele>1063.809</ele>
        <time>2026-04-26T07:30:30Z</time>
      </trkpt>
      <trkpt lat="43.092072" lon="-4.007730">
        <ele>1064.730</ele>
        <time>2026-04-26T07:30:39Z</time>
      </trkpt>
      <trkpt lat="43.091608" lon="-4.008284">
        <ele>1066.874</ele>
        <time>2026-04-26T07:31:00Z</time>
      </trkpt>
      <trkpt lat="43.091101" lon="-4.009907">
        <ele>1076.259</ele>
        <time>2026-04-26T07:31:45Z</time>
      </trkpt>
      <trkpt lat="43.090791" lon="-4.011501">
        <ele>1088.044</ele>
        <time>2026-04-26T07:32:26Z</time>
      </trkpt>
      <trkpt lat="43.090824" lon="-4.011650">
        <ele>1089.148</ele>
        <time>2026-04-26T07:32:30Z</time>
      </trkpt>
      <trkpt lat="43.090930" lon="-4.011704">
        <ele>1090.130</ele>
        <time>2026-04-26T07:32:35Z</time>
      </trkpt>
      <trkpt lat="43.091142" lon="-4.011250">
        <ele>1092.290</ele>
        <time>2026-04-26T07:32:50Z</time>
      </trkpt>
      <trkpt lat="43.091768" lon="-4.010302">
        <ele>1100.056</ele>
        <time>2026-04-26T07:33:22Z</time>
      </trkpt>
      <trkpt lat="43.092155" lon="-4.010094">
        <ele>1104.394</ele>
        <time>2026-04-26T07:33:36Z</time>
      </trkpt>
      <trkpt lat="43.092427" lon="-4.010166">
        <ele>1107.394</ele>
        <time>2026-04-26T07:33:46Z</time>
      </trkpt>
      <trkpt lat="43.092495" lon="-4.010433">
        <ele>1109.257</ele>
        <time>2026-04-26T07:33:54Z</time>
      </trkpt>
      <trkpt lat="43.092496" lon="-4.011431">
        <ele>1114.122</ele>
        <time>2026-04-26T07:34:19Z</time>
      </trkpt>
      <trkpt lat="43.092331" lon="-4.012437">
        <ele>1120.209</ele>
        <time>2026-04-26T07:34:44Z</time>
      </trkpt>
      <trkpt lat="43.092084" lon="-4.013305">
        <ele>1125.511</ele>
        <time>2026-04-26T07:35:06Z</time>
      </trkpt>
      <trkpt lat="43.091590" lon="-4.014532">
        <ele>1129.675</ele>
        <time>2026-04-26T07:35:56Z</time>
      </trkpt>
    </trkseg>
  </trk></gpx>