<?xml version="1.0" encoding="UTF-8"?>
<gpx creator="Wikiloc - https://www.wikiloc.com" version="1.1" xmlns="http://www.topografix.com/GPX/1/1" xmlns:xsi="http://www.w3.org/2001/XMLSchema-instance" xsi:schemaLocation="http://www.topografix.com/GPX/1/1 http://www.topografix.com/GPX/1/1/gpx.xsd">
  <metadata>
    <name>Wikiloc - PORT DE PORTIXOL (por Aleio de Malferit)</name>
    <link href="https://www.wikiloc.com/cycling-trails/port-de-portixol-por-aleio-de-malferit-244672056">
      <text>PORT DE PORTIXOL (por Aleio de Malferit) - Wikiloc on Wikiloc</text>
    </link>
    <time>2026-07-16T10:01:17.702Z</time>
  </metadata>
  <trk>
    <name>PORT DE PORTIXOL (por Aleio de Malferit) - Wikiloc</name>
    <cmt></cmt>
    <desc></desc>
    <trkseg>
      <trkpt lat="38.872890" lon="-0.580280">
        <ele>240.059</ele>
        <time>2026-07-16T10:01:17.701Z</time>
      </trkpt>
      <trkpt lat="38.873120" lon="-0.580830">
        <ele>248.403</ele>
        <time>2026-07-16T10:01:37.701Z</time>
      </trkpt>
      <trkpt lat="38.873530" lon="-0.581770">
        <ele>261.223</ele>
        <time>2026-07-16T10:01:57.701Z</time>
      </trkpt>
      <trkpt lat="38.873850" lon="-0.582290">
        <ele>263.909</ele>
        <time>2026-07-16T10:02:17.701Z</time>
      </trkpt>
      <trkpt lat="38.874160" lon="-0.582660">
        <ele>264.677</ele>
        <time>2026-07-16T10:02:37.701Z</time>
      </trkpt>
      <trkpt lat="38.874310" lon="-0.582800">
        <ele>265.039</ele>
        <time>2026-07-16T10:02:57.701Z</time>
      </trkpt>
      <trkpt lat="38.874530" lon="-0.582980">
        <ele>266.319</ele>
        <time>2026-07-16T10:03:17.701Z</time>
      </trkpt>
      <trkpt lat="38.874780" lon="-0.583150">
        <ele>268.511</ele>
        <time>2026-07-16T10:03:37.701Z</time>
      </trkpt>
      <trkpt lat="38.875170" lon="-0.583360">
        <ele>270.752</ele>
        <time>2026-07-16T10:03:57.701Z</time>
      </trkpt>
      <trkpt lat="38.875640" lon="-0.583510">
        <ele>273.147</ele>
        <time>2026-07-16T10:04:17.701Z</time>
      </trkpt>
      <trkpt lat="38.876040" lon="-0.583560">
        <ele>274.825</ele>
        <time>2026-07-16T10:04:37.701Z</time>
      </trkpt>
      <trkpt lat="38.876280" lon="-0.583560">
        <ele>276.520</ele>
        <time>2026-07-16T10:04:57.701Z</time>
      </trkpt>
      <trkpt lat="38.876660" lon="-0.583500">
        <ele>279.091</ele>
        <time>2026-07-16T10:05:17.701Z</time>
      </trkpt>
      <trkpt lat="38.877640" lon="-0.583270">
        <ele>283.225</ele>
        <time>2026-07-16T10:05:37.701Z</time>
      </trkpt>
      <trkpt lat="38.877750" lon="-0.583210">
        <ele>284.226</ele>
        <time>2026-07-16T10:05:57.701Z</time>
      </trkpt>
      <trkpt lat="38.877830" lon="-0.583140">
        <ele>285.008</ele>
        <time>2026-07-16T10:06:17.701Z</time>
      </trkpt>
      <trkpt lat="38.877850" lon="-0.583100">
        <ele>285.209</ele>
        <time>2026-07-16T10:06:37.701Z</time>
      </trkpt>
      <trkpt lat="38.877930" lon="-0.583070">
        <ele>285.624</ele>
        <time>2026-07-16T10:06:57.701Z</time>
      </trkpt>
      <trkpt lat="38.877980" lon="-0.583090">
        <ele>285.826</ele>
        <time>2026-07-16T10:07:17.701Z</time>
      </trkpt>
      <trkpt lat="38.878030" lon="-0.583150">
        <ele>286.216</ele>
        <time>2026-07-16T10:07:37.701Z</time>
      </trkpt>
      <trkpt lat="38.878040" lon="-0.583190">
        <ele>286.498</ele>
        <time>2026-07-16T10:07:57.701Z</time>
      </trkpt>
      <trkpt lat="38.878040" lon="-0.583270">
        <ele>286.639</ele>
        <time>2026-07-16T10:08:17.701Z</time>
      </trkpt>
      <trkpt lat="38.877980" lon="-0.583420">
        <ele>286.444</ele>
        <time>2026-07-16T10:08:37.701Z</time>
      </trkpt>
      <trkpt lat="38.877960" lon="-0.583690">
        <ele>287.012</ele>
        <time>2026-07-16T10:08:57.701Z</time>
      </trkpt>
      <trkpt lat="38.878120" lon="-0.585500">
        <ele>287.727</ele>
        <time>2026-07-16T10:09:17.701Z</time>
      </trkpt>
      <trkpt lat="38.878300" lon="-0.587890">
        <ele>289.848</ele>
        <time>2026-07-16T10:09:37.701Z</time>
      </trkpt>
      <trkpt lat="38.878340" lon="-0.588130">
        <ele>290.374</ele>
        <time>2026-07-16T10:09:57.701Z</time>
      </trkpt>
      <trkpt lat="38.878390" lon="-0.588220">
        <ele>291.056</ele>
        <time>2026-07-16T10:10:17.701Z</time>
      </trkpt>
      <trkpt lat="38.878480" lon="-0.588270">
        <ele>291.521</ele>
        <time>2026-07-16T10:10:37.701Z</time>
      </trkpt>
      <trkpt lat="38.879680" lon="-0.588350">
        <ele>295.609</ele>
        <time>2026-07-16T10:10:57.701Z</time>
      </trkpt>
      <trkpt lat="38.879750" lon="-0.588370">
        <ele>296.499</ele>
        <time>2026-07-16T10:11:17.701Z</time>
      </trkpt>
      <trkpt lat="38.879800" lon="-0.588440">
        <ele>297.261</ele>
        <time>2026-07-16T10:11:37.701Z</time>
      </trkpt>
      <trkpt lat="38.879860" lon="-0.588590">
        <ele>298.431</ele>
        <time>2026-07-16T10:11:57.701Z</time>
      </trkpt>
      <trkpt lat="38.880070" lon="-0.591330">
        <ele>303.653</ele>
        <time>2026-07-16T10:12:17.701Z</time>
      </trkpt>
      <trkpt lat="38.880200" lon="-0.592790">
        <ele>306.854</ele>
        <time>2026-07-16T10:12:37.701Z</time>
      </trkpt>
      <trkpt lat="38.880280" lon="-0.593260">
        <ele>308.749</ele>
        <time>2026-07-16T10:12:57.701Z</time>
      </trkpt>
      <trkpt lat="38.880320" lon="-0.593360">
        <ele>309.227</ele>
        <time>2026-07-16T10:13:17.701Z</time>
      </trkpt>
      <trkpt lat="38.880290" lon="-0.593560">
        <ele>309.962</ele>
        <time>2026-07-16T10:13:37.701Z</time>
      </trkpt>
      <trkpt lat="38.880280" lon="-0.593870">
        <ele>310.083</ele>
        <time>2026-07-16T10:13:57.701Z</time>
      </trkpt>
      <trkpt lat="38.880390" lon="-0.595030">
        <ele>312.638</ele>
        <time>2026-07-16T10:14:17.701Z</time>
      </trkpt>
      <trkpt lat="38.880420" lon="-0.595100">
        <ele>312.570</ele>
        <time>2026-07-16T10:14:37.701Z</time>
      </trkpt>
      <trkpt lat="38.880480" lon="-0.595460">
        <ele>311.517</ele>
        <time>2026-07-16T10:14:57.701Z</time>
      </trkpt>
      <trkpt lat="38.880520" lon="-0.595570">
        <ele>311.609</ele>
        <time>2026-07-16T10:15:17.701Z</time>
      </trkpt>
      <trkpt lat="38.880580" lon="-0.595620">
        <ele>311.925</ele>
        <time>2026-07-16T10:15:37.701Z</time>
      </trkpt>
      <trkpt lat="38.880600" lon="-0.595710">
        <ele>311.747</ele>
        <time>2026-07-16T10:15:57.701Z</time>
      </trkpt>
      <trkpt lat="38.880590" lon="-0.595760">
        <ele>311.537</ele>
        <time>2026-07-16T10:16:17.701Z</time>
      </trkpt>
      <trkpt lat="38.880560" lon="-0.595810">
        <ele>311.179</ele>
        <time>2026-07-16T10:16:37.701Z</time>
      </trkpt>
      <trkpt lat="38.880550" lon="-0.595980">
        <ele>310.980</ele>
        <time>2026-07-16T10:16:57.701Z</time>
      </trkpt>
      <trkpt lat="38.880590" lon="-0.596230">
        <ele>312.215</ele>
        <time>2026-07-16T10:17:17.701Z</time>
      </trkpt>
      <trkpt lat="38.880830" lon="-0.596720">
        <ele>316.073</ele>
        <time>2026-07-16T10:17:37.701Z</time>
      </trkpt>
      <trkpt lat="38.881380" lon="-0.597840">
        <ele>320.318</ele>
        <time>2026-07-16T10:17:57.701Z</time>
      </trkpt>
      <trkpt lat="38.881800" lon="-0.598620">
        <ele>322.589</ele>
        <time>2026-07-16T10:18:17.701Z</time>
      </trkpt>
      <trkpt lat="38.882600" lon="-0.599900">
        <ele>322.288</ele>
        <time>2026-07-16T10:18:37.701Z</time>
      </trkpt>
      <trkpt lat="38.882660" lon="-0.600040">
        <ele>322.124</ele>
        <time>2026-07-16T10:18:57.701Z</time>
      </trkpt>
      <trkpt lat="38.883100" lon="-0.601700">
        <ele>327.226</ele>
        <time>2026-07-16T10:19:17.701Z</time>
      </trkpt>
      <trkpt lat="38.883170" lon="-0.602100">
        <ele>329.409</ele>
        <time>2026-07-16T10:19:37.701Z</time>
      </trkpt>
      <trkpt lat="38.883530" lon="-0.604590">
        <ele>338.310</ele>
        <time>2026-07-16T10:19:57.701Z</time>
      </trkpt>
      <trkpt lat="38.883760" lon="-0.607700">
        <ele>355.112</ele>
        <time>2026-07-16T10:20:17.701Z</time>
      </trkpt>
      <trkpt lat="38.883790" lon="-0.607940">
        <ele>355.332</ele>
        <time>2026-07-16T10:20:37.701Z</time>
      </trkpt>
      <trkpt lat="38.883980" lon="-0.608660">
        <ele>357.754</ele>
        <time>2026-07-16T10:20:57.701Z</time>
      </trkpt>
      <trkpt lat="38.884020" lon="-0.608860">
        <ele>359.735</ele>
        <time>2026-07-16T10:21:17.701Z</time>
      </trkpt>
      <trkpt lat="38.884070" lon="-0.609800">
        <ele>366.810</ele>
        <time>2026-07-16T10:21:37.701Z</time>
      </trkpt>
      <trkpt lat="38.883980" lon="-0.610750">
        <ele>370.728</ele>
        <time>2026-07-16T10:21:57.701Z</time>
      </trkpt>
      <trkpt lat="38.883910" lon="-0.611230">
        <ele>368.573</ele>
        <time>2026-07-16T10:22:17.701Z</time>
      </trkpt>
      <trkpt lat="38.883930" lon="-0.611370">
        <ele>368.054</ele>
        <time>2026-07-16T10:22:37.701Z</time>
      </trkpt>
      <trkpt lat="38.884060" lon="-0.611800">
        <ele>369.682</ele>
        <time>2026-07-16T10:22:57.701Z</time>
      </trkpt>
      <trkpt lat="38.884110" lon="-0.611910">
        <ele>370.343</ele>
        <time>2026-07-16T10:23:17.701Z</time>
      </trkpt>
      <trkpt lat="38.884400" lon="-0.612380">
        <ele>373.117</ele>
        <time>2026-07-16T10:23:37.701Z</time>
      </trkpt>
      <trkpt lat="38.884430" lon="-0.612460">
        <ele>373.009</ele>
        <time>2026-07-16T10:23:57.701Z</time>
      </trkpt>
      <trkpt lat="38.884430" lon="-0.612550">
        <ele>372.830</ele>
        <time>2026-07-16T10:24:17.701Z</time>
      </trkpt>
      <trkpt lat="38.884410" lon="-0.612640">
        <ele>372.522</ele>
        <time>2026-07-16T10:24:37.701Z</time>
      </trkpt>
      <trkpt lat="38.884350" lon="-0.612750">
        <ele>371.962</ele>
        <time>2026-07-16T10:24:57.701Z</time>
      </trkpt>
      <trkpt lat="38.883420" lon="-0.613690">
        <ele>380.714</ele>
        <time>2026-07-16T10:25:17.701Z</time>
      </trkpt>
      <trkpt lat="38.883200" lon="-0.614210">
        <ele>384.255</ele>
        <time>2026-07-16T10:25:37.701Z</time>
      </trkpt>
      <trkpt lat="38.883110" lon="-0.614640">
        <ele>383.240</ele>
        <time>2026-07-16T10:25:57.701Z</time>
      </trkpt>
      <trkpt lat="38.883070" lon="-0.614760">
        <ele>382.388</ele>
        <time>2026-07-16T10:26:17.701Z</time>
      </trkpt>
      <trkpt lat="38.882600" lon="-0.615880">
        <ele>383.973</ele>
        <time>2026-07-16T10:26:37.701Z</time>
      </trkpt>
      <trkpt lat="38.882450" lon="-0.616070">
        <ele>385.394</ele>
        <time>2026-07-16T10:26:57.701Z</time>
      </trkpt>
      <trkpt lat="38.882330" lon="-0.616120">
        <ele>385.539</ele>
        <time>2026-07-16T10:27:17.701Z</time>
      </trkpt>
      <trkpt lat="38.881250" lon="-0.616490">
        <ele>390.401</ele>
        <time>2026-07-16T10:27:37.701Z</time>
      </trkpt>
      <trkpt lat="38.881170" lon="-0.616530">
        <ele>390.321</ele>
        <time>2026-07-16T10:27:57.701Z</time>
      </trkpt>
      <trkpt lat="38.881060" lon="-0.616690">
        <ele>390.509</ele>
        <time>2026-07-16T10:28:17.701Z</time>
      </trkpt>
      <trkpt lat="38.880320" lon="-0.618450">
        <ele>396.755</ele>
        <time>2026-07-16T10:28:37.701Z</time>
      </trkpt>
      <trkpt lat="38.880310" lon="-0.618560">
        <ele>396.717</ele>
        <time>2026-07-16T10:28:57.701Z</time>
      </trkpt>
      <trkpt lat="38.880370" lon="-0.619120">
        <ele>398.967</ele>
        <time>2026-07-16T10:29:17.701Z</time>
      </trkpt>
      <trkpt lat="38.880370" lon="-0.619410">
        <ele>398.799</ele>
        <time>2026-07-16T10:29:37.701Z</time>
      </trkpt>
      <trkpt lat="38.880330" lon="-0.620170">
        <ele>399.490</ele>
        <time>2026-07-16T10:29:57.701Z</time>
      </trkpt>
      <trkpt lat="38.880300" lon="-0.620340">
        <ele>399.835</ele>
        <time>2026-07-16T10:30:17.701Z</time>
      </trkpt>
      <trkpt lat="38.880250" lon="-0.620430">
        <ele>399.983</ele>
        <time>2026-07-16T10:30:37.701Z</time>
      </trkpt>
      <trkpt lat="38.880190" lon="-0.620470">
        <ele>399.938</ele>
        <time>2026-07-16T10:30:57.701Z</time>
      </trkpt>
      <trkpt lat="38.880100" lon="-0.620480">
        <ele>399.579</ele>
        <time>2026-07-16T10:31:17.701Z</time>
      </trkpt>
      <trkpt lat="38.879640" lon="-0.620340">
        <ele>397.017</ele>
        <time>2026-07-16T10:31:37.701Z</time>
      </trkpt>
      <trkpt lat="38.879530" lon="-0.620340">
        <ele>397.487</ele>
        <time>2026-07-16T10:31:57.701Z</time>
      </trkpt>
      <trkpt lat="38.879410" lon="-0.620380">
        <ele>398.215</ele>
        <time>2026-07-16T10:32:17.701Z</time>
      </trkpt>
      <trkpt lat="38.879200" lon="-0.620550">
        <ele>400.009</ele>
        <time>2026-07-16T10:32:37.701Z</time>
      </trkpt>
      <trkpt lat="38.879140" lon="-0.620630">
        <ele>400.253</ele>
        <time>2026-07-16T10:32:57.701Z</time>
      </trkpt>
      <trkpt lat="38.878980" lon="-0.621250">
        <ele>400.395</ele>
        <time>2026-07-16T10:33:17.701Z</time>
      </trkpt>
      <trkpt lat="38.878570" lon="-0.622380">
        <ele>404.565</ele>
        <time>2026-07-16T10:33:37.701Z</time>
      </trkpt>
      <trkpt lat="38.878450" lon="-0.622800">
        <ele>403.667</ele>
        <time>2026-07-16T10:33:57.701Z</time>
      </trkpt>
      <trkpt lat="38.878360" lon="-0.623180">
        <ele>400.598</ele>
        <time>2026-07-16T10:34:17.701Z</time>
      </trkpt>
      <trkpt lat="38.878320" lon="-0.623310">
        <ele>400.033</ele>
        <time>2026-07-16T10:34:37.701Z</time>
      </trkpt>
      <trkpt lat="38.878250" lon="-0.623420">
        <ele>400.551</ele>
        <time>2026-07-16T10:34:57.701Z</time>
      </trkpt>
      <trkpt lat="38.878130" lon="-0.623530">
        <ele>400.976</ele>
        <time>2026-07-16T10:35:17.701Z</time>
      </trkpt>
      <trkpt lat="38.877940" lon="-0.623660">
        <ele>401.547</ele>
        <time>2026-07-16T10:35:37.701Z</time>
      </trkpt>
      <trkpt lat="38.877810" lon="-0.623790">
        <ele>401.956</ele>
        <time>2026-07-16T10:35:57.701Z</time>
      </trkpt>
      <trkpt lat="38.877750" lon="-0.623920">
        <ele>401.859</ele>
        <time>2026-07-16T10:36:17.701Z</time>
      </trkpt>
      <trkpt lat="38.877650" lon="-0.624410">
        <ele>404.314</ele>
        <time>2026-07-16T10:36:37.701Z</time>
      </trkpt>
      <trkpt lat="38.877600" lon="-0.624560">
        <ele>405.009</ele>
        <time>2026-07-16T10:36:57.701Z</time>
      </trkpt>
      <trkpt lat="38.877370" lon="-0.624910">
        <ele>404.367</ele>
        <time>2026-07-16T10:37:17.701Z</time>
      </trkpt>
      <trkpt lat="38.877370" lon="-0.625070">
        <ele>405.689</ele>
        <time>2026-07-16T10:37:37.701Z</time>
      </trkpt>
      <trkpt lat="38.877670" lon="-0.625930">
        <ele>406.979</ele>
        <time>2026-07-16T10:37:57.701Z</time>
      </trkpt>
      <trkpt lat="38.877710" lon="-0.626150">
        <ele>405.611</ele>
        <time>2026-07-16T10:38:17.701Z</time>
      </trkpt>
      <trkpt lat="38.877720" lon="-0.626360">
        <ele>404.712</ele>
        <time>2026-07-16T10:38:37.701Z</time>
      </trkpt>
      <trkpt lat="38.877700" lon="-0.626640">
        <ele>405.137</ele>
        <time>2026-07-16T10:38:57.701Z</time>
      </trkpt>
      <trkpt lat="38.877650" lon="-0.626850">
        <ele>406.755</ele>
        <time>2026-07-16T10:39:17.701Z</time>
      </trkpt>
      <trkpt lat="38.877090" lon="-0.628250">
        <ele>415.110</ele>
        <time>2026-07-16T10:39:37.701Z</time>
      </trkpt>
      <trkpt lat="38.876990" lon="-0.628350">
        <ele>416.241</ele>
        <time>2026-07-16T10:39:57.701Z</time>
      </trkpt>
      <trkpt lat="38.876860" lon="-0.628460">
        <ele>416.664</ele>
        <time>2026-07-16T10:40:17.701Z</time>
      </trkpt>
      <trkpt lat="38.876760" lon="-0.628570">
        <ele>417.006</ele>
        <time>2026-07-16T10:40:37.701Z</time>
      </trkpt>
      <trkpt lat="38.876710" lon="-0.628710">
        <ele>417.916</ele>
        <time>2026-07-16T10:40:57.701Z</time>
      </trkpt>
      <trkpt lat="38.876680" lon="-0.628870">
        <ele>418.909</ele>
        <time>2026-07-16T10:41:17.701Z</time>
      </trkpt>
      <trkpt lat="38.876690" lon="-0.629000">
        <ele>418.868</ele>
        <time>2026-07-16T10:41:37.701Z</time>
      </trkpt>
      <trkpt lat="38.876720" lon="-0.629110">
        <ele>418.910</ele>
        <time>2026-07-16T10:41:57.701Z</time>
      </trkpt>
      <trkpt lat="38.877070" lon="-0.629730">
        <ele>421.440</ele>
        <time>2026-07-16T10:42:17.701Z</time>
      </trkpt>
      <trkpt lat="38.877080" lon="-0.629840">
        <ele>422.552</ele>
        <time>2026-07-16T10:42:37.701Z</time>
      </trkpt>
      <trkpt lat="38.877040" lon="-0.629940">
        <ele>422.623</ele>
        <time>2026-07-16T10:42:57.701Z</time>
      </trkpt>
      <trkpt lat="38.876650" lon="-0.630220">
        <ele>424.948</ele>
        <time>2026-07-16T10:43:17.701Z</time>
      </trkpt>
      <trkpt lat="38.876460" lon="-0.630510">
        <ele>426.446</ele>
        <time>2026-07-16T10:43:37.701Z</time>
      </trkpt>
      <trkpt lat="38.876380" lon="-0.630760">
        <ele>428.061</ele>
        <time>2026-07-16T10:43:57.701Z</time>
      </trkpt>
      <trkpt lat="38.876270" lon="-0.631250">
        <ele>430.512</ele>
        <time>2026-07-16T10:44:17.701Z</time>
      </trkpt>
      <trkpt lat="38.876190" lon="-0.631470">
        <ele>430.412</ele>
        <time>2026-07-16T10:44:37.701Z</time>
      </trkpt>
      <trkpt lat="38.876130" lon="-0.631600">
        <ele>429.432</ele>
        <time>2026-07-16T10:44:57.701Z</time>
      </trkpt>
      <trkpt lat="38.875610" lon="-0.632150">
        <ele>433.005</ele>
        <time>2026-07-16T10:45:17.701Z</time>
      </trkpt>
      <trkpt lat="38.875550" lon="-0.632260">
        <ele>433.209</ele>
        <time>2026-07-16T10:45:37.701Z</time>
      </trkpt>
      <trkpt lat="38.875310" lon="-0.632800">
        <ele>436.013</ele>
        <time>2026-07-16T10:45:57.701Z</time>
      </trkpt>
      <trkpt lat="38.875230" lon="-0.633030">
        <ele>438.915</ele>
        <time>2026-07-16T10:46:17.701Z</time>
      </trkpt>
      <trkpt lat="38.875110" lon="-0.633610">
        <ele>438.035</ele>
        <time>2026-07-16T10:46:37.701Z</time>
      </trkpt>
      <trkpt lat="38.875090" lon="-0.633850">
        <ele>437.067</ele>
        <time>2026-07-16T10:46:57.701Z</time>
      </trkpt>
      <trkpt lat="38.875110" lon="-0.634790">
        <ele>445.158</ele>
        <time>2026-07-16T10:47:17.701Z</time>
      </trkpt>
      <trkpt lat="38.875100" lon="-0.634970">
        <ele>447.293</ele>
        <time>2026-07-16T10:47:37.701Z</time>
      </trkpt>
      <trkpt lat="38.874850" lon="-0.636180">
        <ele>443.841</ele>
        <time>2026-07-16T10:47:57.701Z</time>
      </trkpt>
      <trkpt lat="38.874840" lon="-0.636410">
        <ele>438.526</ele>
        <time>2026-07-16T10:48:17.701Z</time>
      </trkpt>
      <trkpt lat="38.874860" lon="-0.636620">
        <ele>436.167</ele>
        <time>2026-07-16T10:48:37.701Z</time>
      </trkpt>
      <trkpt lat="38.875000" lon="-0.637170">
        <ele>446.571</ele>
        <time>2026-07-16T10:48:57.701Z</time>
      </trkpt>
      <trkpt lat="38.874990" lon="-0.637350">
        <ele>451.041</ele>
        <time>2026-07-16T10:49:17.701Z</time>
      </trkpt>
      <trkpt lat="38.874760" lon="-0.637990">
        <ele>452.115</ele>
        <time>2026-07-16T10:49:37.701Z</time>
      </trkpt>
      <trkpt lat="38.874470" lon="-0.638670">
        <ele>452.909</ele>
        <time>2026-07-16T10:49:57.701Z</time>
      </trkpt>
      <trkpt lat="38.874460" lon="-0.638800">
        <ele>455.479</ele>
        <time>2026-07-16T10:50:17.701Z</time>
      </trkpt>
      <trkpt lat="38.874480" lon="-0.638880">
        <ele>457.611</ele>
        <time>2026-07-16T10:50:37.701Z</time>
      </trkpt>
      <trkpt lat="38.874550" lon="-0.638950">
        <ele>460.041</ele>
        <time>2026-07-16T10:50:57.701Z</time>
      </trkpt>
      <trkpt lat="38.874650" lon="-0.638950">
        <ele>462.323</ele>
        <time>2026-07-16T10:51:17.701Z</time>
      </trkpt>
      <trkpt lat="38.874700" lon="-0.638900">
        <ele>462.784</ele>
        <time>2026-07-16T10:51:37.701Z</time>
      </trkpt>
      <trkpt lat="38.874890" lon="-0.638220">
        <ele>460.799</ele>
        <time>2026-07-16T10:51:57.701Z</time>
      </trkpt>
      <trkpt lat="38.875270" lon="-0.637550">
        <ele>462.937</ele>
        <time>2026-07-16T10:52:17.701Z</time>
      </trkpt>
      <trkpt lat="38.875320" lon="-0.637510">
        <ele>463.482</ele>
        <time>2026-07-16T10:52:37.701Z</time>
      </trkpt>
      <trkpt lat="38.875380" lon="-0.637510">
        <ele>465.263</ele>
        <time>2026-07-16T10:52:57.701Z</time>
      </trkpt>
      <trkpt lat="38.875420" lon="-0.637540">
        <ele>467.023</ele>
        <time>2026-07-16T10:53:17.701Z</time>
      </trkpt>
      <trkpt lat="38.875450" lon="-0.637580">
        <ele>468.783</ele>
        <time>2026-07-16T10:53:37.701Z</time>
      </trkpt>
      <trkpt lat="38.875450" lon="-0.637670">
        <ele>470.611</ele>
        <time>2026-07-16T10:53:57.701Z</time>
      </trkpt>
      <trkpt lat="38.875410" lon="-0.637750">
        <ele>471.209</ele>
        <time>2026-07-16T10:54:17.701Z</time>
      </trkpt>
      <trkpt lat="38.875320" lon="-0.637860">
        <ele>471.334</ele>
        <time>2026-07-16T10:54:37.701Z</time>
      </trkpt>
      <trkpt lat="38.875200" lon="-0.638050">
        <ele>471.546</ele>
        <time>2026-07-16T10:54:57.701Z</time>
      </trkpt>
      <trkpt lat="38.874960" lon="-0.638790">
        <ele>472.796</ele>
        <time>2026-07-16T10:55:17.701Z</time>
      </trkpt>
      <trkpt lat="38.874930" lon="-0.638990">
        <ele>473.428</ele>
        <time>2026-07-16T10:55:37.701Z</time>
      </trkpt>
      <trkpt lat="38.874910" lon="-0.639240">
        <ele>473.759</ele>
        <time>2026-07-16T10:55:57.701Z</time>
      </trkpt>
      <trkpt lat="38.874920" lon="-0.639500">
        <ele>473.684</ele>
        <time>2026-07-16T10:56:17.701Z</time>
      </trkpt>
      <trkpt lat="38.874950" lon="-0.639660">
        <ele>474.432</ele>
        <time>2026-07-16T10:56:37.701Z</time>
      </trkpt>
      <trkpt lat="38.875050" lon="-0.640040">
        <ele>478.167</ele>
        <time>2026-07-16T10:56:57.701Z</time>
      </trkpt>
      <trkpt lat="38.875040" lon="-0.640120">
        <ele>477.738</ele>
        <time>2026-07-16T10:57:17.701Z</time>
      </trkpt>
      <trkpt lat="38.874890" lon="-0.640390">
        <ele>474.757</ele>
        <time>2026-07-16T10:57:37.701Z</time>
      </trkpt>
      <trkpt lat="38.874870" lon="-0.640520">
        <ele>475.800</ele>
        <time>2026-07-16T10:57:57.701Z</time>
      </trkpt>
      <trkpt lat="38.874880" lon="-0.640590">
        <ele>476.920</ele>
        <time>2026-07-16T10:58:17.701Z</time>
      </trkpt>
      <trkpt lat="38.875000" lon="-0.641220">
        <ele>485.209</ele>
        <time>2026-07-16T10:58:37.701Z</time>
      </trkpt>
      <trkpt lat="38.875010" lon="-0.641340">
        <ele>486.887</ele>
        <time>2026-07-16T10:58:57.701Z</time>
      </trkpt>
      <trkpt lat="38.874980" lon="-0.641940">
        <ele>486.499</ele>
        <time>2026-07-16T10:59:17.701Z</time>
      </trkpt>
      <trkpt lat="38.874870" lon="-0.642420">
        <ele>487.489</ele>
        <time>2026-07-16T10:59:37.701Z</time>
      </trkpt>
      <trkpt lat="38.874830" lon="-0.642520">
        <ele>487.081</ele>
        <time>2026-07-16T10:59:57.701Z</time>
      </trkpt>
      <trkpt lat="38.874730" lon="-0.642660">
        <ele>485.452</ele>
        <time>2026-07-16T11:00:17.701Z</time>
      </trkpt>
      <trkpt lat="38.874640" lon="-0.642830">
        <ele>486.377</ele>
        <time>2026-07-16T11:00:37.701Z</time>
      </trkpt>
      <trkpt lat="38.874480" lon="-0.643180">
        <ele>488.515</ele>
        <time>2026-07-16T11:00:57.701Z</time>
      </trkpt>
      <trkpt lat="38.874460" lon="-0.643260">
        <ele>489.740</ele>
        <time>2026-07-16T11:01:17.701Z</time>
      </trkpt>
      <trkpt lat="38.874440" lon="-0.643460">
        <ele>491.221</ele>
        <time>2026-07-16T11:01:37.701Z</time>
      </trkpt>
      <trkpt lat="38.874480" lon="-0.643790">
        <ele>492.846</ele>
        <time>2026-07-16T11:01:57.701Z</time>
      </trkpt>
      <trkpt lat="38.874610" lon="-0.644430">
        <ele>494.288</ele>
        <time>2026-07-16T11:02:17.701Z</time>
      </trkpt>
      <trkpt lat="38.874640" lon="-0.644810">
        <ele>500.516</ele>
        <time>2026-07-16T11:02:37.701Z</time>
      </trkpt>
      <trkpt lat="38.874770" lon="-0.645200">
        <ele>512.309</ele>
        <time>2026-07-16T11:02:57.701Z</time>
      </trkpt>
      <trkpt lat="38.874780" lon="-0.645330">
        <ele>511.346</ele>
        <time>2026-07-16T11:03:17.701Z</time>
      </trkpt>
      <trkpt lat="38.874760" lon="-0.646220">
        <ele>511.388</ele>
        <time>2026-07-16T11:03:37.701Z</time>
      </trkpt>
      <trkpt lat="38.874720" lon="-0.646530">
        <ele>516.578</ele>
        <time>2026-07-16T11:03:57.701Z</time>
      </trkpt>
      <trkpt lat="38.874610" lon="-0.646990">
        <ele>514.450</ele>
        <time>2026-07-16T11:04:17.701Z</time>
      </trkpt>
      <trkpt lat="38.874600" lon="-0.647110">
        <ele>513.951</ele>
        <time>2026-07-16T11:04:37.701Z</time>
      </trkpt>
      <trkpt lat="38.874620" lon="-0.647260">
        <ele>515.916</ele>
        <time>2026-07-16T11:04:57.701Z</time>
      </trkpt>
      <trkpt lat="38.874650" lon="-0.647390">
        <ele>520.434</ele>
        <time>2026-07-16T11:05:17.701Z</time>
      </trkpt>
      <trkpt lat="38.874740" lon="-0.647590">
        <ele>527.559</ele>
        <time>2026-07-16T11:05:37.701Z</time>
      </trkpt>
      <trkpt lat="38.874790" lon="-0.647650">
        <ele>527.510</ele>
        <time>2026-07-16T11:05:57.701Z</time>
      </trkpt>
      <trkpt lat="38.875150" lon="-0.647850">
        <ele>529.237</ele>
        <time>2026-07-16T11:06:17.701Z</time>
      </trkpt>
      <trkpt lat="38.875170" lon="-0.647900">
        <ele>529.649</ele>
        <time>2026-07-16T11:06:37.701Z</time>
      </trkpt>
      <trkpt lat="38.875170" lon="-0.647960">
        <ele>529.813</ele>
        <time>2026-07-16T11:06:57.701Z</time>
      </trkpt>
      <trkpt lat="38.875150" lon="-0.648030">
        <ele>529.409</ele>
        <time>2026-07-16T11:07:17.701Z</time>
      </trkpt>
      <trkpt lat="38.874870" lon="-0.648280">
        <ele>522.045</ele>
        <time>2026-07-16T11:07:37.701Z</time>
      </trkpt>
      <trkpt lat="38.874840" lon="-0.648340">
        <ele>520.657</ele>
        <time>2026-07-16T11:07:57.701Z</time>
      </trkpt>
      <trkpt lat="38.874820" lon="-0.648510">
        <ele>522.617</ele>
        <time>2026-07-16T11:08:17.701Z</time>
      </trkpt>
      <trkpt lat="38.874880" lon="-0.648910">
        <ele>533.159</ele>
        <time>2026-07-16T11:08:37.701Z</time>
      </trkpt>
      <trkpt lat="38.874860" lon="-0.649050">
        <ele>533.360</ele>
        <time>2026-07-16T11:08:57.701Z</time>
      </trkpt>
      <trkpt lat="38.874770" lon="-0.649360">
        <ele>533.145</ele>
        <time>2026-07-16T11:09:17.701Z</time>
      </trkpt>
      <trkpt lat="38.874740" lon="-0.649600">
        <ele>533.363</ele>
        <time>2026-07-16T11:09:37.701Z</time>
      </trkpt>
      <trkpt lat="38.874730" lon="-0.649890">
        <ele>535.198</ele>
        <time>2026-07-16T11:09:57.701Z</time>
      </trkpt>
      <trkpt lat="38.874760" lon="-0.650280">
        <ele>540.149</ele>
        <time>2026-07-16T11:10:17.701Z</time>
      </trkpt>
      <trkpt lat="38.874760" lon="-0.650400">
        <ele>541.334</ele>
        <time>2026-07-16T11:10:37.701Z</time>
      </trkpt>
      <trkpt lat="38.874720" lon="-0.650490">
        <ele>541.355</ele>
        <time>2026-07-16T11:10:57.701Z</time>
      </trkpt>
      <trkpt lat="38.874670" lon="-0.650530">
        <ele>541.910</ele>
        <time>2026-07-16T11:11:17.701Z</time>
      </trkpt>
      <trkpt lat="38.874620" lon="-0.650550">
        <ele>542.309</ele>
        <time>2026-07-16T11:11:37.701Z</time>
      </trkpt>
      <trkpt lat="38.874530" lon="-0.650510">
        <ele>541.995</ele>
        <time>2026-07-16T11:11:57.701Z</time>
      </trkpt>
      <trkpt lat="38.874490" lon="-0.650460">
        <ele>540.947</ele>
        <time>2026-07-16T11:12:17.701Z</time>
      </trkpt>
      <trkpt lat="38.874180" lon="-0.649890">
        <ele>541.217</ele>
        <time>2026-07-16T11:12:37.701Z</time>
      </trkpt>
      <trkpt lat="38.873750" lon="-0.648880">
        <ele>548.929</ele>
        <time>2026-07-16T11:12:57.701Z</time>
      </trkpt>
      <trkpt lat="38.873300" lon="-0.647990">
        <ele>557.750</ele>
        <time>2026-07-16T11:13:17.701Z</time>
      </trkpt>
      <trkpt lat="38.873240" lon="-0.647840">
        <ele>556.915</ele>
        <time>2026-07-16T11:13:37.701Z</time>
      </trkpt>
      <trkpt lat="38.873020" lon="-0.646910">
        <ele>557.763</ele>
        <time>2026-07-16T11:13:57.701Z</time>
      </trkpt>
      <trkpt lat="38.872970" lon="-0.646860">
        <ele>555.638</ele>
        <time>2026-07-16T11:14:17.701Z</time>
      </trkpt>
      <trkpt lat="38.872870" lon="-0.646860">
        <ele>553.359</ele>
        <time>2026-07-16T11:14:37.701Z</time>
      </trkpt>
      <trkpt lat="38.872830" lon="-0.646920">
        <ele>554.272</ele>
        <time>2026-07-16T11:14:57.701Z</time>
      </trkpt>
      <trkpt lat="38.872820" lon="-0.647070">
        <ele>557.613</ele>
        <time>2026-07-16T11:15:17.701Z</time>
      </trkpt>
      <trkpt lat="38.873020" lon="-0.647430">
        <ele>563.014</ele>
        <time>2026-07-16T11:15:37.701Z</time>
      </trkpt>
      <trkpt lat="38.873050" lon="-0.647550">
        <ele>563.609</ele>
        <time>2026-07-16T11:15:57.701Z</time>
      </trkpt>
      <trkpt lat="38.873080" lon="-0.647940">
        <ele>567.149</ele>
        <time>2026-07-16T11:16:17.701Z</time>
      </trkpt>
      <trkpt lat="38.873140" lon="-0.648130">
        <ele>568.551</ele>
        <time>2026-07-16T11:16:37.701Z</time>
      </trkpt>
      <trkpt lat="38.873370" lon="-0.648860">
        <ele>570.911</ele>
        <time>2026-07-16T11:16:57.701Z</time>
      </trkpt>
      <trkpt lat="38.873490" lon="-0.649300">
        <ele>562.983</ele>
        <time>2026-07-16T11:17:17.701Z</time>
      </trkpt>
      <trkpt lat="38.873660" lon="-0.650410">
        <ele>583.044</ele>
        <time>2026-07-16T11:17:37.701Z</time>
      </trkpt>
      <trkpt lat="38.873740" lon="-0.650740">
        <ele>581.119</ele>
        <time>2026-07-16T11:17:57.701Z</time>
      </trkpt>
      <trkpt lat="38.873930" lon="-0.652110">
        <ele>589.697</ele>
        <time>2026-07-16T11:18:17.701Z</time>
      </trkpt>
      <trkpt lat="38.874060" lon="-0.652570">
        <ele>589.562</ele>
        <time>2026-07-16T11:18:37.701Z</time>
      </trkpt>
      <trkpt lat="38.874190" lon="-0.652940">
        <ele>588.893</ele>
        <time>2026-07-16T11:18:57.701Z</time>
      </trkpt>
      <trkpt lat="38.874430" lon="-0.653460">
        <ele>590.818</ele>
        <time>2026-07-16T11:19:17.701Z</time>
      </trkpt>
      <trkpt lat="38.874510" lon="-0.653560">
        <ele>590.998</ele>
        <time>2026-07-16T11:19:37.701Z</time>
      </trkpt>
      <trkpt lat="38.875030" lon="-0.654030">
        <ele>597.417</ele>
        <time>2026-07-16T11:19:57.701Z</time>
      </trkpt>
      <trkpt lat="38.875090" lon="-0.654140">
        <ele>598.709</ele>
        <time>2026-07-16T11:20:17.701Z</time>
      </trkpt>
      <trkpt lat="38.875100" lon="-0.654290">
        <ele>600.173</ele>
        <time>2026-07-16T11:20:37.701Z</time>
      </trkpt>
      <trkpt lat="38.875150" lon="-0.655160">
        <ele>597.195</ele>
        <time>2026-07-16T11:20:57.701Z</time>
      </trkpt>
      <trkpt lat="38.875130" lon="-0.655570">
        <ele>591.555</ele>
        <time>2026-07-16T11:21:17.701Z</time>
      </trkpt>
      <trkpt lat="38.875090" lon="-0.655910">
        <ele>589.127</ele>
        <time>2026-07-16T11:21:37.701Z</time>
      </trkpt>
      <trkpt lat="38.875000" lon="-0.656450">
        <ele>591.088</ele>
        <time>2026-07-16T11:21:57.701Z</time>
      </trkpt>
      <trkpt lat="38.874960" lon="-0.656790">
        <ele>591.383</ele>
        <time>2026-07-16T11:22:17.701Z</time>
      </trkpt>
      <trkpt lat="38.874920" lon="-0.657390">
        <ele>591.261</ele>
        <time>2026-07-16T11:22:37.701Z</time>
      </trkpt>
      <trkpt lat="38.874930" lon="-0.657620">
        <ele>591.896</ele>
        <time>2026-07-16T11:22:57.701Z</time>
      </trkpt>
      <trkpt lat="38.874980" lon="-0.657820">
        <ele>591.737</ele>
        <time>2026-07-16T11:23:17.701Z</time>
      </trkpt>
      <trkpt lat="38.875290" lon="-0.658460">
        <ele>589.285</ele>
        <time>2026-07-16T11:23:37.701Z</time>
      </trkpt>
      <trkpt lat="38.875480" lon="-0.658960">
        <ele>584.789</ele>
        <time>2026-07-16T11:23:57.701Z</time>
      </trkpt>
      <trkpt lat="38.875520" lon="-0.659140">
        <ele>585.217</ele>
        <time>2026-07-16T11:24:17.701Z</time>
      </trkpt>
      <trkpt lat="38.875600" lon="-0.660410">
        <ele>576.709</ele>
        <time>2026-07-16T11:24:37.701Z</time>
      </trkpt>
      <trkpt lat="38.874830" lon="-0.664800">
        <ele>587.860</ele>
        <time>2026-07-16T11:24:57.701Z</time>
      </trkpt>
      <trkpt lat="38.873210" lon="-0.673480">
        <ele>607.432</ele>
        <time>2026-07-16T11:25:17.701Z</time>
      </trkpt>
      <trkpt lat="38.873200" lon="-0.673620">
        <ele>608.072</ele>
        <time>2026-07-16T11:25:37.701Z</time>
      </trkpt>
      <trkpt lat="38.873230" lon="-0.675240">
        <ele>611.764</ele>
        <time>2026-07-16T11:25:57.701Z</time>
      </trkpt>
      <trkpt lat="38.873240" lon="-0.676230">
        <ele>612.985</ele>
        <time>2026-07-16T11:26:17.701Z</time>
      </trkpt>
      <trkpt lat="38.873230" lon="-0.676520">
        <ele>613.010</ele>
        <time>2026-07-16T11:26:37.701Z</time>
      </trkpt>
      <trkpt lat="38.872700" lon="-0.676350">
        <ele>618.998</ele>
        <time>2026-07-16T11:26:57.701Z</time>
      </trkpt>
      <trkpt lat="38.872570" lon="-0.676330">
        <ele>620.323</ele>
        <time>2026-07-16T11:27:17.701Z</time>
      </trkpt>
      <trkpt lat="38.872450" lon="-0.676340">
        <ele>621.494</ele>
        <time>2026-07-16T11:27:37.701Z</time>
      </trkpt>
      <trkpt lat="38.872270" lon="-0.676410">
        <ele>622.711</ele>
        <time>2026-07-16T11:27:57.701Z</time>
      </trkpt>
      <trkpt lat="38.871090" lon="-0.677680">
        <ele>632.321</ele>
        <time>2026-07-16T11:28:17.701Z</time>
      </trkpt>
      <trkpt lat="38.871030" lon="-0.677730">
        <ele>633.103</ele>
        <time>2026-07-16T11:28:37.701Z</time>
      </trkpt>
      <trkpt lat="38.870860" lon="-0.677780">
        <ele>635.609</ele>
        <time>2026-07-16T11:28:57.701Z</time>
      </trkpt>
      <trkpt lat="38.870770" lon="-0.677760">
        <ele>636.473</ele>
        <time>2026-07-16T11:29:17.701Z</time>
      </trkpt>
      <trkpt lat="38.870690" lon="-0.677730">
        <ele>636.925</ele>
        <time>2026-07-16T11:29:37.701Z</time>
      </trkpt>
      <trkpt lat="38.870620" lon="-0.677670">
        <ele>637.165</ele>
        <time>2026-07-16T11:29:57.701Z</time>
      </trkpt>
      <trkpt lat="38.870540" lon="-0.677580">
        <ele>637.637</ele>
        <time>2026-07-16T11:30:17.701Z</time>
      </trkpt>
      <trkpt lat="38.870440" lon="-0.677270">
        <ele>639.488</ele>
        <time>2026-07-16T11:30:37.701Z</time>
      </trkpt>
      <trkpt lat="38.870250" lon="-0.676400">
        <ele>647.743</ele>
        <time>2026-07-16T11:30:57.701Z</time>
      </trkpt>
      <trkpt lat="38.870200" lon="-0.676270">
        <ele>649.661</ele>
        <time>2026-07-16T11:31:17.701Z</time>
      </trkpt>
      <trkpt lat="38.870130" lon="-0.676170">
        <ele>651.096</ele>
        <time>2026-07-16T11:31:37.701Z</time>
      </trkpt>
      <trkpt lat="38.869970" lon="-0.676040">
        <ele>653.497</ele>
        <time>2026-07-16T11:31:57.701Z</time>
      </trkpt>
      <trkpt lat="38.869540" lon="-0.675860">
        <ele>656.339</ele>
        <time>2026-07-16T11:32:17.701Z</time>
      </trkpt>
      <trkpt lat="38.869340" lon="-0.675820">
        <ele>657.501</ele>
        <time>2026-07-16T11:32:37.701Z</time>
      </trkpt>
      <trkpt lat="38.869160" lon="-0.675840">
        <ele>658.021</ele>
        <time>2026-07-16T11:32:57.701Z</time>
      </trkpt>
      <trkpt lat="38.869000" lon="-0.675920">
        <ele>659.209</ele>
        <time>2026-07-16T11:33:17.701Z</time>
      </trkpt>
      <trkpt lat="38.868800" lon="-0.676140">
        <ele>661.715</ele>
        <time>2026-07-16T11:33:37.701Z</time>
      </trkpt>
      <trkpt lat="38.868570" lon="-0.676520">
        <ele>661.797</ele>
        <time>2026-07-16T11:33:57.701Z</time>
      </trkpt>
      <trkpt lat="38.868150" lon="-0.677100">
        <ele>666.647</ele>
        <time>2026-07-16T11:34:17.701Z</time>
      </trkpt>
      <trkpt lat="38.867870" lon="-0.677460">
        <ele>669.589</ele>
        <time>2026-07-16T11:34:37.701Z</time>
      </trkpt>
      <trkpt lat="38.867640" lon="-0.677700">
        <ele>670.640</ele>
        <time>2026-07-16T11:34:57.701Z</time>
      </trkpt>
      <trkpt lat="38.867270" lon="-0.678060">
        <ele>676.365</ele>
        <time>2026-07-16T11:35:17.701Z</time>
      </trkpt>
      <trkpt lat="38.866880" lon="-0.678580">
        <ele>682.223</ele>
        <time>2026-07-16T11:35:37.701Z</time>
      </trkpt>
      <trkpt lat="38.866730" lon="-0.678650">
        <ele>685.438</ele>
        <time>2026-07-16T11:35:57.701Z</time>
      </trkpt>
      <trkpt lat="38.866640" lon="-0.678660">
        <ele>686.749</ele>
        <time>2026-07-16T11:36:17.701Z</time>
      </trkpt>
      <trkpt lat="38.866360" lon="-0.678600">
        <ele>688.467</ele>
        <time>2026-07-16T11:36:37.701Z</time>
      </trkpt>
      <trkpt lat="38.866270" lon="-0.678540">
        <ele>688.981</ele>
        <time>2026-07-16T11:36:57.701Z</time>
      </trkpt>
      <trkpt lat="38.866210" lon="-0.678450">
        <ele>688.219</ele>
        <time>2026-07-16T11:37:17.701Z</time>
      </trkpt>
      <trkpt lat="38.866180" lon="-0.678320">
        <ele>686.209</ele>
        <time>2026-07-16T11:37:37.701Z</time>
      </trkpt>
      <trkpt lat="38.866180" lon="-0.678210">
        <ele>685.898</ele>
        <time>2026-07-16T11:37:57.701Z</time>
      </trkpt>
      <trkpt lat="38.866220" lon="-0.678090">
        <ele>684.970</ele>
        <time>2026-07-16T11:38:17.701Z</time>
      </trkpt>
      <trkpt lat="38.866270" lon="-0.678010">
        <ele>684.640</ele>
        <time>2026-07-16T11:38:37.701Z</time>
      </trkpt>
      <trkpt lat="38.866410" lon="-0.677930">
        <ele>684.872</ele>
        <time>2026-07-16T11:38:57.701Z</time>
      </trkpt>
      <trkpt lat="38.866770" lon="-0.677960">
        <ele>682.533</ele>
        <time>2026-07-16T11:39:17.701Z</time>
      </trkpt>
      <trkpt lat="38.866880" lon="-0.677950">
        <ele>682.168</ele>
        <time>2026-07-16T11:39:37.701Z</time>
      </trkpt>
      <trkpt lat="38.866990" lon="-0.677900">
        <ele>682.116</ele>
        <time>2026-07-16T11:39:57.701Z</time>
      </trkpt>
      <trkpt lat="38.867080" lon="-0.677820">
        <ele>681.941</ele>
        <time>2026-07-16T11:40:17.701Z</time>
      </trkpt>
      <trkpt lat="38.867180" lon="-0.677720">
        <ele>681.642</ele>
        <time>2026-07-16T11:40:37.701Z</time>
      </trkpt>
      <trkpt lat="38.867270" lon="-0.677560">
        <ele>682.974</ele>
        <time>2026-07-16T11:40:57.701Z</time>
      </trkpt>
      <trkpt lat="38.867630" lon="-0.676630">
        <ele>694.456</ele>
        <time>2026-07-16T11:41:17.701Z</time>
      </trkpt>
      <trkpt lat="38.867770" lon="-0.676110">
        <ele>692.421</ele>
        <time>2026-07-16T11:41:37.701Z</time>
      </trkpt>
      <trkpt lat="38.867800" lon="-0.675940">
        <ele>692.509</ele>
        <time>2026-07-16T11:41:57.701Z</time>
      </trkpt>
      <trkpt lat="38.867790" lon="-0.675750">
        <ele>693.989</ele>
        <time>2026-07-16T11:42:17.701Z</time>
      </trkpt>
      <trkpt lat="38.867760" lon="-0.675490">
        <ele>696.371</ele>
        <time>2026-07-16T11:42:37.701Z</time>
      </trkpt>
      <trkpt lat="38.867710" lon="-0.675260">
        <ele>699.731</ele>
        <time>2026-07-16T11:42:57.701Z</time>
      </trkpt>
      <trkpt lat="38.867620" lon="-0.675100">
        <ele>702.333</ele>
        <time>2026-07-16T11:43:17.701Z</time>
      </trkpt>
      <trkpt lat="38.867520" lon="-0.674980">
        <ele>703.374</ele>
        <time>2026-07-16T11:43:37.701Z</time>
      </trkpt>
      <trkpt lat="38.867390" lon="-0.674900">
        <ele>704.339</ele>
        <time>2026-07-16T11:43:57.701Z</time>
      </trkpt>
      <trkpt lat="38.867160" lon="-0.674840">
        <ele>708.017</ele>
        <time>2026-07-16T11:44:17.701Z</time>
      </trkpt>
      <trkpt lat="38.867090" lon="-0.674800">
        <ele>709.262</ele>
        <time>2026-07-16T11:44:37.701Z</time>
      </trkpt>
      <trkpt lat="38.866990" lon="-0.674690">
        <ele>709.823</ele>
        <time>2026-07-16T11:44:57.701Z</time>
      </trkpt>
      <trkpt lat="38.866670" lon="-0.674190">
        <ele>711.582</ele>
        <time>2026-07-16T11:45:17.701Z</time>
      </trkpt>
      <trkpt lat="38.866570" lon="-0.674100">
        <ele>712.343</ele>
        <time>2026-07-16T11:45:37.701Z</time>
      </trkpt>
      <trkpt lat="38.866480" lon="-0.674030">
        <ele>713.317</ele>
        <time>2026-07-16T11:45:57.701Z</time>
      </trkpt>
      <trkpt lat="38.866070" lon="-0.673840">
        <ele>721.209</ele>
        <time>2026-07-16T11:46:17.701Z</time>
      </trkpt>
      <trkpt lat="38.865680" lon="-0.673510">
        <ele>722.750</ele>
        <time>2026-07-16T11:46:37.701Z</time>
      </trkpt>
      <trkpt lat="38.865540" lon="-0.673430">
        <ele>724.792</ele>
        <time>2026-07-16T11:46:57.701Z</time>
      </trkpt>
      <trkpt lat="38.865120" lon="-0.673180">
        <ele>724.972</ele>
        <time>2026-07-16T11:47:17.701Z</time>
      </trkpt>
      <trkpt lat="38.864980" lon="-0.673140">
        <ele>725.894</ele>
        <time>2026-07-16T11:47:37.701Z</time>
      </trkpt>
      <trkpt lat="38.864510" lon="-0.673200">
        <ele>734.395</ele>
        <time>2026-07-16T11:47:57.701Z</time>
      </trkpt>
      <trkpt lat="38.864030" lon="-0.673070">
        <ele>736.330</ele>
        <time>2026-07-16T11:48:17.701Z</time>
      </trkpt>
      <trkpt lat="38.863830" lon="-0.672950">
        <ele>738.578</ele>
        <time>2026-07-16T11:48:37.701Z</time>
      </trkpt>
      <trkpt lat="38.863330" lon="-0.672420">
        <ele>748.643</ele>
        <time>2026-07-16T11:48:57.701Z</time>
      </trkpt>
      <trkpt lat="38.863250" lon="-0.672280">
        <ele>750.854</ele>
        <time>2026-07-16T11:49:17.701Z</time>
      </trkpt>
      <trkpt lat="38.863230" lon="-0.672150">
        <ele>751.142</ele>
        <time>2026-07-16T11:49:37.701Z</time>
      </trkpt>
      <trkpt lat="38.863300" lon="-0.671620">
        <ele>747.522</ele>
        <time>2026-07-16T11:49:57.701Z</time>
      </trkpt>
      <trkpt lat="38.863260" lon="-0.671320">
        <ele>747.914</ele>
        <time>2026-07-16T11:50:17.701Z</time>
      </trkpt>
      <trkpt lat="38.863200" lon="-0.671080">
        <ele>748.509</ele>
        <time>2026-07-16T11:50:37.701Z</time>
      </trkpt>
      <trkpt lat="38.863140" lon="-0.670910">
        <ele>747.866</ele>
        <time>2026-07-16T11:50:57.701Z</time>
      </trkpt>
      <trkpt lat="38.863070" lon="-0.670760">
        <ele>747.538</ele>
        <time>2026-07-16T11:51:17.701Z</time>
      </trkpt>
      <trkpt lat="38.862550" lon="-0.670200">
        <ele>756.258</ele>
        <time>2026-07-16T11:51:37.701Z</time>
      </trkpt>
      <trkpt lat="38.862310" lon="-0.669880">
        <ele>755.010</ele>
        <time>2026-07-16T11:51:57.701Z</time>
      </trkpt>
      <trkpt lat="38.862200" lon="-0.669780">
        <ele>755.281</ele>
        <time>2026-07-16T11:52:17.701Z</time>
      </trkpt>
      <trkpt lat="38.862040" lon="-0.669700">
        <ele>759.516</ele>
        <time>2026-07-16T11:52:37.701Z</time>
      </trkpt>
      <trkpt lat="38.861640" lon="-0.669570">
        <ele>768.414</ele>
        <time>2026-07-16T11:52:57.701Z</time>
      </trkpt>
      <trkpt lat="38.861500" lon="-0.669490">
        <ele>767.649</ele>
        <time>2026-07-16T11:53:17.701Z</time>
      </trkpt>
      <trkpt lat="38.861000" lon="-0.669090">
        <ele>773.560</ele>
        <time>2026-07-16T11:53:37.701Z</time>
      </trkpt>
      <trkpt lat="38.860730" lon="-0.668840">
        <ele>775.738</ele>
        <time>2026-07-16T11:53:57.701Z</time>
      </trkpt>
      <trkpt lat="38.860660" lon="-0.668730">
        <ele>774.870</ele>
        <time>2026-07-16T11:54:17.701Z</time>
      </trkpt>
      <trkpt lat="38.860590" lon="-0.668530">
        <ele>772.017</ele>
        <time>2026-07-16T11:54:37.701Z</time>
      </trkpt>
      <trkpt lat="38.860590" lon="-0.668190">
        <ele>767.709</ele>
        <time>2026-07-16T11:54:57.701Z</time>
      </trkpt>
      <trkpt lat="38.860560" lon="-0.668030">
        <ele>769.045</ele>
        <time>2026-07-16T11:55:17.701Z</time>
      </trkpt>
      <trkpt lat="38.860510" lon="-0.667890">
        <ele>772.587</ele>
        <time>2026-07-16T11:55:37.701Z</time>
      </trkpt>
      <trkpt lat="38.860270" lon="-0.667540">
        <ele>777.737</ele>
        <time>2026-07-16T11:55:57.701Z</time>
      </trkpt>
      <trkpt lat="38.860030" lon="-0.667240">
        <ele>785.169</ele>
        <time>2026-07-16T11:56:17.701Z</time>
      </trkpt>
    </trkseg>
  </trk></gpx>