<?xml version="1.0" encoding="UTF-8"?>
<gpx creator="Wikiloc - https://www.wikiloc.com" version="1.1" xmlns="http://www.topografix.com/GPX/1/1" xmlns:xsi="http://www.w3.org/2001/XMLSchema-instance" xsi:schemaLocation="http://www.topografix.com/GPX/1/1 http://www.topografix.com/GPX/1/1/gpx.xsd">
  <metadata>
    <name>Wikiloc - PUERTO DEL CONNIO (por Ventanueva)</name>
    <link href="https://www.wikiloc.com/cycling-trails/puerto-del-connio-por-ventanueva-272090429">
      <text>PUERTO DEL CONNIO (por Ventanueva) - Wikiloc on Wikiloc</text>
    </link>
    <time>2026-07-16T11:00:59.200Z</time>
  </metadata>
  <trk>
    <name>PUERTO DEL CONNIO (por Ventanueva) - Wikiloc</name>
    <cmt></cmt>
    <desc></desc>
    <trkseg>
      <trkpt lat="43.052540" lon="-6.624990">
        <ele>564.627</ele>
        <time>2026-07-16T11:00:59.198Z</time>
      </trkpt>
      <trkpt lat="43.052450" lon="-6.625180">
        <ele>565.668</ele>
        <time>2026-07-16T11:01:19.198Z</time>
      </trkpt>
      <trkpt lat="43.052390" lon="-6.625430">
        <ele>567.514</ele>
        <time>2026-07-16T11:01:39.198Z</time>
      </trkpt>
      <trkpt lat="43.052370" lon="-6.625650">
        <ele>568.109</ele>
        <time>2026-07-16T11:01:59.198Z</time>
      </trkpt>
      <trkpt lat="43.052370" lon="-6.625920">
        <ele>568.814</ele>
        <time>2026-07-16T11:02:19.198Z</time>
      </trkpt>
      <trkpt lat="43.052380" lon="-6.626190">
        <ele>570.529</ele>
        <time>2026-07-16T11:02:39.198Z</time>
      </trkpt>
      <trkpt lat="43.052410" lon="-6.626560">
        <ele>572.734</ele>
        <time>2026-07-16T11:02:59.198Z</time>
      </trkpt>
      <trkpt lat="43.052430" lon="-6.626720">
        <ele>573.932</ele>
        <time>2026-07-16T11:03:19.198Z</time>
      </trkpt>
      <trkpt lat="43.052420" lon="-6.626910">
        <ele>573.241</ele>
        <time>2026-07-16T11:03:39.198Z</time>
      </trkpt>
      <trkpt lat="43.052380" lon="-6.627400">
        <ele>575.692</ele>
        <time>2026-07-16T11:03:59.198Z</time>
      </trkpt>
      <trkpt lat="43.052380" lon="-6.627850">
        <ele>583.366</ele>
        <time>2026-07-16T11:04:19.198Z</time>
      </trkpt>
      <trkpt lat="43.052450" lon="-6.628880">
        <ele>577.254</ele>
        <time>2026-07-16T11:04:39.198Z</time>
      </trkpt>
      <trkpt lat="43.052500" lon="-6.629120">
        <ele>578.711</ele>
        <time>2026-07-16T11:04:59.198Z</time>
      </trkpt>
      <trkpt lat="43.052560" lon="-6.629340">
        <ele>581.291</ele>
        <time>2026-07-16T11:05:19.198Z</time>
      </trkpt>
      <trkpt lat="43.052590" lon="-6.629540">
        <ele>582.381</ele>
        <time>2026-07-16T11:05:39.198Z</time>
      </trkpt>
      <trkpt lat="43.052600" lon="-6.629780">
        <ele>582.119</ele>
        <time>2026-07-16T11:05:59.198Z</time>
      </trkpt>
      <trkpt lat="43.052620" lon="-6.630160">
        <ele>580.109</ele>
        <time>2026-07-16T11:06:19.198Z</time>
      </trkpt>
      <trkpt lat="43.052660" lon="-6.630360">
        <ele>579.631</ele>
        <time>2026-07-16T11:06:39.198Z</time>
      </trkpt>
      <trkpt lat="43.052700" lon="-6.630570">
        <ele>580.146</ele>
        <time>2026-07-16T11:06:59.198Z</time>
      </trkpt>
      <trkpt lat="43.052710" lon="-6.630710">
        <ele>581.171</ele>
        <time>2026-07-16T11:07:19.198Z</time>
      </trkpt>
      <trkpt lat="43.052710" lon="-6.630830">
        <ele>582.059</ele>
        <time>2026-07-16T11:07:39.198Z</time>
      </trkpt>
      <trkpt lat="43.052670" lon="-6.631040">
        <ele>583.518</ele>
        <time>2026-07-16T11:07:59.198Z</time>
      </trkpt>
      <trkpt lat="43.052610" lon="-6.631330">
        <ele>585.559</ele>
        <time>2026-07-16T11:08:19.198Z</time>
      </trkpt>
      <trkpt lat="43.052550" lon="-6.631560">
        <ele>586.653</ele>
        <time>2026-07-16T11:08:39.198Z</time>
      </trkpt>
      <trkpt lat="43.052290" lon="-6.632250">
        <ele>582.811</ele>
        <time>2026-07-16T11:08:59.198Z</time>
      </trkpt>
      <trkpt lat="43.052160" lon="-6.632620">
        <ele>582.668</ele>
        <time>2026-07-16T11:09:19.198Z</time>
      </trkpt>
      <trkpt lat="43.052070" lon="-6.632840">
        <ele>580.964</ele>
        <time>2026-07-16T11:09:39.198Z</time>
      </trkpt>
      <trkpt lat="43.052040" lon="-6.633010">
        <ele>578.906</ele>
        <time>2026-07-16T11:09:59.198Z</time>
      </trkpt>
      <trkpt lat="43.052040" lon="-6.633130">
        <ele>578.516</ele>
        <time>2026-07-16T11:10:19.198Z</time>
      </trkpt>
      <trkpt lat="43.052050" lon="-6.633240">
        <ele>578.809</ele>
        <time>2026-07-16T11:10:39.198Z</time>
      </trkpt>
      <trkpt lat="43.052080" lon="-6.633350">
        <ele>579.368</ele>
        <time>2026-07-16T11:10:59.198Z</time>
      </trkpt>
      <trkpt lat="43.052120" lon="-6.633430">
        <ele>579.873</ele>
        <time>2026-07-16T11:11:19.198Z</time>
      </trkpt>
      <trkpt lat="43.052160" lon="-6.633500">
        <ele>580.538</ele>
        <time>2026-07-16T11:11:39.198Z</time>
      </trkpt>
      <trkpt lat="43.052160" lon="-6.633590">
        <ele>580.316</ele>
        <time>2026-07-16T11:11:59.198Z</time>
      </trkpt>
      <trkpt lat="43.052140" lon="-6.633980">
        <ele>581.215</ele>
        <time>2026-07-16T11:12:19.198Z</time>
      </trkpt>
      <trkpt lat="43.052120" lon="-6.634310">
        <ele>584.666</ele>
        <time>2026-07-16T11:12:39.198Z</time>
      </trkpt>
      <trkpt lat="43.052090" lon="-6.634500">
        <ele>585.410</ele>
        <time>2026-07-16T11:12:59.198Z</time>
      </trkpt>
      <trkpt lat="43.052050" lon="-6.634600">
        <ele>584.738</ele>
        <time>2026-07-16T11:13:19.198Z</time>
      </trkpt>
      <trkpt lat="43.052000" lon="-6.634700">
        <ele>583.635</ele>
        <time>2026-07-16T11:13:39.198Z</time>
      </trkpt>
      <trkpt lat="43.051910" lon="-6.634840">
        <ele>583.578</ele>
        <time>2026-07-16T11:13:59.198Z</time>
      </trkpt>
      <trkpt lat="43.051350" lon="-6.635620">
        <ele>584.833</ele>
        <time>2026-07-16T11:14:19.198Z</time>
      </trkpt>
      <trkpt lat="43.050860" lon="-6.636400">
        <ele>584.126</ele>
        <time>2026-07-16T11:14:39.198Z</time>
      </trkpt>
      <trkpt lat="43.050590" lon="-6.636840">
        <ele>581.509</ele>
        <time>2026-07-16T11:14:59.198Z</time>
      </trkpt>
      <trkpt lat="43.050500" lon="-6.636980">
        <ele>580.999</ele>
        <time>2026-07-16T11:15:19.198Z</time>
      </trkpt>
      <trkpt lat="43.050250" lon="-6.637230">
        <ele>579.894</ele>
        <time>2026-07-16T11:15:39.198Z</time>
      </trkpt>
      <trkpt lat="43.050190" lon="-6.637310">
        <ele>579.649</ele>
        <time>2026-07-16T11:15:59.198Z</time>
      </trkpt>
      <trkpt lat="43.050170" lon="-6.637380">
        <ele>579.667</ele>
        <time>2026-07-16T11:16:19.198Z</time>
      </trkpt>
      <trkpt lat="43.050150" lon="-6.637600">
        <ele>579.646</ele>
        <time>2026-07-16T11:16:39.198Z</time>
      </trkpt>
      <trkpt lat="43.050130" lon="-6.637780">
        <ele>579.467</ele>
        <time>2026-07-16T11:16:59.198Z</time>
      </trkpt>
      <trkpt lat="43.050100" lon="-6.637880">
        <ele>579.491</ele>
        <time>2026-07-16T11:17:19.198Z</time>
      </trkpt>
      <trkpt lat="43.050060" lon="-6.637990">
        <ele>579.449</ele>
        <time>2026-07-16T11:17:39.198Z</time>
      </trkpt>
      <trkpt lat="43.050050" lon="-6.638300">
        <ele>580.396</ele>
        <time>2026-07-16T11:17:59.198Z</time>
      </trkpt>
      <trkpt lat="43.050090" lon="-6.638510">
        <ele>581.365</ele>
        <time>2026-07-16T11:18:19.198Z</time>
      </trkpt>
      <trkpt lat="43.050140" lon="-6.638730">
        <ele>583.368</ele>
        <time>2026-07-16T11:18:39.198Z</time>
      </trkpt>
      <trkpt lat="43.050190" lon="-6.638900">
        <ele>585.414</ele>
        <time>2026-07-16T11:18:59.198Z</time>
      </trkpt>
      <trkpt lat="43.050370" lon="-6.639460">
        <ele>588.809</ele>
        <time>2026-07-16T11:19:19.198Z</time>
      </trkpt>
      <trkpt lat="43.050470" lon="-6.639810">
        <ele>593.698</ele>
        <time>2026-07-16T11:19:39.198Z</time>
      </trkpt>
      <trkpt lat="43.050490" lon="-6.639990">
        <ele>596.223</ele>
        <time>2026-07-16T11:19:59.198Z</time>
      </trkpt>
      <trkpt lat="43.050490" lon="-6.640160">
        <ele>598.348</ele>
        <time>2026-07-16T11:20:19.198Z</time>
      </trkpt>
      <trkpt lat="43.050460" lon="-6.640270">
        <ele>599.626</ele>
        <time>2026-07-16T11:20:39.198Z</time>
      </trkpt>
      <trkpt lat="43.050370" lon="-6.640430">
        <ele>602.315</ele>
        <time>2026-07-16T11:20:59.198Z</time>
      </trkpt>
      <trkpt lat="43.050310" lon="-6.640510">
        <ele>604.566</ele>
        <time>2026-07-16T11:21:19.198Z</time>
      </trkpt>
      <trkpt lat="43.050240" lon="-6.640520">
        <ele>605.960</ele>
        <time>2026-07-16T11:21:39.198Z</time>
      </trkpt>
      <trkpt lat="43.050190" lon="-6.640480">
        <ele>605.948</ele>
        <time>2026-07-16T11:21:59.198Z</time>
      </trkpt>
      <trkpt lat="43.050040" lon="-6.640280">
        <ele>603.315</ele>
        <time>2026-07-16T11:22:19.198Z</time>
      </trkpt>
      <trkpt lat="43.049880" lon="-6.639970">
        <ele>602.046</ele>
        <time>2026-07-16T11:22:39.198Z</time>
      </trkpt>
      <trkpt lat="43.049700" lon="-6.639740">
        <ele>599.488</ele>
        <time>2026-07-16T11:22:59.198Z</time>
      </trkpt>
      <trkpt lat="43.049610" lon="-6.639690">
        <ele>597.316</ele>
        <time>2026-07-16T11:23:19.198Z</time>
      </trkpt>
      <trkpt lat="43.049530" lon="-6.639690">
        <ele>597.109</ele>
        <time>2026-07-16T11:23:39.198Z</time>
      </trkpt>
      <trkpt lat="43.049410" lon="-6.639760">
        <ele>599.046</ele>
        <time>2026-07-16T11:23:59.198Z</time>
      </trkpt>
      <trkpt lat="43.048780" lon="-6.640290">
        <ele>600.681</ele>
        <time>2026-07-16T11:24:19.198Z</time>
      </trkpt>
      <trkpt lat="43.048720" lon="-6.640370">
        <ele>602.016</ele>
        <time>2026-07-16T11:24:39.198Z</time>
      </trkpt>
      <trkpt lat="43.048680" lon="-6.640440">
        <ele>603.634</ele>
        <time>2026-07-16T11:24:59.198Z</time>
      </trkpt>
      <trkpt lat="43.048610" lon="-6.640550">
        <ele>605.763</ele>
        <time>2026-07-16T11:25:19.198Z</time>
      </trkpt>
      <trkpt lat="43.048560" lon="-6.640640">
        <ele>613.374</ele>
        <time>2026-07-16T11:25:39.198Z</time>
      </trkpt>
      <trkpt lat="43.048490" lon="-6.640710">
        <ele>618.018</ele>
        <time>2026-07-16T11:25:59.198Z</time>
      </trkpt>
      <trkpt lat="43.048410" lon="-6.640780">
        <ele>621.586</ele>
        <time>2026-07-16T11:26:19.198Z</time>
      </trkpt>
      <trkpt lat="43.048320" lon="-6.640850">
        <ele>623.963</ele>
        <time>2026-07-16T11:26:39.198Z</time>
      </trkpt>
      <trkpt lat="43.048130" lon="-6.640950">
        <ele>625.663</ele>
        <time>2026-07-16T11:26:59.198Z</time>
      </trkpt>
      <trkpt lat="43.047880" lon="-6.641110">
        <ele>626.844</ele>
        <time>2026-07-16T11:27:19.198Z</time>
      </trkpt>
      <trkpt lat="43.047690" lon="-6.641200">
        <ele>622.118</ele>
        <time>2026-07-16T11:27:39.198Z</time>
      </trkpt>
      <trkpt lat="43.047400" lon="-6.641340">
        <ele>619.509</ele>
        <time>2026-07-16T11:27:59.198Z</time>
      </trkpt>
      <trkpt lat="43.047110" lon="-6.641450">
        <ele>620.298</ele>
        <time>2026-07-16T11:28:19.198Z</time>
      </trkpt>
      <trkpt lat="43.047050" lon="-6.641500">
        <ele>620.663</ele>
        <time>2026-07-16T11:28:39.198Z</time>
      </trkpt>
      <trkpt lat="43.047000" lon="-6.641570">
        <ele>622.228</ele>
        <time>2026-07-16T11:28:59.198Z</time>
      </trkpt>
      <trkpt lat="43.046960" lon="-6.641660">
        <ele>625.046</ele>
        <time>2026-07-16T11:29:19.198Z</time>
      </trkpt>
      <trkpt lat="43.046750" lon="-6.642140">
        <ele>615.645</ele>
        <time>2026-07-16T11:29:39.198Z</time>
      </trkpt>
      <trkpt lat="43.046610" lon="-6.642560">
        <ele>616.656</ele>
        <time>2026-07-16T11:29:59.198Z</time>
      </trkpt>
      <trkpt lat="43.046570" lon="-6.642720">
        <ele>617.760</ele>
        <time>2026-07-16T11:30:19.198Z</time>
      </trkpt>
      <trkpt lat="43.046550" lon="-6.642870">
        <ele>619.558</ele>
        <time>2026-07-16T11:30:39.198Z</time>
      </trkpt>
      <trkpt lat="43.046550" lon="-6.643300">
        <ele>624.335</ele>
        <time>2026-07-16T11:30:59.198Z</time>
      </trkpt>
      <trkpt lat="43.046550" lon="-6.643510">
        <ele>624.799</ele>
        <time>2026-07-16T11:31:19.198Z</time>
      </trkpt>
      <trkpt lat="43.046540" lon="-6.643660">
        <ele>624.107</ele>
        <time>2026-07-16T11:31:39.198Z</time>
      </trkpt>
      <trkpt lat="43.046530" lon="-6.643800">
        <ele>623.027</ele>
        <time>2026-07-16T11:31:59.198Z</time>
      </trkpt>
      <trkpt lat="43.046500" lon="-6.643970">
        <ele>621.809</ele>
        <time>2026-07-16T11:32:19.198Z</time>
      </trkpt>
      <trkpt lat="43.046480" lon="-6.644110">
        <ele>622.281</ele>
        <time>2026-07-16T11:32:39.198Z</time>
      </trkpt>
      <trkpt lat="43.046460" lon="-6.644270">
        <ele>623.856</ele>
        <time>2026-07-16T11:32:59.198Z</time>
      </trkpt>
      <trkpt lat="43.046430" lon="-6.644400">
        <ele>624.781</ele>
        <time>2026-07-16T11:33:19.198Z</time>
      </trkpt>
      <trkpt lat="43.046370" lon="-6.644600">
        <ele>625.929</ele>
        <time>2026-07-16T11:33:39.198Z</time>
      </trkpt>
      <trkpt lat="43.046340" lon="-6.644730">
        <ele>627.478</ele>
        <time>2026-07-16T11:33:59.198Z</time>
      </trkpt>
      <trkpt lat="43.046330" lon="-6.644850">
        <ele>629.529</ele>
        <time>2026-07-16T11:34:19.198Z</time>
      </trkpt>
      <trkpt lat="43.046350" lon="-6.645010">
        <ele>634.513</ele>
        <time>2026-07-16T11:34:39.198Z</time>
      </trkpt>
      <trkpt lat="43.046400" lon="-6.645340">
        <ele>640.491</ele>
        <time>2026-07-16T11:34:59.198Z</time>
      </trkpt>
      <trkpt lat="43.046420" lon="-6.645600">
        <ele>641.398</ele>
        <time>2026-07-16T11:35:19.198Z</time>
      </trkpt>
      <trkpt lat="43.046420" lon="-6.645910">
        <ele>645.064</ele>
        <time>2026-07-16T11:35:39.198Z</time>
      </trkpt>
      <trkpt lat="43.046440" lon="-6.646300">
        <ele>653.006</ele>
        <time>2026-07-16T11:35:59.198Z</time>
      </trkpt>
      <trkpt lat="43.046450" lon="-6.646570">
        <ele>650.916</ele>
        <time>2026-07-16T11:36:19.198Z</time>
      </trkpt>
      <trkpt lat="43.046420" lon="-6.646730">
        <ele>647.109</ele>
        <time>2026-07-16T11:36:39.198Z</time>
      </trkpt>
      <trkpt lat="43.046350" lon="-6.646920">
        <ele>648.848</ele>
        <time>2026-07-16T11:36:59.198Z</time>
      </trkpt>
      <trkpt lat="43.046240" lon="-6.647150">
        <ele>657.683</ele>
        <time>2026-07-16T11:37:19.198Z</time>
      </trkpt>
      <trkpt lat="43.045960" lon="-6.647590">
        <ele>661.968</ele>
        <time>2026-07-16T11:37:39.198Z</time>
      </trkpt>
      <trkpt lat="43.045760" lon="-6.647820">
        <ele>655.386</ele>
        <time>2026-07-16T11:37:59.198Z</time>
      </trkpt>
      <trkpt lat="43.045680" lon="-6.648010">
        <ele>652.225</ele>
        <time>2026-07-16T11:38:19.198Z</time>
      </trkpt>
      <trkpt lat="43.045560" lon="-6.648560">
        <ele>654.736</ele>
        <time>2026-07-16T11:38:39.198Z</time>
      </trkpt>
      <trkpt lat="43.045490" lon="-6.649070">
        <ele>654.190</ele>
        <time>2026-07-16T11:38:59.198Z</time>
      </trkpt>
      <trkpt lat="43.045390" lon="-6.649530">
        <ele>651.218</ele>
        <time>2026-07-16T11:39:19.198Z</time>
      </trkpt>
      <trkpt lat="43.045370" lon="-6.649910">
        <ele>661.785</ele>
        <time>2026-07-16T11:39:39.198Z</time>
      </trkpt>
      <trkpt lat="43.045370" lon="-6.650480">
        <ele>675.431</ele>
        <time>2026-07-16T11:39:59.198Z</time>
      </trkpt>
      <trkpt lat="43.045350" lon="-6.650600">
        <ele>677.461</ele>
        <time>2026-07-16T11:40:19.198Z</time>
      </trkpt>
      <trkpt lat="43.045310" lon="-6.650750">
        <ele>679.107</ele>
        <time>2026-07-16T11:40:39.198Z</time>
      </trkpt>
      <trkpt lat="43.045230" lon="-6.650930">
        <ele>676.609</ele>
        <time>2026-07-16T11:40:59.198Z</time>
      </trkpt>
      <trkpt lat="43.045100" lon="-6.651160">
        <ele>670.635</ele>
        <time>2026-07-16T11:41:19.198Z</time>
      </trkpt>
      <trkpt lat="43.044950" lon="-6.651390">
        <ele>665.820</ele>
        <time>2026-07-16T11:41:39.198Z</time>
      </trkpt>
      <trkpt lat="43.044880" lon="-6.651640">
        <ele>668.315</ele>
        <time>2026-07-16T11:41:59.198Z</time>
      </trkpt>
      <trkpt lat="43.044870" lon="-6.651740">
        <ele>669.653</ele>
        <time>2026-07-16T11:42:19.198Z</time>
      </trkpt>
      <trkpt lat="43.044890" lon="-6.651880">
        <ele>672.672</ele>
        <time>2026-07-16T11:42:39.198Z</time>
      </trkpt>
      <trkpt lat="43.044920" lon="-6.651990">
        <ele>674.433</ele>
        <time>2026-07-16T11:42:59.198Z</time>
      </trkpt>
      <trkpt lat="43.044940" lon="-6.652090">
        <ele>674.957</ele>
        <time>2026-07-16T11:43:19.198Z</time>
      </trkpt>
      <trkpt lat="43.044970" lon="-6.652200">
        <ele>675.425</ele>
        <time>2026-07-16T11:43:39.198Z</time>
      </trkpt>
      <trkpt lat="43.045000" lon="-6.652290">
        <ele>675.042</ele>
        <time>2026-07-16T11:43:59.198Z</time>
      </trkpt>
      <trkpt lat="43.045060" lon="-6.652390">
        <ele>674.551</ele>
        <time>2026-07-16T11:44:19.198Z</time>
      </trkpt>
      <trkpt lat="43.045140" lon="-6.652490">
        <ele>674.201</ele>
        <time>2026-07-16T11:44:39.198Z</time>
      </trkpt>
      <trkpt lat="43.045210" lon="-6.652550">
        <ele>674.311</ele>
        <time>2026-07-16T11:44:59.198Z</time>
      </trkpt>
      <trkpt lat="43.045300" lon="-6.652600">
        <ele>674.809</ele>
        <time>2026-07-16T11:45:19.198Z</time>
      </trkpt>
      <trkpt lat="43.045390" lon="-6.652650">
        <ele>676.197</ele>
        <time>2026-07-16T11:45:39.198Z</time>
      </trkpt>
      <trkpt lat="43.045520" lon="-6.652660">
        <ele>679.212</ele>
        <time>2026-07-16T11:45:59.198Z</time>
      </trkpt>
      <trkpt lat="43.045730" lon="-6.652660">
        <ele>682.917</ele>
        <time>2026-07-16T11:46:19.198Z</time>
      </trkpt>
      <trkpt lat="43.045860" lon="-6.652670">
        <ele>684.895</ele>
        <time>2026-07-16T11:46:39.198Z</time>
      </trkpt>
      <trkpt lat="43.045930" lon="-6.652690">
        <ele>685.654</ele>
        <time>2026-07-16T11:46:59.198Z</time>
      </trkpt>
      <trkpt lat="43.045970" lon="-6.652740">
        <ele>685.335</ele>
        <time>2026-07-16T11:47:19.198Z</time>
      </trkpt>
      <trkpt lat="43.045990" lon="-6.652830">
        <ele>685.269</ele>
        <time>2026-07-16T11:47:39.198Z</time>
      </trkpt>
      <trkpt lat="43.046000" lon="-6.652920">
        <ele>686.187</ele>
        <time>2026-07-16T11:47:59.198Z</time>
      </trkpt>
      <trkpt lat="43.045980" lon="-6.653000">
        <ele>686.344</ele>
        <time>2026-07-16T11:48:19.198Z</time>
      </trkpt>
      <trkpt lat="43.045940" lon="-6.653090">
        <ele>686.858</ele>
        <time>2026-07-16T11:48:39.198Z</time>
      </trkpt>
      <trkpt lat="43.045890" lon="-6.653180">
        <ele>688.752</ele>
        <time>2026-07-16T11:48:59.198Z</time>
      </trkpt>
      <trkpt lat="43.045510" lon="-6.653590">
        <ele>697.517</ele>
        <time>2026-07-16T11:49:19.198Z</time>
      </trkpt>
      <trkpt lat="43.045300" lon="-6.653730">
        <ele>697.909</ele>
        <time>2026-07-16T11:49:39.198Z</time>
      </trkpt>
      <trkpt lat="43.045170" lon="-6.653780">
        <ele>696.567</ele>
        <time>2026-07-16T11:49:59.198Z</time>
      </trkpt>
      <trkpt lat="43.044680" lon="-6.653910">
        <ele>690.472</ele>
        <time>2026-07-16T11:50:19.198Z</time>
      </trkpt>
      <trkpt lat="43.044610" lon="-6.653980">
        <ele>690.547</ele>
        <time>2026-07-16T11:50:39.198Z</time>
      </trkpt>
      <trkpt lat="43.044560" lon="-6.654080">
        <ele>691.745</ele>
        <time>2026-07-16T11:50:59.198Z</time>
      </trkpt>
      <trkpt lat="43.044510" lon="-6.654220">
        <ele>693.124</ele>
        <time>2026-07-16T11:51:19.198Z</time>
      </trkpt>
      <trkpt lat="43.044420" lon="-6.654600">
        <ele>693.575</ele>
        <time>2026-07-16T11:51:39.198Z</time>
      </trkpt>
      <trkpt lat="43.044370" lon="-6.654930">
        <ele>694.049</ele>
        <time>2026-07-16T11:51:59.198Z</time>
      </trkpt>
      <trkpt lat="43.044370" lon="-6.655040">
        <ele>695.127</ele>
        <time>2026-07-16T11:52:19.198Z</time>
      </trkpt>
      <trkpt lat="43.044370" lon="-6.655130">
        <ele>696.434</ele>
        <time>2026-07-16T11:52:39.198Z</time>
      </trkpt>
      <trkpt lat="43.044380" lon="-6.655210">
        <ele>698.352</ele>
        <time>2026-07-16T11:52:59.198Z</time>
      </trkpt>
      <trkpt lat="43.044390" lon="-6.655320">
        <ele>700.553</ele>
        <time>2026-07-16T11:53:19.198Z</time>
      </trkpt>
      <trkpt lat="43.044420" lon="-6.655480">
        <ele>705.008</ele>
        <time>2026-07-16T11:53:39.198Z</time>
      </trkpt>
      <trkpt lat="43.044440" lon="-6.655680">
        <ele>707.309</ele>
        <time>2026-07-16T11:53:59.198Z</time>
      </trkpt>
      <trkpt lat="43.044460" lon="-6.655880">
        <ele>708.137</ele>
        <time>2026-07-16T11:54:19.198Z</time>
      </trkpt>
      <trkpt lat="43.044460" lon="-6.656000">
        <ele>708.692</ele>
        <time>2026-07-16T11:54:39.198Z</time>
      </trkpt>
      <trkpt lat="43.044470" lon="-6.656120">
        <ele>709.787</ele>
        <time>2026-07-16T11:54:59.198Z</time>
      </trkpt>
      <trkpt lat="43.044470" lon="-6.656280">
        <ele>709.895</ele>
        <time>2026-07-16T11:55:19.198Z</time>
      </trkpt>
      <trkpt lat="43.044450" lon="-6.656430">
        <ele>708.664</ele>
        <time>2026-07-16T11:55:39.198Z</time>
      </trkpt>
      <trkpt lat="43.044420" lon="-6.656580">
        <ele>706.855</ele>
        <time>2026-07-16T11:55:59.198Z</time>
      </trkpt>
      <trkpt lat="43.044400" lon="-6.656730">
        <ele>706.349</ele>
        <time>2026-07-16T11:56:19.198Z</time>
      </trkpt>
      <trkpt lat="43.044390" lon="-6.656910">
        <ele>707.567</ele>
        <time>2026-07-16T11:56:39.198Z</time>
      </trkpt>
      <trkpt lat="43.044390" lon="-6.657140">
        <ele>707.334</ele>
        <time>2026-07-16T11:56:59.198Z</time>
      </trkpt>
      <trkpt lat="43.044400" lon="-6.657340">
        <ele>709.341</ele>
        <time>2026-07-16T11:57:19.198Z</time>
      </trkpt>
      <trkpt lat="43.044420" lon="-6.657530">
        <ele>713.281</ele>
        <time>2026-07-16T11:57:39.198Z</time>
      </trkpt>
      <trkpt lat="43.044500" lon="-6.658110">
        <ele>723.009</ele>
        <time>2026-07-16T11:57:59.198Z</time>
      </trkpt>
      <trkpt lat="43.044560" lon="-6.658460">
        <ele>727.709</ele>
        <time>2026-07-16T11:58:19.198Z</time>
      </trkpt>
      <trkpt lat="43.044580" lon="-6.658640">
        <ele>727.656</ele>
        <time>2026-07-16T11:58:39.198Z</time>
      </trkpt>
      <trkpt lat="43.044620" lon="-6.658810">
        <ele>729.751</ele>
        <time>2026-07-16T11:58:59.198Z</time>
      </trkpt>
      <trkpt lat="43.044610" lon="-6.659000">
        <ele>727.656</ele>
        <time>2026-07-16T11:59:19.198Z</time>
      </trkpt>
      <trkpt lat="43.044590" lon="-6.659270">
        <ele>723.254</ele>
        <time>2026-07-16T11:59:39.198Z</time>
      </trkpt>
      <trkpt lat="43.044580" lon="-6.659490">
        <ele>719.423</ele>
        <time>2026-07-16T11:59:59.198Z</time>
      </trkpt>
      <trkpt lat="43.044610" lon="-6.659660">
        <ele>718.624</ele>
        <time>2026-07-16T12:00:19.198Z</time>
      </trkpt>
      <trkpt lat="43.044650" lon="-6.659740">
        <ele>719.268</ele>
        <time>2026-07-16T12:00:39.198Z</time>
      </trkpt>
      <trkpt lat="43.044710" lon="-6.659780">
        <ele>720.736</ele>
        <time>2026-07-16T12:00:59.198Z</time>
      </trkpt>
      <trkpt lat="43.044780" lon="-6.659790">
        <ele>721.673</ele>
        <time>2026-07-16T12:01:19.198Z</time>
      </trkpt>
      <trkpt lat="43.044880" lon="-6.659760">
        <ele>723.377</ele>
        <time>2026-07-16T12:01:39.198Z</time>
      </trkpt>
      <trkpt lat="43.045040" lon="-6.659690">
        <ele>726.861</ele>
        <time>2026-07-16T12:01:59.198Z</time>
      </trkpt>
      <trkpt lat="43.045300" lon="-6.659640">
        <ele>728.327</ele>
        <time>2026-07-16T12:02:19.198Z</time>
      </trkpt>
      <trkpt lat="43.045590" lon="-6.659630">
        <ele>729.609</ele>
        <time>2026-07-16T12:02:39.198Z</time>
      </trkpt>
      <trkpt lat="43.045790" lon="-6.659600">
        <ele>730.739</ele>
        <time>2026-07-16T12:02:59.198Z</time>
      </trkpt>
      <trkpt lat="43.046100" lon="-6.659530">
        <ele>735.944</ele>
        <time>2026-07-16T12:03:19.198Z</time>
      </trkpt>
      <trkpt lat="43.046530" lon="-6.659490">
        <ele>744.539</ele>
        <time>2026-07-16T12:03:39.198Z</time>
      </trkpt>
      <trkpt lat="43.046710" lon="-6.659440">
        <ele>748.217</ele>
        <time>2026-07-16T12:03:59.198Z</time>
      </trkpt>
      <trkpt lat="43.046970" lon="-6.659350">
        <ele>752.036</ele>
        <time>2026-07-16T12:04:19.198Z</time>
      </trkpt>
      <trkpt lat="43.047320" lon="-6.659350">
        <ele>752.167</ele>
        <time>2026-07-16T12:04:39.198Z</time>
      </trkpt>
      <trkpt lat="43.047870" lon="-6.659380">
        <ele>753.531</ele>
        <time>2026-07-16T12:04:59.198Z</time>
      </trkpt>
      <trkpt lat="43.047930" lon="-6.659370">
        <ele>753.099</ele>
        <time>2026-07-16T12:05:19.198Z</time>
      </trkpt>
      <trkpt lat="43.047990" lon="-6.659320">
        <ele>754.356</ele>
        <time>2026-07-16T12:05:39.198Z</time>
      </trkpt>
      <trkpt lat="43.048050" lon="-6.659240">
        <ele>756.957</ele>
        <time>2026-07-16T12:05:59.198Z</time>
      </trkpt>
      <trkpt lat="43.048190" lon="-6.659080">
        <ele>764.100</ele>
        <time>2026-07-16T12:06:19.198Z</time>
      </trkpt>
      <trkpt lat="43.048300" lon="-6.658980">
        <ele>767.820</ele>
        <time>2026-07-16T12:06:39.198Z</time>
      </trkpt>
      <trkpt lat="43.048370" lon="-6.658960">
        <ele>768.709</ele>
        <time>2026-07-16T12:06:59.198Z</time>
      </trkpt>
      <trkpt lat="43.048430" lon="-6.658980">
        <ele>768.417</ele>
        <time>2026-07-16T12:07:19.198Z</time>
      </trkpt>
      <trkpt lat="43.048660" lon="-6.659230">
        <ele>762.382</ele>
        <time>2026-07-16T12:07:39.198Z</time>
      </trkpt>
      <trkpt lat="43.049130" lon="-6.659530">
        <ele>764.667</ele>
        <time>2026-07-16T12:07:59.198Z</time>
      </trkpt>
      <trkpt lat="43.049570" lon="-6.659670">
        <ele>768.745</ele>
        <time>2026-07-16T12:08:19.198Z</time>
      </trkpt>
      <trkpt lat="43.049770" lon="-6.659660">
        <ele>770.684</ele>
        <time>2026-07-16T12:08:39.198Z</time>
      </trkpt>
      <trkpt lat="43.049970" lon="-6.659600">
        <ele>773.645</ele>
        <time>2026-07-16T12:08:59.198Z</time>
      </trkpt>
      <trkpt lat="43.050160" lon="-6.659510">
        <ele>778.939</ele>
        <time>2026-07-16T12:09:19.198Z</time>
      </trkpt>
      <trkpt lat="43.050360" lon="-6.659450">
        <ele>780.357</ele>
        <time>2026-07-16T12:09:39.198Z</time>
      </trkpt>
      <trkpt lat="43.050620" lon="-6.659390">
        <ele>778.784</ele>
        <time>2026-07-16T12:09:59.198Z</time>
      </trkpt>
      <trkpt lat="43.050830" lon="-6.659320">
        <ele>780.023</ele>
        <time>2026-07-16T12:10:19.198Z</time>
      </trkpt>
      <trkpt lat="43.050930" lon="-6.659260">
        <ele>782.983</ele>
        <time>2026-07-16T12:10:39.198Z</time>
      </trkpt>
      <trkpt lat="43.051050" lon="-6.659230">
        <ele>784.911</ele>
        <time>2026-07-16T12:10:59.198Z</time>
      </trkpt>
      <trkpt lat="43.051420" lon="-6.659230">
        <ele>784.709</ele>
        <time>2026-07-16T12:11:19.198Z</time>
      </trkpt>
      <trkpt lat="43.051600" lon="-6.659260">
        <ele>784.964</ele>
        <time>2026-07-16T12:11:39.198Z</time>
      </trkpt>
      <trkpt lat="43.051760" lon="-6.659310">
        <ele>784.639</ele>
        <time>2026-07-16T12:11:59.198Z</time>
      </trkpt>
      <trkpt lat="43.052020" lon="-6.659370">
        <ele>785.534</ele>
        <time>2026-07-16T12:12:19.198Z</time>
      </trkpt>
      <trkpt lat="43.052230" lon="-6.659380">
        <ele>786.982</ele>
        <time>2026-07-16T12:12:39.198Z</time>
      </trkpt>
      <trkpt lat="43.052560" lon="-6.659330">
        <ele>791.751</ele>
        <time>2026-07-16T12:12:59.198Z</time>
      </trkpt>
      <trkpt lat="43.053220" lon="-6.659090">
        <ele>797.412</ele>
        <time>2026-07-16T12:13:19.198Z</time>
      </trkpt>
      <trkpt lat="43.053410" lon="-6.658850">
        <ele>801.976</ele>
        <time>2026-07-16T12:13:39.198Z</time>
      </trkpt>
      <trkpt lat="43.053500" lon="-6.658690">
        <ele>805.714</ele>
        <time>2026-07-16T12:13:59.198Z</time>
      </trkpt>
      <trkpt lat="43.053540" lon="-6.658510">
        <ele>812.121</ele>
        <time>2026-07-16T12:14:19.198Z</time>
      </trkpt>
      <trkpt lat="43.053590" lon="-6.658370">
        <ele>816.294</ele>
        <time>2026-07-16T12:14:39.198Z</time>
      </trkpt>
      <trkpt lat="43.053680" lon="-6.658210">
        <ele>818.957</ele>
        <time>2026-07-16T12:14:59.198Z</time>
      </trkpt>
      <trkpt lat="43.053890" lon="-6.658010">
        <ele>819.322</ele>
        <time>2026-07-16T12:15:19.198Z</time>
      </trkpt>
      <trkpt lat="43.054180" lon="-6.657710">
        <ele>816.509</ele>
        <time>2026-07-16T12:15:39.198Z</time>
      </trkpt>
      <trkpt lat="43.054350" lon="-6.657460">
        <ele>822.051</ele>
        <time>2026-07-16T12:15:59.198Z</time>
      </trkpt>
      <trkpt lat="43.054530" lon="-6.657380">
        <ele>822.176</ele>
        <time>2026-07-16T12:16:19.198Z</time>
      </trkpt>
      <trkpt lat="43.055400" lon="-6.656830">
        <ele>830.171</ele>
        <time>2026-07-16T12:16:39.198Z</time>
      </trkpt>
      <trkpt lat="43.055490" lon="-6.656800">
        <ele>830.199</ele>
        <time>2026-07-16T12:16:59.198Z</time>
      </trkpt>
      <trkpt lat="43.055550" lon="-6.656790">
        <ele>829.878</ele>
        <time>2026-07-16T12:17:19.198Z</time>
      </trkpt>
      <trkpt lat="43.055600" lon="-6.656800">
        <ele>830.349</ele>
        <time>2026-07-16T12:17:39.198Z</time>
      </trkpt>
      <trkpt lat="43.055640" lon="-6.656820">
        <ele>830.663</ele>
        <time>2026-07-16T12:17:59.198Z</time>
      </trkpt>
      <trkpt lat="43.055690" lon="-6.656860">
        <ele>830.891</ele>
        <time>2026-07-16T12:18:19.198Z</time>
      </trkpt>
      <trkpt lat="43.055720" lon="-6.656900">
        <ele>830.728</ele>
        <time>2026-07-16T12:18:39.198Z</time>
      </trkpt>
      <trkpt lat="43.055740" lon="-6.656960">
        <ele>830.464</ele>
        <time>2026-07-16T12:18:59.198Z</time>
      </trkpt>
      <trkpt lat="43.055760" lon="-6.657030">
        <ele>831.106</ele>
        <time>2026-07-16T12:19:19.198Z</time>
      </trkpt>
      <trkpt lat="43.055770" lon="-6.657090">
        <ele>831.616</ele>
        <time>2026-07-16T12:19:39.198Z</time>
      </trkpt>
      <trkpt lat="43.055770" lon="-6.657170">
        <ele>831.909</ele>
        <time>2026-07-16T12:19:59.198Z</time>
      </trkpt>
      <trkpt lat="43.055770" lon="-6.657260">
        <ele>833.438</ele>
        <time>2026-07-16T12:20:19.198Z</time>
      </trkpt>
      <trkpt lat="43.055770" lon="-6.657340">
        <ele>835.873</ele>
        <time>2026-07-16T12:20:39.198Z</time>
      </trkpt>
      <trkpt lat="43.055750" lon="-6.657420">
        <ele>837.478</ele>
        <time>2026-07-16T12:20:59.198Z</time>
      </trkpt>
      <trkpt lat="43.055720" lon="-6.657520">
        <ele>838.816</ele>
        <time>2026-07-16T12:21:19.198Z</time>
      </trkpt>
      <trkpt lat="43.055640" lon="-6.657720">
        <ele>838.655</ele>
        <time>2026-07-16T12:21:39.198Z</time>
      </trkpt>
      <trkpt lat="43.055590" lon="-6.657930">
        <ele>836.846</ele>
        <time>2026-07-16T12:21:59.198Z</time>
      </trkpt>
      <trkpt lat="43.055590" lon="-6.658190">
        <ele>834.470</ele>
        <time>2026-07-16T12:22:19.198Z</time>
      </trkpt>
      <trkpt lat="43.055600" lon="-6.658390">
        <ele>831.878</ele>
        <time>2026-07-16T12:22:39.198Z</time>
      </trkpt>
      <trkpt lat="43.055610" lon="-6.658560">
        <ele>832.635</ele>
        <time>2026-07-16T12:22:59.198Z</time>
      </trkpt>
      <trkpt lat="43.055690" lon="-6.658700">
        <ele>837.154</ele>
        <time>2026-07-16T12:23:19.198Z</time>
      </trkpt>
      <trkpt lat="43.055790" lon="-6.658830">
        <ele>842.656</ele>
        <time>2026-07-16T12:23:39.198Z</time>
      </trkpt>
      <trkpt lat="43.055870" lon="-6.658940">
        <ele>845.711</ele>
        <time>2026-07-16T12:23:59.198Z</time>
      </trkpt>
      <trkpt lat="43.055900" lon="-6.659050">
        <ele>845.109</ele>
        <time>2026-07-16T12:24:19.198Z</time>
      </trkpt>
      <trkpt lat="43.055930" lon="-6.659230">
        <ele>843.227</ele>
        <time>2026-07-16T12:24:39.198Z</time>
      </trkpt>
      <trkpt lat="43.056050" lon="-6.659570">
        <ele>845.982</ele>
        <time>2026-07-16T12:24:59.198Z</time>
      </trkpt>
      <trkpt lat="43.056310" lon="-6.660270">
        <ele>862.327</ele>
        <time>2026-07-16T12:25:19.198Z</time>
      </trkpt>
      <trkpt lat="43.056340" lon="-6.660530">
        <ele>869.025</ele>
        <time>2026-07-16T12:25:39.198Z</time>
      </trkpt>
      <trkpt lat="43.056320" lon="-6.660700">
        <ele>875.184</ele>
        <time>2026-07-16T12:25:59.198Z</time>
      </trkpt>
      <trkpt lat="43.056270" lon="-6.660790">
        <ele>878.795</ele>
        <time>2026-07-16T12:26:19.198Z</time>
      </trkpt>
      <trkpt lat="43.056190" lon="-6.660850">
        <ele>881.469</ele>
        <time>2026-07-16T12:26:39.198Z</time>
      </trkpt>
      <trkpt lat="43.055640" lon="-6.660760">
        <ele>867.097</ele>
        <time>2026-07-16T12:26:59.198Z</time>
      </trkpt>
      <trkpt lat="43.055460" lon="-6.660810">
        <ele>864.094</ele>
        <time>2026-07-16T12:27:19.198Z</time>
      </trkpt>
      <trkpt lat="43.055360" lon="-6.660930">
        <ele>864.458</ele>
        <time>2026-07-16T12:27:39.198Z</time>
      </trkpt>
      <trkpt lat="43.055300" lon="-6.661110">
        <ele>866.052</ele>
        <time>2026-07-16T12:27:59.198Z</time>
      </trkpt>
      <trkpt lat="43.055230" lon="-6.661320">
        <ele>866.817</ele>
        <time>2026-07-16T12:28:19.198Z</time>
      </trkpt>
      <trkpt lat="43.055170" lon="-6.661610">
        <ele>868.109</ele>
        <time>2026-07-16T12:28:39.198Z</time>
      </trkpt>
      <trkpt lat="43.055160" lon="-6.661820">
        <ele>871.557</ele>
        <time>2026-07-16T12:28:59.198Z</time>
      </trkpt>
      <trkpt lat="43.055180" lon="-6.662890">
        <ele>881.842</ele>
        <time>2026-07-16T12:29:19.198Z</time>
      </trkpt>
      <trkpt lat="43.055180" lon="-6.662940">
        <ele>882.317</ele>
        <time>2026-07-16T12:29:39.198Z</time>
      </trkpt>
      <trkpt lat="43.055160" lon="-6.662990">
        <ele>882.085</ele>
        <time>2026-07-16T12:29:59.198Z</time>
      </trkpt>
      <trkpt lat="43.055140" lon="-6.663020">
        <ele>881.624</ele>
        <time>2026-07-16T12:30:19.198Z</time>
      </trkpt>
      <trkpt lat="43.055100" lon="-6.663040">
        <ele>880.485</ele>
        <time>2026-07-16T12:30:39.198Z</time>
      </trkpt>
      <trkpt lat="43.054990" lon="-6.663000">
        <ele>876.039</ele>
        <time>2026-07-16T12:30:59.198Z</time>
      </trkpt>
      <trkpt lat="43.054680" lon="-6.662870">
        <ele>877.937</ele>
        <time>2026-07-16T12:31:19.198Z</time>
      </trkpt>
      <trkpt lat="43.054340" lon="-6.662740">
        <ele>876.324</ele>
        <time>2026-07-16T12:31:39.198Z</time>
      </trkpt>
      <trkpt lat="43.054090" lon="-6.662640">
        <ele>873.932</ele>
        <time>2026-07-16T12:31:59.198Z</time>
      </trkpt>
      <trkpt lat="43.053870" lon="-6.662650">
        <ele>873.992</ele>
        <time>2026-07-16T12:32:19.198Z</time>
      </trkpt>
      <trkpt lat="43.053790" lon="-6.662680">
        <ele>874.611</ele>
        <time>2026-07-16T12:32:39.198Z</time>
      </trkpt>
      <trkpt lat="43.053540" lon="-6.662900">
        <ele>880.709</ele>
        <time>2026-07-16T12:32:59.198Z</time>
      </trkpt>
      <trkpt lat="43.052870" lon="-6.663660">
        <ele>882.275</ele>
        <time>2026-07-16T12:33:19.198Z</time>
      </trkpt>
      <trkpt lat="43.052730" lon="-6.663940">
        <ele>885.420</ele>
        <time>2026-07-16T12:33:39.198Z</time>
      </trkpt>
      <trkpt lat="43.052730" lon="-6.664250">
        <ele>891.115</ele>
        <time>2026-07-16T12:33:59.198Z</time>
      </trkpt>
      <trkpt lat="43.052880" lon="-6.664870">
        <ele>888.863</ele>
        <time>2026-07-16T12:34:19.198Z</time>
      </trkpt>
      <trkpt lat="43.053160" lon="-6.665590">
        <ele>897.092</ele>
        <time>2026-07-16T12:34:39.198Z</time>
      </trkpt>
      <trkpt lat="43.053310" lon="-6.666080">
        <ele>910.063</ele>
        <time>2026-07-16T12:34:59.198Z</time>
      </trkpt>
      <trkpt lat="43.053300" lon="-6.666190">
        <ele>913.687</ele>
        <time>2026-07-16T12:35:19.198Z</time>
      </trkpt>
      <trkpt lat="43.053260" lon="-6.666240">
        <ele>913.195</ele>
        <time>2026-07-16T12:35:39.198Z</time>
      </trkpt>
      <trkpt lat="43.053150" lon="-6.666270">
        <ele>906.612</ele>
        <time>2026-07-16T12:35:59.198Z</time>
      </trkpt>
      <trkpt lat="43.053040" lon="-6.666290">
        <ele>899.874</ele>
        <time>2026-07-16T12:36:19.198Z</time>
      </trkpt>
      <trkpt lat="43.052970" lon="-6.666340">
        <ele>898.056</ele>
        <time>2026-07-16T12:36:39.198Z</time>
      </trkpt>
      <trkpt lat="43.052820" lon="-6.666600">
        <ele>898.721</ele>
        <time>2026-07-16T12:36:59.198Z</time>
      </trkpt>
      <trkpt lat="43.052790" lon="-6.666750">
        <ele>902.609</ele>
        <time>2026-07-16T12:37:19.198Z</time>
      </trkpt>
      <trkpt lat="43.052770" lon="-6.667070">
        <ele>916.339</ele>
        <time>2026-07-16T12:37:39.198Z</time>
      </trkpt>
      <trkpt lat="43.052730" lon="-6.667140">
        <ele>918.984</ele>
        <time>2026-07-16T12:37:59.198Z</time>
      </trkpt>
      <trkpt lat="43.052650" lon="-6.667140">
        <ele>917.949</ele>
        <time>2026-07-16T12:38:19.198Z</time>
      </trkpt>
      <trkpt lat="43.052050" lon="-6.666880">
        <ele>914.997</ele>
        <time>2026-07-16T12:38:39.198Z</time>
      </trkpt>
      <trkpt lat="43.051920" lon="-6.666900">
        <ele>914.146</ele>
        <time>2026-07-16T12:38:59.198Z</time>
      </trkpt>
      <trkpt lat="43.051240" lon="-6.667860">
        <ele>937.827</ele>
        <time>2026-07-16T12:39:19.198Z</time>
      </trkpt>
      <trkpt lat="43.051050" lon="-6.668100">
        <ele>950.161</ele>
        <time>2026-07-16T12:39:39.198Z</time>
      </trkpt>
      <trkpt lat="43.050980" lon="-6.668110">
        <ele>951.149</ele>
        <time>2026-07-16T12:39:59.198Z</time>
      </trkpt>
      <trkpt lat="43.050890" lon="-6.668030">
        <ele>946.166</ele>
        <time>2026-07-16T12:40:19.198Z</time>
      </trkpt>
      <trkpt lat="43.050800" lon="-6.667840">
        <ele>934.561</ele>
        <time>2026-07-16T12:40:39.198Z</time>
      </trkpt>
      <trkpt lat="43.050680" lon="-6.667670">
        <ele>930.021</ele>
        <time>2026-07-16T12:40:59.198Z</time>
      </trkpt>
      <trkpt lat="43.050250" lon="-6.667350">
        <ele>925.813</ele>
        <time>2026-07-16T12:41:19.198Z</time>
      </trkpt>
      <trkpt lat="43.049740" lon="-6.667210">
        <ele>924.309</ele>
        <time>2026-07-16T12:41:39.198Z</time>
      </trkpt>
      <trkpt lat="43.049460" lon="-6.667130">
        <ele>931.418</ele>
        <time>2026-07-16T12:41:59.198Z</time>
      </trkpt>
      <trkpt lat="43.049190" lon="-6.667050">
        <ele>933.523</ele>
        <time>2026-07-16T12:42:19.198Z</time>
      </trkpt>
      <trkpt lat="43.048930" lon="-6.666860">
        <ele>925.928</ele>
        <time>2026-07-16T12:42:39.198Z</time>
      </trkpt>
      <trkpt lat="43.048820" lon="-6.666870">
        <ele>926.016</ele>
        <time>2026-07-16T12:42:59.198Z</time>
      </trkpt>
      <trkpt lat="43.048650" lon="-6.667020">
        <ele>928.465</ele>
        <time>2026-07-16T12:43:19.198Z</time>
      </trkpt>
      <trkpt lat="43.048510" lon="-6.667300">
        <ele>930.166</ele>
        <time>2026-07-16T12:43:39.198Z</time>
      </trkpt>
      <trkpt lat="43.048390" lon="-6.667830">
        <ele>929.950</ele>
        <time>2026-07-16T12:43:59.198Z</time>
      </trkpt>
      <trkpt lat="43.048390" lon="-6.668530">
        <ele>929.678</ele>
        <time>2026-07-16T12:44:19.198Z</time>
      </trkpt>
      <trkpt lat="43.048500" lon="-6.669200">
        <ele>936.625</ele>
        <time>2026-07-16T12:44:39.198Z</time>
      </trkpt>
      <trkpt lat="43.048540" lon="-6.669930">
        <ele>948.331</ele>
        <time>2026-07-16T12:44:59.198Z</time>
      </trkpt>
      <trkpt lat="43.048430" lon="-6.670230">
        <ele>954.161</ele>
        <time>2026-07-16T12:45:19.198Z</time>
      </trkpt>
      <trkpt lat="43.048230" lon="-6.670400">
        <ele>956.007</ele>
        <time>2026-07-16T12:45:39.198Z</time>
      </trkpt>
      <trkpt lat="43.047680" lon="-6.670440">
        <ele>958.009</ele>
        <time>2026-07-16T12:45:59.198Z</time>
      </trkpt>
      <trkpt lat="43.047180" lon="-6.670550">
        <ele>962.635</ele>
        <time>2026-07-16T12:46:19.198Z</time>
      </trkpt>
      <trkpt lat="43.046980" lon="-6.670470">
        <ele>952.480</ele>
        <time>2026-07-16T12:46:39.198Z</time>
      </trkpt>
      <trkpt lat="43.046460" lon="-6.670400">
        <ele>955.755</ele>
        <time>2026-07-16T12:46:59.198Z</time>
      </trkpt>
      <trkpt lat="43.046290" lon="-6.670480">
        <ele>959.423</ele>
        <time>2026-07-16T12:47:19.198Z</time>
      </trkpt>
      <trkpt lat="43.045900" lon="-6.671040">
        <ele>962.642</ele>
        <time>2026-07-16T12:47:39.198Z</time>
      </trkpt>
      <trkpt lat="43.045740" lon="-6.671450">
        <ele>965.793</ele>
        <time>2026-07-16T12:47:59.198Z</time>
      </trkpt>
      <trkpt lat="43.045580" lon="-6.672380">
        <ele>963.617</ele>
        <time>2026-07-16T12:48:19.198Z</time>
      </trkpt>
      <trkpt lat="43.045460" lon="-6.673480">
        <ele>977.485</ele>
        <time>2026-07-16T12:48:39.198Z</time>
      </trkpt>
      <trkpt lat="43.045390" lon="-6.674060">
        <ele>981.482</ele>
        <time>2026-07-16T12:48:59.198Z</time>
      </trkpt>
      <trkpt lat="43.045320" lon="-6.674430">
        <ele>989.162</ele>
        <time>2026-07-16T12:49:19.198Z</time>
      </trkpt>
      <trkpt lat="43.045150" lon="-6.674610">
        <ele>989.383</ele>
        <time>2026-07-16T12:49:39.198Z</time>
      </trkpt>
      <trkpt lat="43.044800" lon="-6.674770">
        <ele>990.211</ele>
        <time>2026-07-16T12:49:59.198Z</time>
      </trkpt>
      <trkpt lat="43.044630" lon="-6.674910">
        <ele>990.309</ele>
        <time>2026-07-16T12:50:19.198Z</time>
      </trkpt>
      <trkpt lat="43.044400" lon="-6.675110">
        <ele>979.528</ele>
        <time>2026-07-16T12:50:39.198Z</time>
      </trkpt>
      <trkpt lat="43.044330" lon="-6.675280">
        <ele>978.593</ele>
        <time>2026-07-16T12:50:59.198Z</time>
      </trkpt>
      <trkpt lat="43.044280" lon="-6.675580">
        <ele>981.448</ele>
        <time>2026-07-16T12:51:19.198Z</time>
      </trkpt>
      <trkpt lat="43.044330" lon="-6.676500">
        <ele>986.026</ele>
        <time>2026-07-16T12:51:39.198Z</time>
      </trkpt>
      <trkpt lat="43.044450" lon="-6.676790">
        <ele>986.185</ele>
        <time>2026-07-16T12:51:59.198Z</time>
      </trkpt>
      <trkpt lat="43.044730" lon="-6.677080">
        <ele>993.566</ele>
        <time>2026-07-16T12:52:19.198Z</time>
      </trkpt>
      <trkpt lat="43.044960" lon="-6.677310">
        <ele>1003.720</ele>
        <time>2026-07-16T12:52:39.198Z</time>
      </trkpt>
      <trkpt lat="43.045090" lon="-6.677560">
        <ele>1008.958</ele>
        <time>2026-07-16T12:52:59.198Z</time>
      </trkpt>
      <trkpt lat="43.045140" lon="-6.677690">
        <ele>1010.995</ele>
        <time>2026-07-16T12:53:19.198Z</time>
      </trkpt>
      <trkpt lat="43.045140" lon="-6.677780">
        <ele>1010.163</ele>
        <time>2026-07-16T12:53:39.198Z</time>
      </trkpt>
      <trkpt lat="43.045090" lon="-6.677920">
        <ele>1008.244</ele>
        <time>2026-07-16T12:53:59.198Z</time>
      </trkpt>
      <trkpt lat="43.044700" lon="-6.678670">
        <ele>1005.818</ele>
        <time>2026-07-16T12:54:19.198Z</time>
      </trkpt>
      <trkpt lat="43.044690" lon="-6.678780">
        <ele>1005.509</ele>
        <time>2026-07-16T12:54:39.198Z</time>
      </trkpt>
      <trkpt lat="43.044730" lon="-6.678940">
        <ele>1007.328</ele>
        <time>2026-07-16T12:54:59.198Z</time>
      </trkpt>
      <trkpt lat="43.045130" lon="-6.679560">
        <ele>1018.353</ele>
        <time>2026-07-16T12:55:19.198Z</time>
      </trkpt>
      <trkpt lat="43.045300" lon="-6.679940">
        <ele>1018.588</ele>
        <time>2026-07-16T12:55:39.198Z</time>
      </trkpt>
      <trkpt lat="43.045360" lon="-6.680300">
        <ele>1022.746</ele>
        <time>2026-07-16T12:55:59.198Z</time>
      </trkpt>
      <trkpt lat="43.045340" lon="-6.680480">
        <ele>1022.895</ele>
        <time>2026-07-16T12:56:19.198Z</time>
      </trkpt>
      <trkpt lat="43.045230" lon="-6.681010">
        <ele>1018.516</ele>
        <time>2026-07-16T12:56:39.198Z</time>
      </trkpt>
      <trkpt lat="43.045270" lon="-6.681270">
        <ele>1022.520</ele>
        <time>2026-07-16T12:56:59.198Z</time>
      </trkpt>
      <trkpt lat="43.045330" lon="-6.681570">
        <ele>1035.188</ele>
        <time>2026-07-16T12:57:19.198Z</time>
      </trkpt>
      <trkpt lat="43.045310" lon="-6.681680">
        <ele>1038.045</ele>
        <time>2026-07-16T12:57:39.198Z</time>
      </trkpt>
      <trkpt lat="43.045180" lon="-6.681780">
        <ele>1039.378</ele>
        <time>2026-07-16T12:57:59.198Z</time>
      </trkpt>
      <trkpt lat="43.045070" lon="-6.681840">
        <ele>1038.933</ele>
        <time>2026-07-16T12:58:19.198Z</time>
      </trkpt>
      <trkpt lat="43.044900" lon="-6.682150">
        <ele>1062.126</ele>
        <time>2026-07-16T12:58:39.198Z</time>
      </trkpt>
      <trkpt lat="43.044810" lon="-6.682240">
        <ele>1067.009</ele>
        <time>2026-07-16T12:58:59.198Z</time>
      </trkpt>
      <trkpt lat="43.044590" lon="-6.682270">
        <ele>1062.769</ele>
        <time>2026-07-16T12:59:19.198Z</time>
      </trkpt>
      <trkpt lat="43.043760" lon="-6.682290">
        <ele>1048.254</ele>
        <time>2026-07-16T12:59:39.198Z</time>
      </trkpt>
      <trkpt lat="43.043550" lon="-6.682740">
        <ele>1063.879</ele>
        <time>2026-07-16T12:59:59.198Z</time>
      </trkpt>
      <trkpt lat="43.043440" lon="-6.682900">
        <ele>1069.597</ele>
        <time>2026-07-16T13:00:19.198Z</time>
      </trkpt>
      <trkpt lat="43.042870" lon="-6.683260">
        <ele>1087.286</ele>
        <time>2026-07-16T13:00:39.198Z</time>
      </trkpt>
      <trkpt lat="43.042660" lon="-6.683330">
        <ele>1095.037</ele>
        <time>2026-07-16T13:00:59.198Z</time>
      </trkpt>
      <trkpt lat="43.042500" lon="-6.683280">
        <ele>1093.281</ele>
        <time>2026-07-16T13:01:19.198Z</time>
      </trkpt>
      <trkpt lat="43.042280" lon="-6.683080">
        <ele>1078.739</ele>
        <time>2026-07-16T13:01:39.198Z</time>
      </trkpt>
      <trkpt lat="43.042160" lon="-6.683070">
        <ele>1077.146</ele>
        <time>2026-07-16T13:01:59.198Z</time>
      </trkpt>
      <trkpt lat="43.041810" lon="-6.683130">
        <ele>1073.174</ele>
        <time>2026-07-16T13:02:19.198Z</time>
      </trkpt>
      <trkpt lat="43.041320" lon="-6.683230">
        <ele>1058.656</ele>
        <time>2026-07-16T13:02:39.198Z</time>
      </trkpt>
      <trkpt lat="43.041250" lon="-6.683290">
        <ele>1055.121</ele>
        <time>2026-07-16T13:02:59.198Z</time>
      </trkpt>
      <trkpt lat="43.041210" lon="-6.683450">
        <ele>1052.909</ele>
        <time>2026-07-16T13:03:19.198Z</time>
      </trkpt>
      <trkpt lat="43.041200" lon="-6.683610">
        <ele>1052.799</ele>
        <time>2026-07-16T13:03:39.198Z</time>
      </trkpt>
      <trkpt lat="43.041630" lon="-6.684920">
        <ele>1062.274</ele>
        <time>2026-07-16T13:03:59.198Z</time>
      </trkpt>
      <trkpt lat="43.041740" lon="-6.685350">
        <ele>1067.959</ele>
        <time>2026-07-16T13:04:19.198Z</time>
      </trkpt>
      <trkpt lat="43.041840" lon="-6.686270">
        <ele>1086.137</ele>
        <time>2026-07-16T13:04:39.198Z</time>
      </trkpt>
      <trkpt lat="43.041850" lon="-6.686600">
        <ele>1096.526</ele>
        <time>2026-07-16T13:04:59.198Z</time>
      </trkpt>
      <trkpt lat="43.041790" lon="-6.686660">
        <ele>1095.787</ele>
        <time>2026-07-16T13:05:19.198Z</time>
      </trkpt>
      <trkpt lat="43.041590" lon="-6.686620">
        <ele>1087.761</ele>
        <time>2026-07-16T13:05:39.198Z</time>
      </trkpt>
      <trkpt lat="43.041420" lon="-6.686610">
        <ele>1083.469</ele>
        <time>2026-07-16T13:05:59.198Z</time>
      </trkpt>
      <trkpt lat="43.040890" lon="-6.686750">
        <ele>1085.266</ele>
        <time>2026-07-16T13:06:19.198Z</time>
      </trkpt>
      <trkpt lat="43.040670" lon="-6.686990">
        <ele>1082.261</ele>
        <time>2026-07-16T13:06:39.198Z</time>
      </trkpt>
      <trkpt lat="43.040210" lon="-6.687550">
        <ele>1071.921</ele>
        <time>2026-07-16T13:06:59.198Z</time>
      </trkpt>
      <trkpt lat="43.040170" lon="-6.687730">
        <ele>1070.813</ele>
        <time>2026-07-16T13:07:19.198Z</time>
      </trkpt>
      <trkpt lat="43.040200" lon="-6.688000">
        <ele>1073.409</ele>
        <time>2026-07-16T13:07:39.198Z</time>
      </trkpt>
      <trkpt lat="43.040490" lon="-6.688630">
        <ele>1073.378</ele>
        <time>2026-07-16T13:07:59.198Z</time>
      </trkpt>
      <trkpt lat="43.040680" lon="-6.688940">
        <ele>1075.093</ele>
        <time>2026-07-16T13:08:19.198Z</time>
      </trkpt>
      <trkpt lat="43.040960" lon="-6.689320">
        <ele>1083.778</ele>
        <time>2026-07-16T13:08:39.198Z</time>
      </trkpt>
      <trkpt lat="43.041000" lon="-6.689520">
        <ele>1082.246</ele>
        <time>2026-07-16T13:08:59.198Z</time>
      </trkpt>
      <trkpt lat="43.041050" lon="-6.689960">
        <ele>1077.825</ele>
        <time>2026-07-16T13:09:19.198Z</time>
      </trkpt>
      <trkpt lat="43.041310" lon="-6.690380">
        <ele>1091.476</ele>
        <time>2026-07-16T13:09:39.198Z</time>
      </trkpt>
      <trkpt lat="43.041370" lon="-6.690560">
        <ele>1094.570</ele>
        <time>2026-07-16T13:09:59.198Z</time>
      </trkpt>
      <trkpt lat="43.041420" lon="-6.690810">
        <ele>1095.198</ele>
        <time>2026-07-16T13:10:19.198Z</time>
      </trkpt>
      <trkpt lat="43.041470" lon="-6.691080">
        <ele>1097.335</ele>
        <time>2026-07-16T13:10:39.198Z</time>
      </trkpt>
      <trkpt lat="43.041470" lon="-6.691380">
        <ele>1093.841</ele>
        <time>2026-07-16T13:10:59.198Z</time>
      </trkpt>
      <trkpt lat="43.041540" lon="-6.691590">
        <ele>1097.381</ele>
        <time>2026-07-16T13:11:19.198Z</time>
      </trkpt>
      <trkpt lat="43.041550" lon="-6.691750">
        <ele>1096.509</ele>
        <time>2026-07-16T13:11:39.198Z</time>
      </trkpt>
      <trkpt lat="43.041540" lon="-6.691940">
        <ele>1093.909</ele>
        <time>2026-07-16T13:11:59.198Z</time>
      </trkpt>
      <trkpt lat="43.041570" lon="-6.692130">
        <ele>1093.816</ele>
        <time>2026-07-16T13:12:19.198Z</time>
      </trkpt>
      <trkpt lat="43.041850" lon="-6.692660">
        <ele>1101.691</ele>
        <time>2026-07-16T13:12:39.198Z</time>
      </trkpt>
      <trkpt lat="43.042140" lon="-6.693270">
        <ele>1102.846</ele>
        <time>2026-07-16T13:12:59.198Z</time>
      </trkpt>
      <trkpt lat="43.042340" lon="-6.693510">
        <ele>1117.094</ele>
        <time>2026-07-16T13:13:19.198Z</time>
      </trkpt>
      <trkpt lat="43.042370" lon="-6.693650">
        <ele>1119.613</ele>
        <time>2026-07-16T13:13:39.198Z</time>
      </trkpt>
      <trkpt lat="43.042350" lon="-6.693810">
        <ele>1117.384</ele>
        <time>2026-07-16T13:13:59.198Z</time>
      </trkpt>
      <trkpt lat="43.042270" lon="-6.694070">
        <ele>1110.238</ele>
        <time>2026-07-16T13:14:19.198Z</time>
      </trkpt>
      <trkpt lat="43.042240" lon="-6.694430">
        <ele>1112.886</ele>
        <time>2026-07-16T13:14:39.198Z</time>
      </trkpt>
      <trkpt lat="43.042190" lon="-6.694540">
        <ele>1112.953</ele>
        <time>2026-07-16T13:14:59.198Z</time>
      </trkpt>
      <trkpt lat="43.042080" lon="-6.694650">
        <ele>1109.767</ele>
        <time>2026-07-16T13:15:19.198Z</time>
      </trkpt>
      <trkpt lat="43.042040" lon="-6.694750">
        <ele>1109.981</ele>
        <time>2026-07-16T13:15:39.198Z</time>
      </trkpt>
      <trkpt lat="43.042020" lon="-6.694890">
        <ele>1111.019</ele>
        <time>2026-07-16T13:15:59.198Z</time>
      </trkpt>
      <trkpt lat="43.042060" lon="-6.695020">
        <ele>1114.709</ele>
        <time>2026-07-16T13:16:19.198Z</time>
      </trkpt>
      <trkpt lat="43.043470" lon="-6.696000">
        <ele>1134.658</ele>
        <time>2026-07-16T13:16:39.198Z</time>
      </trkpt>
      <trkpt lat="43.043810" lon="-6.696220">
        <ele>1140.683</ele>
        <time>2026-07-16T13:16:59.198Z</time>
      </trkpt>
      <trkpt lat="43.043990" lon="-6.696750">
        <ele>1144.348</ele>
        <time>2026-07-16T13:17:19.198Z</time>
      </trkpt>
      <trkpt lat="43.044000" lon="-6.698290">
        <ele>1159.676</ele>
        <time>2026-07-16T13:17:39.198Z</time>
      </trkpt>
      <trkpt lat="43.043890" lon="-6.698550">
        <ele>1165.245</ele>
        <time>2026-07-16T13:17:59.198Z</time>
      </trkpt>
      <trkpt lat="43.043550" lon="-6.698980">
        <ele>1159.146</ele>
        <time>2026-07-16T13:18:19.198Z</time>
      </trkpt>
      <trkpt lat="43.043500" lon="-6.699120">
        <ele>1159.280</ele>
        <time>2026-07-16T13:18:39.198Z</time>
      </trkpt>
      <trkpt lat="43.043430" lon="-6.699950">
        <ele>1163.688</ele>
        <time>2026-07-16T13:18:59.198Z</time>
      </trkpt>
      <trkpt lat="43.043300" lon="-6.701690">
        <ele>1178.385</ele>
        <time>2026-07-16T13:19:19.198Z</time>
      </trkpt>
      <trkpt lat="43.043220" lon="-6.701900">
        <ele>1175.646</ele>
        <time>2026-07-16T13:19:39.198Z</time>
      </trkpt>
      <trkpt lat="43.043120" lon="-6.702150">
        <ele>1174.688</ele>
        <time>2026-07-16T13:19:59.198Z</time>
      </trkpt>
      <trkpt lat="43.043010" lon="-6.702830">
        <ele>1190.216</ele>
        <time>2026-07-16T13:20:19.198Z</time>
      </trkpt>
      <trkpt lat="43.042920" lon="-6.702990">
        <ele>1190.309</ele>
        <time>2026-07-16T13:20:39.198Z</time>
      </trkpt>
      <trkpt lat="43.042810" lon="-6.703060">
        <ele>1186.756</ele>
        <time>2026-07-16T13:20:59.198Z</time>
      </trkpt>
      <trkpt lat="43.042740" lon="-6.703120">
        <ele>1184.741</ele>
        <time>2026-07-16T13:21:19.198Z</time>
      </trkpt>
      <trkpt lat="43.042710" lon="-6.703210">
        <ele>1185.316</ele>
        <time>2026-07-16T13:21:39.198Z</time>
      </trkpt>
      <trkpt lat="43.042650" lon="-6.703640">
        <ele>1193.234</ele>
        <time>2026-07-16T13:21:59.198Z</time>
      </trkpt>
      <trkpt lat="43.042290" lon="-6.705010">
        <ele>1200.173</ele>
        <time>2026-07-16T13:22:19.198Z</time>
      </trkpt>
      <trkpt lat="43.042200" lon="-6.705440">
        <ele>1201.714</ele>
        <time>2026-07-16T13:22:39.198Z</time>
      </trkpt>
      <trkpt lat="43.042030" lon="-6.705670">
        <ele>1198.718</ele>
        <time>2026-07-16T13:22:59.198Z</time>
      </trkpt>
      <trkpt lat="43.041840" lon="-6.706020">
        <ele>1201.146</ele>
        <time>2026-07-16T13:23:19.198Z</time>
      </trkpt>
      <trkpt lat="43.041490" lon="-6.706850">
        <ele>1205.463</ele>
        <time>2026-07-16T13:23:39.198Z</time>
      </trkpt>
      <trkpt lat="43.041320" lon="-6.707480">
        <ele>1212.593</ele>
        <time>2026-07-16T13:23:59.198Z</time>
      </trkpt>
      <trkpt lat="43.041300" lon="-6.707610">
        <ele>1215.965</ele>
        <time>2026-07-16T13:24:19.198Z</time>
      </trkpt>
      <trkpt lat="43.041310" lon="-6.707720">
        <ele>1218.321</ele>
        <time>2026-07-16T13:24:39.198Z</time>
      </trkpt>
      <trkpt lat="43.041370" lon="-6.707850">
        <ele>1218.709</ele>
        <time>2026-07-16T13:24:59.198Z</time>
      </trkpt>
      <trkpt lat="43.041400" lon="-6.707970">
        <ele>1218.341</ele>
        <time>2026-07-16T13:25:19.198Z</time>
      </trkpt>
      <trkpt lat="43.041370" lon="-6.708070">
        <ele>1219.446</ele>
        <time>2026-07-16T13:25:39.198Z</time>
      </trkpt>
      <trkpt lat="43.041310" lon="-6.708200">
        <ele>1220.261</ele>
        <time>2026-07-16T13:25:59.198Z</time>
      </trkpt>
      <trkpt lat="43.040930" lon="-6.708620">
        <ele>1224.289</ele>
        <time>2026-07-16T13:26:19.198Z</time>
      </trkpt>
      <trkpt lat="43.040550" lon="-6.708950">
        <ele>1223.568</ele>
        <time>2026-07-16T13:26:39.198Z</time>
      </trkpt>
      <trkpt lat="43.040240" lon="-6.709250">
        <ele>1234.199</ele>
        <time>2026-07-16T13:26:59.198Z</time>
      </trkpt>
      <trkpt lat="43.039900" lon="-6.709920">
        <ele>1239.043</ele>
        <time>2026-07-16T13:27:19.198Z</time>
      </trkpt>
      <trkpt lat="43.039810" lon="-6.710440">
        <ele>1239.631</ele>
        <time>2026-07-16T13:27:39.198Z</time>
      </trkpt>
      <trkpt lat="43.039600" lon="-6.710850">
        <ele>1248.128</ele>
        <time>2026-07-16T13:27:59.198Z</time>
      </trkpt>
      <trkpt lat="43.039540" lon="-6.710990">
        <ele>1252.132</ele>
        <time>2026-07-16T13:28:19.198Z</time>
      </trkpt>
      <trkpt lat="43.039530" lon="-6.711210">
        <ele>1253.192</ele>
        <time>2026-07-16T13:28:39.198Z</time>
      </trkpt>
      <trkpt lat="43.039520" lon="-6.711590">
        <ele>1255.111</ele>
        <time>2026-07-16T13:28:59.198Z</time>
      </trkpt>
      <trkpt lat="43.039520" lon="-6.712130">
        <ele>1261.109</ele>
        <time>2026-07-16T13:29:19.198Z</time>
      </trkpt>
      <trkpt lat="43.039740" lon="-6.712710">
        <ele>1261.485</ele>
        <time>2026-07-16T13:29:39.198Z</time>
      </trkpt>
      <trkpt lat="43.039990" lon="-6.713330">
        <ele>1265.320</ele>
        <time>2026-07-16T13:29:59.198Z</time>
      </trkpt>
      <trkpt lat="43.040170" lon="-6.713710">
        <ele>1271.445</ele>
        <time>2026-07-16T13:30:19.198Z</time>
      </trkpt>
      <trkpt lat="43.040230" lon="-6.714010">
        <ele>1277.673</ele>
        <time>2026-07-16T13:30:39.198Z</time>
      </trkpt>
      <trkpt lat="43.040340" lon="-6.714170">
        <ele>1278.592</ele>
        <time>2026-07-16T13:30:59.198Z</time>
      </trkpt>
      <trkpt lat="43.040650" lon="-6.714430">
        <ele>1279.563</ele>
        <time>2026-07-16T13:31:19.198Z</time>
      </trkpt>
      <trkpt lat="43.041410" lon="-6.714720">
        <ele>1272.877</ele>
        <time>2026-07-16T13:31:39.198Z</time>
      </trkpt>
      <trkpt lat="43.041480" lon="-6.714760">
        <ele>1272.735</ele>
        <time>2026-07-16T13:31:59.198Z</time>
      </trkpt>
      <trkpt lat="43.041500" lon="-6.714800">
        <ele>1272.842</ele>
        <time>2026-07-16T13:32:19.198Z</time>
      </trkpt>
      <trkpt lat="43.041520" lon="-6.714860">
        <ele>1273.196</ele>
        <time>2026-07-16T13:32:39.198Z</time>
      </trkpt>
      <trkpt lat="43.041540" lon="-6.715040">
        <ele>1274.831</ele>
        <time>2026-07-16T13:32:59.198Z</time>
      </trkpt>
      <trkpt lat="43.041490" lon="-6.715350">
        <ele>1283.924</ele>
        <time>2026-07-16T13:33:19.198Z</time>
      </trkpt>
      <trkpt lat="43.041490" lon="-6.715490">
        <ele>1287.909</ele>
        <time>2026-07-16T13:33:39.198Z</time>
      </trkpt>
      <trkpt lat="43.041640" lon="-6.716010">
        <ele>1292.721</ele>
        <time>2026-07-16T13:33:59.198Z</time>
      </trkpt>
      <trkpt lat="43.041840" lon="-6.716510">
        <ele>1296.236</ele>
        <time>2026-07-16T13:34:19.198Z</time>
      </trkpt>
      <trkpt lat="43.042040" lon="-6.716610">
        <ele>1293.741</ele>
        <time>2026-07-16T13:34:39.198Z</time>
      </trkpt>
      <trkpt lat="43.042140" lon="-6.716710">
        <ele>1294.589</ele>
        <time>2026-07-16T13:34:59.198Z</time>
      </trkpt>
      <trkpt lat="43.042170" lon="-6.716920">
        <ele>1298.698</ele>
        <time>2026-07-16T13:35:19.198Z</time>
      </trkpt>
      <trkpt lat="43.042170" lon="-6.717580">
        <ele>1305.119</ele>
        <time>2026-07-16T13:35:39.198Z</time>
      </trkpt>
      <trkpt lat="43.042170" lon="-6.717610">
        <ele>1305.353</ele>
        <time>2026-07-16T13:35:59.198Z</time>
      </trkpt>
      <trkpt lat="43.042310" lon="-6.717940">
        <ele>1306.211</ele>
        <time>2026-07-16T13:36:19.198Z</time>
      </trkpt>
      <trkpt lat="43.042360" lon="-6.718120">
        <ele>1307.378</ele>
        <time>2026-07-16T13:36:39.198Z</time>
      </trkpt>
      <trkpt lat="43.042420" lon="-6.718610">
        <ele>1306.226</ele>
        <time>2026-07-16T13:36:59.198Z</time>
      </trkpt>
      <trkpt lat="43.042500" lon="-6.719110">
        <ele>1310.847</ele>
        <time>2026-07-16T13:37:19.198Z</time>
      </trkpt>
      <trkpt lat="43.042600" lon="-6.719380">
        <ele>1313.011</ele>
        <time>2026-07-16T13:37:39.198Z</time>
      </trkpt>
      <trkpt lat="43.042790" lon="-6.719640">
        <ele>1312.809</ele>
        <time>2026-07-16T13:37:59.198Z</time>
      </trkpt>
      <trkpt lat="43.043000" lon="-6.719720">
        <ele>1313.324</ele>
        <time>2026-07-16T13:38:19.198Z</time>
      </trkpt>
      <trkpt lat="43.043140" lon="-6.719760">
        <ele>1312.489</ele>
        <time>2026-07-16T13:38:39.198Z</time>
      </trkpt>
      <trkpt lat="43.043320" lon="-6.719920">
        <ele>1312.174</ele>
        <time>2026-07-16T13:38:59.198Z</time>
      </trkpt>
      <trkpt lat="43.043380" lon="-6.720070">
        <ele>1312.642</ele>
        <time>2026-07-16T13:39:19.198Z</time>
      </trkpt>
      <trkpt lat="43.043390" lon="-6.720190">
        <ele>1312.981</ele>
        <time>2026-07-16T13:39:39.198Z</time>
      </trkpt>
      <trkpt lat="43.043390" lon="-6.720300">
        <ele>1313.092</ele>
        <time>2026-07-16T13:39:59.198Z</time>
      </trkpt>
    </trkseg>
  </trk></gpx>