<?xml version="1.0" encoding="UTF-8"?>
<gpx creator="Wikiloc - https://www.wikiloc.com" version="1.1" xmlns="http://www.topografix.com/GPX/1/1" xmlns:xsi="http://www.w3.org/2001/XMLSchema-instance" xsi:schemaLocation="http://www.topografix.com/GPX/1/1 http://www.topografix.com/GPX/1/1/gpx.xsd">
  <metadata>
    <name>Wikiloc - PUERTO DE PEÑA NEGRA (por Piedrahita)</name>
    <link href="https://www.wikiloc.com/cycling-trails/puerto-de-pena-negra-por-piedrahita-260503530">
      <text>PUERTO DE PEÑA NEGRA (por Piedrahita) - Wikiloc on Wikiloc</text>
    </link>
    <time>2026-07-16T10:04:32.714Z</time>
  </metadata>
  <trk>
    <name>PUERTO DE PEÑA NEGRA (por Piedrahita) - Wikiloc</name>
    <cmt></cmt>
    <desc></desc>
    <trkseg>
      <trkpt lat="40.464670" lon="-5.329250">
        <ele>1049.277</ele>
        <time>2026-07-16T10:04:32.713Z</time>
      </trkpt>
      <trkpt lat="40.464420" lon="-5.328990">
        <ele>1050.661</ele>
        <time>2026-07-16T10:04:52.713Z</time>
      </trkpt>
      <trkpt lat="40.463850" lon="-5.328860">
        <ele>1051.127</ele>
        <time>2026-07-16T10:05:12.713Z</time>
      </trkpt>
      <trkpt lat="40.463430" lon="-5.328580">
        <ele>1052.509</ele>
        <time>2026-07-16T10:05:32.713Z</time>
      </trkpt>
      <trkpt lat="40.462220" lon="-5.327430">
        <ele>1063.349</ele>
        <time>2026-07-16T10:05:52.713Z</time>
      </trkpt>
      <trkpt lat="40.461740" lon="-5.327400">
        <ele>1067.913</ele>
        <time>2026-07-16T10:06:12.713Z</time>
      </trkpt>
      <trkpt lat="40.460450" lon="-5.328140">
        <ele>1076.817</ele>
        <time>2026-07-16T10:06:32.713Z</time>
      </trkpt>
      <trkpt lat="40.458870" lon="-5.328000">
        <ele>1089.042</ele>
        <time>2026-07-16T10:06:52.713Z</time>
      </trkpt>
      <trkpt lat="40.455020" lon="-5.326310">
        <ele>1110.317</ele>
        <time>2026-07-16T10:07:12.713Z</time>
      </trkpt>
      <trkpt lat="40.453280" lon="-5.324250">
        <ele>1130.390</ele>
        <time>2026-07-16T10:07:32.713Z</time>
      </trkpt>
      <trkpt lat="40.452680" lon="-5.321080">
        <ele>1147.652</ele>
        <time>2026-07-16T10:07:52.713Z</time>
      </trkpt>
      <trkpt lat="40.452210" lon="-5.320080">
        <ele>1148.460</ele>
        <time>2026-07-16T10:08:12.713Z</time>
      </trkpt>
      <trkpt lat="40.452160" lon="-5.319350">
        <ele>1148.257</ele>
        <time>2026-07-16T10:08:32.713Z</time>
      </trkpt>
      <trkpt lat="40.451990" lon="-5.319100">
        <ele>1150.359</ele>
        <time>2026-07-16T10:08:52.713Z</time>
      </trkpt>
      <trkpt lat="40.451380" lon="-5.318780">
        <ele>1156.103</ele>
        <time>2026-07-16T10:09:12.713Z</time>
      </trkpt>
      <trkpt lat="40.450740" lon="-5.319160">
        <ele>1161.423</ele>
        <time>2026-07-16T10:09:32.713Z</time>
      </trkpt>
      <trkpt lat="40.450060" lon="-5.321550">
        <ele>1176.209</ele>
        <time>2026-07-16T10:09:52.713Z</time>
      </trkpt>
      <trkpt lat="40.449520" lon="-5.322070">
        <ele>1180.347</ele>
        <time>2026-07-16T10:10:12.713Z</time>
      </trkpt>
      <trkpt lat="40.449250" lon="-5.322090">
        <ele>1182.081</ele>
        <time>2026-07-16T10:10:32.713Z</time>
      </trkpt>
      <trkpt lat="40.448720" lon="-5.321360">
        <ele>1187.975</ele>
        <time>2026-07-16T10:10:52.713Z</time>
      </trkpt>
      <trkpt lat="40.447900" lon="-5.320900">
        <ele>1192.560</ele>
        <time>2026-07-16T10:11:12.713Z</time>
      </trkpt>
      <trkpt lat="40.447210" lon="-5.319550">
        <ele>1198.525</ele>
        <time>2026-07-16T10:11:32.713Z</time>
      </trkpt>
      <trkpt lat="40.447690" lon="-5.318400">
        <ele>1203.888</ele>
        <time>2026-07-16T10:11:52.713Z</time>
      </trkpt>
      <trkpt lat="40.447720" lon="-5.316720">
        <ele>1210.030</ele>
        <time>2026-07-16T10:12:12.713Z</time>
      </trkpt>
      <trkpt lat="40.446860" lon="-5.314090">
        <ele>1232.998</ele>
        <time>2026-07-16T10:12:32.713Z</time>
      </trkpt>
      <trkpt lat="40.446970" lon="-5.313380">
        <ele>1235.915</ele>
        <time>2026-07-16T10:12:52.713Z</time>
      </trkpt>
      <trkpt lat="40.447520" lon="-5.312730">
        <ele>1236.573</ele>
        <time>2026-07-16T10:13:12.713Z</time>
      </trkpt>
      <trkpt lat="40.447540" lon="-5.312430">
        <ele>1240.285</ele>
        <time>2026-07-16T10:13:32.713Z</time>
      </trkpt>
      <trkpt lat="40.447380" lon="-5.312070">
        <ele>1244.413</ele>
        <time>2026-07-16T10:13:52.713Z</time>
      </trkpt>
      <trkpt lat="40.447160" lon="-5.311970">
        <ele>1248.409</ele>
        <time>2026-07-16T10:14:12.713Z</time>
      </trkpt>
      <trkpt lat="40.446260" lon="-5.313370">
        <ele>1254.429</ele>
        <time>2026-07-16T10:14:32.713Z</time>
      </trkpt>
      <trkpt lat="40.444990" lon="-5.314480">
        <ele>1264.793</ele>
        <time>2026-07-16T10:14:52.713Z</time>
      </trkpt>
      <trkpt lat="40.444080" lon="-5.314890">
        <ele>1271.527</ele>
        <time>2026-07-16T10:15:12.713Z</time>
      </trkpt>
      <trkpt lat="40.443510" lon="-5.314800">
        <ele>1277.482</ele>
        <time>2026-07-16T10:15:32.713Z</time>
      </trkpt>
      <trkpt lat="40.443480" lon="-5.314380">
        <ele>1283.027</ele>
        <time>2026-07-16T10:15:52.713Z</time>
      </trkpt>
      <trkpt lat="40.444690" lon="-5.312350">
        <ele>1288.250</ele>
        <time>2026-07-16T10:16:12.713Z</time>
      </trkpt>
      <trkpt lat="40.444720" lon="-5.311510">
        <ele>1297.752</ele>
        <time>2026-07-16T10:16:32.713Z</time>
      </trkpt>
      <trkpt lat="40.444280" lon="-5.310770">
        <ele>1302.720</ele>
        <time>2026-07-16T10:16:52.713Z</time>
      </trkpt>
      <trkpt lat="40.444140" lon="-5.309740">
        <ele>1308.577</ele>
        <time>2026-07-16T10:17:12.713Z</time>
      </trkpt>
      <trkpt lat="40.443640" lon="-5.309040">
        <ele>1312.885</ele>
        <time>2026-07-16T10:17:32.713Z</time>
      </trkpt>
      <trkpt lat="40.442930" lon="-5.307090">
        <ele>1328.789</ele>
        <time>2026-07-16T10:17:52.713Z</time>
      </trkpt>
      <trkpt lat="40.442220" lon="-5.305810">
        <ele>1337.017</ele>
        <time>2026-07-16T10:18:12.713Z</time>
      </trkpt>
      <trkpt lat="40.442170" lon="-5.305430">
        <ele>1339.009</ele>
        <time>2026-07-16T10:18:32.713Z</time>
      </trkpt>
      <trkpt lat="40.442410" lon="-5.305320">
        <ele>1338.420</ele>
        <time>2026-07-16T10:18:52.713Z</time>
      </trkpt>
      <trkpt lat="40.443540" lon="-5.305590">
        <ele>1345.884</ele>
        <time>2026-07-16T10:19:12.713Z</time>
      </trkpt>
      <trkpt lat="40.444270" lon="-5.306350">
        <ele>1338.638</ele>
        <time>2026-07-16T10:19:32.713Z</time>
      </trkpt>
      <trkpt lat="40.444460" lon="-5.306220">
        <ele>1340.383</ele>
        <time>2026-07-16T10:19:52.713Z</time>
      </trkpt>
      <trkpt lat="40.444460" lon="-5.306030">
        <ele>1343.618</ele>
        <time>2026-07-16T10:20:12.713Z</time>
      </trkpt>
      <trkpt lat="40.444120" lon="-5.305770">
        <ele>1348.431</ele>
        <time>2026-07-16T10:20:32.713Z</time>
      </trkpt>
      <trkpt lat="40.444000" lon="-5.305340">
        <ele>1353.093</ele>
        <time>2026-07-16T10:20:52.713Z</time>
      </trkpt>
      <trkpt lat="40.442390" lon="-5.304470">
        <ele>1362.761</ele>
        <time>2026-07-16T10:21:12.713Z</time>
      </trkpt>
      <trkpt lat="40.441130" lon="-5.303030">
        <ele>1378.378</ele>
        <time>2026-07-16T10:21:32.713Z</time>
      </trkpt>
      <trkpt lat="40.440640" lon="-5.302690">
        <ele>1384.718</ele>
        <time>2026-07-16T10:21:52.713Z</time>
      </trkpt>
      <trkpt lat="40.440170" lon="-5.302740">
        <ele>1386.398</ele>
        <time>2026-07-16T10:22:12.713Z</time>
      </trkpt>
      <trkpt lat="40.440080" lon="-5.302940">
        <ele>1387.217</ele>
        <time>2026-07-16T10:22:32.713Z</time>
      </trkpt>
      <trkpt lat="40.440920" lon="-5.304920">
        <ele>1397.109</ele>
        <time>2026-07-16T10:22:52.713Z</time>
      </trkpt>
      <trkpt lat="40.440980" lon="-5.305770">
        <ele>1399.153</ele>
        <time>2026-07-16T10:23:12.713Z</time>
      </trkpt>
      <trkpt lat="40.440300" lon="-5.306430">
        <ele>1404.437</ele>
        <time>2026-07-16T10:23:32.713Z</time>
      </trkpt>
      <trkpt lat="40.440020" lon="-5.306900">
        <ele>1408.751</ele>
        <time>2026-07-16T10:23:52.713Z</time>
      </trkpt>
      <trkpt lat="40.440340" lon="-5.308270">
        <ele>1415.596</ele>
        <time>2026-07-16T10:24:12.713Z</time>
      </trkpt>
      <trkpt lat="40.439550" lon="-5.309420">
        <ele>1423.491</ele>
        <time>2026-07-16T10:24:32.713Z</time>
      </trkpt>
      <trkpt lat="40.438890" lon="-5.310000">
        <ele>1425.094</ele>
        <time>2026-07-16T10:24:52.713Z</time>
      </trkpt>
      <trkpt lat="40.437470" lon="-5.310100">
        <ele>1441.116</ele>
        <time>2026-07-16T10:25:12.713Z</time>
      </trkpt>
      <trkpt lat="40.436580" lon="-5.310660">
        <ele>1445.214</ele>
        <time>2026-07-16T10:25:32.713Z</time>
      </trkpt>
      <trkpt lat="40.436000" lon="-5.310840">
        <ele>1448.641</ele>
        <time>2026-07-16T10:25:52.713Z</time>
      </trkpt>
      <trkpt lat="40.435460" lon="-5.310670">
        <ele>1452.071</ele>
        <time>2026-07-16T10:26:12.713Z</time>
      </trkpt>
      <trkpt lat="40.434670" lon="-5.309740">
        <ele>1461.741</ele>
        <time>2026-07-16T10:26:32.713Z</time>
      </trkpt>
      <trkpt lat="40.432040" lon="-5.308500">
        <ele>1482.015</ele>
        <time>2026-07-16T10:26:52.713Z</time>
      </trkpt>
      <trkpt lat="40.431850" lon="-5.308540">
        <ele>1481.809</ele>
        <time>2026-07-16T10:27:12.713Z</time>
      </trkpt>
      <trkpt lat="40.431150" lon="-5.309410">
        <ele>1483.199</ele>
        <time>2026-07-16T10:27:32.713Z</time>
      </trkpt>
      <trkpt lat="40.431090" lon="-5.309730">
        <ele>1485.793</ele>
        <time>2026-07-16T10:27:52.713Z</time>
      </trkpt>
      <trkpt lat="40.431790" lon="-5.312400">
        <ele>1494.997</ele>
        <time>2026-07-16T10:28:12.713Z</time>
      </trkpt>
      <trkpt lat="40.431730" lon="-5.313080">
        <ele>1496.812</ele>
        <time>2026-07-16T10:28:32.713Z</time>
      </trkpt>
      <trkpt lat="40.431430" lon="-5.313900">
        <ele>1506.677</ele>
        <time>2026-07-16T10:28:52.713Z</time>
      </trkpt>
      <trkpt lat="40.432280" lon="-5.315620">
        <ele>1510.910</ele>
        <time>2026-07-16T10:29:12.713Z</time>
      </trkpt>
      <trkpt lat="40.432320" lon="-5.316210">
        <ele>1515.032</ele>
        <time>2026-07-16T10:29:32.713Z</time>
      </trkpt>
      <trkpt lat="40.430270" lon="-5.319690">
        <ele>1530.940</ele>
        <time>2026-07-16T10:29:52.713Z</time>
      </trkpt>
      <trkpt lat="40.430010" lon="-5.319810">
        <ele>1532.727</ele>
        <time>2026-07-16T10:30:12.713Z</time>
      </trkpt>
      <trkpt lat="40.428440" lon="-5.319680">
        <ele>1554.534</ele>
        <time>2026-07-16T10:30:32.713Z</time>
      </trkpt>
      <trkpt lat="40.428450" lon="-5.320360">
        <ele>1559.455</ele>
        <time>2026-07-16T10:30:52.713Z</time>
      </trkpt>
      <trkpt lat="40.428700" lon="-5.321250">
        <ele>1553.010</ele>
        <time>2026-07-16T10:31:12.713Z</time>
      </trkpt>
      <trkpt lat="40.428560" lon="-5.321440">
        <ele>1553.709</ele>
        <time>2026-07-16T10:31:32.713Z</time>
      </trkpt>
      <trkpt lat="40.428080" lon="-5.321370">
        <ele>1566.685</ele>
        <time>2026-07-16T10:31:52.713Z</time>
      </trkpt>
      <trkpt lat="40.427890" lon="-5.321640">
        <ele>1566.769</ele>
        <time>2026-07-16T10:32:12.713Z</time>
      </trkpt>
      <trkpt lat="40.427740" lon="-5.322260">
        <ele>1569.643</ele>
        <time>2026-07-16T10:32:32.713Z</time>
      </trkpt>
      <trkpt lat="40.427770" lon="-5.323750">
        <ele>1571.368</ele>
        <time>2026-07-16T10:32:52.713Z</time>
      </trkpt>
      <trkpt lat="40.427630" lon="-5.323950">
        <ele>1577.093</ele>
        <time>2026-07-16T10:33:12.713Z</time>
      </trkpt>
      <trkpt lat="40.427320" lon="-5.322390">
        <ele>1587.036</ele>
        <time>2026-07-16T10:33:32.713Z</time>
      </trkpt>
      <trkpt lat="40.426610" lon="-5.321030">
        <ele>1597.728</ele>
        <time>2026-07-16T10:33:52.713Z</time>
      </trkpt>
      <trkpt lat="40.427060" lon="-5.319780">
        <ele>1593.836</ele>
        <time>2026-07-16T10:34:12.713Z</time>
      </trkpt>
      <trkpt lat="40.427040" lon="-5.319120">
        <ele>1594.073</ele>
        <time>2026-07-16T10:34:32.713Z</time>
      </trkpt>
      <trkpt lat="40.427390" lon="-5.318370">
        <ele>1598.254</ele>
        <time>2026-07-16T10:34:52.713Z</time>
      </trkpt>
      <trkpt lat="40.427740" lon="-5.317980">
        <ele>1599.456</ele>
        <time>2026-07-16T10:35:12.713Z</time>
      </trkpt>
      <trkpt lat="40.428820" lon="-5.317450">
        <ele>1604.111</ele>
        <time>2026-07-16T10:35:32.713Z</time>
      </trkpt>
      <trkpt lat="40.428840" lon="-5.316150">
        <ele>1611.709</ele>
        <time>2026-07-16T10:35:52.713Z</time>
      </trkpt>
      <trkpt lat="40.428170" lon="-5.314910">
        <ele>1625.027</ele>
        <time>2026-07-16T10:36:12.713Z</time>
      </trkpt>
      <trkpt lat="40.427920" lon="-5.312340">
        <ele>1636.971</ele>
        <time>2026-07-16T10:36:32.713Z</time>
      </trkpt>
      <trkpt lat="40.427710" lon="-5.312050">
        <ele>1642.325</ele>
        <time>2026-07-16T10:36:52.713Z</time>
      </trkpt>
      <trkpt lat="40.427230" lon="-5.311820">
        <ele>1647.660</ele>
        <time>2026-07-16T10:37:12.713Z</time>
      </trkpt>
      <trkpt lat="40.427110" lon="-5.311020">
        <ele>1648.195</ele>
        <time>2026-07-16T10:37:32.713Z</time>
      </trkpt>
      <trkpt lat="40.426620" lon="-5.310580">
        <ele>1659.488</ele>
        <time>2026-07-16T10:37:52.713Z</time>
      </trkpt>
      <trkpt lat="40.426390" lon="-5.310000">
        <ele>1659.910</ele>
        <time>2026-07-16T10:38:12.713Z</time>
      </trkpt>
      <trkpt lat="40.426300" lon="-5.309460">
        <ele>1664.898</ele>
        <time>2026-07-16T10:38:32.713Z</time>
      </trkpt>
      <trkpt lat="40.426400" lon="-5.308690">
        <ele>1667.575</ele>
        <time>2026-07-16T10:38:52.713Z</time>
      </trkpt>
      <trkpt lat="40.425870" lon="-5.307890">
        <ele>1678.288</ele>
        <time>2026-07-16T10:39:12.713Z</time>
      </trkpt>
      <trkpt lat="40.425840" lon="-5.307040">
        <ele>1681.724</ele>
        <time>2026-07-16T10:39:32.713Z</time>
      </trkpt>
      <trkpt lat="40.425380" lon="-5.305300">
        <ele>1702.326</ele>
        <time>2026-07-16T10:39:52.713Z</time>
      </trkpt>
      <trkpt lat="40.426360" lon="-5.304280">
        <ele>1707.009</ele>
        <time>2026-07-16T10:40:12.713Z</time>
      </trkpt>
      <trkpt lat="40.427160" lon="-5.304070">
        <ele>1709.650</ele>
        <time>2026-07-16T10:40:32.713Z</time>
      </trkpt>
      <trkpt lat="40.427600" lon="-5.302970">
        <ele>1720.034</ele>
        <time>2026-07-16T10:40:52.713Z</time>
      </trkpt>
      <trkpt lat="40.428130" lon="-5.302190">
        <ele>1721.148</ele>
        <time>2026-07-16T10:41:12.713Z</time>
      </trkpt>
      <trkpt lat="40.429910" lon="-5.300670">
        <ele>1734.343</ele>
        <time>2026-07-16T10:41:32.713Z</time>
      </trkpt>
      <trkpt lat="40.430270" lon="-5.299960">
        <ele>1738.968</ele>
        <time>2026-07-16T10:41:52.713Z</time>
      </trkpt>
      <trkpt lat="40.430820" lon="-5.298080">
        <ele>1747.381</ele>
        <time>2026-07-16T10:42:12.713Z</time>
      </trkpt>
      <trkpt lat="40.430680" lon="-5.298070">
        <ele>1753.443</ele>
        <time>2026-07-16T10:42:32.713Z</time>
      </trkpt>
      <trkpt lat="40.430450" lon="-5.298690">
        <ele>1752.431</ele>
        <time>2026-07-16T10:42:52.713Z</time>
      </trkpt>
      <trkpt lat="40.429490" lon="-5.300110">
        <ele>1763.358</ele>
        <time>2026-07-16T10:43:12.713Z</time>
      </trkpt>
      <trkpt lat="40.428710" lon="-5.300530">
        <ele>1770.569</ele>
        <time>2026-07-16T10:43:32.713Z</time>
      </trkpt>
      <trkpt lat="40.427650" lon="-5.300820">
        <ele>1779.704</ele>
        <time>2026-07-16T10:43:52.713Z</time>
      </trkpt>
      <trkpt lat="40.426750" lon="-5.301560">
        <ele>1788.824</ele>
        <time>2026-07-16T10:44:12.713Z</time>
      </trkpt>
      <trkpt lat="40.424850" lon="-5.302360">
        <ele>1805.609</ele>
        <time>2026-07-16T10:44:32.713Z</time>
      </trkpt>
      <trkpt lat="40.423680" lon="-5.302660">
        <ele>1819.258</ele>
        <time>2026-07-16T10:44:52.713Z</time>
      </trkpt>
      <trkpt lat="40.423450" lon="-5.302900">
        <ele>1822.162</ele>
        <time>2026-07-16T10:45:12.713Z</time>
      </trkpt>
      <trkpt lat="40.423080" lon="-5.304220">
        <ele>1829.316</ele>
        <time>2026-07-16T10:45:32.713Z</time>
      </trkpt>
      <trkpt lat="40.422510" lon="-5.305540">
        <ele>1844.341</ele>
        <time>2026-07-16T10:45:52.713Z</time>
      </trkpt>
      <trkpt lat="40.422670" lon="-5.306040">
        <ele>1841.776</ele>
        <time>2026-07-16T10:46:12.713Z</time>
      </trkpt>
      <trkpt lat="40.422410" lon="-5.310550">
        <ele>1860.339</ele>
        <time>2026-07-16T10:46:32.713Z</time>
      </trkpt>
      <trkpt lat="40.422300" lon="-5.310430">
        <ele>1865.671</ele>
        <time>2026-07-16T10:46:52.713Z</time>
      </trkpt>
      <trkpt lat="40.422360" lon="-5.309330">
        <ele>1867.769</ele>
        <time>2026-07-16T10:47:12.713Z</time>
      </trkpt>
      <trkpt lat="40.421790" lon="-5.307030">
        <ele>1877.986</ele>
        <time>2026-07-16T10:47:32.713Z</time>
      </trkpt>
      <trkpt lat="40.421120" lon="-5.306320">
        <ele>1888.316</ele>
        <time>2026-07-16T10:47:52.713Z</time>
      </trkpt>
      <trkpt lat="40.421010" lon="-5.305840">
        <ele>1888.176</ele>
        <time>2026-07-16T10:48:12.713Z</time>
      </trkpt>
      <trkpt lat="40.421010" lon="-5.305400">
        <ele>1890.113</ele>
        <time>2026-07-16T10:48:32.713Z</time>
      </trkpt>
      <trkpt lat="40.421640" lon="-5.303600">
        <ele>1896.809</ele>
        <time>2026-07-16T10:48:52.713Z</time>
      </trkpt>
      <trkpt lat="40.421700" lon="-5.302050">
        <ele>1906.053</ele>
        <time>2026-07-16T10:49:12.713Z</time>
      </trkpt>
      <trkpt lat="40.422640" lon="-5.299900">
        <ele>1916.117</ele>
        <time>2026-07-16T10:49:32.713Z</time>
      </trkpt>
      <trkpt lat="40.422200" lon="-5.298830">
        <ele>1923.741</ele>
        <time>2026-07-16T10:49:52.713Z</time>
      </trkpt>
    </trkseg>
  </trk></gpx>