<?xml version="1.0" encoding="UTF-8"?>
<gpx creator="Wikiloc - https://www.wikiloc.com" version="1.1" xmlns="http://www.topografix.com/GPX/1/1" xmlns:xsi="http://www.w3.org/2001/XMLSchema-instance" xsi:schemaLocation="http://www.topografix.com/GPX/1/1 http://www.topografix.com/GPX/1/1/gpx.xsd">
  <metadata>
    <name>Wikiloc - PUERTO DE TÍSCAR (por Quesada)</name>
    <link href="https://www.wikiloc.com/cycling-trails/puerto-de-tiscar-por-quesada-251731811">
      <text>PUERTO DE TÍSCAR (por Quesada) - Wikiloc on Wikiloc</text>
    </link>
    <time>2026-07-16T09:52:13.013Z</time>
  </metadata>
  <trk>
    <name>PUERTO DE TÍSCAR (por Quesada) - Wikiloc</name>
    <cmt></cmt>
    <desc></desc>
    <trkseg>
      <trkpt lat="37.840860" lon="-3.066900">
        <ele>699.883</ele>
        <time>2026-07-16T09:52:13.012Z</time>
      </trkpt>
      <trkpt lat="37.840840" lon="-3.066920">
        <ele>699.725</ele>
        <time>2026-07-16T09:52:33.012Z</time>
      </trkpt>
      <trkpt lat="37.840620" lon="-3.067250">
        <ele>700.817</ele>
        <time>2026-07-16T09:52:53.012Z</time>
      </trkpt>
      <trkpt lat="37.840540" lon="-3.067410">
        <ele>703.309</ele>
        <time>2026-07-16T09:53:13.012Z</time>
      </trkpt>
      <trkpt lat="37.840460" lon="-3.067610">
        <ele>704.920</ele>
        <time>2026-07-16T09:53:33.012Z</time>
      </trkpt>
      <trkpt lat="37.840420" lon="-3.067690">
        <ele>704.733</ele>
        <time>2026-07-16T09:53:53.012Z</time>
      </trkpt>
      <trkpt lat="37.840290" lon="-3.067900">
        <ele>702.829</ele>
        <time>2026-07-16T09:54:13.012Z</time>
      </trkpt>
      <trkpt lat="37.840250" lon="-3.068020">
        <ele>703.225</ele>
        <time>2026-07-16T09:54:33.012Z</time>
      </trkpt>
      <trkpt lat="37.840240" lon="-3.068130">
        <ele>705.351</ele>
        <time>2026-07-16T09:54:53.012Z</time>
      </trkpt>
      <trkpt lat="37.840250" lon="-3.068270">
        <ele>708.919</ele>
        <time>2026-07-16T09:55:13.012Z</time>
      </trkpt>
      <trkpt lat="37.840270" lon="-3.068450">
        <ele>713.386</ele>
        <time>2026-07-16T09:55:33.012Z</time>
      </trkpt>
      <trkpt lat="37.840270" lon="-3.068520">
        <ele>714.879</ele>
        <time>2026-07-16T09:55:53.012Z</time>
      </trkpt>
      <trkpt lat="37.840200" lon="-3.068730">
        <ele>717.969</ele>
        <time>2026-07-16T09:56:13.012Z</time>
      </trkpt>
      <trkpt lat="37.840150" lon="-3.068830">
        <ele>718.934</ele>
        <time>2026-07-16T09:56:33.012Z</time>
      </trkpt>
      <trkpt lat="37.840080" lon="-3.068910">
        <ele>718.955</ele>
        <time>2026-07-16T09:56:53.012Z</time>
      </trkpt>
      <trkpt lat="37.839690" lon="-3.069270">
        <ele>720.610</ele>
        <time>2026-07-16T09:57:13.012Z</time>
      </trkpt>
      <trkpt lat="37.839550" lon="-3.069380">
        <ele>723.709</ele>
        <time>2026-07-16T09:57:33.012Z</time>
      </trkpt>
      <trkpt lat="37.839460" lon="-3.069430">
        <ele>724.855</ele>
        <time>2026-07-16T09:57:53.012Z</time>
      </trkpt>
      <trkpt lat="37.839390" lon="-3.069440">
        <ele>725.978</ele>
        <time>2026-07-16T09:58:13.012Z</time>
      </trkpt>
      <trkpt lat="37.839350" lon="-3.069420">
        <ele>726.564</ele>
        <time>2026-07-16T09:58:33.012Z</time>
      </trkpt>
      <trkpt lat="37.839310" lon="-3.069390">
        <ele>727.060</ele>
        <time>2026-07-16T09:58:53.012Z</time>
      </trkpt>
      <trkpt lat="37.839270" lon="-3.069350">
        <ele>727.566</ele>
        <time>2026-07-16T09:59:13.012Z</time>
      </trkpt>
      <trkpt lat="37.839260" lon="-3.069290">
        <ele>727.414</ele>
        <time>2026-07-16T09:59:33.012Z</time>
      </trkpt>
      <trkpt lat="37.839240" lon="-3.069210">
        <ele>727.471</ele>
        <time>2026-07-16T09:59:53.012Z</time>
      </trkpt>
      <trkpt lat="37.839250" lon="-3.068850">
        <ele>722.894</ele>
        <time>2026-07-16T10:00:13.012Z</time>
      </trkpt>
      <trkpt lat="37.839220" lon="-3.068780">
        <ele>722.294</ele>
        <time>2026-07-16T10:00:33.012Z</time>
      </trkpt>
      <trkpt lat="37.839190" lon="-3.068740">
        <ele>722.211</ele>
        <time>2026-07-16T10:00:53.012Z</time>
      </trkpt>
      <trkpt lat="37.839160" lon="-3.068700">
        <ele>722.021</ele>
        <time>2026-07-16T10:01:13.012Z</time>
      </trkpt>
      <trkpt lat="37.839110" lon="-3.068660">
        <ele>721.903</ele>
        <time>2026-07-16T10:01:33.012Z</time>
      </trkpt>
      <trkpt lat="37.838970" lon="-3.068620">
        <ele>723.009</ele>
        <time>2026-07-16T10:01:53.012Z</time>
      </trkpt>
      <trkpt lat="37.838480" lon="-3.068560">
        <ele>729.273</ele>
        <time>2026-07-16T10:02:13.012Z</time>
      </trkpt>
      <trkpt lat="37.838400" lon="-3.068520">
        <ele>730.046</ele>
        <time>2026-07-16T10:02:33.012Z</time>
      </trkpt>
      <trkpt lat="37.838340" lon="-3.068480">
        <ele>730.592</ele>
        <time>2026-07-16T10:02:53.012Z</time>
      </trkpt>
      <trkpt lat="37.838270" lon="-3.068390">
        <ele>731.058</ele>
        <time>2026-07-16T10:03:13.012Z</time>
      </trkpt>
      <trkpt lat="37.838090" lon="-3.068160">
        <ele>730.894</ele>
        <time>2026-07-16T10:03:33.012Z</time>
      </trkpt>
      <trkpt lat="37.837990" lon="-3.068060">
        <ele>730.822</ele>
        <time>2026-07-16T10:03:53.012Z</time>
      </trkpt>
      <trkpt lat="37.837620" lon="-3.067880">
        <ele>733.049</ele>
        <time>2026-07-16T10:04:13.012Z</time>
      </trkpt>
      <trkpt lat="37.836550" lon="-3.067500">
        <ele>739.482</ele>
        <time>2026-07-16T10:04:33.012Z</time>
      </trkpt>
      <trkpt lat="37.836200" lon="-3.067500">
        <ele>739.382</ele>
        <time>2026-07-16T10:04:53.012Z</time>
      </trkpt>
      <trkpt lat="37.835960" lon="-3.067520">
        <ele>738.336</ele>
        <time>2026-07-16T10:05:13.012Z</time>
      </trkpt>
      <trkpt lat="37.835610" lon="-3.067660">
        <ele>741.617</ele>
        <time>2026-07-16T10:05:33.012Z</time>
      </trkpt>
      <trkpt lat="37.835180" lon="-3.067840">
        <ele>747.518</ele>
        <time>2026-07-16T10:05:53.012Z</time>
      </trkpt>
      <trkpt lat="37.835130" lon="-3.067860">
        <ele>747.909</ele>
        <time>2026-07-16T10:06:13.012Z</time>
      </trkpt>
      <trkpt lat="37.834840" lon="-3.067920">
        <ele>749.365</ele>
        <time>2026-07-16T10:06:33.012Z</time>
      </trkpt>
      <trkpt lat="37.834710" lon="-3.067990">
        <ele>750.338</ele>
        <time>2026-07-16T10:06:53.012Z</time>
      </trkpt>
      <trkpt lat="37.834650" lon="-3.068040">
        <ele>750.654</ele>
        <time>2026-07-16T10:07:13.012Z</time>
      </trkpt>
      <trkpt lat="37.834600" lon="-3.068120">
        <ele>751.450</ele>
        <time>2026-07-16T10:07:33.012Z</time>
      </trkpt>
      <trkpt lat="37.834410" lon="-3.068570">
        <ele>756.326</ele>
        <time>2026-07-16T10:07:53.012Z</time>
      </trkpt>
      <trkpt lat="37.834350" lon="-3.068650">
        <ele>757.384</ele>
        <time>2026-07-16T10:08:13.012Z</time>
      </trkpt>
      <trkpt lat="37.834290" lon="-3.068700">
        <ele>757.971</ele>
        <time>2026-07-16T10:08:33.012Z</time>
      </trkpt>
      <trkpt lat="37.834190" lon="-3.068730">
        <ele>758.224</ele>
        <time>2026-07-16T10:08:53.012Z</time>
      </trkpt>
      <trkpt lat="37.834120" lon="-3.068730">
        <ele>758.384</ele>
        <time>2026-07-16T10:09:13.012Z</time>
      </trkpt>
      <trkpt lat="37.833450" lon="-3.068610">
        <ele>762.995</ele>
        <time>2026-07-16T10:09:33.012Z</time>
      </trkpt>
      <trkpt lat="37.833310" lon="-3.068570">
        <ele>765.049</ele>
        <time>2026-07-16T10:09:53.012Z</time>
      </trkpt>
      <trkpt lat="37.833110" lon="-3.068440">
        <ele>766.723</ele>
        <time>2026-07-16T10:10:13.012Z</time>
      </trkpt>
      <trkpt lat="37.832960" lon="-3.068370">
        <ele>767.309</ele>
        <time>2026-07-16T10:10:33.012Z</time>
      </trkpt>
      <trkpt lat="37.832180" lon="-3.068090">
        <ele>775.031</ele>
        <time>2026-07-16T10:10:53.012Z</time>
      </trkpt>
      <trkpt lat="37.831580" lon="-3.067900">
        <ele>780.894</ele>
        <time>2026-07-16T10:11:13.012Z</time>
      </trkpt>
      <trkpt lat="37.831360" lon="-3.067890">
        <ele>783.290</ele>
        <time>2026-07-16T10:11:33.012Z</time>
      </trkpt>
      <trkpt lat="37.831080" lon="-3.067940">
        <ele>786.226</ele>
        <time>2026-07-16T10:11:53.012Z</time>
      </trkpt>
      <trkpt lat="37.830930" lon="-3.067940">
        <ele>787.342</ele>
        <time>2026-07-16T10:12:13.012Z</time>
      </trkpt>
      <trkpt lat="37.830780" lon="-3.067890">
        <ele>787.780</ele>
        <time>2026-07-16T10:12:33.012Z</time>
      </trkpt>
      <trkpt lat="37.830430" lon="-3.067680">
        <ele>786.477</ele>
        <time>2026-07-16T10:12:53.012Z</time>
      </trkpt>
      <trkpt lat="37.830270" lon="-3.067610">
        <ele>785.660</ele>
        <time>2026-07-16T10:13:13.012Z</time>
      </trkpt>
      <trkpt lat="37.829840" lon="-3.067540">
        <ele>789.680</ele>
        <time>2026-07-16T10:13:33.012Z</time>
      </trkpt>
      <trkpt lat="37.829490" lon="-3.067510">
        <ele>793.752</ele>
        <time>2026-07-16T10:13:53.012Z</time>
      </trkpt>
      <trkpt lat="37.829360" lon="-3.067460">
        <ele>793.353</ele>
        <time>2026-07-16T10:14:13.012Z</time>
      </trkpt>
      <trkpt lat="37.829020" lon="-3.067200">
        <ele>791.608</ele>
        <time>2026-07-16T10:14:33.012Z</time>
      </trkpt>
      <trkpt lat="37.828960" lon="-3.067080">
        <ele>792.209</ele>
        <time>2026-07-16T10:14:53.012Z</time>
      </trkpt>
      <trkpt lat="37.828890" lon="-3.066760">
        <ele>793.017</ele>
        <time>2026-07-16T10:15:13.012Z</time>
      </trkpt>
      <trkpt lat="37.828810" lon="-3.066450">
        <ele>794.890</ele>
        <time>2026-07-16T10:15:33.012Z</time>
      </trkpt>
      <trkpt lat="37.828670" lon="-3.066200">
        <ele>797.966</ele>
        <time>2026-07-16T10:15:53.012Z</time>
      </trkpt>
      <trkpt lat="37.828540" lon="-3.066020">
        <ele>799.762</ele>
        <time>2026-07-16T10:16:13.012Z</time>
      </trkpt>
      <trkpt lat="37.828320" lon="-3.065810">
        <ele>802.018</ele>
        <time>2026-07-16T10:16:33.012Z</time>
      </trkpt>
      <trkpt lat="37.828070" lon="-3.065630">
        <ele>804.146</ele>
        <time>2026-07-16T10:16:53.012Z</time>
      </trkpt>
      <trkpt lat="37.827950" lon="-3.065460">
        <ele>806.193</ele>
        <time>2026-07-16T10:17:13.012Z</time>
      </trkpt>
      <trkpt lat="37.827880" lon="-3.065290">
        <ele>807.836</ele>
        <time>2026-07-16T10:17:33.012Z</time>
      </trkpt>
      <trkpt lat="37.827850" lon="-3.065110">
        <ele>808.886</ele>
        <time>2026-07-16T10:17:53.012Z</time>
      </trkpt>
      <trkpt lat="37.827930" lon="-3.064320">
        <ele>808.352</ele>
        <time>2026-07-16T10:18:13.012Z</time>
      </trkpt>
      <trkpt lat="37.827930" lon="-3.064150">
        <ele>808.353</ele>
        <time>2026-07-16T10:18:33.012Z</time>
      </trkpt>
      <trkpt lat="37.827920" lon="-3.064020">
        <ele>808.708</ele>
        <time>2026-07-16T10:18:53.012Z</time>
      </trkpt>
      <trkpt lat="37.827880" lon="-3.063900">
        <ele>809.509</ele>
        <time>2026-07-16T10:19:13.012Z</time>
      </trkpt>
      <trkpt lat="37.827770" lon="-3.063700">
        <ele>812.547</ele>
        <time>2026-07-16T10:19:33.012Z</time>
      </trkpt>
      <trkpt lat="37.827240" lon="-3.062990">
        <ele>819.510</ele>
        <time>2026-07-16T10:19:53.012Z</time>
      </trkpt>
      <trkpt lat="37.827180" lon="-3.062870">
        <ele>820.096</ele>
        <time>2026-07-16T10:20:13.012Z</time>
      </trkpt>
      <trkpt lat="37.827170" lon="-3.062790">
        <ele>820.082</ele>
        <time>2026-07-16T10:20:33.012Z</time>
      </trkpt>
      <trkpt lat="37.827170" lon="-3.062710">
        <ele>820.288</ele>
        <time>2026-07-16T10:20:53.012Z</time>
      </trkpt>
      <trkpt lat="37.827270" lon="-3.062360">
        <ele>820.726</ele>
        <time>2026-07-16T10:21:13.012Z</time>
      </trkpt>
      <trkpt lat="37.827340" lon="-3.062100">
        <ele>822.053</ele>
        <time>2026-07-16T10:21:33.012Z</time>
      </trkpt>
      <trkpt lat="37.827340" lon="-3.061820">
        <ele>824.346</ele>
        <time>2026-07-16T10:21:53.012Z</time>
      </trkpt>
      <trkpt lat="37.827310" lon="-3.061490">
        <ele>827.286</ele>
        <time>2026-07-16T10:22:13.012Z</time>
      </trkpt>
      <trkpt lat="37.827290" lon="-3.061360">
        <ele>828.452</ele>
        <time>2026-07-16T10:22:33.012Z</time>
      </trkpt>
      <trkpt lat="37.827170" lon="-3.060900">
        <ele>831.153</ele>
        <time>2026-07-16T10:22:53.012Z</time>
      </trkpt>
      <trkpt lat="37.827130" lon="-3.060620">
        <ele>831.208</ele>
        <time>2026-07-16T10:23:13.012Z</time>
      </trkpt>
      <trkpt lat="37.827040" lon="-3.060390">
        <ele>833.109</ele>
        <time>2026-07-16T10:23:33.012Z</time>
      </trkpt>
      <trkpt lat="37.827020" lon="-3.060230">
        <ele>834.457</ele>
        <time>2026-07-16T10:23:53.012Z</time>
      </trkpt>
      <trkpt lat="37.827030" lon="-3.060120">
        <ele>835.930</ele>
        <time>2026-07-16T10:24:13.012Z</time>
      </trkpt>
      <trkpt lat="37.827060" lon="-3.060050">
        <ele>836.526</ele>
        <time>2026-07-16T10:24:33.012Z</time>
      </trkpt>
      <trkpt lat="37.827230" lon="-3.059890">
        <ele>836.852</ele>
        <time>2026-07-16T10:24:53.012Z</time>
      </trkpt>
      <trkpt lat="37.827410" lon="-3.059700">
        <ele>836.918</ele>
        <time>2026-07-16T10:25:13.012Z</time>
      </trkpt>
      <trkpt lat="37.827520" lon="-3.059490">
        <ele>837.896</ele>
        <time>2026-07-16T10:25:33.012Z</time>
      </trkpt>
      <trkpt lat="37.827540" lon="-3.059410">
        <ele>838.093</ele>
        <time>2026-07-16T10:25:53.012Z</time>
      </trkpt>
      <trkpt lat="37.827520" lon="-3.059320">
        <ele>838.636</ele>
        <time>2026-07-16T10:26:13.012Z</time>
      </trkpt>
      <trkpt lat="37.827470" lon="-3.059220">
        <ele>839.296</ele>
        <time>2026-07-16T10:26:33.012Z</time>
      </trkpt>
      <trkpt lat="37.827420" lon="-3.059170">
        <ele>839.678</ele>
        <time>2026-07-16T10:26:53.012Z</time>
      </trkpt>
      <trkpt lat="37.827320" lon="-3.059130">
        <ele>840.333</ele>
        <time>2026-07-16T10:27:13.012Z</time>
      </trkpt>
      <trkpt lat="37.827130" lon="-3.059150">
        <ele>841.726</ele>
        <time>2026-07-16T10:27:33.012Z</time>
      </trkpt>
      <trkpt lat="37.826700" lon="-3.059230">
        <ele>846.309</ele>
        <time>2026-07-16T10:27:53.012Z</time>
      </trkpt>
      <trkpt lat="37.826570" lon="-3.059220">
        <ele>848.229</ele>
        <time>2026-07-16T10:28:13.012Z</time>
      </trkpt>
      <trkpt lat="37.826460" lon="-3.059200">
        <ele>849.922</ele>
        <time>2026-07-16T10:28:33.012Z</time>
      </trkpt>
      <trkpt lat="37.826250" lon="-3.059120">
        <ele>851.598</ele>
        <time>2026-07-16T10:28:53.012Z</time>
      </trkpt>
      <trkpt lat="37.826210" lon="-3.059080">
        <ele>851.724</ele>
        <time>2026-07-16T10:29:13.012Z</time>
      </trkpt>
      <trkpt lat="37.826170" lon="-3.059030">
        <ele>852.140</ele>
        <time>2026-07-16T10:29:33.012Z</time>
      </trkpt>
      <trkpt lat="37.826150" lon="-3.058980">
        <ele>852.318</ele>
        <time>2026-07-16T10:29:53.012Z</time>
      </trkpt>
      <trkpt lat="37.826130" lon="-3.058910">
        <ele>852.735</ele>
        <time>2026-07-16T10:30:13.012Z</time>
      </trkpt>
      <trkpt lat="37.826130" lon="-3.058740">
        <ele>853.358</ele>
        <time>2026-07-16T10:30:33.012Z</time>
      </trkpt>
      <trkpt lat="37.826150" lon="-3.058580">
        <ele>853.738</ele>
        <time>2026-07-16T10:30:53.012Z</time>
      </trkpt>
      <trkpt lat="37.826140" lon="-3.058470">
        <ele>854.132</ele>
        <time>2026-07-16T10:31:13.012Z</time>
      </trkpt>
      <trkpt lat="37.825950" lon="-3.057930">
        <ele>855.092</ele>
        <time>2026-07-16T10:31:33.012Z</time>
      </trkpt>
      <trkpt lat="37.825810" lon="-3.057620">
        <ele>854.311</ele>
        <time>2026-07-16T10:31:53.012Z</time>
      </trkpt>
      <trkpt lat="37.825640" lon="-3.057440">
        <ele>855.909</ele>
        <time>2026-07-16T10:32:13.012Z</time>
      </trkpt>
      <trkpt lat="37.825380" lon="-3.057210">
        <ele>857.875</ele>
        <time>2026-07-16T10:32:33.012Z</time>
      </trkpt>
      <trkpt lat="37.825240" lon="-3.057130">
        <ele>859.558</ele>
        <time>2026-07-16T10:32:53.012Z</time>
      </trkpt>
      <trkpt lat="37.825060" lon="-3.057100">
        <ele>861.294</ele>
        <time>2026-07-16T10:33:13.012Z</time>
      </trkpt>
      <trkpt lat="37.824400" lon="-3.057160">
        <ele>863.940</ele>
        <time>2026-07-16T10:33:33.012Z</time>
      </trkpt>
      <trkpt lat="37.824260" lon="-3.057200">
        <ele>864.786</ele>
        <time>2026-07-16T10:33:53.012Z</time>
      </trkpt>
      <trkpt lat="37.824000" lon="-3.057410">
        <ele>869.244</ele>
        <time>2026-07-16T10:34:13.012Z</time>
      </trkpt>
      <trkpt lat="37.823770" lon="-3.057600">
        <ele>872.781</ele>
        <time>2026-07-16T10:34:33.012Z</time>
      </trkpt>
      <trkpt lat="37.823650" lon="-3.057660">
        <ele>873.124</ele>
        <time>2026-07-16T10:34:53.012Z</time>
      </trkpt>
      <trkpt lat="37.823430" lon="-3.057720">
        <ele>874.124</ele>
        <time>2026-07-16T10:35:13.012Z</time>
      </trkpt>
      <trkpt lat="37.823250" lon="-3.057740">
        <ele>875.933</ele>
        <time>2026-07-16T10:35:33.012Z</time>
      </trkpt>
      <trkpt lat="37.822960" lon="-3.057700">
        <ele>879.423</ele>
        <time>2026-07-16T10:35:53.012Z</time>
      </trkpt>
      <trkpt lat="37.822810" lon="-3.057690">
        <ele>880.515</ele>
        <time>2026-07-16T10:36:13.012Z</time>
      </trkpt>
      <trkpt lat="37.822730" lon="-3.057720">
        <ele>881.009</ele>
        <time>2026-07-16T10:36:33.012Z</time>
      </trkpt>
      <trkpt lat="37.822510" lon="-3.057950">
        <ele>884.135</ele>
        <time>2026-07-16T10:36:53.012Z</time>
      </trkpt>
      <trkpt lat="37.821630" lon="-3.059110">
        <ele>891.678</ele>
        <time>2026-07-16T10:37:13.012Z</time>
      </trkpt>
      <trkpt lat="37.820890" lon="-3.060140">
        <ele>901.384</ele>
        <time>2026-07-16T10:37:33.012Z</time>
      </trkpt>
      <trkpt lat="37.820750" lon="-3.060280">
        <ele>902.480</ele>
        <time>2026-07-16T10:37:53.012Z</time>
      </trkpt>
      <trkpt lat="37.820350" lon="-3.060560">
        <ele>904.396</ele>
        <time>2026-07-16T10:38:13.012Z</time>
      </trkpt>
      <trkpt lat="37.820220" lon="-3.060600">
        <ele>904.424</ele>
        <time>2026-07-16T10:38:33.012Z</time>
      </trkpt>
      <trkpt lat="37.820000" lon="-3.060620">
        <ele>902.661</ele>
        <time>2026-07-16T10:38:53.012Z</time>
      </trkpt>
      <trkpt lat="37.819440" lon="-3.060620">
        <ele>906.074</ele>
        <time>2026-07-16T10:39:13.012Z</time>
      </trkpt>
      <trkpt lat="37.819340" lon="-3.060600">
        <ele>907.724</ele>
        <time>2026-07-16T10:39:33.012Z</time>
      </trkpt>
      <trkpt lat="37.819220" lon="-3.060530">
        <ele>909.393</ele>
        <time>2026-07-16T10:39:53.012Z</time>
      </trkpt>
      <trkpt lat="37.818830" lon="-3.060160">
        <ele>912.265</ele>
        <time>2026-07-16T10:40:13.012Z</time>
      </trkpt>
      <trkpt lat="37.818530" lon="-3.059880">
        <ele>914.221</ele>
        <time>2026-07-16T10:40:33.012Z</time>
      </trkpt>
      <trkpt lat="37.818370" lon="-3.059800">
        <ele>915.809</ele>
        <time>2026-07-16T10:40:53.012Z</time>
      </trkpt>
      <trkpt lat="37.817510" lon="-3.059540">
        <ele>916.331</ele>
        <time>2026-07-16T10:41:13.012Z</time>
      </trkpt>
      <trkpt lat="37.817020" lon="-3.059450">
        <ele>924.824</ele>
        <time>2026-07-16T10:41:33.012Z</time>
      </trkpt>
      <trkpt lat="37.816620" lon="-3.059420">
        <ele>928.970</ele>
        <time>2026-07-16T10:41:53.012Z</time>
      </trkpt>
      <trkpt lat="37.815830" lon="-3.059410">
        <ele>937.096</ele>
        <time>2026-07-16T10:42:13.012Z</time>
      </trkpt>
      <trkpt lat="37.815710" lon="-3.059450">
        <ele>937.282</ele>
        <time>2026-07-16T10:42:33.012Z</time>
      </trkpt>
      <trkpt lat="37.815370" lon="-3.059670">
        <ele>939.520</ele>
        <time>2026-07-16T10:42:53.012Z</time>
      </trkpt>
      <trkpt lat="37.815140" lon="-3.059750">
        <ele>940.887</ele>
        <time>2026-07-16T10:43:13.012Z</time>
      </trkpt>
      <trkpt lat="37.814930" lon="-3.059790">
        <ele>941.920</ele>
        <time>2026-07-16T10:43:33.012Z</time>
      </trkpt>
      <trkpt lat="37.814800" lon="-3.059800">
        <ele>942.080</ele>
        <time>2026-07-16T10:43:53.012Z</time>
      </trkpt>
      <trkpt lat="37.814660" lon="-3.059780">
        <ele>941.831</ele>
        <time>2026-07-16T10:44:13.012Z</time>
      </trkpt>
      <trkpt lat="37.814370" lon="-3.059670">
        <ele>944.061</ele>
        <time>2026-07-16T10:44:33.012Z</time>
      </trkpt>
      <trkpt lat="37.814220" lon="-3.059570">
        <ele>947.907</ele>
        <time>2026-07-16T10:44:53.012Z</time>
      </trkpt>
      <trkpt lat="37.814060" lon="-3.059350">
        <ele>949.909</ele>
        <time>2026-07-16T10:45:13.012Z</time>
      </trkpt>
      <trkpt lat="37.813790" lon="-3.058970">
        <ele>952.475</ele>
        <time>2026-07-16T10:45:33.012Z</time>
      </trkpt>
      <trkpt lat="37.813660" lon="-3.058840">
        <ele>953.128</ele>
        <time>2026-07-16T10:45:53.012Z</time>
      </trkpt>
      <trkpt lat="37.813070" lon="-3.058320">
        <ele>954.464</ele>
        <time>2026-07-16T10:46:13.012Z</time>
      </trkpt>
      <trkpt lat="37.812930" lon="-3.058220">
        <ele>955.560</ele>
        <time>2026-07-16T10:46:33.012Z</time>
      </trkpt>
      <trkpt lat="37.812550" lon="-3.058090">
        <ele>961.376</ele>
        <time>2026-07-16T10:46:53.012Z</time>
      </trkpt>
      <trkpt lat="37.811800" lon="-3.057880">
        <ele>964.994</ele>
        <time>2026-07-16T10:47:13.012Z</time>
      </trkpt>
      <trkpt lat="37.811610" lon="-3.057840">
        <ele>965.341</ele>
        <time>2026-07-16T10:47:33.012Z</time>
      </trkpt>
      <trkpt lat="37.811490" lon="-3.057830">
        <ele>965.184</ele>
        <time>2026-07-16T10:47:53.012Z</time>
      </trkpt>
      <trkpt lat="37.810780" lon="-3.057840">
        <ele>966.934</ele>
        <time>2026-07-16T10:48:13.012Z</time>
      </trkpt>
      <trkpt lat="37.810200" lon="-3.057830">
        <ele>974.944</ele>
        <time>2026-07-16T10:48:33.012Z</time>
      </trkpt>
      <trkpt lat="37.810080" lon="-3.057810">
        <ele>976.305</ele>
        <time>2026-07-16T10:48:53.012Z</time>
      </trkpt>
      <trkpt lat="37.809920" lon="-3.057770">
        <ele>977.115</ele>
        <time>2026-07-16T10:49:13.012Z</time>
      </trkpt>
      <trkpt lat="37.809220" lon="-3.057350">
        <ele>980.009</ele>
        <time>2026-07-16T10:49:33.012Z</time>
      </trkpt>
      <trkpt lat="37.808970" lon="-3.057200">
        <ele>983.276</ele>
        <time>2026-07-16T10:49:53.012Z</time>
      </trkpt>
      <trkpt lat="37.808840" lon="-3.057070">
        <ele>984.149</ele>
        <time>2026-07-16T10:50:13.012Z</time>
      </trkpt>
      <trkpt lat="37.808330" lon="-3.056450">
        <ele>987.975</ele>
        <time>2026-07-16T10:50:33.012Z</time>
      </trkpt>
      <trkpt lat="37.808190" lon="-3.056300">
        <ele>988.891</ele>
        <time>2026-07-16T10:50:53.012Z</time>
      </trkpt>
      <trkpt lat="37.808020" lon="-3.056190">
        <ele>990.867</ele>
        <time>2026-07-16T10:51:13.012Z</time>
      </trkpt>
      <trkpt lat="37.807870" lon="-3.056110">
        <ele>992.385</ele>
        <time>2026-07-16T10:51:33.012Z</time>
      </trkpt>
      <trkpt lat="37.807670" lon="-3.056040">
        <ele>993.512</ele>
        <time>2026-07-16T10:51:53.012Z</time>
      </trkpt>
      <trkpt lat="37.807070" lon="-3.055920">
        <ele>996.955</ele>
        <time>2026-07-16T10:52:13.012Z</time>
      </trkpt>
      <trkpt lat="37.806530" lon="-3.055760">
        <ele>1000.065</ele>
        <time>2026-07-16T10:52:33.012Z</time>
      </trkpt>
      <trkpt lat="37.806370" lon="-3.055700">
        <ele>999.591</ele>
        <time>2026-07-16T10:52:53.012Z</time>
      </trkpt>
      <trkpt lat="37.806270" lon="-3.055690">
        <ele>998.881</ele>
        <time>2026-07-16T10:53:13.012Z</time>
      </trkpt>
      <trkpt lat="37.806160" lon="-3.055700">
        <ele>998.419</ele>
        <time>2026-07-16T10:53:33.012Z</time>
      </trkpt>
      <trkpt lat="37.805570" lon="-3.055890">
        <ele>998.309</ele>
        <time>2026-07-16T10:53:53.012Z</time>
      </trkpt>
      <trkpt lat="37.804960" lon="-3.056170">
        <ele>998.941</ele>
        <time>2026-07-16T10:54:13.012Z</time>
      </trkpt>
      <trkpt lat="37.804830" lon="-3.056220">
        <ele>997.774</ele>
        <time>2026-07-16T10:54:33.012Z</time>
      </trkpt>
      <trkpt lat="37.804680" lon="-3.056230">
        <ele>995.410</ele>
        <time>2026-07-16T10:54:53.012Z</time>
      </trkpt>
      <trkpt lat="37.804450" lon="-3.056210">
        <ele>992.356</ele>
        <time>2026-07-16T10:55:13.012Z</time>
      </trkpt>
      <trkpt lat="37.804360" lon="-3.056210">
        <ele>991.952</ele>
        <time>2026-07-16T10:55:33.012Z</time>
      </trkpt>
      <trkpt lat="37.804280" lon="-3.056230">
        <ele>992.630</ele>
        <time>2026-07-16T10:55:53.012Z</time>
      </trkpt>
      <trkpt lat="37.804020" lon="-3.056380">
        <ele>1001.327</ele>
        <time>2026-07-16T10:56:13.012Z</time>
      </trkpt>
      <trkpt lat="37.803970" lon="-3.056400">
        <ele>1003.130</ele>
        <time>2026-07-16T10:56:33.012Z</time>
      </trkpt>
      <trkpt lat="37.803880" lon="-3.056410">
        <ele>1004.360</ele>
        <time>2026-07-16T10:56:53.012Z</time>
      </trkpt>
      <trkpt lat="37.803700" lon="-3.056350">
        <ele>1002.548</ele>
        <time>2026-07-16T10:57:13.012Z</time>
      </trkpt>
      <trkpt lat="37.803600" lon="-3.056280">
        <ele>999.861</ele>
        <time>2026-07-16T10:57:33.012Z</time>
      </trkpt>
      <trkpt lat="37.803510" lon="-3.056170">
        <ele>1004.917</ele>
        <time>2026-07-16T10:57:53.012Z</time>
      </trkpt>
      <trkpt lat="37.803210" lon="-3.055380">
        <ele>1002.209</ele>
        <time>2026-07-16T10:58:13.012Z</time>
      </trkpt>
      <trkpt lat="37.803090" lon="-3.055020">
        <ele>1001.426</ele>
        <time>2026-07-16T10:58:33.012Z</time>
      </trkpt>
      <trkpt lat="37.802930" lon="-3.054700">
        <ele>1006.779</ele>
        <time>2026-07-16T10:58:53.012Z</time>
      </trkpt>
      <trkpt lat="37.802680" lon="-3.054220">
        <ele>1012.495</ele>
        <time>2026-07-16T10:59:13.012Z</time>
      </trkpt>
      <trkpt lat="37.802530" lon="-3.054050">
        <ele>1016.551</ele>
        <time>2026-07-16T10:59:33.012Z</time>
      </trkpt>
      <trkpt lat="37.802390" lon="-3.053940">
        <ele>1019.147</ele>
        <time>2026-07-16T10:59:53.012Z</time>
      </trkpt>
      <trkpt lat="37.802160" lon="-3.053830">
        <ele>1021.025</ele>
        <time>2026-07-16T11:00:13.012Z</time>
      </trkpt>
      <trkpt lat="37.801940" lon="-3.053760">
        <ele>1021.312</ele>
        <time>2026-07-16T11:00:33.012Z</time>
      </trkpt>
      <trkpt lat="37.801790" lon="-3.053750">
        <ele>1021.375</ele>
        <time>2026-07-16T11:00:53.012Z</time>
      </trkpt>
      <trkpt lat="37.801250" lon="-3.053820">
        <ele>1023.345</ele>
        <time>2026-07-16T11:01:13.012Z</time>
      </trkpt>
      <trkpt lat="37.801160" lon="-3.053860">
        <ele>1024.891</ele>
        <time>2026-07-16T11:01:33.012Z</time>
      </trkpt>
      <trkpt lat="37.800890" lon="-3.054030">
        <ele>1026.181</ele>
        <time>2026-07-16T11:01:53.012Z</time>
      </trkpt>
      <trkpt lat="37.800430" lon="-3.054420">
        <ele>1034.619</ele>
        <time>2026-07-16T11:02:13.012Z</time>
      </trkpt>
      <trkpt lat="37.800310" lon="-3.054500">
        <ele>1039.709</ele>
        <time>2026-07-16T11:02:33.012Z</time>
      </trkpt>
      <trkpt lat="37.800000" lon="-3.054600">
        <ele>1050.671</ele>
        <time>2026-07-16T11:02:53.012Z</time>
      </trkpt>
      <trkpt lat="37.799890" lon="-3.054620">
        <ele>1052.994</ele>
        <time>2026-07-16T11:03:13.012Z</time>
      </trkpt>
      <trkpt lat="37.799670" lon="-3.054590">
        <ele>1051.980</ele>
        <time>2026-07-16T11:03:33.012Z</time>
      </trkpt>
      <trkpt lat="37.799560" lon="-3.054570">
        <ele>1051.186</ele>
        <time>2026-07-16T11:03:53.012Z</time>
      </trkpt>
      <trkpt lat="37.799510" lon="-3.054560">
        <ele>1050.522</ele>
        <time>2026-07-16T11:04:13.012Z</time>
      </trkpt>
      <trkpt lat="37.799460" lon="-3.054560">
        <ele>1051.170</ele>
        <time>2026-07-16T11:04:33.012Z</time>
      </trkpt>
      <trkpt lat="37.799060" lon="-3.054520">
        <ele>1039.317</ele>
        <time>2026-07-16T11:04:53.012Z</time>
      </trkpt>
      <trkpt lat="37.798840" lon="-3.054470">
        <ele>1031.040</ele>
        <time>2026-07-16T11:05:13.012Z</time>
      </trkpt>
      <trkpt lat="37.798800" lon="-3.054470">
        <ele>1030.140</ele>
        <time>2026-07-16T11:05:33.012Z</time>
      </trkpt>
      <trkpt lat="37.798720" lon="-3.054490">
        <ele>1030.076</ele>
        <time>2026-07-16T11:05:53.012Z</time>
      </trkpt>
      <trkpt lat="37.798670" lon="-3.054520">
        <ele>1031.390</ele>
        <time>2026-07-16T11:06:13.012Z</time>
      </trkpt>
      <trkpt lat="37.798620" lon="-3.054580">
        <ele>1034.919</ele>
        <time>2026-07-16T11:06:33.012Z</time>
      </trkpt>
      <trkpt lat="37.798510" lon="-3.054820">
        <ele>1048.609</ele>
        <time>2026-07-16T11:06:53.012Z</time>
      </trkpt>
      <trkpt lat="37.798440" lon="-3.054900">
        <ele>1050.299</ele>
        <time>2026-07-16T11:07:13.012Z</time>
      </trkpt>
      <trkpt lat="37.798370" lon="-3.054930">
        <ele>1049.942</ele>
        <time>2026-07-16T11:07:33.012Z</time>
      </trkpt>
      <trkpt lat="37.798310" lon="-3.054940">
        <ele>1050.118</ele>
        <time>2026-07-16T11:07:53.012Z</time>
      </trkpt>
      <trkpt lat="37.798260" lon="-3.054930">
        <ele>1051.054</ele>
        <time>2026-07-16T11:08:13.012Z</time>
      </trkpt>
      <trkpt lat="37.798230" lon="-3.054910">
        <ele>1051.270</ele>
        <time>2026-07-16T11:08:33.012Z</time>
      </trkpt>
      <trkpt lat="37.798180" lon="-3.054870">
        <ele>1051.378</ele>
        <time>2026-07-16T11:08:53.012Z</time>
      </trkpt>
      <trkpt lat="37.798110" lon="-3.054780">
        <ele>1050.445</ele>
        <time>2026-07-16T11:09:13.012Z</time>
      </trkpt>
      <trkpt lat="37.797960" lon="-3.054480">
        <ele>1048.818</ele>
        <time>2026-07-16T11:09:33.012Z</time>
      </trkpt>
      <trkpt lat="37.797850" lon="-3.054080">
        <ele>1050.638</ele>
        <time>2026-07-16T11:09:53.012Z</time>
      </trkpt>
      <trkpt lat="37.797800" lon="-3.053910">
        <ele>1048.888</ele>
        <time>2026-07-16T11:10:13.012Z</time>
      </trkpt>
      <trkpt lat="37.797730" lon="-3.053800">
        <ele>1051.424</ele>
        <time>2026-07-16T11:10:33.012Z</time>
      </trkpt>
      <trkpt lat="37.797500" lon="-3.053490">
        <ele>1060.226</ele>
        <time>2026-07-16T11:10:53.012Z</time>
      </trkpt>
      <trkpt lat="37.797310" lon="-3.053350">
        <ele>1068.909</ele>
        <time>2026-07-16T11:11:13.012Z</time>
      </trkpt>
      <trkpt lat="37.797130" lon="-3.053130">
        <ele>1072.450</ele>
        <time>2026-07-16T11:11:33.012Z</time>
      </trkpt>
      <trkpt lat="37.796800" lon="-3.052750">
        <ele>1071.653</ele>
        <time>2026-07-16T11:11:53.012Z</time>
      </trkpt>
      <trkpt lat="37.796230" lon="-3.051990">
        <ele>1072.589</ele>
        <time>2026-07-16T11:12:13.012Z</time>
      </trkpt>
      <trkpt lat="37.796100" lon="-3.051830">
        <ele>1073.085</ele>
        <time>2026-07-16T11:12:33.012Z</time>
      </trkpt>
      <trkpt lat="37.795970" lon="-3.051680">
        <ele>1073.291</ele>
        <time>2026-07-16T11:12:53.012Z</time>
      </trkpt>
      <trkpt lat="37.795670" lon="-3.051400">
        <ele>1073.279</ele>
        <time>2026-07-16T11:13:13.012Z</time>
      </trkpt>
      <trkpt lat="37.795510" lon="-3.051300">
        <ele>1074.276</ele>
        <time>2026-07-16T11:13:33.012Z</time>
      </trkpt>
      <trkpt lat="37.795360" lon="-3.051240">
        <ele>1075.959</ele>
        <time>2026-07-16T11:13:53.012Z</time>
      </trkpt>
      <trkpt lat="37.795070" lon="-3.051210">
        <ele>1081.279</ele>
        <time>2026-07-16T11:14:13.012Z</time>
      </trkpt>
      <trkpt lat="37.794880" lon="-3.051190">
        <ele>1083.895</ele>
        <time>2026-07-16T11:14:33.012Z</time>
      </trkpt>
      <trkpt lat="37.794770" lon="-3.051140">
        <ele>1084.049</ele>
        <time>2026-07-16T11:14:53.012Z</time>
      </trkpt>
      <trkpt lat="37.794660" lon="-3.051000">
        <ele>1083.923</ele>
        <time>2026-07-16T11:15:13.012Z</time>
      </trkpt>
      <trkpt lat="37.794590" lon="-3.050830">
        <ele>1082.609</ele>
        <time>2026-07-16T11:15:33.012Z</time>
      </trkpt>
      <trkpt lat="37.794560" lon="-3.050660">
        <ele>1081.541</ele>
        <time>2026-07-16T11:15:53.012Z</time>
      </trkpt>
      <trkpt lat="37.794490" lon="-3.050520">
        <ele>1081.924</ele>
        <time>2026-07-16T11:16:13.012Z</time>
      </trkpt>
      <trkpt lat="37.794330" lon="-3.050330">
        <ele>1086.530</ele>
        <time>2026-07-16T11:16:33.012Z</time>
      </trkpt>
      <trkpt lat="37.794190" lon="-3.050050">
        <ele>1086.266</ele>
        <time>2026-07-16T11:16:53.012Z</time>
      </trkpt>
      <trkpt lat="37.794060" lon="-3.049810">
        <ele>1088.162</ele>
        <time>2026-07-16T11:17:13.012Z</time>
      </trkpt>
      <trkpt lat="37.793960" lon="-3.049670">
        <ele>1087.710</ele>
        <time>2026-07-16T11:17:33.012Z</time>
      </trkpt>
      <trkpt lat="37.793720" lon="-3.049460">
        <ele>1088.787</ele>
        <time>2026-07-16T11:17:53.012Z</time>
      </trkpt>
      <trkpt lat="37.793270" lon="-3.048980">
        <ele>1095.460</ele>
        <time>2026-07-16T11:18:13.012Z</time>
      </trkpt>
      <trkpt lat="37.793050" lon="-3.048780">
        <ele>1097.040</ele>
        <time>2026-07-16T11:18:33.012Z</time>
      </trkpt>
      <trkpt lat="37.792900" lon="-3.048580">
        <ele>1096.858</ele>
        <time>2026-07-16T11:18:53.012Z</time>
      </trkpt>
      <trkpt lat="37.792840" lon="-3.048450">
        <ele>1098.152</ele>
        <time>2026-07-16T11:19:13.012Z</time>
      </trkpt>
      <trkpt lat="37.792830" lon="-3.048340">
        <ele>1098.017</ele>
        <time>2026-07-16T11:19:33.012Z</time>
      </trkpt>
      <trkpt lat="37.792860" lon="-3.048120">
        <ele>1093.809</ele>
        <time>2026-07-16T11:19:53.012Z</time>
      </trkpt>
      <trkpt lat="37.792880" lon="-3.047790">
        <ele>1089.947</ele>
        <time>2026-07-16T11:20:13.012Z</time>
      </trkpt>
      <trkpt lat="37.792850" lon="-3.047530">
        <ele>1088.320</ele>
        <time>2026-07-16T11:20:33.012Z</time>
      </trkpt>
      <trkpt lat="37.792740" lon="-3.047220">
        <ele>1095.976</ele>
        <time>2026-07-16T11:20:53.012Z</time>
      </trkpt>
      <trkpt lat="37.792660" lon="-3.047100">
        <ele>1099.252</ele>
        <time>2026-07-16T11:21:13.012Z</time>
      </trkpt>
      <trkpt lat="37.792610" lon="-3.047010">
        <ele>1102.018</ele>
        <time>2026-07-16T11:21:33.012Z</time>
      </trkpt>
      <trkpt lat="37.792390" lon="-3.046230">
        <ele>1106.626</ele>
        <time>2026-07-16T11:21:53.012Z</time>
      </trkpt>
      <trkpt lat="37.792350" lon="-3.045890">
        <ele>1104.073</ele>
        <time>2026-07-16T11:22:13.012Z</time>
      </trkpt>
      <trkpt lat="37.792310" lon="-3.045740">
        <ele>1102.266</ele>
        <time>2026-07-16T11:22:33.012Z</time>
      </trkpt>
      <trkpt lat="37.792260" lon="-3.045650">
        <ele>1101.626</ele>
        <time>2026-07-16T11:22:53.012Z</time>
      </trkpt>
      <trkpt lat="37.792180" lon="-3.045530">
        <ele>1099.725</ele>
        <time>2026-07-16T11:23:13.012Z</time>
      </trkpt>
      <trkpt lat="37.792060" lon="-3.045440">
        <ele>1100.326</ele>
        <time>2026-07-16T11:23:33.012Z</time>
      </trkpt>
      <trkpt lat="37.791960" lon="-3.045410">
        <ele>1102.208</ele>
        <time>2026-07-16T11:23:53.012Z</time>
      </trkpt>
      <trkpt lat="37.791730" lon="-3.045390">
        <ele>1106.609</ele>
        <time>2026-07-16T11:24:13.012Z</time>
      </trkpt>
      <trkpt lat="37.791510" lon="-3.045440">
        <ele>1112.014</ele>
        <time>2026-07-16T11:24:33.012Z</time>
      </trkpt>
      <trkpt lat="37.791310" lon="-3.045480">
        <ele>1114.877</ele>
        <time>2026-07-16T11:24:53.012Z</time>
      </trkpt>
      <trkpt lat="37.791190" lon="-3.045480">
        <ele>1115.093</ele>
        <time>2026-07-16T11:25:13.012Z</time>
      </trkpt>
      <trkpt lat="37.791100" lon="-3.045440">
        <ele>1114.259</ele>
        <time>2026-07-16T11:25:33.012Z</time>
      </trkpt>
      <trkpt lat="37.790730" lon="-3.045090">
        <ele>1110.235</ele>
        <time>2026-07-16T11:25:53.012Z</time>
      </trkpt>
      <trkpt lat="37.790530" lon="-3.044840">
        <ele>1113.983</ele>
        <time>2026-07-16T11:26:13.012Z</time>
      </trkpt>
      <trkpt lat="37.790420" lon="-3.044670">
        <ele>1118.390</ele>
        <time>2026-07-16T11:26:33.012Z</time>
      </trkpt>
      <trkpt lat="37.790410" lon="-3.044580">
        <ele>1119.323</ele>
        <time>2026-07-16T11:26:53.012Z</time>
      </trkpt>
      <trkpt lat="37.790420" lon="-3.044490">
        <ele>1119.533</ele>
        <time>2026-07-16T11:27:13.012Z</time>
      </trkpt>
      <trkpt lat="37.790450" lon="-3.044390">
        <ele>1119.412</ele>
        <time>2026-07-16T11:27:33.012Z</time>
      </trkpt>
      <trkpt lat="37.790520" lon="-3.044260">
        <ele>1119.232</ele>
        <time>2026-07-16T11:27:53.012Z</time>
      </trkpt>
      <trkpt lat="37.790540" lon="-3.044200">
        <ele>1119.805</ele>
        <time>2026-07-16T11:28:13.012Z</time>
      </trkpt>
      <trkpt lat="37.790550" lon="-3.044070">
        <ele>1120.509</ele>
        <time>2026-07-16T11:28:33.012Z</time>
      </trkpt>
      <trkpt lat="37.790550" lon="-3.043690">
        <ele>1116.223</ele>
        <time>2026-07-16T11:28:53.012Z</time>
      </trkpt>
      <trkpt lat="37.790530" lon="-3.043610">
        <ele>1115.156</ele>
        <time>2026-07-16T11:29:13.012Z</time>
      </trkpt>
      <trkpt lat="37.790500" lon="-3.043560">
        <ele>1114.272</ele>
        <time>2026-07-16T11:29:33.012Z</time>
      </trkpt>
      <trkpt lat="37.790440" lon="-3.043500">
        <ele>1114.568</ele>
        <time>2026-07-16T11:29:53.012Z</time>
      </trkpt>
      <trkpt lat="37.790050" lon="-3.043260">
        <ele>1124.114</ele>
        <time>2026-07-16T11:30:13.012Z</time>
      </trkpt>
      <trkpt lat="37.789870" lon="-3.043110">
        <ele>1127.222</ele>
        <time>2026-07-16T11:30:33.012Z</time>
      </trkpt>
      <trkpt lat="37.789790" lon="-3.043010">
        <ele>1128.249</ele>
        <time>2026-07-16T11:30:53.012Z</time>
      </trkpt>
      <trkpt lat="37.789710" lon="-3.042860">
        <ele>1127.992</ele>
        <time>2026-07-16T11:31:13.012Z</time>
      </trkpt>
      <trkpt lat="37.789670" lon="-3.042680">
        <ele>1126.262</ele>
        <time>2026-07-16T11:31:33.012Z</time>
      </trkpt>
      <trkpt lat="37.789630" lon="-3.042530">
        <ele>1126.168</ele>
        <time>2026-07-16T11:31:53.012Z</time>
      </trkpt>
      <trkpt lat="37.789530" lon="-3.042240">
        <ele>1128.142</ele>
        <time>2026-07-16T11:32:13.012Z</time>
      </trkpt>
      <trkpt lat="37.789400" lon="-3.042020">
        <ele>1131.926</ele>
        <time>2026-07-16T11:32:33.012Z</time>
      </trkpt>
      <trkpt lat="37.789320" lon="-3.041750">
        <ele>1131.209</ele>
        <time>2026-07-16T11:32:53.012Z</time>
      </trkpt>
      <trkpt lat="37.789300" lon="-3.041440">
        <ele>1132.538</ele>
        <time>2026-07-16T11:33:13.012Z</time>
      </trkpt>
      <trkpt lat="37.789320" lon="-3.041240">
        <ele>1128.921</ele>
        <time>2026-07-16T11:33:33.012Z</time>
      </trkpt>
      <trkpt lat="37.789290" lon="-3.041150">
        <ele>1129.137</ele>
        <time>2026-07-16T11:33:53.012Z</time>
      </trkpt>
      <trkpt lat="37.789240" lon="-3.041060">
        <ele>1130.523</ele>
        <time>2026-07-16T11:34:13.012Z</time>
      </trkpt>
      <trkpt lat="37.789160" lon="-3.040990">
        <ele>1133.839</ele>
        <time>2026-07-16T11:34:33.012Z</time>
      </trkpt>
      <trkpt lat="37.789080" lon="-3.040970">
        <ele>1135.087</ele>
        <time>2026-07-16T11:34:53.012Z</time>
      </trkpt>
      <trkpt lat="37.788990" lon="-3.040990">
        <ele>1137.184</ele>
        <time>2026-07-16T11:35:13.012Z</time>
      </trkpt>
      <trkpt lat="37.788620" lon="-3.041260">
        <ele>1144.767</ele>
        <time>2026-07-16T11:35:33.012Z</time>
      </trkpt>
      <trkpt lat="37.788400" lon="-3.041360">
        <ele>1149.337</ele>
        <time>2026-07-16T11:35:53.012Z</time>
      </trkpt>
      <trkpt lat="37.788290" lon="-3.041390">
        <ele>1151.513</ele>
        <time>2026-07-16T11:36:13.012Z</time>
      </trkpt>
      <trkpt lat="37.788220" lon="-3.041390">
        <ele>1152.243</ele>
        <time>2026-07-16T11:36:33.012Z</time>
      </trkpt>
      <trkpt lat="37.788130" lon="-3.041350">
        <ele>1152.007</ele>
        <time>2026-07-16T11:36:53.012Z</time>
      </trkpt>
      <trkpt lat="37.787620" lon="-3.040890">
        <ele>1145.209</ele>
        <time>2026-07-16T11:37:13.012Z</time>
      </trkpt>
      <trkpt lat="37.787520" lon="-3.040810">
        <ele>1145.663</ele>
        <time>2026-07-16T11:37:33.012Z</time>
      </trkpt>
      <trkpt lat="37.787360" lon="-3.040750">
        <ele>1147.256</ele>
        <time>2026-07-16T11:37:53.012Z</time>
      </trkpt>
      <trkpt lat="37.787140" lon="-3.040690">
        <ele>1150.432</ele>
        <time>2026-07-16T11:38:13.012Z</time>
      </trkpt>
      <trkpt lat="37.787040" lon="-3.040640">
        <ele>1152.788</ele>
        <time>2026-07-16T11:38:33.012Z</time>
      </trkpt>
      <trkpt lat="37.786940" lon="-3.040500">
        <ele>1154.324</ele>
        <time>2026-07-16T11:38:53.012Z</time>
      </trkpt>
      <trkpt lat="37.786690" lon="-3.040090">
        <ele>1157.372</ele>
        <time>2026-07-16T11:39:13.012Z</time>
      </trkpt>
      <trkpt lat="37.786640" lon="-3.039940">
        <ele>1157.119</ele>
        <time>2026-07-16T11:39:33.012Z</time>
      </trkpt>
      <trkpt lat="37.786600" lon="-3.039740">
        <ele>1156.852</ele>
        <time>2026-07-16T11:39:53.012Z</time>
      </trkpt>
      <trkpt lat="37.786490" lon="-3.039180">
        <ele>1162.112</ele>
        <time>2026-07-16T11:40:13.012Z</time>
      </trkpt>
    </trkseg>
  </trk></gpx>