<?xml version="1.0" encoding="UTF-8"?><gpx creator="https://climbfinder.com" version="1.1"  xmlns:xsi="http://www.w3.org/2001/XMLSchema-instance"  xmlns="http://www.topografix.com/GPX/1/1" xsi:schemaLocation="http://www.topografix.com/GPX/1/1 http://www.topografix.com/GPX/1/1/gpx.xsd">
  <metadata>
    <name>puerto-de-las-abejas-desde-alozaina</name>
    <author>
      <link href="https://climbfinder.com">
        <text>climbfinder</text>
        <type>text/html</type>
      </link>
    </author>
  </metadata>
  <trk>
    <name>puerto-de-las-abejas-desde-alozaina</name>
    <trkseg>
			<trkpt lat="36.72932" lon="-4.86511">
        <ele>382.1</ele>
        <time>2026-08-05T09:00:00Z</time>
      </trkpt>
			<trkpt lat="36.72945" lon="-4.86534">
        <ele>382.4</ele>
        <time>2026-08-05T09:00:03Z</time>
      </trkpt>
			<trkpt lat="36.7295" lon="-4.86546">
        <ele>382.5</ele>
        <time>2026-08-05T09:00:05Z</time>
      </trkpt>
			<trkpt lat="36.72953" lon="-4.86561">
        <ele>382.7</ele>
        <time>2026-08-05T09:00:07Z</time>
      </trkpt>
			<trkpt lat="36.72958" lon="-4.86604">
        <ele>383.2</ele>
        <time>2026-08-05T09:00:14Z</time>
      </trkpt>
			<trkpt lat="36.72963" lon="-4.86647">
        <ele>383.8</ele>
        <time>2026-08-05T09:00:20Z</time>
      </trkpt>
			<trkpt lat="36.72964" lon="-4.86662">
        <ele>384</ele>
        <time>2026-08-05T09:00:22Z</time>
      </trkpt>
			<trkpt lat="36.72963" lon="-4.8668">
        <ele>384.3</ele>
        <time>2026-08-05T09:00:25Z</time>
      </trkpt>
			<trkpt lat="36.72957" lon="-4.867">
        <ele>384.7</ele>
        <time>2026-08-05T09:00:28Z</time>
      </trkpt>
			<trkpt lat="36.72951" lon="-4.86713">
        <ele>385</ele>
        <time>2026-08-05T09:00:31Z</time>
      </trkpt>
			<trkpt lat="36.72946" lon="-4.86723">
        <ele>385.2</ele>
        <time>2026-08-05T09:00:32Z</time>
      </trkpt>
			<trkpt lat="36.72932" lon="-4.86746">
        <ele>385.9</ele>
        <time>2026-08-05T09:00:38Z</time>
      </trkpt>
			<trkpt lat="36.72918" lon="-4.86769">
        <ele>386.5</ele>
        <time>2026-08-05T09:00:42Z</time>
      </trkpt>
			<trkpt lat="36.72913" lon="-4.8678">
        <ele>386.9</ele>
        <time>2026-08-05T09:00:44Z</time>
      </trkpt>
			<trkpt lat="36.72911" lon="-4.8679">
        <ele>387.1</ele>
        <time>2026-08-05T09:00:46Z</time>
      </trkpt>
			<trkpt lat="36.72911" lon="-4.86799">
        <ele>387.4</ele>
        <time>2026-08-05T09:00:48Z</time>
      </trkpt>
			<trkpt lat="36.72913" lon="-4.86807">
        <ele>387.6</ele>
        <time>2026-08-05T09:00:49Z</time>
      </trkpt>
			<trkpt lat="36.72916" lon="-4.86814">
        <ele>387.8</ele>
        <time>2026-08-05T09:00:51Z</time>
      </trkpt>
			<trkpt lat="36.7292" lon="-4.86821">
        <ele>388</ele>
        <time>2026-08-05T09:00:52Z</time>
      </trkpt>
			<trkpt lat="36.72927" lon="-4.86828">
        <ele>388.3</ele>
        <time>2026-08-05T09:00:54Z</time>
      </trkpt>
			<trkpt lat="36.72958" lon="-4.8685">
        <ele>389.6</ele>
        <time>2026-08-05T09:01:02Z</time>
      </trkpt>
			<trkpt lat="36.72988" lon="-4.86872">
        <ele>390.8</ele>
        <time>2026-08-05T09:01:10Z</time>
      </trkpt>
			<trkpt lat="36.72996" lon="-4.86881">
        <ele>391.2</ele>
        <time>2026-08-05T09:01:12Z</time>
      </trkpt>
			<trkpt lat="36.73002" lon="-4.86888">
        <ele>391.4</ele>
        <time>2026-08-05T09:01:14Z</time>
      </trkpt>
			<trkpt lat="36.73006" lon="-4.86897">
        <ele>391.7</ele>
        <time>2026-08-05T09:01:16Z</time>
      </trkpt>
			<trkpt lat="36.73009" lon="-4.86907">
        <ele>392</ele>
        <time>2026-08-05T09:01:18Z</time>
      </trkpt>
			<trkpt lat="36.7301" lon="-4.86916">
        <ele>392.2</ele>
        <time>2026-08-05T09:01:19Z</time>
      </trkpt>
			<trkpt lat="36.7301" lon="-4.86926">
        <ele>392.5</ele>
        <time>2026-08-05T09:01:21Z</time>
      </trkpt>
			<trkpt lat="36.73008" lon="-4.86937">
        <ele>392.8</ele>
        <time>2026-08-05T09:01:23Z</time>
      </trkpt>
			<trkpt lat="36.73002" lon="-4.86962">
        <ele>393.4</ele>
        <time>2026-08-05T09:01:27Z</time>
      </trkpt>
			<trkpt lat="36.73001" lon="-4.86973">
        <ele>393.7</ele>
        <time>2026-08-05T09:01:29Z</time>
      </trkpt>
			<trkpt lat="36.73003" lon="-4.86983">
        <ele>393.9</ele>
        <time>2026-08-05T09:01:31Z</time>
      </trkpt>
			<trkpt lat="36.73007" lon="-4.86991">
        <ele>394.1</ele>
        <time>2026-08-05T09:01:32Z</time>
      </trkpt>
			<trkpt lat="36.73012" lon="-4.86998">
        <ele>394.3</ele>
        <time>2026-08-05T09:01:34Z</time>
      </trkpt>
			<trkpt lat="36.73032" lon="-4.8702">
        <ele>395.1</ele>
        <time>2026-08-05T09:01:40Z</time>
      </trkpt>
			<trkpt lat="36.73052" lon="-4.87043">
        <ele>395.9</ele>
        <time>2026-08-05T09:01:46Z</time>
      </trkpt>
			<trkpt lat="36.73057" lon="-4.8705">
        <ele>396.1</ele>
        <time>2026-08-05T09:01:47Z</time>
      </trkpt>
			<trkpt lat="36.73061" lon="-4.87058">
        <ele>396.3</ele>
        <time>2026-08-05T09:01:49Z</time>
      </trkpt>
			<trkpt lat="36.73064" lon="-4.87067">
        <ele>396.5</ele>
        <time>2026-08-05T09:01:50Z</time>
      </trkpt>
			<trkpt lat="36.73069" lon="-4.8709">
        <ele>397.2</ele>
        <time>2026-08-05T09:01:54Z</time>
      </trkpt>
			<trkpt lat="36.73072" lon="-4.871">
        <ele>397.4</ele>
        <time>2026-08-05T09:01:56Z</time>
      </trkpt>
			<trkpt lat="36.73076" lon="-4.87107">
        <ele>397.7</ele>
        <time>2026-08-05T09:01:58Z</time>
      </trkpt>
			<trkpt lat="36.73085" lon="-4.87117">
        <ele>398.1</ele>
        <time>2026-08-05T09:02:01Z</time>
      </trkpt>
			<trkpt lat="36.73092" lon="-4.87121">
        <ele>398.4</ele>
        <time>2026-08-05T09:02:02Z</time>
      </trkpt>
			<trkpt lat="36.73118" lon="-4.87135">
        <ele>399.5</ele>
        <time>2026-08-05T09:02:09Z</time>
      </trkpt>
			<trkpt lat="36.73126" lon="-4.87142">
        <ele>399.9</ele>
        <time>2026-08-05T09:02:11Z</time>
      </trkpt>
			<trkpt lat="36.73132" lon="-4.87149">
        <ele>400.3</ele>
        <time>2026-08-05T09:02:13Z</time>
      </trkpt>
			<trkpt lat="36.73138" lon="-4.87158">
        <ele>400.8</ele>
        <time>2026-08-05T09:02:16Z</time>
      </trkpt>
			<trkpt lat="36.73143" lon="-4.87169">
        <ele>401.3</ele>
        <time>2026-08-05T09:02:18Z</time>
      </trkpt>
			<trkpt lat="36.73159" lon="-4.87208">
        <ele>403.2</ele>
        <time>2026-08-05T09:02:29Z</time>
      </trkpt>
			<trkpt lat="36.73174" lon="-4.87248">
        <ele>405.3</ele>
        <time>2026-08-05T09:02:39Z</time>
      </trkpt>
			<trkpt lat="36.73181" lon="-4.8726">
        <ele>406.2</ele>
        <time>2026-08-05T09:02:43Z</time>
      </trkpt>
			<trkpt lat="36.73186" lon="-4.87268">
        <ele>406.8</ele>
        <time>2026-08-05T09:02:45Z</time>
      </trkpt>
			<trkpt lat="36.73194" lon="-4.87274">
        <ele>407.4</ele>
        <time>2026-08-05T09:02:48Z</time>
      </trkpt>
			<trkpt lat="36.73201" lon="-4.87279">
        <ele>408</ele>
        <time>2026-08-05T09:02:51Z</time>
      </trkpt>
			<trkpt lat="36.7321" lon="-4.87282">
        <ele>408.7</ele>
        <time>2026-08-05T09:02:54Z</time>
      </trkpt>
			<trkpt lat="36.73222" lon="-4.87284">
        <ele>409.7</ele>
        <time>2026-08-05T09:02:58Z</time>
      </trkpt>
			<trkpt lat="36.73234" lon="-4.87284">
        <ele>410.6</ele>
        <time>2026-08-05T09:03:02Z</time>
      </trkpt>
			<trkpt lat="36.73277" lon="-4.87281">
        <ele>414.3</ele>
        <time>2026-08-05T09:03:19Z</time>
      </trkpt>
			<trkpt lat="36.73287" lon="-4.87282">
        <ele>415.2</ele>
        <time>2026-08-05T09:03:23Z</time>
      </trkpt>
			<trkpt lat="36.73296" lon="-4.87285">
        <ele>416.1</ele>
        <time>2026-08-05T09:03:27Z</time>
      </trkpt>
			<trkpt lat="36.73304" lon="-4.8729">
        <ele>416.9</ele>
        <time>2026-08-05T09:03:31Z</time>
      </trkpt>
			<trkpt lat="36.73337" lon="-4.87314">
        <ele>420.5</ele>
        <time>2026-08-05T09:03:46Z</time>
      </trkpt>
			<trkpt lat="36.73369" lon="-4.87339">
        <ele>424.1</ele>
        <time>2026-08-05T09:04:03Z</time>
      </trkpt>
			<trkpt lat="36.73402" lon="-4.87363">
        <ele>427.8</ele>
        <time>2026-08-05T09:04:20Z</time>
      </trkpt>
			<trkpt lat="36.73411" lon="-4.87371">
        <ele>429</ele>
        <time>2026-08-05T09:04:26Z</time>
      </trkpt>
			<trkpt lat="36.73416" lon="-4.87378">
        <ele>429.7</ele>
        <time>2026-08-05T09:04:29Z</time>
      </trkpt>
			<trkpt lat="36.73421" lon="-4.87388">
        <ele>430.7</ele>
        <time>2026-08-05T09:04:33Z</time>
      </trkpt>
			<trkpt lat="36.73426" lon="-4.87401">
        <ele>431.9</ele>
        <time>2026-08-05T09:04:38Z</time>
      </trkpt>
			<trkpt lat="36.73432" lon="-4.87426">
        <ele>434.1</ele>
        <time>2026-08-05T09:04:48Z</time>
      </trkpt>
			<trkpt lat="36.73436" lon="-4.87435">
        <ele>435</ele>
        <time>2026-08-05T09:04:52Z</time>
      </trkpt>
			<trkpt lat="36.7344" lon="-4.87442">
        <ele>435.8</ele>
        <time>2026-08-05T09:04:55Z</time>
      </trkpt>
			<trkpt lat="36.73446" lon="-4.87448">
        <ele>436.6</ele>
        <time>2026-08-05T09:04:59Z</time>
      </trkpt>
			<trkpt lat="36.73453" lon="-4.87451">
        <ele>437.4</ele>
        <time>2026-08-05T09:05:02Z</time>
      </trkpt>
			<trkpt lat="36.73461" lon="-4.87453">
        <ele>438.4</ele>
        <time>2026-08-05T09:05:07Z</time>
      </trkpt>
			<trkpt lat="36.73469" lon="-4.87454">
        <ele>439.3</ele>
        <time>2026-08-05T09:05:11Z</time>
      </trkpt>
			<trkpt lat="36.73479" lon="-4.87453">
        <ele>440.5</ele>
        <time>2026-08-05T09:05:16Z</time>
      </trkpt>
			<trkpt lat="36.73491" lon="-4.87449">
        <ele>442</ele>
        <time>2026-08-05T09:05:22Z</time>
      </trkpt>
			<trkpt lat="36.73519" lon="-4.87438">
        <ele>445.6</ele>
        <time>2026-08-05T09:05:37Z</time>
      </trkpt>
			<trkpt lat="36.73546" lon="-4.87427">
        <ele>449.3</ele>
        <time>2026-08-05T09:05:53Z</time>
      </trkpt>
			<trkpt lat="36.73561" lon="-4.87423">
        <ele>451.4</ele>
        <time>2026-08-05T09:06:02Z</time>
      </trkpt>
			<trkpt lat="36.73576" lon="-4.8742">
        <ele>453.3</ele>
        <time>2026-08-05T09:06:09Z</time>
      </trkpt>
			<trkpt lat="36.73612" lon="-4.87421">
        <ele>457.9</ele>
        <time>2026-08-05T09:06:27Z</time>
      </trkpt>
			<trkpt lat="36.73627" lon="-4.87419">
        <ele>459.8</ele>
        <time>2026-08-05T09:06:35Z</time>
      </trkpt>
			<trkpt lat="36.7365" lon="-4.87415">
        <ele>462.5</ele>
        <time>2026-08-05T09:06:46Z</time>
      </trkpt>
			<trkpt lat="36.7366" lon="-4.87412">
        <ele>463.7</ele>
        <time>2026-08-05T09:06:51Z</time>
      </trkpt>
			<trkpt lat="36.73669" lon="-4.87406">
        <ele>464.7</ele>
        <time>2026-08-05T09:06:56Z</time>
      </trkpt>
			<trkpt lat="36.73689" lon="-4.87389">
        <ele>467</ele>
        <time>2026-08-05T09:07:07Z</time>
      </trkpt>
			<trkpt lat="36.73697" lon="-4.87386">
        <ele>467.7</ele>
        <time>2026-08-05T09:07:10Z</time>
      </trkpt>
			<trkpt lat="36.73707" lon="-4.87386">
        <ele>468.5</ele>
        <time>2026-08-05T09:07:13Z</time>
      </trkpt>
			<trkpt lat="36.73714" lon="-4.87388">
        <ele>469.1</ele>
        <time>2026-08-05T09:07:16Z</time>
      </trkpt>
			<trkpt lat="36.7372" lon="-4.87393">
        <ele>469.6</ele>
        <time>2026-08-05T09:07:19Z</time>
      </trkpt>
			<trkpt lat="36.73725" lon="-4.874">
        <ele>470.2</ele>
        <time>2026-08-05T09:07:21Z</time>
      </trkpt>
			<trkpt lat="36.73728" lon="-4.87408">
        <ele>470.6</ele>
        <time>2026-08-05T09:07:23Z</time>
      </trkpt>
			<trkpt lat="36.73729" lon="-4.87416">
        <ele>471</ele>
        <time>2026-08-05T09:07:25Z</time>
      </trkpt>
			<trkpt lat="36.73729" lon="-4.87424">
        <ele>471.4</ele>
        <time>2026-08-05T09:07:27Z</time>
      </trkpt>
			<trkpt lat="36.73727" lon="-4.87433">
        <ele>471.8</ele>
        <time>2026-08-05T09:07:29Z</time>
      </trkpt>
			<trkpt lat="36.73723" lon="-4.87441">
        <ele>472.1</ele>
        <time>2026-08-05T09:07:31Z</time>
      </trkpt>
			<trkpt lat="36.73711" lon="-4.87457">
        <ele>472.9</ele>
        <time>2026-08-05T09:07:35Z</time>
      </trkpt>
			<trkpt lat="36.73692" lon="-4.8748">
        <ele>473.6</ele>
        <time>2026-08-05T09:07:40Z</time>
      </trkpt>
			<trkpt lat="36.73673" lon="-4.87503">
        <ele>474.1</ele>
        <time>2026-08-05T09:07:46Z</time>
      </trkpt>
			<trkpt lat="36.73652" lon="-4.87526">
        <ele>474.3</ele>
        <time>2026-08-05T09:07:50Z</time>
      </trkpt>
			<trkpt lat="36.73622" lon="-4.87558">
        <ele>474.4</ele>
        <time>2026-08-05T09:07:56Z</time>
      </trkpt>
			<trkpt lat="36.73591" lon="-4.87589">
        <ele>474.3</ele>
        <time>2026-08-05T09:08:02Z</time>
      </trkpt>
			<trkpt lat="36.73586" lon="-4.87596">
        <ele>474.3</ele>
        <time>2026-08-05T09:08:03Z</time>
      </trkpt>
			<trkpt lat="36.73583" lon="-4.87604">
        <ele>474.4</ele>
        <time>2026-08-05T09:08:04Z</time>
      </trkpt>
			<trkpt lat="36.7358" lon="-4.87617">
        <ele>474.4</ele>
        <time>2026-08-05T09:08:06Z</time>
      </trkpt>
			<trkpt lat="36.7358" lon="-4.87632">
        <ele>474.5</ele>
        <time>2026-08-05T09:08:08Z</time>
      </trkpt>
			<trkpt lat="36.7358" lon="-4.87653">
        <ele>474.7</ele>
        <time>2026-08-05T09:08:11Z</time>
      </trkpt>
			<trkpt lat="36.73581" lon="-4.87666">
        <ele>474.9</ele>
        <time>2026-08-05T09:08:13Z</time>
      </trkpt>
			<trkpt lat="36.73584" lon="-4.87677">
        <ele>475.1</ele>
        <time>2026-08-05T09:08:15Z</time>
      </trkpt>
			<trkpt lat="36.7359" lon="-4.87685">
        <ele>475.3</ele>
        <time>2026-08-05T09:08:17Z</time>
      </trkpt>
			<trkpt lat="36.73596" lon="-4.87691">
        <ele>475.5</ele>
        <time>2026-08-05T09:08:18Z</time>
      </trkpt>
			<trkpt lat="36.73603" lon="-4.87695">
        <ele>475.7</ele>
        <time>2026-08-05T09:08:19Z</time>
      </trkpt>
			<trkpt lat="36.73611" lon="-4.87697">
        <ele>476</ele>
        <time>2026-08-05T09:08:21Z</time>
      </trkpt>
			<trkpt lat="36.73649" lon="-4.877">
        <ele>477.5</ele>
        <time>2026-08-05T09:08:31Z</time>
      </trkpt>
			<trkpt lat="36.73659" lon="-4.877">
        <ele>478</ele>
        <time>2026-08-05T09:08:33Z</time>
      </trkpt>
			<trkpt lat="36.73669" lon="-4.87695">
        <ele>478.5</ele>
        <time>2026-08-05T09:08:36Z</time>
      </trkpt>
			<trkpt lat="36.7369" lon="-4.87682">
        <ele>479.9</ele>
        <time>2026-08-05T09:08:43Z</time>
      </trkpt>
			<trkpt lat="36.737" lon="-4.87678">
        <ele>480.5</ele>
        <time>2026-08-05T09:08:46Z</time>
      </trkpt>
			<trkpt lat="36.73709" lon="-4.87677">
        <ele>481.1</ele>
        <time>2026-08-05T09:08:49Z</time>
      </trkpt>
			<trkpt lat="36.7372" lon="-4.87677">
        <ele>481.9</ele>
        <time>2026-08-05T09:08:52Z</time>
      </trkpt>
			<trkpt lat="36.73729" lon="-4.8768">
        <ele>482.5</ele>
        <time>2026-08-05T09:08:55Z</time>
      </trkpt>
			<trkpt lat="36.73738" lon="-4.87686">
        <ele>483.3</ele>
        <time>2026-08-05T09:08:58Z</time>
      </trkpt>
			<trkpt lat="36.73746" lon="-4.87693">
        <ele>484</ele>
        <time>2026-08-05T09:09:01Z</time>
      </trkpt>
			<trkpt lat="36.73752" lon="-4.877">
        <ele>484.7</ele>
        <time>2026-08-05T09:09:05Z</time>
      </trkpt>
			<trkpt lat="36.73757" lon="-4.87709">
        <ele>485.4</ele>
        <time>2026-08-05T09:09:08Z</time>
      </trkpt>
			<trkpt lat="36.73762" lon="-4.87722">
        <ele>486.5</ele>
        <time>2026-08-05T09:09:13Z</time>
      </trkpt>
			<trkpt lat="36.73771" lon="-4.87749">
        <ele>488.6</ele>
        <time>2026-08-05T09:09:22Z</time>
      </trkpt>
			<trkpt lat="36.73776" lon="-4.87762">
        <ele>489.7</ele>
        <time>2026-08-05T09:09:27Z</time>
      </trkpt>
			<trkpt lat="36.73782" lon="-4.87771">
        <ele>490.6</ele>
        <time>2026-08-05T09:09:32Z</time>
      </trkpt>
			<trkpt lat="36.73788" lon="-4.87777">
        <ele>491.5</ele>
        <time>2026-08-05T09:09:35Z</time>
      </trkpt>
			<trkpt lat="36.73796" lon="-4.87781">
        <ele>492.4</ele>
        <time>2026-08-05T09:09:39Z</time>
      </trkpt>
			<trkpt lat="36.73804" lon="-4.87783">
        <ele>493.3</ele>
        <time>2026-08-05T09:09:43Z</time>
      </trkpt>
			<trkpt lat="36.73815" lon="-4.87784">
        <ele>494.4</ele>
        <time>2026-08-05T09:09:48Z</time>
      </trkpt>
			<trkpt lat="36.7386" lon="-4.8778">
        <ele>499.3</ele>
        <time>2026-08-05T09:10:11Z</time>
      </trkpt>
			<trkpt lat="36.73904" lon="-4.87775">
        <ele>504.4</ele>
        <time>2026-08-05T09:10:33Z</time>
      </trkpt>
			<trkpt lat="36.73925" lon="-4.87776">
        <ele>506.7</ele>
        <time>2026-08-05T09:10:43Z</time>
      </trkpt>
			<trkpt lat="36.73935" lon="-4.87779">
        <ele>507.9</ele>
        <time>2026-08-05T09:10:49Z</time>
      </trkpt>
			<trkpt lat="36.73943" lon="-4.87785">
        <ele>508.8</ele>
        <time>2026-08-05T09:10:53Z</time>
      </trkpt>
			<trkpt lat="36.7395" lon="-4.87794">
        <ele>509.9</ele>
        <time>2026-08-05T09:10:58Z</time>
      </trkpt>
			<trkpt lat="36.73955" lon="-4.87805">
        <ele>511</ele>
        <time>2026-08-05T09:11:03Z</time>
      </trkpt>
			<trkpt lat="36.73958" lon="-4.87817">
        <ele>512</ele>
        <time>2026-08-05T09:11:07Z</time>
      </trkpt>
			<trkpt lat="36.73958" lon="-4.87829">
        <ele>513</ele>
        <time>2026-08-05T09:11:12Z</time>
      </trkpt>
			<trkpt lat="36.73956" lon="-4.87842">
        <ele>513.9</ele>
        <time>2026-08-05T09:11:16Z</time>
      </trkpt>
			<trkpt lat="36.73951" lon="-4.87854">
        <ele>514.9</ele>
        <time>2026-08-05T09:11:20Z</time>
      </trkpt>
			<trkpt lat="36.73944" lon="-4.87865">
        <ele>516</ele>
        <time>2026-08-05T09:11:25Z</time>
      </trkpt>
			<trkpt lat="36.73936" lon="-4.87874">
        <ele>517</ele>
        <time>2026-08-05T09:11:29Z</time>
      </trkpt>
			<trkpt lat="36.73915" lon="-4.87885">
        <ele>519</ele>
        <time>2026-08-05T09:11:39Z</time>
      </trkpt>
			<trkpt lat="36.73892" lon="-4.87892">
        <ele>521.1</ele>
        <time>2026-08-05T09:11:48Z</time>
      </trkpt>
			<trkpt lat="36.73869" lon="-4.87898">
        <ele>523.1</ele>
        <time>2026-08-05T09:11:57Z</time>
      </trkpt>
			<trkpt lat="36.73859" lon="-4.87904">
        <ele>524</ele>
        <time>2026-08-05T09:12:01Z</time>
      </trkpt>
			<trkpt lat="36.73851" lon="-4.87914">
        <ele>525</ele>
        <time>2026-08-05T09:12:06Z</time>
      </trkpt>
			<trkpt lat="36.73846" lon="-4.87925">
        <ele>525.8</ele>
        <time>2026-08-05T09:12:09Z</time>
      </trkpt>
			<trkpt lat="36.73843" lon="-4.87937">
        <ele>526.7</ele>
        <time>2026-08-05T09:12:13Z</time>
      </trkpt>
			<trkpt lat="36.73842" lon="-4.8795">
        <ele>527.6</ele>
        <time>2026-08-05T09:12:17Z</time>
      </trkpt>
			<trkpt lat="36.73845" lon="-4.87962">
        <ele>528.5</ele>
        <time>2026-08-05T09:12:21Z</time>
      </trkpt>
			<trkpt lat="36.7385" lon="-4.87974">
        <ele>529.5</ele>
        <time>2026-08-05T09:12:26Z</time>
      </trkpt>
			<trkpt lat="36.73856" lon="-4.87984">
        <ele>530.4</ele>
        <time>2026-08-05T09:12:30Z</time>
      </trkpt>
			<trkpt lat="36.73885" lon="-4.8802">
        <ele>534.3</ele>
        <time>2026-08-05T09:12:48Z</time>
      </trkpt>
			<trkpt lat="36.7389" lon="-4.8803">
        <ele>535.2</ele>
        <time>2026-08-05T09:12:52Z</time>
      </trkpt>
			<trkpt lat="36.73895" lon="-4.88049">
        <ele>536.8</ele>
        <time>2026-08-05T09:12:59Z</time>
      </trkpt>
			<trkpt lat="36.73895" lon="-4.88066">
        <ele>538.2</ele>
        <time>2026-08-05T09:13:05Z</time>
      </trkpt>
			<trkpt lat="36.73892" lon="-4.88083">
        <ele>539.6</ele>
        <time>2026-08-05T09:13:11Z</time>
      </trkpt>
			<trkpt lat="36.73885" lon="-4.88097">
        <ele>540.9</ele>
        <time>2026-08-05T09:13:17Z</time>
      </trkpt>
			<trkpt lat="36.73873" lon="-4.88109">
        <ele>542.5</ele>
        <time>2026-08-05T09:13:24Z</time>
      </trkpt>
			<trkpt lat="36.73857" lon="-4.88116">
        <ele>544.2</ele>
        <time>2026-08-05T09:13:32Z</time>
      </trkpt>
			<trkpt lat="36.73847" lon="-4.88117">
        <ele>545.2</ele>
        <time>2026-08-05T09:13:36Z</time>
      </trkpt>
			<trkpt lat="36.73828" lon="-4.88112">
        <ele>547.1</ele>
        <time>2026-08-05T09:13:45Z</time>
      </trkpt>
			<trkpt lat="36.73799" lon="-4.88096">
        <ele>550</ele>
        <time>2026-08-05T09:13:57Z</time>
      </trkpt>
			<trkpt lat="36.73775" lon="-4.88078">
        <ele>552.3</ele>
        <time>2026-08-05T09:14:07Z</time>
      </trkpt>
			<trkpt lat="36.73751" lon="-4.88061">
        <ele>554.3</ele>
        <time>2026-08-05T09:14:16Z</time>
      </trkpt>
			<trkpt lat="36.73742" lon="-4.8806">
        <ele>554.9</ele>
        <time>2026-08-05T09:14:19Z</time>
      </trkpt>
			<trkpt lat="36.73733" lon="-4.88063">
        <ele>555.4</ele>
        <time>2026-08-05T09:14:21Z</time>
      </trkpt>
			<trkpt lat="36.73725" lon="-4.88068">
        <ele>555.9</ele>
        <time>2026-08-05T09:14:24Z</time>
      </trkpt>
			<trkpt lat="36.73718" lon="-4.88077">
        <ele>556.5</ele>
        <time>2026-08-05T09:14:27Z</time>
      </trkpt>
			<trkpt lat="36.73695" lon="-4.88114">
        <ele>558</ele>
        <time>2026-08-05T09:14:36Z</time>
      </trkpt>
			<trkpt lat="36.73678" lon="-4.88132">
        <ele>558.7</ele>
        <time>2026-08-05T09:14:41Z</time>
      </trkpt>
			<trkpt lat="36.73666" lon="-4.88135">
        <ele>559</ele>
        <time>2026-08-05T09:14:44Z</time>
      </trkpt>
			<trkpt lat="36.73642" lon="-4.8812">
        <ele>559.5</ele>
        <time>2026-08-05T09:14:49Z</time>
      </trkpt>
			<trkpt lat="36.7363" lon="-4.88096">
        <ele>559.8</ele>
        <time>2026-08-05T09:14:53Z</time>
      </trkpt>
			<trkpt lat="36.73621" lon="-4.88062">
        <ele>560.2</ele>
        <time>2026-08-05T09:14:58Z</time>
      </trkpt>
			<trkpt lat="36.73617" lon="-4.8805">
        <ele>560.4</ele>
        <time>2026-08-05T09:15:00Z</time>
      </trkpt>
			<trkpt lat="36.73612" lon="-4.88039">
        <ele>560.6</ele>
        <time>2026-08-05T09:15:02Z</time>
      </trkpt>
			<trkpt lat="36.73605" lon="-4.88032">
        <ele>560.7</ele>
        <time>2026-08-05T09:15:03Z</time>
      </trkpt>
			<trkpt lat="36.73596" lon="-4.8803">
        <ele>560.9</ele>
        <time>2026-08-05T09:15:05Z</time>
      </trkpt>
			<trkpt lat="36.73587" lon="-4.88031">
        <ele>561.1</ele>
        <time>2026-08-05T09:15:07Z</time>
      </trkpt>
			<trkpt lat="36.73579" lon="-4.88037">
        <ele>561.3</ele>
        <time>2026-08-05T09:15:08Z</time>
      </trkpt>
			<trkpt lat="36.73573" lon="-4.88045">
        <ele>561.5</ele>
        <time>2026-08-05T09:15:10Z</time>
      </trkpt>
			<trkpt lat="36.73567" lon="-4.88055">
        <ele>561.8</ele>
        <time>2026-08-05T09:15:12Z</time>
      </trkpt>
			<trkpt lat="36.73552" lon="-4.88093">
        <ele>562.8</ele>
        <time>2026-08-05T09:15:20Z</time>
      </trkpt>
			<trkpt lat="36.73536" lon="-4.88131">
        <ele>564</ele>
        <time>2026-08-05T09:15:27Z</time>
      </trkpt>
			<trkpt lat="36.73531" lon="-4.88146">
        <ele>564.5</ele>
        <time>2026-08-05T09:15:30Z</time>
      </trkpt>
			<trkpt lat="36.73525" lon="-4.88176">
        <ele>565.5</ele>
        <time>2026-08-05T09:15:37Z</time>
      </trkpt>
			<trkpt lat="36.73523" lon="-4.88205">
        <ele>566.3</ele>
        <time>2026-08-05T09:15:42Z</time>
      </trkpt>
			<trkpt lat="36.7352" lon="-4.88233">
        <ele>566.9</ele>
        <time>2026-08-05T09:15:46Z</time>
      </trkpt>
			<trkpt lat="36.73517" lon="-4.88246">
        <ele>567.1</ele>
        <time>2026-08-05T09:15:48Z</time>
      </trkpt>
			<trkpt lat="36.73502" lon="-4.88273">
        <ele>567.5</ele>
        <time>2026-08-05T09:15:53Z</time>
      </trkpt>
			<trkpt lat="36.73495" lon="-4.88283">
        <ele>567.6</ele>
        <time>2026-08-05T09:15:55Z</time>
      </trkpt>
			<trkpt lat="36.73487" lon="-4.88288">
        <ele>567.6</ele>
        <time>2026-08-05T09:15:56Z</time>
      </trkpt>
			<trkpt lat="36.73479" lon="-4.88291">
        <ele>567.6</ele>
        <time>2026-08-05T09:15:57Z</time>
      </trkpt>
			<trkpt lat="36.73468" lon="-4.8829">
        <ele>567.5</ele>
        <time>2026-08-05T09:15:58Z</time>
      </trkpt>
			<trkpt lat="36.73459" lon="-4.88285">
        <ele>567.3</ele>
        <time>2026-08-05T09:15:59Z</time>
      </trkpt>
			<trkpt lat="36.73431" lon="-4.88257">
        <ele>566.4</ele>
        <time>2026-08-05T09:16:03Z</time>
      </trkpt>
			<trkpt lat="36.73419" lon="-4.8825">
        <ele>565.9</ele>
        <time>2026-08-05T09:16:04Z</time>
      </trkpt>
			<trkpt lat="36.73409" lon="-4.88247">
        <ele>565.4</ele>
        <time>2026-08-05T09:16:05Z</time>
      </trkpt>
			<trkpt lat="36.734" lon="-4.88247">
        <ele>564.9</ele>
        <time>2026-08-05T09:16:06Z</time>
      </trkpt>
			<trkpt lat="36.73393" lon="-4.88248">
        <ele>564.5</ele>
        <time>2026-08-05T09:16:07Z</time>
      </trkpt>
			<trkpt lat="36.73387" lon="-4.88251">
        <ele>564.2</ele>
        <time>2026-08-05T09:16:07Z</time>
      </trkpt>
			<trkpt lat="36.7338" lon="-4.88257">
        <ele>563.7</ele>
        <time>2026-08-05T09:16:08Z</time>
      </trkpt>
			<trkpt lat="36.73372" lon="-4.88268">
        <ele>562.9</ele>
        <time>2026-08-05T09:16:09Z</time>
      </trkpt>
			<trkpt lat="36.73369" lon="-4.88277">
        <ele>562.4</ele>
        <time>2026-08-05T09:16:10Z</time>
      </trkpt>
			<trkpt lat="36.73367" lon="-4.88287">
        <ele>561.8</ele>
        <time>2026-08-05T09:16:11Z</time>
      </trkpt>
			<trkpt lat="36.73368" lon="-4.88303">
        <ele>560.8</ele>
        <time>2026-08-05T09:16:12Z</time>
      </trkpt>
			<trkpt lat="36.7337" lon="-4.88314">
        <ele>560.1</ele>
        <time>2026-08-05T09:16:13Z</time>
      </trkpt>
			<trkpt lat="36.73382" lon="-4.88343">
        <ele>558</ele>
        <time>2026-08-05T09:16:15Z</time>
      </trkpt>
			<trkpt lat="36.73394" lon="-4.88373">
        <ele>555.8</ele>
        <time>2026-08-05T09:16:18Z</time>
      </trkpt>
			<trkpt lat="36.73403" lon="-4.88398">
        <ele>553.9</ele>
        <time>2026-08-05T09:16:20Z</time>
      </trkpt>
			<trkpt lat="36.73415" lon="-4.88451">
        <ele>550.4</ele>
        <time>2026-08-05T09:16:24Z</time>
      </trkpt>
			<trkpt lat="36.7342" lon="-4.88463">
        <ele>549.5</ele>
        <time>2026-08-05T09:16:26Z</time>
      </trkpt>
			<trkpt lat="36.73426" lon="-4.88472">
        <ele>548.8</ele>
        <time>2026-08-05T09:16:26Z</time>
      </trkpt>
			<trkpt lat="36.73441" lon="-4.88487">
        <ele>547.5</ele>
        <time>2026-08-05T09:16:28Z</time>
      </trkpt>
			<trkpt lat="36.73447" lon="-4.88495">
        <ele>546.9</ele>
        <time>2026-08-05T09:16:29Z</time>
      </trkpt>
			<trkpt lat="36.7345" lon="-4.88507">
        <ele>546.3</ele>
        <time>2026-08-05T09:16:30Z</time>
      </trkpt>
			<trkpt lat="36.73453" lon="-4.88542">
        <ele>544.6</ele>
        <time>2026-08-05T09:16:33Z</time>
      </trkpt>
			<trkpt lat="36.73458" lon="-4.88556">
        <ele>544</ele>
        <time>2026-08-05T09:16:34Z</time>
      </trkpt>
			<trkpt lat="36.73462" lon="-4.88564">
        <ele>543.6</ele>
        <time>2026-08-05T09:16:35Z</time>
      </trkpt>
			<trkpt lat="36.7347" lon="-4.88571">
        <ele>543.1</ele>
        <time>2026-08-05T09:16:36Z</time>
      </trkpt>
			<trkpt lat="36.73495" lon="-4.88589">
        <ele>541.9</ele>
        <time>2026-08-05T09:16:39Z</time>
      </trkpt>
			<trkpt lat="36.73502" lon="-4.88597">
        <ele>541.5</ele>
        <time>2026-08-05T09:16:40Z</time>
      </trkpt>
			<trkpt lat="36.73507" lon="-4.88607">
        <ele>541.1</ele>
        <time>2026-08-05T09:16:40Z</time>
      </trkpt>
			<trkpt lat="36.73509" lon="-4.88615">
        <ele>540.9</ele>
        <time>2026-08-05T09:16:41Z</time>
      </trkpt>
			<trkpt lat="36.73509" lon="-4.88625">
        <ele>540.6</ele>
        <time>2026-08-05T09:16:42Z</time>
      </trkpt>
			<trkpt lat="36.73499" lon="-4.8867">
        <ele>539.5</ele>
        <time>2026-08-05T09:16:46Z</time>
      </trkpt>
			<trkpt lat="36.73499" lon="-4.88686">
        <ele>539.2</ele>
        <time>2026-08-05T09:16:47Z</time>
      </trkpt>
			<trkpt lat="36.73501" lon="-4.88703">
        <ele>538.9</ele>
        <time>2026-08-05T09:16:48Z</time>
      </trkpt>
			<trkpt lat="36.73512" lon="-4.88738">
        <ele>538.4</ele>
        <time>2026-08-05T09:16:51Z</time>
      </trkpt>
			<trkpt lat="36.73522" lon="-4.88773">
        <ele>538.1</ele>
        <time>2026-08-05T09:16:54Z</time>
      </trkpt>
			<trkpt lat="36.73533" lon="-4.88808">
        <ele>538</ele>
        <time>2026-08-05T09:16:58Z</time>
      </trkpt>
			<trkpt lat="36.73535" lon="-4.88823">
        <ele>538.1</ele>
        <time>2026-08-05T09:17:01Z</time>
      </trkpt>
			<trkpt lat="36.73538" lon="-4.88856">
        <ele>538.3</ele>
        <time>2026-08-05T09:17:05Z</time>
      </trkpt>
			<trkpt lat="36.73542" lon="-4.88882">
        <ele>538.6</ele>
        <time>2026-08-05T09:17:09Z</time>
      </trkpt>
			<trkpt lat="36.73545" lon="-4.88896">
        <ele>538.8</ele>
        <time>2026-08-05T09:17:11Z</time>
      </trkpt>
			<trkpt lat="36.73549" lon="-4.88909">
        <ele>539</ele>
        <time>2026-08-05T09:17:13Z</time>
      </trkpt>
			<trkpt lat="36.73563" lon="-4.88938">
        <ele>539.7</ele>
        <time>2026-08-05T09:17:18Z</time>
      </trkpt>
			<trkpt lat="36.73568" lon="-4.88952">
        <ele>540</ele>
        <time>2026-08-05T09:17:21Z</time>
      </trkpt>
			<trkpt lat="36.73569" lon="-4.8896">
        <ele>540.2</ele>
        <time>2026-08-05T09:17:22Z</time>
      </trkpt>
			<trkpt lat="36.73569" lon="-4.88966">
        <ele>540.3</ele>
        <time>2026-08-05T09:17:23Z</time>
      </trkpt>
			<trkpt lat="36.73567" lon="-4.8897">
        <ele>540.4</ele>
        <time>2026-08-05T09:17:24Z</time>
      </trkpt>
			<trkpt lat="36.73546" lon="-4.89019">
        <ele>541.8</ele>
        <time>2026-08-05T09:17:34Z</time>
      </trkpt>
			<trkpt lat="36.73543" lon="-4.89024">
        <ele>542</ele>
        <time>2026-08-05T09:17:35Z</time>
      </trkpt>
			<trkpt lat="36.73538" lon="-4.89028">
        <ele>542.2</ele>
        <time>2026-08-05T09:17:36Z</time>
      </trkpt>
			<trkpt lat="36.73509" lon="-4.89045">
        <ele>543.3</ele>
        <time>2026-08-05T09:17:43Z</time>
      </trkpt>
			<trkpt lat="36.735" lon="-4.89052">
        <ele>543.6</ele>
        <time>2026-08-05T09:17:46Z</time>
      </trkpt>
			<trkpt lat="36.73494" lon="-4.89059">
        <ele>543.9</ele>
        <time>2026-08-05T09:17:48Z</time>
      </trkpt>
			<trkpt lat="36.73488" lon="-4.89069">
        <ele>544.2</ele>
        <time>2026-08-05T09:17:50Z</time>
      </trkpt>
			<trkpt lat="36.73483" lon="-4.89083">
        <ele>544.7</ele>
        <time>2026-08-05T09:17:53Z</time>
      </trkpt>
			<trkpt lat="36.73472" lon="-4.89119">
        <ele>545.7</ele>
        <time>2026-08-05T09:18:00Z</time>
      </trkpt>
			<trkpt lat="36.7346" lon="-4.89155">
        <ele>546.7</ele>
        <time>2026-08-05T09:18:07Z</time>
      </trkpt>
			<trkpt lat="36.73451" lon="-4.892">
        <ele>547.8</ele>
        <time>2026-08-05T09:18:15Z</time>
      </trkpt>
			<trkpt lat="36.73445" lon="-4.89237">
        <ele>548.6</ele>
        <time>2026-08-05T09:18:21Z</time>
      </trkpt>
			<trkpt lat="36.73445" lon="-4.89257">
        <ele>549.1</ele>
        <time>2026-08-05T09:18:24Z</time>
      </trkpt>
			<trkpt lat="36.73446" lon="-4.89273">
        <ele>549.4</ele>
        <time>2026-08-05T09:18:27Z</time>
      </trkpt>
			<trkpt lat="36.7345" lon="-4.89288">
        <ele>549.8</ele>
        <time>2026-08-05T09:18:30Z</time>
      </trkpt>
			<trkpt lat="36.73458" lon="-4.89313">
        <ele>550.3</ele>
        <time>2026-08-05T09:18:34Z</time>
      </trkpt>
			<trkpt lat="36.73477" lon="-4.89353">
        <ele>551.4</ele>
        <time>2026-08-05T09:18:42Z</time>
      </trkpt>
			<trkpt lat="36.73497" lon="-4.89393">
        <ele>552.5</ele>
        <time>2026-08-05T09:18:50Z</time>
      </trkpt>
			<trkpt lat="36.73516" lon="-4.89434">
        <ele>553.7</ele>
        <time>2026-08-05T09:18:59Z</time>
      </trkpt>
			<trkpt lat="36.73536" lon="-4.89474">
        <ele>555</ele>
        <time>2026-08-05T09:19:07Z</time>
      </trkpt>
			<trkpt lat="36.73555" lon="-4.89514">
        <ele>556.3</ele>
        <time>2026-08-05T09:19:16Z</time>
      </trkpt>
			<trkpt lat="36.73573" lon="-4.89546">
        <ele>557.3</ele>
        <time>2026-08-05T09:19:23Z</time>
      </trkpt>
			<trkpt lat="36.73592" lon="-4.89572">
        <ele>558.2</ele>
        <time>2026-08-05T09:19:29Z</time>
      </trkpt>
			<trkpt lat="36.7361" lon="-4.89598">
        <ele>559.1</ele>
        <time>2026-08-05T09:19:35Z</time>
      </trkpt>
			<trkpt lat="36.73619" lon="-4.89613">
        <ele>559.6</ele>
        <time>2026-08-05T09:19:38Z</time>
      </trkpt>
			<trkpt lat="36.73624" lon="-4.8963">
        <ele>560.1</ele>
        <time>2026-08-05T09:19:42Z</time>
      </trkpt>
			<trkpt lat="36.73624" lon="-4.89639">
        <ele>560.3</ele>
        <time>2026-08-05T09:19:43Z</time>
      </trkpt>
			<trkpt lat="36.73621" lon="-4.89647">
        <ele>560.5</ele>
        <time>2026-08-05T09:19:44Z</time>
      </trkpt>
			<trkpt lat="36.73617" lon="-4.89656">
        <ele>560.8</ele>
        <time>2026-08-05T09:19:46Z</time>
      </trkpt>
			<trkpt lat="36.7361" lon="-4.89662">
        <ele>561.1</ele>
        <time>2026-08-05T09:19:48Z</time>
      </trkpt>
			<trkpt lat="36.73602" lon="-4.89666">
        <ele>561.4</ele>
        <time>2026-08-05T09:19:50Z</time>
      </trkpt>
			<trkpt lat="36.73574" lon="-4.89675">
        <ele>562.6</ele>
        <time>2026-08-05T09:19:57Z</time>
      </trkpt>
			<trkpt lat="36.73566" lon="-4.8968">
        <ele>563</ele>
        <time>2026-08-05T09:20:00Z</time>
      </trkpt>
			<trkpt lat="36.73558" lon="-4.89687">
        <ele>563.5</ele>
        <time>2026-08-05T09:20:02Z</time>
      </trkpt>
			<trkpt lat="36.73553" lon="-4.89696">
        <ele>564</ele>
        <time>2026-08-05T09:20:05Z</time>
      </trkpt>
			<trkpt lat="36.73548" lon="-4.89706">
        <ele>564.5</ele>
        <time>2026-08-05T09:20:08Z</time>
      </trkpt>
			<trkpt lat="36.73546" lon="-4.89718">
        <ele>565.1</ele>
        <time>2026-08-05T09:20:10Z</time>
      </trkpt>
			<trkpt lat="36.73545" lon="-4.89729">
        <ele>565.6</ele>
        <time>2026-08-05T09:20:13Z</time>
      </trkpt>
			<trkpt lat="36.73549" lon="-4.89752">
        <ele>566.9</ele>
        <time>2026-08-05T09:20:19Z</time>
      </trkpt>
			<trkpt lat="36.7356" lon="-4.8979">
        <ele>569.3</ele>
        <time>2026-08-05T09:20:30Z</time>
      </trkpt>
			<trkpt lat="36.7357" lon="-4.89827">
        <ele>572.2</ele>
        <time>2026-08-05T09:20:42Z</time>
      </trkpt>
			<trkpt lat="36.73581" lon="-4.89865">
        <ele>575.5</ele>
        <time>2026-08-05T09:20:56Z</time>
      </trkpt>
			<trkpt lat="36.73586" lon="-4.89889">
        <ele>577.6</ele>
        <time>2026-08-05T09:21:06Z</time>
      </trkpt>
			<trkpt lat="36.73587" lon="-4.89913">
        <ele>579.6</ele>
        <time>2026-08-05T09:21:15Z</time>
      </trkpt>
			<trkpt lat="36.73586" lon="-4.89925">
        <ele>580.6</ele>
        <time>2026-08-05T09:21:19Z</time>
      </trkpt>
			<trkpt lat="36.73583" lon="-4.89937">
        <ele>581.7</ele>
        <time>2026-08-05T09:21:24Z</time>
      </trkpt>
			<trkpt lat="36.73575" lon="-4.89959">
        <ele>583.7</ele>
        <time>2026-08-05T09:21:33Z</time>
      </trkpt>
			<trkpt lat="36.73568" lon="-4.8997">
        <ele>584.7</ele>
        <time>2026-08-05T09:21:37Z</time>
      </trkpt>
			<trkpt lat="36.73552" lon="-4.89988">
        <ele>586.7</ele>
        <time>2026-08-05T09:21:46Z</time>
      </trkpt>
			<trkpt lat="36.73523" lon="-4.90007">
        <ele>589.2</ele>
        <time>2026-08-05T09:21:57Z</time>
      </trkpt>
			<trkpt lat="36.73502" lon="-4.90014">
        <ele>590.6</ele>
        <time>2026-08-05T09:22:04Z</time>
      </trkpt>
			<trkpt lat="36.73471" lon="-4.90014">
        <ele>592.1</ele>
        <time>2026-08-05T09:22:11Z</time>
      </trkpt>
			<trkpt lat="36.7346" lon="-4.90015">
        <ele>592.5</ele>
        <time>2026-08-05T09:22:14Z</time>
      </trkpt>
			<trkpt lat="36.73452" lon="-4.9002">
        <ele>592.8</ele>
        <time>2026-08-05T09:22:16Z</time>
      </trkpt>
			<trkpt lat="36.73444" lon="-4.90026">
        <ele>593.1</ele>
        <time>2026-08-05T09:22:18Z</time>
      </trkpt>
			<trkpt lat="36.7343" lon="-4.90044">
        <ele>593.6</ele>
        <time>2026-08-05T09:22:22Z</time>
      </trkpt>
			<trkpt lat="36.73425" lon="-4.90054">
        <ele>593.8</ele>
        <time>2026-08-05T09:22:24Z</time>
      </trkpt>
			<trkpt lat="36.73421" lon="-4.90065">
        <ele>593.9</ele>
        <time>2026-08-05T09:22:25Z</time>
      </trkpt>
			<trkpt lat="36.73419" lon="-4.90077">
        <ele>594.1</ele>
        <time>2026-08-05T09:22:27Z</time>
      </trkpt>
			<trkpt lat="36.7342" lon="-4.90089">
        <ele>594.2</ele>
        <time>2026-08-05T09:22:29Z</time>
      </trkpt>
			<trkpt lat="36.73435" lon="-4.90137">
        <ele>594.4</ele>
        <time>2026-08-05T09:22:35Z</time>
      </trkpt>
			<trkpt lat="36.73437" lon="-4.9015">
        <ele>594.5</ele>
        <time>2026-08-05T09:22:37Z</time>
      </trkpt>
			<trkpt lat="36.73437" lon="-4.90163">
        <ele>594.6</ele>
        <time>2026-08-05T09:22:39Z</time>
      </trkpt>
			<trkpt lat="36.73436" lon="-4.90176">
        <ele>594.6</ele>
        <time>2026-08-05T09:22:40Z</time>
      </trkpt>
			<trkpt lat="36.73431" lon="-4.90209">
        <ele>594.8</ele>
        <time>2026-08-05T09:22:45Z</time>
      </trkpt>
			<trkpt lat="36.73426" lon="-4.90241">
        <ele>595.1</ele>
        <time>2026-08-05T09:22:49Z</time>
      </trkpt>
			<trkpt lat="36.73426" lon="-4.90253">
        <ele>595.3</ele>
        <time>2026-08-05T09:22:51Z</time>
      </trkpt>
			<trkpt lat="36.73428" lon="-4.90263">
        <ele>595.4</ele>
        <time>2026-08-05T09:22:53Z</time>
      </trkpt>
			<trkpt lat="36.73432" lon="-4.90273">
        <ele>595.5</ele>
        <time>2026-08-05T09:22:54Z</time>
      </trkpt>
			<trkpt lat="36.73438" lon="-4.90281">
        <ele>595.7</ele>
        <time>2026-08-05T09:22:56Z</time>
      </trkpt>
			<trkpt lat="36.73445" lon="-4.90287">
        <ele>595.9</ele>
        <time>2026-08-05T09:22:57Z</time>
      </trkpt>
			<trkpt lat="36.73463" lon="-4.90293">
        <ele>596.3</ele>
        <time>2026-08-05T09:23:01Z</time>
      </trkpt>
			<trkpt lat="36.73495" lon="-4.90293">
        <ele>597.2</ele>
        <time>2026-08-05T09:23:08Z</time>
      </trkpt>
			<trkpt lat="36.73528" lon="-4.90285">
        <ele>598.4</ele>
        <time>2026-08-05T09:23:16Z</time>
      </trkpt>
			<trkpt lat="36.73547" lon="-4.90284">
        <ele>599.1</ele>
        <time>2026-08-05T09:23:20Z</time>
      </trkpt>
			<trkpt lat="36.73554" lon="-4.90288">
        <ele>599.3</ele>
        <time>2026-08-05T09:23:21Z</time>
      </trkpt>
			<trkpt lat="36.7356" lon="-4.90294">
        <ele>599.7</ele>
        <time>2026-08-05T09:23:24Z</time>
      </trkpt>
			<trkpt lat="36.73564" lon="-4.90302">
        <ele>599.9</ele>
        <time>2026-08-05T09:23:25Z</time>
      </trkpt>
			<trkpt lat="36.73566" lon="-4.90311">
        <ele>600.3</ele>
        <time>2026-08-05T09:23:27Z</time>
      </trkpt>
			<trkpt lat="36.73566" lon="-4.90321">
        <ele>600.5</ele>
        <time>2026-08-05T09:23:29Z</time>
      </trkpt>
			<trkpt lat="36.73564" lon="-4.90331">
        <ele>600.9</ele>
        <time>2026-08-05T09:23:31Z</time>
      </trkpt>
			<trkpt lat="36.7356" lon="-4.9034">
        <ele>601.2</ele>
        <time>2026-08-05T09:23:33Z</time>
      </trkpt>
			<trkpt lat="36.73553" lon="-4.90347">
        <ele>601.6</ele>
        <time>2026-08-05T09:23:35Z</time>
      </trkpt>
			<trkpt lat="36.73545" lon="-4.90353">
        <ele>602</ele>
        <time>2026-08-05T09:23:37Z</time>
      </trkpt>
			<trkpt lat="36.73514" lon="-4.90366">
        <ele>603.3</ele>
        <time>2026-08-05T09:23:45Z</time>
      </trkpt>
			<trkpt lat="36.73483" lon="-4.90379">
        <ele>604.5</ele>
        <time>2026-08-05T09:23:53Z</time>
      </trkpt>
			<trkpt lat="36.73465" lon="-4.90392">
        <ele>605.2</ele>
        <time>2026-08-05T09:23:57Z</time>
      </trkpt>
			<trkpt lat="36.73435" lon="-4.90429">
        <ele>606.5</ele>
        <time>2026-08-05T09:24:07Z</time>
      </trkpt>
			<trkpt lat="36.73406" lon="-4.90457">
        <ele>607.5</ele>
        <time>2026-08-05T09:24:14Z</time>
      </trkpt>
			<trkpt lat="36.73377" lon="-4.90484">
        <ele>608.4</ele>
        <time>2026-08-05T09:24:20Z</time>
      </trkpt>
			<trkpt lat="36.73367" lon="-4.90501">
        <ele>608.8</ele>
        <time>2026-08-05T09:24:24Z</time>
      </trkpt>
			<trkpt lat="36.73364" lon="-4.90511">
        <ele>609</ele>
        <time>2026-08-05T09:24:25Z</time>
      </trkpt>
			<trkpt lat="36.73363" lon="-4.90527">
        <ele>609.4</ele>
        <time>2026-08-05T09:24:28Z</time>
      </trkpt>
			<trkpt lat="36.73364" lon="-4.90559">
        <ele>610</ele>
        <time>2026-08-05T09:24:33Z</time>
      </trkpt>
			<trkpt lat="36.73361" lon="-4.90583">
        <ele>610.5</ele>
        <time>2026-08-05T09:24:37Z</time>
      </trkpt>
			<trkpt lat="36.73353" lon="-4.90605">
        <ele>611</ele>
        <time>2026-08-05T09:24:40Z</time>
      </trkpt>
			<trkpt lat="36.73339" lon="-4.90635">
        <ele>611.8</ele>
        <time>2026-08-05T09:24:47Z</time>
      </trkpt>
			<trkpt lat="36.73336" lon="-4.90645">
        <ele>612.1</ele>
        <time>2026-08-05T09:24:49Z</time>
      </trkpt>
			<trkpt lat="36.73336" lon="-4.90655">
        <ele>612.4</ele>
        <time>2026-08-05T09:24:50Z</time>
      </trkpt>
			<trkpt lat="36.73338" lon="-4.90665">
        <ele>612.6</ele>
        <time>2026-08-05T09:24:52Z</time>
      </trkpt>
			<trkpt lat="36.73342" lon="-4.90675">
        <ele>612.9</ele>
        <time>2026-08-05T09:24:54Z</time>
      </trkpt>
			<trkpt lat="36.73347" lon="-4.90683">
        <ele>613.1</ele>
        <time>2026-08-05T09:24:55Z</time>
      </trkpt>
			<trkpt lat="36.73354" lon="-4.90689">
        <ele>613.4</ele>
        <time>2026-08-05T09:24:57Z</time>
      </trkpt>
			<trkpt lat="36.73377" lon="-4.90702">
        <ele>614.2</ele>
        <time>2026-08-05T09:25:03Z</time>
      </trkpt>
			<trkpt lat="36.73388" lon="-4.90715">
        <ele>614.7</ele>
        <time>2026-08-05T09:25:06Z</time>
      </trkpt>
			<trkpt lat="36.73391" lon="-4.90723">
        <ele>614.9</ele>
        <time>2026-08-05T09:25:08Z</time>
      </trkpt>
			<trkpt lat="36.73391" lon="-4.90733">
        <ele>615.2</ele>
        <time>2026-08-05T09:25:10Z</time>
      </trkpt>
			<trkpt lat="36.73391" lon="-4.90744">
        <ele>615.5</ele>
        <time>2026-08-05T09:25:12Z</time>
      </trkpt>
			<trkpt lat="36.73387" lon="-4.90754">
        <ele>615.7</ele>
        <time>2026-08-05T09:25:13Z</time>
      </trkpt>
			<trkpt lat="36.73379" lon="-4.9076">
        <ele>616</ele>
        <time>2026-08-05T09:25:15Z</time>
      </trkpt>
			<trkpt lat="36.73358" lon="-4.90764">
        <ele>616.6</ele>
        <time>2026-08-05T09:25:20Z</time>
      </trkpt>
			<trkpt lat="36.73324" lon="-4.90766">
        <ele>617.5</ele>
        <time>2026-08-05T09:25:27Z</time>
      </trkpt>
			<trkpt lat="36.7329" lon="-4.90765">
        <ele>618.2</ele>
        <time>2026-08-05T09:25:33Z</time>
      </trkpt>
			<trkpt lat="36.73279" lon="-4.90761">
        <ele>618.4</ele>
        <time>2026-08-05T09:25:35Z</time>
      </trkpt>
			<trkpt lat="36.7327" lon="-4.90755">
        <ele>618.6</ele>
        <time>2026-08-05T09:25:37Z</time>
      </trkpt>
			<trkpt lat="36.73256" lon="-4.90738">
        <ele>619</ele>
        <time>2026-08-05T09:25:41Z</time>
      </trkpt>
			<trkpt lat="36.73241" lon="-4.90726">
        <ele>619.3</ele>
        <time>2026-08-05T09:25:44Z</time>
      </trkpt>
			<trkpt lat="36.73234" lon="-4.90724">
        <ele>619.5</ele>
        <time>2026-08-05T09:25:46Z</time>
      </trkpt>
			<trkpt lat="36.73226" lon="-4.90725">
        <ele>619.6</ele>
        <time>2026-08-05T09:25:47Z</time>
      </trkpt>
			<trkpt lat="36.73219" lon="-4.90728">
        <ele>619.7</ele>
        <time>2026-08-05T09:25:49Z</time>
      </trkpt>
			<trkpt lat="36.73213" lon="-4.90735">
        <ele>619.9</ele>
        <time>2026-08-05T09:25:50Z</time>
      </trkpt>
			<trkpt lat="36.73209" lon="-4.90745">
        <ele>620.1</ele>
        <time>2026-08-05T09:25:52Z</time>
      </trkpt>
			<trkpt lat="36.73207" lon="-4.90756">
        <ele>620.3</ele>
        <time>2026-08-05T09:25:54Z</time>
      </trkpt>
			<trkpt lat="36.73202" lon="-4.90791">
        <ele>620.9</ele>
        <time>2026-08-05T09:25:59Z</time>
      </trkpt>
			<trkpt lat="36.732" lon="-4.90802">
        <ele>621.1</ele>
        <time>2026-08-05T09:26:01Z</time>
      </trkpt>
			<trkpt lat="36.73195" lon="-4.90812">
        <ele>621.4</ele>
        <time>2026-08-05T09:26:03Z</time>
      </trkpt>
			<trkpt lat="36.73189" lon="-4.90821">
        <ele>621.6</ele>
        <time>2026-08-05T09:26:05Z</time>
      </trkpt>
			<trkpt lat="36.73172" lon="-4.90834">
        <ele>622.2</ele>
        <time>2026-08-05T09:26:09Z</time>
      </trkpt>
			<trkpt lat="36.73161" lon="-4.90836">
        <ele>622.6</ele>
        <time>2026-08-05T09:26:12Z</time>
      </trkpt>
			<trkpt lat="36.73132" lon="-4.90833">
        <ele>623.7</ele>
        <time>2026-08-05T09:26:18Z</time>
      </trkpt>
			<trkpt lat="36.73115" lon="-4.90836">
        <ele>624.4</ele>
        <time>2026-08-05T09:26:22Z</time>
      </trkpt>
			<trkpt lat="36.73109" lon="-4.90841">
        <ele>624.7</ele>
        <time>2026-08-05T09:26:24Z</time>
      </trkpt>
			<trkpt lat="36.73105" lon="-4.90848">
        <ele>625.1</ele>
        <time>2026-08-05T09:26:26Z</time>
      </trkpt>
			<trkpt lat="36.73102" lon="-4.90857">
        <ele>625.4</ele>
        <time>2026-08-05T09:26:28Z</time>
      </trkpt>
			<trkpt lat="36.73102" lon="-4.90866">
        <ele>625.8</ele>
        <time>2026-08-05T09:26:30Z</time>
      </trkpt>
			<trkpt lat="36.73105" lon="-4.90875">
        <ele>626.2</ele>
        <time>2026-08-05T09:26:32Z</time>
      </trkpt>
			<trkpt lat="36.73109" lon="-4.90883">
        <ele>626.6</ele>
        <time>2026-08-05T09:26:34Z</time>
      </trkpt>
			<trkpt lat="36.73122" lon="-4.90891">
        <ele>627.4</ele>
        <time>2026-08-05T09:26:38Z</time>
      </trkpt>
			<trkpt lat="36.73136" lon="-4.90891">
        <ele>628.3</ele>
        <time>2026-08-05T09:26:43Z</time>
      </trkpt>
			<trkpt lat="36.73164" lon="-4.90886">
        <ele>630.1</ele>
        <time>2026-08-05T09:26:51Z</time>
      </trkpt>
			<trkpt lat="36.73191" lon="-4.9088">
        <ele>632.1</ele>
        <time>2026-08-05T09:27:01Z</time>
      </trkpt>
			<trkpt lat="36.73203" lon="-4.90876">
        <ele>633</ele>
        <time>2026-08-05T09:27:05Z</time>
      </trkpt>
			<trkpt lat="36.73211" lon="-4.90872">
        <ele>633.7</ele>
        <time>2026-08-05T09:27:08Z</time>
      </trkpt>
			<trkpt lat="36.73218" lon="-4.90867">
        <ele>634.3</ele>
        <time>2026-08-05T09:27:10Z</time>
      </trkpt>
			<trkpt lat="36.73243" lon="-4.90837">
        <ele>637.2</ele>
        <time>2026-08-05T09:27:24Z</time>
      </trkpt>
			<trkpt lat="36.73251" lon="-4.90831">
        <ele>638</ele>
        <time>2026-08-05T09:27:28Z</time>
      </trkpt>
			<trkpt lat="36.73259" lon="-4.90829">
        <ele>638.7</ele>
        <time>2026-08-05T09:27:31Z</time>
      </trkpt>
			<trkpt lat="36.73268" lon="-4.90827">
        <ele>639.5</ele>
        <time>2026-08-05T09:27:35Z</time>
      </trkpt>
			<trkpt lat="36.73299" lon="-4.90829">
        <ele>642.1</ele>
        <time>2026-08-05T09:27:47Z</time>
      </trkpt>
			<trkpt lat="36.73341" lon="-4.90845">
        <ele>645.7</ele>
        <time>2026-08-05T09:28:02Z</time>
      </trkpt>
			<trkpt lat="36.73382" lon="-4.90861">
        <ele>649.1</ele>
        <time>2026-08-05T09:28:16Z</time>
      </trkpt>
			<trkpt lat="36.73391" lon="-4.90866">
        <ele>649.8</ele>
        <time>2026-08-05T09:28:19Z</time>
      </trkpt>
			<trkpt lat="36.73397" lon="-4.90873">
        <ele>650.3</ele>
        <time>2026-08-05T09:28:22Z</time>
      </trkpt>
			<trkpt lat="36.73402" lon="-4.90882">
        <ele>650.9</ele>
        <time>2026-08-05T09:28:24Z</time>
      </trkpt>
			<trkpt lat="36.73405" lon="-4.9089">
        <ele>651.3</ele>
        <time>2026-08-05T09:28:26Z</time>
      </trkpt>
			<trkpt lat="36.73407" lon="-4.909">
        <ele>651.9</ele>
        <time>2026-08-05T09:28:29Z</time>
      </trkpt>
			<trkpt lat="36.73407" lon="-4.9091">
        <ele>652.4</ele>
        <time>2026-08-05T09:28:32Z</time>
      </trkpt>
			<trkpt lat="36.73404" lon="-4.90921">
        <ele>652.9</ele>
        <time>2026-08-05T09:28:34Z</time>
      </trkpt>
			<trkpt lat="36.73395" lon="-4.90954">
        <ele>654.4</ele>
        <time>2026-08-05T09:28:42Z</time>
      </trkpt>
			<trkpt lat="36.73386" lon="-4.90987">
        <ele>655.8</ele>
        <time>2026-08-05T09:28:50Z</time>
      </trkpt>
			<trkpt lat="36.73376" lon="-4.91019">
        <ele>657</ele>
        <time>2026-08-05T09:28:57Z</time>
      </trkpt>
			<trkpt lat="36.73357" lon="-4.9106">
        <ele>658.6</ele>
        <time>2026-08-05T09:29:07Z</time>
      </trkpt>
			<trkpt lat="36.73339" lon="-4.91102">
        <ele>660.2</ele>
        <time>2026-08-05T09:29:16Z</time>
      </trkpt>
			<trkpt lat="36.7332" lon="-4.91143">
        <ele>662</ele>
        <time>2026-08-05T09:29:26Z</time>
      </trkpt>
			<trkpt lat="36.73309" lon="-4.91169">
        <ele>663.1</ele>
        <time>2026-08-05T09:29:32Z</time>
      </trkpt>
			<trkpt lat="36.73302" lon="-4.9119">
        <ele>664.1</ele>
        <time>2026-08-05T09:29:37Z</time>
      </trkpt>
			<trkpt lat="36.73297" lon="-4.91214">
        <ele>665.1</ele>
        <time>2026-08-05T09:29:42Z</time>
      </trkpt>
			<trkpt lat="36.7329" lon="-4.91264">
        <ele>667.4</ele>
        <time>2026-08-05T09:29:54Z</time>
      </trkpt>
			<trkpt lat="36.73284" lon="-4.91294">
        <ele>668.9</ele>
        <time>2026-08-05T09:30:01Z</time>
      </trkpt>
			<trkpt lat="36.73279" lon="-4.91312">
        <ele>669.8</ele>
        <time>2026-08-05T09:30:06Z</time>
      </trkpt>
			<trkpt lat="36.73272" lon="-4.91329">
        <ele>670.6</ele>
        <time>2026-08-05T09:30:10Z</time>
      </trkpt>
			<trkpt lat="36.73263" lon="-4.91345">
        <ele>671.5</ele>
        <time>2026-08-05T09:30:14Z</time>
      </trkpt>
			<trkpt lat="36.73238" lon="-4.91388">
        <ele>673.9</ele>
        <time>2026-08-05T09:30:27Z</time>
      </trkpt>
			<trkpt lat="36.73213" lon="-4.91431">
        <ele>676</ele>
        <time>2026-08-05T09:30:37Z</time>
      </trkpt>
			<trkpt lat="36.73206" lon="-4.91445">
        <ele>676.7</ele>
        <time>2026-08-05T09:30:41Z</time>
      </trkpt>
			<trkpt lat="36.732" lon="-4.91457">
        <ele>677.2</ele>
        <time>2026-08-05T09:30:44Z</time>
      </trkpt>
			<trkpt lat="36.73199" lon="-4.91476">
        <ele>677.9</ele>
        <time>2026-08-05T09:30:48Z</time>
      </trkpt>
			<trkpt lat="36.732" lon="-4.91487">
        <ele>678.3</ele>
        <time>2026-08-05T09:30:50Z</time>
      </trkpt>
			<trkpt lat="36.73203" lon="-4.91494">
        <ele>678.6</ele>
        <time>2026-08-05T09:30:51Z</time>
      </trkpt>
			<trkpt lat="36.73207" lon="-4.91498">
        <ele>678.8</ele>
        <time>2026-08-05T09:30:53Z</time>
      </trkpt>
			<trkpt lat="36.73218" lon="-4.91506">
        <ele>679.4</ele>
        <time>2026-08-05T09:30:56Z</time>
      </trkpt>
			<trkpt lat="36.73226" lon="-4.91508">
        <ele>679.7</ele>
        <time>2026-08-05T09:30:58Z</time>
      </trkpt>
			<trkpt lat="36.73255" lon="-4.91512">
        <ele>681</ele>
        <time>2026-08-05T09:31:05Z</time>
      </trkpt>
			<trkpt lat="36.73283" lon="-4.91516">
        <ele>682.2</ele>
        <time>2026-08-05T09:31:12Z</time>
      </trkpt>
			<trkpt lat="36.73294" lon="-4.91518">
        <ele>682.7</ele>
        <time>2026-08-05T09:31:15Z</time>
      </trkpt>
			<trkpt lat="36.73301" lon="-4.91521">
        <ele>683</ele>
        <time>2026-08-05T09:31:17Z</time>
      </trkpt>
			<trkpt lat="36.73308" lon="-4.91526">
        <ele>683.3</ele>
        <time>2026-08-05T09:31:19Z</time>
      </trkpt>
			<trkpt lat="36.73319" lon="-4.91534">
        <ele>683.9</ele>
        <time>2026-08-05T09:31:22Z</time>
      </trkpt>
			<trkpt lat="36.73339" lon="-4.91555">
        <ele>685.1</ele>
        <time>2026-08-05T09:31:28Z</time>
      </trkpt>
			<trkpt lat="36.73358" lon="-4.91576">
        <ele>686.3</ele>
        <time>2026-08-05T09:31:35Z</time>
      </trkpt>
			<trkpt lat="36.73368" lon="-4.91584">
        <ele>686.8</ele>
        <time>2026-08-05T09:31:38Z</time>
      </trkpt>
			<trkpt lat="36.73377" lon="-4.91589">
        <ele>687.3</ele>
        <time>2026-08-05T09:31:40Z</time>
      </trkpt>
			<trkpt lat="36.73387" lon="-4.91592">
        <ele>687.8</ele>
        <time>2026-08-05T09:31:43Z</time>
      </trkpt>
			<trkpt lat="36.73418" lon="-4.91599">
        <ele>689.3</ele>
        <time>2026-08-05T09:31:51Z</time>
      </trkpt>
			<trkpt lat="36.73448" lon="-4.91606">
        <ele>690.8</ele>
        <time>2026-08-05T09:31:59Z</time>
      </trkpt>
			<trkpt lat="36.73456" lon="-4.91608">
        <ele>691.3</ele>
        <time>2026-08-05T09:32:01Z</time>
      </trkpt>
			<trkpt lat="36.73463" lon="-4.91613">
        <ele>691.7</ele>
        <time>2026-08-05T09:32:03Z</time>
      </trkpt>
			<trkpt lat="36.7347" lon="-4.91622">
        <ele>692.2</ele>
        <time>2026-08-05T09:32:06Z</time>
      </trkpt>
			<trkpt lat="36.73482" lon="-4.91649">
        <ele>693.4</ele>
        <time>2026-08-05T09:32:12Z</time>
      </trkpt>
			<trkpt lat="36.73493" lon="-4.91676">
        <ele>694.6</ele>
        <time>2026-08-05T09:32:18Z</time>
      </trkpt>
			<trkpt lat="36.735" lon="-4.91689">
        <ele>695.2</ele>
        <time>2026-08-05T09:32:21Z</time>
      </trkpt>
			<trkpt lat="36.73509" lon="-4.91699">
        <ele>695.8</ele>
        <time>2026-08-05T09:32:24Z</time>
      </trkpt>
			<trkpt lat="36.73531" lon="-4.9172">
        <ele>697.1</ele>
        <time>2026-08-05T09:32:31Z</time>
      </trkpt>
			<trkpt lat="36.73551" lon="-4.91744">
        <ele>698.3</ele>
        <time>2026-08-05T09:32:38Z</time>
      </trkpt>
			<trkpt lat="36.73577" lon="-4.9178">
        <ele>700</ele>
        <time>2026-08-05T09:32:48Z</time>
      </trkpt>
			<trkpt lat="36.73584" lon="-4.91789">
        <ele>700.4</ele>
        <time>2026-08-05T09:32:50Z</time>
      </trkpt>
			<trkpt lat="36.7359" lon="-4.91798">
        <ele>700.8</ele>
        <time>2026-08-05T09:32:52Z</time>
      </trkpt>
			<trkpt lat="36.73592" lon="-4.91809">
        <ele>701.2</ele>
        <time>2026-08-05T09:32:55Z</time>
      </trkpt>
			<trkpt lat="36.73594" lon="-4.91814">
        <ele>701.4</ele>
        <time>2026-08-05T09:32:56Z</time>
      </trkpt>
			<trkpt lat="36.73594" lon="-4.91818">
        <ele>701.5</ele>
        <time>2026-08-05T09:32:57Z</time>
      </trkpt>
			<trkpt lat="36.73592" lon="-4.9182">
        <ele>701.6</ele>
        <time>2026-08-05T09:32:57Z</time>
      </trkpt>
			<trkpt lat="36.73593" lon="-4.91833">
        <ele>702</ele>
        <time>2026-08-05T09:32:59Z</time>
      </trkpt>
			<trkpt lat="36.73591" lon="-4.91851">
        <ele>702.6</ele>
        <time>2026-08-05T09:33:03Z</time>
      </trkpt>
			<trkpt lat="36.73589" lon="-4.9187">
        <ele>703.2</ele>
        <time>2026-08-05T09:33:07Z</time>
      </trkpt>
			<trkpt lat="36.73586" lon="-4.91879">
        <ele>703.6</ele>
        <time>2026-08-05T09:33:09Z</time>
      </trkpt>
			<trkpt lat="36.73582" lon="-4.91915">
        <ele>704.7</ele>
        <time>2026-08-05T09:33:16Z</time>
      </trkpt>
			<trkpt lat="36.73577" lon="-4.9195">
        <ele>705.9</ele>
        <time>2026-08-05T09:33:23Z</time>
      </trkpt>
			<trkpt lat="36.73576" lon="-4.91968">
        <ele>706.6</ele>
        <time>2026-08-05T09:33:26Z</time>
      </trkpt>
			<trkpt lat="36.73576" lon="-4.91978">
        <ele>706.9</ele>
        <time>2026-08-05T09:33:28Z</time>
      </trkpt>
			<trkpt lat="36.73579" lon="-4.91988">
        <ele>707.3</ele>
        <time>2026-08-05T09:33:30Z</time>
      </trkpt>
			<trkpt lat="36.73582" lon="-4.91997">
        <ele>707.6</ele>
        <time>2026-08-05T09:33:32Z</time>
      </trkpt>
			<trkpt lat="36.73588" lon="-4.92004">
        <ele>708</ele>
        <time>2026-08-05T09:33:34Z</time>
      </trkpt>
			<trkpt lat="36.73594" lon="-4.92009">
        <ele>708.3</ele>
        <time>2026-08-05T09:33:36Z</time>
      </trkpt>
			<trkpt lat="36.73601" lon="-4.92011">
        <ele>708.6</ele>
        <time>2026-08-05T09:33:38Z</time>
      </trkpt>
			<trkpt lat="36.73605" lon="-4.92012">
        <ele>708.8</ele>
        <time>2026-08-05T09:33:39Z</time>
      </trkpt>
			<trkpt lat="36.73608" lon="-4.92012">
        <ele>709</ele>
        <time>2026-08-05T09:33:40Z</time>
      </trkpt>
			<trkpt lat="36.73616" lon="-4.9201">
        <ele>709.4</ele>
        <time>2026-08-05T09:33:42Z</time>
      </trkpt>
			<trkpt lat="36.73623" lon="-4.92006">
        <ele>709.7</ele>
        <time>2026-08-05T09:33:44Z</time>
      </trkpt>
			<trkpt lat="36.73629" lon="-4.91999">
        <ele>710.1</ele>
        <time>2026-08-05T09:33:46Z</time>
      </trkpt>
			<trkpt lat="36.73652" lon="-4.91962">
        <ele>712</ele>
        <time>2026-08-05T09:33:56Z</time>
      </trkpt>
			<trkpt lat="36.73663" lon="-4.91951">
        <ele>712.8</ele>
        <time>2026-08-05T09:34:00Z</time>
      </trkpt>
			<trkpt lat="36.73671" lon="-4.91947">
        <ele>713.3</ele>
        <time>2026-08-05T09:34:03Z</time>
      </trkpt>
			<trkpt lat="36.73679" lon="-4.91945">
        <ele>713.7</ele>
        <time>2026-08-05T09:34:05Z</time>
      </trkpt>
			<trkpt lat="36.73687" lon="-4.91946">
        <ele>714.2</ele>
        <time>2026-08-05T09:34:07Z</time>
      </trkpt>
			<trkpt lat="36.73716" lon="-4.91958">
        <ele>716</ele>
        <time>2026-08-05T09:34:16Z</time>
      </trkpt>
			<trkpt lat="36.73737" lon="-4.91969">
        <ele>717.4</ele>
        <time>2026-08-05T09:34:23Z</time>
      </trkpt>
			<trkpt lat="36.73747" lon="-4.91976">
        <ele>718.1</ele>
        <time>2026-08-05T09:34:26Z</time>
      </trkpt>
			<trkpt lat="36.73753" lon="-4.91983">
        <ele>718.7</ele>
        <time>2026-08-05T09:34:29Z</time>
      </trkpt>
			<trkpt lat="36.73758" lon="-4.91991">
        <ele>719.2</ele>
        <time>2026-08-05T09:34:32Z</time>
      </trkpt>
			<trkpt lat="36.73763" lon="-4.92">
        <ele>719.8</ele>
        <time>2026-08-05T09:34:34Z</time>
      </trkpt>
			<trkpt lat="36.73766" lon="-4.92011">
        <ele>720.4</ele>
        <time>2026-08-05T09:34:37Z</time>
      </trkpt>
			<trkpt lat="36.73775" lon="-4.92064">
        <ele>723.3</ele>
        <time>2026-08-05T09:34:51Z</time>
      </trkpt>
			<trkpt lat="36.73783" lon="-4.92117">
        <ele>726.2</ele>
        <time>2026-08-05T09:35:04Z</time>
      </trkpt>
			<trkpt lat="36.73792" lon="-4.9217">
        <ele>728.8</ele>
        <time>2026-08-05T09:35:16Z</time>
      </trkpt>
			<trkpt lat="36.73795" lon="-4.92182">
        <ele>729.3</ele>
        <time>2026-08-05T09:35:19Z</time>
      </trkpt>
			<trkpt lat="36.73799" lon="-4.92196">
        <ele>729.9</ele>
        <time>2026-08-05T09:35:22Z</time>
      </trkpt>
			<trkpt lat="36.73811" lon="-4.92221">
        <ele>731.1</ele>
        <time>2026-08-05T09:35:29Z</time>
      </trkpt>
			<trkpt lat="36.73822" lon="-4.92247">
        <ele>732.2</ele>
        <time>2026-08-05T09:35:35Z</time>
      </trkpt>
			<trkpt lat="36.73834" lon="-4.92258">
        <ele>732.9</ele>
        <time>2026-08-05T09:35:39Z</time>
      </trkpt>
			<trkpt lat="36.7384" lon="-4.92259">
        <ele>733.2</ele>
        <time>2026-08-05T09:35:40Z</time>
      </trkpt>
			<trkpt lat="36.73843" lon="-4.92261">
        <ele>733.3</ele>
        <time>2026-08-05T09:35:41Z</time>
      </trkpt>
			<trkpt lat="36.73846" lon="-4.92267">
        <ele>733.6</ele>
        <time>2026-08-05T09:35:42Z</time>
      </trkpt>
			<trkpt lat="36.73846" lon="-4.92275">
        <ele>733.8</ele>
        <time>2026-08-05T09:35:44Z</time>
      </trkpt>
			<trkpt lat="36.73855" lon="-4.92293">
        <ele>734.5</ele>
        <time>2026-08-05T09:35:48Z</time>
      </trkpt>
			<trkpt lat="36.73885" lon="-4.9232">
        <ele>736</ele>
        <time>2026-08-05T09:35:57Z</time>
      </trkpt>
			<trkpt lat="36.73915" lon="-4.92348">
        <ele>737.5</ele>
        <time>2026-08-05T09:36:07Z</time>
      </trkpt>
			<trkpt lat="36.73945" lon="-4.92375">
        <ele>739.1</ele>
        <time>2026-08-05T09:36:16Z</time>
      </trkpt>
			<trkpt lat="36.7396" lon="-4.92386">
        <ele>739.8</ele>
        <time>2026-08-05T09:36:20Z</time>
      </trkpt>
			<trkpt lat="36.73978" lon="-4.92396">
        <ele>740.7</ele>
        <time>2026-08-05T09:36:25Z</time>
      </trkpt>
			<trkpt lat="36.74003" lon="-4.92407">
        <ele>741.9</ele>
        <time>2026-08-05T09:36:32Z</time>
      </trkpt>
			<trkpt lat="36.74028" lon="-4.92418">
        <ele>743.3</ele>
        <time>2026-08-05T09:36:40Z</time>
      </trkpt>
			<trkpt lat="36.74038" lon="-4.9242">
        <ele>743.8</ele>
        <time>2026-08-05T09:36:42Z</time>
      </trkpt>
			<trkpt lat="36.74047" lon="-4.92421">
        <ele>744.3</ele>
        <time>2026-08-05T09:36:45Z</time>
      </trkpt>
			<trkpt lat="36.74055" lon="-4.92418">
        <ele>744.8</ele>
        <time>2026-08-05T09:36:47Z</time>
      </trkpt>
			<trkpt lat="36.74064" lon="-4.92412">
        <ele>745.4</ele>
        <time>2026-08-05T09:36:50Z</time>
      </trkpt>
			<trkpt lat="36.7408" lon="-4.92398">
        <ele>746.5</ele>
        <time>2026-08-05T09:36:56Z</time>
      </trkpt>
			<trkpt lat="36.74088" lon="-4.92392">
        <ele>747.1</ele>
        <time>2026-08-05T09:36:58Z</time>
      </trkpt>
			<trkpt lat="36.74097" lon="-4.9239">
        <ele>747.7</ele>
        <time>2026-08-05T09:37:01Z</time>
      </trkpt>
			<trkpt lat="36.74105" lon="-4.92391">
        <ele>748.2</ele>
        <time>2026-08-05T09:37:04Z</time>
      </trkpt>
			<trkpt lat="36.74112" lon="-4.92394">
        <ele>748.7</ele>
        <time>2026-08-05T09:37:06Z</time>
      </trkpt>
			<trkpt lat="36.74118" lon="-4.92398">
        <ele>749.2</ele>
        <time>2026-08-05T09:37:08Z</time>
      </trkpt>
			<trkpt lat="36.74135" lon="-4.92415">
        <ele>750.8</ele>
        <time>2026-08-05T09:37:16Z</time>
      </trkpt>
			<trkpt lat="36.74143" lon="-4.92421">
        <ele>751.6</ele>
        <time>2026-08-05T09:37:19Z</time>
      </trkpt>
			<trkpt lat="36.74151" lon="-4.92423">
        <ele>752.3</ele>
        <time>2026-08-05T09:37:23Z</time>
      </trkpt>
			<trkpt lat="36.7416" lon="-4.92421">
        <ele>753</ele>
        <time>2026-08-05T09:37:26Z</time>
      </trkpt>
			<trkpt lat="36.74184" lon="-4.92406">
        <ele>755.4</ele>
        <time>2026-08-05T09:37:36Z</time>
      </trkpt>
			<trkpt lat="36.74193" lon="-4.92405">
        <ele>756.2</ele>
        <time>2026-08-05T09:37:40Z</time>
      </trkpt>
			<trkpt lat="36.74205" lon="-4.92409">
        <ele>757.3</ele>
        <time>2026-08-05T09:37:45Z</time>
      </trkpt>
			<trkpt lat="36.74224" lon="-4.92413">
        <ele>759.1</ele>
        <time>2026-08-05T09:37:53Z</time>
      </trkpt>
			<trkpt lat="36.74241" lon="-4.92414">
        <ele>760.8</ele>
        <time>2026-08-05T09:38:00Z</time>
      </trkpt>
			<trkpt lat="36.74283" lon="-4.92411">
        <ele>764.7</ele>
        <time>2026-08-05T09:38:17Z</time>
      </trkpt>
			<trkpt lat="36.74324" lon="-4.92407">
        <ele>768.3</ele>
        <time>2026-08-05T09:38:33Z</time>
      </trkpt>
			<trkpt lat="36.74335" lon="-4.92408">
        <ele>769.2</ele>
        <time>2026-08-05T09:38:37Z</time>
      </trkpt>
			<trkpt lat="36.74345" lon="-4.92412">
        <ele>770</ele>
        <time>2026-08-05T09:38:41Z</time>
      </trkpt>
			<trkpt lat="36.74352" lon="-4.92417">
        <ele>770.6</ele>
        <time>2026-08-05T09:38:43Z</time>
      </trkpt>
			<trkpt lat="36.7436" lon="-4.92424">
        <ele>771.3</ele>
        <time>2026-08-05T09:38:46Z</time>
      </trkpt>
			<trkpt lat="36.74366" lon="-4.92434">
        <ele>771.9</ele>
        <time>2026-08-05T09:38:49Z</time>
      </trkpt>
			<trkpt lat="36.7437" lon="-4.92446">
        <ele>772.6</ele>
        <time>2026-08-05T09:38:52Z</time>
      </trkpt>
			<trkpt lat="36.74375" lon="-4.92476">
        <ele>774</ele>
        <time>2026-08-05T09:38:59Z</time>
      </trkpt>
			<trkpt lat="36.74376" lon="-4.92486">
        <ele>774.5</ele>
        <time>2026-08-05T09:39:02Z</time>
      </trkpt>
			<trkpt lat="36.74375" lon="-4.92494">
        <ele>774.8</ele>
        <time>2026-08-05T09:39:04Z</time>
      </trkpt>
			<trkpt lat="36.74371" lon="-4.92503">
        <ele>775.2</ele>
        <time>2026-08-05T09:39:06Z</time>
      </trkpt>
			<trkpt lat="36.74368" lon="-4.92509">
        <ele>775.5</ele>
        <time>2026-08-05T09:39:07Z</time>
      </trkpt>
			<trkpt lat="36.74362" lon="-4.92514">
        <ele>775.8</ele>
        <time>2026-08-05T09:39:09Z</time>
      </trkpt>
			<trkpt lat="36.74354" lon="-4.92517">
        <ele>776.2</ele>
        <time>2026-08-05T09:39:11Z</time>
      </trkpt>
			<trkpt lat="36.74345" lon="-4.92518">
        <ele>776.6</ele>
        <time>2026-08-05T09:39:13Z</time>
      </trkpt>
			<trkpt lat="36.74329" lon="-4.92515">
        <ele>777.3</ele>
        <time>2026-08-05T09:39:17Z</time>
      </trkpt>
			<trkpt lat="36.74318" lon="-4.92515">
        <ele>777.7</ele>
        <time>2026-08-05T09:39:20Z</time>
      </trkpt>
			<trkpt lat="36.74309" lon="-4.92517">
        <ele>778.1</ele>
        <time>2026-08-05T09:39:22Z</time>
      </trkpt>
			<trkpt lat="36.74296" lon="-4.92524">
        <ele>778.7</ele>
        <time>2026-08-05T09:39:26Z</time>
      </trkpt>
			<trkpt lat="36.74283" lon="-4.92535">
        <ele>779.3</ele>
        <time>2026-08-05T09:39:29Z</time>
      </trkpt>
			<trkpt lat="36.74276" lon="-4.92544">
        <ele>779.8</ele>
        <time>2026-08-05T09:39:32Z</time>
      </trkpt>
			<trkpt lat="36.74271" lon="-4.92554">
        <ele>780.2</ele>
        <time>2026-08-05T09:39:34Z</time>
      </trkpt>
			<trkpt lat="36.74268" lon="-4.92566">
        <ele>780.7</ele>
        <time>2026-08-05T09:39:37Z</time>
      </trkpt>
			<trkpt lat="36.74266" lon="-4.92579">
        <ele>781.2</ele>
        <time>2026-08-05T09:39:39Z</time>
      </trkpt>
			<trkpt lat="36.74267" lon="-4.92619">
        <ele>783</ele>
        <time>2026-08-05T09:39:48Z</time>
      </trkpt>
			<trkpt lat="36.74271" lon="-4.92647">
        <ele>784.5</ele>
        <time>2026-08-05T09:39:55Z</time>
      </trkpt>
			<trkpt lat="36.74282" lon="-4.92675">
        <ele>786.4</ele>
        <time>2026-08-05T09:40:04Z</time>
      </trkpt>
			<trkpt lat="36.74298" lon="-4.92699">
        <ele>788.7</ele>
        <time>2026-08-05T09:40:14Z</time>
      </trkpt>
			<trkpt lat="36.74314" lon="-4.92724">
        <ele>791.3</ele>
        <time>2026-08-05T09:40:25Z</time>
      </trkpt>
			<trkpt lat="36.74334" lon="-4.92761">
        <ele>795.2</ele>
        <time>2026-08-05T09:40:43Z</time>
      </trkpt>
			<trkpt lat="36.74343" lon="-4.92772">
        <ele>796.7</ele>
        <time>2026-08-05T09:40:49Z</time>
      </trkpt>
			<trkpt lat="36.74365" lon="-4.92789">
        <ele>799.6</ele>
        <time>2026-08-05T09:41:02Z</time>
      </trkpt>
			<trkpt lat="36.74386" lon="-4.92807">
        <ele>802.3</ele>
        <time>2026-08-05T09:41:15Z</time>
      </trkpt>
			<trkpt lat="36.74421" lon="-4.9284">
        <ele>806.3</ele>
        <time>2026-08-05T09:41:33Z</time>
      </trkpt>
			<trkpt lat="36.74456" lon="-4.92873">
        <ele>809.3</ele>
        <time>2026-08-05T09:41:46Z</time>
      </trkpt>
			<trkpt lat="36.74473" lon="-4.92882">
        <ele>810.2</ele>
        <time>2026-08-05T09:41:51Z</time>
      </trkpt>
			<trkpt lat="36.74482" lon="-4.92883">
        <ele>810.6</ele>
        <time>2026-08-05T09:41:53Z</time>
      </trkpt>
			<trkpt lat="36.74491" lon="-4.92881">
        <ele>811</ele>
        <time>2026-08-05T09:41:55Z</time>
      </trkpt>
			<trkpt lat="36.74499" lon="-4.92876">
        <ele>811.4</ele>
        <time>2026-08-05T09:41:58Z</time>
      </trkpt>
			<trkpt lat="36.74507" lon="-4.92869">
        <ele>811.7</ele>
        <time>2026-08-05T09:42:00Z</time>
      </trkpt>
			<trkpt lat="36.74513" lon="-4.92859">
        <ele>812</ele>
        <time>2026-08-05T09:42:02Z</time>
      </trkpt>
			<trkpt lat="36.74517" lon="-4.92848">
        <ele>812.2</ele>
        <time>2026-08-05T09:42:04Z</time>
      </trkpt>
			<trkpt lat="36.74526" lon="-4.92818">
        <ele>812.7</ele>
        <time>2026-08-05T09:42:09Z</time>
      </trkpt>
			<trkpt lat="36.74532" lon="-4.92804">
        <ele>812.9</ele>
        <time>2026-08-05T09:42:11Z</time>
      </trkpt>
			<trkpt lat="36.74537" lon="-4.92796">
        <ele>813</ele>
        <time>2026-08-05T09:42:12Z</time>
      </trkpt>
			<trkpt lat="36.74544" lon="-4.92789">
        <ele>813.1</ele>
        <time>2026-08-05T09:42:14Z</time>
      </trkpt>
			<trkpt lat="36.74552" lon="-4.92783">
        <ele>813.2</ele>
        <time>2026-08-05T09:42:16Z</time>
      </trkpt>
			<trkpt lat="36.74561" lon="-4.9278">
        <ele>813.3</ele>
        <time>2026-08-05T09:42:17Z</time>
      </trkpt>
			<trkpt lat="36.7457" lon="-4.92779">
        <ele>813.3</ele>
        <time>2026-08-05T09:42:18Z</time>
      </trkpt>
			<trkpt lat="36.7458" lon="-4.92782">
        <ele>813.4</ele>
        <time>2026-08-05T09:42:20Z</time>
      </trkpt>
			<trkpt lat="36.74603" lon="-4.92795">
        <ele>813.4</ele>
        <time>2026-08-05T09:42:24Z</time>
      </trkpt>
			<trkpt lat="36.74626" lon="-4.92808">
        <ele>813.4</ele>
        <time>2026-08-05T09:42:28Z</time>
      </trkpt>
		</trkseg>
	</trk>
</gpx>
