<?xml version="1.0" encoding="UTF-8"?><gpx creator="https://climbfinder.com" version="1.1"  xmlns:xsi="http://www.w3.org/2001/XMLSchema-instance"  xmlns="http://www.topografix.com/GPX/1/1" xsi:schemaLocation="http://www.topografix.com/GPX/1/1 http://www.topografix.com/GPX/1/1/gpx.xsd">
  <metadata>
    <name>puerto-de-penas-blancas-desde-estepona</name>
    <author>
      <link href="https://climbfinder.com">
        <text>climbfinder</text>
        <type>text/html</type>
      </link>
    </author>
  </metadata>
  <trk>
    <name>puerto-de-penas-blancas-desde-estepona</name>
    <trkseg>
			<trkpt lat="36.42796" lon="-5.13853">
        <ele>12.3</ele>
        <time>2026-08-05T09:00:00Z</time>
      </trkpt>
			<trkpt lat="36.42797" lon="-5.13881">
        <ele>12.5</ele>
        <time>2026-08-05T09:00:03Z</time>
      </trkpt>
			<trkpt lat="36.42803" lon="-5.13921">
        <ele>12.8</ele>
        <time>2026-08-05T09:00:09Z</time>
      </trkpt>
			<trkpt lat="36.42808" lon="-5.13961">
        <ele>13.2</ele>
        <time>2026-08-05T09:00:15Z</time>
      </trkpt>
			<trkpt lat="36.42814" lon="-5.1398">
        <ele>13.4</ele>
        <time>2026-08-05T09:00:18Z</time>
      </trkpt>
			<trkpt lat="36.42822" lon="-5.14">
        <ele>13.7</ele>
        <time>2026-08-05T09:00:21Z</time>
      </trkpt>
			<trkpt lat="36.42832" lon="-5.14016">
        <ele>14</ele>
        <time>2026-08-05T09:00:24Z</time>
      </trkpt>
			<trkpt lat="36.42855" lon="-5.14052">
        <ele>14.8</ele>
        <time>2026-08-05T09:00:31Z</time>
      </trkpt>
			<trkpt lat="36.42877" lon="-5.14089">
        <ele>15.7</ele>
        <time>2026-08-05T09:00:38Z</time>
      </trkpt>
			<trkpt lat="36.429" lon="-5.14125">
        <ele>16.7</ele>
        <time>2026-08-05T09:00:45Z</time>
      </trkpt>
			<trkpt lat="36.42916" lon="-5.14147">
        <ele>17.3</ele>
        <time>2026-08-05T09:00:50Z</time>
      </trkpt>
			<trkpt lat="36.42943" lon="-5.14176">
        <ele>18.2</ele>
        <time>2026-08-05T09:00:57Z</time>
      </trkpt>
			<trkpt lat="36.42966" lon="-5.14197">
        <ele>18.9</ele>
        <time>2026-08-05T09:01:02Z</time>
      </trkpt>
			<trkpt lat="36.42989" lon="-5.14219">
        <ele>19.5</ele>
        <time>2026-08-05T09:01:08Z</time>
      </trkpt>
			<trkpt lat="36.43015" lon="-5.14244">
        <ele>20.1</ele>
        <time>2026-08-05T09:01:14Z</time>
      </trkpt>
			<trkpt lat="36.4304" lon="-5.1427">
        <ele>20.7</ele>
        <time>2026-08-05T09:01:20Z</time>
      </trkpt>
			<trkpt lat="36.43042" lon="-5.14268">
        <ele>20.7</ele>
        <time>2026-08-05T09:01:21Z</time>
      </trkpt>
			<trkpt lat="36.43046" lon="-5.14267">
        <ele>20.8</ele>
        <time>2026-08-05T09:01:21Z</time>
      </trkpt>
			<trkpt lat="36.43049" lon="-5.14267">
        <ele>20.8</ele>
        <time>2026-08-05T09:01:22Z</time>
      </trkpt>
			<trkpt lat="36.43052" lon="-5.14271">
        <ele>20.9</ele>
        <time>2026-08-05T09:01:23Z</time>
      </trkpt>
			<trkpt lat="36.43053" lon="-5.14274">
        <ele>21</ele>
        <time>2026-08-05T09:01:23Z</time>
      </trkpt>
			<trkpt lat="36.43053" lon="-5.14277">
        <ele>21</ele>
        <time>2026-08-05T09:01:24Z</time>
      </trkpt>
			<trkpt lat="36.43052" lon="-5.14282">
        <ele>21.1</ele>
        <time>2026-08-05T09:01:24Z</time>
      </trkpt>
			<trkpt lat="36.4306" lon="-5.14293">
        <ele>21.3</ele>
        <time>2026-08-05T09:01:27Z</time>
      </trkpt>
			<trkpt lat="36.43078" lon="-5.14325">
        <ele>21.9</ele>
        <time>2026-08-05T09:01:33Z</time>
      </trkpt>
			<trkpt lat="36.43095" lon="-5.14356">
        <ele>22.5</ele>
        <time>2026-08-05T09:01:38Z</time>
      </trkpt>
			<trkpt lat="36.43113" lon="-5.14388">
        <ele>23.3</ele>
        <time>2026-08-05T09:01:44Z</time>
      </trkpt>
			<trkpt lat="36.43121" lon="-5.14402">
        <ele>23.6</ele>
        <time>2026-08-05T09:01:47Z</time>
      </trkpt>
			<trkpt lat="36.43127" lon="-5.14417">
        <ele>24</ele>
        <time>2026-08-05T09:01:50Z</time>
      </trkpt>
			<trkpt lat="36.4313" lon="-5.14434">
        <ele>24.5</ele>
        <time>2026-08-05T09:01:53Z</time>
      </trkpt>
			<trkpt lat="36.43136" lon="-5.14477">
        <ele>25.7</ele>
        <time>2026-08-05T09:02:01Z</time>
      </trkpt>
			<trkpt lat="36.43141" lon="-5.1452">
        <ele>27.1</ele>
        <time>2026-08-05T09:02:10Z</time>
      </trkpt>
			<trkpt lat="36.43143" lon="-5.14538">
        <ele>27.7</ele>
        <time>2026-08-05T09:02:13Z</time>
      </trkpt>
			<trkpt lat="36.43143" lon="-5.14573">
        <ele>28.9</ele>
        <time>2026-08-05T09:02:20Z</time>
      </trkpt>
			<trkpt lat="36.4314" lon="-5.14624">
        <ele>30.9</ele>
        <time>2026-08-05T09:02:31Z</time>
      </trkpt>
			<trkpt lat="36.4314" lon="-5.14629">
        <ele>31.1</ele>
        <time>2026-08-05T09:02:32Z</time>
      </trkpt>
			<trkpt lat="36.43141" lon="-5.14648">
        <ele>31.9</ele>
        <time>2026-08-05T09:02:36Z</time>
      </trkpt>
			<trkpt lat="36.43172" lon="-5.14653">
        <ele>33.4</ele>
        <time>2026-08-05T09:02:44Z</time>
      </trkpt>
			<trkpt lat="36.43202" lon="-5.14659">
        <ele>34.8</ele>
        <time>2026-08-05T09:02:51Z</time>
      </trkpt>
			<trkpt lat="36.4321" lon="-5.14663">
        <ele>35.2</ele>
        <time>2026-08-05T09:02:54Z</time>
      </trkpt>
			<trkpt lat="36.43245" lon="-5.14666">
        <ele>36.7</ele>
        <time>2026-08-05T09:03:02Z</time>
      </trkpt>
			<trkpt lat="36.43278" lon="-5.14671">
        <ele>38</ele>
        <time>2026-08-05T09:03:11Z</time>
      </trkpt>
			<trkpt lat="36.43311" lon="-5.14675">
        <ele>39.1</ele>
        <time>2026-08-05T09:03:18Z</time>
      </trkpt>
			<trkpt lat="36.43344" lon="-5.1468">
        <ele>40.2</ele>
        <time>2026-08-05T09:03:25Z</time>
      </trkpt>
			<trkpt lat="36.43375" lon="-5.14687">
        <ele>41.2</ele>
        <time>2026-08-05T09:03:32Z</time>
      </trkpt>
			<trkpt lat="36.43404" lon="-5.14692">
        <ele>42.2</ele>
        <time>2026-08-05T09:03:39Z</time>
      </trkpt>
			<trkpt lat="36.43433" lon="-5.14698">
        <ele>43.2</ele>
        <time>2026-08-05T09:03:45Z</time>
      </trkpt>
			<trkpt lat="36.43435" lon="-5.14691">
        <ele>43.4</ele>
        <time>2026-08-05T09:03:47Z</time>
      </trkpt>
			<trkpt lat="36.4344" lon="-5.14688">
        <ele>43.7</ele>
        <time>2026-08-05T09:03:48Z</time>
      </trkpt>
			<trkpt lat="36.43446" lon="-5.14688">
        <ele>43.9</ele>
        <time>2026-08-05T09:03:50Z</time>
      </trkpt>
			<trkpt lat="36.43448" lon="-5.1469">
        <ele>44</ele>
        <time>2026-08-05T09:03:50Z</time>
      </trkpt>
			<trkpt lat="36.43451" lon="-5.14693">
        <ele>44.2</ele>
        <time>2026-08-05T09:03:51Z</time>
      </trkpt>
			<trkpt lat="36.43452" lon="-5.14696">
        <ele>44.3</ele>
        <time>2026-08-05T09:03:52Z</time>
      </trkpt>
			<trkpt lat="36.43452" lon="-5.14703">
        <ele>44.6</ele>
        <time>2026-08-05T09:03:54Z</time>
      </trkpt>
			<trkpt lat="36.43489" lon="-5.14711">
        <ele>46.4</ele>
        <time>2026-08-05T09:04:03Z</time>
      </trkpt>
			<trkpt lat="36.43518" lon="-5.14721">
        <ele>48.2</ele>
        <time>2026-08-05T09:04:12Z</time>
      </trkpt>
			<trkpt lat="36.43539" lon="-5.14732">
        <ele>49.7</ele>
        <time>2026-08-05T09:04:19Z</time>
      </trkpt>
			<trkpt lat="36.43569" lon="-5.14749">
        <ele>52.3</ele>
        <time>2026-08-05T09:04:30Z</time>
      </trkpt>
			<trkpt lat="36.43598" lon="-5.14767">
        <ele>55.3</ele>
        <time>2026-08-05T09:04:43Z</time>
      </trkpt>
			<trkpt lat="36.43621" lon="-5.14778">
        <ele>57.8</ele>
        <time>2026-08-05T09:04:54Z</time>
      </trkpt>
			<trkpt lat="36.43625" lon="-5.14779">
        <ele>58.3</ele>
        <time>2026-08-05T09:04:56Z</time>
      </trkpt>
			<trkpt lat="36.43644" lon="-5.14788">
        <ele>60.5</ele>
        <time>2026-08-05T09:05:06Z</time>
      </trkpt>
			<trkpt lat="36.43669" lon="-5.14795">
        <ele>63.5</ele>
        <time>2026-08-05T09:05:19Z</time>
      </trkpt>
			<trkpt lat="36.43693" lon="-5.14802">
        <ele>66.6</ele>
        <time>2026-08-05T09:05:31Z</time>
      </trkpt>
			<trkpt lat="36.43725" lon="-5.14807">
        <ele>70.7</ele>
        <time>2026-08-05T09:05:47Z</time>
      </trkpt>
			<trkpt lat="36.43728" lon="-5.14809">
        <ele>71.2</ele>
        <time>2026-08-05T09:05:49Z</time>
      </trkpt>
			<trkpt lat="36.43757" lon="-5.14812">
        <ele>75</ele>
        <time>2026-08-05T09:06:06Z</time>
      </trkpt>
			<trkpt lat="36.43785" lon="-5.14816">
        <ele>78.7</ele>
        <time>2026-08-05T09:06:22Z</time>
      </trkpt>
			<trkpt lat="36.43803" lon="-5.14821">
        <ele>81</ele>
        <time>2026-08-05T09:06:31Z</time>
      </trkpt>
			<trkpt lat="36.43836" lon="-5.14833">
        <ele>85.3</ele>
        <time>2026-08-05T09:06:49Z</time>
      </trkpt>
			<trkpt lat="36.43859" lon="-5.14844">
        <ele>88.4</ele>
        <time>2026-08-05T09:07:01Z</time>
      </trkpt>
			<trkpt lat="36.43868" lon="-5.14851">
        <ele>89.6</ele>
        <time>2026-08-05T09:07:06Z</time>
      </trkpt>
			<trkpt lat="36.43873" lon="-5.14858">
        <ele>90.5</ele>
        <time>2026-08-05T09:07:10Z</time>
      </trkpt>
			<trkpt lat="36.43898" lon="-5.14898">
        <ele>94.9</ele>
        <time>2026-08-05T09:07:30Z</time>
      </trkpt>
			<trkpt lat="36.43922" lon="-5.14939">
        <ele>99</ele>
        <time>2026-08-05T09:07:49Z</time>
      </trkpt>
			<trkpt lat="36.43932" lon="-5.1495">
        <ele>100.2</ele>
        <time>2026-08-05T09:07:54Z</time>
      </trkpt>
			<trkpt lat="36.43955" lon="-5.14974">
        <ele>102.8</ele>
        <time>2026-08-05T09:08:06Z</time>
      </trkpt>
			<trkpt lat="36.43978" lon="-5.14999">
        <ele>105.2</ele>
        <time>2026-08-05T09:08:16Z</time>
      </trkpt>
			<trkpt lat="36.44001" lon="-5.15023">
        <ele>107.3</ele>
        <time>2026-08-05T09:08:25Z</time>
      </trkpt>
			<trkpt lat="36.44026" lon="-5.15041">
        <ele>109.1</ele>
        <time>2026-08-05T09:08:34Z</time>
      </trkpt>
			<trkpt lat="36.44039" lon="-5.15048">
        <ele>110</ele>
        <time>2026-08-05T09:08:39Z</time>
      </trkpt>
			<trkpt lat="36.44081" lon="-5.15061">
        <ele>112.4</ele>
        <time>2026-08-05T09:08:51Z</time>
      </trkpt>
			<trkpt lat="36.44109" lon="-5.15066">
        <ele>114</ele>
        <time>2026-08-05T09:08:59Z</time>
      </trkpt>
			<trkpt lat="36.44132" lon="-5.15073">
        <ele>115.3</ele>
        <time>2026-08-05T09:09:06Z</time>
      </trkpt>
			<trkpt lat="36.44154" lon="-5.15081">
        <ele>116.5</ele>
        <time>2026-08-05T09:09:12Z</time>
      </trkpt>
			<trkpt lat="36.44169" lon="-5.15084">
        <ele>117.4</ele>
        <time>2026-08-05T09:09:17Z</time>
      </trkpt>
			<trkpt lat="36.44183" lon="-5.15083">
        <ele>118.3</ele>
        <time>2026-08-05T09:09:21Z</time>
      </trkpt>
			<trkpt lat="36.44224" lon="-5.15068">
        <ele>121</ele>
        <time>2026-08-05T09:09:34Z</time>
      </trkpt>
			<trkpt lat="36.44248" lon="-5.1506">
        <ele>122.8</ele>
        <time>2026-08-05T09:09:42Z</time>
      </trkpt>
			<trkpt lat="36.44288" lon="-5.15055">
        <ele>125.9</ele>
        <time>2026-08-05T09:09:56Z</time>
      </trkpt>
			<trkpt lat="36.44306" lon="-5.15055">
        <ele>127.3</ele>
        <time>2026-08-05T09:10:02Z</time>
      </trkpt>
			<trkpt lat="36.44335" lon="-5.15058">
        <ele>129.8</ele>
        <time>2026-08-05T09:10:14Z</time>
      </trkpt>
			<trkpt lat="36.44363" lon="-5.15062">
        <ele>132.2</ele>
        <time>2026-08-05T09:10:25Z</time>
      </trkpt>
			<trkpt lat="36.44378" lon="-5.15068">
        <ele>133.6</ele>
        <time>2026-08-05T09:10:31Z</time>
      </trkpt>
			<trkpt lat="36.44386" lon="-5.15073">
        <ele>134.4</ele>
        <time>2026-08-05T09:10:35Z</time>
      </trkpt>
			<trkpt lat="36.44396" lon="-5.15081">
        <ele>135.4</ele>
        <time>2026-08-05T09:10:39Z</time>
      </trkpt>
			<trkpt lat="36.44425" lon="-5.15118">
        <ele>138.8</ele>
        <time>2026-08-05T09:10:53Z</time>
      </trkpt>
			<trkpt lat="36.44454" lon="-5.15155">
        <ele>142.1</ele>
        <time>2026-08-05T09:11:07Z</time>
      </trkpt>
			<trkpt lat="36.44466" lon="-5.15176">
        <ele>143.6</ele>
        <time>2026-08-05T09:11:14Z</time>
      </trkpt>
			<trkpt lat="36.44475" lon="-5.15186">
        <ele>144.4</ele>
        <time>2026-08-05T09:11:18Z</time>
      </trkpt>
			<trkpt lat="36.44482" lon="-5.15191">
        <ele>145</ele>
        <time>2026-08-05T09:11:21Z</time>
      </trkpt>
			<trkpt lat="36.44492" lon="-5.15195">
        <ele>145.8</ele>
        <time>2026-08-05T09:11:24Z</time>
      </trkpt>
			<trkpt lat="36.44507" lon="-5.15197">
        <ele>146.8</ele>
        <time>2026-08-05T09:11:29Z</time>
      </trkpt>
			<trkpt lat="36.44517" lon="-5.15196">
        <ele>147.6</ele>
        <time>2026-08-05T09:11:32Z</time>
      </trkpt>
			<trkpt lat="36.4454" lon="-5.15197">
        <ele>149.2</ele>
        <time>2026-08-05T09:11:39Z</time>
      </trkpt>
			<trkpt lat="36.4455" lon="-5.15203">
        <ele>150.1</ele>
        <time>2026-08-05T09:11:43Z</time>
      </trkpt>
			<trkpt lat="36.4456" lon="-5.15213">
        <ele>151.1</ele>
        <time>2026-08-05T09:11:47Z</time>
      </trkpt>
			<trkpt lat="36.44566" lon="-5.1522">
        <ele>151.8</ele>
        <time>2026-08-05T09:11:50Z</time>
      </trkpt>
			<trkpt lat="36.44572" lon="-5.15231">
        <ele>152.7</ele>
        <time>2026-08-05T09:11:55Z</time>
      </trkpt>
			<trkpt lat="36.44586" lon="-5.15264">
        <ele>155.6</ele>
        <time>2026-08-05T09:12:08Z</time>
      </trkpt>
			<trkpt lat="36.44596" lon="-5.15278">
        <ele>157.2</ele>
        <time>2026-08-05T09:12:16Z</time>
      </trkpt>
			<trkpt lat="36.44615" lon="-5.15295">
        <ele>159.9</ele>
        <time>2026-08-05T09:12:27Z</time>
      </trkpt>
			<trkpt lat="36.44633" lon="-5.15312">
        <ele>162.9</ele>
        <time>2026-08-05T09:12:40Z</time>
      </trkpt>
			<trkpt lat="36.44662" lon="-5.15331">
        <ele>167.9</ele>
        <time>2026-08-05T09:13:02Z</time>
      </trkpt>
			<trkpt lat="36.44685" lon="-5.15344">
        <ele>172</ele>
        <time>2026-08-05T09:13:22Z</time>
      </trkpt>
			<trkpt lat="36.44707" lon="-5.15357">
        <ele>176.5</ele>
        <time>2026-08-05T09:13:42Z</time>
      </trkpt>
			<trkpt lat="36.44738" lon="-5.15367">
        <ele>182.4</ele>
        <time>2026-08-05T09:14:07Z</time>
      </trkpt>
			<trkpt lat="36.44764" lon="-5.15369">
        <ele>187.4</ele>
        <time>2026-08-05T09:14:28Z</time>
      </trkpt>
			<trkpt lat="36.44796" lon="-5.15381">
        <ele>193.7</ele>
        <time>2026-08-05T09:14:55Z</time>
      </trkpt>
			<trkpt lat="36.44813" lon="-5.15395">
        <ele>197.4</ele>
        <time>2026-08-05T09:15:11Z</time>
      </trkpt>
			<trkpt lat="36.44823" lon="-5.15412">
        <ele>200.5</ele>
        <time>2026-08-05T09:15:25Z</time>
      </trkpt>
			<trkpt lat="36.44831" lon="-5.15432">
        <ele>203.5</ele>
        <time>2026-08-05T09:15:39Z</time>
      </trkpt>
			<trkpt lat="36.44838" lon="-5.1544">
        <ele>205.2</ele>
        <time>2026-08-05T09:15:47Z</time>
      </trkpt>
			<trkpt lat="36.44844" lon="-5.15442">
        <ele>206</ele>
        <time>2026-08-05T09:15:50Z</time>
      </trkpt>
			<trkpt lat="36.44862" lon="-5.15439">
        <ele>209</ele>
        <time>2026-08-05T09:16:05Z</time>
      </trkpt>
			<trkpt lat="36.44868" lon="-5.15439">
        <ele>209.9</ele>
        <time>2026-08-05T09:16:09Z</time>
      </trkpt>
			<trkpt lat="36.4488" lon="-5.15443">
        <ele>211.8</ele>
        <time>2026-08-05T09:16:17Z</time>
      </trkpt>
			<trkpt lat="36.44893" lon="-5.15451">
        <ele>213.8</ele>
        <time>2026-08-05T09:16:26Z</time>
      </trkpt>
			<trkpt lat="36.44905" lon="-5.15464">
        <ele>216.1</ele>
        <time>2026-08-05T09:16:36Z</time>
      </trkpt>
			<trkpt lat="36.44921" lon="-5.15487">
        <ele>219.2</ele>
        <time>2026-08-05T09:16:48Z</time>
      </trkpt>
			<trkpt lat="36.44927" lon="-5.15501">
        <ele>220.7</ele>
        <time>2026-08-05T09:16:55Z</time>
      </trkpt>
			<trkpt lat="36.44942" lon="-5.15543">
        <ele>224.7</ele>
        <time>2026-08-05T09:17:13Z</time>
      </trkpt>
			<trkpt lat="36.44959" lon="-5.15578">
        <ele>227.8</ele>
        <time>2026-08-05T09:17:27Z</time>
      </trkpt>
			<trkpt lat="36.44978" lon="-5.15616">
        <ele>230.5</ele>
        <time>2026-08-05T09:17:39Z</time>
      </trkpt>
			<trkpt lat="36.44989" lon="-5.15632">
        <ele>231.5</ele>
        <time>2026-08-05T09:17:43Z</time>
      </trkpt>
			<trkpt lat="36.44995" lon="-5.15638">
        <ele>231.9</ele>
        <time>2026-08-05T09:17:46Z</time>
      </trkpt>
			<trkpt lat="36.45011" lon="-5.15647">
        <ele>232.9</ele>
        <time>2026-08-05T09:17:51Z</time>
      </trkpt>
			<trkpt lat="36.4502" lon="-5.15649">
        <ele>233.3</ele>
        <time>2026-08-05T09:17:53Z</time>
      </trkpt>
			<trkpt lat="36.45028" lon="-5.15648">
        <ele>233.7</ele>
        <time>2026-08-05T09:17:55Z</time>
      </trkpt>
			<trkpt lat="36.45036" lon="-5.1564">
        <ele>234.1</ele>
        <time>2026-08-05T09:17:57Z</time>
      </trkpt>
			<trkpt lat="36.45041" lon="-5.1563">
        <ele>234.5</ele>
        <time>2026-08-05T09:18:00Z</time>
      </trkpt>
			<trkpt lat="36.45042" lon="-5.15619">
        <ele>234.9</ele>
        <time>2026-08-05T09:18:02Z</time>
      </trkpt>
			<trkpt lat="36.45041" lon="-5.15601">
        <ele>235.4</ele>
        <time>2026-08-05T09:18:05Z</time>
      </trkpt>
			<trkpt lat="36.45041" lon="-5.15589">
        <ele>235.7</ele>
        <time>2026-08-05T09:18:07Z</time>
      </trkpt>
			<trkpt lat="36.45043" lon="-5.15583">
        <ele>235.9</ele>
        <time>2026-08-05T09:18:09Z</time>
      </trkpt>
			<trkpt lat="36.45049" lon="-5.15578">
        <ele>236.1</ele>
        <time>2026-08-05T09:18:10Z</time>
      </trkpt>
			<trkpt lat="36.45054" lon="-5.15579">
        <ele>236.3</ele>
        <time>2026-08-05T09:18:11Z</time>
      </trkpt>
			<trkpt lat="36.45058" lon="-5.15581">
        <ele>236.4</ele>
        <time>2026-08-05T09:18:12Z</time>
      </trkpt>
			<trkpt lat="36.45061" lon="-5.15585">
        <ele>236.6</ele>
        <time>2026-08-05T09:18:13Z</time>
      </trkpt>
			<trkpt lat="36.4507" lon="-5.15615">
        <ele>237.3</ele>
        <time>2026-08-05T09:18:18Z</time>
      </trkpt>
			<trkpt lat="36.45082" lon="-5.15634">
        <ele>237.9</ele>
        <time>2026-08-05T09:18:22Z</time>
      </trkpt>
			<trkpt lat="36.451" lon="-5.15656">
        <ele>238.6</ele>
        <time>2026-08-05T09:18:27Z</time>
      </trkpt>
			<trkpt lat="36.45118" lon="-5.15678">
        <ele>239.3</ele>
        <time>2026-08-05T09:18:32Z</time>
      </trkpt>
			<trkpt lat="36.45123" lon="-5.1569">
        <ele>239.6</ele>
        <time>2026-08-05T09:18:34Z</time>
      </trkpt>
			<trkpt lat="36.45131" lon="-5.15718">
        <ele>240.4</ele>
        <time>2026-08-05T09:18:39Z</time>
      </trkpt>
			<trkpt lat="36.45139" lon="-5.15747">
        <ele>241.2</ele>
        <time>2026-08-05T09:18:45Z</time>
      </trkpt>
			<trkpt lat="36.45154" lon="-5.15775">
        <ele>242.2</ele>
        <time>2026-08-05T09:18:51Z</time>
      </trkpt>
			<trkpt lat="36.45171" lon="-5.15795">
        <ele>243.2</ele>
        <time>2026-08-05T09:18:57Z</time>
      </trkpt>
			<trkpt lat="36.45188" lon="-5.15815">
        <ele>244.2</ele>
        <time>2026-08-05T09:19:03Z</time>
      </trkpt>
			<trkpt lat="36.45207" lon="-5.15829">
        <ele>245.3</ele>
        <time>2026-08-05T09:19:08Z</time>
      </trkpt>
			<trkpt lat="36.45238" lon="-5.15849">
        <ele>247.2</ele>
        <time>2026-08-05T09:19:18Z</time>
      </trkpt>
			<trkpt lat="36.45269" lon="-5.15869">
        <ele>249.2</ele>
        <time>2026-08-05T09:19:28Z</time>
      </trkpt>
			<trkpt lat="36.453" lon="-5.15889">
        <ele>251.4</ele>
        <time>2026-08-05T09:19:39Z</time>
      </trkpt>
			<trkpt lat="36.45327" lon="-5.1591">
        <ele>253.4</ele>
        <time>2026-08-05T09:19:49Z</time>
      </trkpt>
			<trkpt lat="36.45342" lon="-5.15927">
        <ele>254.7</ele>
        <time>2026-08-05T09:19:55Z</time>
      </trkpt>
			<trkpt lat="36.45353" lon="-5.15943">
        <ele>255.7</ele>
        <time>2026-08-05T09:20:00Z</time>
      </trkpt>
			<trkpt lat="36.45373" lon="-5.1598">
        <ele>257.8</ele>
        <time>2026-08-05T09:20:10Z</time>
      </trkpt>
			<trkpt lat="36.45381" lon="-5.15991">
        <ele>258.5</ele>
        <time>2026-08-05T09:20:13Z</time>
      </trkpt>
			<trkpt lat="36.45391" lon="-5.15999">
        <ele>259.2</ele>
        <time>2026-08-05T09:20:17Z</time>
      </trkpt>
			<trkpt lat="36.45401" lon="-5.16002">
        <ele>259.7</ele>
        <time>2026-08-05T09:20:19Z</time>
      </trkpt>
			<trkpt lat="36.45411" lon="-5.16004">
        <ele>260.3</ele>
        <time>2026-08-05T09:20:22Z</time>
      </trkpt>
			<trkpt lat="36.4542" lon="-5.16002">
        <ele>260.8</ele>
        <time>2026-08-05T09:20:25Z</time>
      </trkpt>
			<trkpt lat="36.45438" lon="-5.15995">
        <ele>261.8</ele>
        <time>2026-08-05T09:20:30Z</time>
      </trkpt>
			<trkpt lat="36.45452" lon="-5.15991">
        <ele>262.5</ele>
        <time>2026-08-05T09:20:34Z</time>
      </trkpt>
			<trkpt lat="36.45463" lon="-5.15992">
        <ele>263.1</ele>
        <time>2026-08-05T09:20:37Z</time>
      </trkpt>
			<trkpt lat="36.455" lon="-5.16">
        <ele>264.9</ele>
        <time>2026-08-05T09:20:46Z</time>
      </trkpt>
			<trkpt lat="36.45536" lon="-5.16009">
        <ele>266.6</ele>
        <time>2026-08-05T09:20:56Z</time>
      </trkpt>
			<trkpt lat="36.45566" lon="-5.16029">
        <ele>268.1</ele>
        <time>2026-08-05T09:21:04Z</time>
      </trkpt>
			<trkpt lat="36.45579" lon="-5.16029">
        <ele>268.7</ele>
        <time>2026-08-05T09:21:07Z</time>
      </trkpt>
			<trkpt lat="36.45592" lon="-5.16023">
        <ele>269.2</ele>
        <time>2026-08-05T09:21:10Z</time>
      </trkpt>
			<trkpt lat="36.45616" lon="-5.15995">
        <ele>270.5</ele>
        <time>2026-08-05T09:21:19Z</time>
      </trkpt>
			<trkpt lat="36.45638" lon="-5.15985">
        <ele>271.2</ele>
        <time>2026-08-05T09:21:24Z</time>
      </trkpt>
			<trkpt lat="36.45659" lon="-5.1598">
        <ele>271.9</ele>
        <time>2026-08-05T09:21:29Z</time>
      </trkpt>
			<trkpt lat="36.45689" lon="-5.15979">
        <ele>272.6</ele>
        <time>2026-08-05T09:21:34Z</time>
      </trkpt>
			<trkpt lat="36.4571" lon="-5.15995">
        <ele>273</ele>
        <time>2026-08-05T09:21:39Z</time>
      </trkpt>
			<trkpt lat="36.45732" lon="-5.16019">
        <ele>273.4</ele>
        <time>2026-08-05T09:21:44Z</time>
      </trkpt>
			<trkpt lat="36.45753" lon="-5.16044">
        <ele>273.5</ele>
        <time>2026-08-05T09:21:48Z</time>
      </trkpt>
			<trkpt lat="36.45789" lon="-5.16058">
        <ele>273.4</ele>
        <time>2026-08-05T09:21:54Z</time>
      </trkpt>
			<trkpt lat="36.45825" lon="-5.16072">
        <ele>273.1</ele>
        <time>2026-08-05T09:21:57Z</time>
      </trkpt>
			<trkpt lat="36.45865" lon="-5.16089">
        <ele>272.7</ele>
        <time>2026-08-05T09:22:01Z</time>
      </trkpt>
			<trkpt lat="36.45898" lon="-5.16115">
        <ele>272.2</ele>
        <time>2026-08-05T09:22:05Z</time>
      </trkpt>
			<trkpt lat="36.45922" lon="-5.16115">
        <ele>271.9</ele>
        <time>2026-08-05T09:22:08Z</time>
      </trkpt>
			<trkpt lat="36.45946" lon="-5.16114">
        <ele>271.6</ele>
        <time>2026-08-05T09:22:10Z</time>
      </trkpt>
			<trkpt lat="36.45973" lon="-5.16122">
        <ele>271.2</ele>
        <time>2026-08-05T09:22:13Z</time>
      </trkpt>
			<trkpt lat="36.45999" lon="-5.16136">
        <ele>270.8</ele>
        <time>2026-08-05T09:22:15Z</time>
      </trkpt>
			<trkpt lat="36.46027" lon="-5.16132">
        <ele>270.5</ele>
        <time>2026-08-05T09:22:18Z</time>
      </trkpt>
			<trkpt lat="36.46056" lon="-5.16136">
        <ele>270.1</ele>
        <time>2026-08-05T09:22:21Z</time>
      </trkpt>
			<trkpt lat="36.46076" lon="-5.16165">
        <ele>269.7</ele>
        <time>2026-08-05T09:22:24Z</time>
      </trkpt>
			<trkpt lat="36.46095" lon="-5.16194">
        <ele>269.4</ele>
        <time>2026-08-05T09:22:27Z</time>
      </trkpt>
			<trkpt lat="36.4612" lon="-5.16207">
        <ele>269.2</ele>
        <time>2026-08-05T09:22:30Z</time>
      </trkpt>
			<trkpt lat="36.46145" lon="-5.16221">
        <ele>269.1</ele>
        <time>2026-08-05T09:22:34Z</time>
      </trkpt>
			<trkpt lat="36.4616" lon="-5.16244">
        <ele>269.2</ele>
        <time>2026-08-05T09:22:37Z</time>
      </trkpt>
			<trkpt lat="36.46164" lon="-5.16278">
        <ele>269.4</ele>
        <time>2026-08-05T09:22:42Z</time>
      </trkpt>
			<trkpt lat="36.46159" lon="-5.16311">
        <ele>269.7</ele>
        <time>2026-08-05T09:22:47Z</time>
      </trkpt>
			<trkpt lat="36.46162" lon="-5.16341">
        <ele>270.2</ele>
        <time>2026-08-05T09:22:51Z</time>
      </trkpt>
			<trkpt lat="36.46179" lon="-5.16389">
        <ele>271.5</ele>
        <time>2026-08-05T09:23:01Z</time>
      </trkpt>
			<trkpt lat="36.46196" lon="-5.16415">
        <ele>272.5</ele>
        <time>2026-08-05T09:23:07Z</time>
      </trkpt>
			<trkpt lat="36.46229" lon="-5.16444">
        <ele>274.5</ele>
        <time>2026-08-05T09:23:17Z</time>
      </trkpt>
			<trkpt lat="36.46246" lon="-5.16475">
        <ele>276.1</ele>
        <time>2026-08-05T09:23:25Z</time>
      </trkpt>
			<trkpt lat="36.46275" lon="-5.16504">
        <ele>278.2</ele>
        <time>2026-08-05T09:23:36Z</time>
      </trkpt>
			<trkpt lat="36.46303" lon="-5.16534">
        <ele>280.3</ele>
        <time>2026-08-05T09:23:47Z</time>
      </trkpt>
			<trkpt lat="36.46339" lon="-5.16567">
        <ele>282.5</ele>
        <time>2026-08-05T09:23:58Z</time>
      </trkpt>
			<trkpt lat="36.46375" lon="-5.166">
        <ele>284.3</ele>
        <time>2026-08-05T09:24:09Z</time>
      </trkpt>
			<trkpt lat="36.46411" lon="-5.16633">
        <ele>285.7</ele>
        <time>2026-08-05T09:24:19Z</time>
      </trkpt>
			<trkpt lat="36.46421" lon="-5.16637">
        <ele>285.9</ele>
        <time>2026-08-05T09:24:21Z</time>
      </trkpt>
			<trkpt lat="36.46439" lon="-5.1664">
        <ele>286.4</ele>
        <time>2026-08-05T09:24:24Z</time>
      </trkpt>
			<trkpt lat="36.46474" lon="-5.16642">
        <ele>287.1</ele>
        <time>2026-08-05T09:24:31Z</time>
      </trkpt>
			<trkpt lat="36.46485" lon="-5.16645">
        <ele>287.4</ele>
        <time>2026-08-05T09:24:33Z</time>
      </trkpt>
			<trkpt lat="36.46497" lon="-5.16652">
        <ele>287.6</ele>
        <time>2026-08-05T09:24:36Z</time>
      </trkpt>
			<trkpt lat="36.46504" lon="-5.1666">
        <ele>287.8</ele>
        <time>2026-08-05T09:24:37Z</time>
      </trkpt>
			<trkpt lat="36.46514" lon="-5.16678">
        <ele>288.3</ele>
        <time>2026-08-05T09:24:41Z</time>
      </trkpt>
			<trkpt lat="36.46518" lon="-5.16714">
        <ele>289</ele>
        <time>2026-08-05T09:24:47Z</time>
      </trkpt>
			<trkpt lat="36.46523" lon="-5.16734">
        <ele>289.6</ele>
        <time>2026-08-05T09:24:51Z</time>
      </trkpt>
			<trkpt lat="36.46532" lon="-5.16753">
        <ele>290.2</ele>
        <time>2026-08-05T09:24:55Z</time>
      </trkpt>
			<trkpt lat="36.46565" lon="-5.16788">
        <ele>292.2</ele>
        <time>2026-08-05T09:25:05Z</time>
      </trkpt>
			<trkpt lat="36.46579" lon="-5.16801">
        <ele>293.2</ele>
        <time>2026-08-05T09:25:10Z</time>
      </trkpt>
			<trkpt lat="36.46593" lon="-5.16805">
        <ele>294.1</ele>
        <time>2026-08-05T09:25:15Z</time>
      </trkpt>
			<trkpt lat="36.46626" lon="-5.1681">
        <ele>296.5</ele>
        <time>2026-08-05T09:25:25Z</time>
      </trkpt>
			<trkpt lat="36.46651" lon="-5.16833">
        <ele>299</ele>
        <time>2026-08-05T09:25:35Z</time>
      </trkpt>
			<trkpt lat="36.46675" lon="-5.16856">
        <ele>301.7</ele>
        <time>2026-08-05T09:25:48Z</time>
      </trkpt>
			<trkpt lat="36.46713" lon="-5.16863">
        <ele>305.1</ele>
        <time>2026-08-05T09:26:03Z</time>
      </trkpt>
			<trkpt lat="36.4673" lon="-5.16873">
        <ele>306.7</ele>
        <time>2026-08-05T09:26:11Z</time>
      </trkpt>
			<trkpt lat="36.46756" lon="-5.16912">
        <ele>309.9</ele>
        <time>2026-08-05T09:26:24Z</time>
      </trkpt>
			<trkpt lat="36.46779" lon="-5.16927">
        <ele>311.7</ele>
        <time>2026-08-05T09:26:32Z</time>
      </trkpt>
			<trkpt lat="36.46795" lon="-5.16931">
        <ele>312.7</ele>
        <time>2026-08-05T09:26:37Z</time>
      </trkpt>
			<trkpt lat="36.46811" lon="-5.16928">
        <ele>313.6</ele>
        <time>2026-08-05T09:26:42Z</time>
      </trkpt>
			<trkpt lat="36.46841" lon="-5.16905">
        <ele>315.4</ele>
        <time>2026-08-05T09:26:52Z</time>
      </trkpt>
			<trkpt lat="36.46851" lon="-5.16902">
        <ele>315.8</ele>
        <time>2026-08-05T09:26:54Z</time>
      </trkpt>
			<trkpt lat="36.46859" lon="-5.16905">
        <ele>316.2</ele>
        <time>2026-08-05T09:26:56Z</time>
      </trkpt>
			<trkpt lat="36.46867" lon="-5.16914">
        <ele>316.6</ele>
        <time>2026-08-05T09:26:59Z</time>
      </trkpt>
			<trkpt lat="36.4687" lon="-5.16926">
        <ele>317</ele>
        <time>2026-08-05T09:27:01Z</time>
      </trkpt>
			<trkpt lat="36.46863" lon="-5.16952">
        <ele>317.7</ele>
        <time>2026-08-05T09:27:06Z</time>
      </trkpt>
			<trkpt lat="36.46862" lon="-5.16966">
        <ele>318.1</ele>
        <time>2026-08-05T09:27:09Z</time>
      </trkpt>
			<trkpt lat="36.46872" lon="-5.16982">
        <ele>318.6</ele>
        <time>2026-08-05T09:27:12Z</time>
      </trkpt>
			<trkpt lat="36.46884" lon="-5.16987">
        <ele>318.9</ele>
        <time>2026-08-05T09:27:15Z</time>
      </trkpt>
			<trkpt lat="36.46904" lon="-5.16987">
        <ele>319.5</ele>
        <time>2026-08-05T09:27:19Z</time>
      </trkpt>
			<trkpt lat="36.46934" lon="-5.16984">
        <ele>320.3</ele>
        <time>2026-08-05T09:27:25Z</time>
      </trkpt>
			<trkpt lat="36.46953" lon="-5.16994">
        <ele>320.9</ele>
        <time>2026-08-05T09:27:29Z</time>
      </trkpt>
			<trkpt lat="36.4697" lon="-5.17018">
        <ele>321.8</ele>
        <time>2026-08-05T09:27:35Z</time>
      </trkpt>
			<trkpt lat="36.46987" lon="-5.17043">
        <ele>322.7</ele>
        <time>2026-08-05T09:27:41Z</time>
      </trkpt>
			<trkpt lat="36.47017" lon="-5.17065">
        <ele>324.3</ele>
        <time>2026-08-05T09:27:50Z</time>
      </trkpt>
			<trkpt lat="36.47047" lon="-5.17088">
        <ele>326.1</ele>
        <time>2026-08-05T09:28:00Z</time>
      </trkpt>
			<trkpt lat="36.47056" lon="-5.17115">
        <ele>327.6</ele>
        <time>2026-08-05T09:28:07Z</time>
      </trkpt>
			<trkpt lat="36.47064" lon="-5.17143">
        <ele>329</ele>
        <time>2026-08-05T09:28:14Z</time>
      </trkpt>
			<trkpt lat="36.47088" lon="-5.1716">
        <ele>330.9</ele>
        <time>2026-08-05T09:28:22Z</time>
      </trkpt>
			<trkpt lat="36.47112" lon="-5.17178">
        <ele>332.8</ele>
        <time>2026-08-05T09:28:31Z</time>
      </trkpt>
			<trkpt lat="36.47121" lon="-5.17194">
        <ele>333.9</ele>
        <time>2026-08-05T09:28:36Z</time>
      </trkpt>
			<trkpt lat="36.47127" lon="-5.17212">
        <ele>335.1</ele>
        <time>2026-08-05T09:28:41Z</time>
      </trkpt>
			<trkpt lat="36.47128" lon="-5.17233">
        <ele>336.3</ele>
        <time>2026-08-05T09:28:46Z</time>
      </trkpt>
			<trkpt lat="36.47125" lon="-5.1725">
        <ele>337.3</ele>
        <time>2026-08-05T09:28:51Z</time>
      </trkpt>
			<trkpt lat="36.47118" lon="-5.17262">
        <ele>338.1</ele>
        <time>2026-08-05T09:28:54Z</time>
      </trkpt>
			<trkpt lat="36.47103" lon="-5.17269">
        <ele>339.4</ele>
        <time>2026-08-05T09:29:00Z</time>
      </trkpt>
			<trkpt lat="36.47079" lon="-5.17263">
        <ele>341.3</ele>
        <time>2026-08-05T09:29:08Z</time>
      </trkpt>
			<trkpt lat="36.47054" lon="-5.17258">
        <ele>343.4</ele>
        <time>2026-08-05T09:29:16Z</time>
      </trkpt>
			<trkpt lat="36.47031" lon="-5.17247">
        <ele>345.5</ele>
        <time>2026-08-05T09:29:26Z</time>
      </trkpt>
			<trkpt lat="36.47007" lon="-5.17236">
        <ele>347.9</ele>
        <time>2026-08-05T09:29:36Z</time>
      </trkpt>
			<trkpt lat="36.46996" lon="-5.17244">
        <ele>349.3</ele>
        <time>2026-08-05T09:29:43Z</time>
      </trkpt>
			<trkpt lat="36.46993" lon="-5.17258">
        <ele>350.5</ele>
        <time>2026-08-05T09:29:48Z</time>
      </trkpt>
			<trkpt lat="36.47004" lon="-5.17273">
        <ele>352.5</ele>
        <time>2026-08-05T09:29:56Z</time>
      </trkpt>
			<trkpt lat="36.47038" lon="-5.17281">
        <ele>356.8</ele>
        <time>2026-08-05T09:30:13Z</time>
      </trkpt>
			<trkpt lat="36.47066" lon="-5.17299">
        <ele>361.4</ele>
        <time>2026-08-05T09:30:34Z</time>
      </trkpt>
			<trkpt lat="36.47093" lon="-5.17317">
        <ele>366.2</ele>
        <time>2026-08-05T09:30:55Z</time>
      </trkpt>
			<trkpt lat="36.4711" lon="-5.17342">
        <ele>370.5</ele>
        <time>2026-08-05T09:31:16Z</time>
      </trkpt>
			<trkpt lat="36.47127" lon="-5.17383">
        <ele>377</ele>
        <time>2026-08-05T09:31:46Z</time>
      </trkpt>
			<trkpt lat="36.47133" lon="-5.17398">
        <ele>379.4</ele>
        <time>2026-08-05T09:31:56Z</time>
      </trkpt>
			<trkpt lat="36.47163" lon="-5.17427">
        <ele>386</ele>
        <time>2026-08-05T09:32:27Z</time>
      </trkpt>
			<trkpt lat="36.4717" lon="-5.17443">
        <ele>388.5</ele>
        <time>2026-08-05T09:32:38Z</time>
      </trkpt>
			<trkpt lat="36.47178" lon="-5.17493">
        <ele>395.7</ele>
        <time>2026-08-05T09:33:11Z</time>
      </trkpt>
			<trkpt lat="36.47183" lon="-5.17508">
        <ele>397.8</ele>
        <time>2026-08-05T09:33:20Z</time>
      </trkpt>
			<trkpt lat="36.47199" lon="-5.17535">
        <ele>402.4</ele>
        <time>2026-08-05T09:33:42Z</time>
      </trkpt>
			<trkpt lat="36.47212" lon="-5.17546">
        <ele>405.1</ele>
        <time>2026-08-05T09:33:54Z</time>
      </trkpt>
			<trkpt lat="36.47242" lon="-5.17554">
        <ele>410.3</ele>
        <time>2026-08-05T09:34:19Z</time>
      </trkpt>
			<trkpt lat="36.47255" lon="-5.17561">
        <ele>412.8</ele>
        <time>2026-08-05T09:34:30Z</time>
      </trkpt>
			<trkpt lat="36.47276" lon="-5.17578">
        <ele>417.2</ele>
        <time>2026-08-05T09:34:50Z</time>
      </trkpt>
			<trkpt lat="36.47304" lon="-5.17605">
        <ele>423.3</ele>
        <time>2026-08-05T09:35:18Z</time>
      </trkpt>
			<trkpt lat="36.47343" lon="-5.17631">
        <ele>430.9</ele>
        <time>2026-08-05T09:35:54Z</time>
      </trkpt>
			<trkpt lat="36.47365" lon="-5.17649">
        <ele>435.3</ele>
        <time>2026-08-05T09:36:15Z</time>
      </trkpt>
			<trkpt lat="36.47386" lon="-5.17668">
        <ele>439.4</ele>
        <time>2026-08-05T09:36:32Z</time>
      </trkpt>
			<trkpt lat="36.474" lon="-5.17687">
        <ele>442.5</ele>
        <time>2026-08-05T09:36:46Z</time>
      </trkpt>
			<trkpt lat="36.47426" lon="-5.17702">
        <ele>446.5</ele>
        <time>2026-08-05T09:37:05Z</time>
      </trkpt>
			<trkpt lat="36.47451" lon="-5.17717">
        <ele>449.9</ele>
        <time>2026-08-05T09:37:19Z</time>
      </trkpt>
			<trkpt lat="36.47463" lon="-5.17733">
        <ele>451.8</ele>
        <time>2026-08-05T09:37:28Z</time>
      </trkpt>
			<trkpt lat="36.47468" lon="-5.17749">
        <ele>453.2</ele>
        <time>2026-08-05T09:37:34Z</time>
      </trkpt>
			<trkpt lat="36.47468" lon="-5.17762">
        <ele>454.2</ele>
        <time>2026-08-05T09:37:39Z</time>
      </trkpt>
			<trkpt lat="36.47455" lon="-5.17807">
        <ele>457.3</ele>
        <time>2026-08-05T09:37:52Z</time>
      </trkpt>
			<trkpt lat="36.47458" lon="-5.17816">
        <ele>457.9</ele>
        <time>2026-08-05T09:37:54Z</time>
      </trkpt>
			<trkpt lat="36.47474" lon="-5.17834">
        <ele>459.2</ele>
        <time>2026-08-05T09:38:00Z</time>
      </trkpt>
			<trkpt lat="36.47485" lon="-5.17849">
        <ele>460.1</ele>
        <time>2026-08-05T09:38:05Z</time>
      </trkpt>
			<trkpt lat="36.47494" lon="-5.17853">
        <ele>460.6</ele>
        <time>2026-08-05T09:38:08Z</time>
      </trkpt>
			<trkpt lat="36.47518" lon="-5.17851">
        <ele>461.6</ele>
        <time>2026-08-05T09:38:14Z</time>
      </trkpt>
			<trkpt lat="36.47543" lon="-5.17853">
        <ele>462.5</ele>
        <time>2026-08-05T09:38:19Z</time>
      </trkpt>
			<trkpt lat="36.47552" lon="-5.17849">
        <ele>462.8</ele>
        <time>2026-08-05T09:38:21Z</time>
      </trkpt>
			<trkpt lat="36.47563" lon="-5.17836">
        <ele>463.2</ele>
        <time>2026-08-05T09:38:24Z</time>
      </trkpt>
			<trkpt lat="36.47573" lon="-5.17832">
        <ele>463.4</ele>
        <time>2026-08-05T09:38:26Z</time>
      </trkpt>
			<trkpt lat="36.47582" lon="-5.17834">
        <ele>463.6</ele>
        <time>2026-08-05T09:38:28Z</time>
      </trkpt>
			<trkpt lat="36.47605" lon="-5.17854">
        <ele>464.2</ele>
        <time>2026-08-05T09:38:33Z</time>
      </trkpt>
			<trkpt lat="36.47628" lon="-5.17875">
        <ele>464.8</ele>
        <time>2026-08-05T09:38:39Z</time>
      </trkpt>
			<trkpt lat="36.47654" lon="-5.17894">
        <ele>465.5</ele>
        <time>2026-08-05T09:38:45Z</time>
      </trkpt>
			<trkpt lat="36.47679" lon="-5.17913">
        <ele>466.3</ele>
        <time>2026-08-05T09:38:50Z</time>
      </trkpt>
			<trkpt lat="36.47718" lon="-5.17932">
        <ele>467.6</ele>
        <time>2026-08-05T09:39:00Z</time>
      </trkpt>
			<trkpt lat="36.47756" lon="-5.17952">
        <ele>469.3</ele>
        <time>2026-08-05T09:39:10Z</time>
      </trkpt>
			<trkpt lat="36.47786" lon="-5.17966">
        <ele>470.6</ele>
        <time>2026-08-05T09:39:18Z</time>
      </trkpt>
			<trkpt lat="36.47816" lon="-5.1798">
        <ele>472</ele>
        <time>2026-08-05T09:39:26Z</time>
      </trkpt>
			<trkpt lat="36.47831" lon="-5.17998">
        <ele>472.9</ele>
        <time>2026-08-05T09:39:31Z</time>
      </trkpt>
			<trkpt lat="36.47848" lon="-5.18035">
        <ele>474.2</ele>
        <time>2026-08-05T09:39:39Z</time>
      </trkpt>
			<trkpt lat="36.47858" lon="-5.18053">
        <ele>474.8</ele>
        <time>2026-08-05T09:39:43Z</time>
      </trkpt>
			<trkpt lat="36.47873" lon="-5.18069">
        <ele>475.4</ele>
        <time>2026-08-05T09:39:47Z</time>
      </trkpt>
			<trkpt lat="36.47888" lon="-5.18072">
        <ele>475.9</ele>
        <time>2026-08-05T09:39:50Z</time>
      </trkpt>
			<trkpt lat="36.47899" lon="-5.18067">
        <ele>476.3</ele>
        <time>2026-08-05T09:39:53Z</time>
      </trkpt>
			<trkpt lat="36.479" lon="-5.18045">
        <ele>476.8</ele>
        <time>2026-08-05T09:39:57Z</time>
      </trkpt>
			<trkpt lat="36.47896" lon="-5.18021">
        <ele>477.3</ele>
        <time>2026-08-05T09:40:01Z</time>
      </trkpt>
			<trkpt lat="36.47902" lon="-5.18002">
        <ele>477.7</ele>
        <time>2026-08-05T09:40:04Z</time>
      </trkpt>
			<trkpt lat="36.47916" lon="-5.17992">
        <ele>478</ele>
        <time>2026-08-05T09:40:07Z</time>
      </trkpt>
			<trkpt lat="36.47937" lon="-5.17999">
        <ele>478.5</ele>
        <time>2026-08-05T09:40:11Z</time>
      </trkpt>
			<trkpt lat="36.47967" lon="-5.18019">
        <ele>479.1</ele>
        <time>2026-08-05T09:40:18Z</time>
      </trkpt>
			<trkpt lat="36.47996" lon="-5.18026">
        <ele>479.7</ele>
        <time>2026-08-05T09:40:23Z</time>
      </trkpt>
			<trkpt lat="36.48016" lon="-5.18012">
        <ele>480.1</ele>
        <time>2026-08-05T09:40:28Z</time>
      </trkpt>
			<trkpt lat="36.48029" lon="-5.17989">
        <ele>480.6</ele>
        <time>2026-08-05T09:40:32Z</time>
      </trkpt>
			<trkpt lat="36.4803" lon="-5.17955">
        <ele>481.2</ele>
        <time>2026-08-05T09:40:37Z</time>
      </trkpt>
			<trkpt lat="36.48028" lon="-5.17924">
        <ele>481.9</ele>
        <time>2026-08-05T09:40:43Z</time>
      </trkpt>
			<trkpt lat="36.48023" lon="-5.17897">
        <ele>482.7</ele>
        <time>2026-08-05T09:40:48Z</time>
      </trkpt>
			<trkpt lat="36.48015" lon="-5.17869">
        <ele>483.7</ele>
        <time>2026-08-05T09:40:54Z</time>
      </trkpt>
			<trkpt lat="36.48014" lon="-5.17847">
        <ele>484.6</ele>
        <time>2026-08-05T09:40:59Z</time>
      </trkpt>
			<trkpt lat="36.48024" lon="-5.17829">
        <ele>485.6</ele>
        <time>2026-08-05T09:41:04Z</time>
      </trkpt>
			<trkpt lat="36.48044" lon="-5.17827">
        <ele>486.9</ele>
        <time>2026-08-05T09:41:10Z</time>
      </trkpt>
			<trkpt lat="36.4806" lon="-5.17833">
        <ele>488.1</ele>
        <time>2026-08-05T09:41:15Z</time>
      </trkpt>
			<trkpt lat="36.48074" lon="-5.17851">
        <ele>489.7</ele>
        <time>2026-08-05T09:41:22Z</time>
      </trkpt>
			<trkpt lat="36.4808" lon="-5.17885">
        <ele>492.2</ele>
        <time>2026-08-05T09:41:33Z</time>
      </trkpt>
			<trkpt lat="36.48082" lon="-5.17896">
        <ele>493</ele>
        <time>2026-08-05T09:41:37Z</time>
      </trkpt>
			<trkpt lat="36.48089" lon="-5.17914">
        <ele>494.6</ele>
        <time>2026-08-05T09:41:44Z</time>
      </trkpt>
			<trkpt lat="36.48111" lon="-5.1794">
        <ele>497.6</ele>
        <time>2026-08-05T09:41:57Z</time>
      </trkpt>
			<trkpt lat="36.48145" lon="-5.1796">
        <ele>501.6</ele>
        <time>2026-08-05T09:42:16Z</time>
      </trkpt>
			<trkpt lat="36.48177" lon="-5.17976">
        <ele>505.2</ele>
        <time>2026-08-05T09:42:31Z</time>
      </trkpt>
			<trkpt lat="36.48193" lon="-5.17975">
        <ele>506.7</ele>
        <time>2026-08-05T09:42:38Z</time>
      </trkpt>
			<trkpt lat="36.48197" lon="-5.17967">
        <ele>507.5</ele>
        <time>2026-08-05T09:42:41Z</time>
      </trkpt>
			<trkpt lat="36.48199" lon="-5.17959">
        <ele>508.1</ele>
        <time>2026-08-05T09:42:44Z</time>
      </trkpt>
			<trkpt lat="36.4819" lon="-5.17921">
        <ele>511.1</ele>
        <time>2026-08-05T09:42:57Z</time>
      </trkpt>
			<trkpt lat="36.48186" lon="-5.17875">
        <ele>514</ele>
        <time>2026-08-05T09:43:09Z</time>
      </trkpt>
			<trkpt lat="36.48191" lon="-5.17823">
        <ele>516.9</ele>
        <time>2026-08-05T09:43:22Z</time>
      </trkpt>
			<trkpt lat="36.48196" lon="-5.1777">
        <ele>519.4</ele>
        <time>2026-08-05T09:43:34Z</time>
      </trkpt>
			<trkpt lat="36.48201" lon="-5.17718">
        <ele>521.7</ele>
        <time>2026-08-05T09:43:46Z</time>
      </trkpt>
			<trkpt lat="36.48208" lon="-5.17689">
        <ele>522.8</ele>
        <time>2026-08-05T09:43:52Z</time>
      </trkpt>
			<trkpt lat="36.48214" lon="-5.1766">
        <ele>524</ele>
        <time>2026-08-05T09:43:58Z</time>
      </trkpt>
			<trkpt lat="36.48235" lon="-5.17615">
        <ele>526.1</ele>
        <time>2026-08-05T09:44:10Z</time>
      </trkpt>
			<trkpt lat="36.48252" lon="-5.17593">
        <ele>527.2</ele>
        <time>2026-08-05T09:44:16Z</time>
      </trkpt>
			<trkpt lat="36.48269" lon="-5.17571">
        <ele>528.4</ele>
        <time>2026-08-05T09:44:23Z</time>
      </trkpt>
			<trkpt lat="36.48277" lon="-5.17535">
        <ele>530</ele>
        <time>2026-08-05T09:44:31Z</time>
      </trkpt>
			<trkpt lat="36.48263" lon="-5.17485">
        <ele>532.4</ele>
        <time>2026-08-05T09:44:43Z</time>
      </trkpt>
			<trkpt lat="36.48246" lon="-5.17454">
        <ele>534.2</ele>
        <time>2026-08-05T09:44:52Z</time>
      </trkpt>
			<trkpt lat="36.4823" lon="-5.17421">
        <ele>536.3</ele>
        <time>2026-08-05T09:45:02Z</time>
      </trkpt>
			<trkpt lat="36.48214" lon="-5.17388">
        <ele>538.7</ele>
        <time>2026-08-05T09:45:12Z</time>
      </trkpt>
			<trkpt lat="36.48213" lon="-5.17364">
        <ele>540.3</ele>
        <time>2026-08-05T09:45:18Z</time>
      </trkpt>
			<trkpt lat="36.4822" lon="-5.17346">
        <ele>541.8</ele>
        <time>2026-08-05T09:45:25Z</time>
      </trkpt>
			<trkpt lat="36.48235" lon="-5.17339">
        <ele>543.4</ele>
        <time>2026-08-05T09:45:32Z</time>
      </trkpt>
			<trkpt lat="36.48251" lon="-5.17342">
        <ele>545.1</ele>
        <time>2026-08-05T09:45:39Z</time>
      </trkpt>
			<trkpt lat="36.48291" lon="-5.17363">
        <ele>550.1</ele>
        <time>2026-08-05T09:46:01Z</time>
      </trkpt>
			<trkpt lat="36.4831" lon="-5.17384">
        <ele>553.3</ele>
        <time>2026-08-05T09:46:14Z</time>
      </trkpt>
			<trkpt lat="36.48328" lon="-5.17405">
        <ele>556.8</ele>
        <time>2026-08-05T09:46:30Z</time>
      </trkpt>
			<trkpt lat="36.48353" lon="-5.17448">
        <ele>562.9</ele>
        <time>2026-08-05T09:46:58Z</time>
      </trkpt>
			<trkpt lat="36.48371" lon="-5.17473">
        <ele>566.9</ele>
        <time>2026-08-05T09:47:16Z</time>
      </trkpt>
			<trkpt lat="36.48388" lon="-5.17498">
        <ele>570.7</ele>
        <time>2026-08-05T09:47:34Z</time>
      </trkpt>
			<trkpt lat="36.48417" lon="-5.17537">
        <ele>576.5</ele>
        <time>2026-08-05T09:47:58Z</time>
      </trkpt>
			<trkpt lat="36.48446" lon="-5.17577">
        <ele>581.4</ele>
        <time>2026-08-05T09:48:20Z</time>
      </trkpt>
			<trkpt lat="36.48475" lon="-5.17609">
        <ele>584.7</ele>
        <time>2026-08-05T09:48:36Z</time>
      </trkpt>
			<trkpt lat="36.48503" lon="-5.17642">
        <ele>587</ele>
        <time>2026-08-05T09:48:47Z</time>
      </trkpt>
			<trkpt lat="36.48515" lon="-5.17639">
        <ele>587.6</ele>
        <time>2026-08-05T09:48:50Z</time>
      </trkpt>
			<trkpt lat="36.4852" lon="-5.17632">
        <ele>587.9</ele>
        <time>2026-08-05T09:48:52Z</time>
      </trkpt>
			<trkpt lat="36.48525" lon="-5.17602">
        <ele>588.6</ele>
        <time>2026-08-05T09:48:57Z</time>
      </trkpt>
			<trkpt lat="36.48529" lon="-5.17565">
        <ele>589.1</ele>
        <time>2026-08-05T09:49:02Z</time>
      </trkpt>
			<trkpt lat="36.48537" lon="-5.17528">
        <ele>589.4</ele>
        <time>2026-08-05T09:49:08Z</time>
      </trkpt>
			<trkpt lat="36.48552" lon="-5.17478">
        <ele>589.5</ele>
        <time>2026-08-05T09:49:14Z</time>
      </trkpt>
			<trkpt lat="36.48566" lon="-5.17427">
        <ele>589.7</ele>
        <time>2026-08-05T09:49:20Z</time>
      </trkpt>
			<trkpt lat="36.48572" lon="-5.17382">
        <ele>590.2</ele>
        <time>2026-08-05T09:49:27Z</time>
      </trkpt>
			<trkpt lat="36.48568" lon="-5.17358">
        <ele>590.6</ele>
        <time>2026-08-05T09:49:31Z</time>
      </trkpt>
			<trkpt lat="36.48553" lon="-5.1733">
        <ele>591.3</ele>
        <time>2026-08-05T09:49:36Z</time>
      </trkpt>
			<trkpt lat="36.48538" lon="-5.17302">
        <ele>592.3</ele>
        <time>2026-08-05T09:49:42Z</time>
      </trkpt>
			<trkpt lat="36.48532" lon="-5.17284">
        <ele>592.9</ele>
        <time>2026-08-05T09:49:45Z</time>
      </trkpt>
			<trkpt lat="36.4853" lon="-5.17264">
        <ele>593.7</ele>
        <time>2026-08-05T09:49:49Z</time>
      </trkpt>
			<trkpt lat="36.48539" lon="-5.17252">
        <ele>594.4</ele>
        <time>2026-08-05T09:49:53Z</time>
      </trkpt>
			<trkpt lat="36.48549" lon="-5.17245">
        <ele>595.1</ele>
        <time>2026-08-05T09:49:56Z</time>
      </trkpt>
			<trkpt lat="36.48565" lon="-5.17252">
        <ele>596.1</ele>
        <time>2026-08-05T09:50:01Z</time>
      </trkpt>
			<trkpt lat="36.48574" lon="-5.17272">
        <ele>597.3</ele>
        <time>2026-08-05T09:50:07Z</time>
      </trkpt>
			<trkpt lat="36.48587" lon="-5.17324">
        <ele>600.6</ele>
        <time>2026-08-05T09:50:21Z</time>
      </trkpt>
			<trkpt lat="36.48602" lon="-5.17355">
        <ele>603.1</ele>
        <time>2026-08-05T09:50:33Z</time>
      </trkpt>
			<trkpt lat="36.48616" lon="-5.17387">
        <ele>605.9</ele>
        <time>2026-08-05T09:50:46Z</time>
      </trkpt>
			<trkpt lat="36.48617" lon="-5.17425">
        <ele>608.9</ele>
        <time>2026-08-05T09:51:00Z</time>
      </trkpt>
			<trkpt lat="36.48613" lon="-5.17474">
        <ele>613</ele>
        <time>2026-08-05T09:51:17Z</time>
      </trkpt>
			<trkpt lat="36.4861" lon="-5.17522">
        <ele>617.2</ele>
        <time>2026-08-05T09:51:37Z</time>
      </trkpt>
			<trkpt lat="36.48606" lon="-5.17571">
        <ele>621.5</ele>
        <time>2026-08-05T09:51:57Z</time>
      </trkpt>
			<trkpt lat="36.48611" lon="-5.17609">
        <ele>624.8</ele>
        <time>2026-08-05T09:52:12Z</time>
      </trkpt>
			<trkpt lat="36.48615" lon="-5.17648">
        <ele>628.2</ele>
        <time>2026-08-05T09:52:28Z</time>
      </trkpt>
			<trkpt lat="36.4862" lon="-5.17686">
        <ele>631.5</ele>
        <time>2026-08-05T09:52:43Z</time>
      </trkpt>
			<trkpt lat="36.48619" lon="-5.17731">
        <ele>635.2</ele>
        <time>2026-08-05T09:52:59Z</time>
      </trkpt>
			<trkpt lat="36.48615" lon="-5.17783">
        <ele>639.5</ele>
        <time>2026-08-05T09:53:18Z</time>
      </trkpt>
			<trkpt lat="36.48615" lon="-5.17812">
        <ele>641.8</ele>
        <time>2026-08-05T09:53:28Z</time>
      </trkpt>
			<trkpt lat="36.48619" lon="-5.17845">
        <ele>644.5</ele>
        <time>2026-08-05T09:53:40Z</time>
      </trkpt>
			<trkpt lat="36.48632" lon="-5.17879">
        <ele>647.7</ele>
        <time>2026-08-05T09:53:56Z</time>
      </trkpt>
			<trkpt lat="36.48646" lon="-5.17913">
        <ele>651</ele>
        <time>2026-08-05T09:54:11Z</time>
      </trkpt>
			<trkpt lat="36.48662" lon="-5.17938">
        <ele>653.9</ele>
        <time>2026-08-05T09:54:24Z</time>
      </trkpt>
			<trkpt lat="36.48678" lon="-5.17964">
        <ele>656.8</ele>
        <time>2026-08-05T09:54:37Z</time>
      </trkpt>
			<trkpt lat="36.48695" lon="-5.17982">
        <ele>659.5</ele>
        <time>2026-08-05T09:54:48Z</time>
      </trkpt>
			<trkpt lat="36.48712" lon="-5.18001">
        <ele>662.2</ele>
        <time>2026-08-05T09:55:00Z</time>
      </trkpt>
			<trkpt lat="36.48734" lon="-5.18006">
        <ele>664.9</ele>
        <time>2026-08-05T09:55:11Z</time>
      </trkpt>
			<trkpt lat="36.48752" lon="-5.18005">
        <ele>667.2</ele>
        <time>2026-08-05T09:55:20Z</time>
      </trkpt>
			<trkpt lat="36.48781" lon="-5.18">
        <ele>670.9</ele>
        <time>2026-08-05T09:55:34Z</time>
      </trkpt>
			<trkpt lat="36.48809" lon="-5.17994">
        <ele>674.8</ele>
        <time>2026-08-05T09:55:51Z</time>
      </trkpt>
			<trkpt lat="36.48833" lon="-5.17988">
        <ele>678</ele>
        <time>2026-08-05T09:56:05Z</time>
      </trkpt>
			<trkpt lat="36.48856" lon="-5.17981">
        <ele>681.4</ele>
        <time>2026-08-05T09:56:20Z</time>
      </trkpt>
			<trkpt lat="36.48874" lon="-5.17981">
        <ele>683.9</ele>
        <time>2026-08-05T09:56:31Z</time>
      </trkpt>
			<trkpt lat="36.4889" lon="-5.17988">
        <ele>686.2</ele>
        <time>2026-08-05T09:56:40Z</time>
      </trkpt>
			<trkpt lat="36.48908" lon="-5.18024">
        <ele>691.1</ele>
        <time>2026-08-05T09:57:03Z</time>
      </trkpt>
			<trkpt lat="36.48923" lon="-5.18048">
        <ele>694.5</ele>
        <time>2026-08-05T09:57:19Z</time>
      </trkpt>
			<trkpt lat="36.4895" lon="-5.18065">
        <ele>698.9</ele>
        <time>2026-08-05T09:57:40Z</time>
      </trkpt>
			<trkpt lat="36.48958" lon="-5.18088">
        <ele>701.9</ele>
        <time>2026-08-05T09:57:53Z</time>
      </trkpt>
			<trkpt lat="36.48961" lon="-5.18114">
        <ele>705</ele>
        <time>2026-08-05T09:58:07Z</time>
      </trkpt>
			<trkpt lat="36.4896" lon="-5.1815">
        <ele>709.3</ele>
        <time>2026-08-05T09:58:27Z</time>
      </trkpt>
			<trkpt lat="36.48953" lon="-5.18203">
        <ele>715.9</ele>
        <time>2026-08-05T09:58:55Z</time>
      </trkpt>
			<trkpt lat="36.48954" lon="-5.18243">
        <ele>720.9</ele>
        <time>2026-08-05T09:59:17Z</time>
      </trkpt>
			<trkpt lat="36.48954" lon="-5.18283">
        <ele>725.8</ele>
        <time>2026-08-05T09:59:38Z</time>
      </trkpt>
			<trkpt lat="36.48964" lon="-5.18336">
        <ele>731.9</ele>
        <time>2026-08-05T10:00:07Z</time>
      </trkpt>
			<trkpt lat="36.48966" lon="-5.18373">
        <ele>735.5</ele>
        <time>2026-08-05T10:00:22Z</time>
      </trkpt>
			<trkpt lat="36.48958" lon="-5.18412">
        <ele>738.8</ele>
        <time>2026-08-05T10:00:37Z</time>
      </trkpt>
			<trkpt lat="36.4895" lon="-5.1845">
        <ele>741.5</ele>
        <time>2026-08-05T10:00:49Z</time>
      </trkpt>
			<trkpt lat="36.48951" lon="-5.18498">
        <ele>743.8</ele>
        <time>2026-08-05T10:01:00Z</time>
      </trkpt>
			<trkpt lat="36.48955" lon="-5.18528">
        <ele>744.8</ele>
        <time>2026-08-05T10:01:07Z</time>
      </trkpt>
			<trkpt lat="36.48958" lon="-5.18558">
        <ele>745.4</ele>
        <time>2026-08-05T10:01:11Z</time>
      </trkpt>
			<trkpt lat="36.48965" lon="-5.1858">
        <ele>745.7</ele>
        <time>2026-08-05T10:01:14Z</time>
      </trkpt>
			<trkpt lat="36.48978" lon="-5.1859">
        <ele>745.9</ele>
        <time>2026-08-05T10:01:17Z</time>
      </trkpt>
			<trkpt lat="36.4899" lon="-5.18589">
        <ele>745.9</ele>
        <time>2026-08-05T10:01:19Z</time>
      </trkpt>
			<trkpt lat="36.49001" lon="-5.18582">
        <ele>746</ele>
        <time>2026-08-05T10:01:21Z</time>
      </trkpt>
			<trkpt lat="36.49012" lon="-5.18554">
        <ele>746</ele>
        <time>2026-08-05T10:01:25Z</time>
      </trkpt>
			<trkpt lat="36.49023" lon="-5.18526">
        <ele>746.1</ele>
        <time>2026-08-05T10:01:29Z</time>
      </trkpt>
			<trkpt lat="36.4904" lon="-5.18501">
        <ele>746.2</ele>
        <time>2026-08-05T10:01:32Z</time>
      </trkpt>
			<trkpt lat="36.49056" lon="-5.18476">
        <ele>746.6</ele>
        <time>2026-08-05T10:01:37Z</time>
      </trkpt>
			<trkpt lat="36.49074" lon="-5.18457">
        <ele>747.1</ele>
        <time>2026-08-05T10:01:41Z</time>
      </trkpt>
			<trkpt lat="36.49092" lon="-5.18449">
        <ele>747.8</ele>
        <time>2026-08-05T10:01:46Z</time>
      </trkpt>
			<trkpt lat="36.49109" lon="-5.18452">
        <ele>748.5</ele>
        <time>2026-08-05T10:01:50Z</time>
      </trkpt>
			<trkpt lat="36.49123" lon="-5.18468">
        <ele>749.5</ele>
        <time>2026-08-05T10:01:55Z</time>
      </trkpt>
			<trkpt lat="36.49137" lon="-5.18497">
        <ele>751.3</ele>
        <time>2026-08-05T10:02:04Z</time>
      </trkpt>
			<trkpt lat="36.49146" lon="-5.18526">
        <ele>753.2</ele>
        <time>2026-08-05T10:02:12Z</time>
      </trkpt>
			<trkpt lat="36.49155" lon="-5.18555">
        <ele>755.3</ele>
        <time>2026-08-05T10:02:22Z</time>
      </trkpt>
			<trkpt lat="36.49163" lon="-5.18586">
        <ele>757.7</ele>
        <time>2026-08-05T10:02:33Z</time>
      </trkpt>
			<trkpt lat="36.4917" lon="-5.18618">
        <ele>760.1</ele>
        <time>2026-08-05T10:02:43Z</time>
      </trkpt>
			<trkpt lat="36.49185" lon="-5.18646">
        <ele>762.5</ele>
        <time>2026-08-05T10:02:54Z</time>
      </trkpt>
			<trkpt lat="36.49209" lon="-5.18677">
        <ele>765.4</ele>
        <time>2026-08-05T10:03:08Z</time>
      </trkpt>
			<trkpt lat="36.49219" lon="-5.18705">
        <ele>767.1</ele>
        <time>2026-08-05T10:03:15Z</time>
      </trkpt>
			<trkpt lat="36.49221" lon="-5.1872">
        <ele>767.9</ele>
        <time>2026-08-05T10:03:19Z</time>
      </trkpt>
			<trkpt lat="36.49219" lon="-5.18751">
        <ele>769.3</ele>
        <time>2026-08-05T10:03:26Z</time>
      </trkpt>
			<trkpt lat="36.4922" lon="-5.18753">
        <ele>769.5</ele>
        <time>2026-08-05T10:03:27Z</time>
      </trkpt>
			<trkpt lat="36.49227" lon="-5.18766">
        <ele>770.1</ele>
        <time>2026-08-05T10:03:30Z</time>
      </trkpt>
			<trkpt lat="36.49237" lon="-5.18776">
        <ele>770.7</ele>
        <time>2026-08-05T10:03:34Z</time>
      </trkpt>
			<trkpt lat="36.49274" lon="-5.18796">
        <ele>772.3</ele>
        <time>2026-08-05T10:03:44Z</time>
      </trkpt>
			<trkpt lat="36.49312" lon="-5.1881">
        <ele>773.5</ele>
        <time>2026-08-05T10:03:53Z</time>
      </trkpt>
			<trkpt lat="36.49352" lon="-5.18798">
        <ele>774.6</ele>
        <time>2026-08-05T10:04:00Z</time>
      </trkpt>
			<trkpt lat="36.49372" lon="-5.18793">
        <ele>775.3</ele>
        <time>2026-08-05T10:04:05Z</time>
      </trkpt>
			<trkpt lat="36.49389" lon="-5.1878">
        <ele>776.1</ele>
        <time>2026-08-05T10:04:10Z</time>
      </trkpt>
			<trkpt lat="36.49415" lon="-5.1875">
        <ele>777.8</ele>
        <time>2026-08-05T10:04:19Z</time>
      </trkpt>
			<trkpt lat="36.49448" lon="-5.18726">
        <ele>780.1</ele>
        <time>2026-08-05T10:04:30Z</time>
      </trkpt>
			<trkpt lat="36.49469" lon="-5.18717">
        <ele>781.8</ele>
        <time>2026-08-05T10:04:37Z</time>
      </trkpt>
			<trkpt lat="36.4949" lon="-5.18711">
        <ele>783.7</ele>
        <time>2026-08-05T10:04:46Z</time>
      </trkpt>
			<trkpt lat="36.49522" lon="-5.18719">
        <ele>786.7</ele>
        <time>2026-08-05T10:04:59Z</time>
      </trkpt>
			<trkpt lat="36.49549" lon="-5.18738">
        <ele>789.9</ele>
        <time>2026-08-05T10:05:13Z</time>
      </trkpt>
			<trkpt lat="36.49567" lon="-5.18756">
        <ele>792.2</ele>
        <time>2026-08-05T10:05:23Z</time>
      </trkpt>
			<trkpt lat="36.49584" lon="-5.18774">
        <ele>794.6</ele>
        <time>2026-08-05T10:05:34Z</time>
      </trkpt>
			<trkpt lat="36.49621" lon="-5.18795">
        <ele>798.7</ele>
        <time>2026-08-05T10:05:52Z</time>
      </trkpt>
			<trkpt lat="36.49634" lon="-5.18819">
        <ele>801</ele>
        <time>2026-08-05T10:06:02Z</time>
      </trkpt>
			<trkpt lat="36.4964" lon="-5.18838">
        <ele>802.5</ele>
        <time>2026-08-05T10:06:09Z</time>
      </trkpt>
			<trkpt lat="36.49663" lon="-5.18863">
        <ele>805.1</ele>
        <time>2026-08-05T10:06:21Z</time>
      </trkpt>
			<trkpt lat="36.49678" lon="-5.18867">
        <ele>806.3</ele>
        <time>2026-08-05T10:06:26Z</time>
      </trkpt>
			<trkpt lat="36.49692" lon="-5.18865">
        <ele>807.3</ele>
        <time>2026-08-05T10:06:31Z</time>
      </trkpt>
			<trkpt lat="36.49729" lon="-5.18834">
        <ele>810.2</ele>
        <time>2026-08-05T10:06:44Z</time>
      </trkpt>
			<trkpt lat="36.49766" lon="-5.18802">
        <ele>812.7</ele>
        <time>2026-08-05T10:06:57Z</time>
      </trkpt>
			<trkpt lat="36.49792" lon="-5.18788">
        <ele>814</ele>
        <time>2026-08-05T10:07:04Z</time>
      </trkpt>
			<trkpt lat="36.49814" lon="-5.1878">
        <ele>815</ele>
        <time>2026-08-05T10:07:10Z</time>
      </trkpt>
			<trkpt lat="36.49848" lon="-5.1876">
        <ele>816.7</ele>
        <time>2026-08-05T10:07:20Z</time>
      </trkpt>
			<trkpt lat="36.49872" lon="-5.18736">
        <ele>818.3</ele>
        <time>2026-08-05T10:07:28Z</time>
      </trkpt>
			<trkpt lat="36.49895" lon="-5.18712">
        <ele>820</ele>
        <time>2026-08-05T10:07:37Z</time>
      </trkpt>
			<trkpt lat="36.49915" lon="-5.18683">
        <ele>822.2</ele>
        <time>2026-08-05T10:07:46Z</time>
      </trkpt>
			<trkpt lat="36.49935" lon="-5.18653">
        <ele>824.7</ele>
        <time>2026-08-05T10:07:57Z</time>
      </trkpt>
			<trkpt lat="36.49961" lon="-5.1862">
        <ele>828.4</ele>
        <time>2026-08-05T10:08:13Z</time>
      </trkpt>
			<trkpt lat="36.49998" lon="-5.18606">
        <ele>832.9</ele>
        <time>2026-08-05T10:08:33Z</time>
      </trkpt>
			<trkpt lat="36.50027" lon="-5.18586">
        <ele>837.1</ele>
        <time>2026-08-05T10:08:49Z</time>
      </trkpt>
			<trkpt lat="36.50063" lon="-5.18562">
        <ele>842.5</ele>
        <time>2026-08-05T10:09:13Z</time>
      </trkpt>
			<trkpt lat="36.50089" lon="-5.1856">
        <ele>846</ele>
        <time>2026-08-05T10:09:28Z</time>
      </trkpt>
			<trkpt lat="36.50114" lon="-5.18579">
        <ele>849.8</ele>
        <time>2026-08-05T10:09:44Z</time>
      </trkpt>
			<trkpt lat="36.50137" lon="-5.186">
        <ele>853.5</ele>
        <time>2026-08-05T10:10:01Z</time>
      </trkpt>
			<trkpt lat="36.50152" lon="-5.18615">
        <ele>855.8</ele>
        <time>2026-08-05T10:10:10Z</time>
      </trkpt>
			<trkpt lat="36.50169" lon="-5.18627">
        <ele>857.9</ele>
        <time>2026-08-05T10:10:20Z</time>
      </trkpt>
			<trkpt lat="36.50187" lon="-5.18621">
        <ele>859.9</ele>
        <time>2026-08-05T10:10:29Z</time>
      </trkpt>
			<trkpt lat="36.50202" lon="-5.18611">
        <ele>861.6</ele>
        <time>2026-08-05T10:10:37Z</time>
      </trkpt>
			<trkpt lat="36.50226" lon="-5.18606">
        <ele>863.8</ele>
        <time>2026-08-05T10:10:47Z</time>
      </trkpt>
			<trkpt lat="36.50247" lon="-5.18609">
        <ele>865.5</ele>
        <time>2026-08-05T10:10:54Z</time>
      </trkpt>
			<trkpt lat="36.50277" lon="-5.18608">
        <ele>867.4</ele>
        <time>2026-08-05T10:11:03Z</time>
      </trkpt>
			<trkpt lat="36.50306" lon="-5.18606">
        <ele>869</ele>
        <time>2026-08-05T10:11:11Z</time>
      </trkpt>
			<trkpt lat="36.50324" lon="-5.18604">
        <ele>869.7</ele>
        <time>2026-08-05T10:11:15Z</time>
      </trkpt>
			<trkpt lat="36.50343" lon="-5.18604">
        <ele>870.3</ele>
        <time>2026-08-05T10:11:20Z</time>
      </trkpt>
			<trkpt lat="36.5036" lon="-5.1861">
        <ele>870.7</ele>
        <time>2026-08-05T10:11:23Z</time>
      </trkpt>
			<trkpt lat="36.50374" lon="-5.18618">
        <ele>870.9</ele>
        <time>2026-08-05T10:11:26Z</time>
      </trkpt>
			<trkpt lat="36.50397" lon="-5.18628">
        <ele>870.9</ele>
        <time>2026-08-05T10:11:29Z</time>
      </trkpt>
			<trkpt lat="36.50406" lon="-5.18624">
        <ele>870.8</ele>
        <time>2026-08-05T10:11:30Z</time>
      </trkpt>
			<trkpt lat="36.50429" lon="-5.18579">
        <ele>870</ele>
        <time>2026-08-05T10:11:34Z</time>
      </trkpt>
			<trkpt lat="36.50437" lon="-5.18548">
        <ele>869.1</ele>
        <time>2026-08-05T10:11:37Z</time>
      </trkpt>
			<trkpt lat="36.50445" lon="-5.18517">
        <ele>867.9</ele>
        <time>2026-08-05T10:11:39Z</time>
      </trkpt>
			<trkpt lat="36.5045" lon="-5.18483">
        <ele>866.4</ele>
        <time>2026-08-05T10:11:42Z</time>
      </trkpt>
			<trkpt lat="36.50454" lon="-5.18448">
        <ele>864.7</ele>
        <time>2026-08-05T10:11:45Z</time>
      </trkpt>
			<trkpt lat="36.50461" lon="-5.18432">
        <ele>863.8</ele>
        <time>2026-08-05T10:11:46Z</time>
      </trkpt>
			<trkpt lat="36.50462" lon="-5.18405">
        <ele>862.4</ele>
        <time>2026-08-05T10:11:48Z</time>
      </trkpt>
			<trkpt lat="36.50451" lon="-5.18386">
        <ele>861.2</ele>
        <time>2026-08-05T10:11:50Z</time>
      </trkpt>
			<trkpt lat="36.50439" lon="-5.18369">
        <ele>860.1</ele>
        <time>2026-08-05T10:11:52Z</time>
      </trkpt>
			<trkpt lat="36.50413" lon="-5.18329">
        <ele>857.9</ele>
        <time>2026-08-05T10:11:56Z</time>
      </trkpt>
			<trkpt lat="36.50407" lon="-5.183">
        <ele>856.9</ele>
        <time>2026-08-05T10:11:58Z</time>
      </trkpt>
			<trkpt lat="36.5041" lon="-5.18261">
        <ele>856</ele>
        <time>2026-08-05T10:12:02Z</time>
      </trkpt>
			<trkpt lat="36.50413" lon="-5.18222">
        <ele>855.9</ele>
        <time>2026-08-05T10:12:06Z</time>
      </trkpt>
			<trkpt lat="36.50411" lon="-5.1817">
        <ele>856.8</ele>
        <time>2026-08-05T10:12:14Z</time>
      </trkpt>
			<trkpt lat="36.50414" lon="-5.18121">
        <ele>859</ele>
        <time>2026-08-05T10:12:25Z</time>
      </trkpt>
			<trkpt lat="36.50415" lon="-5.18089">
        <ele>861</ele>
        <time>2026-08-05T10:12:34Z</time>
      </trkpt>
			<trkpt lat="36.50416" lon="-5.18057">
        <ele>863.4</ele>
        <time>2026-08-05T10:12:44Z</time>
      </trkpt>
			<trkpt lat="36.50415" lon="-5.18028">
        <ele>865.8</ele>
        <time>2026-08-05T10:12:55Z</time>
      </trkpt>
			<trkpt lat="36.50414" lon="-5.17999">
        <ele>868.3</ele>
        <time>2026-08-05T10:13:06Z</time>
      </trkpt>
			<trkpt lat="36.50415" lon="-5.17967">
        <ele>871.1</ele>
        <time>2026-08-05T10:13:19Z</time>
      </trkpt>
			<trkpt lat="36.50423" lon="-5.17928">
        <ele>874.6</ele>
        <time>2026-08-05T10:13:35Z</time>
      </trkpt>
			<trkpt lat="36.50431" lon="-5.17901">
        <ele>876.8</ele>
        <time>2026-08-05T10:13:46Z</time>
      </trkpt>
			<trkpt lat="36.50439" lon="-5.17874">
        <ele>879</ele>
        <time>2026-08-05T10:13:56Z</time>
      </trkpt>
			<trkpt lat="36.50447" lon="-5.1783">
        <ele>882</ele>
        <time>2026-08-05T10:14:08Z</time>
      </trkpt>
			<trkpt lat="36.50451" lon="-5.17801">
        <ele>883.6</ele>
        <time>2026-08-05T10:14:15Z</time>
      </trkpt>
			<trkpt lat="36.50443" lon="-5.17771">
        <ele>885</ele>
        <time>2026-08-05T10:14:23Z</time>
      </trkpt>
			<trkpt lat="36.50437" lon="-5.17756">
        <ele>885.7</ele>
        <time>2026-08-05T10:14:27Z</time>
      </trkpt>
			<trkpt lat="36.50432" lon="-5.1774">
        <ele>886.4</ele>
        <time>2026-08-05T10:14:30Z</time>
      </trkpt>
			<trkpt lat="36.50433" lon="-5.17727">
        <ele>886.8</ele>
        <time>2026-08-05T10:14:33Z</time>
      </trkpt>
			<trkpt lat="36.50442" lon="-5.17719">
        <ele>887.2</ele>
        <time>2026-08-05T10:14:35Z</time>
      </trkpt>
			<trkpt lat="36.50454" lon="-5.17719">
        <ele>887.7</ele>
        <time>2026-08-05T10:14:38Z</time>
      </trkpt>
			<trkpt lat="36.50465" lon="-5.17728">
        <ele>888.1</ele>
        <time>2026-08-05T10:14:41Z</time>
      </trkpt>
			<trkpt lat="36.50471" lon="-5.17742">
        <ele>888.4</ele>
        <time>2026-08-05T10:14:44Z</time>
      </trkpt>
			<trkpt lat="36.50467" lon="-5.17789">
        <ele>889.3</ele>
        <time>2026-08-05T10:14:51Z</time>
      </trkpt>
			<trkpt lat="36.50465" lon="-5.17828">
        <ele>889.8</ele>
        <time>2026-08-05T10:14:56Z</time>
      </trkpt>
			<trkpt lat="36.50458" lon="-5.17877">
        <ele>890.3</ele>
        <time>2026-08-05T10:15:03Z</time>
      </trkpt>
			<trkpt lat="36.50456" lon="-5.17918">
        <ele>890.7</ele>
        <time>2026-08-05T10:15:09Z</time>
      </trkpt>
			<trkpt lat="36.5046" lon="-5.17954">
        <ele>891.2</ele>
        <time>2026-08-05T10:15:15Z</time>
      </trkpt>
			<trkpt lat="36.5046" lon="-5.18005">
        <ele>892</ele>
        <time>2026-08-05T10:15:22Z</time>
      </trkpt>
			<trkpt lat="36.50463" lon="-5.18058">
        <ele>893.4</ele>
        <time>2026-08-05T10:15:32Z</time>
      </trkpt>
			<trkpt lat="36.50469" lon="-5.18102">
        <ele>894.9</ele>
        <time>2026-08-05T10:15:41Z</time>
      </trkpt>
			<trkpt lat="36.50479" lon="-5.18141">
        <ele>896.7</ele>
        <time>2026-08-05T10:15:50Z</time>
      </trkpt>
			<trkpt lat="36.50483" lon="-5.18177">
        <ele>898.6</ele>
        <time>2026-08-05T10:15:59Z</time>
      </trkpt>
			<trkpt lat="36.50489" lon="-5.18211">
        <ele>900.6</ele>
        <time>2026-08-05T10:16:08Z</time>
      </trkpt>
			<trkpt lat="36.50501" lon="-5.18241">
        <ele>902.7</ele>
        <time>2026-08-05T10:16:17Z</time>
      </trkpt>
			<trkpt lat="36.50512" lon="-5.18271">
        <ele>905</ele>
        <time>2026-08-05T10:16:28Z</time>
      </trkpt>
			<trkpt lat="36.50532" lon="-5.18308">
        <ele>908.3</ele>
        <time>2026-08-05T10:16:42Z</time>
      </trkpt>
			<trkpt lat="36.5054" lon="-5.18346">
        <ele>911.3</ele>
        <time>2026-08-05T10:16:56Z</time>
      </trkpt>
			<trkpt lat="36.50543" lon="-5.18376">
        <ele>913.8</ele>
        <time>2026-08-05T10:17:07Z</time>
      </trkpt>
			<trkpt lat="36.50546" lon="-5.18407">
        <ele>916.4</ele>
        <time>2026-08-05T10:17:18Z</time>
      </trkpt>
			<trkpt lat="36.50559" lon="-5.18457">
        <ele>921.1</ele>
        <time>2026-08-05T10:17:39Z</time>
      </trkpt>
			<trkpt lat="36.5056" lon="-5.18499">
        <ele>924.9</ele>
        <time>2026-08-05T10:17:56Z</time>
      </trkpt>
			<trkpt lat="36.50556" lon="-5.18531">
        <ele>927.8</ele>
        <time>2026-08-05T10:18:09Z</time>
      </trkpt>
			<trkpt lat="36.50551" lon="-5.18563">
        <ele>930.8</ele>
        <time>2026-08-05T10:18:22Z</time>
      </trkpt>
			<trkpt lat="36.50545" lon="-5.18593">
        <ele>933.7</ele>
        <time>2026-08-05T10:18:34Z</time>
      </trkpt>
			<trkpt lat="36.50538" lon="-5.18622">
        <ele>936.4</ele>
        <time>2026-08-05T10:18:47Z</time>
      </trkpt>
			<trkpt lat="36.50533" lon="-5.18639">
        <ele>938</ele>
        <time>2026-08-05T10:18:54Z</time>
      </trkpt>
			<trkpt lat="36.50519" lon="-5.1868">
        <ele>941.8</ele>
        <time>2026-08-05T10:19:12Z</time>
      </trkpt>
			<trkpt lat="36.50499" lon="-5.18724">
        <ele>945.9</ele>
        <time>2026-08-05T10:19:30Z</time>
      </trkpt>
			<trkpt lat="36.50493" lon="-5.18751">
        <ele>947.9</ele>
        <time>2026-08-05T10:19:39Z</time>
      </trkpt>
			<trkpt lat="36.50487" lon="-5.18778">
        <ele>949.9</ele>
        <time>2026-08-05T10:19:48Z</time>
      </trkpt>
			<trkpt lat="36.50479" lon="-5.18821">
        <ele>952.8</ele>
        <time>2026-08-05T10:20:00Z</time>
      </trkpt>
			<trkpt lat="36.50474" lon="-5.18836">
        <ele>953.7</ele>
        <time>2026-08-05T10:20:04Z</time>
      </trkpt>
			<trkpt lat="36.50465" lon="-5.18859">
        <ele>955.2</ele>
        <time>2026-08-05T10:20:11Z</time>
      </trkpt>
			<trkpt lat="36.50464" lon="-5.18866">
        <ele>955.6</ele>
        <time>2026-08-05T10:20:12Z</time>
      </trkpt>
		</trkseg>
	</trk>
</gpx>
