<?xml version="1.0" encoding="UTF-8"?>
<gpx creator="Wikiloc - https://www.wikiloc.com" version="1.1" xmlns="http://www.topografix.com/GPX/1/1" xmlns:xsi="http://www.w3.org/2001/XMLSchema-instance" xsi:schemaLocation="http://www.topografix.com/GPX/1/1 http://www.topografix.com/GPX/1/1/gpx.xsd">
  <metadata>
    <name>Wikiloc - Puerto del Espino desde San Pablo de Buceite</name>
    <link href="https://www.wikiloc.com/cycling-trails/puerto-del-espino-desde-san-pablo-de-buceite-46680084">
      <text>Puerto del Espino desde San Pablo de Buceite - Wikiloc on Wikiloc</text>
    </link>
    <time>2019-12-07T10:35:01Z</time>
  </metadata>
  <trk>
    <name>Puerto del Espino desde San Pablo de Buceite - Wikiloc</name>
    <cmt></cmt>
    <desc></desc>
    <trkseg>
      <trkpt lat="36.470252" lon="-5.404554">
        <ele>38.425</ele>
        <time>2019-12-07T09:28:06Z</time>
      </trkpt>
      <trkpt lat="36.470101" lon="-5.404217">
        <ele>38.926</ele>
        <time>2019-12-07T09:28:10Z</time>
      </trkpt>
      <trkpt lat="36.470230" lon="-5.402792">
        <ele>41.508</ele>
        <time>2019-12-07T09:28:28Z</time>
      </trkpt>
      <trkpt lat="36.470473" lon="-5.402276">
        <ele>42.708</ele>
        <time>2019-12-07T09:28:36Z</time>
      </trkpt>
      <trkpt lat="36.470852" lon="-5.401948">
        <ele>45.416</ele>
        <time>2019-12-07T09:28:44Z</time>
      </trkpt>
      <trkpt lat="36.471448" lon="-5.401645">
        <ele>45.088</ele>
        <time>2019-12-07T09:28:56Z</time>
      </trkpt>
      <trkpt lat="36.471758" lon="-5.401609">
        <ele>44.258</ele>
        <time>2019-12-07T09:29:01Z</time>
      </trkpt>
      <trkpt lat="36.474720" lon="-5.401947">
        <ele>47.970</ele>
        <time>2019-12-07T09:29:51Z</time>
      </trkpt>
      <trkpt lat="36.475466" lon="-5.401661">
        <ele>48.362</ele>
        <time>2019-12-07T09:30:04Z</time>
      </trkpt>
      <trkpt lat="36.475672" lon="-5.401336">
        <ele>49.512</ele>
        <time>2019-12-07T09:30:10Z</time>
      </trkpt>
      <trkpt lat="36.475647" lon="-5.398348">
        <ele>53.240</ele>
        <time>2019-12-07T09:30:50Z</time>
      </trkpt>
      <trkpt lat="36.475882" lon="-5.396330">
        <ele>60.116</ele>
        <time>2019-12-07T09:31:23Z</time>
      </trkpt>
      <trkpt lat="36.475796" lon="-5.395148">
        <ele>67.453</ele>
        <time>2019-12-07T09:31:47Z</time>
      </trkpt>
      <trkpt lat="36.475998" lon="-5.391576">
        <ele>88.104</ele>
        <time>2019-12-07T09:33:00Z</time>
      </trkpt>
      <trkpt lat="36.476162" lon="-5.390716">
        <ele>92.914</ele>
        <time>2019-12-07T09:33:18Z</time>
      </trkpt>
      <trkpt lat="36.476681" lon="-5.389283">
        <ele>102.608</ele>
        <time>2019-12-07T09:33:51Z</time>
      </trkpt>
      <trkpt lat="36.476436" lon="-5.388472">
        <ele>107.479</ele>
        <time>2019-12-07T09:34:09Z</time>
      </trkpt>
      <trkpt lat="36.476529" lon="-5.387417">
        <ele>112.571</ele>
        <time>2019-12-07T09:34:31Z</time>
      </trkpt>
      <trkpt lat="36.476342" lon="-5.386918">
        <ele>115.141</ele>
        <time>2019-12-07T09:34:42Z</time>
      </trkpt>
      <trkpt lat="36.475999" lon="-5.386496">
        <ele>117.793</ele>
        <time>2019-12-07T09:34:53Z</time>
      </trkpt>
      <trkpt lat="36.475228" lon="-5.385979">
        <ele>121.595</ele>
        <time>2019-12-07T09:35:11Z</time>
      </trkpt>
      <trkpt lat="36.474046" lon="-5.385449">
        <ele>128.585</ele>
        <time>2019-12-07T09:35:38Z</time>
      </trkpt>
      <trkpt lat="36.473810" lon="-5.384995">
        <ele>131.363</ele>
        <time>2019-12-07T09:35:48Z</time>
      </trkpt>
      <trkpt lat="36.473817" lon="-5.384070">
        <ele>136.159</ele>
        <time>2019-12-07T09:36:05Z</time>
      </trkpt>
      <trkpt lat="36.474412" lon="-5.382484">
        <ele>139.925</ele>
        <time>2019-12-07T09:36:37Z</time>
      </trkpt>
      <trkpt lat="36.474354" lon="-5.379570">
        <ele>128.626</ele>
        <time>2019-12-07T09:37:03Z</time>
      </trkpt>
      <trkpt lat="36.474541" lon="-5.379029">
        <ele>131.608</ele>
        <time>2019-12-07T09:37:09Z</time>
      </trkpt>
      <trkpt lat="36.475676" lon="-5.378490">
        <ele>140.908</ele>
        <time>2019-12-07T09:37:34Z</time>
      </trkpt>
      <trkpt lat="36.478156" lon="-5.376063">
        <ele>162.856</ele>
        <time>2019-12-07T09:38:47Z</time>
      </trkpt>
      <trkpt lat="36.478490" lon="-5.376021">
        <ele>165.388</ele>
        <time>2019-12-07T09:38:55Z</time>
      </trkpt>
      <trkpt lat="36.479332" lon="-5.376280">
        <ele>171.648</ele>
        <time>2019-12-07T09:39:17Z</time>
      </trkpt>
      <trkpt lat="36.482232" lon="-5.375869">
        <ele>191.970</ele>
        <time>2019-12-07T09:40:34Z</time>
      </trkpt>
      <trkpt lat="36.482642" lon="-5.375735">
        <ele>195.592</ele>
        <time>2019-12-07T09:40:46Z</time>
      </trkpt>
      <trkpt lat="36.484382" lon="-5.374674">
        <ele>210.652</ele>
        <time>2019-12-07T09:41:38Z</time>
      </trkpt>
      <trkpt lat="36.485274" lon="-5.375013">
        <ele>219.930</ele>
        <time>2019-12-07T09:42:05Z</time>
      </trkpt>
      <trkpt lat="36.487523" lon="-5.372982">
        <ele>242.956</ele>
        <time>2019-12-07T09:43:25Z</time>
      </trkpt>
      <trkpt lat="36.488310" lon="-5.372692">
        <ele>249.528</ele>
        <time>2019-12-07T09:43:49Z</time>
      </trkpt>
      <trkpt lat="36.488678" lon="-5.372766">
        <ele>252.689</ele>
        <time>2019-12-07T09:43:59Z</time>
      </trkpt>
      <trkpt lat="36.489302" lon="-5.373281">
        <ele>258.317</ele>
        <time>2019-12-07T09:44:20Z</time>
      </trkpt>
      <trkpt lat="36.489703" lon="-5.373254">
        <ele>261.708</ele>
        <time>2019-12-07T09:44:32Z</time>
      </trkpt>
      <trkpt lat="36.489952" lon="-5.372991">
        <ele>264.116</ele>
        <time>2019-12-07T09:44:42Z</time>
      </trkpt>
      <trkpt lat="36.490304" lon="-5.371799">
        <ele>269.388</ele>
        <time>2019-12-07T09:45:11Z</time>
      </trkpt>
      <trkpt lat="36.490631" lon="-5.371534">
        <ele>270.978</ele>
        <time>2019-12-07T09:45:21Z</time>
      </trkpt>
      <trkpt lat="36.491976" lon="-5.371539">
        <ele>278.750</ele>
        <time>2019-12-07T09:45:57Z</time>
      </trkpt>
      <trkpt lat="36.493596" lon="-5.372558">
        <ele>289.442</ele>
        <time>2019-12-07T09:46:38Z</time>
      </trkpt>
      <trkpt lat="36.494991" lon="-5.373127">
        <ele>298.972</ele>
        <time>2019-12-07T09:47:15Z</time>
      </trkpt>
      <trkpt lat="36.496604" lon="-5.372914">
        <ele>307.750</ele>
        <time>2019-12-07T09:47:56Z</time>
      </trkpt>
      <trkpt lat="36.497282" lon="-5.372058">
        <ele>313.856</ele>
        <time>2019-12-07T09:48:19Z</time>
      </trkpt>
      <trkpt lat="36.497925" lon="-5.371766">
        <ele>317.064</ele>
        <time>2019-12-07T09:48:35Z</time>
      </trkpt>
      <trkpt lat="36.498238" lon="-5.371758">
        <ele>318.606</ele>
        <time>2019-12-07T09:48:42Z</time>
      </trkpt>
      <trkpt lat="36.499107" lon="-5.372126">
        <ele>324.216</ele>
        <time>2019-12-07T09:49:02Z</time>
      </trkpt>
      <trkpt lat="36.499212" lon="-5.371956">
        <ele>325.708</ele>
        <time>2019-12-07T09:49:07Z</time>
      </trkpt>
      <trkpt lat="36.499119" lon="-5.371692">
        <ele>327.860</ele>
        <time>2019-12-07T09:49:14Z</time>
      </trkpt>
      <trkpt lat="36.498514" lon="-5.371366">
        <ele>332.122</ele>
        <time>2019-12-07T09:49:30Z</time>
      </trkpt>
      <trkpt lat="36.497754" lon="-5.371347">
        <ele>335.452</ele>
        <time>2019-12-07T09:49:48Z</time>
      </trkpt>
      <trkpt lat="36.497317" lon="-5.371214">
        <ele>337.954</ele>
        <time>2019-12-07T09:49:59Z</time>
      </trkpt>
      <trkpt lat="36.497063" lon="-5.370934">
        <ele>340.256</ele>
        <time>2019-12-07T09:50:08Z</time>
      </trkpt>
      <trkpt lat="36.497053" lon="-5.370627">
        <ele>342.216</ele>
        <time>2019-12-07T09:50:15Z</time>
      </trkpt>
      <trkpt lat="36.497284" lon="-5.370414">
        <ele>344.514</ele>
        <time>2019-12-07T09:50:23Z</time>
      </trkpt>
      <trkpt lat="36.497773" lon="-5.370450">
        <ele>347.750</ele>
        <time>2019-12-07T09:50:34Z</time>
      </trkpt>
      <trkpt lat="36.498685" lon="-5.370245">
        <ele>354.728</ele>
        <time>2019-12-07T09:50:57Z</time>
      </trkpt>
      <trkpt lat="36.498998" lon="-5.369926">
        <ele>358.089</ele>
        <time>2019-12-07T09:51:08Z</time>
      </trkpt>
      <trkpt lat="36.499026" lon="-5.369502">
        <ele>360.217</ele>
        <time>2019-12-07T09:51:17Z</time>
      </trkpt>
      <trkpt lat="36.498777" lon="-5.369221">
        <ele>362.408</ele>
        <time>2019-12-07T09:51:26Z</time>
      </trkpt>
      <trkpt lat="36.498435" lon="-5.369194">
        <ele>364.236</ele>
        <time>2019-12-07T09:51:34Z</time>
      </trkpt>
      <trkpt lat="36.497621" lon="-5.369537">
        <ele>367.228</ele>
        <time>2019-12-07T09:51:53Z</time>
      </trkpt>
      <trkpt lat="36.497449" lon="-5.369399">
        <ele>368.118</ele>
        <time>2019-12-07T09:51:58Z</time>
      </trkpt>
      <trkpt lat="36.497385" lon="-5.369077">
        <ele>369.640</ele>
        <time>2019-12-07T09:52:06Z</time>
      </trkpt>
      <trkpt lat="36.497568" lon="-5.368805">
        <ele>371.442</ele>
        <time>2019-12-07T09:52:14Z</time>
      </trkpt>
      <trkpt lat="36.498215" lon="-5.368634">
        <ele>376.512</ele>
        <time>2019-12-07T09:52:31Z</time>
      </trkpt>
      <trkpt lat="36.499139" lon="-5.367519">
        <ele>385.970</ele>
        <time>2019-12-07T09:53:06Z</time>
      </trkpt>
      <trkpt lat="36.499546" lon="-5.366409">
        <ele>394.186</ele>
        <time>2019-12-07T09:53:34Z</time>
      </trkpt>
      <trkpt lat="36.500246" lon="-5.365308">
        <ele>401.369</ele>
        <time>2019-12-07T09:54:04Z</time>
      </trkpt>
      <trkpt lat="36.500367" lon="-5.364672">
        <ele>402.804</ele>
        <time>2019-12-07T09:54:16Z</time>
      </trkpt>
      <trkpt lat="36.500237" lon="-5.363562">
        <ele>404.724</ele>
        <time>2019-12-07T09:54:38Z</time>
      </trkpt>
      <trkpt lat="36.501072" lon="-5.362092">
        <ele>408.908</ele>
        <time>2019-12-07T09:55:11Z</time>
      </trkpt>
      <trkpt lat="36.501457" lon="-5.361803">
        <ele>410.840</ele>
        <time>2019-12-07T09:55:22Z</time>
      </trkpt>
      <trkpt lat="36.501741" lon="-5.361751">
        <ele>411.542</ele>
        <time>2019-12-07T09:55:29Z</time>
      </trkpt>
      <trkpt lat="36.502653" lon="-5.362383">
        <ele>417.212</ele>
        <time>2019-12-07T09:55:57Z</time>
      </trkpt>
      <trkpt lat="36.503005" lon="-5.362324">
        <ele>420.034</ele>
        <time>2019-12-07T09:56:07Z</time>
      </trkpt>
      <trkpt lat="36.503187" lon="-5.362048">
        <ele>422.236</ele>
        <time>2019-12-07T09:56:14Z</time>
      </trkpt>
      <trkpt lat="36.503316" lon="-5.361429">
        <ele>426.526</ele>
        <time>2019-12-07T09:56:27Z</time>
      </trkpt>
      <trkpt lat="36.503415" lon="-5.359764">
        <ele>437.134</ele>
        <time>2019-12-07T09:57:07Z</time>
      </trkpt>
      <trkpt lat="36.503610" lon="-5.359488">
        <ele>439.950</ele>
        <time>2019-12-07T09:57:16Z</time>
      </trkpt>
      <trkpt lat="36.503901" lon="-5.359515">
        <ele>442.231</ele>
        <time>2019-12-07T09:57:23Z</time>
      </trkpt>
      <trkpt lat="36.504109" lon="-5.359706">
        <ele>443.861</ele>
        <time>2019-12-07T09:57:29Z</time>
      </trkpt>
      <trkpt lat="36.504367" lon="-5.361099">
        <ele>447.807</ele>
        <time>2019-12-07T09:57:57Z</time>
      </trkpt>
      <trkpt lat="36.504811" lon="-5.361493">
        <ele>448.708</ele>
        <time>2019-12-07T09:58:11Z</time>
      </trkpt>
      <trkpt lat="36.505197" lon="-5.361440">
        <ele>449.947</ele>
        <time>2019-12-07T09:58:21Z</time>
      </trkpt>
      <trkpt lat="36.505564" lon="-5.360808">
        <ele>453.449</ele>
        <time>2019-12-07T09:58:37Z</time>
      </trkpt>
      <trkpt lat="36.505884" lon="-5.360617">
        <ele>456.289</ele>
        <time>2019-12-07T09:58:46Z</time>
      </trkpt>
      <trkpt lat="36.506142" lon="-5.360618">
        <ele>458.181</ele>
        <time>2019-12-07T09:58:53Z</time>
      </trkpt>
      <trkpt lat="36.506784" lon="-5.360918">
        <ele>463.053</ele>
        <time>2019-12-07T09:59:10Z</time>
      </trkpt>
      <trkpt lat="36.507053" lon="-5.360904">
        <ele>464.333</ele>
        <time>2019-12-07T09:59:17Z</time>
      </trkpt>
      <trkpt lat="36.507411" lon="-5.360589">
        <ele>466.181</ele>
        <time>2019-12-07T09:59:28Z</time>
      </trkpt>
      <trkpt lat="36.507710" lon="-5.359609">
        <ele>471.977</ele>
        <time>2019-12-07T09:59:51Z</time>
      </trkpt>
      <trkpt lat="36.508236" lon="-5.358908">
        <ele>476.738</ele>
        <time>2019-12-07T10:00:11Z</time>
      </trkpt>
      <trkpt lat="36.508217" lon="-5.357991">
        <ele>481.070</ele>
        <time>2019-12-07T10:00:33Z</time>
      </trkpt>
      <trkpt lat="36.508795" lon="-5.356651">
        <ele>488.017</ele>
        <time>2019-12-07T10:01:08Z</time>
      </trkpt>
      <trkpt lat="36.509165" lon="-5.356798">
        <ele>490.408</ele>
        <time>2019-12-07T10:01:19Z</time>
      </trkpt>
      <trkpt lat="36.509329" lon="-5.357506">
        <ele>494.087</ele>
        <time>2019-12-07T10:01:35Z</time>
      </trkpt>
      <trkpt lat="36.509577" lon="-5.357949">
        <ele>496.789</ele>
        <time>2019-12-07T10:01:47Z</time>
      </trkpt>
      <trkpt lat="36.510299" lon="-5.358575">
        <ele>501.139</ele>
        <time>2019-12-07T10:02:11Z</time>
      </trkpt>
      <trkpt lat="36.510591" lon="-5.358603">
        <ele>501.881</ele>
        <time>2019-12-07T10:02:20Z</time>
      </trkpt>
      <trkpt lat="36.510892" lon="-5.358447">
        <ele>502.843</ele>
        <time>2019-12-07T10:02:30Z</time>
      </trkpt>
      <trkpt lat="36.511519" lon="-5.357803">
        <ele>507.453</ele>
        <time>2019-12-07T10:02:55Z</time>
      </trkpt>
      <trkpt lat="36.512259" lon="-5.357851">
        <ele>515.741</ele>
        <time>2019-12-07T10:03:17Z</time>
      </trkpt>
      <trkpt lat="36.513047" lon="-5.357075">
        <ele>524.457</ele>
        <time>2019-12-07T10:03:48Z</time>
      </trkpt>
      <trkpt lat="36.513287" lon="-5.356270">
        <ele>530.387</ele>
        <time>2019-12-07T10:04:09Z</time>
      </trkpt>
      <trkpt lat="36.513816" lon="-5.355637">
        <ele>537.042</ele>
        <time>2019-12-07T10:04:31Z</time>
      </trkpt>
      <trkpt lat="36.514168" lon="-5.354548">
        <ele>545.126</ele>
        <time>2019-12-07T10:04:59Z</time>
      </trkpt>
      <trkpt lat="36.514515" lon="-5.354505">
        <ele>548.608</ele>
        <time>2019-12-07T10:05:10Z</time>
      </trkpt>
      <trkpt lat="36.515111" lon="-5.355019">
        <ele>555.512</ele>
        <time>2019-12-07T10:05:32Z</time>
      </trkpt>
      <trkpt lat="36.515404" lon="-5.354897">
        <ele>558.414</ele>
        <time>2019-12-07T10:05:41Z</time>
      </trkpt>
      <trkpt lat="36.515663" lon="-5.353975">
        <ele>564.774</ele>
        <time>2019-12-07T10:06:04Z</time>
      </trkpt>
      <trkpt lat="36.515364" lon="-5.352195">
        <ele>577.966</ele>
        <time>2019-12-07T10:06:45Z</time>
      </trkpt>
      <trkpt lat="36.514586" lon="-5.351460">
        <ele>585.348</ele>
        <time>2019-12-07T10:07:13Z</time>
      </trkpt>
      <trkpt lat="36.513945" lon="-5.351033">
        <ele>591.038</ele>
        <time>2019-12-07T10:07:35Z</time>
      </trkpt>
      <trkpt lat="36.513052" lon="-5.349998">
        <ele>599.646</ele>
        <time>2019-12-07T10:08:14Z</time>
      </trkpt>
      <trkpt lat="36.512909" lon="-5.349559">
        <ele>601.772</ele>
        <time>2019-12-07T10:08:25Z</time>
      </trkpt>
      <trkpt lat="36.513115" lon="-5.348994">
        <ele>604.957</ele>
        <time>2019-12-07T10:08:40Z</time>
      </trkpt>
      <trkpt lat="36.513871" lon="-5.348789">
        <ele>610.600</ele>
        <time>2019-12-07T10:09:04Z</time>
      </trkpt>
      <trkpt lat="36.514109" lon="-5.348545">
        <ele>613.820</ele>
        <time>2019-12-07T10:09:14Z</time>
      </trkpt>
      <trkpt lat="36.514471" lon="-5.347349">
        <ele>625.508</ele>
        <time>2019-12-07T10:09:46Z</time>
      </trkpt>
      <trkpt lat="36.514395" lon="-5.346385">
        <ele>633.129</ele>
        <time>2019-12-07T10:10:11Z</time>
      </trkpt>
      <trkpt lat="36.514900" lon="-5.345459">
        <ele>639.841</ele>
        <time>2019-12-07T10:10:43Z</time>
      </trkpt>
      <trkpt lat="36.514750" lon="-5.344872">
        <ele>640.281</ele>
        <time>2019-12-07T10:10:57Z</time>
      </trkpt>
      <trkpt lat="36.514147" lon="-5.344351">
        <ele>640.273</ele>
        <time>2019-12-07T10:11:15Z</time>
      </trkpt>
      <trkpt lat="36.513885" lon="-5.343129">
        <ele>640.195</ele>
        <time>2019-12-07T10:11:38Z</time>
      </trkpt>
      <trkpt lat="36.513602" lon="-5.342427">
        <ele>641.955</ele>
        <time>2019-12-07T10:11:53Z</time>
      </trkpt>
      <trkpt lat="36.513737" lon="-5.341725">
        <ele>643.133</ele>
        <time>2019-12-07T10:12:05Z</time>
      </trkpt>
      <trkpt lat="36.513366" lon="-5.340938">
        <ele>643.949</ele>
        <time>2019-12-07T10:12:21Z</time>
      </trkpt>
      <trkpt lat="36.513331" lon="-5.340240">
        <ele>643.969</ele>
        <time>2019-12-07T10:12:34Z</time>
      </trkpt>
      <trkpt lat="36.513962" lon="-5.339116">
        <ele>643.904</ele>
        <time>2019-12-07T10:12:55Z</time>
      </trkpt>
      <trkpt lat="36.514037" lon="-5.338451">
        <ele>643.724</ele>
        <time>2019-12-07T10:13:04Z</time>
      </trkpt>
      <trkpt lat="36.513284" lon="-5.336436">
        <ele>648.608</ele>
        <time>2019-12-07T10:13:35Z</time>
      </trkpt>
      <trkpt lat="36.513244" lon="-5.336092">
        <ele>649.230</ele>
        <time>2019-12-07T10:13:40Z</time>
      </trkpt>
      <trkpt lat="36.513673" lon="-5.334608">
        <ele>650.382</ele>
        <time>2019-12-07T10:14:01Z</time>
      </trkpt>
      <trkpt lat="36.513833" lon="-5.333598">
        <ele>651.352</ele>
        <time>2019-12-07T10:14:15Z</time>
      </trkpt>
      <trkpt lat="36.514022" lon="-5.333216">
        <ele>651.124</ele>
        <time>2019-12-07T10:14:21Z</time>
      </trkpt>
      <trkpt lat="36.515622" lon="-5.332208">
        <ele>649.356</ele>
        <time>2019-12-07T10:14:52Z</time>
      </trkpt>
      <trkpt lat="36.516626" lon="-5.331302">
        <ele>648.096</ele>
        <time>2019-12-07T10:15:12Z</time>
      </trkpt>
      <trkpt lat="36.517594" lon="-5.330817">
        <ele>647.234</ele>
        <time>2019-12-07T10:15:28Z</time>
      </trkpt>
      <trkpt lat="36.517753" lon="-5.330416">
        <ele>646.360</ele>
        <time>2019-12-07T10:15:33Z</time>
      </trkpt>
      <trkpt lat="36.517791" lon="-5.329737">
        <ele>644.526</ele>
        <time>2019-12-07T10:15:41Z</time>
      </trkpt>
      <trkpt lat="36.518669" lon="-5.328135">
        <ele>637.847</ele>
        <time>2019-12-07T10:16:01Z</time>
      </trkpt>
      <trkpt lat="36.518895" lon="-5.327258">
        <ele>636.011</ele>
        <time>2019-12-07T10:16:11Z</time>
      </trkpt>
      <trkpt lat="36.519453" lon="-5.326795">
        <ele>634.008</ele>
        <time>2019-12-07T10:16:19Z</time>
      </trkpt>
      <trkpt lat="36.519854" lon="-5.326117">
        <ele>631.656</ele>
        <time>2019-12-07T10:16:28Z</time>
      </trkpt>
      <trkpt lat="36.519943" lon="-5.325122">
        <ele>627.428</ele>
        <time>2019-12-07T10:16:39Z</time>
      </trkpt>
      <trkpt lat="36.520497" lon="-5.323784">
        <ele>623.658</ele>
        <time>2019-12-07T10:16:59Z</time>
      </trkpt>
      <trkpt lat="36.520514" lon="-5.323512">
        <ele>622.570</ele>
        <time>2019-12-07T10:17:02Z</time>
      </trkpt>
      <trkpt lat="36.520270" lon="-5.322725">
        <ele>619.192</ele>
        <time>2019-12-07T10:17:11Z</time>
      </trkpt>
      <trkpt lat="36.520300" lon="-5.322309">
        <ele>617.672</ele>
        <time>2019-12-07T10:17:15Z</time>
      </trkpt>
      <trkpt lat="36.520617" lon="-5.321834">
        <ele>615.270</ele>
        <time>2019-12-07T10:17:21Z</time>
      </trkpt>
      <trkpt lat="36.521073" lon="-5.321460">
        <ele>613.586</ele>
        <time>2019-12-07T10:17:27Z</time>
      </trkpt>
      <trkpt lat="36.521211" lon="-5.321143">
        <ele>612.249</ele>
        <time>2019-12-07T10:17:30Z</time>
      </trkpt>
      <trkpt lat="36.520951" lon="-5.320412">
        <ele>608.802</ele>
        <time>2019-12-07T10:17:37Z</time>
      </trkpt>
      <trkpt lat="36.521087" lon="-5.319721">
        <ele>608.022</ele>
        <time>2019-12-07T10:17:43Z</time>
      </trkpt>
      <trkpt lat="36.520962" lon="-5.319095">
        <ele>606.808</ele>
        <time>2019-12-07T10:17:48Z</time>
      </trkpt>
      <trkpt lat="36.520684" lon="-5.318551">
        <ele>605.678</ele>
        <time>2019-12-07T10:17:53Z</time>
      </trkpt>
      <trkpt lat="36.520324" lon="-5.318309">
        <ele>605.050</ele>
        <time>2019-12-07T10:17:57Z</time>
      </trkpt>
      <trkpt lat="36.519904" lon="-5.317698">
        <ele>605.080</ele>
        <time>2019-12-07T10:18:04Z</time>
      </trkpt>
      <trkpt lat="36.519877" lon="-5.317405">
        <ele>604.932</ele>
        <time>2019-12-07T10:18:07Z</time>
      </trkpt>
      <trkpt lat="36.520133" lon="-5.316887">
        <ele>605.344</ele>
        <time>2019-12-07T10:18:12Z</time>
      </trkpt>
      <trkpt lat="36.520742" lon="-5.316556">
        <ele>599.984</ele>
        <time>2019-12-07T10:18:21Z</time>
      </trkpt>
      <trkpt lat="36.521668" lon="-5.316291">
        <ele>600.242</ele>
        <time>2019-12-07T10:18:35Z</time>
      </trkpt>
      <trkpt lat="36.521981" lon="-5.315738">
        <ele>601.718</ele>
        <time>2019-12-07T10:18:44Z</time>
      </trkpt>
      <trkpt lat="36.522254" lon="-5.315489">
        <ele>602.288</ele>
        <time>2019-12-07T10:18:50Z</time>
      </trkpt>
      <trkpt lat="36.523021" lon="-5.315217">
        <ele>602.124</ele>
        <time>2019-12-07T10:19:03Z</time>
      </trkpt>
      <trkpt lat="36.523353" lon="-5.314981">
        <ele>602.726</ele>
        <time>2019-12-07T10:19:09Z</time>
      </trkpt>
      <trkpt lat="36.524320" lon="-5.313386">
        <ele>609.408</ele>
        <time>2019-12-07T10:19:35Z</time>
      </trkpt>
      <trkpt lat="36.525420" lon="-5.312346">
        <ele>629.892</ele>
        <time>2019-12-07T10:20:04Z</time>
      </trkpt>
      <trkpt lat="36.525858" lon="-5.311718">
        <ele>636.234</ele>
        <time>2019-12-07T10:20:21Z</time>
      </trkpt>
      <trkpt lat="36.527205" lon="-5.310934">
        <ele>656.254</ele>
        <time>2019-12-07T10:20:59Z</time>
      </trkpt>
      <trkpt lat="36.527690" lon="-5.310139">
        <ele>663.166</ele>
        <time>2019-12-07T10:21:18Z</time>
      </trkpt>
      <trkpt lat="36.528505" lon="-5.309707">
        <ele>669.598</ele>
        <time>2019-12-07T10:21:39Z</time>
      </trkpt>
      <trkpt lat="36.528878" lon="-5.309073">
        <ele>675.458</ele>
        <time>2019-12-07T10:21:54Z</time>
      </trkpt>
      <trkpt lat="36.529442" lon="-5.308550">
        <ele>681.486</ele>
        <time>2019-12-07T10:22:10Z</time>
      </trkpt>
      <trkpt lat="36.529894" lon="-5.307781">
        <ele>688.722</ele>
        <time>2019-12-07T10:22:28Z</time>
      </trkpt>
      <trkpt lat="36.530751" lon="-5.307335">
        <ele>694.477</ele>
        <time>2019-12-07T10:22:51Z</time>
      </trkpt>
      <trkpt lat="36.531084" lon="-5.306937">
        <ele>698.961</ele>
        <time>2019-12-07T10:23:02Z</time>
      </trkpt>
      <trkpt lat="36.531362" lon="-5.306333">
        <ele>702.827</ele>
        <time>2019-12-07T10:23:15Z</time>
      </trkpt>
      <trkpt lat="36.531394" lon="-5.305970">
        <ele>703.408</ele>
        <time>2019-12-07T10:23:22Z</time>
      </trkpt>
      <trkpt lat="36.531200" lon="-5.305204">
        <ele>704.721</ele>
        <time>2019-12-07T10:23:37Z</time>
      </trkpt>
      <trkpt lat="36.531476" lon="-5.304306">
        <ele>708.773</ele>
        <time>2019-12-07T10:23:55Z</time>
      </trkpt>
      <trkpt lat="36.532276" lon="-5.303835">
        <ele>715.553</ele>
        <time>2019-12-07T10:24:17Z</time>
      </trkpt>
      <trkpt lat="36.532660" lon="-5.303311">
        <ele>717.075</ele>
        <time>2019-12-07T10:24:30Z</time>
      </trkpt>
      <trkpt lat="36.533513" lon="-5.303011">
        <ele>720.837</ele>
        <time>2019-12-07T10:24:51Z</time>
      </trkpt>
      <trkpt lat="36.533956" lon="-5.301858">
        <ele>724.597</ele>
        <time>2019-12-07T10:25:16Z</time>
      </trkpt>
      <trkpt lat="36.534258" lon="-5.301432">
        <ele>727.795</ele>
        <time>2019-12-07T10:25:28Z</time>
      </trkpt>
      <trkpt lat="36.534544" lon="-5.301415">
        <ele>730.651</ele>
        <time>2019-12-07T10:25:36Z</time>
      </trkpt>
      <trkpt lat="36.534981" lon="-5.301893">
        <ele>736.918</ele>
        <time>2019-12-07T10:25:52Z</time>
      </trkpt>
      <trkpt lat="36.535240" lon="-5.301945">
        <ele>738.598</ele>
        <time>2019-12-07T10:25:59Z</time>
      </trkpt>
      <trkpt lat="36.536048" lon="-5.301601">
        <ele>741.717</ele>
        <time>2019-12-07T10:26:20Z</time>
      </trkpt>
      <trkpt lat="36.536725" lon="-5.301807">
        <ele>747.308</ele>
        <time>2019-12-07T10:26:37Z</time>
      </trkpt>
      <trkpt lat="36.537000" lon="-5.301786">
        <ele>749.175</ele>
        <time>2019-12-07T10:26:44Z</time>
      </trkpt>
      <trkpt lat="36.537936" lon="-5.301328">
        <ele>756.267</ele>
        <time>2019-12-07T10:27:10Z</time>
      </trkpt>
      <trkpt lat="36.538760" lon="-5.301194">
        <ele>761.867</ele>
        <time>2019-12-07T10:27:32Z</time>
      </trkpt>
      <trkpt lat="36.539103" lon="-5.301388">
        <ele>763.849</ele>
        <time>2019-12-07T10:27:41Z</time>
      </trkpt>
      <trkpt lat="36.539937" lon="-5.302314">
        <ele>769.791</ele>
        <time>2019-12-07T10:28:07Z</time>
      </trkpt>
      <trkpt lat="36.540263" lon="-5.302504">
        <ele>770.911</ele>
        <time>2019-12-07T10:28:16Z</time>
      </trkpt>
      <trkpt lat="36.541105" lon="-5.302711">
        <ele>772.959</ele>
        <time>2019-12-07T10:28:37Z</time>
      </trkpt>
      <trkpt lat="36.541631" lon="-5.302536">
        <ele>773.355</ele>
        <time>2019-12-07T10:28:49Z</time>
      </trkpt>
      <trkpt lat="36.543458" lon="-5.300250">
        <ele>769.399</ele>
        <time>2019-12-07T10:29:37Z</time>
      </trkpt>
      <trkpt lat="36.543972" lon="-5.299830">
        <ele>768.507</ele>
        <time>2019-12-07T10:29:46Z</time>
      </trkpt>
      <trkpt lat="36.545560" lon="-5.299229">
        <ele>766.827</ele>
        <time>2019-12-07T10:30:09Z</time>
      </trkpt>
      <trkpt lat="36.546800" lon="-5.298381">
        <ele>768.408</ele>
        <time>2019-12-07T10:30:29Z</time>
      </trkpt>
      <trkpt lat="36.547366" lon="-5.298294">
        <ele>770.373</ele>
        <time>2019-12-07T10:30:37Z</time>
      </trkpt>
      <trkpt lat="36.548142" lon="-5.298364">
        <ele>775.735</ele>
        <time>2019-12-07T10:30:48Z</time>
      </trkpt>
      <trkpt lat="36.548427" lon="-5.298243">
        <ele>780.265</ele>
        <time>2019-12-07T10:30:53Z</time>
      </trkpt>
      <trkpt lat="36.548895" lon="-5.297383">
        <ele>784.067</ele>
        <time>2019-12-07T10:31:06Z</time>
      </trkpt>
      <trkpt lat="36.549298" lon="-5.296929">
        <ele>784.799</ele>
        <time>2019-12-07T10:31:14Z</time>
      </trkpt>
      <trkpt lat="36.549661" lon="-5.296041">
        <ele>786.649</ele>
        <time>2019-12-07T10:31:27Z</time>
      </trkpt>
      <trkpt lat="36.551955" lon="-5.293019">
        <ele>802.757</ele>
        <time>2019-12-07T10:32:32Z</time>
      </trkpt>
      <trkpt lat="36.552908" lon="-5.292052">
        <ele>809.323</ele>
        <time>2019-12-07T10:32:59Z</time>
      </trkpt>
      <trkpt lat="36.554108" lon="-5.291646">
        <ele>818.698</ele>
        <time>2019-12-07T10:33:28Z</time>
      </trkpt>
      <trkpt lat="36.556570" lon="-5.291527">
        <ele>829.215</ele>
        <time>2019-12-07T10:34:13Z</time>
      </trkpt>
      <trkpt lat="36.556898" lon="-5.291228">
        <ele>834.526</ele>
        <time>2019-12-07T10:34:22Z</time>
      </trkpt>
      <trkpt lat="36.557169" lon="-5.290695">
        <ele>836.608</ele>
        <time>2019-12-07T10:34:33Z</time>
      </trkpt>
      <trkpt lat="36.557659" lon="-5.290225">
        <ele>838.193</ele>
        <time>2019-12-07T10:34:47Z</time>
      </trkpt>
      <trkpt lat="36.557944" lon="-5.289568">
        <ele>839.445</ele>
        <time>2019-12-07T10:35:01Z</time>
      </trkpt>
    </trkseg>
  </trk></gpx>