<?xml version="1.0" encoding="UTF-8"?>
<gpx creator="Wikiloc - https://www.wikiloc.com" version="1.1" xmlns="http://www.topografix.com/GPX/1/1" xmlns:xsi="http://www.w3.org/2001/XMLSchema-instance" xsi:schemaLocation="http://www.topografix.com/GPX/1/1 http://www.topografix.com/GPX/1/1/gpx.xsd">
  <metadata>
    <name>Wikiloc - Puerto de las Encinas Borrachas 1000m , desde Genal (Málaga)...</name>
    <link href="https://www.wikiloc.com/cycling-trails/puerto-de-las-encinas-borrachas-1000m-desde-genal-malaga-76599835">
      <text>Puerto de las Encinas Borrachas 1000m , desde Genal (Málaga)... on Wikiloc</text>
    </link>
    <time>2021-06-13T07:51:04Z</time>
  </metadata>
  <trk>
    <name>Puerto de las Encinas Borrachas 1000m , desde Genal (Málaga)... - Wikiloc</name>
    <cmt></cmt>
    <desc></desc>
    <trkseg>
      <trkpt lat="36.567112" lon="-5.245858">
        <ele>229.877</ele>
        <time>2021-06-13T06:25:03Z</time>
      </trkpt>
      <trkpt lat="36.567304" lon="-5.246998">
        <ele>232.961</ele>
        <time>2021-06-13T06:25:48Z</time>
      </trkpt>
      <trkpt lat="36.567582" lon="-5.247455">
        <ele>238.627</ele>
        <time>2021-06-13T06:26:08Z</time>
      </trkpt>
      <trkpt lat="36.568236" lon="-5.247096">
        <ele>243.608</ele>
        <time>2021-06-13T06:26:38Z</time>
      </trkpt>
      <trkpt lat="36.568583" lon="-5.247152">
        <ele>246.644</ele>
        <time>2021-06-13T06:26:53Z</time>
      </trkpt>
      <trkpt lat="36.569392" lon="-5.248620">
        <ele>259.063</ele>
        <time>2021-06-13T06:27:44Z</time>
      </trkpt>
      <trkpt lat="36.569518" lon="-5.248464">
        <ele>263.632</ele>
        <time>2021-06-13T06:27:55Z</time>
      </trkpt>
      <trkpt lat="36.569437" lon="-5.247544">
        <ele>266.776</ele>
        <time>2021-06-13T06:28:22Z</time>
      </trkpt>
      <trkpt lat="36.569638" lon="-5.247432">
        <ele>270.946</ele>
        <time>2021-06-13T06:28:29Z</time>
      </trkpt>
      <trkpt lat="36.569624" lon="-5.247962">
        <ele>274.435</ele>
        <time>2021-06-13T06:28:44Z</time>
      </trkpt>
      <trkpt lat="36.569782" lon="-5.247988">
        <ele>276.050</ele>
        <time>2021-06-13T06:28:50Z</time>
      </trkpt>
      <trkpt lat="36.569922" lon="-5.247602">
        <ele>277.762</ele>
        <time>2021-06-13T06:29:03Z</time>
      </trkpt>
      <trkpt lat="36.569822" lon="-5.247145">
        <ele>282.191</ele>
        <time>2021-06-13T06:29:19Z</time>
      </trkpt>
      <trkpt lat="36.569974" lon="-5.246981">
        <ele>285.281</ele>
        <time>2021-06-13T06:29:27Z</time>
      </trkpt>
      <trkpt lat="36.570619" lon="-5.248434">
        <ele>293.119</ele>
        <time>2021-06-13T06:30:21Z</time>
      </trkpt>
      <trkpt lat="36.571265" lon="-5.249184">
        <ele>302.108</ele>
        <time>2021-06-13T06:30:52Z</time>
      </trkpt>
      <trkpt lat="36.570629" lon="-5.251400">
        <ele>320.956</ele>
        <time>2021-06-13T06:31:59Z</time>
      </trkpt>
      <trkpt lat="36.570463" lon="-5.251460">
        <ele>323.655</ele>
        <time>2021-06-13T06:32:05Z</time>
      </trkpt>
      <trkpt lat="36.569651" lon="-5.251211">
        <ele>329.424</ele>
        <time>2021-06-13T06:32:40Z</time>
      </trkpt>
      <trkpt lat="36.569438" lon="-5.251343">
        <ele>340.838</ele>
        <time>2021-06-13T06:32:49Z</time>
      </trkpt>
      <trkpt lat="36.569405" lon="-5.251582">
        <ele>341.668</ele>
        <time>2021-06-13T06:33:01Z</time>
      </trkpt>
      <trkpt lat="36.569728" lon="-5.251443">
        <ele>342.817</ele>
        <time>2021-06-13T06:33:19Z</time>
      </trkpt>
      <trkpt lat="36.570147" lon="-5.251853">
        <ele>346.672</ele>
        <time>2021-06-13T06:33:43Z</time>
      </trkpt>
      <trkpt lat="36.570709" lon="-5.252138">
        <ele>351.844</ele>
        <time>2021-06-13T06:34:07Z</time>
      </trkpt>
      <trkpt lat="36.571412" lon="-5.251833">
        <ele>358.797</ele>
        <time>2021-06-13T06:34:31Z</time>
      </trkpt>
      <trkpt lat="36.571532" lon="-5.251221">
        <ele>361.723</ele>
        <time>2021-06-13T06:34:50Z</time>
      </trkpt>
      <trkpt lat="36.571729" lon="-5.250894">
        <ele>365.325</ele>
        <time>2021-06-13T06:35:00Z</time>
      </trkpt>
      <trkpt lat="36.572482" lon="-5.250779">
        <ele>369.208</ele>
        <time>2021-06-13T06:35:27Z</time>
      </trkpt>
      <trkpt lat="36.572844" lon="-5.250986">
        <ele>373.826</ele>
        <time>2021-06-13T06:35:41Z</time>
      </trkpt>
      <trkpt lat="36.573419" lon="-5.250454">
        <ele>379.935</ele>
        <time>2021-06-13T06:36:10Z</time>
      </trkpt>
      <trkpt lat="36.573891" lon="-5.250495">
        <ele>383.184</ele>
        <time>2021-06-13T06:36:29Z</time>
      </trkpt>
      <trkpt lat="36.574228" lon="-5.250335">
        <ele>386.728</ele>
        <time>2021-06-13T06:36:40Z</time>
      </trkpt>
      <trkpt lat="36.574757" lon="-5.250429">
        <ele>392.468</ele>
        <time>2021-06-13T06:36:57Z</time>
      </trkpt>
      <trkpt lat="36.575318" lon="-5.250368">
        <ele>399.667</ele>
        <time>2021-06-13T06:37:11Z</time>
      </trkpt>
      <trkpt lat="36.575500" lon="-5.250545">
        <ele>403.132</ele>
        <time>2021-06-13T06:37:18Z</time>
      </trkpt>
      <trkpt lat="36.575275" lon="-5.250802">
        <ele>404.034</ele>
        <time>2021-06-13T06:37:36Z</time>
      </trkpt>
      <trkpt lat="36.574865" lon="-5.250792">
        <ele>407.644</ele>
        <time>2021-06-13T06:37:58Z</time>
      </trkpt>
      <trkpt lat="36.574392" lon="-5.250955">
        <ele>412.105</ele>
        <time>2021-06-13T06:38:16Z</time>
      </trkpt>
      <trkpt lat="36.574237" lon="-5.251216">
        <ele>415.715</ele>
        <time>2021-06-13T06:38:26Z</time>
      </trkpt>
      <trkpt lat="36.573749" lon="-5.251527">
        <ele>419.808</ele>
        <time>2021-06-13T06:38:46Z</time>
      </trkpt>
      <trkpt lat="36.573628" lon="-5.251823">
        <ele>423.391</ele>
        <time>2021-06-13T06:38:54Z</time>
      </trkpt>
      <trkpt lat="36.573524" lon="-5.253236">
        <ele>430.660</ele>
        <time>2021-06-13T06:39:30Z</time>
      </trkpt>
      <trkpt lat="36.572614" lon="-5.253856">
        <ele>437.659</ele>
        <time>2021-06-13T06:40:06Z</time>
      </trkpt>
      <trkpt lat="36.572468" lon="-5.254120">
        <ele>440.073</ele>
        <time>2021-06-13T06:40:13Z</time>
      </trkpt>
      <trkpt lat="36.573370" lon="-5.255735">
        <ele>448.413</ele>
        <time>2021-06-13T06:41:06Z</time>
      </trkpt>
      <trkpt lat="36.573741" lon="-5.256120">
        <ele>451.952</ele>
        <time>2021-06-13T06:41:16Z</time>
      </trkpt>
      <trkpt lat="36.573998" lon="-5.256994">
        <ele>459.167</ele>
        <time>2021-06-13T06:41:32Z</time>
      </trkpt>
      <trkpt lat="36.574169" lon="-5.257208">
        <ele>462.329</ele>
        <time>2021-06-13T06:41:39Z</time>
      </trkpt>
      <trkpt lat="36.574299" lon="-5.257080">
        <ele>463.718</ele>
        <time>2021-06-13T06:41:46Z</time>
      </trkpt>
      <trkpt lat="36.574137" lon="-5.255377">
        <ele>472.598</ele>
        <time>2021-06-13T06:42:33Z</time>
      </trkpt>
      <trkpt lat="36.574255" lon="-5.255215">
        <ele>477.117</ele>
        <time>2021-06-13T06:42:38Z</time>
      </trkpt>
      <trkpt lat="36.574457" lon="-5.255434">
        <ele>477.108</ele>
        <time>2021-06-13T06:42:53Z</time>
      </trkpt>
      <trkpt lat="36.574925" lon="-5.256987">
        <ele>484.838</ele>
        <time>2021-06-13T06:43:37Z</time>
      </trkpt>
      <trkpt lat="36.575155" lon="-5.259515">
        <ele>501.567</ele>
        <time>2021-06-13T06:44:32Z</time>
      </trkpt>
      <trkpt lat="36.575588" lon="-5.260475">
        <ele>508.236</ele>
        <time>2021-06-13T06:45:02Z</time>
      </trkpt>
      <trkpt lat="36.576136" lon="-5.261195">
        <ele>515.570</ele>
        <time>2021-06-13T06:45:26Z</time>
      </trkpt>
      <trkpt lat="36.576451" lon="-5.262119">
        <ele>522.180</ele>
        <time>2021-06-13T06:45:49Z</time>
      </trkpt>
      <trkpt lat="36.576637" lon="-5.263166">
        <ele>532.129</ele>
        <time>2021-06-13T06:46:13Z</time>
      </trkpt>
      <trkpt lat="36.576507" lon="-5.263280">
        <ele>533.044</ele>
        <time>2021-06-13T06:46:20Z</time>
      </trkpt>
      <trkpt lat="36.576473" lon="-5.262967">
        <ele>533.476</ele>
        <time>2021-06-13T06:46:33Z</time>
      </trkpt>
      <trkpt lat="36.576141" lon="-5.262308">
        <ele>536.897</ele>
        <time>2021-06-13T06:46:57Z</time>
      </trkpt>
      <trkpt lat="36.575238" lon="-5.261364">
        <ele>546.523</ele>
        <time>2021-06-13T06:47:30Z</time>
      </trkpt>
      <trkpt lat="36.575005" lon="-5.261349">
        <ele>549.725</ele>
        <time>2021-06-13T06:47:37Z</time>
      </trkpt>
      <trkpt lat="36.575009" lon="-5.261543">
        <ele>550.508</ele>
        <time>2021-06-13T06:47:43Z</time>
      </trkpt>
      <trkpt lat="36.575578" lon="-5.262055">
        <ele>553.226</ele>
        <time>2021-06-13T06:48:08Z</time>
      </trkpt>
      <trkpt lat="36.575773" lon="-5.262409">
        <ele>555.115</ele>
        <time>2021-06-13T06:48:18Z</time>
      </trkpt>
      <trkpt lat="36.576023" lon="-5.264337">
        <ele>565.254</ele>
        <time>2021-06-13T06:49:04Z</time>
      </trkpt>
      <trkpt lat="36.575906" lon="-5.265532">
        <ele>574.058</ele>
        <time>2021-06-13T06:49:33Z</time>
      </trkpt>
      <trkpt lat="36.576160" lon="-5.266021">
        <ele>577.998</ele>
        <time>2021-06-13T06:49:52Z</time>
      </trkpt>
      <trkpt lat="36.576145" lon="-5.266516">
        <ele>581.167</ele>
        <time>2021-06-13T06:50:02Z</time>
      </trkpt>
      <trkpt lat="36.575905" lon="-5.266904">
        <ele>584.182</ele>
        <time>2021-06-13T06:50:18Z</time>
      </trkpt>
      <trkpt lat="36.575014" lon="-5.267309">
        <ele>590.654</ele>
        <time>2021-06-13T06:50:55Z</time>
      </trkpt>
      <trkpt lat="36.574479" lon="-5.267334">
        <ele>592.952</ele>
        <time>2021-06-13T06:51:11Z</time>
      </trkpt>
      <trkpt lat="36.574138" lon="-5.267581">
        <ele>594.453</ele>
        <time>2021-06-13T06:51:19Z</time>
      </trkpt>
      <trkpt lat="36.573855" lon="-5.268095">
        <ele>596.808</ele>
        <time>2021-06-13T06:51:30Z</time>
      </trkpt>
      <trkpt lat="36.573773" lon="-5.269418">
        <ele>606.408</ele>
        <time>2021-06-13T06:51:57Z</time>
      </trkpt>
      <trkpt lat="36.573583" lon="-5.269386">
        <ele>609.132</ele>
        <time>2021-06-13T06:52:03Z</time>
      </trkpt>
      <trkpt lat="36.573638" lon="-5.268987">
        <ele>610.881</ele>
        <time>2021-06-13T06:52:20Z</time>
      </trkpt>
      <trkpt lat="36.573505" lon="-5.268853">
        <ele>612.690</ele>
        <time>2021-06-13T06:52:26Z</time>
      </trkpt>
      <trkpt lat="36.573183" lon="-5.269174">
        <ele>615.264</ele>
        <time>2021-06-13T06:52:47Z</time>
      </trkpt>
      <trkpt lat="36.573141" lon="-5.269407">
        <ele>616.984</ele>
        <time>2021-06-13T06:52:55Z</time>
      </trkpt>
      <trkpt lat="36.573509" lon="-5.270335">
        <ele>621.943</ele>
        <time>2021-06-13T06:53:19Z</time>
      </trkpt>
      <trkpt lat="36.573778" lon="-5.271973">
        <ele>632.478</ele>
        <time>2021-06-13T06:54:02Z</time>
      </trkpt>
      <trkpt lat="36.574450" lon="-5.273540">
        <ele>649.140</ele>
        <time>2021-06-13T06:54:46Z</time>
      </trkpt>
      <trkpt lat="36.574374" lon="-5.273704">
        <ele>651.437</ele>
        <time>2021-06-13T06:54:53Z</time>
      </trkpt>
      <trkpt lat="36.574530" lon="-5.273715">
        <ele>654.849</ele>
        <time>2021-06-13T06:55:03Z</time>
      </trkpt>
      <trkpt lat="36.574394" lon="-5.273719">
        <ele>657.713</ele>
        <time>2021-06-13T06:55:23Z</time>
      </trkpt>
      <trkpt lat="36.573942" lon="-5.273117">
        <ele>665.008</ele>
        <time>2021-06-13T06:55:52Z</time>
      </trkpt>
      <trkpt lat="36.573414" lon="-5.273912">
        <ele>674.070</ele>
        <time>2021-06-13T06:56:24Z</time>
      </trkpt>
      <trkpt lat="36.573302" lon="-5.274558">
        <ele>678.779</ele>
        <time>2021-06-13T06:56:47Z</time>
      </trkpt>
      <trkpt lat="36.572927" lon="-5.275121">
        <ele>681.528</ele>
        <time>2021-06-13T06:57:05Z</time>
      </trkpt>
      <trkpt lat="36.572434" lon="-5.277065">
        <ele>691.862</ele>
        <time>2021-06-13T06:57:41Z</time>
      </trkpt>
      <trkpt lat="36.572553" lon="-5.277212">
        <ele>693.892</ele>
        <time>2021-06-13T06:57:46Z</time>
      </trkpt>
      <trkpt lat="36.572417" lon="-5.277621">
        <ele>696.081</ele>
        <time>2021-06-13T06:57:58Z</time>
      </trkpt>
      <trkpt lat="36.571974" lon="-5.278187">
        <ele>700.826</ele>
        <time>2021-06-13T06:58:21Z</time>
      </trkpt>
      <trkpt lat="36.572133" lon="-5.278247">
        <ele>702.668</ele>
        <time>2021-06-13T06:58:33Z</time>
      </trkpt>
      <trkpt lat="36.571938" lon="-5.278339">
        <ele>704.787</ele>
        <time>2021-06-13T06:58:43Z</time>
      </trkpt>
      <trkpt lat="36.572473" lon="-5.278025">
        <ele>710.742</ele>
        <time>2021-06-13T06:59:14Z</time>
      </trkpt>
      <trkpt lat="36.573155" lon="-5.277255">
        <ele>722.326</ele>
        <time>2021-06-13T06:59:50Z</time>
      </trkpt>
      <trkpt lat="36.573758" lon="-5.276248">
        <ele>730.508</ele>
        <time>2021-06-13T07:00:21Z</time>
      </trkpt>
      <trkpt lat="36.573865" lon="-5.275843">
        <ele>731.065</ele>
        <time>2021-06-13T07:00:30Z</time>
      </trkpt>
      <trkpt lat="36.574129" lon="-5.275740">
        <ele>730.994</ele>
        <time>2021-06-13T07:00:37Z</time>
      </trkpt>
      <trkpt lat="36.574490" lon="-5.275850">
        <ele>731.273</ele>
        <time>2021-06-13T07:00:45Z</time>
      </trkpt>
      <trkpt lat="36.574795" lon="-5.275800">
        <ele>732.087</ele>
        <time>2021-06-13T07:00:50Z</time>
      </trkpt>
      <trkpt lat="36.575339" lon="-5.275161">
        <ele>736.287</ele>
        <time>2021-06-13T07:01:07Z</time>
      </trkpt>
      <trkpt lat="36.575994" lon="-5.275038">
        <ele>741.196</ele>
        <time>2021-06-13T07:01:27Z</time>
      </trkpt>
      <trkpt lat="36.576425" lon="-5.274752">
        <ele>745.321</ele>
        <time>2021-06-13T07:01:40Z</time>
      </trkpt>
      <trkpt lat="36.576765" lon="-5.274699">
        <ele>747.923</ele>
        <time>2021-06-13T07:01:49Z</time>
      </trkpt>
      <trkpt lat="36.577307" lon="-5.274819">
        <ele>751.655</ele>
        <time>2021-06-13T07:02:04Z</time>
      </trkpt>
      <trkpt lat="36.577468" lon="-5.274986">
        <ele>753.107</ele>
        <time>2021-06-13T07:02:12Z</time>
      </trkpt>
      <trkpt lat="36.578121" lon="-5.276147">
        <ele>761.117</ele>
        <time>2021-06-13T07:02:42Z</time>
      </trkpt>
      <trkpt lat="36.578435" lon="-5.277046">
        <ele>766.908</ele>
        <time>2021-06-13T07:03:01Z</time>
      </trkpt>
      <trkpt lat="36.579008" lon="-5.277419">
        <ele>771.182</ele>
        <time>2021-06-13T07:03:24Z</time>
      </trkpt>
      <trkpt lat="36.579452" lon="-5.278160">
        <ele>775.461</ele>
        <time>2021-06-13T07:03:41Z</time>
      </trkpt>
      <trkpt lat="36.579825" lon="-5.278525">
        <ele>777.530</ele>
        <time>2021-06-13T07:03:51Z</time>
      </trkpt>
      <trkpt lat="36.580224" lon="-5.278579">
        <ele>779.084</ele>
        <time>2021-06-13T07:04:01Z</time>
      </trkpt>
      <trkpt lat="36.582943" lon="-5.278097">
        <ele>785.064</ele>
        <time>2021-06-13T07:04:54Z</time>
      </trkpt>
      <trkpt lat="36.583489" lon="-5.278404">
        <ele>782.553</ele>
        <time>2021-06-13T07:05:03Z</time>
      </trkpt>
      <trkpt lat="36.584192" lon="-5.279328">
        <ele>780.918</ele>
        <time>2021-06-13T07:05:17Z</time>
      </trkpt>
      <trkpt lat="36.584754" lon="-5.279730">
        <ele>783.390</ele>
        <time>2021-06-13T07:05:29Z</time>
      </trkpt>
      <trkpt lat="36.585888" lon="-5.279965">
        <ele>788.691</ele>
        <time>2021-06-13T07:05:51Z</time>
      </trkpt>
      <trkpt lat="36.587650" lon="-5.279867">
        <ele>795.281</ele>
        <time>2021-06-13T07:06:27Z</time>
      </trkpt>
      <trkpt lat="36.588454" lon="-5.279167">
        <ele>798.419</ele>
        <time>2021-06-13T07:06:47Z</time>
      </trkpt>
      <trkpt lat="36.589072" lon="-5.278241">
        <ele>803.508</ele>
        <time>2021-06-13T07:07:10Z</time>
      </trkpt>
      <trkpt lat="36.591174" lon="-5.276944">
        <ele>817.976</ele>
        <time>2021-06-13T07:08:04Z</time>
      </trkpt>
      <trkpt lat="36.591765" lon="-5.275916">
        <ele>821.015</ele>
        <time>2021-06-13T07:08:27Z</time>
      </trkpt>
      <trkpt lat="36.592929" lon="-5.275164">
        <ele>822.724</ele>
        <time>2021-06-13T07:08:52Z</time>
      </trkpt>
      <trkpt lat="36.593120" lon="-5.274901">
        <ele>824.118</ele>
        <time>2021-06-13T07:08:58Z</time>
      </trkpt>
      <trkpt lat="36.593450" lon="-5.273845">
        <ele>826.858</ele>
        <time>2021-06-13T07:09:19Z</time>
      </trkpt>
      <trkpt lat="36.594372" lon="-5.273003">
        <ele>823.157</ele>
        <time>2021-06-13T07:09:36Z</time>
      </trkpt>
      <trkpt lat="36.595002" lon="-5.272655">
        <ele>819.262</ele>
        <time>2021-06-13T07:09:44Z</time>
      </trkpt>
      <trkpt lat="36.596251" lon="-5.272795">
        <ele>816.414</ele>
        <time>2021-06-13T07:09:57Z</time>
      </trkpt>
      <trkpt lat="36.597309" lon="-5.271708">
        <ele>809.842</ele>
        <time>2021-06-13T07:10:13Z</time>
      </trkpt>
      <trkpt lat="36.597594" lon="-5.271637">
        <ele>808.022</ele>
        <time>2021-06-13T07:10:16Z</time>
      </trkpt>
      <trkpt lat="36.598333" lon="-5.271839">
        <ele>803.414</ele>
        <time>2021-06-13T07:10:23Z</time>
      </trkpt>
      <trkpt lat="36.599516" lon="-5.271124">
        <ele>795.708</ele>
        <time>2021-06-13T07:10:34Z</time>
      </trkpt>
      <trkpt lat="36.599891" lon="-5.270711">
        <ele>793.461</ele>
        <time>2021-06-13T07:10:38Z</time>
      </trkpt>
      <trkpt lat="36.600037" lon="-5.270326">
        <ele>791.660</ele>
        <time>2021-06-13T07:10:41Z</time>
      </trkpt>
      <trkpt lat="36.600007" lon="-5.269596">
        <ele>787.729</ele>
        <time>2021-06-13T07:10:46Z</time>
      </trkpt>
      <trkpt lat="36.599641" lon="-5.268967">
        <ele>783.123</ele>
        <time>2021-06-13T07:10:51Z</time>
      </trkpt>
      <trkpt lat="36.599774" lon="-5.268384">
        <ele>779.483</ele>
        <time>2021-06-13T07:10:55Z</time>
      </trkpt>
      <trkpt lat="36.600211" lon="-5.268046">
        <ele>776.292</ele>
        <time>2021-06-13T07:10:59Z</time>
      </trkpt>
      <trkpt lat="36.600851" lon="-5.268272">
        <ele>772.277</ele>
        <time>2021-06-13T07:11:04Z</time>
      </trkpt>
      <trkpt lat="36.601105" lon="-5.268223">
        <ele>770.419</ele>
        <time>2021-06-13T07:11:06Z</time>
      </trkpt>
      <trkpt lat="36.602067" lon="-5.267209">
        <ele>761.823</ele>
        <time>2021-06-13T07:11:16Z</time>
      </trkpt>
      <trkpt lat="36.602656" lon="-5.266832">
        <ele>756.783</ele>
        <time>2021-06-13T07:11:23Z</time>
      </trkpt>
      <trkpt lat="36.602974" lon="-5.266949">
        <ele>753.811</ele>
        <time>2021-06-13T07:11:28Z</time>
      </trkpt>
      <trkpt lat="36.603358" lon="-5.267623">
        <ele>748.708</ele>
        <time>2021-06-13T07:11:35Z</time>
      </trkpt>
      <trkpt lat="36.603305" lon="-5.268908">
        <ele>742.959</ele>
        <time>2021-06-13T07:11:44Z</time>
      </trkpt>
      <trkpt lat="36.603425" lon="-5.269329">
        <ele>741.098</ele>
        <time>2021-06-13T07:11:47Z</time>
      </trkpt>
      <trkpt lat="36.603612" lon="-5.269515">
        <ele>739.497</ele>
        <time>2021-06-13T07:11:49Z</time>
      </trkpt>
      <trkpt lat="36.604281" lon="-5.269710">
        <ele>734.821</ele>
        <time>2021-06-13T07:11:55Z</time>
      </trkpt>
      <trkpt lat="36.605028" lon="-5.270428">
        <ele>729.191</ele>
        <time>2021-06-13T07:12:02Z</time>
      </trkpt>
      <trkpt lat="36.605727" lon="-5.270530">
        <ele>724.590</ele>
        <time>2021-06-13T07:12:08Z</time>
      </trkpt>
      <trkpt lat="36.607785" lon="-5.269573">
        <ele>722.235</ele>
        <time>2021-06-13T07:12:30Z</time>
      </trkpt>
      <trkpt lat="36.608851" lon="-5.269513">
        <ele>725.597</ele>
        <time>2021-06-13T07:12:49Z</time>
      </trkpt>
      <trkpt lat="36.609195" lon="-5.269730">
        <ele>726.858</ele>
        <time>2021-06-13T07:12:57Z</time>
      </trkpt>
      <trkpt lat="36.610062" lon="-5.270813">
        <ele>729.852</ele>
        <time>2021-06-13T07:13:22Z</time>
      </trkpt>
      <trkpt lat="36.611349" lon="-5.271497">
        <ele>737.917</ele>
        <time>2021-06-13T07:13:53Z</time>
      </trkpt>
      <trkpt lat="36.612581" lon="-5.272727">
        <ele>745.508</ele>
        <time>2021-06-13T07:14:28Z</time>
      </trkpt>
      <trkpt lat="36.612977" lon="-5.272761">
        <ele>746.922</ele>
        <time>2021-06-13T07:14:37Z</time>
      </trkpt>
      <trkpt lat="36.613682" lon="-5.272390">
        <ele>749.611</ele>
        <time>2021-06-13T07:14:54Z</time>
      </trkpt>
      <trkpt lat="36.614811" lon="-5.272598">
        <ele>754.190</ele>
        <time>2021-06-13T07:15:18Z</time>
      </trkpt>
      <trkpt lat="36.615390" lon="-5.273154">
        <ele>758.984</ele>
        <time>2021-06-13T07:15:37Z</time>
      </trkpt>
      <trkpt lat="36.616039" lon="-5.273550">
        <ele>764.084</ele>
        <time>2021-06-13T07:15:54Z</time>
      </trkpt>
      <trkpt lat="36.617049" lon="-5.273917">
        <ele>771.073</ele>
        <time>2021-06-13T07:16:19Z</time>
      </trkpt>
      <trkpt lat="36.617541" lon="-5.273930">
        <ele>774.478</ele>
        <time>2021-06-13T07:16:32Z</time>
      </trkpt>
      <trkpt lat="36.618530" lon="-5.273477">
        <ele>781.540</ele>
        <time>2021-06-13T07:17:04Z</time>
      </trkpt>
      <trkpt lat="36.619907" lon="-5.271389">
        <ele>792.446</ele>
        <time>2021-06-13T07:18:07Z</time>
      </trkpt>
      <trkpt lat="36.620302" lon="-5.271034">
        <ele>792.988</ele>
        <time>2021-06-13T07:18:14Z</time>
      </trkpt>
      <trkpt lat="36.621366" lon="-5.270926">
        <ele>790.316</ele>
        <time>2021-06-13T07:18:25Z</time>
      </trkpt>
      <trkpt lat="36.622100" lon="-5.270210">
        <ele>788.808</ele>
        <time>2021-06-13T07:18:33Z</time>
      </trkpt>
      <trkpt lat="36.622872" lon="-5.269868">
        <ele>791.741</ele>
        <time>2021-06-13T07:18:44Z</time>
      </trkpt>
      <trkpt lat="36.623227" lon="-5.269535">
        <ele>792.360</ele>
        <time>2021-06-13T07:18:53Z</time>
      </trkpt>
      <trkpt lat="36.624338" lon="-5.267395">
        <ele>804.969</ele>
        <time>2021-06-13T07:19:40Z</time>
      </trkpt>
      <trkpt lat="36.625277" lon="-5.266156">
        <ele>812.063</ele>
        <time>2021-06-13T07:20:10Z</time>
      </trkpt>
      <trkpt lat="36.626647" lon="-5.262894">
        <ele>802.093</ele>
        <time>2021-06-13T07:20:53Z</time>
      </trkpt>
      <trkpt lat="36.627627" lon="-5.261543">
        <ele>800.182</ele>
        <time>2021-06-13T07:21:07Z</time>
      </trkpt>
      <trkpt lat="36.628022" lon="-5.260262">
        <ele>806.847</ele>
        <time>2021-06-13T07:21:29Z</time>
      </trkpt>
      <trkpt lat="36.628973" lon="-5.258285">
        <ele>817.499</ele>
        <time>2021-06-13T07:22:11Z</time>
      </trkpt>
      <trkpt lat="36.629250" lon="-5.257193">
        <ele>820.988</ele>
        <time>2021-06-13T07:22:32Z</time>
      </trkpt>
      <trkpt lat="36.630302" lon="-5.256383">
        <ele>817.424</ele>
        <time>2021-06-13T07:22:53Z</time>
      </trkpt>
      <trkpt lat="36.630702" lon="-5.255918">
        <ele>815.026</ele>
        <time>2021-06-13T07:23:00Z</time>
      </trkpt>
      <trkpt lat="36.632178" lon="-5.253228">
        <ele>805.808</ele>
        <time>2021-06-13T07:23:29Z</time>
      </trkpt>
      <trkpt lat="36.632756" lon="-5.251866">
        <ele>799.765</ele>
        <time>2021-06-13T07:23:43Z</time>
      </trkpt>
      <trkpt lat="36.632896" lon="-5.250630">
        <ele>793.524</ele>
        <time>2021-06-13T07:23:55Z</time>
      </trkpt>
      <trkpt lat="36.633734" lon="-5.249738">
        <ele>787.693</ele>
        <time>2021-06-13T07:24:06Z</time>
      </trkpt>
      <trkpt lat="36.634098" lon="-5.248600">
        <ele>781.747</ele>
        <time>2021-06-13T07:24:15Z</time>
      </trkpt>
      <trkpt lat="36.634449" lon="-5.248054">
        <ele>778.027</ele>
        <time>2021-06-13T07:24:20Z</time>
      </trkpt>
      <trkpt lat="36.634987" lon="-5.247797">
        <ele>773.676</ele>
        <time>2021-06-13T07:24:25Z</time>
      </trkpt>
      <trkpt lat="36.635794" lon="-5.247862">
        <ele>767.871</ele>
        <time>2021-06-13T07:24:30Z</time>
      </trkpt>
      <trkpt lat="36.637168" lon="-5.249380">
        <ele>757.463</ele>
        <time>2021-06-13T07:24:44Z</time>
      </trkpt>
      <trkpt lat="36.637517" lon="-5.249594">
        <ele>755.376</ele>
        <time>2021-06-13T07:24:47Z</time>
      </trkpt>
      <trkpt lat="36.638151" lon="-5.249723">
        <ele>752.990</ele>
        <time>2021-06-13T07:24:52Z</time>
      </trkpt>
      <trkpt lat="36.638653" lon="-5.249628">
        <ele>752.119</ele>
        <time>2021-06-13T07:24:56Z</time>
      </trkpt>
      <trkpt lat="36.639214" lon="-5.249313">
        <ele>746.808</ele>
        <time>2021-06-13T07:25:01Z</time>
      </trkpt>
      <trkpt lat="36.640596" lon="-5.248081">
        <ele>747.374</ele>
        <time>2021-06-13T07:25:18Z</time>
      </trkpt>
      <trkpt lat="36.640761" lon="-5.247737">
        <ele>749.563</ele>
        <time>2021-06-13T07:25:23Z</time>
      </trkpt>
      <trkpt lat="36.640964" lon="-5.246212">
        <ele>757.082</ele>
        <time>2021-06-13T07:25:49Z</time>
      </trkpt>
      <trkpt lat="36.641626" lon="-5.245228">
        <ele>758.656</ele>
        <time>2021-06-13T07:26:07Z</time>
      </trkpt>
      <trkpt lat="36.641842" lon="-5.244621">
        <ele>758.136</ele>
        <time>2021-06-13T07:26:15Z</time>
      </trkpt>
      <trkpt lat="36.641838" lon="-5.244093">
        <ele>757.055</ele>
        <time>2021-06-13T07:26:21Z</time>
      </trkpt>
      <trkpt lat="36.641529" lon="-5.242654">
        <ele>753.750</ele>
        <time>2021-06-13T07:26:36Z</time>
      </trkpt>
      <trkpt lat="36.641941" lon="-5.240832">
        <ele>761.512</ele>
        <time>2021-06-13T07:27:07Z</time>
      </trkpt>
      <trkpt lat="36.642197" lon="-5.240196">
        <ele>766.271</ele>
        <time>2021-06-13T07:27:21Z</time>
      </trkpt>
      <trkpt lat="36.642868" lon="-5.239787">
        <ele>772.441</ele>
        <time>2021-06-13T07:27:39Z</time>
      </trkpt>
      <trkpt lat="36.643057" lon="-5.239464">
        <ele>775.215</ele>
        <time>2021-06-13T07:27:47Z</time>
      </trkpt>
      <trkpt lat="36.642836" lon="-5.238555">
        <ele>781.908</ele>
        <time>2021-06-13T07:28:11Z</time>
      </trkpt>
      <trkpt lat="36.642414" lon="-5.237763">
        <ele>788.674</ele>
        <time>2021-06-13T07:28:36Z</time>
      </trkpt>
      <trkpt lat="36.642458" lon="-5.237311">
        <ele>792.363</ele>
        <time>2021-06-13T07:28:49Z</time>
      </trkpt>
      <trkpt lat="36.643133" lon="-5.236282">
        <ele>801.252</ele>
        <time>2021-06-13T07:29:25Z</time>
      </trkpt>
      <trkpt lat="36.644023" lon="-5.236011">
        <ele>808.276</ele>
        <time>2021-06-13T07:29:54Z</time>
      </trkpt>
      <trkpt lat="36.644541" lon="-5.235227">
        <ele>815.026</ele>
        <time>2021-06-13T07:30:16Z</time>
      </trkpt>
      <trkpt lat="36.645537" lon="-5.234750">
        <ele>823.775</ele>
        <time>2021-06-13T07:30:52Z</time>
      </trkpt>
      <trkpt lat="36.645700" lon="-5.233515">
        <ele>832.330</ele>
        <time>2021-06-13T07:31:24Z</time>
      </trkpt>
      <trkpt lat="36.645945" lon="-5.232928">
        <ele>836.372</ele>
        <time>2021-06-13T07:31:41Z</time>
      </trkpt>
      <trkpt lat="36.646500" lon="-5.232585">
        <ele>840.948</ele>
        <time>2021-06-13T07:32:01Z</time>
      </trkpt>
      <trkpt lat="36.647009" lon="-5.232552">
        <ele>844.861</ele>
        <time>2021-06-13T07:32:18Z</time>
      </trkpt>
      <trkpt lat="36.648715" lon="-5.233281">
        <ele>860.117</ele>
        <time>2021-06-13T07:33:10Z</time>
      </trkpt>
      <trkpt lat="36.649157" lon="-5.233858">
        <ele>866.108</ele>
        <time>2021-06-13T07:33:31Z</time>
      </trkpt>
      <trkpt lat="36.649773" lon="-5.235341">
        <ele>876.321</ele>
        <time>2021-06-13T07:34:12Z</time>
      </trkpt>
      <trkpt lat="36.652361" lon="-5.239793">
        <ele>912.690</ele>
        <time>2021-06-13T07:36:30Z</time>
      </trkpt>
      <trkpt lat="36.653695" lon="-5.239793">
        <ele>923.529</ele>
        <time>2021-06-13T07:37:11Z</time>
      </trkpt>
      <trkpt lat="36.654774" lon="-5.240105">
        <ele>931.553</ele>
        <time>2021-06-13T07:37:43Z</time>
      </trkpt>
      <trkpt lat="36.655512" lon="-5.239601">
        <ele>937.933</ele>
        <time>2021-06-13T07:38:09Z</time>
      </trkpt>
      <trkpt lat="36.656491" lon="-5.239561">
        <ele>946.112</ele>
        <time>2021-06-13T07:38:40Z</time>
      </trkpt>
      <trkpt lat="36.656724" lon="-5.239244">
        <ele>949.277</ele>
        <time>2021-06-13T07:38:51Z</time>
      </trkpt>
      <trkpt lat="36.657201" lon="-5.237422">
        <ele>962.829</ele>
        <time>2021-06-13T07:39:39Z</time>
      </trkpt>
      <trkpt lat="36.658460" lon="-5.236344">
        <ele>970.013</ele>
        <time>2021-06-13T07:40:18Z</time>
      </trkpt>
      <trkpt lat="36.659132" lon="-5.235076">
        <ele>966.243</ele>
        <time>2021-06-13T07:40:40Z</time>
      </trkpt>
      <trkpt lat="36.659223" lon="-5.234618">
        <ele>965.207</ele>
        <time>2021-06-13T07:40:46Z</time>
      </trkpt>
      <trkpt lat="36.659441" lon="-5.234500">
        <ele>964.708</ele>
        <time>2021-06-13T07:40:50Z</time>
      </trkpt>
      <trkpt lat="36.659742" lon="-5.234575">
        <ele>964.118</ele>
        <time>2021-06-13T07:40:57Z</time>
      </trkpt>
      <trkpt lat="36.660975" lon="-5.234430">
        <ele>960.367</ele>
        <time>2021-06-13T07:41:16Z</time>
      </trkpt>
      <trkpt lat="36.662064" lon="-5.233667">
        <ele>957.336</ele>
        <time>2021-06-13T07:41:31Z</time>
      </trkpt>
      <trkpt lat="36.663277" lon="-5.231638">
        <ele>950.040</ele>
        <time>2021-06-13T07:41:54Z</time>
      </trkpt>
      <trkpt lat="36.663619" lon="-5.230495">
        <ele>945.390</ele>
        <time>2021-06-13T07:42:03Z</time>
      </trkpt>
      <trkpt lat="36.663883" lon="-5.230023">
        <ele>942.849</ele>
        <time>2021-06-13T07:42:07Z</time>
      </trkpt>
      <trkpt lat="36.665977" lon="-5.228445">
        <ele>926.664</ele>
        <time>2021-06-13T07:42:25Z</time>
      </trkpt>
      <trkpt lat="36.666916" lon="-5.227531">
        <ele>919.166</ele>
        <time>2021-06-13T07:42:33Z</time>
      </trkpt>
      <trkpt lat="36.667376" lon="-5.226800">
        <ele>918.369</ele>
        <time>2021-06-13T07:42:38Z</time>
      </trkpt>
      <trkpt lat="36.668106" lon="-5.224952">
        <ele>916.104</ele>
        <time>2021-06-13T07:42:53Z</time>
      </trkpt>
      <trkpt lat="36.669094" lon="-5.223540">
        <ele>915.324</ele>
        <time>2021-06-13T07:43:09Z</time>
      </trkpt>
      <trkpt lat="36.669322" lon="-5.222267">
        <ele>922.208</ele>
        <time>2021-06-13T07:43:29Z</time>
      </trkpt>
      <trkpt lat="36.669550" lon="-5.222011">
        <ele>925.483</ele>
        <time>2021-06-13T07:43:38Z</time>
      </trkpt>
      <trkpt lat="36.670288" lon="-5.221594">
        <ele>931.912</ele>
        <time>2021-06-13T07:44:01Z</time>
      </trkpt>
      <trkpt lat="36.671149" lon="-5.219579">
        <ele>943.991</ele>
        <time>2021-06-13T07:44:54Z</time>
      </trkpt>
      <trkpt lat="36.671673" lon="-5.219260">
        <ele>944.025</ele>
        <time>2021-06-13T07:45:06Z</time>
      </trkpt>
      <trkpt lat="36.672664" lon="-5.218904">
        <ele>947.865</ele>
        <time>2021-06-13T07:45:33Z</time>
      </trkpt>
      <trkpt lat="36.673376" lon="-5.219235">
        <ele>953.544</ele>
        <time>2021-06-13T07:45:55Z</time>
      </trkpt>
      <trkpt lat="36.673814" lon="-5.219039">
        <ele>956.069</ele>
        <time>2021-06-13T07:46:08Z</time>
      </trkpt>
      <trkpt lat="36.674169" lon="-5.218431">
        <ele>956.421</ele>
        <time>2021-06-13T07:46:20Z</time>
      </trkpt>
      <trkpt lat="36.674059" lon="-5.217364">
        <ele>956.388</ele>
        <time>2021-06-13T07:46:36Z</time>
      </trkpt>
      <trkpt lat="36.674252" lon="-5.216858">
        <ele>956.924</ele>
        <time>2021-06-13T07:46:44Z</time>
      </trkpt>
      <trkpt lat="36.675081" lon="-5.215898">
        <ele>963.126</ele>
        <time>2021-06-13T07:47:08Z</time>
      </trkpt>
      <trkpt lat="36.676930" lon="-5.214690">
        <ele>979.708</ele>
        <time>2021-06-13T07:47:58Z</time>
      </trkpt>
      <trkpt lat="36.678834" lon="-5.212672">
        <ele>998.055</ele>
        <time>2021-06-13T07:49:07Z</time>
      </trkpt>
      <trkpt lat="36.679818" lon="-5.210729">
        <ele>1001.384</ele>
        <time>2021-06-13T07:50:06Z</time>
      </trkpt>
      <trkpt lat="36.679743" lon="-5.210757">
        <ele>1000.673</ele>
        <time>2021-06-13T07:50:26Z</time>
      </trkpt>
      <trkpt lat="36.679890" lon="-5.210336">
        <ele>998.327</ele>
        <time>2021-06-13T07:50:40Z</time>
      </trkpt>
      <trkpt lat="36.679636" lon="-5.211015">
        <ele>1002.647</ele>
        <time>2021-06-13T07:51:04Z</time>
      </trkpt>
    </trkseg>
  </trk></gpx>