<?xml version="1.0" encoding="UTF-8"?>
<gpx creator="Wikiloc - https://www.wikiloc.com" version="1.1" xmlns="http://www.topografix.com/GPX/1/1" xmlns:xsi="http://www.w3.org/2001/XMLSchema-instance" xsi:schemaLocation="http://www.topografix.com/GPX/1/1 http://www.topografix.com/GPX/1/1/gpx.xsd">
  <metadata>
    <name>Wikiloc - Puerto de El Yelmo 1.804m , Cortijos Nuevos ,Sierra de Segur...</name>
    <link href="https://www.wikiloc.com/cycling-trails/puerto-de-el-yelmo-1-804m-cortijos-nuevos-sierra-de-segura-jaen-199585033">
      <text>Puerto de El Yelmo 1.804m , Cortijos Nuevos ,Sierra de Segur... on Wikiloc</text>
    </link>
    <time>2023-12-03T10:35:35Z</time>
  </metadata>
  <trk>
    <name>Puerto de El Yelmo 1.804m , Cortijos Nuevos ,Sierra de Segur... - Wikiloc</name>
    <cmt></cmt>
    <desc></desc>
    <trkseg>
      <trkpt lat="38.247224" lon="-2.725527">
        <ele>760.199</ele>
        <time>2023-12-03T09:16:02Z</time>
      </trkpt>
      <trkpt lat="38.248013" lon="-2.723523">
        <ele>764.007</ele>
        <time>2023-12-03T09:16:45Z</time>
      </trkpt>
      <trkpt lat="38.248845" lon="-2.721960">
        <ele>764.327</ele>
        <time>2023-12-03T09:17:16Z</time>
      </trkpt>
      <trkpt lat="38.248898" lon="-2.721462">
        <ele>765.709</ele>
        <time>2023-12-03T09:17:25Z</time>
      </trkpt>
      <trkpt lat="38.249188" lon="-2.721195">
        <ele>764.260</ele>
        <time>2023-12-03T09:17:32Z</time>
      </trkpt>
      <trkpt lat="38.249616" lon="-2.720400">
        <ele>760.828</ele>
        <time>2023-12-03T09:17:43Z</time>
      </trkpt>
      <trkpt lat="38.250329" lon="-2.719770">
        <ele>757.838</ele>
        <time>2023-12-03T09:17:52Z</time>
      </trkpt>
      <trkpt lat="38.250703" lon="-2.719145">
        <ele>752.154</ele>
        <time>2023-12-03T09:17:59Z</time>
      </trkpt>
      <trkpt lat="38.251447" lon="-2.716493">
        <ele>755.187</ele>
        <time>2023-12-03T09:18:36Z</time>
      </trkpt>
      <trkpt lat="38.251645" lon="-2.716145">
        <ele>756.874</ele>
        <time>2023-12-03T09:18:42Z</time>
      </trkpt>
      <trkpt lat="38.251923" lon="-2.715058">
        <ele>758.919</ele>
        <time>2023-12-03T09:18:58Z</time>
      </trkpt>
      <trkpt lat="38.252133" lon="-2.714602">
        <ele>760.792</ele>
        <time>2023-12-03T09:19:06Z</time>
      </trkpt>
      <trkpt lat="38.252362" lon="-2.713532">
        <ele>762.682</ele>
        <time>2023-12-03T09:19:25Z</time>
      </trkpt>
      <trkpt lat="38.252934" lon="-2.712733">
        <ele>765.427</ele>
        <time>2023-12-03T09:19:43Z</time>
      </trkpt>
      <trkpt lat="38.253709" lon="-2.711879">
        <ele>766.268</ele>
        <time>2023-12-03T09:20:04Z</time>
      </trkpt>
      <trkpt lat="38.254682" lon="-2.711169">
        <ele>771.914</ele>
        <time>2023-12-03T09:20:26Z</time>
      </trkpt>
      <trkpt lat="38.254834" lon="-2.710938">
        <ele>772.709</ele>
        <time>2023-12-03T09:20:31Z</time>
      </trkpt>
      <trkpt lat="38.254907" lon="-2.710603">
        <ele>773.613</ele>
        <time>2023-12-03T09:20:37Z</time>
      </trkpt>
      <trkpt lat="38.254907" lon="-2.709466">
        <ele>776.911</ele>
        <time>2023-12-03T09:20:57Z</time>
      </trkpt>
      <trkpt lat="38.255338" lon="-2.707288">
        <ele>785.881</ele>
        <time>2023-12-03T09:21:37Z</time>
      </trkpt>
      <trkpt lat="38.255471" lon="-2.706045">
        <ele>789.067</ele>
        <time>2023-12-03T09:22:00Z</time>
      </trkpt>
      <trkpt lat="38.255509" lon="-2.704634">
        <ele>794.550</ele>
        <time>2023-12-03T09:22:26Z</time>
      </trkpt>
      <trkpt lat="38.255406" lon="-2.703600">
        <ele>799.687</ele>
        <time>2023-12-03T09:22:46Z</time>
      </trkpt>
      <trkpt lat="38.255517" lon="-2.702112">
        <ele>806.192</ele>
        <time>2023-12-03T09:23:16Z</time>
      </trkpt>
      <trkpt lat="38.255795" lon="-2.701153">
        <ele>812.775</ele>
        <time>2023-12-03T09:23:38Z</time>
      </trkpt>
      <trkpt lat="38.256310" lon="-2.700845">
        <ele>814.535</ele>
        <time>2023-12-03T09:23:53Z</time>
      </trkpt>
      <trkpt lat="38.256432" lon="-2.700613">
        <ele>815.353</ele>
        <time>2023-12-03T09:23:59Z</time>
      </trkpt>
      <trkpt lat="38.256806" lon="-2.700322">
        <ele>815.204</ele>
        <time>2023-12-03T09:24:12Z</time>
      </trkpt>
      <trkpt lat="38.256760" lon="-2.700094">
        <ele>815.714</ele>
        <time>2023-12-03T09:24:18Z</time>
      </trkpt>
      <trkpt lat="38.256207" lon="-2.699700">
        <ele>820.009</ele>
        <time>2023-12-03T09:24:34Z</time>
      </trkpt>
      <trkpt lat="38.255731" lon="-2.699115">
        <ele>823.436</ele>
        <time>2023-12-03T09:24:52Z</time>
      </trkpt>
      <trkpt lat="38.255441" lon="-2.698587">
        <ele>826.514</ele>
        <time>2023-12-03T09:25:06Z</time>
      </trkpt>
      <trkpt lat="38.254022" lon="-2.697517">
        <ele>832.584</ele>
        <time>2023-12-03T09:25:56Z</time>
      </trkpt>
      <trkpt lat="38.253228" lon="-2.696393">
        <ele>844.650</ele>
        <time>2023-12-03T09:26:32Z</time>
      </trkpt>
      <trkpt lat="38.252927" lon="-2.695312">
        <ele>852.723</ele>
        <time>2023-12-03T09:26:59Z</time>
      </trkpt>
      <trkpt lat="38.252046" lon="-2.688815">
        <ele>902.310</ele>
        <time>2023-12-03T09:29:51Z</time>
      </trkpt>
      <trkpt lat="38.251515" lon="-2.687801">
        <ele>909.545</ele>
        <time>2023-12-03T09:30:21Z</time>
      </trkpt>
      <trkpt lat="38.251561" lon="-2.687400">
        <ele>913.198</ele>
        <time>2023-12-03T09:30:34Z</time>
      </trkpt>
      <trkpt lat="38.251428" lon="-2.686260">
        <ele>924.718</ele>
        <time>2023-12-03T09:31:11Z</time>
      </trkpt>
      <trkpt lat="38.251569" lon="-2.685830">
        <ele>930.146</ele>
        <time>2023-12-03T09:31:24Z</time>
      </trkpt>
      <trkpt lat="38.251706" lon="-2.684555">
        <ele>944.588</ele>
        <time>2023-12-03T09:32:08Z</time>
      </trkpt>
      <trkpt lat="38.251676" lon="-2.684243">
        <ele>948.716</ele>
        <time>2023-12-03T09:32:17Z</time>
      </trkpt>
      <trkpt lat="38.251542" lon="-2.683951">
        <ele>953.109</ele>
        <time>2023-12-03T09:32:26Z</time>
      </trkpt>
      <trkpt lat="38.251283" lon="-2.683717">
        <ele>957.965</ele>
        <time>2023-12-03T09:32:38Z</time>
      </trkpt>
      <trkpt lat="38.251046" lon="-2.683640">
        <ele>962.013</ele>
        <time>2023-12-03T09:32:48Z</time>
      </trkpt>
      <trkpt lat="38.250733" lon="-2.684170">
        <ele>959.143</ele>
        <time>2023-12-03T09:33:08Z</time>
      </trkpt>
      <trkpt lat="38.250264" lon="-2.684525">
        <ele>964.919</ele>
        <time>2023-12-03T09:33:30Z</time>
      </trkpt>
      <trkpt lat="38.250062" lon="-2.684892">
        <ele>963.722</ele>
        <time>2023-12-03T09:33:42Z</time>
      </trkpt>
      <trkpt lat="38.249806" lon="-2.685062">
        <ele>966.089</ele>
        <time>2023-12-03T09:33:50Z</time>
      </trkpt>
      <trkpt lat="38.249425" lon="-2.685512">
        <ele>971.044</ele>
        <time>2023-12-03T09:34:05Z</time>
      </trkpt>
      <trkpt lat="38.249169" lon="-2.685647">
        <ele>975.637</ele>
        <time>2023-12-03T09:34:11Z</time>
      </trkpt>
      <trkpt lat="38.248612" lon="-2.686170">
        <ele>972.987</ele>
        <time>2023-12-03T09:34:34Z</time>
      </trkpt>
      <trkpt lat="38.248338" lon="-2.686214">
        <ele>970.861</ele>
        <time>2023-12-03T09:34:44Z</time>
      </trkpt>
      <trkpt lat="38.248216" lon="-2.686063">
        <ele>975.621</ele>
        <time>2023-12-03T09:34:51Z</time>
      </trkpt>
      <trkpt lat="38.248319" lon="-2.685782">
        <ele>981.813</ele>
        <time>2023-12-03T09:35:00Z</time>
      </trkpt>
      <trkpt lat="38.248795" lon="-2.685078">
        <ele>992.909</ele>
        <time>2023-12-03T09:35:25Z</time>
      </trkpt>
      <trkpt lat="38.249062" lon="-2.684336">
        <ele>1001.517</ele>
        <time>2023-12-03T09:35:48Z</time>
      </trkpt>
      <trkpt lat="38.249425" lon="-2.683722">
        <ele>1007.145</ele>
        <time>2023-12-03T09:36:08Z</time>
      </trkpt>
      <trkpt lat="38.249780" lon="-2.683487">
        <ele>1002.145</ele>
        <time>2023-12-03T09:36:21Z</time>
      </trkpt>
      <trkpt lat="38.249948" lon="-2.683160">
        <ele>1005.551</ele>
        <time>2023-12-03T09:36:32Z</time>
      </trkpt>
      <trkpt lat="38.250047" lon="-2.682780">
        <ele>1010.744</ele>
        <time>2023-12-03T09:36:45Z</time>
      </trkpt>
      <trkpt lat="38.250062" lon="-2.682057">
        <ele>1027.071</ele>
        <time>2023-12-03T09:37:10Z</time>
      </trkpt>
      <trkpt lat="38.250558" lon="-2.681982">
        <ele>1017.716</ele>
        <time>2023-12-03T09:37:38Z</time>
      </trkpt>
      <trkpt lat="38.250848" lon="-2.681430">
        <ele>1024.229</ele>
        <time>2023-12-03T09:38:03Z</time>
      </trkpt>
      <trkpt lat="38.250749" lon="-2.681308">
        <ele>1031.489</ele>
        <time>2023-12-03T09:38:12Z</time>
      </trkpt>
      <trkpt lat="38.250504" lon="-2.681642">
        <ele>1028.927</ele>
        <time>2023-12-03T09:38:29Z</time>
      </trkpt>
      <trkpt lat="38.250104" lon="-2.681578">
        <ele>1040.668</ele>
        <time>2023-12-03T09:38:50Z</time>
      </trkpt>
      <trkpt lat="38.249566" lon="-2.681732">
        <ele>1051.714</ele>
        <time>2023-12-03T09:39:13Z</time>
      </trkpt>
      <trkpt lat="38.249566" lon="-2.682165">
        <ele>1044.409</ele>
        <time>2023-12-03T09:39:29Z</time>
      </trkpt>
      <trkpt lat="38.249394" lon="-2.682476">
        <ele>1047.623</ele>
        <time>2023-12-03T09:39:42Z</time>
      </trkpt>
      <trkpt lat="38.249036" lon="-2.682640">
        <ele>1057.271</ele>
        <time>2023-12-03T09:39:56Z</time>
      </trkpt>
      <trkpt lat="38.248231" lon="-2.683223">
        <ele>1063.011</ele>
        <time>2023-12-03T09:40:35Z</time>
      </trkpt>
      <trkpt lat="38.248101" lon="-2.683217">
        <ele>1065.067</ele>
        <time>2023-12-03T09:40:41Z</time>
      </trkpt>
      <trkpt lat="38.248593" lon="-2.681775">
        <ele>1085.410</ele>
        <time>2023-12-03T09:41:36Z</time>
      </trkpt>
      <trkpt lat="38.248444" lon="-2.680890">
        <ele>1100.247</ele>
        <time>2023-12-03T09:42:04Z</time>
      </trkpt>
      <trkpt lat="38.248521" lon="-2.680593">
        <ele>1103.222</ele>
        <time>2023-12-03T09:42:13Z</time>
      </trkpt>
      <trkpt lat="38.248712" lon="-2.680450">
        <ele>1104.285</ele>
        <time>2023-12-03T09:42:23Z</time>
      </trkpt>
      <trkpt lat="38.249398" lon="-2.680352">
        <ele>1102.925</ele>
        <time>2023-12-03T09:42:48Z</time>
      </trkpt>
      <trkpt lat="38.249757" lon="-2.679823">
        <ele>1111.967</ele>
        <time>2023-12-03T09:43:08Z</time>
      </trkpt>
      <trkpt lat="38.249787" lon="-2.679595">
        <ele>1114.881</ele>
        <time>2023-12-03T09:43:15Z</time>
      </trkpt>
      <trkpt lat="38.249699" lon="-2.679410">
        <ele>1120.419</ele>
        <time>2023-12-03T09:43:22Z</time>
      </trkpt>
      <trkpt lat="38.249558" lon="-2.679362">
        <ele>1125.509</ele>
        <time>2023-12-03T09:43:31Z</time>
      </trkpt>
      <trkpt lat="38.249204" lon="-2.679808">
        <ele>1125.627</ele>
        <time>2023-12-03T09:43:51Z</time>
      </trkpt>
      <trkpt lat="38.248929" lon="-2.679952">
        <ele>1122.635</ele>
        <time>2023-12-03T09:44:03Z</time>
      </trkpt>
      <trkpt lat="38.248288" lon="-2.679648">
        <ele>1130.685</ele>
        <time>2023-12-03T09:44:31Z</time>
      </trkpt>
      <trkpt lat="38.247544" lon="-2.679562">
        <ele>1136.951</ele>
        <time>2023-12-03T09:44:59Z</time>
      </trkpt>
      <trkpt lat="38.247395" lon="-2.679396">
        <ele>1141.844</ele>
        <time>2023-12-03T09:45:07Z</time>
      </trkpt>
      <trkpt lat="38.247403" lon="-2.679256">
        <ele>1144.121</ele>
        <time>2023-12-03T09:45:12Z</time>
      </trkpt>
      <trkpt lat="38.247594" lon="-2.678936">
        <ele>1147.566</ele>
        <time>2023-12-03T09:45:29Z</time>
      </trkpt>
      <trkpt lat="38.248032" lon="-2.678565">
        <ele>1150.469</ele>
        <time>2023-12-03T09:45:47Z</time>
      </trkpt>
      <trkpt lat="38.248349" lon="-2.677725">
        <ele>1156.239</ele>
        <time>2023-12-03T09:46:14Z</time>
      </trkpt>
      <trkpt lat="38.249093" lon="-2.676657">
        <ele>1167.156</ele>
        <time>2023-12-03T09:46:58Z</time>
      </trkpt>
      <trkpt lat="38.249997" lon="-2.676103">
        <ele>1178.259</ele>
        <time>2023-12-03T09:47:39Z</time>
      </trkpt>
      <trkpt lat="38.250283" lon="-2.675745">
        <ele>1178.014</ele>
        <time>2023-12-03T09:47:55Z</time>
      </trkpt>
      <trkpt lat="38.250321" lon="-2.675490">
        <ele>1181.309</ele>
        <time>2023-12-03T09:48:03Z</time>
      </trkpt>
      <trkpt lat="38.250310" lon="-2.675210">
        <ele>1182.776</ele>
        <time>2023-12-03T09:48:11Z</time>
      </trkpt>
      <trkpt lat="38.250092" lon="-2.674828">
        <ele>1188.474</ele>
        <time>2023-12-03T09:48:25Z</time>
      </trkpt>
      <trkpt lat="38.250024" lon="-2.674242">
        <ele>1193.044</ele>
        <time>2023-12-03T09:48:46Z</time>
      </trkpt>
      <trkpt lat="38.249780" lon="-2.673827">
        <ele>1203.610</ele>
        <time>2023-12-03T09:49:00Z</time>
      </trkpt>
      <trkpt lat="38.249684" lon="-2.673457">
        <ele>1204.893</ele>
        <time>2023-12-03T09:49:13Z</time>
      </trkpt>
      <trkpt lat="38.249719" lon="-2.672417">
        <ele>1196.210</ele>
        <time>2023-12-03T09:49:46Z</time>
      </trkpt>
      <trkpt lat="38.249356" lon="-2.671950">
        <ele>1224.175</ele>
        <time>2023-12-03T09:50:01Z</time>
      </trkpt>
      <trkpt lat="38.249272" lon="-2.671585">
        <ele>1228.628</ele>
        <time>2023-12-03T09:50:12Z</time>
      </trkpt>
      <trkpt lat="38.249616" lon="-2.670273">
        <ele>1233.158</ele>
        <time>2023-12-03T09:50:54Z</time>
      </trkpt>
      <trkpt lat="38.249814" lon="-2.670213">
        <ele>1230.889</ele>
        <time>2023-12-03T09:51:01Z</time>
      </trkpt>
      <trkpt lat="38.250295" lon="-2.670392">
        <ele>1228.306</ele>
        <time>2023-12-03T09:51:25Z</time>
      </trkpt>
      <trkpt lat="38.250531" lon="-2.670270">
        <ele>1234.726</ele>
        <time>2023-12-03T09:51:35Z</time>
      </trkpt>
      <trkpt lat="38.250615" lon="-2.670117">
        <ele>1238.609</ele>
        <time>2023-12-03T09:51:42Z</time>
      </trkpt>
      <trkpt lat="38.250543" lon="-2.669862">
        <ele>1241.849</ele>
        <time>2023-12-03T09:51:51Z</time>
      </trkpt>
      <trkpt lat="38.249787" lon="-2.669158">
        <ele>1247.917</ele>
        <time>2023-12-03T09:52:29Z</time>
      </trkpt>
      <trkpt lat="38.249680" lon="-2.668752">
        <ele>1254.717</ele>
        <time>2023-12-03T09:52:44Z</time>
      </trkpt>
      <trkpt lat="38.249795" lon="-2.668700">
        <ele>1258.063</ele>
        <time>2023-12-03T09:52:49Z</time>
      </trkpt>
      <trkpt lat="38.250024" lon="-2.668900">
        <ele>1257.816</ele>
        <time>2023-12-03T09:53:01Z</time>
      </trkpt>
      <trkpt lat="38.250226" lon="-2.668939">
        <ele>1257.583</ele>
        <time>2023-12-03T09:53:11Z</time>
      </trkpt>
      <trkpt lat="38.250703" lon="-2.668885">
        <ele>1261.718</ele>
        <time>2023-12-03T09:53:31Z</time>
      </trkpt>
      <trkpt lat="38.251180" lon="-2.669128">
        <ele>1268.231</ele>
        <time>2023-12-03T09:53:48Z</time>
      </trkpt>
      <trkpt lat="38.251950" lon="-2.669711">
        <ele>1283.491</ele>
        <time>2023-12-03T09:54:21Z</time>
      </trkpt>
      <trkpt lat="38.252389" lon="-2.670410">
        <ele>1277.238</ele>
        <time>2023-12-03T09:54:48Z</time>
      </trkpt>
      <trkpt lat="38.252694" lon="-2.670525">
        <ele>1277.670</ele>
        <time>2023-12-03T09:54:59Z</time>
      </trkpt>
      <trkpt lat="38.252793" lon="-2.670380">
        <ele>1281.317</ele>
        <time>2023-12-03T09:55:09Z</time>
      </trkpt>
      <trkpt lat="38.251473" lon="-2.668090">
        <ele>1303.609</ele>
        <time>2023-12-03T09:56:24Z</time>
      </trkpt>
      <trkpt lat="38.250234" lon="-2.666705">
        <ele>1310.014</ele>
        <time>2023-12-03T09:57:15Z</time>
      </trkpt>
      <trkpt lat="38.250066" lon="-2.666053">
        <ele>1320.412</ele>
        <time>2023-12-03T09:57:31Z</time>
      </trkpt>
      <trkpt lat="38.249856" lon="-2.665907">
        <ele>1321.742</ele>
        <time>2023-12-03T09:57:39Z</time>
      </trkpt>
      <trkpt lat="38.249215" lon="-2.666240">
        <ele>1318.718</ele>
        <time>2023-12-03T09:58:00Z</time>
      </trkpt>
      <trkpt lat="38.248784" lon="-2.666303">
        <ele>1325.491</ele>
        <time>2023-12-03T09:58:13Z</time>
      </trkpt>
      <trkpt lat="38.247373" lon="-2.667128">
        <ele>1329.858</ele>
        <time>2023-12-03T09:59:10Z</time>
      </trkpt>
      <trkpt lat="38.247174" lon="-2.667524">
        <ele>1333.873</ele>
        <time>2023-12-03T09:59:23Z</time>
      </trkpt>
      <trkpt lat="38.247144" lon="-2.668180">
        <ele>1339.556</ele>
        <time>2023-12-03T09:59:39Z</time>
      </trkpt>
      <trkpt lat="38.246888" lon="-2.669065">
        <ele>1350.256</ele>
        <time>2023-12-03T10:00:03Z</time>
      </trkpt>
      <trkpt lat="38.246907" lon="-2.669557">
        <ele>1349.995</ele>
        <time>2023-12-03T10:00:18Z</time>
      </trkpt>
      <trkpt lat="38.246354" lon="-2.670068">
        <ele>1350.249</ele>
        <time>2023-12-03T10:00:41Z</time>
      </trkpt>
      <trkpt lat="38.245927" lon="-2.670260">
        <ele>1353.023</ele>
        <time>2023-12-03T10:00:56Z</time>
      </trkpt>
      <trkpt lat="38.245198" lon="-2.670260">
        <ele>1356.109</ele>
        <time>2023-12-03T10:01:20Z</time>
      </trkpt>
      <trkpt lat="38.244664" lon="-2.670468">
        <ele>1361.820</ele>
        <time>2023-12-03T10:01:38Z</time>
      </trkpt>
      <trkpt lat="38.244092" lon="-2.670882">
        <ele>1364.478</ele>
        <time>2023-12-03T10:01:58Z</time>
      </trkpt>
      <trkpt lat="38.243157" lon="-2.671080">
        <ele>1370.658</ele>
        <time>2023-12-03T10:02:35Z</time>
      </trkpt>
      <trkpt lat="38.242490" lon="-2.671425">
        <ele>1375.064</ele>
        <time>2023-12-03T10:02:56Z</time>
      </trkpt>
      <trkpt lat="38.241826" lon="-2.671638">
        <ele>1382.697</ele>
        <time>2023-12-03T10:03:16Z</time>
      </trkpt>
      <trkpt lat="38.240891" lon="-2.672358">
        <ele>1387.794</ele>
        <time>2023-12-03T10:03:50Z</time>
      </trkpt>
      <trkpt lat="38.240270" lon="-2.672615">
        <ele>1395.879</ele>
        <time>2023-12-03T10:04:15Z</time>
      </trkpt>
      <trkpt lat="38.239076" lon="-2.673885">
        <ele>1402.092</ele>
        <time>2023-12-03T10:05:04Z</time>
      </trkpt>
      <trkpt lat="38.238637" lon="-2.674075">
        <ele>1404.412</ele>
        <time>2023-12-03T10:05:21Z</time>
      </trkpt>
      <trkpt lat="38.238439" lon="-2.673980">
        <ele>1407.073</ele>
        <time>2023-12-03T10:05:28Z</time>
      </trkpt>
      <trkpt lat="38.238221" lon="-2.673509">
        <ele>1412.885</ele>
        <time>2023-12-03T10:05:43Z</time>
      </trkpt>
      <trkpt lat="38.238011" lon="-2.673277">
        <ele>1416.913</ele>
        <time>2023-12-03T10:05:53Z</time>
      </trkpt>
      <trkpt lat="38.237035" lon="-2.672820">
        <ele>1412.609</ele>
        <time>2023-12-03T10:06:36Z</time>
      </trkpt>
      <trkpt lat="38.236924" lon="-2.672147">
        <ele>1430.018</ele>
        <time>2023-12-03T10:07:50Z</time>
      </trkpt>
      <trkpt lat="38.236596" lon="-2.671650">
        <ele>1434.716</ele>
        <time>2023-12-03T10:08:03Z</time>
      </trkpt>
      <trkpt lat="38.236024" lon="-2.671345">
        <ele>1434.116</ele>
        <time>2023-12-03T10:08:20Z</time>
      </trkpt>
      <trkpt lat="38.235417" lon="-2.671430">
        <ele>1426.422</ele>
        <time>2023-12-03T10:08:39Z</time>
      </trkpt>
      <trkpt lat="38.235208" lon="-2.671260">
        <ele>1430.715</ele>
        <time>2023-12-03T10:08:48Z</time>
      </trkpt>
      <trkpt lat="38.234731" lon="-2.669957">
        <ele>1448.322</ele>
        <time>2023-12-03T10:09:35Z</time>
      </trkpt>
      <trkpt lat="38.234673" lon="-2.669210">
        <ele>1457.587</ele>
        <time>2023-12-03T10:10:01Z</time>
      </trkpt>
      <trkpt lat="38.234921" lon="-2.668165">
        <ele>1473.970</ele>
        <time>2023-12-03T10:10:35Z</time>
      </trkpt>
      <trkpt lat="38.235318" lon="-2.667362">
        <ele>1474.330</ele>
        <time>2023-12-03T10:11:03Z</time>
      </trkpt>
      <trkpt lat="38.235871" lon="-2.666903">
        <ele>1489.779</ele>
        <time>2023-12-03T10:11:29Z</time>
      </trkpt>
      <trkpt lat="38.236157" lon="-2.666528">
        <ele>1490.705</ele>
        <time>2023-12-03T10:11:46Z</time>
      </trkpt>
      <trkpt lat="38.236428" lon="-2.665508">
        <ele>1491.525</ele>
        <time>2023-12-03T10:12:21Z</time>
      </trkpt>
      <trkpt lat="38.236943" lon="-2.665412">
        <ele>1507.809</ele>
        <time>2023-12-03T10:12:43Z</time>
      </trkpt>
      <trkpt lat="38.237149" lon="-2.665206">
        <ele>1511.468</ele>
        <time>2023-12-03T10:12:55Z</time>
      </trkpt>
      <trkpt lat="38.237344" lon="-2.664920">
        <ele>1508.066</ele>
        <time>2023-12-03T10:13:05Z</time>
      </trkpt>
      <trkpt lat="38.237515" lon="-2.664265">
        <ele>1500.816</ele>
        <time>2023-12-03T10:13:24Z</time>
      </trkpt>
      <trkpt lat="38.237916" lon="-2.663838">
        <ele>1506.552</ele>
        <time>2023-12-03T10:13:54Z</time>
      </trkpt>
      <trkpt lat="38.237668" lon="-2.664238">
        <ele>1507.695</ele>
        <time>2023-12-03T10:14:14Z</time>
      </trkpt>
      <trkpt lat="38.237626" lon="-2.664623">
        <ele>1510.972</ele>
        <time>2023-12-03T10:14:24Z</time>
      </trkpt>
      <trkpt lat="38.237389" lon="-2.665232">
        <ele>1523.827</ele>
        <time>2023-12-03T10:14:38Z</time>
      </trkpt>
      <trkpt lat="38.236798" lon="-2.665955">
        <ele>1515.970</ele>
        <time>2023-12-03T10:14:57Z</time>
      </trkpt>
      <trkpt lat="38.236314" lon="-2.667025">
        <ele>1526.570</ele>
        <time>2023-12-03T10:15:17Z</time>
      </trkpt>
      <trkpt lat="38.236009" lon="-2.667437">
        <ele>1520.324</ele>
        <time>2023-12-03T10:15:26Z</time>
      </trkpt>
      <trkpt lat="38.235894" lon="-2.668103">
        <ele>1524.004</ele>
        <time>2023-12-03T10:15:40Z</time>
      </trkpt>
      <trkpt lat="38.235978" lon="-2.668755">
        <ele>1520.614</ele>
        <time>2023-12-03T10:15:55Z</time>
      </trkpt>
      <trkpt lat="38.236390" lon="-2.669478">
        <ele>1519.309</ele>
        <time>2023-12-03T10:16:18Z</time>
      </trkpt>
      <trkpt lat="38.236913" lon="-2.670062">
        <ele>1522.563</ele>
        <time>2023-12-03T10:16:43Z</time>
      </trkpt>
      <trkpt lat="38.237580" lon="-2.670565">
        <ele>1523.821</ele>
        <time>2023-12-03T10:17:07Z</time>
      </trkpt>
      <trkpt lat="38.237809" lon="-2.670630">
        <ele>1524.111</ele>
        <time>2023-12-03T10:17:14Z</time>
      </trkpt>
      <trkpt lat="38.238275" lon="-2.670400">
        <ele>1529.947</ele>
        <time>2023-12-03T10:17:28Z</time>
      </trkpt>
      <trkpt lat="38.238904" lon="-2.669786">
        <ele>1525.180</ele>
        <time>2023-12-03T10:17:49Z</time>
      </trkpt>
      <trkpt lat="38.240300" lon="-2.667243">
        <ele>1553.957</ele>
        <time>2023-12-03T10:19:12Z</time>
      </trkpt>
      <trkpt lat="38.242349" lon="-2.664677">
        <ele>1586.882</ele>
        <time>2023-12-03T10:21:04Z</time>
      </trkpt>
      <trkpt lat="38.244199" lon="-2.663343">
        <ele>1603.275</ele>
        <time>2023-12-03T10:22:38Z</time>
      </trkpt>
      <trkpt lat="38.244588" lon="-2.662768">
        <ele>1619.225</ele>
        <time>2023-12-03T10:23:00Z</time>
      </trkpt>
      <trkpt lat="38.245217" lon="-2.662340">
        <ele>1619.081</ele>
        <time>2023-12-03T10:23:31Z</time>
      </trkpt>
      <trkpt lat="38.245603" lon="-2.661623">
        <ele>1630.961</ele>
        <time>2023-12-03T10:23:59Z</time>
      </trkpt>
      <trkpt lat="38.246022" lon="-2.661272">
        <ele>1634.117</ele>
        <time>2023-12-03T10:24:18Z</time>
      </trkpt>
      <trkpt lat="38.246575" lon="-2.660502">
        <ele>1641.609</ele>
        <time>2023-12-03T10:24:51Z</time>
      </trkpt>
      <trkpt lat="38.247415" lon="-2.659668">
        <ele>1658.819</ele>
        <time>2023-12-03T10:25:35Z</time>
      </trkpt>
      <trkpt lat="38.247842" lon="-2.659440">
        <ele>1666.657</ele>
        <time>2023-12-03T10:25:53Z</time>
      </trkpt>
      <trkpt lat="38.248174" lon="-2.659052">
        <ele>1671.817</ele>
        <time>2023-12-03T10:26:09Z</time>
      </trkpt>
      <trkpt lat="38.248616" lon="-2.658705">
        <ele>1676.973</ele>
        <time>2023-12-03T10:26:26Z</time>
      </trkpt>
      <trkpt lat="38.249204" lon="-2.658343">
        <ele>1686.486</ele>
        <time>2023-12-03T10:26:48Z</time>
      </trkpt>
      <trkpt lat="38.249387" lon="-2.658109">
        <ele>1684.153</ele>
        <time>2023-12-03T10:26:59Z</time>
      </trkpt>
      <trkpt lat="38.249997" lon="-2.657988">
        <ele>1701.528</ele>
        <time>2023-12-03T10:27:25Z</time>
      </trkpt>
      <trkpt lat="38.250638" lon="-2.657432">
        <ele>1710.621</ele>
        <time>2023-12-03T10:27:56Z</time>
      </trkpt>
      <trkpt lat="38.250703" lon="-2.657428">
        <ele>1711.861</ele>
        <time>2023-12-03T10:28:01Z</time>
      </trkpt>
      <trkpt lat="38.250703" lon="-2.657545">
        <ele>1715.149</ele>
        <time>2023-12-03T10:28:06Z</time>
      </trkpt>
      <trkpt lat="38.250237" lon="-2.658203">
        <ele>1708.102</ele>
        <time>2023-12-03T10:28:39Z</time>
      </trkpt>
      <trkpt lat="38.250237" lon="-2.658408">
        <ele>1703.522</ele>
        <time>2023-12-03T10:28:47Z</time>
      </trkpt>
      <trkpt lat="38.250512" lon="-2.658357">
        <ele>1703.609</ele>
        <time>2023-12-03T10:29:00Z</time>
      </trkpt>
      <trkpt lat="38.251218" lon="-2.657683">
        <ele>1721.455</ele>
        <time>2023-12-03T10:29:39Z</time>
      </trkpt>
      <trkpt lat="38.252049" lon="-2.657327">
        <ele>1739.333</ele>
        <time>2023-12-03T10:30:14Z</time>
      </trkpt>
      <trkpt lat="38.252274" lon="-2.657097">
        <ele>1740.673</ele>
        <time>2023-12-03T10:30:26Z</time>
      </trkpt>
      <trkpt lat="38.252713" lon="-2.657072">
        <ele>1746.689</ele>
        <time>2023-12-03T10:30:44Z</time>
      </trkpt>
      <trkpt lat="38.253056" lon="-2.657145">
        <ele>1754.262</ele>
        <time>2023-12-03T10:30:58Z</time>
      </trkpt>
      <trkpt lat="38.253419" lon="-2.657077">
        <ele>1767.649</ele>
        <time>2023-12-03T10:31:14Z</time>
      </trkpt>
      <trkpt lat="38.253610" lon="-2.656967">
        <ele>1770.824</ele>
        <time>2023-12-03T10:31:22Z</time>
      </trkpt>
      <trkpt lat="38.253945" lon="-2.656498">
        <ele>1757.167</ele>
        <time>2023-12-03T10:31:41Z</time>
      </trkpt>
      <trkpt lat="38.254701" lon="-2.656313">
        <ele>1756.797</ele>
        <time>2023-12-03T10:32:13Z</time>
      </trkpt>
      <trkpt lat="38.254716" lon="-2.656510">
        <ele>1760.458</ele>
        <time>2023-12-03T10:32:23Z</time>
      </trkpt>
      <trkpt lat="38.254468" lon="-2.656667">
        <ele>1772.252</ele>
        <time>2023-12-03T10:32:36Z</time>
      </trkpt>
      <trkpt lat="38.254048" lon="-2.657142">
        <ele>1777.417</ele>
        <time>2023-12-03T10:33:01Z</time>
      </trkpt>
      <trkpt lat="38.253880" lon="-2.657568">
        <ele>1788.909</ele>
        <time>2023-12-03T10:33:17Z</time>
      </trkpt>
      <trkpt lat="38.253899" lon="-2.657687">
        <ele>1790.536</ele>
        <time>2023-12-03T10:33:22Z</time>
      </trkpt>
      <trkpt lat="38.254147" lon="-2.657755">
        <ele>1788.724</ele>
        <time>2023-12-03T10:33:35Z</time>
      </trkpt>
      <trkpt lat="38.254174" lon="-2.657850">
        <ele>1790.414</ele>
        <time>2023-12-03T10:33:39Z</time>
      </trkpt>
      <trkpt lat="38.253842" lon="-2.658025">
        <ele>1788.010</ele>
        <time>2023-12-03T10:33:55Z</time>
      </trkpt>
      <trkpt lat="38.253766" lon="-2.658178">
        <ele>1785.783</ele>
        <time>2023-12-03T10:34:03Z</time>
      </trkpt>
      <trkpt lat="38.254086" lon="-2.658220">
        <ele>1793.040</ele>
        <time>2023-12-03T10:34:19Z</time>
      </trkpt>
      <trkpt lat="38.254262" lon="-2.658420">
        <ele>1793.135</ele>
        <time>2023-12-03T10:34:35Z</time>
      </trkpt>
      <trkpt lat="38.253716" lon="-2.658430">
        <ele>1784.558</ele>
        <time>2023-12-03T10:35:14Z</time>
      </trkpt>
      <trkpt lat="38.253686" lon="-2.658332">
        <ele>1783.458</ele>
        <time>2023-12-03T10:35:35Z</time>
      </trkpt>
    </trkseg>
  </trk></gpx>