<?xml version="1.0" encoding="UTF-8"?>
<gpx creator="Wikiloc - https://www.wikiloc.com" version="1.1" xmlns="http://www.topografix.com/GPX/1/1" xmlns:xsi="http://www.w3.org/2001/XMLSchema-instance" xsi:schemaLocation="http://www.topografix.com/GPX/1/1 http://www.topografix.com/GPX/1/1/gpx.xsd">
  <metadata>
    <name>Wikiloc - PUERTO DE GUADARRAMA/ ALTO DEL LEÓN (por Guadarrama) - Wikil...</name>
    <link href="https://www.wikiloc.com/cycling-trails/puerto-de-guadarrama-alto-del-leon-por-guadarrama-274076848">
      <text>PUERTO DE GUADARRAMA/ ALTO DEL LEÓN (por Guadarrama) - Wikil... on Wikiloc</text>
    </link>
    <time>2026-07-16T10:58:32.481Z</time>
  </metadata>
  <trk>
    <name>PUERTO DE GUADARRAMA/ ALTO DEL LEÓN (por Guadarrama) - Wikil... - Wikiloc</name>
    <cmt></cmt>
    <desc></desc>
    <trkseg>
      <trkpt lat="40.672350" lon="-4.089170">
        <ele>965.962</ele>
        <time>2026-07-16T10:58:32.479Z</time>
      </trkpt>
      <trkpt lat="40.672480" lon="-4.089380">
        <ele>966.183</ele>
        <time>2026-07-16T10:58:52.479Z</time>
      </trkpt>
      <trkpt lat="40.672520" lon="-4.089430">
        <ele>966.111</ele>
        <time>2026-07-16T10:59:12.479Z</time>
      </trkpt>
      <trkpt lat="40.672530" lon="-4.089450">
        <ele>966.009</ele>
        <time>2026-07-16T10:59:32.479Z</time>
      </trkpt>
      <trkpt lat="40.672690" lon="-4.089680">
        <ele>966.048</ele>
        <time>2026-07-16T10:59:52.479Z</time>
      </trkpt>
      <trkpt lat="40.672740" lon="-4.089750">
        <ele>965.943</ele>
        <time>2026-07-16T11:00:12.479Z</time>
      </trkpt>
      <trkpt lat="40.672950" lon="-4.090060">
        <ele>965.590</ele>
        <time>2026-07-16T11:00:32.479Z</time>
      </trkpt>
      <trkpt lat="40.673190" lon="-4.090410">
        <ele>965.356</ele>
        <time>2026-07-16T11:00:52.479Z</time>
      </trkpt>
      <trkpt lat="40.673260" lon="-4.090500">
        <ele>965.133</ele>
        <time>2026-07-16T11:01:12.479Z</time>
      </trkpt>
      <trkpt lat="40.673370" lon="-4.090630">
        <ele>965.192</ele>
        <time>2026-07-16T11:01:32.479Z</time>
      </trkpt>
      <trkpt lat="40.673440" lon="-4.090700">
        <ele>965.254</ele>
        <time>2026-07-16T11:01:52.479Z</time>
      </trkpt>
      <trkpt lat="40.673490" lon="-4.090730">
        <ele>965.210</ele>
        <time>2026-07-16T11:02:12.479Z</time>
      </trkpt>
      <trkpt lat="40.673550" lon="-4.090770">
        <ele>965.284</ele>
        <time>2026-07-16T11:02:32.479Z</time>
      </trkpt>
      <trkpt lat="40.673640" lon="-4.090810">
        <ele>965.222</ele>
        <time>2026-07-16T11:02:52.479Z</time>
      </trkpt>
      <trkpt lat="40.673750" lon="-4.090860">
        <ele>965.562</ele>
        <time>2026-07-16T11:03:12.479Z</time>
      </trkpt>
      <trkpt lat="40.673920" lon="-4.090890">
        <ele>966.108</ele>
        <time>2026-07-16T11:03:32.479Z</time>
      </trkpt>
      <trkpt lat="40.673980" lon="-4.090910">
        <ele>966.209</ele>
        <time>2026-07-16T11:03:52.479Z</time>
      </trkpt>
      <trkpt lat="40.674070" lon="-4.090940">
        <ele>966.494</ele>
        <time>2026-07-16T11:04:12.479Z</time>
      </trkpt>
      <trkpt lat="40.674170" lon="-4.090980">
        <ele>966.569</ele>
        <time>2026-07-16T11:04:32.479Z</time>
      </trkpt>
      <trkpt lat="40.674320" lon="-4.091050">
        <ele>965.526</ele>
        <time>2026-07-16T11:04:52.479Z</time>
      </trkpt>
      <trkpt lat="40.674390" lon="-4.091080">
        <ele>965.212</ele>
        <time>2026-07-16T11:05:12.479Z</time>
      </trkpt>
      <trkpt lat="40.674440" lon="-4.091120">
        <ele>965.069</ele>
        <time>2026-07-16T11:05:32.479Z</time>
      </trkpt>
      <trkpt lat="40.674500" lon="-4.091190">
        <ele>964.728</ele>
        <time>2026-07-16T11:05:52.479Z</time>
      </trkpt>
      <trkpt lat="40.674560" lon="-4.091280">
        <ele>964.460</ele>
        <time>2026-07-16T11:06:12.479Z</time>
      </trkpt>
      <trkpt lat="40.674610" lon="-4.091390">
        <ele>964.436</ele>
        <time>2026-07-16T11:06:32.479Z</time>
      </trkpt>
      <trkpt lat="40.674680" lon="-4.091560">
        <ele>964.260</ele>
        <time>2026-07-16T11:06:52.479Z</time>
      </trkpt>
      <trkpt lat="40.674720" lon="-4.091720">
        <ele>964.064</ele>
        <time>2026-07-16T11:07:12.479Z</time>
      </trkpt>
      <trkpt lat="40.674870" lon="-4.092220">
        <ele>965.006</ele>
        <time>2026-07-16T11:07:32.479Z</time>
      </trkpt>
      <trkpt lat="40.674980" lon="-4.092640">
        <ele>965.516</ele>
        <time>2026-07-16T11:07:52.479Z</time>
      </trkpt>
      <trkpt lat="40.675040" lon="-4.092850">
        <ele>966.009</ele>
        <time>2026-07-16T11:08:12.479Z</time>
      </trkpt>
      <trkpt lat="40.675080" lon="-4.092970">
        <ele>966.068</ele>
        <time>2026-07-16T11:08:32.479Z</time>
      </trkpt>
      <trkpt lat="40.675290" lon="-4.093720">
        <ele>967.053</ele>
        <time>2026-07-16T11:08:52.479Z</time>
      </trkpt>
      <trkpt lat="40.675520" lon="-4.094460">
        <ele>968.960</ele>
        <time>2026-07-16T11:09:12.479Z</time>
      </trkpt>
      <trkpt lat="40.675600" lon="-4.094710">
        <ele>970.026</ele>
        <time>2026-07-16T11:09:32.479Z</time>
      </trkpt>
      <trkpt lat="40.675680" lon="-4.095000">
        <ele>970.433</ele>
        <time>2026-07-16T11:09:52.479Z</time>
      </trkpt>
      <trkpt lat="40.675840" lon="-4.095600">
        <ele>972.212</ele>
        <time>2026-07-16T11:10:12.479Z</time>
      </trkpt>
      <trkpt lat="40.675850" lon="-4.095630">
        <ele>972.364</ele>
        <time>2026-07-16T11:10:32.479Z</time>
      </trkpt>
      <trkpt lat="40.675860" lon="-4.095730">
        <ele>972.660</ele>
        <time>2026-07-16T11:10:52.479Z</time>
      </trkpt>
      <trkpt lat="40.675890" lon="-4.095830">
        <ele>973.064</ele>
        <time>2026-07-16T11:11:12.479Z</time>
      </trkpt>
      <trkpt lat="40.676200" lon="-4.096880">
        <ele>975.883</ele>
        <time>2026-07-16T11:11:32.479Z</time>
      </trkpt>
      <trkpt lat="40.676730" lon="-4.098680">
        <ele>981.125</ele>
        <time>2026-07-16T11:11:52.479Z</time>
      </trkpt>
      <trkpt lat="40.676830" lon="-4.099030">
        <ele>981.817</ele>
        <time>2026-07-16T11:12:12.479Z</time>
      </trkpt>
      <trkpt lat="40.677030" lon="-4.099720">
        <ele>984.009</ele>
        <time>2026-07-16T11:12:32.479Z</time>
      </trkpt>
      <trkpt lat="40.677080" lon="-4.099900">
        <ele>984.630</ele>
        <time>2026-07-16T11:12:52.479Z</time>
      </trkpt>
      <trkpt lat="40.677190" lon="-4.100250">
        <ele>985.925</ele>
        <time>2026-07-16T11:13:12.479Z</time>
      </trkpt>
      <trkpt lat="40.677380" lon="-4.100900">
        <ele>989.832</ele>
        <time>2026-07-16T11:13:32.479Z</time>
      </trkpt>
      <trkpt lat="40.677420" lon="-4.101040">
        <ele>990.518</ele>
        <time>2026-07-16T11:13:52.479Z</time>
      </trkpt>
      <trkpt lat="40.677560" lon="-4.101500">
        <ele>992.645</ele>
        <time>2026-07-16T11:14:12.479Z</time>
      </trkpt>
      <trkpt lat="40.677610" lon="-4.101690">
        <ele>993.584</ele>
        <time>2026-07-16T11:14:32.479Z</time>
      </trkpt>
      <trkpt lat="40.677660" lon="-4.101890">
        <ele>994.796</ele>
        <time>2026-07-16T11:14:52.479Z</time>
      </trkpt>
      <trkpt lat="40.677680" lon="-4.102010">
        <ele>995.432</ele>
        <time>2026-07-16T11:15:12.479Z</time>
      </trkpt>
      <trkpt lat="40.677700" lon="-4.102170">
        <ele>996.436</ele>
        <time>2026-07-16T11:15:32.479Z</time>
      </trkpt>
      <trkpt lat="40.677700" lon="-4.102180">
        <ele>996.532</ele>
        <time>2026-07-16T11:15:52.479Z</time>
      </trkpt>
      <trkpt lat="40.677750" lon="-4.102940">
        <ele>1000.092</ele>
        <time>2026-07-16T11:16:12.479Z</time>
      </trkpt>
      <trkpt lat="40.677780" lon="-4.103390">
        <ele>1002.211</ele>
        <time>2026-07-16T11:16:32.479Z</time>
      </trkpt>
      <trkpt lat="40.677830" lon="-4.104060">
        <ele>1005.409</ele>
        <time>2026-07-16T11:16:52.479Z</time>
      </trkpt>
      <trkpt lat="40.677840" lon="-4.104240">
        <ele>1006.575</ele>
        <time>2026-07-16T11:17:12.479Z</time>
      </trkpt>
      <trkpt lat="40.677870" lon="-4.104460">
        <ele>1007.440</ele>
        <time>2026-07-16T11:17:32.479Z</time>
      </trkpt>
      <trkpt lat="40.677880" lon="-4.104530">
        <ele>1007.547</ele>
        <time>2026-07-16T11:17:52.479Z</time>
      </trkpt>
      <trkpt lat="40.677910" lon="-4.104670">
        <ele>1007.923</ele>
        <time>2026-07-16T11:18:12.479Z</time>
      </trkpt>
      <trkpt lat="40.677940" lon="-4.104780">
        <ele>1008.280</ele>
        <time>2026-07-16T11:18:32.479Z</time>
      </trkpt>
      <trkpt lat="40.677990" lon="-4.104910">
        <ele>1008.599</ele>
        <time>2026-07-16T11:18:52.479Z</time>
      </trkpt>
      <trkpt lat="40.678040" lon="-4.105010">
        <ele>1008.971</ele>
        <time>2026-07-16T11:19:12.479Z</time>
      </trkpt>
      <trkpt lat="40.678100" lon="-4.105100">
        <ele>1009.287</ele>
        <time>2026-07-16T11:19:32.479Z</time>
      </trkpt>
      <trkpt lat="40.678180" lon="-4.105210">
        <ele>1009.491</ele>
        <time>2026-07-16T11:19:52.479Z</time>
      </trkpt>
      <trkpt lat="40.678290" lon="-4.105330">
        <ele>1009.891</ele>
        <time>2026-07-16T11:20:12.479Z</time>
      </trkpt>
      <trkpt lat="40.678420" lon="-4.105450">
        <ele>1011.881</ele>
        <time>2026-07-16T11:20:32.479Z</time>
      </trkpt>
      <trkpt lat="40.678790" lon="-4.105720">
        <ele>1016.619</ele>
        <time>2026-07-16T11:20:52.479Z</time>
      </trkpt>
      <trkpt lat="40.678890" lon="-4.105790">
        <ele>1017.309</ele>
        <time>2026-07-16T11:21:12.479Z</time>
      </trkpt>
      <trkpt lat="40.678970" lon="-4.105840">
        <ele>1017.591</ele>
        <time>2026-07-16T11:21:32.479Z</time>
      </trkpt>
      <trkpt lat="40.679070" lon="-4.105880">
        <ele>1018.156</ele>
        <time>2026-07-16T11:21:52.479Z</time>
      </trkpt>
      <trkpt lat="40.679160" lon="-4.105910">
        <ele>1018.713</ele>
        <time>2026-07-16T11:22:12.479Z</time>
      </trkpt>
      <trkpt lat="40.679240" lon="-4.105940">
        <ele>1019.039</ele>
        <time>2026-07-16T11:22:32.479Z</time>
      </trkpt>
      <trkpt lat="40.679330" lon="-4.105950">
        <ele>1019.426</ele>
        <time>2026-07-16T11:22:52.479Z</time>
      </trkpt>
      <trkpt lat="40.679410" lon="-4.105950">
        <ele>1019.875</ele>
        <time>2026-07-16T11:23:12.479Z</time>
      </trkpt>
      <trkpt lat="40.680010" lon="-4.105940">
        <ele>1024.917</ele>
        <time>2026-07-16T11:23:32.479Z</time>
      </trkpt>
      <trkpt lat="40.680150" lon="-4.105940">
        <ele>1026.343</ele>
        <time>2026-07-16T11:23:52.479Z</time>
      </trkpt>
      <trkpt lat="40.680160" lon="-4.105950">
        <ele>1026.527</ele>
        <time>2026-07-16T11:24:12.479Z</time>
      </trkpt>
      <trkpt lat="40.680330" lon="-4.105960">
        <ele>1027.867</ele>
        <time>2026-07-16T11:24:32.479Z</time>
      </trkpt>
      <trkpt lat="40.680500" lon="-4.106000">
        <ele>1028.481</ele>
        <time>2026-07-16T11:24:52.479Z</time>
      </trkpt>
      <trkpt lat="40.680610" lon="-4.106050">
        <ele>1029.419</ele>
        <time>2026-07-16T11:25:12.479Z</time>
      </trkpt>
      <trkpt lat="40.680700" lon="-4.106100">
        <ele>1030.409</ele>
        <time>2026-07-16T11:25:32.479Z</time>
      </trkpt>
      <trkpt lat="40.680820" lon="-4.106200">
        <ele>1031.958</ele>
        <time>2026-07-16T11:25:52.479Z</time>
      </trkpt>
      <trkpt lat="40.680890" lon="-4.106260">
        <ele>1032.613</ele>
        <time>2026-07-16T11:26:12.479Z</time>
      </trkpt>
      <trkpt lat="40.680910" lon="-4.106290">
        <ele>1032.990</ele>
        <time>2026-07-16T11:26:32.479Z</time>
      </trkpt>
      <trkpt lat="40.681270" lon="-4.106660">
        <ele>1036.946</ele>
        <time>2026-07-16T11:26:52.479Z</time>
      </trkpt>
      <trkpt lat="40.681700" lon="-4.107090">
        <ele>1041.823</ele>
        <time>2026-07-16T11:27:12.479Z</time>
      </trkpt>
      <trkpt lat="40.681930" lon="-4.107310">
        <ele>1042.272</ele>
        <time>2026-07-16T11:27:32.479Z</time>
      </trkpt>
      <trkpt lat="40.682310" lon="-4.107680">
        <ele>1043.854</ele>
        <time>2026-07-16T11:27:52.479Z</time>
      </trkpt>
      <trkpt lat="40.682400" lon="-4.107780">
        <ele>1045.020</ele>
        <time>2026-07-16T11:28:12.479Z</time>
      </trkpt>
      <trkpt lat="40.682480" lon="-4.107870">
        <ele>1046.344</ele>
        <time>2026-07-16T11:28:32.479Z</time>
      </trkpt>
      <trkpt lat="40.682550" lon="-4.107960">
        <ele>1047.044</ele>
        <time>2026-07-16T11:28:52.479Z</time>
      </trkpt>
      <trkpt lat="40.682680" lon="-4.108150">
        <ele>1047.405</ele>
        <time>2026-07-16T11:29:12.479Z</time>
      </trkpt>
      <trkpt lat="40.682850" lon="-4.108430">
        <ele>1048.615</ele>
        <time>2026-07-16T11:29:32.479Z</time>
      </trkpt>
      <trkpt lat="40.683290" lon="-4.109130">
        <ele>1054.909</ele>
        <time>2026-07-16T11:29:52.479Z</time>
      </trkpt>
      <trkpt lat="40.683430" lon="-4.109340">
        <ele>1056.096</ele>
        <time>2026-07-16T11:30:12.479Z</time>
      </trkpt>
      <trkpt lat="40.684120" lon="-4.110310">
        <ele>1061.431</ele>
        <time>2026-07-16T11:30:32.479Z</time>
      </trkpt>
      <trkpt lat="40.684210" lon="-4.110450">
        <ele>1062.148</ele>
        <time>2026-07-16T11:30:52.479Z</time>
      </trkpt>
      <trkpt lat="40.684340" lon="-4.110640">
        <ele>1063.344</ele>
        <time>2026-07-16T11:31:12.479Z</time>
      </trkpt>
      <trkpt lat="40.684640" lon="-4.111100">
        <ele>1066.241</ele>
        <time>2026-07-16T11:31:32.479Z</time>
      </trkpt>
      <trkpt lat="40.684690" lon="-4.111160">
        <ele>1066.520</ele>
        <time>2026-07-16T11:31:52.479Z</time>
      </trkpt>
      <trkpt lat="40.684740" lon="-4.111220">
        <ele>1066.762</ele>
        <time>2026-07-16T11:32:12.479Z</time>
      </trkpt>
      <trkpt lat="40.684790" lon="-4.111270">
        <ele>1066.988</ele>
        <time>2026-07-16T11:32:32.479Z</time>
      </trkpt>
      <trkpt lat="40.684870" lon="-4.111330">
        <ele>1067.052</ele>
        <time>2026-07-16T11:32:52.479Z</time>
      </trkpt>
      <trkpt lat="40.684940" lon="-4.111390">
        <ele>1067.267</ele>
        <time>2026-07-16T11:33:12.479Z</time>
      </trkpt>
      <trkpt lat="40.684950" lon="-4.111390">
        <ele>1067.281</ele>
        <time>2026-07-16T11:33:32.479Z</time>
      </trkpt>
      <trkpt lat="40.685090" lon="-4.111480">
        <ele>1068.119</ele>
        <time>2026-07-16T11:33:52.479Z</time>
      </trkpt>
      <trkpt lat="40.685290" lon="-4.111610">
        <ele>1070.409</ele>
        <time>2026-07-16T11:34:12.479Z</time>
      </trkpt>
      <trkpt lat="40.685740" lon="-4.111900">
        <ele>1076.548</ele>
        <time>2026-07-16T11:34:32.479Z</time>
      </trkpt>
      <trkpt lat="40.686130" lon="-4.112180">
        <ele>1078.143</ele>
        <time>2026-07-16T11:34:52.479Z</time>
      </trkpt>
      <trkpt lat="40.686410" lon="-4.112400">
        <ele>1079.780</ele>
        <time>2026-07-16T11:35:12.479Z</time>
      </trkpt>
      <trkpt lat="40.686510" lon="-4.112490">
        <ele>1081.316</ele>
        <time>2026-07-16T11:35:32.479Z</time>
      </trkpt>
      <trkpt lat="40.686630" lon="-4.112670">
        <ele>1083.373</ele>
        <time>2026-07-16T11:35:52.479Z</time>
      </trkpt>
      <trkpt lat="40.686720" lon="-4.112810">
        <ele>1084.312</ele>
        <time>2026-07-16T11:36:12.479Z</time>
      </trkpt>
      <trkpt lat="40.686810" lon="-4.113060">
        <ele>1086.534</ele>
        <time>2026-07-16T11:36:32.479Z</time>
      </trkpt>
      <trkpt lat="40.686880" lon="-4.113290">
        <ele>1087.990</ele>
        <time>2026-07-16T11:36:52.479Z</time>
      </trkpt>
      <trkpt lat="40.687070" lon="-4.113920">
        <ele>1092.984</ele>
        <time>2026-07-16T11:37:12.479Z</time>
      </trkpt>
      <trkpt lat="40.687130" lon="-4.114090">
        <ele>1094.574</ele>
        <time>2026-07-16T11:37:32.479Z</time>
      </trkpt>
      <trkpt lat="40.687200" lon="-4.114260">
        <ele>1096.156</ele>
        <time>2026-07-16T11:37:52.479Z</time>
      </trkpt>
      <trkpt lat="40.687280" lon="-4.114430">
        <ele>1097.621</ele>
        <time>2026-07-16T11:38:12.479Z</time>
      </trkpt>
      <trkpt lat="40.687480" lon="-4.114820">
        <ele>1101.109</ele>
        <time>2026-07-16T11:38:32.479Z</time>
      </trkpt>
      <trkpt lat="40.687600" lon="-4.115060">
        <ele>1103.159</ele>
        <time>2026-07-16T11:38:52.479Z</time>
      </trkpt>
      <trkpt lat="40.687810" lon="-4.115480">
        <ele>1105.484</ele>
        <time>2026-07-16T11:39:12.479Z</time>
      </trkpt>
      <trkpt lat="40.687850" lon="-4.115570">
        <ele>1106.141</ele>
        <time>2026-07-16T11:39:32.479Z</time>
      </trkpt>
      <trkpt lat="40.688050" lon="-4.115960">
        <ele>1109.497</ele>
        <time>2026-07-16T11:39:52.479Z</time>
      </trkpt>
      <trkpt lat="40.688330" lon="-4.116520">
        <ele>1113.044</ele>
        <time>2026-07-16T11:40:12.479Z</time>
      </trkpt>
      <trkpt lat="40.688460" lon="-4.116790">
        <ele>1114.423</ele>
        <time>2026-07-16T11:40:32.479Z</time>
      </trkpt>
      <trkpt lat="40.688520" lon="-4.116890">
        <ele>1114.965</ele>
        <time>2026-07-16T11:40:52.479Z</time>
      </trkpt>
      <trkpt lat="40.688560" lon="-4.116960">
        <ele>1115.391</ele>
        <time>2026-07-16T11:41:12.479Z</time>
      </trkpt>
      <trkpt lat="40.688610" lon="-4.117020">
        <ele>1115.555</ele>
        <time>2026-07-16T11:41:32.479Z</time>
      </trkpt>
      <trkpt lat="40.688670" lon="-4.117100">
        <ele>1116.183</ele>
        <time>2026-07-16T11:41:52.479Z</time>
      </trkpt>
      <trkpt lat="40.688840" lon="-4.117300">
        <ele>1118.625</ele>
        <time>2026-07-16T11:42:12.479Z</time>
      </trkpt>
      <trkpt lat="40.689260" lon="-4.117760">
        <ele>1123.517</ele>
        <time>2026-07-16T11:42:32.479Z</time>
      </trkpt>
      <trkpt lat="40.689550" lon="-4.118080">
        <ele>1126.309</ele>
        <time>2026-07-16T11:42:52.479Z</time>
      </trkpt>
      <trkpt lat="40.690070" lon="-4.118650">
        <ele>1132.930</ele>
        <time>2026-07-16T11:43:12.479Z</time>
      </trkpt>
      <trkpt lat="40.690550" lon="-4.119180">
        <ele>1139.345</ele>
        <time>2026-07-16T11:43:32.479Z</time>
      </trkpt>
      <trkpt lat="40.690630" lon="-4.119230">
        <ele>1140.062</ele>
        <time>2026-07-16T11:43:52.479Z</time>
      </trkpt>
      <trkpt lat="40.690750" lon="-4.119370">
        <ele>1141.718</ele>
        <time>2026-07-16T11:44:12.479Z</time>
      </trkpt>
      <trkpt lat="40.690870" lon="-4.119510">
        <ele>1143.295</ele>
        <time>2026-07-16T11:44:32.479Z</time>
      </trkpt>
      <trkpt lat="40.690970" lon="-4.119620">
        <ele>1144.744</ele>
        <time>2026-07-16T11:44:52.479Z</time>
      </trkpt>
      <trkpt lat="40.691030" lon="-4.119700">
        <ele>1145.496</ele>
        <time>2026-07-16T11:45:12.479Z</time>
      </trkpt>
      <trkpt lat="40.691130" lon="-4.119830">
        <ele>1146.132</ele>
        <time>2026-07-16T11:45:32.479Z</time>
      </trkpt>
      <trkpt lat="40.691200" lon="-4.119920">
        <ele>1146.686</ele>
        <time>2026-07-16T11:45:52.480Z</time>
      </trkpt>
      <trkpt lat="40.691270" lon="-4.120040">
        <ele>1147.127</ele>
        <time>2026-07-16T11:46:12.480Z</time>
      </trkpt>
      <trkpt lat="40.691350" lon="-4.120180">
        <ele>1147.668</ele>
        <time>2026-07-16T11:46:32.480Z</time>
      </trkpt>
      <trkpt lat="40.691410" lon="-4.120310">
        <ele>1148.314</ele>
        <time>2026-07-16T11:46:52.480Z</time>
      </trkpt>
      <trkpt lat="40.691460" lon="-4.120400">
        <ele>1149.209</ele>
        <time>2026-07-16T11:47:12.480Z</time>
      </trkpt>
      <trkpt lat="40.691500" lon="-4.120470">
        <ele>1149.894</ele>
        <time>2026-07-16T11:47:32.480Z</time>
      </trkpt>
      <trkpt lat="40.691550" lon="-4.120530">
        <ele>1150.289</ele>
        <time>2026-07-16T11:47:52.480Z</time>
      </trkpt>
      <trkpt lat="40.691600" lon="-4.120640">
        <ele>1151.586</ele>
        <time>2026-07-16T11:48:12.480Z</time>
      </trkpt>
      <trkpt lat="40.691650" lon="-4.120770">
        <ele>1153.272</ele>
        <time>2026-07-16T11:48:32.480Z</time>
      </trkpt>
      <trkpt lat="40.691750" lon="-4.120930">
        <ele>1154.789</ele>
        <time>2026-07-16T11:48:52.480Z</time>
      </trkpt>
      <trkpt lat="40.691830" lon="-4.121050">
        <ele>1155.868</ele>
        <time>2026-07-16T11:49:12.480Z</time>
      </trkpt>
      <trkpt lat="40.691880" lon="-4.121110">
        <ele>1156.250</ele>
        <time>2026-07-16T11:49:32.480Z</time>
      </trkpt>
      <trkpt lat="40.691940" lon="-4.121180">
        <ele>1156.896</ele>
        <time>2026-07-16T11:49:52.480Z</time>
      </trkpt>
      <trkpt lat="40.692070" lon="-4.121310">
        <ele>1157.270</ele>
        <time>2026-07-16T11:50:12.480Z</time>
      </trkpt>
      <trkpt lat="40.692210" lon="-4.121460">
        <ele>1158.183</ele>
        <time>2026-07-16T11:50:32.480Z</time>
      </trkpt>
      <trkpt lat="40.692460" lon="-4.121700">
        <ele>1160.025</ele>
        <time>2026-07-16T11:50:52.480Z</time>
      </trkpt>
      <trkpt lat="40.692660" lon="-4.121880">
        <ele>1162.617</ele>
        <time>2026-07-16T11:51:12.480Z</time>
      </trkpt>
      <trkpt lat="40.692860" lon="-4.122040">
        <ele>1164.009</ele>
        <time>2026-07-16T11:51:32.480Z</time>
      </trkpt>
      <trkpt lat="40.693090" lon="-4.122230">
        <ele>1165.070</ele>
        <time>2026-07-16T11:51:52.480Z</time>
      </trkpt>
      <trkpt lat="40.693270" lon="-4.122380">
        <ele>1166.635</ele>
        <time>2026-07-16T11:52:12.480Z</time>
      </trkpt>
      <trkpt lat="40.693370" lon="-4.122460">
        <ele>1167.862</ele>
        <time>2026-07-16T11:52:32.480Z</time>
      </trkpt>
      <trkpt lat="40.693430" lon="-4.122520">
        <ele>1169.668</ele>
        <time>2026-07-16T11:52:52.480Z</time>
      </trkpt>
      <trkpt lat="40.693470" lon="-4.122560">
        <ele>1170.995</ele>
        <time>2026-07-16T11:53:12.480Z</time>
      </trkpt>
      <trkpt lat="40.693480" lon="-4.122580">
        <ele>1171.444</ele>
        <time>2026-07-16T11:53:32.480Z</time>
      </trkpt>
      <trkpt lat="40.693500" lon="-4.122610">
        <ele>1172.266</ele>
        <time>2026-07-16T11:53:52.480Z</time>
      </trkpt>
      <trkpt lat="40.693830" lon="-4.122940">
        <ele>1175.852</ele>
        <time>2026-07-16T11:54:12.480Z</time>
      </trkpt>
      <trkpt lat="40.694200" lon="-4.123340">
        <ele>1179.056</ele>
        <time>2026-07-16T11:54:32.480Z</time>
      </trkpt>
      <trkpt lat="40.694330" lon="-4.123490">
        <ele>1181.266</ele>
        <time>2026-07-16T11:54:52.480Z</time>
      </trkpt>
      <trkpt lat="40.694910" lon="-4.124120">
        <ele>1187.029</ele>
        <time>2026-07-16T11:55:12.480Z</time>
      </trkpt>
      <trkpt lat="40.695020" lon="-4.124220">
        <ele>1187.921</ele>
        <time>2026-07-16T11:55:32.480Z</time>
      </trkpt>
      <trkpt lat="40.695150" lon="-4.124330">
        <ele>1189.409</ele>
        <time>2026-07-16T11:55:52.480Z</time>
      </trkpt>
      <trkpt lat="40.695220" lon="-4.124390">
        <ele>1190.238</ele>
        <time>2026-07-16T11:56:12.480Z</time>
      </trkpt>
      <trkpt lat="40.695300" lon="-4.124440">
        <ele>1190.843</ele>
        <time>2026-07-16T11:56:32.480Z</time>
      </trkpt>
      <trkpt lat="40.695390" lon="-4.124510">
        <ele>1192.030</ele>
        <time>2026-07-16T11:56:52.480Z</time>
      </trkpt>
      <trkpt lat="40.695490" lon="-4.124560">
        <ele>1192.776</ele>
        <time>2026-07-16T11:57:12.480Z</time>
      </trkpt>
      <trkpt lat="40.695740" lon="-4.124680">
        <ele>1194.573</ele>
        <time>2026-07-16T11:57:32.480Z</time>
      </trkpt>
      <trkpt lat="40.696020" lon="-4.124800">
        <ele>1196.582</ele>
        <time>2026-07-16T11:57:52.480Z</time>
      </trkpt>
      <trkpt lat="40.696110" lon="-4.124830">
        <ele>1196.924</ele>
        <time>2026-07-16T11:58:12.480Z</time>
      </trkpt>
      <trkpt lat="40.696270" lon="-4.124910">
        <ele>1197.830</ele>
        <time>2026-07-16T11:58:32.480Z</time>
      </trkpt>
      <trkpt lat="40.696330" lon="-4.124940">
        <ele>1198.114</ele>
        <time>2026-07-16T11:58:52.480Z</time>
      </trkpt>
      <trkpt lat="40.696440" lon="-4.125010">
        <ele>1199.261</ele>
        <time>2026-07-16T11:59:12.480Z</time>
      </trkpt>
      <trkpt lat="40.696500" lon="-4.125060">
        <ele>1200.821</ele>
        <time>2026-07-16T11:59:32.480Z</time>
      </trkpt>
      <trkpt lat="40.696570" lon="-4.125120">
        <ele>1202.113</ele>
        <time>2026-07-16T11:59:52.480Z</time>
      </trkpt>
      <trkpt lat="40.696680" lon="-4.125240">
        <ele>1203.909</ele>
        <time>2026-07-16T12:00:12.480Z</time>
      </trkpt>
      <trkpt lat="40.696760" lon="-4.125340">
        <ele>1205.298</ele>
        <time>2026-07-16T12:00:32.480Z</time>
      </trkpt>
      <trkpt lat="40.696800" lon="-4.125390">
        <ele>1205.633</ele>
        <time>2026-07-16T12:00:52.480Z</time>
      </trkpt>
      <trkpt lat="40.696890" lon="-4.125490">
        <ele>1205.990</ele>
        <time>2026-07-16T12:01:12.480Z</time>
      </trkpt>
      <trkpt lat="40.697220" lon="-4.126060">
        <ele>1212.186</ele>
        <time>2026-07-16T12:01:32.480Z</time>
      </trkpt>
      <trkpt lat="40.697250" lon="-4.126110">
        <ele>1212.733</ele>
        <time>2026-07-16T12:01:52.480Z</time>
      </trkpt>
      <trkpt lat="40.697440" lon="-4.126440">
        <ele>1215.422</ele>
        <time>2026-07-16T12:02:12.480Z</time>
      </trkpt>
      <trkpt lat="40.697500" lon="-4.126550">
        <ele>1216.384</ele>
        <time>2026-07-16T12:02:32.480Z</time>
      </trkpt>
      <trkpt lat="40.697550" lon="-4.126680">
        <ele>1217.540</ele>
        <time>2026-07-16T12:02:52.480Z</time>
      </trkpt>
      <trkpt lat="40.697640" lon="-4.126900">
        <ele>1218.964</ele>
        <time>2026-07-16T12:03:12.480Z</time>
      </trkpt>
      <trkpt lat="40.697840" lon="-4.127410">
        <ele>1220.083</ele>
        <time>2026-07-16T12:03:32.480Z</time>
      </trkpt>
      <trkpt lat="40.697910" lon="-4.127580">
        <ele>1220.025</ele>
        <time>2026-07-16T12:03:52.480Z</time>
      </trkpt>
      <trkpt lat="40.698050" lon="-4.127960">
        <ele>1218.817</ele>
        <time>2026-07-16T12:04:12.480Z</time>
      </trkpt>
      <trkpt lat="40.698130" lon="-4.128190">
        <ele>1219.309</ele>
        <time>2026-07-16T12:04:32.480Z</time>
      </trkpt>
      <trkpt lat="40.698190" lon="-4.128370">
        <ele>1219.720</ele>
        <time>2026-07-16T12:04:52.480Z</time>
      </trkpt>
      <trkpt lat="40.698200" lon="-4.128440">
        <ele>1220.085</ele>
        <time>2026-07-16T12:05:12.480Z</time>
      </trkpt>
      <trkpt lat="40.698220" lon="-4.128570">
        <ele>1220.472</ele>
        <time>2026-07-16T12:05:32.480Z</time>
      </trkpt>
      <trkpt lat="40.698240" lon="-4.128710">
        <ele>1221.288</ele>
        <time>2026-07-16T12:05:52.480Z</time>
      </trkpt>
      <trkpt lat="40.698240" lon="-4.128800">
        <ele>1221.995</ele>
        <time>2026-07-16T12:06:12.480Z</time>
      </trkpt>
      <trkpt lat="40.698240" lon="-4.128950">
        <ele>1223.194</ele>
        <time>2026-07-16T12:06:32.480Z</time>
      </trkpt>
      <trkpt lat="40.698230" lon="-4.129100">
        <ele>1224.466</ele>
        <time>2026-07-16T12:06:52.480Z</time>
      </trkpt>
      <trkpt lat="40.698210" lon="-4.129320">
        <ele>1226.382</ele>
        <time>2026-07-16T12:07:12.480Z</time>
      </trkpt>
      <trkpt lat="40.698190" lon="-4.129490">
        <ele>1228.066</ele>
        <time>2026-07-16T12:07:32.480Z</time>
      </trkpt>
      <trkpt lat="40.698190" lon="-4.129630">
        <ele>1229.362</ele>
        <time>2026-07-16T12:07:52.480Z</time>
      </trkpt>
      <trkpt lat="40.698200" lon="-4.129770">
        <ele>1230.383</ele>
        <time>2026-07-16T12:08:12.480Z</time>
      </trkpt>
      <trkpt lat="40.698220" lon="-4.129860">
        <ele>1230.611</ele>
        <time>2026-07-16T12:08:32.480Z</time>
      </trkpt>
      <trkpt lat="40.698250" lon="-4.129990">
        <ele>1231.009</ele>
        <time>2026-07-16T12:08:52.480Z</time>
      </trkpt>
      <trkpt lat="40.698280" lon="-4.130070">
        <ele>1231.178</ele>
        <time>2026-07-16T12:09:12.480Z</time>
      </trkpt>
      <trkpt lat="40.698320" lon="-4.130160">
        <ele>1231.113</ele>
        <time>2026-07-16T12:09:32.480Z</time>
      </trkpt>
      <trkpt lat="40.698380" lon="-4.130300">
        <ele>1232.150</ele>
        <time>2026-07-16T12:09:52.480Z</time>
      </trkpt>
      <trkpt lat="40.698450" lon="-4.130420">
        <ele>1233.936</ele>
        <time>2026-07-16T12:10:12.480Z</time>
      </trkpt>
      <trkpt lat="40.698670" lon="-4.130850">
        <ele>1242.273</ele>
        <time>2026-07-16T12:10:32.480Z</time>
      </trkpt>
      <trkpt lat="40.698800" lon="-4.131090">
        <ele>1247.752</ele>
        <time>2026-07-16T12:10:52.480Z</time>
      </trkpt>
      <trkpt lat="40.698910" lon="-4.131270">
        <ele>1250.514</ele>
        <time>2026-07-16T12:11:12.480Z</time>
      </trkpt>
      <trkpt lat="40.698960" lon="-4.131330">
        <ele>1251.860</ele>
        <time>2026-07-16T12:11:32.480Z</time>
      </trkpt>
      <trkpt lat="40.699010" lon="-4.131380">
        <ele>1252.594</ele>
        <time>2026-07-16T12:11:52.480Z</time>
      </trkpt>
      <trkpt lat="40.699050" lon="-4.131400">
        <ele>1252.658</ele>
        <time>2026-07-16T12:12:12.480Z</time>
      </trkpt>
      <trkpt lat="40.699090" lon="-4.131420">
        <ele>1252.652</ele>
        <time>2026-07-16T12:12:32.480Z</time>
      </trkpt>
      <trkpt lat="40.699130" lon="-4.131430">
        <ele>1252.317</ele>
        <time>2026-07-16T12:12:52.480Z</time>
      </trkpt>
      <trkpt lat="40.699180" lon="-4.131430">
        <ele>1252.009</ele>
        <time>2026-07-16T12:13:12.480Z</time>
      </trkpt>
      <trkpt lat="40.699230" lon="-4.131430">
        <ele>1252.837</ele>
        <time>2026-07-16T12:13:32.480Z</time>
      </trkpt>
      <trkpt lat="40.699290" lon="-4.131420">
        <ele>1253.752</ele>
        <time>2026-07-16T12:13:52.480Z</time>
      </trkpt>
      <trkpt lat="40.699320" lon="-4.131400">
        <ele>1253.969</ele>
        <time>2026-07-16T12:14:12.480Z</time>
      </trkpt>
      <trkpt lat="40.699370" lon="-4.131380">
        <ele>1254.615</ele>
        <time>2026-07-16T12:14:32.480Z</time>
      </trkpt>
      <trkpt lat="40.699410" lon="-4.131350">
        <ele>1254.972</ele>
        <time>2026-07-16T12:14:52.480Z</time>
      </trkpt>
      <trkpt lat="40.699480" lon="-4.131290">
        <ele>1255.591</ele>
        <time>2026-07-16T12:15:12.480Z</time>
      </trkpt>
      <trkpt lat="40.699550" lon="-4.131210">
        <ele>1255.853</ele>
        <time>2026-07-16T12:15:32.480Z</time>
      </trkpt>
      <trkpt lat="40.699970" lon="-4.130750">
        <ele>1257.799</ele>
        <time>2026-07-16T12:15:52.480Z</time>
      </trkpt>
      <trkpt lat="40.700350" lon="-4.130320">
        <ele>1257.433</ele>
        <time>2026-07-16T12:16:12.480Z</time>
      </trkpt>
      <trkpt lat="40.700490" lon="-4.130180">
        <ele>1259.394</ele>
        <time>2026-07-16T12:16:32.480Z</time>
      </trkpt>
      <trkpt lat="40.700660" lon="-4.129990">
        <ele>1262.257</ele>
        <time>2026-07-16T12:16:52.480Z</time>
      </trkpt>
      <trkpt lat="40.700820" lon="-4.129790">
        <ele>1264.522</ele>
        <time>2026-07-16T12:17:12.480Z</time>
      </trkpt>
      <trkpt lat="40.701030" lon="-4.129500">
        <ele>1265.109</ele>
        <time>2026-07-16T12:17:32.480Z</time>
      </trkpt>
      <trkpt lat="40.701340" lon="-4.129090">
        <ele>1268.751</ele>
        <time>2026-07-16T12:17:52.480Z</time>
      </trkpt>
      <trkpt lat="40.701450" lon="-4.128940">
        <ele>1270.676</ele>
        <time>2026-07-16T12:18:12.480Z</time>
      </trkpt>
      <trkpt lat="40.701540" lon="-4.128820">
        <ele>1272.743</ele>
        <time>2026-07-16T12:18:32.480Z</time>
      </trkpt>
      <trkpt lat="40.701620" lon="-4.128730">
        <ele>1273.779</ele>
        <time>2026-07-16T12:18:52.480Z</time>
      </trkpt>
      <trkpt lat="40.701680" lon="-4.128660">
        <ele>1273.856</ele>
        <time>2026-07-16T12:19:12.480Z</time>
      </trkpt>
      <trkpt lat="40.701820" lon="-4.128540">
        <ele>1275.325</ele>
        <time>2026-07-16T12:19:32.480Z</time>
      </trkpt>
      <trkpt lat="40.702110" lon="-4.128340">
        <ele>1277.437</ele>
        <time>2026-07-16T12:19:52.480Z</time>
      </trkpt>
      <trkpt lat="40.702250" lon="-4.128250">
        <ele>1278.433</ele>
        <time>2026-07-16T12:20:12.480Z</time>
      </trkpt>
      <trkpt lat="40.702320" lon="-4.128210">
        <ele>1278.537</ele>
        <time>2026-07-16T12:20:32.480Z</time>
      </trkpt>
      <trkpt lat="40.702380" lon="-4.128180">
        <ele>1278.778</ele>
        <time>2026-07-16T12:20:52.480Z</time>
      </trkpt>
      <trkpt lat="40.702510" lon="-4.128150">
        <ele>1279.833</ele>
        <time>2026-07-16T12:21:12.480Z</time>
      </trkpt>
      <trkpt lat="40.702640" lon="-4.128130">
        <ele>1280.026</ele>
        <time>2026-07-16T12:21:32.480Z</time>
      </trkpt>
      <trkpt lat="40.703010" lon="-4.128090">
        <ele>1283.709</ele>
        <time>2026-07-16T12:21:52.480Z</time>
      </trkpt>
      <trkpt lat="40.703030" lon="-4.128090">
        <ele>1284.189</ele>
        <time>2026-07-16T12:22:12.480Z</time>
      </trkpt>
      <trkpt lat="40.703670" lon="-4.128020">
        <ele>1289.344</ele>
        <time>2026-07-16T12:22:32.480Z</time>
      </trkpt>
      <trkpt lat="40.703910" lon="-4.128000">
        <ele>1291.821</ele>
        <time>2026-07-16T12:22:52.480Z</time>
      </trkpt>
      <trkpt lat="40.704270" lon="-4.127960">
        <ele>1296.867</ele>
        <time>2026-07-16T12:23:12.480Z</time>
      </trkpt>
      <trkpt lat="40.704730" lon="-4.127890">
        <ele>1303.354</ele>
        <time>2026-07-16T12:23:32.480Z</time>
      </trkpt>
      <trkpt lat="40.704970" lon="-4.127850">
        <ele>1305.723</ele>
        <time>2026-07-16T12:23:52.480Z</time>
      </trkpt>
      <trkpt lat="40.705220" lon="-4.127800">
        <ele>1308.755</ele>
        <time>2026-07-16T12:24:12.480Z</time>
      </trkpt>
      <trkpt lat="40.705750" lon="-4.127680">
        <ele>1316.081</ele>
        <time>2026-07-16T12:24:32.480Z</time>
      </trkpt>
      <trkpt lat="40.706180" lon="-4.127580">
        <ele>1320.485</ele>
        <time>2026-07-16T12:24:52.480Z</time>
      </trkpt>
      <trkpt lat="40.706390" lon="-4.127520">
        <ele>1320.021</ele>
        <time>2026-07-16T12:25:12.480Z</time>
      </trkpt>
      <trkpt lat="40.706470" lon="-4.127500">
        <ele>1321.341</ele>
        <time>2026-07-16T12:25:32.480Z</time>
      </trkpt>
      <trkpt lat="40.706790" lon="-4.127410">
        <ele>1326.605</ele>
        <time>2026-07-16T12:25:52.480Z</time>
      </trkpt>
      <trkpt lat="40.706950" lon="-4.127370">
        <ele>1328.309</ele>
        <time>2026-07-16T12:26:12.480Z</time>
      </trkpt>
      <trkpt lat="40.707070" lon="-4.127350">
        <ele>1328.234</ele>
        <time>2026-07-16T12:26:32.480Z</time>
      </trkpt>
      <trkpt lat="40.707190" lon="-4.127340">
        <ele>1328.479</ele>
        <time>2026-07-16T12:26:52.480Z</time>
      </trkpt>
      <trkpt lat="40.707310" lon="-4.127360">
        <ele>1329.416</ele>
        <time>2026-07-16T12:27:12.480Z</time>
      </trkpt>
      <trkpt lat="40.707440" lon="-4.127390">
        <ele>1330.952</ele>
        <time>2026-07-16T12:27:32.480Z</time>
      </trkpt>
      <trkpt lat="40.707690" lon="-4.127450">
        <ele>1334.259</ele>
        <time>2026-07-16T12:27:52.480Z</time>
      </trkpt>
      <trkpt lat="40.708140" lon="-4.127570">
        <ele>1338.618</ele>
        <time>2026-07-16T12:28:12.480Z</time>
      </trkpt>
      <trkpt lat="40.708550" lon="-4.127640">
        <ele>1342.590</ele>
        <time>2026-07-16T12:28:32.480Z</time>
      </trkpt>
      <trkpt lat="40.708750" lon="-4.127680">
        <ele>1344.486</ele>
        <time>2026-07-16T12:28:52.480Z</time>
      </trkpt>
      <trkpt lat="40.708820" lon="-4.127700">
        <ele>1345.150</ele>
        <time>2026-07-16T12:29:12.480Z</time>
      </trkpt>
      <trkpt lat="40.708880" lon="-4.127720">
        <ele>1345.521</ele>
        <time>2026-07-16T12:29:32.480Z</time>
      </trkpt>
      <trkpt lat="40.708990" lon="-4.127750">
        <ele>1346.541</ele>
        <time>2026-07-16T12:29:52.480Z</time>
      </trkpt>
      <trkpt lat="40.709080" lon="-4.127800">
        <ele>1347.605</ele>
        <time>2026-07-16T12:30:12.480Z</time>
      </trkpt>
      <trkpt lat="40.709150" lon="-4.127870">
        <ele>1348.609</ele>
        <time>2026-07-16T12:30:32.480Z</time>
      </trkpt>
      <trkpt lat="40.709220" lon="-4.127960">
        <ele>1349.884</ele>
        <time>2026-07-16T12:30:52.480Z</time>
      </trkpt>
      <trkpt lat="40.709270" lon="-4.128050">
        <ele>1351.159</ele>
        <time>2026-07-16T12:31:12.480Z</time>
      </trkpt>
      <trkpt lat="40.709290" lon="-4.128110">
        <ele>1351.956</ele>
        <time>2026-07-16T12:31:32.480Z</time>
      </trkpt>
      <trkpt lat="40.709300" lon="-4.128170">
        <ele>1352.762</ele>
        <time>2026-07-16T12:31:52.480Z</time>
      </trkpt>
      <trkpt lat="40.709300" lon="-4.128250">
        <ele>1353.579</ele>
        <time>2026-07-16T12:32:12.480Z</time>
      </trkpt>
      <trkpt lat="40.709300" lon="-4.128300">
        <ele>1354.188</ele>
        <time>2026-07-16T12:32:32.480Z</time>
      </trkpt>
      <trkpt lat="40.709300" lon="-4.128320">
        <ele>1354.350</ele>
        <time>2026-07-16T12:32:52.480Z</time>
      </trkpt>
      <trkpt lat="40.709280" lon="-4.128400">
        <ele>1354.886</ele>
        <time>2026-07-16T12:33:12.480Z</time>
      </trkpt>
      <trkpt lat="40.709260" lon="-4.128470">
        <ele>1355.260</ele>
        <time>2026-07-16T12:33:32.480Z</time>
      </trkpt>
      <trkpt lat="40.709240" lon="-4.128530">
        <ele>1355.499</ele>
        <time>2026-07-16T12:33:52.480Z</time>
      </trkpt>
      <trkpt lat="40.709200" lon="-4.128590">
        <ele>1355.307</ele>
        <time>2026-07-16T12:34:12.480Z</time>
      </trkpt>
      <trkpt lat="40.709140" lon="-4.128650">
        <ele>1355.427</ele>
        <time>2026-07-16T12:34:32.480Z</time>
      </trkpt>
      <trkpt lat="40.709060" lon="-4.128720">
        <ele>1356.209</ele>
        <time>2026-07-16T12:34:52.480Z</time>
      </trkpt>
      <trkpt lat="40.708970" lon="-4.128750">
        <ele>1356.511</ele>
        <time>2026-07-16T12:35:12.480Z</time>
      </trkpt>
      <trkpt lat="40.708860" lon="-4.128750">
        <ele>1356.746</ele>
        <time>2026-07-16T12:35:32.480Z</time>
      </trkpt>
      <trkpt lat="40.708810" lon="-4.128750">
        <ele>1356.993</ele>
        <time>2026-07-16T12:35:52.480Z</time>
      </trkpt>
      <trkpt lat="40.708600" lon="-4.128720">
        <ele>1357.769</ele>
        <time>2026-07-16T12:36:12.480Z</time>
      </trkpt>
      <trkpt lat="40.708330" lon="-4.128670">
        <ele>1360.166</ele>
        <time>2026-07-16T12:36:32.480Z</time>
      </trkpt>
      <trkpt lat="40.708170" lon="-4.128660">
        <ele>1361.785</ele>
        <time>2026-07-16T12:36:52.480Z</time>
      </trkpt>
      <trkpt lat="40.708030" lon="-4.128660">
        <ele>1363.157</ele>
        <time>2026-07-16T12:37:12.480Z</time>
      </trkpt>
      <trkpt lat="40.707840" lon="-4.128690">
        <ele>1364.593</ele>
        <time>2026-07-16T12:37:32.480Z</time>
      </trkpt>
      <trkpt lat="40.707630" lon="-4.128760">
        <ele>1365.767</ele>
        <time>2026-07-16T12:37:52.480Z</time>
      </trkpt>
      <trkpt lat="40.707550" lon="-4.128790">
        <ele>1366.077</ele>
        <time>2026-07-16T12:38:12.480Z</time>
      </trkpt>
      <trkpt lat="40.707440" lon="-4.128870">
        <ele>1367.061</ele>
        <time>2026-07-16T12:38:32.480Z</time>
      </trkpt>
      <trkpt lat="40.707340" lon="-4.128950">
        <ele>1367.427</ele>
        <time>2026-07-16T12:38:52.480Z</time>
      </trkpt>
      <trkpt lat="40.707220" lon="-4.129100">
        <ele>1368.809</ele>
        <time>2026-07-16T12:39:12.480Z</time>
      </trkpt>
      <trkpt lat="40.707080" lon="-4.129300">
        <ele>1371.629</ele>
        <time>2026-07-16T12:39:32.480Z</time>
      </trkpt>
      <trkpt lat="40.706970" lon="-4.129480">
        <ele>1373.764</ele>
        <time>2026-07-16T12:39:52.480Z</time>
      </trkpt>
      <trkpt lat="40.706880" lon="-4.129710">
        <ele>1376.161</ele>
        <time>2026-07-16T12:40:12.480Z</time>
      </trkpt>
      <trkpt lat="40.706800" lon="-4.129950">
        <ele>1377.967</ele>
        <time>2026-07-16T12:40:32.480Z</time>
      </trkpt>
      <trkpt lat="40.706730" lon="-4.130230">
        <ele>1380.254</ele>
        <time>2026-07-16T12:40:52.480Z</time>
      </trkpt>
      <trkpt lat="40.706660" lon="-4.130570">
        <ele>1381.913</ele>
        <time>2026-07-16T12:41:12.480Z</time>
      </trkpt>
      <trkpt lat="40.706630" lon="-4.130810">
        <ele>1382.845</ele>
        <time>2026-07-16T12:41:32.480Z</time>
      </trkpt>
      <trkpt lat="40.706620" lon="-4.131080">
        <ele>1385.231</ele>
        <time>2026-07-16T12:41:52.480Z</time>
      </trkpt>
      <trkpt lat="40.706630" lon="-4.131330">
        <ele>1387.545</ele>
        <time>2026-07-16T12:42:12.480Z</time>
      </trkpt>
      <trkpt lat="40.706660" lon="-4.131540">
        <ele>1389.951</ele>
        <time>2026-07-16T12:42:32.480Z</time>
      </trkpt>
      <trkpt lat="40.706700" lon="-4.131740">
        <ele>1392.001</ele>
        <time>2026-07-16T12:42:52.480Z</time>
      </trkpt>
      <trkpt lat="40.706760" lon="-4.131980">
        <ele>1394.711</ele>
        <time>2026-07-16T12:43:12.480Z</time>
      </trkpt>
      <trkpt lat="40.706830" lon="-4.132190">
        <ele>1397.509</ele>
        <time>2026-07-16T12:43:32.480Z</time>
      </trkpt>
      <trkpt lat="40.706880" lon="-4.132300">
        <ele>1399.327</ele>
        <time>2026-07-16T12:43:52.480Z</time>
      </trkpt>
      <trkpt lat="40.706980" lon="-4.132490">
        <ele>1403.292</ele>
        <time>2026-07-16T12:44:12.480Z</time>
      </trkpt>
      <trkpt lat="40.707180" lon="-4.132780">
        <ele>1408.679</ele>
        <time>2026-07-16T12:44:32.480Z</time>
      </trkpt>
      <trkpt lat="40.707370" lon="-4.132990">
        <ele>1410.785</ele>
        <time>2026-07-16T12:44:52.480Z</time>
      </trkpt>
      <trkpt lat="40.707570" lon="-4.133130">
        <ele>1412.152</ele>
        <time>2026-07-16T12:45:12.480Z</time>
      </trkpt>
      <trkpt lat="40.707840" lon="-4.133280">
        <ele>1416.131</ele>
        <time>2026-07-16T12:45:32.480Z</time>
      </trkpt>
      <trkpt lat="40.708040" lon="-4.133350">
        <ele>1418.123</ele>
        <time>2026-07-16T12:45:52.480Z</time>
      </trkpt>
      <trkpt lat="40.708440" lon="-4.133410">
        <ele>1418.859</ele>
        <time>2026-07-16T12:46:12.480Z</time>
      </trkpt>
      <trkpt lat="40.708760" lon="-4.133380">
        <ele>1420.043</ele>
        <time>2026-07-16T12:46:32.480Z</time>
      </trkpt>
      <trkpt lat="40.709100" lon="-4.133250">
        <ele>1421.859</ele>
        <time>2026-07-16T12:46:52.480Z</time>
      </trkpt>
      <trkpt lat="40.709330" lon="-4.133090">
        <ele>1422.403</ele>
        <time>2026-07-16T12:47:12.480Z</time>
      </trkpt>
      <trkpt lat="40.709520" lon="-4.132920">
        <ele>1423.523</ele>
        <time>2026-07-16T12:47:32.480Z</time>
      </trkpt>
      <trkpt lat="40.709700" lon="-4.132700">
        <ele>1424.809</ele>
        <time>2026-07-16T12:47:52.480Z</time>
      </trkpt>
      <trkpt lat="40.709780" lon="-4.132590">
        <ele>1425.717</ele>
        <time>2026-07-16T12:48:12.480Z</time>
      </trkpt>
      <trkpt lat="40.709850" lon="-4.132460">
        <ele>1426.362</ele>
        <time>2026-07-16T12:48:32.480Z</time>
      </trkpt>
      <trkpt lat="40.710010" lon="-4.132150">
        <ele>1427.479</ele>
        <time>2026-07-16T12:48:52.480Z</time>
      </trkpt>
      <trkpt lat="40.710140" lon="-4.131930">
        <ele>1427.345</ele>
        <time>2026-07-16T12:49:12.480Z</time>
      </trkpt>
      <trkpt lat="40.710220" lon="-4.131800">
        <ele>1427.332</ele>
        <time>2026-07-16T12:49:32.480Z</time>
      </trkpt>
      <trkpt lat="40.710320" lon="-4.131690">
        <ele>1428.021</ele>
        <time>2026-07-16T12:49:52.480Z</time>
      </trkpt>
      <trkpt lat="40.710400" lon="-4.131620">
        <ele>1428.533</ele>
        <time>2026-07-16T12:50:12.480Z</time>
      </trkpt>
      <trkpt lat="40.710470" lon="-4.131570">
        <ele>1429.169</ele>
        <time>2026-07-16T12:50:32.480Z</time>
      </trkpt>
      <trkpt lat="40.710560" lon="-4.131510">
        <ele>1429.863</ele>
        <time>2026-07-16T12:50:52.480Z</time>
      </trkpt>
      <trkpt lat="40.710670" lon="-4.131460">
        <ele>1431.148</ele>
        <time>2026-07-16T12:51:12.480Z</time>
      </trkpt>
      <trkpt lat="40.710730" lon="-4.131430">
        <ele>1431.761</ele>
        <time>2026-07-16T12:51:32.480Z</time>
      </trkpt>
      <trkpt lat="40.710790" lon="-4.131420">
        <ele>1432.717</ele>
        <time>2026-07-16T12:51:52.480Z</time>
      </trkpt>
      <trkpt lat="40.710870" lon="-4.131400">
        <ele>1433.409</ele>
        <time>2026-07-16T12:52:12.480Z</time>
      </trkpt>
      <trkpt lat="40.710970" lon="-4.131400">
        <ele>1434.146</ele>
        <time>2026-07-16T12:52:32.480Z</time>
      </trkpt>
      <trkpt lat="40.711090" lon="-4.131390">
        <ele>1434.911</ele>
        <time>2026-07-16T12:52:52.480Z</time>
      </trkpt>
      <trkpt lat="40.711230" lon="-4.131410">
        <ele>1435.768</ele>
        <time>2026-07-16T12:53:12.480Z</time>
      </trkpt>
      <trkpt lat="40.711330" lon="-4.131440">
        <ele>1436.524</ele>
        <time>2026-07-16T12:53:32.480Z</time>
      </trkpt>
      <trkpt lat="40.711460" lon="-4.131500">
        <ele>1437.911</ele>
        <time>2026-07-16T12:53:52.480Z</time>
      </trkpt>
      <trkpt lat="40.711590" lon="-4.131560">
        <ele>1439.240</ele>
        <time>2026-07-16T12:54:12.480Z</time>
      </trkpt>
      <trkpt lat="40.711910" lon="-4.131720">
        <ele>1444.352</ele>
        <time>2026-07-16T12:54:32.480Z</time>
      </trkpt>
      <trkpt lat="40.712080" lon="-4.131800">
        <ele>1445.798</ele>
        <time>2026-07-16T12:54:52.480Z</time>
      </trkpt>
      <trkpt lat="40.712140" lon="-4.131820">
        <ele>1446.062</ele>
        <time>2026-07-16T12:55:12.480Z</time>
      </trkpt>
      <trkpt lat="40.712400" lon="-4.131900">
        <ele>1446.841</ele>
        <time>2026-07-16T12:55:32.480Z</time>
      </trkpt>
      <trkpt lat="40.712760" lon="-4.132000">
        <ele>1449.581</ele>
        <time>2026-07-16T12:55:52.480Z</time>
      </trkpt>
      <trkpt lat="40.713000" lon="-4.132070">
        <ele>1451.209</ele>
        <time>2026-07-16T12:56:12.480Z</time>
      </trkpt>
      <trkpt lat="40.713120" lon="-4.132110">
        <ele>1452.009</ele>
        <time>2026-07-16T12:56:32.480Z</time>
      </trkpt>
      <trkpt lat="40.713240" lon="-4.132190">
        <ele>1453.316</ele>
        <time>2026-07-16T12:56:52.480Z</time>
      </trkpt>
      <trkpt lat="40.713310" lon="-4.132260">
        <ele>1454.391</ele>
        <time>2026-07-16T12:57:12.480Z</time>
      </trkpt>
      <trkpt lat="40.713340" lon="-4.132300">
        <ele>1454.998</ele>
        <time>2026-07-16T12:57:32.480Z</time>
      </trkpt>
      <trkpt lat="40.713370" lon="-4.132350">
        <ele>1455.694</ele>
        <time>2026-07-16T12:57:52.480Z</time>
      </trkpt>
      <trkpt lat="40.713420" lon="-4.132430">
        <ele>1456.851</ele>
        <time>2026-07-16T12:58:12.480Z</time>
      </trkpt>
      <trkpt lat="40.713440" lon="-4.132490">
        <ele>1457.660</ele>
        <time>2026-07-16T12:58:32.480Z</time>
      </trkpt>
      <trkpt lat="40.713460" lon="-4.132550">
        <ele>1458.552</ele>
        <time>2026-07-16T12:58:52.480Z</time>
      </trkpt>
      <trkpt lat="40.713470" lon="-4.132610">
        <ele>1459.448</ele>
        <time>2026-07-16T12:59:12.480Z</time>
      </trkpt>
      <trkpt lat="40.713480" lon="-4.132700">
        <ele>1460.632</ele>
        <time>2026-07-16T12:59:32.480Z</time>
      </trkpt>
      <trkpt lat="40.713490" lon="-4.132750">
        <ele>1461.332</ele>
        <time>2026-07-16T12:59:52.480Z</time>
      </trkpt>
      <trkpt lat="40.713490" lon="-4.132810">
        <ele>1462.292</ele>
        <time>2026-07-16T13:00:12.480Z</time>
      </trkpt>
      <trkpt lat="40.713480" lon="-4.132850">
        <ele>1462.711</ele>
        <time>2026-07-16T13:00:32.480Z</time>
      </trkpt>
      <trkpt lat="40.713480" lon="-4.132920">
        <ele>1463.909</ele>
        <time>2026-07-16T13:00:52.480Z</time>
      </trkpt>
      <trkpt lat="40.713460" lon="-4.132980">
        <ele>1464.775</ele>
        <time>2026-07-16T13:01:12.480Z</time>
      </trkpt>
      <trkpt lat="40.713450" lon="-4.133050">
        <ele>1465.740</ele>
        <time>2026-07-16T13:01:32.480Z</time>
      </trkpt>
      <trkpt lat="40.713430" lon="-4.133100">
        <ele>1466.347</ele>
        <time>2026-07-16T13:01:52.480Z</time>
      </trkpt>
      <trkpt lat="40.713400" lon="-4.133170">
        <ele>1467.043</ele>
        <time>2026-07-16T13:02:12.480Z</time>
      </trkpt>
      <trkpt lat="40.713350" lon="-4.133240">
        <ele>1467.780</ele>
        <time>2026-07-16T13:02:32.480Z</time>
      </trkpt>
      <trkpt lat="40.713300" lon="-4.133310">
        <ele>1468.559</ele>
        <time>2026-07-16T13:02:52.480Z</time>
      </trkpt>
      <trkpt lat="40.713220" lon="-4.133380">
        <ele>1469.351</ele>
        <time>2026-07-16T13:03:12.480Z</time>
      </trkpt>
      <trkpt lat="40.713180" lon="-4.133410">
        <ele>1469.687</ele>
        <time>2026-07-16T13:03:32.480Z</time>
      </trkpt>
      <trkpt lat="40.713040" lon="-4.133510">
        <ele>1470.581</ele>
        <time>2026-07-16T13:03:52.480Z</time>
      </trkpt>
      <trkpt lat="40.712760" lon="-4.133670">
        <ele>1472.834</ele>
        <time>2026-07-16T13:04:12.480Z</time>
      </trkpt>
      <trkpt lat="40.712090" lon="-4.134060">
        <ele>1476.055</ele>
        <time>2026-07-16T13:04:32.480Z</time>
      </trkpt>
      <trkpt lat="40.711670" lon="-4.134310">
        <ele>1478.110</ele>
        <time>2026-07-16T13:04:52.480Z</time>
      </trkpt>
      <trkpt lat="40.711570" lon="-4.134380">
        <ele>1478.409</ele>
        <time>2026-07-16T13:05:12.480Z</time>
      </trkpt>
      <trkpt lat="40.711460" lon="-4.134470">
        <ele>1478.945</ele>
        <time>2026-07-16T13:05:32.480Z</time>
      </trkpt>
      <trkpt lat="40.711400" lon="-4.134540">
        <ele>1479.550</ele>
        <time>2026-07-16T13:05:52.480Z</time>
      </trkpt>
      <trkpt lat="40.711340" lon="-4.134620">
        <ele>1480.267</ele>
        <time>2026-07-16T13:06:12.480Z</time>
      </trkpt>
      <trkpt lat="40.711280" lon="-4.134710">
        <ele>1481.023</ele>
        <time>2026-07-16T13:06:32.480Z</time>
      </trkpt>
      <trkpt lat="40.711210" lon="-4.134820">
        <ele>1481.810</ele>
        <time>2026-07-16T13:06:52.480Z</time>
      </trkpt>
      <trkpt lat="40.711140" lon="-4.134990">
        <ele>1483.189</ele>
        <time>2026-07-16T13:07:12.480Z</time>
      </trkpt>
      <trkpt lat="40.711070" lon="-4.135160">
        <ele>1483.311</ele>
        <time>2026-07-16T13:07:32.480Z</time>
      </trkpt>
      <trkpt lat="40.710470" lon="-4.136650">
        <ele>1490.867</ele>
        <time>2026-07-16T13:07:52.480Z</time>
      </trkpt>
      <trkpt lat="40.710340" lon="-4.137000">
        <ele>1493.761</ele>
        <time>2026-07-16T13:08:12.480Z</time>
      </trkpt>
      <trkpt lat="40.710310" lon="-4.137110">
        <ele>1493.958</ele>
        <time>2026-07-16T13:08:32.480Z</time>
      </trkpt>
      <trkpt lat="40.710290" lon="-4.137180">
        <ele>1494.052</ele>
        <time>2026-07-16T13:08:52.480Z</time>
      </trkpt>
      <trkpt lat="40.710260" lon="-4.137290">
        <ele>1494.317</ele>
        <time>2026-07-16T13:09:12.480Z</time>
      </trkpt>
      <trkpt lat="40.710250" lon="-4.137370">
        <ele>1494.809</ele>
        <time>2026-07-16T13:09:32.480Z</time>
      </trkpt>
      <trkpt lat="40.710240" lon="-4.137480">
        <ele>1495.617</ele>
        <time>2026-07-16T13:09:52.480Z</time>
      </trkpt>
      <trkpt lat="40.710230" lon="-4.137570">
        <ele>1496.462</ele>
        <time>2026-07-16T13:10:12.480Z</time>
      </trkpt>
      <trkpt lat="40.710230" lon="-4.137740">
        <ele>1498.179</ele>
        <time>2026-07-16T13:10:32.480Z</time>
      </trkpt>
      <trkpt lat="40.710220" lon="-4.138260">
        <ele>1501.585</ele>
        <time>2026-07-16T13:10:52.480Z</time>
      </trkpt>
      <trkpt lat="40.710210" lon="-4.138460">
        <ele>1502.632</ele>
        <time>2026-07-16T13:11:12.480Z</time>
      </trkpt>
      <trkpt lat="40.710210" lon="-4.138900">
        <ele>1505.331</ele>
        <time>2026-07-16T13:11:32.480Z</time>
      </trkpt>
      <trkpt lat="40.710200" lon="-4.139480">
        <ele>1504.383</ele>
        <time>2026-07-16T13:11:52.480Z</time>
      </trkpt>
      <trkpt lat="40.710200" lon="-4.139660">
        <ele>1503.749</ele>
        <time>2026-07-16T13:12:12.480Z</time>
      </trkpt>
      <trkpt lat="40.710180" lon="-4.139860">
        <ele>1503.043</ele>
        <time>2026-07-16T13:12:32.480Z</time>
      </trkpt>
      <trkpt lat="40.710160" lon="-4.140070">
        <ele>1502.323</ele>
        <time>2026-07-16T13:12:52.480Z</time>
      </trkpt>
      <trkpt lat="40.710150" lon="-4.140110">
        <ele>1502.183</ele>
        <time>2026-07-16T13:13:12.480Z</time>
      </trkpt>
      <trkpt lat="40.710110" lon="-4.140300">
        <ele>1501.411</ele>
        <time>2026-07-16T13:13:32.480Z</time>
      </trkpt>
      <trkpt lat="40.710060" lon="-4.140390">
        <ele>1501.209</ele>
        <time>2026-07-16T13:13:52.480Z</time>
      </trkpt>
      <trkpt lat="40.710020" lon="-4.140460">
        <ele>1501.194</ele>
        <time>2026-07-16T13:14:12.480Z</time>
      </trkpt>
      <trkpt lat="40.709960" lon="-4.140560">
        <ele>1502.379</ele>
        <time>2026-07-16T13:14:32.480Z</time>
      </trkpt>
      <trkpt lat="40.709880" lon="-4.140670">
        <ele>1504.186</ele>
        <time>2026-07-16T13:14:52.480Z</time>
      </trkpt>
      <trkpt lat="40.709590" lon="-4.141040">
        <ele>1506.812</ele>
        <time>2026-07-16T13:15:12.480Z</time>
      </trkpt>
      <trkpt lat="40.709400" lon="-4.141280">
        <ele>1506.169</ele>
        <time>2026-07-16T13:15:32.480Z</time>
      </trkpt>
    </trkseg>
  </trk></gpx>