<?xml version="1.0" encoding="UTF-8"?>
<gpx creator="Wikiloc - https://www.wikiloc.com" version="1.1" xmlns="http://www.topografix.com/GPX/1/1" xmlns:xsi="http://www.w3.org/2001/XMLSchema-instance" xsi:schemaLocation="http://www.topografix.com/GPX/1/1 http://www.topografix.com/GPX/1/1/gpx.xsd">
  <metadata>
    <name>Wikiloc - PUERTO DE LAS PALOMAS (por Cazorla)</name>
    <link href="https://www.wikiloc.com/cycling-trails/puerto-de-las-palomas-por-cazorla-254617261">
      <text>PUERTO DE LAS PALOMAS (por Cazorla) - Wikiloc on Wikiloc</text>
    </link>
    <time>2026-07-16T09:59:48.136Z</time>
  </metadata>
  <trk>
    <name>PUERTO DE LAS PALOMAS (por Cazorla) - Wikiloc</name>
    <cmt></cmt>
    <desc></desc>
    <trkseg>
      <trkpt lat="37.918740" lon="-3.001740">
        <ele>824.915</ele>
        <time>2026-07-16T09:59:48.136Z</time>
      </trkpt>
      <trkpt lat="37.920920" lon="-2.999030">
        <ele>844.765</ele>
        <time>2026-07-16T10:00:08.136Z</time>
      </trkpt>
      <trkpt lat="37.921100" lon="-2.998100">
        <ele>851.111</ele>
        <time>2026-07-16T10:00:28.136Z</time>
      </trkpt>
      <trkpt lat="37.920750" lon="-2.997410">
        <ele>859.909</ele>
        <time>2026-07-16T10:00:48.136Z</time>
      </trkpt>
      <trkpt lat="37.920730" lon="-2.996940">
        <ele>862.673</ele>
        <time>2026-07-16T10:01:08.136Z</time>
      </trkpt>
      <trkpt lat="37.921140" lon="-2.996240">
        <ele>868.866</ele>
        <time>2026-07-16T10:01:28.136Z</time>
      </trkpt>
      <trkpt lat="37.921610" lon="-2.994710">
        <ele>884.275</ele>
        <time>2026-07-16T10:01:48.136Z</time>
      </trkpt>
      <trkpt lat="37.922430" lon="-2.993820">
        <ele>879.857</ele>
        <time>2026-07-16T10:02:08.136Z</time>
      </trkpt>
      <trkpt lat="37.922650" lon="-2.993390">
        <ele>879.292</ele>
        <time>2026-07-16T10:02:28.136Z</time>
      </trkpt>
      <trkpt lat="37.921870" lon="-2.990910">
        <ele>897.438</ele>
        <time>2026-07-16T10:02:48.136Z</time>
      </trkpt>
      <trkpt lat="37.921870" lon="-2.990270">
        <ele>897.893</ele>
        <time>2026-07-16T10:03:08.136Z</time>
      </trkpt>
      <trkpt lat="37.921240" lon="-2.989120">
        <ele>895.187</ele>
        <time>2026-07-16T10:03:28.136Z</time>
      </trkpt>
      <trkpt lat="37.920580" lon="-2.988570">
        <ele>906.482</ele>
        <time>2026-07-16T10:03:48.136Z</time>
      </trkpt>
      <trkpt lat="37.920710" lon="-2.987500">
        <ele>907.239</ele>
        <time>2026-07-16T10:04:08.136Z</time>
      </trkpt>
      <trkpt lat="37.920900" lon="-2.987190">
        <ele>908.301</ele>
        <time>2026-07-16T10:04:28.136Z</time>
      </trkpt>
      <trkpt lat="37.921650" lon="-2.986980">
        <ele>900.421</ele>
        <time>2026-07-16T10:04:48.136Z</time>
      </trkpt>
      <trkpt lat="37.922210" lon="-2.986340">
        <ele>900.309</ele>
        <time>2026-07-16T10:05:08.136Z</time>
      </trkpt>
      <trkpt lat="37.922410" lon="-2.985280">
        <ele>907.845</ele>
        <time>2026-07-16T10:05:28.136Z</time>
      </trkpt>
      <trkpt lat="37.922130" lon="-2.984030">
        <ele>911.878</ele>
        <time>2026-07-16T10:05:48.136Z</time>
      </trkpt>
      <trkpt lat="37.922310" lon="-2.982730">
        <ele>915.687</ele>
        <time>2026-07-16T10:06:08.136Z</time>
      </trkpt>
      <trkpt lat="37.923430" lon="-2.982190">
        <ele>900.859</ele>
        <time>2026-07-16T10:06:28.136Z</time>
      </trkpt>
      <trkpt lat="37.923990" lon="-2.981750">
        <ele>899.724</ele>
        <time>2026-07-16T10:06:48.136Z</time>
      </trkpt>
      <trkpt lat="37.924940" lon="-2.981430">
        <ele>894.310</ele>
        <time>2026-07-16T10:07:08.136Z</time>
      </trkpt>
      <trkpt lat="37.925240" lon="-2.980420">
        <ele>890.555</ele>
        <time>2026-07-16T10:07:28.136Z</time>
      </trkpt>
      <trkpt lat="37.926130" lon="-2.978770">
        <ele>884.259</ele>
        <time>2026-07-16T10:07:48.136Z</time>
      </trkpt>
      <trkpt lat="37.926180" lon="-2.978430">
        <ele>882.044</ele>
        <time>2026-07-16T10:08:08.136Z</time>
      </trkpt>
      <trkpt lat="37.925960" lon="-2.977360">
        <ele>878.885</ele>
        <time>2026-07-16T10:08:28.136Z</time>
      </trkpt>
      <trkpt lat="37.926420" lon="-2.976350">
        <ele>870.989</ele>
        <time>2026-07-16T10:08:48.136Z</time>
      </trkpt>
      <trkpt lat="37.926760" lon="-2.974390">
        <ele>872.317</ele>
        <time>2026-07-16T10:09:08.136Z</time>
      </trkpt>
      <trkpt lat="37.927520" lon="-2.972010">
        <ele>862.809</ele>
        <time>2026-07-16T10:09:28.136Z</time>
      </trkpt>
      <trkpt lat="37.928230" lon="-2.970700">
        <ele>844.430</ele>
        <time>2026-07-16T10:09:48.136Z</time>
      </trkpt>
      <trkpt lat="37.928070" lon="-2.969680">
        <ele>847.593</ele>
        <time>2026-07-16T10:10:08.136Z</time>
      </trkpt>
      <trkpt lat="37.928300" lon="-2.969540">
        <ele>851.632</ele>
        <time>2026-07-16T10:10:28.136Z</time>
      </trkpt>
      <trkpt lat="37.929050" lon="-2.970070">
        <ele>847.084</ele>
        <time>2026-07-16T10:10:48.136Z</time>
      </trkpt>
      <trkpt lat="37.929730" lon="-2.970020">
        <ele>854.889</ele>
        <time>2026-07-16T10:11:08.136Z</time>
      </trkpt>
      <trkpt lat="37.930600" lon="-2.970250">
        <ele>857.215</ele>
        <time>2026-07-16T10:11:28.136Z</time>
      </trkpt>
      <trkpt lat="37.932570" lon="-2.971350">
        <ele>864.620</ele>
        <time>2026-07-16T10:11:48.136Z</time>
      </trkpt>
      <trkpt lat="37.933300" lon="-2.972030">
        <ele>867.514</ele>
        <time>2026-07-16T10:12:08.136Z</time>
      </trkpt>
      <trkpt lat="37.933630" lon="-2.972890">
        <ele>865.949</ele>
        <time>2026-07-16T10:12:28.136Z</time>
      </trkpt>
      <trkpt lat="37.933900" lon="-2.973010">
        <ele>866.386</ele>
        <time>2026-07-16T10:12:48.136Z</time>
      </trkpt>
      <trkpt lat="37.933990" lon="-2.972610">
        <ele>868.060</ele>
        <time>2026-07-16T10:13:08.136Z</time>
      </trkpt>
      <trkpt lat="37.933590" lon="-2.971750">
        <ele>871.726</ele>
        <time>2026-07-16T10:13:28.136Z</time>
      </trkpt>
      <trkpt lat="37.933700" lon="-2.971220">
        <ele>877.409</ele>
        <time>2026-07-16T10:13:48.136Z</time>
      </trkpt>
      <trkpt lat="37.934010" lon="-2.970970">
        <ele>880.050</ele>
        <time>2026-07-16T10:14:08.136Z</time>
      </trkpt>
      <trkpt lat="37.935580" lon="-2.970450">
        <ele>879.823</ele>
        <time>2026-07-16T10:14:28.136Z</time>
      </trkpt>
      <trkpt lat="37.936390" lon="-2.970030">
        <ele>882.072</ele>
        <time>2026-07-16T10:14:48.136Z</time>
      </trkpt>
      <trkpt lat="37.937170" lon="-2.968930">
        <ele>880.254</ele>
        <time>2026-07-16T10:15:08.136Z</time>
      </trkpt>
      <trkpt lat="37.937400" lon="-2.968080">
        <ele>885.539</ele>
        <time>2026-07-16T10:15:28.136Z</time>
      </trkpt>
      <trkpt lat="37.938070" lon="-2.967090">
        <ele>885.025</ele>
        <time>2026-07-16T10:15:48.136Z</time>
      </trkpt>
      <trkpt lat="37.938500" lon="-2.965190">
        <ele>883.570</ele>
        <time>2026-07-16T10:16:08.136Z</time>
      </trkpt>
      <trkpt lat="37.937720" lon="-2.964180">
        <ele>892.054</ele>
        <time>2026-07-16T10:16:28.136Z</time>
      </trkpt>
      <trkpt lat="37.937350" lon="-2.961270">
        <ele>903.639</ele>
        <time>2026-07-16T10:16:48.136Z</time>
      </trkpt>
      <trkpt lat="37.937610" lon="-2.960420">
        <ele>899.012</ele>
        <time>2026-07-16T10:17:08.136Z</time>
      </trkpt>
      <trkpt lat="37.937790" lon="-2.958980">
        <ele>906.232</ele>
        <time>2026-07-16T10:17:28.136Z</time>
      </trkpt>
      <trkpt lat="37.938060" lon="-2.958260">
        <ele>901.605</ele>
        <time>2026-07-16T10:17:48.136Z</time>
      </trkpt>
      <trkpt lat="37.937960" lon="-2.957480">
        <ele>914.709</ele>
        <time>2026-07-16T10:18:08.136Z</time>
      </trkpt>
      <trkpt lat="37.938340" lon="-2.956100">
        <ele>922.173</ele>
        <time>2026-07-16T10:18:28.136Z</time>
      </trkpt>
      <trkpt lat="37.938880" lon="-2.955890">
        <ele>925.616</ele>
        <time>2026-07-16T10:18:48.136Z</time>
      </trkpt>
      <trkpt lat="37.939590" lon="-2.956290">
        <ele>919.575</ele>
        <time>2026-07-16T10:19:08.136Z</time>
      </trkpt>
      <trkpt lat="37.940330" lon="-2.956410">
        <ele>917.497</ele>
        <time>2026-07-16T10:19:28.136Z</time>
      </trkpt>
      <trkpt lat="37.941300" lon="-2.956250">
        <ele>916.072</ele>
        <time>2026-07-16T10:19:48.136Z</time>
      </trkpt>
      <trkpt lat="37.941840" lon="-2.956000">
        <ele>923.378</ele>
        <time>2026-07-16T10:20:08.136Z</time>
      </trkpt>
      <trkpt lat="37.943970" lon="-2.954060">
        <ele>934.343</ele>
        <time>2026-07-16T10:20:28.136Z</time>
      </trkpt>
      <trkpt lat="37.944840" lon="-2.953630">
        <ele>940.197</ele>
        <time>2026-07-16T10:20:48.136Z</time>
      </trkpt>
      <trkpt lat="37.945580" lon="-2.953020">
        <ele>946.072</ele>
        <time>2026-07-16T10:21:08.136Z</time>
      </trkpt>
      <trkpt lat="37.945890" lon="-2.952510">
        <ele>948.311</ele>
        <time>2026-07-16T10:21:28.136Z</time>
      </trkpt>
      <trkpt lat="37.946640" lon="-2.952080">
        <ele>954.821</ele>
        <time>2026-07-16T10:21:48.136Z</time>
      </trkpt>
      <trkpt lat="37.947270" lon="-2.950920">
        <ele>957.203</ele>
        <time>2026-07-16T10:22:08.136Z</time>
      </trkpt>
      <trkpt lat="37.947470" lon="-2.950180">
        <ele>961.109</ele>
        <time>2026-07-16T10:22:28.136Z</time>
      </trkpt>
      <trkpt lat="37.948540" lon="-2.948850">
        <ele>970.143</ele>
        <time>2026-07-16T10:22:48.136Z</time>
      </trkpt>
      <trkpt lat="37.949100" lon="-2.947780">
        <ele>982.556</ele>
        <time>2026-07-16T10:23:08.136Z</time>
      </trkpt>
      <trkpt lat="37.949670" lon="-2.947380">
        <ele>986.695</ele>
        <time>2026-07-16T10:23:28.136Z</time>
      </trkpt>
      <trkpt lat="37.950980" lon="-2.948200">
        <ele>988.247</ele>
        <time>2026-07-16T10:23:48.136Z</time>
      </trkpt>
      <trkpt lat="37.951740" lon="-2.948390">
        <ele>998.342</ele>
        <time>2026-07-16T10:24:08.136Z</time>
      </trkpt>
      <trkpt lat="37.952780" lon="-2.948990">
        <ele>1000.668</ele>
        <time>2026-07-16T10:24:28.136Z</time>
      </trkpt>
      <trkpt lat="37.954070" lon="-2.948870">
        <ele>1019.483</ele>
        <time>2026-07-16T10:24:48.136Z</time>
      </trkpt>
      <trkpt lat="37.955760" lon="-2.949370">
        <ele>1029.137</ele>
        <time>2026-07-16T10:25:08.136Z</time>
      </trkpt>
      <trkpt lat="37.955690" lon="-2.949220">
        <ele>1034.272</ele>
        <time>2026-07-16T10:25:28.136Z</time>
      </trkpt>
      <trkpt lat="37.954080" lon="-2.948480">
        <ele>1041.527</ele>
        <time>2026-07-16T10:25:48.136Z</time>
      </trkpt>
      <trkpt lat="37.953070" lon="-2.948330">
        <ele>1042.268</ele>
        <time>2026-07-16T10:26:08.136Z</time>
      </trkpt>
      <trkpt lat="37.952800" lon="-2.948150">
        <ele>1043.014</ele>
        <time>2026-07-16T10:26:28.136Z</time>
      </trkpt>
      <trkpt lat="37.950810" lon="-2.946310">
        <ele>1055.809</ele>
        <time>2026-07-16T10:26:48.136Z</time>
      </trkpt>
      <trkpt lat="37.950600" lon="-2.944980">
        <ele>1070.274</ele>
        <time>2026-07-16T10:27:08.136Z</time>
      </trkpt>
      <trkpt lat="37.950410" lon="-2.944720">
        <ele>1069.537</ele>
        <time>2026-07-16T10:27:28.136Z</time>
      </trkpt>
      <trkpt lat="37.948670" lon="-2.945870">
        <ele>1070.786</ele>
        <time>2026-07-16T10:27:48.136Z</time>
      </trkpt>
      <trkpt lat="37.947500" lon="-2.946030">
        <ele>1084.098</ele>
        <time>2026-07-16T10:28:08.136Z</time>
      </trkpt>
      <trkpt lat="37.946890" lon="-2.947980">
        <ele>1085.823</ele>
        <time>2026-07-16T10:28:28.136Z</time>
      </trkpt>
      <trkpt lat="37.946580" lon="-2.948350">
        <ele>1090.499</ele>
        <time>2026-07-16T10:28:48.136Z</time>
      </trkpt>
      <trkpt lat="37.946480" lon="-2.948760">
        <ele>1080.354</ele>
        <time>2026-07-16T10:29:08.136Z</time>
      </trkpt>
      <trkpt lat="37.946360" lon="-2.948770">
        <ele>1082.018</ele>
        <time>2026-07-16T10:29:28.136Z</time>
      </trkpt>
      <trkpt lat="37.946310" lon="-2.948580">
        <ele>1090.353</ele>
        <time>2026-07-16T10:29:48.136Z</time>
      </trkpt>
      <trkpt lat="37.946730" lon="-2.947920">
        <ele>1095.024</ele>
        <time>2026-07-16T10:30:08.136Z</time>
      </trkpt>
      <trkpt lat="37.946950" lon="-2.946890">
        <ele>1102.304</ele>
        <time>2026-07-16T10:30:28.136Z</time>
      </trkpt>
      <trkpt lat="37.946920" lon="-2.945330">
        <ele>1112.514</ele>
        <time>2026-07-16T10:30:48.136Z</time>
      </trkpt>
      <trkpt lat="37.947020" lon="-2.945090">
        <ele>1112.509</ele>
        <time>2026-07-16T10:31:08.136Z</time>
      </trkpt>
      <trkpt lat="37.947500" lon="-2.944920">
        <ele>1114.074</ele>
        <time>2026-07-16T10:31:28.136Z</time>
      </trkpt>
      <trkpt lat="37.948000" lon="-2.945160">
        <ele>1108.987</ele>
        <time>2026-07-16T10:31:48.136Z</time>
      </trkpt>
      <trkpt lat="37.948210" lon="-2.945100">
        <ele>1107.576</ele>
        <time>2026-07-16T10:32:08.136Z</time>
      </trkpt>
      <trkpt lat="37.948500" lon="-2.944520">
        <ele>1116.178</ele>
        <time>2026-07-16T10:32:28.136Z</time>
      </trkpt>
      <trkpt lat="37.950110" lon="-2.943150">
        <ele>1123.683</ele>
        <time>2026-07-16T10:32:48.136Z</time>
      </trkpt>
      <trkpt lat="37.951010" lon="-2.941960">
        <ele>1132.479</ele>
        <time>2026-07-16T10:33:08.136Z</time>
      </trkpt>
      <trkpt lat="37.952500" lon="-2.943720">
        <ele>1137.054</ele>
        <time>2026-07-16T10:33:28.136Z</time>
      </trkpt>
      <trkpt lat="37.952770" lon="-2.944840">
        <ele>1139.448</ele>
        <time>2026-07-16T10:33:48.136Z</time>
      </trkpt>
      <trkpt lat="37.952790" lon="-2.945640">
        <ele>1136.723</ele>
        <time>2026-07-16T10:34:08.136Z</time>
      </trkpt>
      <trkpt lat="37.952930" lon="-2.945760">
        <ele>1139.416</ele>
        <time>2026-07-16T10:34:28.136Z</time>
      </trkpt>
      <trkpt lat="37.953050" lon="-2.945440">
        <ele>1145.176</ele>
        <time>2026-07-16T10:34:48.136Z</time>
      </trkpt>
      <trkpt lat="37.953000" lon="-2.943440">
        <ele>1159.913</ele>
        <time>2026-07-16T10:35:08.136Z</time>
      </trkpt>
      <trkpt lat="37.952800" lon="-2.942820">
        <ele>1162.809</ele>
        <time>2026-07-16T10:35:28.136Z</time>
      </trkpt>
      <trkpt lat="37.952070" lon="-2.942070">
        <ele>1166.663</ele>
        <time>2026-07-16T10:35:48.136Z</time>
      </trkpt>
      <trkpt lat="37.951700" lon="-2.940990">
        <ele>1170.896</ele>
        <time>2026-07-16T10:36:08.136Z</time>
      </trkpt>
      <trkpt lat="37.951170" lon="-2.940010">
        <ele>1179.935</ele>
        <time>2026-07-16T10:36:28.136Z</time>
      </trkpt>
      <trkpt lat="37.950830" lon="-2.940090">
        <ele>1177.817</ele>
        <time>2026-07-16T10:36:48.136Z</time>
      </trkpt>
      <trkpt lat="37.948510" lon="-2.941820">
        <ele>1193.642</ele>
        <time>2026-07-16T10:37:08.136Z</time>
      </trkpt>
      <trkpt lat="37.947270" lon="-2.941310">
        <ele>1201.068</ele>
        <time>2026-07-16T10:37:28.136Z</time>
      </trkpt>
      <trkpt lat="37.945920" lon="-2.941440">
        <ele>1217.373</ele>
        <time>2026-07-16T10:37:48.136Z</time>
      </trkpt>
    </trkseg>
  </trk></gpx>