<?xml version="1.0" encoding="UTF-8"?>
<gpx creator="Wikiloc - https://www.wikiloc.com" version="1.1" xmlns="http://www.topografix.com/GPX/1/1" xmlns:xsi="http://www.w3.org/2001/XMLSchema-instance" xsi:schemaLocation="http://www.topografix.com/GPX/1/1 http://www.topografix.com/GPX/1/1/gpx.xsd">
  <metadata>
    <name>Wikiloc - Puerto de El Portalet 1.794m desde Biescas</name>
    <link href="https://www.wikiloc.com/cycling-trails/puerto-de-el-portalet-1-794m-desde-biescas-216508654">
      <text>Puerto de El Portalet 1.794m desde Biescas - Wikiloc on Wikiloc</text>
    </link>
    <time>2025-05-29T11:44:27Z</time>
  </metadata>
  <trk>
    <name>Puerto de El Portalet 1.794m desde Biescas - Wikiloc</name>
    <cmt></cmt>
    <desc></desc>
    <trkseg>
      <trkpt lat="42.630417" lon="-0.327268">
        <ele>870.295</ele>
        <time>2025-05-29T08:47:43Z</time>
      </trkpt>
      <trkpt lat="42.631098" lon="-0.327816">
        <ele>872.349</ele>
        <time>2025-05-29T08:48:11Z</time>
      </trkpt>
      <trkpt lat="42.632019" lon="-0.327911">
        <ele>876.723</ele>
        <time>2025-05-29T08:48:35Z</time>
      </trkpt>
      <trkpt lat="42.632919" lon="-0.327795">
        <ele>881.809</ele>
        <time>2025-05-29T08:48:58Z</time>
      </trkpt>
      <trkpt lat="42.634111" lon="-0.327182">
        <ele>889.041</ele>
        <time>2025-05-29T08:49:31Z</time>
      </trkpt>
      <trkpt lat="42.634940" lon="-0.327302">
        <ele>894.450</ele>
        <time>2025-05-29T08:49:53Z</time>
      </trkpt>
      <trkpt lat="42.635548" lon="-0.327240">
        <ele>899.945</ele>
        <time>2025-05-29T08:50:09Z</time>
      </trkpt>
      <trkpt lat="42.636663" lon="-0.326237">
        <ele>905.424</ele>
        <time>2025-05-29T08:50:43Z</time>
      </trkpt>
      <trkpt lat="42.638580" lon="-0.325855">
        <ele>913.589</ele>
        <time>2025-05-29T08:51:27Z</time>
      </trkpt>
      <trkpt lat="42.639778" lon="-0.325215">
        <ele>920.437</ele>
        <time>2025-05-29T08:51:55Z</time>
      </trkpt>
      <trkpt lat="42.641460" lon="-0.323689">
        <ele>928.495</ele>
        <time>2025-05-29T08:52:40Z</time>
      </trkpt>
      <trkpt lat="42.642057" lon="-0.323697">
        <ele>929.774</ele>
        <time>2025-05-29T08:52:56Z</time>
      </trkpt>
      <trkpt lat="42.643339" lon="-0.324092">
        <ele>931.523</ele>
        <time>2025-05-29T08:53:48Z</time>
      </trkpt>
      <trkpt lat="42.645052" lon="-0.323555">
        <ele>935.282</ele>
        <time>2025-05-29T08:54:19Z</time>
      </trkpt>
      <trkpt lat="42.645488" lon="-0.323282">
        <ele>936.043</ele>
        <time>2025-05-29T08:54:27Z</time>
      </trkpt>
      <trkpt lat="42.646111" lon="-0.322330">
        <ele>937.417</ele>
        <time>2025-05-29T08:54:42Z</time>
      </trkpt>
      <trkpt lat="42.647450" lon="-0.321349">
        <ele>938.909</ele>
        <time>2025-05-29T08:55:06Z</time>
      </trkpt>
      <trkpt lat="42.648826" lon="-0.319929">
        <ele>942.840</ele>
        <time>2025-05-29T08:55:37Z</time>
      </trkpt>
      <trkpt lat="42.650499" lon="-0.318991">
        <ele>947.839</ele>
        <time>2025-05-29T08:56:10Z</time>
      </trkpt>
      <trkpt lat="42.650934" lon="-0.319066">
        <ele>949.964</ele>
        <time>2025-05-29T08:56:18Z</time>
      </trkpt>
      <trkpt lat="42.651725" lon="-0.319644">
        <ele>954.163</ele>
        <time>2025-05-29T08:56:33Z</time>
      </trkpt>
      <trkpt lat="42.652149" lon="-0.319771">
        <ele>956.248</ele>
        <time>2025-05-29T08:56:40Z</time>
      </trkpt>
      <trkpt lat="42.654084" lon="-0.319813">
        <ele>964.046</ele>
        <time>2025-05-29T08:57:12Z</time>
      </trkpt>
      <trkpt lat="42.655512" lon="-0.319446">
        <ele>963.214</ele>
        <time>2025-05-29T08:57:36Z</time>
      </trkpt>
      <trkpt lat="42.656365" lon="-0.319591">
        <ele>962.853</ele>
        <time>2025-05-29T08:57:50Z</time>
      </trkpt>
      <trkpt lat="42.656942" lon="-0.319988">
        <ele>963.772</ele>
        <time>2025-05-29T08:58:01Z</time>
      </trkpt>
      <trkpt lat="42.657165" lon="-0.320308">
        <ele>964.361</ele>
        <time>2025-05-29T08:58:07Z</time>
      </trkpt>
      <trkpt lat="42.657760" lon="-0.322417">
        <ele>970.721</ele>
        <time>2025-05-29T08:58:40Z</time>
      </trkpt>
      <trkpt lat="42.658914" lon="-0.323598">
        <ele>978.313</ele>
        <time>2025-05-29T08:59:11Z</time>
      </trkpt>
      <trkpt lat="42.659252" lon="-0.323756">
        <ele>980.809</ele>
        <time>2025-05-29T08:59:19Z</time>
      </trkpt>
      <trkpt lat="42.660741" lon="-0.323720">
        <ele>983.088</ele>
        <time>2025-05-29T08:59:51Z</time>
      </trkpt>
      <trkpt lat="42.661982" lon="-0.323910">
        <ele>978.217</ele>
        <time>2025-05-29T09:00:08Z</time>
      </trkpt>
      <trkpt lat="42.665567" lon="-0.322381">
        <ele>988.732</ele>
        <time>2025-05-29T09:01:17Z</time>
      </trkpt>
      <trkpt lat="42.667830" lon="-0.321685">
        <ele>1001.741</ele>
        <time>2025-05-29T09:02:17Z</time>
      </trkpt>
      <trkpt lat="42.668200" lon="-0.321742">
        <ele>1003.946</ele>
        <time>2025-05-29T09:02:26Z</time>
      </trkpt>
      <trkpt lat="42.669553" lon="-0.322514">
        <ele>1013.284</ele>
        <time>2025-05-29T09:03:05Z</time>
      </trkpt>
      <trkpt lat="42.670905" lon="-0.322265">
        <ele>1024.482</ele>
        <time>2025-05-29T09:03:44Z</time>
      </trkpt>
      <trkpt lat="42.672110" lon="-0.322640">
        <ele>1033.491</ele>
        <time>2025-05-29T09:04:19Z</time>
      </trkpt>
      <trkpt lat="42.673495" lon="-0.322520">
        <ele>1044.350</ele>
        <time>2025-05-29T09:04:59Z</time>
      </trkpt>
      <trkpt lat="42.674773" lon="-0.322729">
        <ele>1055.751</ele>
        <time>2025-05-29T09:05:38Z</time>
      </trkpt>
      <trkpt lat="42.676143" lon="-0.322410">
        <ele>1068.901</ele>
        <time>2025-05-29T09:06:28Z</time>
      </trkpt>
      <trkpt lat="42.677012" lon="-0.321236">
        <ele>1080.711</ele>
        <time>2025-05-29T09:07:11Z</time>
      </trkpt>
      <trkpt lat="42.677614" lon="-0.320863">
        <ele>1088.309</ele>
        <time>2025-05-29T09:07:32Z</time>
      </trkpt>
      <trkpt lat="42.678509" lon="-0.320807">
        <ele>1099.017</ele>
        <time>2025-05-29T09:08:02Z</time>
      </trkpt>
      <trkpt lat="42.679755" lon="-0.321059">
        <ele>1110.286</ele>
        <time>2025-05-29T09:08:37Z</time>
      </trkpt>
      <trkpt lat="42.681430" lon="-0.320632">
        <ele>1106.711</ele>
        <time>2025-05-29T09:09:06Z</time>
      </trkpt>
      <trkpt lat="42.683312" lon="-0.320833">
        <ele>1091.690</ele>
        <time>2025-05-29T09:09:23Z</time>
      </trkpt>
      <trkpt lat="42.683791" lon="-0.320694">
        <ele>1089.235</ele>
        <time>2025-05-29T09:09:27Z</time>
      </trkpt>
      <trkpt lat="42.684781" lon="-0.320021">
        <ele>1087.863</ele>
        <time>2025-05-29T09:09:37Z</time>
      </trkpt>
      <trkpt lat="42.687731" lon="-0.319667">
        <ele>1087.711</ele>
        <time>2025-05-29T09:10:13Z</time>
      </trkpt>
      <trkpt lat="42.688286" lon="-0.319343">
        <ele>1087.390</ele>
        <time>2025-05-29T09:10:22Z</time>
      </trkpt>
      <trkpt lat="42.688554" lon="-0.318923">
        <ele>1086.969</ele>
        <time>2025-05-29T09:10:28Z</time>
      </trkpt>
      <trkpt lat="42.689063" lon="-0.316845">
        <ele>1088.021</ele>
        <time>2025-05-29T09:10:53Z</time>
      </trkpt>
      <trkpt lat="42.689326" lon="-0.316324">
        <ele>1089.341</ele>
        <time>2025-05-29T09:11:02Z</time>
      </trkpt>
      <trkpt lat="42.689964" lon="-0.315811">
        <ele>1090.805</ele>
        <time>2025-05-29T09:11:16Z</time>
      </trkpt>
      <trkpt lat="42.690814" lon="-0.315563">
        <ele>1091.809</ele>
        <time>2025-05-29T09:11:32Z</time>
      </trkpt>
      <trkpt lat="42.691862" lon="-0.315706">
        <ele>1090.594</ele>
        <time>2025-05-29T09:11:49Z</time>
      </trkpt>
      <trkpt lat="42.692932" lon="-0.315676">
        <ele>1088.083</ele>
        <time>2025-05-29T09:12:03Z</time>
      </trkpt>
      <trkpt lat="42.694119" lon="-0.316215">
        <ele>1087.258</ele>
        <time>2025-05-29T09:12:19Z</time>
      </trkpt>
      <trkpt lat="42.695089" lon="-0.315992">
        <ele>1088.667</ele>
        <time>2025-05-29T09:12:34Z</time>
      </trkpt>
      <trkpt lat="42.695639" lon="-0.316073">
        <ele>1089.652</ele>
        <time>2025-05-29T09:12:43Z</time>
      </trkpt>
      <trkpt lat="42.696192" lon="-0.316672">
        <ele>1090.580</ele>
        <time>2025-05-29T09:12:54Z</time>
      </trkpt>
      <trkpt lat="42.696829" lon="-0.318253">
        <ele>1091.758</ele>
        <time>2025-05-29T09:13:14Z</time>
      </trkpt>
      <trkpt lat="42.697921" lon="-0.319045">
        <ele>1092.727</ele>
        <time>2025-05-29T09:13:33Z</time>
      </trkpt>
      <trkpt lat="42.702890" lon="-0.319949">
        <ele>1092.576</ele>
        <time>2025-05-29T09:14:48Z</time>
      </trkpt>
      <trkpt lat="42.703338" lon="-0.319737">
        <ele>1092.045</ele>
        <time>2025-05-29T09:14:55Z</time>
      </trkpt>
      <trkpt lat="42.703635" lon="-0.319379">
        <ele>1091.747</ele>
        <time>2025-05-29T09:15:01Z</time>
      </trkpt>
      <trkpt lat="42.704241" lon="-0.317511">
        <ele>1091.911</ele>
        <time>2025-05-29T09:15:25Z</time>
      </trkpt>
      <trkpt lat="42.704639" lon="-0.316824">
        <ele>1093.409</ele>
        <time>2025-05-29T09:15:37Z</time>
      </trkpt>
      <trkpt lat="42.706375" lon="-0.315304">
        <ele>1098.656</ele>
        <time>2025-05-29T09:16:19Z</time>
      </trkpt>
      <trkpt lat="42.706737" lon="-0.314767">
        <ele>1099.535</ele>
        <time>2025-05-29T09:16:29Z</time>
      </trkpt>
      <trkpt lat="42.707051" lon="-0.314054">
        <ele>1099.110</ele>
        <time>2025-05-29T09:16:39Z</time>
      </trkpt>
      <trkpt lat="42.707388" lon="-0.312520">
        <ele>1095.979</ele>
        <time>2025-05-29T09:16:55Z</time>
      </trkpt>
      <trkpt lat="42.707828" lon="-0.311897">
        <ele>1094.264</ele>
        <time>2025-05-29T09:17:03Z</time>
      </trkpt>
      <trkpt lat="42.710141" lon="-0.310492">
        <ele>1085.992</ele>
        <time>2025-05-29T09:17:32Z</time>
      </trkpt>
      <trkpt lat="42.710782" lon="-0.310250">
        <ele>1086.350</ele>
        <time>2025-05-29T09:17:41Z</time>
      </trkpt>
      <trkpt lat="42.711410" lon="-0.310238">
        <ele>1088.039</ele>
        <time>2025-05-29T09:17:52Z</time>
      </trkpt>
      <trkpt lat="42.712826" lon="-0.311059">
        <ele>1093.518</ele>
        <time>2025-05-29T09:18:21Z</time>
      </trkpt>
      <trkpt lat="42.713380" lon="-0.310977">
        <ele>1094.654</ele>
        <time>2025-05-29T09:18:31Z</time>
      </trkpt>
      <trkpt lat="42.713746" lon="-0.310653">
        <ele>1094.356</ele>
        <time>2025-05-29T09:18:38Z</time>
      </trkpt>
      <trkpt lat="42.714419" lon="-0.309633">
        <ele>1092.611</ele>
        <time>2025-05-29T09:18:53Z</time>
      </trkpt>
      <trkpt lat="42.716335" lon="-0.308276">
        <ele>1095.109</ele>
        <time>2025-05-29T09:19:23Z</time>
      </trkpt>
      <trkpt lat="42.717635" lon="-0.306613">
        <ele>1097.417</ele>
        <time>2025-05-29T09:19:51Z</time>
      </trkpt>
      <trkpt lat="42.718163" lon="-0.306258">
        <ele>1097.746</ele>
        <time>2025-05-29T09:20:00Z</time>
      </trkpt>
      <trkpt lat="42.718690" lon="-0.306091">
        <ele>1098.211</ele>
        <time>2025-05-29T09:20:08Z</time>
      </trkpt>
      <trkpt lat="42.723471" lon="-0.306511">
        <ele>1108.970</ele>
        <time>2025-05-29T09:21:31Z</time>
      </trkpt>
      <trkpt lat="42.725876" lon="-0.307084">
        <ele>1115.515</ele>
        <time>2025-05-29T09:22:18Z</time>
      </trkpt>
      <trkpt lat="42.726700" lon="-0.307127">
        <ele>1118.173</ele>
        <time>2025-05-29T09:22:34Z</time>
      </trkpt>
      <trkpt lat="42.727249" lon="-0.306991">
        <ele>1120.351</ele>
        <time>2025-05-29T09:22:45Z</time>
      </trkpt>
      <trkpt lat="42.727904" lon="-0.307611">
        <ele>1119.650</ele>
        <time>2025-05-29T09:23:03Z</time>
      </trkpt>
      <trkpt lat="42.728735" lon="-0.309044">
        <ele>1120.049</ele>
        <time>2025-05-29T09:23:28Z</time>
      </trkpt>
      <trkpt lat="42.729021" lon="-0.309155">
        <ele>1120.346</ele>
        <time>2025-05-29T09:23:33Z</time>
      </trkpt>
      <trkpt lat="42.729440" lon="-0.309075">
        <ele>1121.888</ele>
        <time>2025-05-29T09:23:46Z</time>
      </trkpt>
      <trkpt lat="42.728247" lon="-0.308580">
        <ele>1122.216</ele>
        <time>2025-05-29T10:36:23Z</time>
      </trkpt>
      <trkpt lat="42.728570" lon="-0.309238">
        <ele>1127.009</ele>
        <time>2025-05-29T10:36:43Z</time>
      </trkpt>
      <trkpt lat="42.728795" lon="-0.309429">
        <ele>1129.126</ele>
        <time>2025-05-29T10:36:52Z</time>
      </trkpt>
      <trkpt lat="42.730146" lon="-0.309504">
        <ele>1140.845</ele>
        <time>2025-05-29T10:37:34Z</time>
      </trkpt>
      <trkpt lat="42.731017" lon="-0.310332">
        <ele>1147.710</ele>
        <time>2025-05-29T10:38:05Z</time>
      </trkpt>
      <trkpt lat="42.733035" lon="-0.311836">
        <ele>1158.399</ele>
        <time>2025-05-29T10:39:06Z</time>
      </trkpt>
      <trkpt lat="42.733927" lon="-0.312146">
        <ele>1159.594</ele>
        <time>2025-05-29T10:39:29Z</time>
      </trkpt>
      <trkpt lat="42.735064" lon="-0.312065">
        <ele>1161.172</ele>
        <time>2025-05-29T10:39:57Z</time>
      </trkpt>
      <trkpt lat="42.735448" lon="-0.312293">
        <ele>1160.730</ele>
        <time>2025-05-29T10:40:07Z</time>
      </trkpt>
      <trkpt lat="42.735654" lon="-0.312657">
        <ele>1159.139</ele>
        <time>2025-05-29T10:40:15Z</time>
      </trkpt>
      <trkpt lat="42.736135" lon="-0.314371">
        <ele>1167.128</ele>
        <time>2025-05-29T10:40:51Z</time>
      </trkpt>
      <trkpt lat="42.737196" lon="-0.316268">
        <ele>1181.472</ele>
        <time>2025-05-29T10:41:45Z</time>
      </trkpt>
      <trkpt lat="42.737505" lon="-0.317622">
        <ele>1182.113</ele>
        <time>2025-05-29T10:42:11Z</time>
      </trkpt>
      <trkpt lat="42.737856" lon="-0.317969">
        <ele>1182.014</ele>
        <time>2025-05-29T10:42:23Z</time>
      </trkpt>
      <trkpt lat="42.738148" lon="-0.317965">
        <ele>1182.409</ele>
        <time>2025-05-29T10:42:30Z</time>
      </trkpt>
      <trkpt lat="42.738336" lon="-0.317634">
        <ele>1184.269</ele>
        <time>2025-05-29T10:42:39Z</time>
      </trkpt>
      <trkpt lat="42.738575" lon="-0.316508">
        <ele>1192.428</ele>
        <time>2025-05-29T10:43:06Z</time>
      </trkpt>
      <trkpt lat="42.738452" lon="-0.314273">
        <ele>1206.173</ele>
        <time>2025-05-29T10:44:20Z</time>
      </trkpt>
      <trkpt lat="42.738978" lon="-0.314435">
        <ele>1209.132</ele>
        <time>2025-05-29T10:44:42Z</time>
      </trkpt>
      <trkpt lat="42.739625" lon="-0.314436">
        <ele>1214.187</ele>
        <time>2025-05-29T10:45:04Z</time>
      </trkpt>
      <trkpt lat="42.739910" lon="-0.315326">
        <ele>1219.935</ele>
        <time>2025-05-29T10:45:29Z</time>
      </trkpt>
      <trkpt lat="42.740560" lon="-0.315512">
        <ele>1219.983</ele>
        <time>2025-05-29T10:45:48Z</time>
      </trkpt>
      <trkpt lat="42.741268" lon="-0.315422">
        <ele>1219.532</ele>
        <time>2025-05-29T10:46:11Z</time>
      </trkpt>
      <trkpt lat="42.741702" lon="-0.315215">
        <ele>1220.391</ele>
        <time>2025-05-29T10:46:25Z</time>
      </trkpt>
      <trkpt lat="42.742682" lon="-0.315167">
        <ele>1215.566</ele>
        <time>2025-05-29T10:46:42Z</time>
      </trkpt>
      <trkpt lat="42.743750" lon="-0.315675">
        <ele>1220.229</ele>
        <time>2025-05-29T10:47:10Z</time>
      </trkpt>
      <trkpt lat="42.745055" lon="-0.315684">
        <ele>1230.721</ele>
        <time>2025-05-29T10:47:49Z</time>
      </trkpt>
      <trkpt lat="42.747167" lon="-0.317186">
        <ele>1246.409</ele>
        <time>2025-05-29T10:49:01Z</time>
      </trkpt>
      <trkpt lat="42.747496" lon="-0.317297">
        <ele>1249.188</ele>
        <time>2025-05-29T10:49:11Z</time>
      </trkpt>
      <trkpt lat="42.748315" lon="-0.317007">
        <ele>1257.087</ele>
        <time>2025-05-29T10:49:36Z</time>
      </trkpt>
      <trkpt lat="42.749276" lon="-0.316126">
        <ele>1268.142</ele>
        <time>2025-05-29T10:50:10Z</time>
      </trkpt>
      <trkpt lat="42.750153" lon="-0.315552">
        <ele>1276.321</ele>
        <time>2025-05-29T10:50:51Z</time>
      </trkpt>
      <trkpt lat="42.750160" lon="-0.315740">
        <ele>1276.136</ele>
        <time>2025-05-29T10:51:01Z</time>
      </trkpt>
      <trkpt lat="42.750867" lon="-0.316506">
        <ele>1274.724</ele>
        <time>2025-05-29T10:51:24Z</time>
      </trkpt>
      <trkpt lat="42.753166" lon="-0.318450">
        <ele>1279.922</ele>
        <time>2025-05-29T10:52:31Z</time>
      </trkpt>
      <trkpt lat="42.754394" lon="-0.319814">
        <ele>1278.581</ele>
        <time>2025-05-29T10:53:00Z</time>
      </trkpt>
      <trkpt lat="42.754893" lon="-0.320041">
        <ele>1277.950</ele>
        <time>2025-05-29T10:53:09Z</time>
      </trkpt>
      <trkpt lat="42.756778" lon="-0.320484">
        <ele>1282.233</ele>
        <time>2025-05-29T10:53:45Z</time>
      </trkpt>
      <trkpt lat="42.757847" lon="-0.321137">
        <ele>1290.423</ele>
        <time>2025-05-29T10:54:19Z</time>
      </trkpt>
      <trkpt lat="42.758961" lon="-0.322896">
        <ele>1302.315</ele>
        <time>2025-05-29T10:55:06Z</time>
      </trkpt>
      <trkpt lat="42.759189" lon="-0.324340">
        <ele>1309.009</ele>
        <time>2025-05-29T10:55:39Z</time>
      </trkpt>
      <trkpt lat="42.758723" lon="-0.326762">
        <ele>1310.045</ele>
        <time>2025-05-29T10:56:11Z</time>
      </trkpt>
      <trkpt lat="42.758760" lon="-0.327365">
        <ele>1311.194</ele>
        <time>2025-05-29T10:56:21Z</time>
      </trkpt>
      <trkpt lat="42.758919" lon="-0.327111">
        <ele>1312.229</ele>
        <time>2025-05-29T10:56:25Z</time>
      </trkpt>
      <trkpt lat="42.759211" lon="-0.329032">
        <ele>1323.028</ele>
        <time>2025-05-29T10:56:56Z</time>
      </trkpt>
      <trkpt lat="42.760610" lon="-0.333473">
        <ele>1333.353</ele>
        <time>2025-05-29T10:58:40Z</time>
      </trkpt>
      <trkpt lat="42.761723" lon="-0.336091">
        <ele>1347.591</ele>
        <time>2025-05-29T10:59:40Z</time>
      </trkpt>
      <trkpt lat="42.762875" lon="-0.337669">
        <ele>1353.429</ele>
        <time>2025-05-29T11:00:24Z</time>
      </trkpt>
      <trkpt lat="42.763623" lon="-0.339287">
        <ele>1351.898</ele>
        <time>2025-05-29T11:00:58Z</time>
      </trkpt>
      <trkpt lat="42.764376" lon="-0.339813">
        <ele>1353.417</ele>
        <time>2025-05-29T11:01:20Z</time>
      </trkpt>
      <trkpt lat="42.765559" lon="-0.340223">
        <ele>1356.786</ele>
        <time>2025-05-29T11:01:55Z</time>
      </trkpt>
      <trkpt lat="42.765870" lon="-0.340558">
        <ele>1364.760</ele>
        <time>2025-05-29T11:02:07Z</time>
      </trkpt>
      <trkpt lat="42.766270" lon="-0.341542">
        <ele>1378.426</ele>
        <time>2025-05-29T11:02:32Z</time>
      </trkpt>
      <trkpt lat="42.766395" lon="-0.343297">
        <ele>1384.409</ele>
        <time>2025-05-29T11:03:11Z</time>
      </trkpt>
      <trkpt lat="42.767439" lon="-0.344356">
        <ele>1388.680</ele>
        <time>2025-05-29T11:03:51Z</time>
      </trkpt>
      <trkpt lat="42.768132" lon="-0.345443">
        <ele>1400.599</ele>
        <time>2025-05-29T11:04:31Z</time>
      </trkpt>
      <trkpt lat="42.768358" lon="-0.346133">
        <ele>1406.394</ele>
        <time>2025-05-29T11:04:55Z</time>
      </trkpt>
      <trkpt lat="42.768727" lon="-0.348107">
        <ele>1419.553</ele>
        <time>2025-05-29T11:05:55Z</time>
      </trkpt>
      <trkpt lat="42.768552" lon="-0.350478">
        <ele>1428.818</ele>
        <time>2025-05-29T11:07:02Z</time>
      </trkpt>
      <trkpt lat="42.769091" lon="-0.352291">
        <ele>1439.336</ele>
        <time>2025-05-29T11:07:56Z</time>
      </trkpt>
      <trkpt lat="42.768965" lon="-0.354723">
        <ele>1452.324</ele>
        <time>2025-05-29T11:09:02Z</time>
      </trkpt>
      <trkpt lat="42.769476" lon="-0.356639">
        <ele>1464.563</ele>
        <time>2025-05-29T11:09:55Z</time>
      </trkpt>
      <trkpt lat="42.769374" lon="-0.357372">
        <ele>1468.822</ele>
        <time>2025-05-29T11:10:13Z</time>
      </trkpt>
      <trkpt lat="42.768757" lon="-0.358687">
        <ele>1479.262</ele>
        <time>2025-05-29T11:10:55Z</time>
      </trkpt>
      <trkpt lat="42.768778" lon="-0.359354">
        <ele>1483.983</ele>
        <time>2025-05-29T11:11:14Z</time>
      </trkpt>
      <trkpt lat="42.769048" lon="-0.359792">
        <ele>1487.511</ele>
        <time>2025-05-29T11:11:29Z</time>
      </trkpt>
      <trkpt lat="42.769885" lon="-0.360505">
        <ele>1495.809</ele>
        <time>2025-05-29T11:12:03Z</time>
      </trkpt>
      <trkpt lat="42.770198" lon="-0.361016">
        <ele>1497.328</ele>
        <time>2025-05-29T11:13:00Z</time>
      </trkpt>
      <trkpt lat="42.770447" lon="-0.363455">
        <ele>1487.987</ele>
        <time>2025-05-29T11:13:36Z</time>
      </trkpt>
      <trkpt lat="42.772258" lon="-0.364462">
        <ele>1483.822</ele>
        <time>2025-05-29T11:14:07Z</time>
      </trkpt>
      <trkpt lat="42.773319" lon="-0.365491">
        <ele>1491.421</ele>
        <time>2025-05-29T11:14:40Z</time>
      </trkpt>
      <trkpt lat="42.773658" lon="-0.366042">
        <ele>1494.326</ele>
        <time>2025-05-29T11:14:54Z</time>
      </trkpt>
      <trkpt lat="42.773881" lon="-0.367364">
        <ele>1497.364</ele>
        <time>2025-05-29T11:15:16Z</time>
      </trkpt>
      <trkpt lat="42.774104" lon="-0.367905">
        <ele>1496.762</ele>
        <time>2025-05-29T11:15:26Z</time>
      </trkpt>
      <trkpt lat="42.775531" lon="-0.369392">
        <ele>1499.741</ele>
        <time>2025-05-29T11:16:07Z</time>
      </trkpt>
      <trkpt lat="42.775585" lon="-0.371819">
        <ele>1507.280</ele>
        <time>2025-05-29T11:17:00Z</time>
      </trkpt>
      <trkpt lat="42.776015" lon="-0.374318">
        <ele>1517.667</ele>
        <time>2025-05-29T11:18:01Z</time>
      </trkpt>
      <trkpt lat="42.776999" lon="-0.376733">
        <ele>1516.881</ele>
        <time>2025-05-29T11:18:55Z</time>
      </trkpt>
      <trkpt lat="42.777781" lon="-0.379464">
        <ele>1511.719</ele>
        <time>2025-05-29T11:19:45Z</time>
      </trkpt>
      <trkpt lat="42.778245" lon="-0.380544">
        <ele>1512.209</ele>
        <time>2025-05-29T11:20:07Z</time>
      </trkpt>
      <trkpt lat="42.779261" lon="-0.382198">
        <ele>1520.928</ele>
        <time>2025-05-29T11:21:00Z</time>
      </trkpt>
      <trkpt lat="42.780267" lon="-0.382810">
        <ele>1529.897</ele>
        <time>2025-05-29T11:21:43Z</time>
      </trkpt>
      <trkpt lat="42.780672" lon="-0.383423">
        <ele>1536.872</ele>
        <time>2025-05-29T11:22:08Z</time>
      </trkpt>
      <trkpt lat="42.780825" lon="-0.384083">
        <ele>1542.021</ele>
        <time>2025-05-29T11:22:25Z</time>
      </trkpt>
      <trkpt lat="42.780836" lon="-0.386123">
        <ele>1554.766</ele>
        <time>2025-05-29T11:23:25Z</time>
      </trkpt>
      <trkpt lat="42.781093" lon="-0.387001">
        <ele>1563.034</ele>
        <time>2025-05-29T11:23:55Z</time>
      </trkpt>
      <trkpt lat="42.781533" lon="-0.387509">
        <ele>1569.622</ele>
        <time>2025-05-29T11:24:20Z</time>
      </trkpt>
      <trkpt lat="42.783957" lon="-0.388838">
        <ele>1588.131</ele>
        <time>2025-05-29T11:25:54Z</time>
      </trkpt>
      <trkpt lat="42.784657" lon="-0.389579">
        <ele>1591.080</ele>
        <time>2025-05-29T11:26:19Z</time>
      </trkpt>
      <trkpt lat="42.786018" lon="-0.392362">
        <ele>1613.322</ele>
        <time>2025-05-29T11:27:47Z</time>
      </trkpt>
      <trkpt lat="42.788109" lon="-0.395196">
        <ele>1631.462</ele>
        <time>2025-05-29T11:29:39Z</time>
      </trkpt>
      <trkpt lat="42.789253" lon="-0.396992">
        <ele>1636.608</ele>
        <time>2025-05-29T11:30:34Z</time>
      </trkpt>
      <trkpt lat="42.789900" lon="-0.398721">
        <ele>1646.209</ele>
        <time>2025-05-29T11:31:23Z</time>
      </trkpt>
      <trkpt lat="42.790150" lon="-0.399830">
        <ele>1652.794</ele>
        <time>2025-05-29T11:31:53Z</time>
      </trkpt>
      <trkpt lat="42.791017" lon="-0.401531">
        <ele>1665.573</ele>
        <time>2025-05-29T11:32:54Z</time>
      </trkpt>
      <trkpt lat="42.791385" lon="-0.401791">
        <ele>1668.958</ele>
        <time>2025-05-29T11:33:09Z</time>
      </trkpt>
      <trkpt lat="42.792278" lon="-0.401998">
        <ele>1675.447</ele>
        <time>2025-05-29T11:33:43Z</time>
      </trkpt>
      <trkpt lat="42.793320" lon="-0.402628">
        <ele>1685.952</ele>
        <time>2025-05-29T11:34:25Z</time>
      </trkpt>
      <trkpt lat="42.794035" lon="-0.402802">
        <ele>1690.360</ele>
        <time>2025-05-29T11:34:49Z</time>
      </trkpt>
      <trkpt lat="42.794544" lon="-0.403399">
        <ele>1693.788</ele>
        <time>2025-05-29T11:35:07Z</time>
      </trkpt>
      <trkpt lat="42.794686" lon="-0.404043">
        <ele>1695.857</ele>
        <time>2025-05-29T11:35:21Z</time>
      </trkpt>
      <trkpt lat="42.794542" lon="-0.405825">
        <ele>1699.096</ele>
        <time>2025-05-29T11:35:55Z</time>
      </trkpt>
      <trkpt lat="42.794737" lon="-0.406730">
        <ele>1700.065</ele>
        <time>2025-05-29T11:36:12Z</time>
      </trkpt>
      <trkpt lat="42.795998" lon="-0.410916">
        <ele>1714.568</ele>
        <time>2025-05-29T11:37:50Z</time>
      </trkpt>
      <trkpt lat="42.796761" lon="-0.412276">
        <ele>1717.014</ele>
        <time>2025-05-29T11:38:30Z</time>
      </trkpt>
      <trkpt lat="42.797171" lon="-0.412555">
        <ele>1721.809</ele>
        <time>2025-05-29T11:38:46Z</time>
      </trkpt>
      <trkpt lat="42.798370" lon="-0.412697">
        <ele>1735.658</ele>
        <time>2025-05-29T11:39:37Z</time>
      </trkpt>
      <trkpt lat="42.800933" lon="-0.413625">
        <ele>1756.617</ele>
        <time>2025-05-29T11:41:08Z</time>
      </trkpt>
      <trkpt lat="42.801387" lon="-0.414212">
        <ele>1764.552</ele>
        <time>2025-05-29T11:41:28Z</time>
      </trkpt>
      <trkpt lat="42.802215" lon="-0.416106">
        <ele>1763.031</ele>
        <time>2025-05-29T11:42:04Z</time>
      </trkpt>
      <trkpt lat="42.802864" lon="-0.416596">
        <ele>1767.136</ele>
        <time>2025-05-29T11:42:22Z</time>
      </trkpt>
      <trkpt lat="42.804386" lon="-0.418389">
        <ele>1787.184</ele>
        <time>2025-05-29T11:43:18Z</time>
      </trkpt>
      <trkpt lat="42.804950" lon="-0.418624">
        <ele>1791.412</ele>
        <time>2025-05-29T11:43:35Z</time>
      </trkpt>
      <trkpt lat="42.805936" lon="-0.418420">
        <ele>1792.461</ele>
        <time>2025-05-29T11:44:27Z</time>
      </trkpt>
    </trkseg>
  </trk></gpx>