<?xml version="1.0" encoding="UTF-8"?>
<gpx creator="Wikiloc - https://www.wikiloc.com" version="1.1" xmlns="http://www.topografix.com/GPX/1/1" xmlns:xsi="http://www.w3.org/2001/XMLSchema-instance" xsi:schemaLocation="http://www.topografix.com/GPX/1/1 http://www.topografix.com/GPX/1/1/gpx.xsd">
  <metadata>
    <name>Wikiloc - Puerto de Hazas Llanas 1.679m, Guejar Sierra (Granada) - Wik...</name>
    <link href="https://www.wikiloc.com/cycling-trails/puerto-de-hazas-llanas-1-679m-guejar-sierra-granada-57349579">
      <text>Puerto de Hazas Llanas 1.679m, Guejar Sierra (Granada) - Wik... on Wikiloc</text>
    </link>
    <time>2020-07-19T08:39:55Z</time>
  </metadata>
  <trk>
    <name>Puerto de Hazas Llanas 1.679m, Guejar Sierra (Granada) - Wik... - Wikiloc</name>
    <cmt></cmt>
    <desc></desc>
    <trkseg>
      <trkpt lat="37.154471" lon="-3.434490">
        <ele>971.153</ele>
        <time>2020-07-19T07:53:42Z</time>
      </trkpt>
      <trkpt lat="37.154396" lon="-3.434424">
        <ele>971.404</ele>
        <time>2020-07-19T07:54:02Z</time>
      </trkpt>
      <trkpt lat="37.154610" lon="-3.434421">
        <ele>971.314</ele>
        <time>2020-07-19T07:54:11Z</time>
      </trkpt>
      <trkpt lat="37.154154" lon="-3.434341">
        <ele>972.508</ele>
        <time>2020-07-19T07:54:27Z</time>
      </trkpt>
      <trkpt lat="37.154097" lon="-3.434811">
        <ele>976.690</ele>
        <time>2020-07-19T07:55:09Z</time>
      </trkpt>
      <trkpt lat="37.153745" lon="-3.435468">
        <ele>983.382</ele>
        <time>2020-07-19T07:55:38Z</time>
      </trkpt>
      <trkpt lat="37.153631" lon="-3.436126">
        <ele>986.148</ele>
        <time>2020-07-19T07:56:00Z</time>
      </trkpt>
      <trkpt lat="37.153506" lon="-3.436127">
        <ele>987.459</ele>
        <time>2020-07-19T07:56:06Z</time>
      </trkpt>
      <trkpt lat="37.153424" lon="-3.435886">
        <ele>990.144</ele>
        <time>2020-07-19T07:56:16Z</time>
      </trkpt>
      <trkpt lat="37.153601" lon="-3.435086">
        <ele>1001.470</ele>
        <time>2020-07-19T07:56:50Z</time>
      </trkpt>
      <trkpt lat="37.153508" lon="-3.434997">
        <ele>1003.532</ele>
        <time>2020-07-19T07:56:56Z</time>
      </trkpt>
      <trkpt lat="37.153275" lon="-3.435276">
        <ele>1007.414</ele>
        <time>2020-07-19T07:57:11Z</time>
      </trkpt>
      <trkpt lat="37.153186" lon="-3.435193">
        <ele>1009.077</ele>
        <time>2020-07-19T07:57:16Z</time>
      </trkpt>
      <trkpt lat="37.153201" lon="-3.434872">
        <ele>1012.861</ele>
        <time>2020-07-19T07:57:28Z</time>
      </trkpt>
      <trkpt lat="37.153436" lon="-3.434447">
        <ele>1019.527</ele>
        <time>2020-07-19T07:57:48Z</time>
      </trkpt>
      <trkpt lat="37.153401" lon="-3.434331">
        <ele>1021.208</ele>
        <time>2020-07-19T07:57:52Z</time>
      </trkpt>
      <trkpt lat="37.153309" lon="-3.434315">
        <ele>1022.832</ele>
        <time>2020-07-19T07:57:56Z</time>
      </trkpt>
      <trkpt lat="37.152980" lon="-3.434617">
        <ele>1027.534</ele>
        <time>2020-07-19T07:58:13Z</time>
      </trkpt>
      <trkpt lat="37.152230" lon="-3.436460">
        <ele>1051.710</ele>
        <time>2020-07-19T07:59:29Z</time>
      </trkpt>
      <trkpt lat="37.152103" lon="-3.436447">
        <ele>1053.781</ele>
        <time>2020-07-19T07:59:35Z</time>
      </trkpt>
      <trkpt lat="37.152054" lon="-3.435903">
        <ele>1060.236</ele>
        <time>2020-07-19T07:59:59Z</time>
      </trkpt>
      <trkpt lat="37.152232" lon="-3.435394">
        <ele>1068.472</ele>
        <time>2020-07-19T08:00:23Z</time>
      </trkpt>
      <trkpt lat="37.152060" lon="-3.435350">
        <ele>1071.654</ele>
        <time>2020-07-19T08:00:31Z</time>
      </trkpt>
      <trkpt lat="37.151935" lon="-3.435417">
        <ele>1073.776</ele>
        <time>2020-07-19T08:00:36Z</time>
      </trkpt>
      <trkpt lat="37.151483" lon="-3.436030">
        <ele>1083.019</ele>
        <time>2020-07-19T08:01:08Z</time>
      </trkpt>
      <trkpt lat="37.151412" lon="-3.436497">
        <ele>1088.609</ele>
        <time>2020-07-19T08:01:24Z</time>
      </trkpt>
      <trkpt lat="37.151106" lon="-3.437113">
        <ele>1094.919</ele>
        <time>2020-07-19T08:01:48Z</time>
      </trkpt>
      <trkpt lat="37.150989" lon="-3.437163">
        <ele>1096.408</ele>
        <time>2020-07-19T08:01:54Z</time>
      </trkpt>
      <trkpt lat="37.150913" lon="-3.437038">
        <ele>1098.086</ele>
        <time>2020-07-19T08:02:00Z</time>
      </trkpt>
      <trkpt lat="37.151180" lon="-3.436497">
        <ele>1103.818</ele>
        <time>2020-07-19T08:02:20Z</time>
      </trkpt>
      <trkpt lat="37.151101" lon="-3.436382">
        <ele>1106.114</ele>
        <time>2020-07-19T08:02:26Z</time>
      </trkpt>
      <trkpt lat="37.150764" lon="-3.436581">
        <ele>1111.665</ele>
        <time>2020-07-19T08:02:46Z</time>
      </trkpt>
      <trkpt lat="37.150545" lon="-3.436855">
        <ele>1116.120</ele>
        <time>2020-07-19T08:02:57Z</time>
      </trkpt>
      <trkpt lat="37.150431" lon="-3.436891">
        <ele>1118.096</ele>
        <time>2020-07-19T08:03:02Z</time>
      </trkpt>
      <trkpt lat="37.150614" lon="-3.435629">
        <ele>1127.688</ele>
        <time>2020-07-19T08:03:44Z</time>
      </trkpt>
      <trkpt lat="37.150805" lon="-3.435179">
        <ele>1128.570</ele>
        <time>2020-07-19T08:03:56Z</time>
      </trkpt>
      <trkpt lat="37.150711" lon="-3.433422">
        <ele>1123.137</ele>
        <time>2020-07-19T08:04:19Z</time>
      </trkpt>
      <trkpt lat="37.150429" lon="-3.432185">
        <ele>1122.249</ele>
        <time>2020-07-19T08:04:33Z</time>
      </trkpt>
      <trkpt lat="37.149994" lon="-3.431246">
        <ele>1133.513</ele>
        <time>2020-07-19T08:05:00Z</time>
      </trkpt>
      <trkpt lat="37.149049" lon="-3.429978">
        <ele>1157.208</ele>
        <time>2020-07-19T08:06:06Z</time>
      </trkpt>
      <trkpt lat="37.149017" lon="-3.429514">
        <ele>1163.578</ele>
        <time>2020-07-19T08:06:41Z</time>
      </trkpt>
      <trkpt lat="37.148926" lon="-3.429463">
        <ele>1165.240</ele>
        <time>2020-07-19T08:06:47Z</time>
      </trkpt>
      <trkpt lat="37.148874" lon="-3.429632">
        <ele>1167.436</ele>
        <time>2020-07-19T08:07:25Z</time>
      </trkpt>
      <trkpt lat="37.148960" lon="-3.430264">
        <ele>1173.697</ele>
        <time>2020-07-19T08:07:45Z</time>
      </trkpt>
      <trkpt lat="37.148821" lon="-3.430999">
        <ele>1180.342</ele>
        <time>2020-07-19T08:08:09Z</time>
      </trkpt>
      <trkpt lat="37.148882" lon="-3.431690">
        <ele>1186.228</ele>
        <time>2020-07-19T08:08:31Z</time>
      </trkpt>
      <trkpt lat="37.148784" lon="-3.432627">
        <ele>1192.150</ele>
        <time>2020-07-19T08:08:59Z</time>
      </trkpt>
      <trkpt lat="37.148698" lon="-3.432807">
        <ele>1193.882</ele>
        <time>2020-07-19T08:09:05Z</time>
      </trkpt>
      <trkpt lat="37.148447" lon="-3.432944">
        <ele>1198.037</ele>
        <time>2020-07-19T08:09:15Z</time>
      </trkpt>
      <trkpt lat="37.148347" lon="-3.432861">
        <ele>1200.349</ele>
        <time>2020-07-19T08:09:21Z</time>
      </trkpt>
      <trkpt lat="37.148300" lon="-3.432594">
        <ele>1204.413</ele>
        <time>2020-07-19T08:09:31Z</time>
      </trkpt>
      <trkpt lat="37.147998" lon="-3.432110">
        <ele>1212.608</ele>
        <time>2020-07-19T08:09:57Z</time>
      </trkpt>
      <trkpt lat="37.147790" lon="-3.431560">
        <ele>1220.658</ele>
        <time>2020-07-19T08:10:23Z</time>
      </trkpt>
      <trkpt lat="37.147639" lon="-3.430706">
        <ele>1232.150</ele>
        <time>2020-07-19T08:11:01Z</time>
      </trkpt>
      <trkpt lat="37.147623" lon="-3.430089">
        <ele>1238.996</ele>
        <time>2020-07-19T08:11:25Z</time>
      </trkpt>
      <trkpt lat="37.147353" lon="-3.429010">
        <ele>1250.817</ele>
        <time>2020-07-19T08:12:07Z</time>
      </trkpt>
      <trkpt lat="37.147234" lon="-3.428947">
        <ele>1253.252</ele>
        <time>2020-07-19T08:12:13Z</time>
      </trkpt>
      <trkpt lat="37.147150" lon="-3.428995">
        <ele>1254.958</ele>
        <time>2020-07-19T08:12:17Z</time>
      </trkpt>
      <trkpt lat="37.146963" lon="-3.429520">
        <ele>1263.190</ele>
        <time>2020-07-19T08:12:37Z</time>
      </trkpt>
      <trkpt lat="37.146370" lon="-3.430155">
        <ele>1276.562</ele>
        <time>2020-07-19T08:13:15Z</time>
      </trkpt>
      <trkpt lat="37.146145" lon="-3.430249">
        <ele>1280.588</ele>
        <time>2020-07-19T08:13:27Z</time>
      </trkpt>
      <trkpt lat="37.146050" lon="-3.430137">
        <ele>1282.624</ele>
        <time>2020-07-19T08:13:33Z</time>
      </trkpt>
      <trkpt lat="37.146050" lon="-3.429928">
        <ele>1285.126</ele>
        <time>2020-07-19T08:13:41Z</time>
      </trkpt>
      <trkpt lat="37.146225" lon="-3.429415">
        <ele>1292.408</ele>
        <time>2020-07-19T08:14:03Z</time>
      </trkpt>
      <trkpt lat="37.146180" lon="-3.429273">
        <ele>1294.293</ele>
        <time>2020-07-19T08:14:09Z</time>
      </trkpt>
      <trkpt lat="37.146097" lon="-3.429239">
        <ele>1295.435</ele>
        <time>2020-07-19T08:14:13Z</time>
      </trkpt>
      <trkpt lat="37.145932" lon="-3.429332">
        <ele>1297.861</ele>
        <time>2020-07-19T08:14:21Z</time>
      </trkpt>
      <trkpt lat="37.145749" lon="-3.429564">
        <ele>1301.292</ele>
        <time>2020-07-19T08:14:33Z</time>
      </trkpt>
      <trkpt lat="37.145531" lon="-3.430138">
        <ele>1309.027</ele>
        <time>2020-07-19T08:14:57Z</time>
      </trkpt>
      <trkpt lat="37.145410" lon="-3.430112">
        <ele>1310.883</ele>
        <time>2020-07-19T08:15:03Z</time>
      </trkpt>
      <trkpt lat="37.145220" lon="-3.429216">
        <ele>1321.145</ele>
        <time>2020-07-19T08:15:39Z</time>
      </trkpt>
      <trkpt lat="37.144652" lon="-3.428211">
        <ele>1332.197</ele>
        <time>2020-07-19T08:16:25Z</time>
      </trkpt>
      <trkpt lat="37.144403" lon="-3.428063">
        <ele>1335.182</ele>
        <time>2020-07-19T08:16:37Z</time>
      </trkpt>
      <trkpt lat="37.144340" lon="-3.427935">
        <ele>1336.643</ele>
        <time>2020-07-19T08:16:43Z</time>
      </trkpt>
      <trkpt lat="37.144215" lon="-3.427915">
        <ele>1338.417</ele>
        <time>2020-07-19T08:16:49Z</time>
      </trkpt>
      <trkpt lat="37.143996" lon="-3.427655">
        <ele>1342.708</ele>
        <time>2020-07-19T08:17:03Z</time>
      </trkpt>
      <trkpt lat="37.143747" lon="-3.427610">
        <ele>1346.133</ele>
        <time>2020-07-19T08:17:13Z</time>
      </trkpt>
      <trkpt lat="37.142993" lon="-3.427076">
        <ele>1359.025</ele>
        <time>2020-07-19T08:17:55Z</time>
      </trkpt>
      <trkpt lat="37.142825" lon="-3.426595">
        <ele>1366.361</ele>
        <time>2020-07-19T08:18:19Z</time>
      </trkpt>
      <trkpt lat="37.142817" lon="-3.426185">
        <ele>1371.332</ele>
        <time>2020-07-19T08:18:37Z</time>
      </trkpt>
      <trkpt lat="37.142658" lon="-3.425693">
        <ele>1376.757</ele>
        <time>2020-07-19T08:19:02Z</time>
      </trkpt>
      <trkpt lat="37.141791" lon="-3.424831">
        <ele>1389.683</ele>
        <time>2020-07-19T08:19:52Z</time>
      </trkpt>
      <trkpt lat="37.141740" lon="-3.424214">
        <ele>1395.585</ele>
        <time>2020-07-19T08:20:13Z</time>
      </trkpt>
      <trkpt lat="37.141845" lon="-3.423335">
        <ele>1404.367</ele>
        <time>2020-07-19T08:20:39Z</time>
      </trkpt>
      <trkpt lat="37.141727" lon="-3.422744">
        <ele>1410.874</ele>
        <time>2020-07-19T08:21:03Z</time>
      </trkpt>
      <trkpt lat="37.140819" lon="-3.421691">
        <ele>1426.456</ele>
        <time>2020-07-19T08:22:00Z</time>
      </trkpt>
      <trkpt lat="37.140747" lon="-3.421688">
        <ele>1427.321</ele>
        <time>2020-07-19T08:22:04Z</time>
      </trkpt>
      <trkpt lat="37.140483" lon="-3.422102">
        <ele>1431.708</ele>
        <time>2020-07-19T08:22:17Z</time>
      </trkpt>
      <trkpt lat="37.140447" lon="-3.422279">
        <ele>1433.182</ele>
        <time>2020-07-19T08:22:23Z</time>
      </trkpt>
      <trkpt lat="37.140487" lon="-3.423644">
        <ele>1443.584</ele>
        <time>2020-07-19T08:23:03Z</time>
      </trkpt>
      <trkpt lat="37.140394" lon="-3.423727">
        <ele>1444.760</ele>
        <time>2020-07-19T08:23:07Z</time>
      </trkpt>
      <trkpt lat="37.140255" lon="-3.423673">
        <ele>1445.991</ele>
        <time>2020-07-19T08:23:12Z</time>
      </trkpt>
      <trkpt lat="37.140120" lon="-3.423410">
        <ele>1448.176</ele>
        <time>2020-07-19T08:23:20Z</time>
      </trkpt>
      <trkpt lat="37.140154" lon="-3.422517">
        <ele>1453.322</ele>
        <time>2020-07-19T08:23:47Z</time>
      </trkpt>
      <trkpt lat="37.140038" lon="-3.422145">
        <ele>1456.954</ele>
        <time>2020-07-19T08:24:00Z</time>
      </trkpt>
      <trkpt lat="37.139976" lon="-3.421222">
        <ele>1465.156</ele>
        <time>2020-07-19T08:24:34Z</time>
      </trkpt>
      <trkpt lat="37.139867" lon="-3.420879">
        <ele>1468.665</ele>
        <time>2020-07-19T08:24:48Z</time>
      </trkpt>
      <trkpt lat="37.139476" lon="-3.420389">
        <ele>1475.268</ele>
        <time>2020-07-19T08:25:11Z</time>
      </trkpt>
      <trkpt lat="37.139138" lon="-3.420132">
        <ele>1479.514</ele>
        <time>2020-07-19T08:25:29Z</time>
      </trkpt>
      <trkpt lat="37.138985" lon="-3.419795">
        <ele>1483.408</ele>
        <time>2020-07-19T08:26:05Z</time>
      </trkpt>
      <trkpt lat="37.138772" lon="-3.419733">
        <ele>1485.811</ele>
        <time>2020-07-19T08:26:14Z</time>
      </trkpt>
      <trkpt lat="37.138425" lon="-3.419857">
        <ele>1489.613</ele>
        <time>2020-07-19T08:26:29Z</time>
      </trkpt>
      <trkpt lat="37.138233" lon="-3.419746">
        <ele>1491.659</ele>
        <time>2020-07-19T08:26:37Z</time>
      </trkpt>
      <trkpt lat="37.138114" lon="-3.419497">
        <ele>1493.720</ele>
        <time>2020-07-19T08:26:45Z</time>
      </trkpt>
      <trkpt lat="37.137986" lon="-3.418690">
        <ele>1499.935</ele>
        <time>2020-07-19T08:27:10Z</time>
      </trkpt>
      <trkpt lat="37.137479" lon="-3.418226">
        <ele>1505.431</ele>
        <time>2020-07-19T08:27:33Z</time>
      </trkpt>
      <trkpt lat="37.137284" lon="-3.417785">
        <ele>1509.063</ele>
        <time>2020-07-19T08:27:48Z</time>
      </trkpt>
      <trkpt lat="37.137103" lon="-3.417572">
        <ele>1512.045</ele>
        <time>2020-07-19T08:28:15Z</time>
      </trkpt>
      <trkpt lat="37.137092" lon="-3.417959">
        <ele>1514.684</ele>
        <time>2020-07-19T08:28:32Z</time>
      </trkpt>
      <trkpt lat="37.136777" lon="-3.418441">
        <ele>1516.307</ele>
        <time>2020-07-19T08:28:46Z</time>
      </trkpt>
      <trkpt lat="37.136727" lon="-3.418654">
        <ele>1516.617</ele>
        <time>2020-07-19T08:28:51Z</time>
      </trkpt>
      <trkpt lat="37.136839" lon="-3.418926">
        <ele>1517.608</ele>
        <time>2020-07-19T08:28:57Z</time>
      </trkpt>
      <trkpt lat="37.137197" lon="-3.419311">
        <ele>1521.093</ele>
        <time>2020-07-19T08:29:09Z</time>
      </trkpt>
      <trkpt lat="37.137157" lon="-3.419586">
        <ele>1522.925</ele>
        <time>2020-07-19T08:29:15Z</time>
      </trkpt>
      <trkpt lat="37.136952" lon="-3.419795">
        <ele>1525.211</ele>
        <time>2020-07-19T08:29:24Z</time>
      </trkpt>
      <trkpt lat="37.136892" lon="-3.420186">
        <ele>1527.292</ele>
        <time>2020-07-19T08:29:33Z</time>
      </trkpt>
      <trkpt lat="37.136988" lon="-3.420368">
        <ele>1528.477</ele>
        <time>2020-07-19T08:29:40Z</time>
      </trkpt>
      <trkpt lat="37.137225" lon="-3.420575">
        <ele>1530.443</ele>
        <time>2020-07-19T08:29:53Z</time>
      </trkpt>
      <trkpt lat="37.137425" lon="-3.420994">
        <ele>1532.995</ele>
        <time>2020-07-19T08:30:04Z</time>
      </trkpt>
      <trkpt lat="37.137315" lon="-3.421762">
        <ele>1537.367</ele>
        <time>2020-07-19T08:30:22Z</time>
      </trkpt>
      <trkpt lat="37.137601" lon="-3.422590">
        <ele>1542.994</ele>
        <time>2020-07-19T08:30:40Z</time>
      </trkpt>
      <trkpt lat="37.137612" lon="-3.422992">
        <ele>1545.157</ele>
        <time>2020-07-19T08:30:49Z</time>
      </trkpt>
      <trkpt lat="37.137786" lon="-3.423207">
        <ele>1546.822</ele>
        <time>2020-07-19T08:30:55Z</time>
      </trkpt>
      <trkpt lat="37.137860" lon="-3.423430">
        <ele>1548.208</ele>
        <time>2020-07-19T08:31:00Z</time>
      </trkpt>
      <trkpt lat="37.137698" lon="-3.424212">
        <ele>1552.944</ele>
        <time>2020-07-19T08:31:17Z</time>
      </trkpt>
      <trkpt lat="37.137677" lon="-3.425223">
        <ele>1558.966</ele>
        <time>2020-07-19T08:31:39Z</time>
      </trkpt>
      <trkpt lat="37.137553" lon="-3.425650">
        <ele>1561.742</ele>
        <time>2020-07-19T08:31:49Z</time>
      </trkpt>
      <trkpt lat="37.137812" lon="-3.426733">
        <ele>1568.893</ele>
        <time>2020-07-19T08:32:14Z</time>
      </trkpt>
      <trkpt lat="37.137785" lon="-3.427681">
        <ele>1574.168</ele>
        <time>2020-07-19T08:32:33Z</time>
      </trkpt>
      <trkpt lat="37.138034" lon="-3.428099">
        <ele>1577.164</ele>
        <time>2020-07-19T08:32:44Z</time>
      </trkpt>
      <trkpt lat="37.138355" lon="-3.428441">
        <ele>1579.896</ele>
        <time>2020-07-19T08:32:55Z</time>
      </trkpt>
      <trkpt lat="37.138629" lon="-3.429313">
        <ele>1584.968</ele>
        <time>2020-07-19T08:33:16Z</time>
      </trkpt>
      <trkpt lat="37.138531" lon="-3.429503">
        <ele>1586.189</ele>
        <time>2020-07-19T08:33:21Z</time>
      </trkpt>
      <trkpt lat="37.138389" lon="-3.429589">
        <ele>1587.306</ele>
        <time>2020-07-19T08:33:25Z</time>
      </trkpt>
      <trkpt lat="37.137847" lon="-3.429570">
        <ele>1591.726</ele>
        <time>2020-07-19T08:33:40Z</time>
      </trkpt>
      <trkpt lat="37.137702" lon="-3.429389">
        <ele>1593.608</ele>
        <time>2020-07-19T08:33:46Z</time>
      </trkpt>
      <trkpt lat="37.137616" lon="-3.428782">
        <ele>1597.563</ele>
        <time>2020-07-19T08:34:00Z</time>
      </trkpt>
      <trkpt lat="37.137482" lon="-3.428629">
        <ele>1599.085</ele>
        <time>2020-07-19T08:34:05Z</time>
      </trkpt>
      <trkpt lat="37.137320" lon="-3.428615">
        <ele>1600.421</ele>
        <time>2020-07-19T08:34:10Z</time>
      </trkpt>
      <trkpt lat="37.137105" lon="-3.428826">
        <ele>1602.972</ele>
        <time>2020-07-19T08:34:21Z</time>
      </trkpt>
      <trkpt lat="37.137096" lon="-3.429692">
        <ele>1608.267</ele>
        <time>2020-07-19T08:34:41Z</time>
      </trkpt>
      <trkpt lat="37.136949" lon="-3.429874">
        <ele>1609.873</ele>
        <time>2020-07-19T08:34:47Z</time>
      </trkpt>
      <trkpt lat="37.136778" lon="-3.429889">
        <ele>1611.275</ele>
        <time>2020-07-19T08:34:52Z</time>
      </trkpt>
      <trkpt lat="37.136598" lon="-3.429737">
        <ele>1613.157</ele>
        <time>2020-07-19T08:34:58Z</time>
      </trkpt>
      <trkpt lat="37.136537" lon="-3.429545">
        <ele>1614.597</ele>
        <time>2020-07-19T08:35:03Z</time>
      </trkpt>
      <trkpt lat="37.136833" lon="-3.428827">
        <ele>1619.623</ele>
        <time>2020-07-19T08:35:22Z</time>
      </trkpt>
      <trkpt lat="37.136845" lon="-3.428718">
        <ele>1620.325</ele>
        <time>2020-07-19T08:35:25Z</time>
      </trkpt>
      <trkpt lat="37.136758" lon="-3.428679">
        <ele>1621.008</ele>
        <time>2020-07-19T08:35:29Z</time>
      </trkpt>
      <trkpt lat="37.136624" lon="-3.429125">
        <ele>1623.854</ele>
        <time>2020-07-19T08:35:39Z</time>
      </trkpt>
      <trkpt lat="37.136368" lon="-3.429430">
        <ele>1626.586</ele>
        <time>2020-07-19T08:36:10Z</time>
      </trkpt>
      <trkpt lat="37.136145" lon="-3.430170">
        <ele>1631.692</ele>
        <time>2020-07-19T08:36:27Z</time>
      </trkpt>
      <trkpt lat="37.135738" lon="-3.430771">
        <ele>1636.313</ele>
        <time>2020-07-19T08:36:44Z</time>
      </trkpt>
      <trkpt lat="37.135371" lon="-3.430996">
        <ele>1639.828</ele>
        <time>2020-07-19T08:36:55Z</time>
      </trkpt>
      <trkpt lat="37.135126" lon="-3.431410">
        <ele>1643.354</ele>
        <time>2020-07-19T08:37:07Z</time>
      </trkpt>
      <trkpt lat="37.134757" lon="-3.431560">
        <ele>1646.596</ele>
        <time>2020-07-19T08:37:19Z</time>
      </trkpt>
      <trkpt lat="37.134433" lon="-3.431843">
        <ele>1650.088</ele>
        <time>2020-07-19T08:37:31Z</time>
      </trkpt>
      <trkpt lat="37.133996" lon="-3.432579">
        <ele>1656.416</ele>
        <time>2020-07-19T08:37:56Z</time>
      </trkpt>
      <trkpt lat="37.133642" lon="-3.432754">
        <ele>1659.376</ele>
        <time>2020-07-19T08:38:10Z</time>
      </trkpt>
      <trkpt lat="37.133210" lon="-3.433101">
        <ele>1663.013</ele>
        <time>2020-07-19T08:39:55Z</time>
      </trkpt>
    </trkseg>
  </trk></gpx>