<?xml version="1.0" encoding="UTF-8"?><gpx creator="https://climbfinder.com" version="1.1"  xmlns:xsi="http://www.w3.org/2001/XMLSchema-instance"  xmlns="http://www.topografix.com/GPX/1/1" xsi:schemaLocation="http://www.topografix.com/GPX/1/1 http://www.topografix.com/GPX/1/1/gpx.xsd">
  <metadata>
    <name>puerto-de-locubin-desde-castillo-de-locubin</name>
    <author>
      <link href="https://climbfinder.com">
        <text>climbfinder</text>
        <type>text/html</type>
      </link>
    </author>
  </metadata>
  <trk>
    <name>puerto-de-locubin-desde-castillo-de-locubin</name>
    <trkseg>
			<trkpt lat="37.53786" lon="-3.93433">
        <ele>652.5</ele>
        <time>2026-08-04T09:00:00Z</time>
      </trkpt>
			<trkpt lat="37.53813" lon="-3.934">
        <ele>653.5</ele>
        <time>2026-08-04T09:00:07Z</time>
      </trkpt>
			<trkpt lat="37.53825" lon="-3.93387">
        <ele>654</ele>
        <time>2026-08-04T09:00:10Z</time>
      </trkpt>
			<trkpt lat="37.53845" lon="-3.93372">
        <ele>654.7</ele>
        <time>2026-08-04T09:00:15Z</time>
      </trkpt>
			<trkpt lat="37.53865" lon="-3.93357">
        <ele>655.4</ele>
        <time>2026-08-04T09:00:21Z</time>
      </trkpt>
			<trkpt lat="37.53895" lon="-3.93319">
        <ele>656.7</ele>
        <time>2026-08-04T09:00:30Z</time>
      </trkpt>
			<trkpt lat="37.53924" lon="-3.93281">
        <ele>658</ele>
        <time>2026-08-04T09:00:39Z</time>
      </trkpt>
			<trkpt lat="37.53946" lon="-3.93258">
        <ele>658.9</ele>
        <time>2026-08-04T09:00:46Z</time>
      </trkpt>
			<trkpt lat="37.53971" lon="-3.93232">
        <ele>659.9</ele>
        <time>2026-08-04T09:00:53Z</time>
      </trkpt>
			<trkpt lat="37.5399" lon="-3.93209">
        <ele>660.8</ele>
        <time>2026-08-04T09:00:59Z</time>
      </trkpt>
			<trkpt lat="37.54008" lon="-3.93186">
        <ele>661.6</ele>
        <time>2026-08-04T09:01:04Z</time>
      </trkpt>
			<trkpt lat="37.54028" lon="-3.93165">
        <ele>662.6</ele>
        <time>2026-08-04T09:01:10Z</time>
      </trkpt>
			<trkpt lat="37.54048" lon="-3.93144">
        <ele>663.7</ele>
        <time>2026-08-04T09:01:17Z</time>
      </trkpt>
			<trkpt lat="37.54068" lon="-3.93122">
        <ele>664.9</ele>
        <time>2026-08-04T09:01:23Z</time>
      </trkpt>
			<trkpt lat="37.54097" lon="-3.9308">
        <ele>667.3</ele>
        <time>2026-08-04T09:01:36Z</time>
      </trkpt>
			<trkpt lat="37.54119" lon="-3.93055">
        <ele>669.2</ele>
        <time>2026-08-04T09:01:45Z</time>
      </trkpt>
			<trkpt lat="37.54137" lon="-3.93034">
        <ele>671</ele>
        <time>2026-08-04T09:01:53Z</time>
      </trkpt>
			<trkpt lat="37.54154" lon="-3.93013">
        <ele>672.8</ele>
        <time>2026-08-04T09:02:01Z</time>
      </trkpt>
			<trkpt lat="37.54174" lon="-3.92994">
        <ele>674.8</ele>
        <time>2026-08-04T09:02:10Z</time>
      </trkpt>
			<trkpt lat="37.54204" lon="-3.9297">
        <ele>677.9</ele>
        <time>2026-08-04T09:02:24Z</time>
      </trkpt>
			<trkpt lat="37.54233" lon="-3.92946">
        <ele>681</ele>
        <time>2026-08-04T09:02:38Z</time>
      </trkpt>
			<trkpt lat="37.54262" lon="-3.92922">
        <ele>684</ele>
        <time>2026-08-04T09:02:52Z</time>
      </trkpt>
			<trkpt lat="37.54286" lon="-3.92889">
        <ele>687</ele>
        <time>2026-08-04T09:03:06Z</time>
      </trkpt>
			<trkpt lat="37.54302" lon="-3.92871">
        <ele>688.6</ele>
        <time>2026-08-04T09:03:13Z</time>
      </trkpt>
			<trkpt lat="37.54336" lon="-3.92842">
        <ele>691.6</ele>
        <time>2026-08-04T09:03:27Z</time>
      </trkpt>
			<trkpt lat="37.54345" lon="-3.92828">
        <ele>692.6</ele>
        <time>2026-08-04T09:03:31Z</time>
      </trkpt>
			<trkpt lat="37.54352" lon="-3.9281">
        <ele>693.6</ele>
        <time>2026-08-04T09:03:36Z</time>
      </trkpt>
			<trkpt lat="37.54361" lon="-3.92785">
        <ele>694.9</ele>
        <time>2026-08-04T09:03:42Z</time>
      </trkpt>
			<trkpt lat="37.54374" lon="-3.92765">
        <ele>696.2</ele>
        <time>2026-08-04T09:03:48Z</time>
      </trkpt>
			<trkpt lat="37.54389" lon="-3.92754">
        <ele>697.2</ele>
        <time>2026-08-04T09:03:53Z</time>
      </trkpt>
			<trkpt lat="37.54413" lon="-3.9274">
        <ele>698.6</ele>
        <time>2026-08-04T09:04:01Z</time>
      </trkpt>
			<trkpt lat="37.54436" lon="-3.92723">
        <ele>700.1</ele>
        <time>2026-08-04T09:04:09Z</time>
      </trkpt>
			<trkpt lat="37.54467" lon="-3.92702">
        <ele>702</ele>
        <time>2026-08-04T09:04:19Z</time>
      </trkpt>
			<trkpt lat="37.54479" lon="-3.92688">
        <ele>702.9</ele>
        <time>2026-08-04T09:04:23Z</time>
      </trkpt>
			<trkpt lat="37.54489" lon="-3.92672">
        <ele>703.8</ele>
        <time>2026-08-04T09:04:28Z</time>
      </trkpt>
			<trkpt lat="37.54494" lon="-3.9266">
        <ele>704.4</ele>
        <time>2026-08-04T09:04:31Z</time>
      </trkpt>
			<trkpt lat="37.54497" lon="-3.92631">
        <ele>705.7</ele>
        <time>2026-08-04T09:04:38Z</time>
      </trkpt>
			<trkpt lat="37.545" lon="-3.92621">
        <ele>706.2</ele>
        <time>2026-08-04T09:04:40Z</time>
      </trkpt>
			<trkpt lat="37.54503" lon="-3.92612">
        <ele>706.6</ele>
        <time>2026-08-04T09:04:42Z</time>
      </trkpt>
			<trkpt lat="37.54517" lon="-3.92592">
        <ele>707.9</ele>
        <time>2026-08-04T09:04:49Z</time>
      </trkpt>
			<trkpt lat="37.5452" lon="-3.92584">
        <ele>708.3</ele>
        <time>2026-08-04T09:04:51Z</time>
      </trkpt>
			<trkpt lat="37.54522" lon="-3.92575">
        <ele>708.7</ele>
        <time>2026-08-04T09:04:53Z</time>
      </trkpt>
			<trkpt lat="37.54519" lon="-3.92548">
        <ele>710.1</ele>
        <time>2026-08-04T09:05:00Z</time>
      </trkpt>
			<trkpt lat="37.5452" lon="-3.92533">
        <ele>710.8</ele>
        <time>2026-08-04T09:05:03Z</time>
      </trkpt>
			<trkpt lat="37.54523" lon="-3.92517">
        <ele>711.6</ele>
        <time>2026-08-04T09:05:07Z</time>
      </trkpt>
			<trkpt lat="37.54534" lon="-3.9248">
        <ele>713.6</ele>
        <time>2026-08-04T09:05:17Z</time>
      </trkpt>
			<trkpt lat="37.54539" lon="-3.92469">
        <ele>714.2</ele>
        <time>2026-08-04T09:05:20Z</time>
      </trkpt>
			<trkpt lat="37.54545" lon="-3.9246">
        <ele>714.9</ele>
        <time>2026-08-04T09:05:23Z</time>
      </trkpt>
			<trkpt lat="37.54553" lon="-3.92453">
        <ele>715.5</ele>
        <time>2026-08-04T09:05:26Z</time>
      </trkpt>
			<trkpt lat="37.54561" lon="-3.92449">
        <ele>716</ele>
        <time>2026-08-04T09:05:28Z</time>
      </trkpt>
			<trkpt lat="37.5457" lon="-3.92447">
        <ele>716.6</ele>
        <time>2026-08-04T09:05:31Z</time>
      </trkpt>
			<trkpt lat="37.5458" lon="-3.92449">
        <ele>717.3</ele>
        <time>2026-08-04T09:05:34Z</time>
      </trkpt>
			<trkpt lat="37.54593" lon="-3.92453">
        <ele>718.1</ele>
        <time>2026-08-04T09:05:38Z</time>
      </trkpt>
			<trkpt lat="37.54611" lon="-3.92461">
        <ele>719.4</ele>
        <time>2026-08-04T09:05:44Z</time>
      </trkpt>
			<trkpt lat="37.54628" lon="-3.92466">
        <ele>720.5</ele>
        <time>2026-08-04T09:05:49Z</time>
      </trkpt>
			<trkpt lat="37.5464" lon="-3.92465">
        <ele>721.2</ele>
        <time>2026-08-04T09:05:53Z</time>
      </trkpt>
			<trkpt lat="37.54653" lon="-3.9246">
        <ele>722.1</ele>
        <time>2026-08-04T09:05:57Z</time>
      </trkpt>
			<trkpt lat="37.54662" lon="-3.92453">
        <ele>722.7</ele>
        <time>2026-08-04T09:06:00Z</time>
      </trkpt>
			<trkpt lat="37.54672" lon="-3.92442">
        <ele>723.5</ele>
        <time>2026-08-04T09:06:04Z</time>
      </trkpt>
			<trkpt lat="37.54699" lon="-3.92403">
        <ele>725.8</ele>
        <time>2026-08-04T09:06:15Z</time>
      </trkpt>
			<trkpt lat="37.54715" lon="-3.92377">
        <ele>727.3</ele>
        <time>2026-08-04T09:06:23Z</time>
      </trkpt>
			<trkpt lat="37.54721" lon="-3.92365">
        <ele>727.9</ele>
        <time>2026-08-04T09:06:26Z</time>
      </trkpt>
			<trkpt lat="37.54724" lon="-3.92352">
        <ele>728.5</ele>
        <time>2026-08-04T09:06:29Z</time>
      </trkpt>
			<trkpt lat="37.54725" lon="-3.92341">
        <ele>729</ele>
        <time>2026-08-04T09:06:32Z</time>
      </trkpt>
			<trkpt lat="37.54723" lon="-3.92332">
        <ele>729.4</ele>
        <time>2026-08-04T09:06:34Z</time>
      </trkpt>
			<trkpt lat="37.54719" lon="-3.92321">
        <ele>730</ele>
        <time>2026-08-04T09:06:37Z</time>
      </trkpt>
			<trkpt lat="37.54711" lon="-3.92305">
        <ele>730.9</ele>
        <time>2026-08-04T09:06:41Z</time>
      </trkpt>
			<trkpt lat="37.54708" lon="-3.92295">
        <ele>731.4</ele>
        <time>2026-08-04T09:06:43Z</time>
      </trkpt>
			<trkpt lat="37.54705" lon="-3.92283">
        <ele>732.1</ele>
        <time>2026-08-04T09:06:46Z</time>
      </trkpt>
			<trkpt lat="37.54704" lon="-3.92273">
        <ele>732.6</ele>
        <time>2026-08-04T09:06:49Z</time>
      </trkpt>
			<trkpt lat="37.54705" lon="-3.92263">
        <ele>733.1</ele>
        <time>2026-08-04T09:06:51Z</time>
      </trkpt>
			<trkpt lat="37.54709" lon="-3.9225">
        <ele>733.9</ele>
        <time>2026-08-04T09:06:55Z</time>
      </trkpt>
			<trkpt lat="37.54728" lon="-3.92212">
        <ele>736.5</ele>
        <time>2026-08-04T09:07:07Z</time>
      </trkpt>
			<trkpt lat="37.54734" lon="-3.92202">
        <ele>737.3</ele>
        <time>2026-08-04T09:07:10Z</time>
      </trkpt>
			<trkpt lat="37.54742" lon="-3.92194">
        <ele>738.1</ele>
        <time>2026-08-04T09:07:14Z</time>
      </trkpt>
			<trkpt lat="37.54751" lon="-3.92188">
        <ele>738.9</ele>
        <time>2026-08-04T09:07:17Z</time>
      </trkpt>
			<trkpt lat="37.5477" lon="-3.92178">
        <ele>740.6</ele>
        <time>2026-08-04T09:07:24Z</time>
      </trkpt>
			<trkpt lat="37.54813" lon="-3.92163">
        <ele>744.3</ele>
        <time>2026-08-04T09:07:39Z</time>
      </trkpt>
			<trkpt lat="37.54829" lon="-3.92153">
        <ele>745.7</ele>
        <time>2026-08-04T09:07:45Z</time>
      </trkpt>
			<trkpt lat="37.54856" lon="-3.92128">
        <ele>748.2</ele>
        <time>2026-08-04T09:07:56Z</time>
      </trkpt>
			<trkpt lat="37.5487" lon="-3.92117">
        <ele>749.3</ele>
        <time>2026-08-04T09:08:01Z</time>
      </trkpt>
			<trkpt lat="37.54888" lon="-3.92104">
        <ele>750.5</ele>
        <time>2026-08-04T09:08:07Z</time>
      </trkpt>
			<trkpt lat="37.54894" lon="-3.92094">
        <ele>751.1</ele>
        <time>2026-08-04T09:08:10Z</time>
      </trkpt>
			<trkpt lat="37.54898" lon="-3.92082">
        <ele>751.6</ele>
        <time>2026-08-04T09:08:12Z</time>
      </trkpt>
			<trkpt lat="37.54899" lon="-3.92072">
        <ele>752</ele>
        <time>2026-08-04T09:08:15Z</time>
      </trkpt>
			<trkpt lat="37.54897" lon="-3.92063">
        <ele>752.4</ele>
        <time>2026-08-04T09:08:17Z</time>
      </trkpt>
			<trkpt lat="37.54892" lon="-3.92056">
        <ele>752.7</ele>
        <time>2026-08-04T09:08:19Z</time>
      </trkpt>
			<trkpt lat="37.54885" lon="-3.92052">
        <ele>753</ele>
        <time>2026-08-04T09:08:20Z</time>
      </trkpt>
			<trkpt lat="37.54876" lon="-3.9205">
        <ele>753.3</ele>
        <time>2026-08-04T09:08:23Z</time>
      </trkpt>
			<trkpt lat="37.5484" lon="-3.9205">
        <ele>754.6</ele>
        <time>2026-08-04T09:08:31Z</time>
      </trkpt>
			<trkpt lat="37.54804" lon="-3.9205">
        <ele>755.7</ele>
        <time>2026-08-04T09:08:39Z</time>
      </trkpt>
			<trkpt lat="37.54768" lon="-3.9205">
        <ele>757</ele>
        <time>2026-08-04T09:08:47Z</time>
      </trkpt>
			<trkpt lat="37.5475" lon="-3.92049">
        <ele>757.7</ele>
        <time>2026-08-04T09:08:51Z</time>
      </trkpt>
			<trkpt lat="37.54742" lon="-3.92045">
        <ele>758.1</ele>
        <time>2026-08-04T09:08:53Z</time>
      </trkpt>
			<trkpt lat="37.54735" lon="-3.9204">
        <ele>758.5</ele>
        <time>2026-08-04T09:08:55Z</time>
      </trkpt>
			<trkpt lat="37.5473" lon="-3.92031">
        <ele>758.9</ele>
        <time>2026-08-04T09:08:57Z</time>
      </trkpt>
			<trkpt lat="37.54727" lon="-3.92022">
        <ele>759.3</ele>
        <time>2026-08-04T09:08:59Z</time>
      </trkpt>
			<trkpt lat="37.54727" lon="-3.9201">
        <ele>759.9</ele>
        <time>2026-08-04T09:09:02Z</time>
      </trkpt>
			<trkpt lat="37.54729" lon="-3.91995">
        <ele>760.6</ele>
        <time>2026-08-04T09:09:05Z</time>
      </trkpt>
			<trkpt lat="37.54733" lon="-3.91982">
        <ele>761.3</ele>
        <time>2026-08-04T09:09:09Z</time>
      </trkpt>
			<trkpt lat="37.5474" lon="-3.91968">
        <ele>762.2</ele>
        <time>2026-08-04T09:09:13Z</time>
      </trkpt>
			<trkpt lat="37.5475" lon="-3.91954">
        <ele>763.3</ele>
        <time>2026-08-04T09:09:18Z</time>
      </trkpt>
			<trkpt lat="37.5476" lon="-3.91942">
        <ele>764.4</ele>
        <time>2026-08-04T09:09:23Z</time>
      </trkpt>
			<trkpt lat="37.54788" lon="-3.91919">
        <ele>767.3</ele>
        <time>2026-08-04T09:09:36Z</time>
      </trkpt>
			<trkpt lat="37.548" lon="-3.91904">
        <ele>768.8</ele>
        <time>2026-08-04T09:09:43Z</time>
      </trkpt>
			<trkpt lat="37.54815" lon="-3.91881">
        <ele>770.8</ele>
        <time>2026-08-04T09:09:52Z</time>
      </trkpt>
			<trkpt lat="37.54842" lon="-3.91852">
        <ele>773.8</ele>
        <time>2026-08-04T09:10:06Z</time>
      </trkpt>
			<trkpt lat="37.54864" lon="-3.91821">
        <ele>776.3</ele>
        <time>2026-08-04T09:10:17Z</time>
      </trkpt>
			<trkpt lat="37.54873" lon="-3.91811">
        <ele>777.1</ele>
        <time>2026-08-04T09:10:21Z</time>
      </trkpt>
			<trkpt lat="37.54882" lon="-3.91803">
        <ele>777.8</ele>
        <time>2026-08-04T09:10:24Z</time>
      </trkpt>
			<trkpt lat="37.54902" lon="-3.91788">
        <ele>779.2</ele>
        <time>2026-08-04T09:10:31Z</time>
      </trkpt>
			<trkpt lat="37.54909" lon="-3.9178">
        <ele>779.6</ele>
        <time>2026-08-04T09:10:33Z</time>
      </trkpt>
			<trkpt lat="37.54913" lon="-3.91771">
        <ele>780</ele>
        <time>2026-08-04T09:10:35Z</time>
      </trkpt>
			<trkpt lat="37.54913" lon="-3.9176">
        <ele>780.4</ele>
        <time>2026-08-04T09:10:38Z</time>
      </trkpt>
			<trkpt lat="37.5491" lon="-3.91748">
        <ele>780.8</ele>
        <time>2026-08-04T09:10:40Z</time>
      </trkpt>
			<trkpt lat="37.54902" lon="-3.91729">
        <ele>781.4</ele>
        <time>2026-08-04T09:10:44Z</time>
      </trkpt>
			<trkpt lat="37.54899" lon="-3.91717">
        <ele>781.8</ele>
        <time>2026-08-04T09:10:46Z</time>
      </trkpt>
			<trkpt lat="37.54898" lon="-3.91709">
        <ele>782</ele>
        <time>2026-08-04T09:10:48Z</time>
      </trkpt>
			<trkpt lat="37.54898" lon="-3.91696">
        <ele>782.3</ele>
        <time>2026-08-04T09:10:50Z</time>
      </trkpt>
			<trkpt lat="37.54902" lon="-3.91676">
        <ele>782.7</ele>
        <time>2026-08-04T09:10:53Z</time>
      </trkpt>
			<trkpt lat="37.54901" lon="-3.91669">
        <ele>782.9</ele>
        <time>2026-08-04T09:10:55Z</time>
      </trkpt>
			<trkpt lat="37.54898" lon="-3.91663">
        <ele>783</ele>
        <time>2026-08-04T09:10:56Z</time>
      </trkpt>
			<trkpt lat="37.54892" lon="-3.91658">
        <ele>783.2</ele>
        <time>2026-08-04T09:10:57Z</time>
      </trkpt>
			<trkpt lat="37.54887" lon="-3.91657">
        <ele>783.3</ele>
        <time>2026-08-04T09:10:58Z</time>
      </trkpt>
			<trkpt lat="37.54879" lon="-3.9166">
        <ele>783.5</ele>
        <time>2026-08-04T09:11:00Z</time>
      </trkpt>
			<trkpt lat="37.54855" lon="-3.91675">
        <ele>784.2</ele>
        <time>2026-08-04T09:11:05Z</time>
      </trkpt>
			<trkpt lat="37.5484" lon="-3.9168">
        <ele>784.5</ele>
        <time>2026-08-04T09:11:08Z</time>
      </trkpt>
			<trkpt lat="37.54827" lon="-3.9168">
        <ele>784.9</ele>
        <time>2026-08-04T09:11:11Z</time>
      </trkpt>
			<trkpt lat="37.54817" lon="-3.91677">
        <ele>785.1</ele>
        <time>2026-08-04T09:11:13Z</time>
      </trkpt>
			<trkpt lat="37.54812" lon="-3.9167">
        <ele>785.3</ele>
        <time>2026-08-04T09:11:14Z</time>
      </trkpt>
			<trkpt lat="37.54809" lon="-3.91662">
        <ele>785.5</ele>
        <time>2026-08-04T09:11:16Z</time>
      </trkpt>
			<trkpt lat="37.54807" lon="-3.91652">
        <ele>785.8</ele>
        <time>2026-08-04T09:11:17Z</time>
      </trkpt>
			<trkpt lat="37.54809" lon="-3.91634">
        <ele>786.2</ele>
        <time>2026-08-04T09:11:20Z</time>
      </trkpt>
			<trkpt lat="37.54816" lon="-3.91592">
        <ele>787.4</ele>
        <time>2026-08-04T09:11:28Z</time>
      </trkpt>
			<trkpt lat="37.54817" lon="-3.91577">
        <ele>787.9</ele>
        <time>2026-08-04T09:11:31Z</time>
      </trkpt>
			<trkpt lat="37.54815" lon="-3.91567">
        <ele>788.2</ele>
        <time>2026-08-04T09:11:33Z</time>
      </trkpt>
			<trkpt lat="37.54812" lon="-3.91559">
        <ele>788.5</ele>
        <time>2026-08-04T09:11:34Z</time>
      </trkpt>
			<trkpt lat="37.54806" lon="-3.91554">
        <ele>788.8</ele>
        <time>2026-08-04T09:11:36Z</time>
      </trkpt>
			<trkpt lat="37.54795" lon="-3.9155">
        <ele>789.4</ele>
        <time>2026-08-04T09:11:39Z</time>
      </trkpt>
			<trkpt lat="37.54772" lon="-3.91544">
        <ele>790.7</ele>
        <time>2026-08-04T09:11:46Z</time>
      </trkpt>
			<trkpt lat="37.54748" lon="-3.91539">
        <ele>792</ele>
        <time>2026-08-04T09:11:53Z</time>
      </trkpt>
			<trkpt lat="37.5474" lon="-3.91535">
        <ele>792.6</ele>
        <time>2026-08-04T09:11:56Z</time>
      </trkpt>
			<trkpt lat="37.54734" lon="-3.9153">
        <ele>793</ele>
        <time>2026-08-04T09:11:58Z</time>
      </trkpt>
			<trkpt lat="37.54729" lon="-3.9152">
        <ele>793.6</ele>
        <time>2026-08-04T09:12:01Z</time>
      </trkpt>
			<trkpt lat="37.54726" lon="-3.91509">
        <ele>794.2</ele>
        <time>2026-08-04T09:12:04Z</time>
      </trkpt>
			<trkpt lat="37.54724" lon="-3.91494">
        <ele>795.1</ele>
        <time>2026-08-04T09:12:08Z</time>
      </trkpt>
			<trkpt lat="37.54724" lon="-3.91483">
        <ele>795.8</ele>
        <time>2026-08-04T09:12:10Z</time>
      </trkpt>
			<trkpt lat="37.54726" lon="-3.91472">
        <ele>796.5</ele>
        <time>2026-08-04T09:12:13Z</time>
      </trkpt>
			<trkpt lat="37.5473" lon="-3.91462">
        <ele>797.1</ele>
        <time>2026-08-04T09:12:16Z</time>
      </trkpt>
			<trkpt lat="37.54739" lon="-3.91449">
        <ele>798.3</ele>
        <time>2026-08-04T09:12:22Z</time>
      </trkpt>
			<trkpt lat="37.54762" lon="-3.91423">
        <ele>801</ele>
        <time>2026-08-04T09:12:34Z</time>
      </trkpt>
			<trkpt lat="37.5477" lon="-3.9141">
        <ele>802.1</ele>
        <time>2026-08-04T09:12:39Z</time>
      </trkpt>
			<trkpt lat="37.54775" lon="-3.91395">
        <ele>803.4</ele>
        <time>2026-08-04T09:12:45Z</time>
      </trkpt>
			<trkpt lat="37.54777" lon="-3.91377">
        <ele>804.7</ele>
        <time>2026-08-04T09:12:51Z</time>
      </trkpt>
			<trkpt lat="37.54778" lon="-3.91348">
        <ele>807</ele>
        <time>2026-08-04T09:13:01Z</time>
      </trkpt>
			<trkpt lat="37.54779" lon="-3.91318">
        <ele>809.2</ele>
        <time>2026-08-04T09:13:10Z</time>
      </trkpt>
			<trkpt lat="37.54782" lon="-3.91296">
        <ele>810.9</ele>
        <time>2026-08-04T09:13:18Z</time>
      </trkpt>
			<trkpt lat="37.54789" lon="-3.91271">
        <ele>812.8</ele>
        <time>2026-08-04T09:13:27Z</time>
      </trkpt>
			<trkpt lat="37.54798" lon="-3.91243">
        <ele>814.8</ele>
        <time>2026-08-04T09:13:36Z</time>
      </trkpt>
			<trkpt lat="37.54812" lon="-3.91205">
        <ele>817.2</ele>
        <time>2026-08-04T09:13:47Z</time>
      </trkpt>
			<trkpt lat="37.54828" lon="-3.91175">
        <ele>818.8</ele>
        <time>2026-08-04T09:13:55Z</time>
      </trkpt>
			<trkpt lat="37.54837" lon="-3.91163">
        <ele>819.5</ele>
        <time>2026-08-04T09:13:59Z</time>
      </trkpt>
			<trkpt lat="37.54844" lon="-3.91157">
        <ele>819.8</ele>
        <time>2026-08-04T09:14:00Z</time>
      </trkpt>
			<trkpt lat="37.54853" lon="-3.91151">
        <ele>820.2</ele>
        <time>2026-08-04T09:14:03Z</time>
      </trkpt>
			<trkpt lat="37.54867" lon="-3.91148">
        <ele>820.6</ele>
        <time>2026-08-04T09:14:06Z</time>
      </trkpt>
			<trkpt lat="37.54897" lon="-3.91148">
        <ele>821.3</ele>
        <time>2026-08-04T09:14:12Z</time>
      </trkpt>
			<trkpt lat="37.54923" lon="-3.91144">
        <ele>821.5</ele>
        <time>2026-08-04T09:14:16Z</time>
      </trkpt>
			<trkpt lat="37.54949" lon="-3.91135">
        <ele>821.5</ele>
        <time>2026-08-04T09:14:20Z</time>
      </trkpt>
			<trkpt lat="37.54963" lon="-3.91127">
        <ele>821.4</ele>
        <time>2026-08-04T09:14:22Z</time>
      </trkpt>
			<trkpt lat="37.54998" lon="-3.91104">
        <ele>821.1</ele>
        <time>2026-08-04T09:14:26Z</time>
      </trkpt>
			<trkpt lat="37.55032" lon="-3.9108">
        <ele>820.6</ele>
        <time>2026-08-04T09:14:30Z</time>
      </trkpt>
			<trkpt lat="37.55041" lon="-3.91071">
        <ele>820.5</ele>
        <time>2026-08-04T09:14:31Z</time>
      </trkpt>
			<trkpt lat="37.55047" lon="-3.9106">
        <ele>820.4</ele>
        <time>2026-08-04T09:14:32Z</time>
      </trkpt>
			<trkpt lat="37.5505" lon="-3.91049">
        <ele>820.3</ele>
        <time>2026-08-04T09:14:33Z</time>
      </trkpt>
			<trkpt lat="37.55051" lon="-3.91032">
        <ele>820.2</ele>
        <time>2026-08-04T09:14:34Z</time>
      </trkpt>
			<trkpt lat="37.55049" lon="-3.90993">
        <ele>820.1</ele>
        <time>2026-08-04T09:14:39Z</time>
      </trkpt>
			<trkpt lat="37.5505" lon="-3.9098">
        <ele>820.1</ele>
        <time>2026-08-04T09:14:40Z</time>
      </trkpt>
			<trkpt lat="37.55054" lon="-3.90963">
        <ele>820.1</ele>
        <time>2026-08-04T09:14:42Z</time>
      </trkpt>
			<trkpt lat="37.5506" lon="-3.90948">
        <ele>820.1</ele>
        <time>2026-08-04T09:14:44Z</time>
      </trkpt>
			<trkpt lat="37.55078" lon="-3.90921">
        <ele>820.2</ele>
        <time>2026-08-04T09:14:48Z</time>
      </trkpt>
			<trkpt lat="37.55095" lon="-3.90891">
        <ele>820.3</ele>
        <time>2026-08-04T09:14:53Z</time>
      </trkpt>
			<trkpt lat="37.55107" lon="-3.90862">
        <ele>820.4</ele>
        <time>2026-08-04T09:14:56Z</time>
      </trkpt>
			<trkpt lat="37.55116" lon="-3.90837">
        <ele>820.5</ele>
        <time>2026-08-04T09:15:00Z</time>
      </trkpt>
			<trkpt lat="37.55123" lon="-3.90805">
        <ele>820.5</ele>
        <time>2026-08-04T09:15:04Z</time>
      </trkpt>
			<trkpt lat="37.55128" lon="-3.90777">
        <ele>820.5</ele>
        <time>2026-08-04T09:15:07Z</time>
      </trkpt>
			<trkpt lat="37.5513" lon="-3.9075">
        <ele>820.3</ele>
        <time>2026-08-04T09:15:09Z</time>
      </trkpt>
			<trkpt lat="37.55129" lon="-3.90718">
        <ele>820</ele>
        <time>2026-08-04T09:15:12Z</time>
      </trkpt>
			<trkpt lat="37.55126" lon="-3.9068">
        <ele>819.5</ele>
        <time>2026-08-04T09:15:14Z</time>
      </trkpt>
			<trkpt lat="37.55126" lon="-3.90663">
        <ele>819.2</ele>
        <time>2026-08-04T09:15:16Z</time>
      </trkpt>
			<trkpt lat="37.55129" lon="-3.90651">
        <ele>819</ele>
        <time>2026-08-04T09:15:17Z</time>
      </trkpt>
			<trkpt lat="37.55133" lon="-3.90642">
        <ele>818.8</ele>
        <time>2026-08-04T09:15:18Z</time>
      </trkpt>
			<trkpt lat="37.55139" lon="-3.90636">
        <ele>818.6</ele>
        <time>2026-08-04T09:15:18Z</time>
      </trkpt>
			<trkpt lat="37.55146" lon="-3.90633">
        <ele>818.5</ele>
        <time>2026-08-04T09:15:19Z</time>
      </trkpt>
			<trkpt lat="37.55178" lon="-3.90632">
        <ele>817.7</ele>
        <time>2026-08-04T09:15:22Z</time>
      </trkpt>
			<trkpt lat="37.55187" lon="-3.9063">
        <ele>817.5</ele>
        <time>2026-08-04T09:15:23Z</time>
      </trkpt>
			<trkpt lat="37.55203" lon="-3.90621">
        <ele>817.1</ele>
        <time>2026-08-04T09:15:25Z</time>
      </trkpt>
			<trkpt lat="37.55222" lon="-3.90607">
        <ele>816.6</ele>
        <time>2026-08-04T09:15:27Z</time>
      </trkpt>
			<trkpt lat="37.55233" lon="-3.90603">
        <ele>816.4</ele>
        <time>2026-08-04T09:15:28Z</time>
      </trkpt>
			<trkpt lat="37.55245" lon="-3.90603">
        <ele>816.2</ele>
        <time>2026-08-04T09:15:29Z</time>
      </trkpt>
			<trkpt lat="37.5526" lon="-3.90607">
        <ele>816</ele>
        <time>2026-08-04T09:15:31Z</time>
      </trkpt>
			<trkpt lat="37.5527" lon="-3.90612">
        <ele>815.9</ele>
        <time>2026-08-04T09:15:32Z</time>
      </trkpt>
			<trkpt lat="37.55278" lon="-3.90619">
        <ele>815.9</ele>
        <time>2026-08-04T09:15:33Z</time>
      </trkpt>
			<trkpt lat="37.55282" lon="-3.90627">
        <ele>815.8</ele>
        <time>2026-08-04T09:15:34Z</time>
      </trkpt>
			<trkpt lat="37.55286" lon="-3.90636">
        <ele>815.8</ele>
        <time>2026-08-04T09:15:35Z</time>
      </trkpt>
			<trkpt lat="37.55294" lon="-3.90663">
        <ele>815.8</ele>
        <time>2026-08-04T09:15:39Z</time>
      </trkpt>
			<trkpt lat="37.55302" lon="-3.9069">
        <ele>816</ele>
        <time>2026-08-04T09:15:42Z</time>
      </trkpt>
			<trkpt lat="37.55308" lon="-3.90706">
        <ele>816.1</ele>
        <time>2026-08-04T09:15:45Z</time>
      </trkpt>
			<trkpt lat="37.55313" lon="-3.90713">
        <ele>816.2</ele>
        <time>2026-08-04T09:15:46Z</time>
      </trkpt>
			<trkpt lat="37.5532" lon="-3.90718">
        <ele>816.4</ele>
        <time>2026-08-04T09:15:48Z</time>
      </trkpt>
			<trkpt lat="37.55326" lon="-3.90719">
        <ele>816.5</ele>
        <time>2026-08-04T09:15:49Z</time>
      </trkpt>
			<trkpt lat="37.55332" lon="-3.90718">
        <ele>816.6</ele>
        <time>2026-08-04T09:15:50Z</time>
      </trkpt>
			<trkpt lat="37.55338" lon="-3.90714">
        <ele>816.7</ele>
        <time>2026-08-04T09:15:51Z</time>
      </trkpt>
			<trkpt lat="37.55347" lon="-3.90704">
        <ele>817</ele>
        <time>2026-08-04T09:15:53Z</time>
      </trkpt>
			<trkpt lat="37.55369" lon="-3.9067">
        <ele>817.9</ele>
        <time>2026-08-04T09:16:00Z</time>
      </trkpt>
			<trkpt lat="37.55377" lon="-3.90659">
        <ele>818.3</ele>
        <time>2026-08-04T09:16:03Z</time>
      </trkpt>
			<trkpt lat="37.55389" lon="-3.90649">
        <ele>818.7</ele>
        <time>2026-08-04T09:16:06Z</time>
      </trkpt>
			<trkpt lat="37.554" lon="-3.90643">
        <ele>819.2</ele>
        <time>2026-08-04T09:16:09Z</time>
      </trkpt>
			<trkpt lat="37.55408" lon="-3.90641">
        <ele>819.4</ele>
        <time>2026-08-04T09:16:10Z</time>
      </trkpt>
			<trkpt lat="37.55414" lon="-3.90643">
        <ele>819.7</ele>
        <time>2026-08-04T09:16:12Z</time>
      </trkpt>
			<trkpt lat="37.55419" lon="-3.90647">
        <ele>819.9</ele>
        <time>2026-08-04T09:16:13Z</time>
      </trkpt>
			<trkpt lat="37.55424" lon="-3.90653">
        <ele>820.1</ele>
        <time>2026-08-04T09:16:15Z</time>
      </trkpt>
			<trkpt lat="37.55427" lon="-3.9066">
        <ele>820.4</ele>
        <time>2026-08-04T09:16:16Z</time>
      </trkpt>
			<trkpt lat="37.5543" lon="-3.90675">
        <ele>820.8</ele>
        <time>2026-08-04T09:16:19Z</time>
      </trkpt>
			<trkpt lat="37.55433" lon="-3.9073">
        <ele>822.8</ele>
        <time>2026-08-04T09:16:30Z</time>
      </trkpt>
			<trkpt lat="37.55435" lon="-3.90747">
        <ele>823.5</ele>
        <time>2026-08-04T09:16:34Z</time>
      </trkpt>
			<trkpt lat="37.55439" lon="-3.90765">
        <ele>824.3</ele>
        <time>2026-08-04T09:16:38Z</time>
      </trkpt>
			<trkpt lat="37.55443" lon="-3.90779">
        <ele>825</ele>
        <time>2026-08-04T09:16:42Z</time>
      </trkpt>
			<trkpt lat="37.55448" lon="-3.90789">
        <ele>825.6</ele>
        <time>2026-08-04T09:16:44Z</time>
      </trkpt>
			<trkpt lat="37.55455" lon="-3.90798">
        <ele>826.2</ele>
        <time>2026-08-04T09:16:47Z</time>
      </trkpt>
			<trkpt lat="37.55463" lon="-3.90803">
        <ele>826.8</ele>
        <time>2026-08-04T09:16:50Z</time>
      </trkpt>
			<trkpt lat="37.55472" lon="-3.90804">
        <ele>827.5</ele>
        <time>2026-08-04T09:16:53Z</time>
      </trkpt>
			<trkpt lat="37.5548" lon="-3.90802">
        <ele>828.1</ele>
        <time>2026-08-04T09:16:56Z</time>
      </trkpt>
			<trkpt lat="37.55486" lon="-3.90796">
        <ele>828.8</ele>
        <time>2026-08-04T09:16:59Z</time>
      </trkpt>
			<trkpt lat="37.55493" lon="-3.90787">
        <ele>829.6</ele>
        <time>2026-08-04T09:17:02Z</time>
      </trkpt>
			<trkpt lat="37.55515" lon="-3.90741">
        <ele>833.8</ele>
        <time>2026-08-04T09:17:21Z</time>
      </trkpt>
			<trkpt lat="37.55536" lon="-3.90695">
        <ele>838.8</ele>
        <time>2026-08-04T09:17:42Z</time>
      </trkpt>
			<trkpt lat="37.55558" lon="-3.90649">
        <ele>844.5</ele>
        <time>2026-08-04T09:18:06Z</time>
      </trkpt>
			<trkpt lat="37.55571" lon="-3.90628">
        <ele>847.3</ele>
        <time>2026-08-04T09:18:19Z</time>
      </trkpt>
			<trkpt lat="37.55588" lon="-3.90605">
        <ele>850.7</ele>
        <time>2026-08-04T09:18:33Z</time>
      </trkpt>
			<trkpt lat="37.55604" lon="-3.90581">
        <ele>853.8</ele>
        <time>2026-08-04T09:18:45Z</time>
      </trkpt>
			<trkpt lat="37.55619" lon="-3.90558">
        <ele>856.7</ele>
        <time>2026-08-04T09:18:57Z</time>
      </trkpt>
			<trkpt lat="37.55629" lon="-3.90537">
        <ele>858.8</ele>
        <time>2026-08-04T09:19:07Z</time>
      </trkpt>
			<trkpt lat="37.55634" lon="-3.90518">
        <ele>860.5</ele>
        <time>2026-08-04T09:19:15Z</time>
      </trkpt>
			<trkpt lat="37.55635" lon="-3.90506">
        <ele>861.3</ele>
        <time>2026-08-04T09:19:19Z</time>
      </trkpt>
			<trkpt lat="37.55634" lon="-3.90494">
        <ele>862.2</ele>
        <time>2026-08-04T09:19:22Z</time>
      </trkpt>
			<trkpt lat="37.55628" lon="-3.90472">
        <ele>863.9</ele>
        <time>2026-08-04T09:19:30Z</time>
      </trkpt>
			<trkpt lat="37.55616" lon="-3.90441">
        <ele>866</ele>
        <time>2026-08-04T09:19:39Z</time>
      </trkpt>
			<trkpt lat="37.55613" lon="-3.90428">
        <ele>866.7</ele>
        <time>2026-08-04T09:19:42Z</time>
      </trkpt>
			<trkpt lat="37.55612" lon="-3.90418">
        <ele>867.3</ele>
        <time>2026-08-04T09:19:45Z</time>
      </trkpt>
			<trkpt lat="37.55613" lon="-3.90405">
        <ele>867.9</ele>
        <time>2026-08-04T09:19:48Z</time>
      </trkpt>
			<trkpt lat="37.55617" lon="-3.90391">
        <ele>868.7</ele>
        <time>2026-08-04T09:19:51Z</time>
      </trkpt>
			<trkpt lat="37.55623" lon="-3.90377">
        <ele>869.4</ele>
        <time>2026-08-04T09:19:55Z</time>
      </trkpt>
			<trkpt lat="37.55636" lon="-3.90355">
        <ele>870.7</ele>
        <time>2026-08-04T09:20:01Z</time>
      </trkpt>
			<trkpt lat="37.5565" lon="-3.90319">
        <ele>872.3</ele>
        <time>2026-08-04T09:20:10Z</time>
      </trkpt>
			<trkpt lat="37.55652" lon="-3.90305">
        <ele>872.8</ele>
        <time>2026-08-04T09:20:13Z</time>
      </trkpt>
			<trkpt lat="37.55651" lon="-3.90269">
        <ele>874.2</ele>
        <time>2026-08-04T09:20:20Z</time>
      </trkpt>
			<trkpt lat="37.55652" lon="-3.90262">
        <ele>874.4</ele>
        <time>2026-08-04T09:20:22Z</time>
      </trkpt>
			<trkpt lat="37.55658" lon="-3.90249">
        <ele>875</ele>
        <time>2026-08-04T09:20:25Z</time>
      </trkpt>
			<trkpt lat="37.5567" lon="-3.90238">
        <ele>875.7</ele>
        <time>2026-08-04T09:20:29Z</time>
      </trkpt>
			<trkpt lat="37.55676" lon="-3.90235">
        <ele>876</ele>
        <time>2026-08-04T09:20:30Z</time>
      </trkpt>
			<trkpt lat="37.55684" lon="-3.90233">
        <ele>876.4</ele>
        <time>2026-08-04T09:20:32Z</time>
      </trkpt>
			<trkpt lat="37.55693" lon="-3.90236">
        <ele>876.8</ele>
        <time>2026-08-04T09:20:35Z</time>
      </trkpt>
			<trkpt lat="37.55712" lon="-3.90252">
        <ele>878</ele>
        <time>2026-08-04T09:20:41Z</time>
      </trkpt>
			<trkpt lat="37.55721" lon="-3.90258">
        <ele>878.5</ele>
        <time>2026-08-04T09:20:44Z</time>
      </trkpt>
			<trkpt lat="37.55733" lon="-3.90261">
        <ele>879.2</ele>
        <time>2026-08-04T09:20:47Z</time>
      </trkpt>
			<trkpt lat="37.55746" lon="-3.9026">
        <ele>879.9</ele>
        <time>2026-08-04T09:20:51Z</time>
      </trkpt>
			<trkpt lat="37.5576" lon="-3.90255">
        <ele>880.8</ele>
        <time>2026-08-04T09:20:55Z</time>
      </trkpt>
			<trkpt lat="37.55774" lon="-3.90246">
        <ele>881.8</ele>
        <time>2026-08-04T09:21:00Z</time>
      </trkpt>
			<trkpt lat="37.55787" lon="-3.90232">
        <ele>882.9</ele>
        <time>2026-08-04T09:21:06Z</time>
      </trkpt>
			<trkpt lat="37.55798" lon="-3.90215">
        <ele>884.1</ele>
        <time>2026-08-04T09:21:11Z</time>
      </trkpt>
			<trkpt lat="37.55807" lon="-3.90193">
        <ele>885.6</ele>
        <time>2026-08-04T09:21:17Z</time>
      </trkpt>
			<trkpt lat="37.55814" lon="-3.90168">
        <ele>887.1</ele>
        <time>2026-08-04T09:21:24Z</time>
      </trkpt>
			<trkpt lat="37.5582" lon="-3.90134">
        <ele>889.3</ele>
        <time>2026-08-04T09:21:33Z</time>
      </trkpt>
			<trkpt lat="37.55825" lon="-3.901">
        <ele>891.3</ele>
        <time>2026-08-04T09:21:42Z</time>
      </trkpt>
			<trkpt lat="37.55828" lon="-3.90077">
        <ele>892.7</ele>
        <time>2026-08-04T09:21:48Z</time>
      </trkpt>
			<trkpt lat="37.5583" lon="-3.90062">
        <ele>893.6</ele>
        <time>2026-08-04T09:21:52Z</time>
      </trkpt>
			<trkpt lat="37.55835" lon="-3.90049">
        <ele>894.4</ele>
        <time>2026-08-04T09:21:56Z</time>
      </trkpt>
			<trkpt lat="37.55844" lon="-3.90039">
        <ele>895.2</ele>
        <time>2026-08-04T09:22:00Z</time>
      </trkpt>
			<trkpt lat="37.55864" lon="-3.90025">
        <ele>896.8</ele>
        <time>2026-08-04T09:22:07Z</time>
      </trkpt>
			<trkpt lat="37.55883" lon="-3.9001">
        <ele>898.2</ele>
        <time>2026-08-04T09:22:14Z</time>
      </trkpt>
			<trkpt lat="37.559" lon="-3.89999">
        <ele>899.5</ele>
        <time>2026-08-04T09:22:20Z</time>
      </trkpt>
			<trkpt lat="37.55916" lon="-3.89991">
        <ele>900.5</ele>
        <time>2026-08-04T09:22:24Z</time>
      </trkpt>
			<trkpt lat="37.55927" lon="-3.89989">
        <ele>901.2</ele>
        <time>2026-08-04T09:22:28Z</time>
      </trkpt>
			<trkpt lat="37.55935" lon="-3.89988">
        <ele>901.7</ele>
        <time>2026-08-04T09:22:30Z</time>
      </trkpt>
			<trkpt lat="37.55943" lon="-3.8999">
        <ele>902.2</ele>
        <time>2026-08-04T09:22:33Z</time>
      </trkpt>
			<trkpt lat="37.55959" lon="-3.90001">
        <ele>903.3</ele>
        <time>2026-08-04T09:22:38Z</time>
      </trkpt>
			<trkpt lat="37.55965" lon="-3.90008">
        <ele>903.9</ele>
        <time>2026-08-04T09:22:41Z</time>
      </trkpt>
			<trkpt lat="37.5597" lon="-3.90012">
        <ele>904.3</ele>
        <time>2026-08-04T09:22:43Z</time>
      </trkpt>
			<trkpt lat="37.55974" lon="-3.90013">
        <ele>904.6</ele>
        <time>2026-08-04T09:22:44Z</time>
      </trkpt>
			<trkpt lat="37.55979" lon="-3.90012">
        <ele>904.8</ele>
        <time>2026-08-04T09:22:45Z</time>
      </trkpt>
			<trkpt lat="37.55984" lon="-3.90008">
        <ele>905.3</ele>
        <time>2026-08-04T09:22:48Z</time>
      </trkpt>
			<trkpt lat="37.55991" lon="-3.89994">
        <ele>906.1</ele>
        <time>2026-08-04T09:22:51Z</time>
      </trkpt>
			<trkpt lat="37.55998" lon="-3.89977">
        <ele>907.2</ele>
        <time>2026-08-04T09:22:56Z</time>
      </trkpt>
			<trkpt lat="37.56003" lon="-3.89962">
        <ele>908.2</ele>
        <time>2026-08-04T09:23:01Z</time>
      </trkpt>
			<trkpt lat="37.56004" lon="-3.89949">
        <ele>908.9</ele>
        <time>2026-08-04T09:23:04Z</time>
      </trkpt>
			<trkpt lat="37.56003" lon="-3.8994">
        <ele>909.5</ele>
        <time>2026-08-04T09:23:06Z</time>
      </trkpt>
			<trkpt lat="37.55992" lon="-3.89905">
        <ele>911.9</ele>
        <time>2026-08-04T09:23:16Z</time>
      </trkpt>
			<trkpt lat="37.5599" lon="-3.89894">
        <ele>912.7</ele>
        <time>2026-08-04T09:23:20Z</time>
      </trkpt>
			<trkpt lat="37.55989" lon="-3.89885">
        <ele>913.4</ele>
        <time>2026-08-04T09:23:23Z</time>
      </trkpt>
			<trkpt lat="37.55991" lon="-3.89876">
        <ele>914.1</ele>
        <time>2026-08-04T09:23:26Z</time>
      </trkpt>
			<trkpt lat="37.55996" lon="-3.89857">
        <ele>915.5</ele>
        <time>2026-08-04T09:23:32Z</time>
      </trkpt>
			<trkpt lat="37.56009" lon="-3.89822">
        <ele>918.6</ele>
        <time>2026-08-04T09:23:46Z</time>
      </trkpt>
			<trkpt lat="37.56022" lon="-3.8979">
        <ele>921.7</ele>
        <time>2026-08-04T09:24:00Z</time>
      </trkpt>
			<trkpt lat="37.56026" lon="-3.89781">
        <ele>922.6</ele>
        <time>2026-08-04T09:24:04Z</time>
      </trkpt>
			<trkpt lat="37.56032" lon="-3.89774">
        <ele>923.5</ele>
        <time>2026-08-04T09:24:08Z</time>
      </trkpt>
			<trkpt lat="37.5604" lon="-3.89767">
        <ele>924.6</ele>
        <time>2026-08-04T09:24:13Z</time>
      </trkpt>
			<trkpt lat="37.5607" lon="-3.89748">
        <ele>928.5</ele>
        <time>2026-08-04T09:24:30Z</time>
      </trkpt>
			<trkpt lat="37.5608" lon="-3.8974">
        <ele>930</ele>
        <time>2026-08-04T09:24:36Z</time>
      </trkpt>
			<trkpt lat="37.56086" lon="-3.89734">
        <ele>930.9</ele>
        <time>2026-08-04T09:24:40Z</time>
      </trkpt>
			<trkpt lat="37.5609" lon="-3.89725">
        <ele>931.9</ele>
        <time>2026-08-04T09:24:44Z</time>
      </trkpt>
			<trkpt lat="37.56092" lon="-3.89713">
        <ele>933.1</ele>
        <time>2026-08-04T09:24:49Z</time>
      </trkpt>
			<trkpt lat="37.56091" lon="-3.89684">
        <ele>935.9</ele>
        <time>2026-08-04T09:25:00Z</time>
      </trkpt>
			<trkpt lat="37.56091" lon="-3.89647">
        <ele>939.4</ele>
        <time>2026-08-04T09:25:15Z</time>
      </trkpt>
			<trkpt lat="37.56088" lon="-3.89633">
        <ele>940.8</ele>
        <time>2026-08-04T09:25:21Z</time>
      </trkpt>
			<trkpt lat="37.56084" lon="-3.89622">
        <ele>942</ele>
        <time>2026-08-04T09:25:26Z</time>
      </trkpt>
			<trkpt lat="37.56077" lon="-3.89612">
        <ele>943.2</ele>
        <time>2026-08-04T09:25:31Z</time>
      </trkpt>
			<trkpt lat="37.56065" lon="-3.89598">
        <ele>945.3</ele>
        <time>2026-08-04T09:25:40Z</time>
      </trkpt>
			<trkpt lat="37.56059" lon="-3.89588">
        <ele>946.4</ele>
        <time>2026-08-04T09:25:45Z</time>
      </trkpt>
			<trkpt lat="37.56056" lon="-3.89578">
        <ele>947.4</ele>
        <time>2026-08-04T09:25:49Z</time>
      </trkpt>
			<trkpt lat="37.56054" lon="-3.89565">
        <ele>948.7</ele>
        <time>2026-08-04T09:25:55Z</time>
      </trkpt>
			<trkpt lat="37.56057" lon="-3.89547">
        <ele>950.3</ele>
        <time>2026-08-04T09:26:02Z</time>
      </trkpt>
			<trkpt lat="37.56062" lon="-3.89521">
        <ele>952.7</ele>
        <time>2026-08-04T09:26:13Z</time>
      </trkpt>
			<trkpt lat="37.56064" lon="-3.89492">
        <ele>955.4</ele>
        <time>2026-08-04T09:26:24Z</time>
      </trkpt>
			<trkpt lat="37.56065" lon="-3.89462">
        <ele>957.9</ele>
        <time>2026-08-04T09:26:35Z</time>
      </trkpt>
			<trkpt lat="37.56066" lon="-3.89423">
        <ele>961.1</ele>
        <time>2026-08-04T09:26:48Z</time>
      </trkpt>
			<trkpt lat="37.56068" lon="-3.89413">
        <ele>962</ele>
        <time>2026-08-04T09:26:53Z</time>
      </trkpt>
			<trkpt lat="37.56071" lon="-3.89407">
        <ele>962.5</ele>
        <time>2026-08-04T09:26:55Z</time>
      </trkpt>
			<trkpt lat="37.56078" lon="-3.894">
        <ele>963.4</ele>
        <time>2026-08-04T09:26:59Z</time>
      </trkpt>
			<trkpt lat="37.56085" lon="-3.89397">
        <ele>964.1</ele>
        <time>2026-08-04T09:27:02Z</time>
      </trkpt>
			<trkpt lat="37.56101" lon="-3.89391">
        <ele>965.8</ele>
        <time>2026-08-04T09:27:10Z</time>
      </trkpt>
			<trkpt lat="37.56118" lon="-3.89382">
        <ele>967.6</ele>
        <time>2026-08-04T09:27:18Z</time>
      </trkpt>
			<trkpt lat="37.56127" lon="-3.89374">
        <ele>968.7</ele>
        <time>2026-08-04T09:27:23Z</time>
      </trkpt>
			<trkpt lat="37.56135" lon="-3.89362">
        <ele>969.8</ele>
        <time>2026-08-04T09:27:28Z</time>
      </trkpt>
			<trkpt lat="37.56149" lon="-3.89331">
        <ele>972.4</ele>
        <time>2026-08-04T09:27:39Z</time>
      </trkpt>
			<trkpt lat="37.56151" lon="-3.89321">
        <ele>973.1</ele>
        <time>2026-08-04T09:27:42Z</time>
      </trkpt>
			<trkpt lat="37.56151" lon="-3.89312">
        <ele>973.7</ele>
        <time>2026-08-04T09:27:45Z</time>
      </trkpt>
			<trkpt lat="37.56148" lon="-3.89302">
        <ele>974.4</ele>
        <time>2026-08-04T09:27:48Z</time>
      </trkpt>
			<trkpt lat="37.56133" lon="-3.89267">
        <ele>977</ele>
        <time>2026-08-04T09:27:58Z</time>
      </trkpt>
			<trkpt lat="37.56131" lon="-3.89256">
        <ele>977.6</ele>
        <time>2026-08-04T09:28:01Z</time>
      </trkpt>
			<trkpt lat="37.5613" lon="-3.89245">
        <ele>978.2</ele>
        <time>2026-08-04T09:28:04Z</time>
      </trkpt>
			<trkpt lat="37.56133" lon="-3.89231">
        <ele>979</ele>
        <time>2026-08-04T09:28:07Z</time>
      </trkpt>
			<trkpt lat="37.5614" lon="-3.8921">
        <ele>980.2</ele>
        <time>2026-08-04T09:28:13Z</time>
      </trkpt>
			<trkpt lat="37.56151" lon="-3.89188">
        <ele>981.3</ele>
        <time>2026-08-04T09:28:19Z</time>
      </trkpt>
			<trkpt lat="37.56156" lon="-3.89173">
        <ele>981.9</ele>
        <time>2026-08-04T09:28:22Z</time>
      </trkpt>
			<trkpt lat="37.56159" lon="-3.89158">
        <ele>982.5</ele>
        <time>2026-08-04T09:28:25Z</time>
      </trkpt>
			<trkpt lat="37.56159" lon="-3.89144">
        <ele>982.9</ele>
        <time>2026-08-04T09:28:28Z</time>
      </trkpt>
			<trkpt lat="37.56158" lon="-3.89128">
        <ele>983.3</ele>
        <time>2026-08-04T09:28:30Z</time>
      </trkpt>
			<trkpt lat="37.56154" lon="-3.89102">
        <ele>983.8</ele>
        <time>2026-08-04T09:28:34Z</time>
      </trkpt>
			<trkpt lat="37.56154" lon="-3.89091">
        <ele>983.9</ele>
        <time>2026-08-04T09:28:36Z</time>
      </trkpt>
			<trkpt lat="37.56156" lon="-3.89079">
        <ele>984</ele>
        <time>2026-08-04T09:28:38Z</time>
      </trkpt>
			<trkpt lat="37.5616" lon="-3.89071">
        <ele>984.1</ele>
        <time>2026-08-04T09:28:39Z</time>
      </trkpt>
			<trkpt lat="37.56165" lon="-3.89065">
        <ele>984.1</ele>
        <time>2026-08-04T09:28:40Z</time>
      </trkpt>
			<trkpt lat="37.56172" lon="-3.8906">
        <ele>984.2</ele>
        <time>2026-08-04T09:28:41Z</time>
      </trkpt>
			<trkpt lat="37.56181" lon="-3.8906">
        <ele>984.2</ele>
        <time>2026-08-04T09:28:43Z</time>
      </trkpt>
			<trkpt lat="37.56198" lon="-3.89064">
        <ele>984</ele>
        <time>2026-08-04T09:28:44Z</time>
      </trkpt>
			<trkpt lat="37.56209" lon="-3.89064">
        <ele>983.9</ele>
        <time>2026-08-04T09:28:45Z</time>
      </trkpt>
			<trkpt lat="37.56216" lon="-3.89062">
        <ele>983.8</ele>
        <time>2026-08-04T09:28:46Z</time>
      </trkpt>
			<trkpt lat="37.56226" lon="-3.89054">
        <ele>983.6</ele>
        <time>2026-08-04T09:28:47Z</time>
      </trkpt>
			<trkpt lat="37.56258" lon="-3.89024">
        <ele>982.7</ele>
        <time>2026-08-04T09:28:51Z</time>
      </trkpt>
			<trkpt lat="37.56264" lon="-3.89021">
        <ele>982.5</ele>
        <time>2026-08-04T09:28:52Z</time>
      </trkpt>
			<trkpt lat="37.56271" lon="-3.89019">
        <ele>982.3</ele>
        <time>2026-08-04T09:28:53Z</time>
      </trkpt>
			<trkpt lat="37.56276" lon="-3.89021">
        <ele>982.2</ele>
        <time>2026-08-04T09:28:53Z</time>
      </trkpt>
			<trkpt lat="37.56281" lon="-3.89027">
        <ele>982</ele>
        <time>2026-08-04T09:28:54Z</time>
      </trkpt>
			<trkpt lat="37.56283" lon="-3.89035">
        <ele>981.8</ele>
        <time>2026-08-04T09:28:54Z</time>
      </trkpt>
			<trkpt lat="37.56283" lon="-3.89044">
        <ele>981.6</ele>
        <time>2026-08-04T09:28:55Z</time>
      </trkpt>
			<trkpt lat="37.56276" lon="-3.89076">
        <ele>981</ele>
        <time>2026-08-04T09:28:58Z</time>
      </trkpt>
			<trkpt lat="37.56275" lon="-3.89106">
        <ele>980.6</ele>
        <time>2026-08-04T09:29:00Z</time>
      </trkpt>
			<trkpt lat="37.56276" lon="-3.89156">
        <ele>980.6</ele>
        <time>2026-08-04T09:29:06Z</time>
      </trkpt>
			<trkpt lat="37.56277" lon="-3.89167">
        <ele>980.7</ele>
        <time>2026-08-04T09:29:07Z</time>
      </trkpt>
			<trkpt lat="37.5628" lon="-3.89175">
        <ele>980.8</ele>
        <time>2026-08-04T09:29:09Z</time>
      </trkpt>
			<trkpt lat="37.56284" lon="-3.89179">
        <ele>980.9</ele>
        <time>2026-08-04T09:29:10Z</time>
      </trkpt>
			<trkpt lat="37.56292" lon="-3.89181">
        <ele>981.2</ele>
        <time>2026-08-04T09:29:11Z</time>
      </trkpt>
			<trkpt lat="37.56299" lon="-3.8918">
        <ele>981.4</ele>
        <time>2026-08-04T09:29:13Z</time>
      </trkpt>
			<trkpt lat="37.56309" lon="-3.89174">
        <ele>981.8</ele>
        <time>2026-08-04T09:29:15Z</time>
      </trkpt>
			<trkpt lat="37.56332" lon="-3.89155">
        <ele>983.3</ele>
        <time>2026-08-04T09:29:23Z</time>
      </trkpt>
			<trkpt lat="37.56347" lon="-3.89136">
        <ele>984.9</ele>
        <time>2026-08-04T09:29:30Z</time>
      </trkpt>
			<trkpt lat="37.56379" lon="-3.89102">
        <ele>988.9</ele>
        <time>2026-08-04T09:29:49Z</time>
      </trkpt>
			<trkpt lat="37.56392" lon="-3.89083">
        <ele>991.1</ele>
        <time>2026-08-04T09:29:59Z</time>
      </trkpt>
			<trkpt lat="37.56407" lon="-3.89053">
        <ele>994.5</ele>
        <time>2026-08-04T09:30:13Z</time>
      </trkpt>
			<trkpt lat="37.56422" lon="-3.89023">
        <ele>998</ele>
        <time>2026-08-04T09:30:27Z</time>
      </trkpt>
			<trkpt lat="37.5643" lon="-3.89004">
        <ele>1000.1</ele>
        <time>2026-08-04T09:30:36Z</time>
      </trkpt>
			<trkpt lat="37.56438" lon="-3.88981">
        <ele>1002.6</ele>
        <time>2026-08-04T09:30:46Z</time>
      </trkpt>
			<trkpt lat="37.56439" lon="-3.88968">
        <ele>1003.8</ele>
        <time>2026-08-04T09:30:51Z</time>
      </trkpt>
			<trkpt lat="37.56437" lon="-3.88958">
        <ele>1004.8</ele>
        <time>2026-08-04T09:30:55Z</time>
      </trkpt>
			<trkpt lat="37.56433" lon="-3.88949">
        <ele>1005.8</ele>
        <time>2026-08-04T09:30:59Z</time>
      </trkpt>
			<trkpt lat="37.56422" lon="-3.88935">
        <ele>1007.6</ele>
        <time>2026-08-04T09:31:07Z</time>
      </trkpt>
			<trkpt lat="37.56417" lon="-3.88925">
        <ele>1008.6</ele>
        <time>2026-08-04T09:31:11Z</time>
      </trkpt>
			<trkpt lat="37.56414" lon="-3.88914">
        <ele>1009.7</ele>
        <time>2026-08-04T09:31:16Z</time>
      </trkpt>
			<trkpt lat="37.56414" lon="-3.88904">
        <ele>1010.6</ele>
        <time>2026-08-04T09:31:20Z</time>
      </trkpt>
			<trkpt lat="37.56417" lon="-3.88892">
        <ele>1011.7</ele>
        <time>2026-08-04T09:31:25Z</time>
      </trkpt>
			<trkpt lat="37.56432" lon="-3.88865">
        <ele>1014.5</ele>
        <time>2026-08-04T09:31:38Z</time>
      </trkpt>
			<trkpt lat="37.56441" lon="-3.88843">
        <ele>1016.5</ele>
        <time>2026-08-04T09:31:47Z</time>
      </trkpt>
			<trkpt lat="37.56446" lon="-3.88825">
        <ele>1018</ele>
        <time>2026-08-04T09:31:54Z</time>
      </trkpt>
			<trkpt lat="37.56447" lon="-3.88811">
        <ele>1019.2</ele>
        <time>2026-08-04T09:31:59Z</time>
      </trkpt>
			<trkpt lat="37.56445" lon="-3.88798">
        <ele>1020.2</ele>
        <time>2026-08-04T09:32:04Z</time>
      </trkpt>
			<trkpt lat="37.56441" lon="-3.88786">
        <ele>1021.3</ele>
        <time>2026-08-04T09:32:09Z</time>
      </trkpt>
			<trkpt lat="37.56426" lon="-3.88766">
        <ele>1023.5</ele>
        <time>2026-08-04T09:32:19Z</time>
      </trkpt>
			<trkpt lat="37.56419" lon="-3.88753">
        <ele>1024.7</ele>
        <time>2026-08-04T09:32:24Z</time>
      </trkpt>
			<trkpt lat="37.56416" lon="-3.88742">
        <ele>1025.6</ele>
        <time>2026-08-04T09:32:28Z</time>
      </trkpt>
			<trkpt lat="37.56415" lon="-3.8873">
        <ele>1026.6</ele>
        <time>2026-08-04T09:32:33Z</time>
      </trkpt>
			<trkpt lat="37.56414" lon="-3.88697">
        <ele>1029.2</ele>
        <time>2026-08-04T09:32:44Z</time>
      </trkpt>
			<trkpt lat="37.56412" lon="-3.88665">
        <ele>1031.8</ele>
        <time>2026-08-04T09:32:56Z</time>
      </trkpt>
			<trkpt lat="37.56417" lon="-3.88615">
        <ele>1035.8</ele>
        <time>2026-08-04T09:33:13Z</time>
      </trkpt>
			<trkpt lat="37.56419" lon="-3.88573">
        <ele>1039.1</ele>
        <time>2026-08-04T09:33:28Z</time>
      </trkpt>
			<trkpt lat="37.5642" lon="-3.88531">
        <ele>1042.1</ele>
        <time>2026-08-04T09:33:41Z</time>
      </trkpt>
			<trkpt lat="37.56422" lon="-3.88499">
        <ele>1044.2</ele>
        <time>2026-08-04T09:33:50Z</time>
      </trkpt>
			<trkpt lat="37.56423" lon="-3.88472">
        <ele>1045.9</ele>
        <time>2026-08-04T09:33:57Z</time>
      </trkpt>
			<trkpt lat="37.56425" lon="-3.88447">
        <ele>1047.3</ele>
        <time>2026-08-04T09:34:03Z</time>
      </trkpt>
			<trkpt lat="37.56424" lon="-3.88435">
        <ele>1048</ele>
        <time>2026-08-04T09:34:06Z</time>
      </trkpt>
			<trkpt lat="37.56422" lon="-3.88425">
        <ele>1048.5</ele>
        <time>2026-08-04T09:34:09Z</time>
      </trkpt>
			<trkpt lat="37.56404" lon="-3.88394">
        <ele>1050.3</ele>
        <time>2026-08-04T09:34:18Z</time>
      </trkpt>
			<trkpt lat="37.56399" lon="-3.88384">
        <ele>1050.7</ele>
        <time>2026-08-04T09:34:20Z</time>
      </trkpt>
			<trkpt lat="37.56398" lon="-3.88369">
        <ele>1051.3</ele>
        <time>2026-08-04T09:34:23Z</time>
      </trkpt>
			<trkpt lat="37.56401" lon="-3.88359">
        <ele>1051.7</ele>
        <time>2026-08-04T09:34:25Z</time>
      </trkpt>
			<trkpt lat="37.56411" lon="-3.88343">
        <ele>1052.4</ele>
        <time>2026-08-04T09:34:30Z</time>
      </trkpt>
			<trkpt lat="37.56437" lon="-3.88307">
        <ele>1053.9</ele>
        <time>2026-08-04T09:34:38Z</time>
      </trkpt>
			<trkpt lat="37.56463" lon="-3.88271">
        <ele>1055.2</ele>
        <time>2026-08-04T09:34:47Z</time>
      </trkpt>
			<trkpt lat="37.56471" lon="-3.88258">
        <ele>1055.5</ele>
        <time>2026-08-04T09:34:49Z</time>
      </trkpt>
			<trkpt lat="37.56473" lon="-3.88246">
        <ele>1055.8</ele>
        <time>2026-08-04T09:34:51Z</time>
      </trkpt>
			<trkpt lat="37.56474" lon="-3.88228">
        <ele>1056.2</ele>
        <time>2026-08-04T09:34:55Z</time>
      </trkpt>
			<trkpt lat="37.5647" lon="-3.88176">
        <ele>1057.4</ele>
        <time>2026-08-04T09:35:04Z</time>
      </trkpt>
			<trkpt lat="37.56464" lon="-3.88141">
        <ele>1058.3</ele>
        <time>2026-08-04T09:35:10Z</time>
      </trkpt>
			<trkpt lat="37.56463" lon="-3.88122">
        <ele>1058.8</ele>
        <time>2026-08-04T09:35:13Z</time>
      </trkpt>
			<trkpt lat="37.56465" lon="-3.8811">
        <ele>1059.2</ele>
        <time>2026-08-04T09:35:16Z</time>
      </trkpt>
			<trkpt lat="37.5647" lon="-3.88098">
        <ele>1059.6</ele>
        <time>2026-08-04T09:35:18Z</time>
      </trkpt>
			<trkpt lat="37.56476" lon="-3.88091">
        <ele>1059.9</ele>
        <time>2026-08-04T09:35:20Z</time>
      </trkpt>
			<trkpt lat="37.56488" lon="-3.88084">
        <ele>1060.5</ele>
        <time>2026-08-04T09:35:23Z</time>
      </trkpt>
			<trkpt lat="37.5652" lon="-3.88072">
        <ele>1061.9</ele>
        <time>2026-08-04T09:35:32Z</time>
      </trkpt>
			<trkpt lat="37.56549" lon="-3.88056">
        <ele>1063.5</ele>
        <time>2026-08-04T09:35:41Z</time>
      </trkpt>
			<trkpt lat="37.56562" lon="-3.88047">
        <ele>1064.3</ele>
        <time>2026-08-04T09:35:45Z</time>
      </trkpt>
			<trkpt lat="37.5657" lon="-3.88037">
        <ele>1065</ele>
        <time>2026-08-04T09:35:48Z</time>
      </trkpt>
			<trkpt lat="37.56578" lon="-3.88025">
        <ele>1065.8</ele>
        <time>2026-08-04T09:35:52Z</time>
      </trkpt>
			<trkpt lat="37.56583" lon="-3.88012">
        <ele>1066.5</ele>
        <time>2026-08-04T09:35:56Z</time>
      </trkpt>
			<trkpt lat="37.56587" lon="-3.87995">
        <ele>1067.4</ele>
        <time>2026-08-04T09:36:00Z</time>
      </trkpt>
			<trkpt lat="37.56592" lon="-3.87946">
        <ele>1070.1</ele>
        <time>2026-08-04T09:36:12Z</time>
      </trkpt>
			<trkpt lat="37.56597" lon="-3.87927">
        <ele>1071.2</ele>
        <time>2026-08-04T09:36:17Z</time>
      </trkpt>
			<trkpt lat="37.56609" lon="-3.87894">
        <ele>1073.3</ele>
        <time>2026-08-04T09:36:26Z</time>
      </trkpt>
			<trkpt lat="37.56615" lon="-3.87872">
        <ele>1074.7</ele>
        <time>2026-08-04T09:36:33Z</time>
      </trkpt>
			<trkpt lat="37.56621" lon="-3.87839">
        <ele>1076.6</ele>
        <time>2026-08-04T09:36:41Z</time>
      </trkpt>
			<trkpt lat="37.56627" lon="-3.87806">
        <ele>1078.5</ele>
        <time>2026-08-04T09:36:49Z</time>
      </trkpt>
			<trkpt lat="37.56629" lon="-3.87783">
        <ele>1079.7</ele>
        <time>2026-08-04T09:36:55Z</time>
      </trkpt>
			<trkpt lat="37.5663" lon="-3.87747">
        <ele>1081.4</ele>
        <time>2026-08-04T09:37:03Z</time>
      </trkpt>
			<trkpt lat="37.5663" lon="-3.87711">
        <ele>1083</ele>
        <time>2026-08-04T09:37:11Z</time>
      </trkpt>
			<trkpt lat="37.56632" lon="-3.87692">
        <ele>1083.8</ele>
        <time>2026-08-04T09:37:15Z</time>
      </trkpt>
			<trkpt lat="37.56637" lon="-3.87677">
        <ele>1084.4</ele>
        <time>2026-08-04T09:37:19Z</time>
      </trkpt>
			<trkpt lat="37.56647" lon="-3.87653">
        <ele>1085.4</ele>
        <time>2026-08-04T09:37:24Z</time>
      </trkpt>
			<trkpt lat="37.56652" lon="-3.87639">
        <ele>1085.8</ele>
        <time>2026-08-04T09:37:27Z</time>
      </trkpt>
			<trkpt lat="37.56655" lon="-3.8762">
        <ele>1086.4</ele>
        <time>2026-08-04T09:37:31Z</time>
      </trkpt>
			<trkpt lat="37.56657" lon="-3.8759">
        <ele>1087.3</ele>
        <time>2026-08-04T09:37:36Z</time>
      </trkpt>
			<trkpt lat="37.56658" lon="-3.87559">
        <ele>1088.1</ele>
        <time>2026-08-04T09:37:41Z</time>
      </trkpt>
			<trkpt lat="37.56657" lon="-3.87534">
        <ele>1088.7</ele>
        <time>2026-08-04T09:37:46Z</time>
      </trkpt>
			<trkpt lat="37.56649" lon="-3.87482">
        <ele>1089.9</ele>
        <time>2026-08-04T09:37:55Z</time>
      </trkpt>
			<trkpt lat="37.56641" lon="-3.8743">
        <ele>1091.1</ele>
        <time>2026-08-04T09:38:04Z</time>
      </trkpt>
			<trkpt lat="37.56638" lon="-3.87412">
        <ele>1091.5</ele>
        <time>2026-08-04T09:38:07Z</time>
      </trkpt>
			<trkpt lat="37.56639" lon="-3.87375">
        <ele>1092.3</ele>
        <time>2026-08-04T09:38:13Z</time>
      </trkpt>
			<trkpt lat="37.56639" lon="-3.87338">
        <ele>1093.1</ele>
        <time>2026-08-04T09:38:18Z</time>
      </trkpt>
			<trkpt lat="37.56638" lon="-3.87316">
        <ele>1093.5</ele>
        <time>2026-08-04T09:38:22Z</time>
      </trkpt>
			<trkpt lat="37.56634" lon="-3.8729">
        <ele>1094.1</ele>
        <time>2026-08-04T09:38:26Z</time>
      </trkpt>
			<trkpt lat="37.56625" lon="-3.87256">
        <ele>1094.8</ele>
        <time>2026-08-04T09:38:32Z</time>
      </trkpt>
			<trkpt lat="37.56613" lon="-3.87213">
        <ele>1095.7</ele>
        <time>2026-08-04T09:38:39Z</time>
      </trkpt>
			<trkpt lat="37.56601" lon="-3.87171">
        <ele>1096.5</ele>
        <time>2026-08-04T09:38:45Z</time>
      </trkpt>
			<trkpt lat="37.56588" lon="-3.87128">
        <ele>1097.3</ele>
        <time>2026-08-04T09:38:52Z</time>
      </trkpt>
			<trkpt lat="37.56576" lon="-3.87086">
        <ele>1098</ele>
        <time>2026-08-04T09:38:59Z</time>
      </trkpt>
			<trkpt lat="37.56569" lon="-3.87086">
        <ele>1098.1</ele>
        <time>2026-08-04T09:39:00Z</time>
      </trkpt>
		</trkseg>
	</trk>
</gpx>
