<?xml version="1.0" encoding="UTF-8"?>
<gpx creator="Wikiloc - https://www.wikiloc.com" version="1.1" xmlns="http://www.topografix.com/GPX/1/1" xmlns:xsi="http://www.w3.org/2001/XMLSchema-instance" xsi:schemaLocation="http://www.topografix.com/GPX/1/1 http://www.topografix.com/GPX/1/1/gpx.xsd">
  <metadata>
    <name>Wikiloc - Puerto de El Boyar desde El Bosque (Cádiz)</name>
    <link href="https://www.wikiloc.com/cycling-trails/puerto-de-el-boyar-desde-el-bosque-cadiz-46087970">
      <text>Puerto de El Boyar desde El Bosque (Cádiz) - Wikiloc on Wikiloc</text>
    </link>
    <time>2019-10-20T15:59:53Z</time>
  </metadata>
  <trk>
    <name>Puerto de El Boyar desde El Bosque (Cádiz) - Wikiloc</name>
    <cmt></cmt>
    <desc></desc>
    <trkseg>
      <trkpt lat="36.752248" lon="-5.506723">
        <ele>294.685</ele>
        <time>2019-10-20T15:08:05Z</time>
      </trkpt>
      <trkpt lat="36.752266" lon="-5.506409">
        <ele>295.989</ele>
        <time>2019-10-20T15:08:32Z</time>
      </trkpt>
      <trkpt lat="36.752654" lon="-5.506069">
        <ele>298.917</ele>
        <time>2019-10-20T15:08:42Z</time>
      </trkpt>
      <trkpt lat="36.753872" lon="-5.505760">
        <ele>306.708</ele>
        <time>2019-10-20T15:09:12Z</time>
      </trkpt>
      <trkpt lat="36.754956" lon="-5.505312">
        <ele>313.612</ele>
        <time>2019-10-20T15:09:38Z</time>
      </trkpt>
      <trkpt lat="36.755850" lon="-5.504088">
        <ele>324.084</ele>
        <time>2019-10-20T15:10:08Z</time>
      </trkpt>
      <trkpt lat="36.756290" lon="-5.502905">
        <ele>333.248</ele>
        <time>2019-10-20T15:10:32Z</time>
      </trkpt>
      <trkpt lat="36.756590" lon="-5.502455">
        <ele>336.666</ele>
        <time>2019-10-20T15:10:44Z</time>
      </trkpt>
      <trkpt lat="36.756911" lon="-5.502371">
        <ele>340.035</ele>
        <time>2019-10-20T15:10:51Z</time>
      </trkpt>
      <trkpt lat="36.758005" lon="-5.502432">
        <ele>346.177</ele>
        <time>2019-10-20T15:11:17Z</time>
      </trkpt>
      <trkpt lat="36.758326" lon="-5.502316">
        <ele>346.895</ele>
        <time>2019-10-20T15:11:25Z</time>
      </trkpt>
      <trkpt lat="36.758472" lon="-5.501964">
        <ele>349.148</ele>
        <time>2019-10-20T15:11:33Z</time>
      </trkpt>
      <trkpt lat="36.758333" lon="-5.501229">
        <ele>355.491</ele>
        <time>2019-10-20T15:11:47Z</time>
      </trkpt>
      <trkpt lat="36.758528" lon="-5.500919">
        <ele>355.781</ele>
        <time>2019-10-20T15:11:54Z</time>
      </trkpt>
      <trkpt lat="36.758934" lon="-5.500733">
        <ele>358.419</ele>
        <time>2019-10-20T15:12:04Z</time>
      </trkpt>
      <trkpt lat="36.759908" lon="-5.500759">
        <ele>361.808</ele>
        <time>2019-10-20T15:12:27Z</time>
      </trkpt>
      <trkpt lat="36.760186" lon="-5.500606">
        <ele>363.323</ele>
        <time>2019-10-20T15:12:33Z</time>
      </trkpt>
      <trkpt lat="36.760762" lon="-5.499645">
        <ele>365.945</ele>
        <time>2019-10-20T15:12:52Z</time>
      </trkpt>
      <trkpt lat="36.761411" lon="-5.498209">
        <ele>371.379</ele>
        <time>2019-10-20T15:13:19Z</time>
      </trkpt>
      <trkpt lat="36.761830" lon="-5.497975">
        <ele>374.337</ele>
        <time>2019-10-20T15:13:28Z</time>
      </trkpt>
      <trkpt lat="36.762457" lon="-5.498013">
        <ele>378.566</ele>
        <time>2019-10-20T15:13:39Z</time>
      </trkpt>
      <trkpt lat="36.762716" lon="-5.497929">
        <ele>380.728</ele>
        <time>2019-10-20T15:13:43Z</time>
      </trkpt>
      <trkpt lat="36.763189" lon="-5.497113">
        <ele>387.426</ele>
        <time>2019-10-20T15:14:00Z</time>
      </trkpt>
      <trkpt lat="36.763256" lon="-5.496237">
        <ele>392.399</ele>
        <time>2019-10-20T15:14:17Z</time>
      </trkpt>
      <trkpt lat="36.763388" lon="-5.495904">
        <ele>394.389</ele>
        <time>2019-10-20T15:14:24Z</time>
      </trkpt>
      <trkpt lat="36.765574" lon="-5.493941">
        <ele>409.006</ele>
        <time>2019-10-20T15:15:23Z</time>
      </trkpt>
      <trkpt lat="36.766124" lon="-5.492422">
        <ele>417.226</ele>
        <time>2019-10-20T15:15:54Z</time>
      </trkpt>
      <trkpt lat="36.766990" lon="-5.492054">
        <ele>424.908</ele>
        <time>2019-10-20T15:16:16Z</time>
      </trkpt>
      <trkpt lat="36.767768" lon="-5.489980">
        <ele>442.932</ele>
        <time>2019-10-20T15:17:00Z</time>
      </trkpt>
      <trkpt lat="36.768432" lon="-5.489155">
        <ele>450.894</ele>
        <time>2019-10-20T15:17:23Z</time>
      </trkpt>
      <trkpt lat="36.768633" lon="-5.488706">
        <ele>453.988</ele>
        <time>2019-10-20T15:17:33Z</time>
      </trkpt>
      <trkpt lat="36.768718" lon="-5.485753">
        <ele>469.496</ele>
        <time>2019-10-20T15:18:30Z</time>
      </trkpt>
      <trkpt lat="36.768613" lon="-5.485367">
        <ele>470.345</ele>
        <time>2019-10-20T15:18:38Z</time>
      </trkpt>
      <trkpt lat="36.768584" lon="-5.483914">
        <ele>472.677</ele>
        <time>2019-10-20T15:18:58Z</time>
      </trkpt>
      <trkpt lat="36.769771" lon="-5.481159">
        <ele>475.845</ele>
        <time>2019-10-20T15:19:38Z</time>
      </trkpt>
      <trkpt lat="36.769430" lon="-5.479217">
        <ele>471.948</ele>
        <time>2019-10-20T15:19:59Z</time>
      </trkpt>
      <trkpt lat="36.768891" lon="-5.477690">
        <ele>469.386</ele>
        <time>2019-10-20T15:20:16Z</time>
      </trkpt>
      <trkpt lat="36.768507" lon="-5.476977">
        <ele>465.060</ele>
        <time>2019-10-20T15:20:24Z</time>
      </trkpt>
      <trkpt lat="36.768525" lon="-5.476577">
        <ele>463.026</ele>
        <time>2019-10-20T15:20:27Z</time>
      </trkpt>
      <trkpt lat="36.768309" lon="-5.475510">
        <ele>456.908</ele>
        <time>2019-10-20T15:20:35Z</time>
      </trkpt>
      <trkpt lat="36.767798" lon="-5.474575">
        <ele>449.182</ele>
        <time>2019-10-20T15:20:43Z</time>
      </trkpt>
      <trkpt lat="36.767115" lon="-5.474189">
        <ele>445.184</ele>
        <time>2019-10-20T15:20:50Z</time>
      </trkpt>
      <trkpt lat="36.766940" lon="-5.473964">
        <ele>443.498</ele>
        <time>2019-10-20T15:20:52Z</time>
      </trkpt>
      <trkpt lat="36.766808" lon="-5.473705">
        <ele>441.296</ele>
        <time>2019-10-20T15:20:54Z</time>
      </trkpt>
      <trkpt lat="36.766751" lon="-5.473128">
        <ele>435.445</ele>
        <time>2019-10-20T15:20:59Z</time>
      </trkpt>
      <trkpt lat="36.766350" lon="-5.472761">
        <ele>438.167</ele>
        <time>2019-10-20T15:21:06Z</time>
      </trkpt>
      <trkpt lat="36.764813" lon="-5.472481">
        <ele>451.025</ele>
        <time>2019-10-20T15:21:37Z</time>
      </trkpt>
      <trkpt lat="36.764274" lon="-5.472531">
        <ele>455.388</ele>
        <time>2019-10-20T15:21:50Z</time>
      </trkpt>
      <trkpt lat="36.763555" lon="-5.472813">
        <ele>462.281</ele>
        <time>2019-10-20T15:22:07Z</time>
      </trkpt>
      <trkpt lat="36.762498" lon="-5.472864">
        <ele>468.761</ele>
        <time>2019-10-20T15:22:32Z</time>
      </trkpt>
      <trkpt lat="36.762253" lon="-5.472465">
        <ele>469.217</ele>
        <time>2019-10-20T15:22:40Z</time>
      </trkpt>
      <trkpt lat="36.762158" lon="-5.471200">
        <ele>474.808</ele>
        <time>2019-10-20T15:23:03Z</time>
      </trkpt>
      <trkpt lat="36.760488" lon="-5.468119">
        <ele>478.222</ele>
        <time>2019-10-20T15:23:56Z</time>
      </trkpt>
      <trkpt lat="36.759828" lon="-5.467205">
        <ele>480.994</ele>
        <time>2019-10-20T15:24:11Z</time>
      </trkpt>
      <trkpt lat="36.758954" lon="-5.466529">
        <ele>484.358</ele>
        <time>2019-10-20T15:24:29Z</time>
      </trkpt>
      <trkpt lat="36.758054" lon="-5.465633">
        <ele>493.546</ele>
        <time>2019-10-20T15:24:53Z</time>
      </trkpt>
      <trkpt lat="36.757796" lon="-5.465229">
        <ele>497.335</ele>
        <time>2019-10-20T15:25:03Z</time>
      </trkpt>
      <trkpt lat="36.757622" lon="-5.464629">
        <ele>501.457</ele>
        <time>2019-10-20T15:25:16Z</time>
      </trkpt>
      <trkpt lat="36.757865" lon="-5.464337">
        <ele>504.415</ele>
        <time>2019-10-20T15:25:27Z</time>
      </trkpt>
      <trkpt lat="36.758362" lon="-5.464452">
        <ele>508.338</ele>
        <time>2019-10-20T15:25:42Z</time>
      </trkpt>
      <trkpt lat="36.758879" lon="-5.464100">
        <ele>511.423</ele>
        <time>2019-10-20T15:25:56Z</time>
      </trkpt>
      <trkpt lat="36.759606" lon="-5.464119">
        <ele>514.683</ele>
        <time>2019-10-20T15:26:14Z</time>
      </trkpt>
      <trkpt lat="36.760051" lon="-5.463978">
        <ele>518.311</ele>
        <time>2019-10-20T15:26:27Z</time>
      </trkpt>
      <trkpt lat="36.760079" lon="-5.463100">
        <ele>524.008</ele>
        <time>2019-10-20T15:26:46Z</time>
      </trkpt>
      <trkpt lat="36.760561" lon="-5.461878">
        <ele>530.376</ele>
        <time>2019-10-20T15:27:16Z</time>
      </trkpt>
      <trkpt lat="36.760464" lon="-5.461793">
        <ele>531.248</ele>
        <time>2019-10-20T15:27:19Z</time>
      </trkpt>
      <trkpt lat="36.760388" lon="-5.461852">
        <ele>533.682</ele>
        <time>2019-10-20T15:27:21Z</time>
      </trkpt>
      <trkpt lat="36.760292" lon="-5.462214">
        <ele>537.280</ele>
        <time>2019-10-20T15:27:55Z</time>
      </trkpt>
      <trkpt lat="36.759867" lon="-5.462653">
        <ele>541.879</ele>
        <time>2019-10-20T15:28:11Z</time>
      </trkpt>
      <trkpt lat="36.759608" lon="-5.463494">
        <ele>548.731</ele>
        <time>2019-10-20T15:28:31Z</time>
      </trkpt>
      <trkpt lat="36.759413" lon="-5.463602">
        <ele>550.779</ele>
        <time>2019-10-20T15:28:41Z</time>
      </trkpt>
      <trkpt lat="36.758084" lon="-5.463021">
        <ele>561.422</ele>
        <time>2019-10-20T15:29:21Z</time>
      </trkpt>
      <trkpt lat="36.757304" lon="-5.462169">
        <ele>570.493</ele>
        <time>2019-10-20T15:29:50Z</time>
      </trkpt>
      <trkpt lat="36.756796" lon="-5.462100">
        <ele>576.065</ele>
        <time>2019-10-20T15:30:05Z</time>
      </trkpt>
      <trkpt lat="36.756628" lon="-5.461955">
        <ele>580.121</ele>
        <time>2019-10-20T15:30:11Z</time>
      </trkpt>
      <trkpt lat="36.756815" lon="-5.461135">
        <ele>586.808</ele>
        <time>2019-10-20T15:30:30Z</time>
      </trkpt>
      <trkpt lat="36.756902" lon="-5.458878">
        <ele>603.183</ele>
        <time>2019-10-20T15:31:18Z</time>
      </trkpt>
      <trkpt lat="36.757384" lon="-5.458212">
        <ele>611.035</ele>
        <time>2019-10-20T15:31:38Z</time>
      </trkpt>
      <trkpt lat="36.757252" lon="-5.457209">
        <ele>619.489</ele>
        <time>2019-10-20T15:31:59Z</time>
      </trkpt>
      <trkpt lat="36.757314" lon="-5.456174">
        <ele>625.057</ele>
        <time>2019-10-20T15:32:20Z</time>
      </trkpt>
      <trkpt lat="36.757238" lon="-5.455714">
        <ele>628.036</ele>
        <time>2019-10-20T15:32:30Z</time>
      </trkpt>
      <trkpt lat="36.756742" lon="-5.455436">
        <ele>632.238</ele>
        <time>2019-10-20T15:32:44Z</time>
      </trkpt>
      <trkpt lat="36.756135" lon="-5.454860">
        <ele>638.486</ele>
        <time>2019-10-20T15:33:03Z</time>
      </trkpt>
      <trkpt lat="36.754487" lon="-5.455218">
        <ele>646.279</ele>
        <time>2019-10-20T15:33:41Z</time>
      </trkpt>
      <trkpt lat="36.754115" lon="-5.455178">
        <ele>648.422</ele>
        <time>2019-10-20T15:33:50Z</time>
      </trkpt>
      <trkpt lat="36.753939" lon="-5.454965">
        <ele>649.762</ele>
        <time>2019-10-20T15:33:56Z</time>
      </trkpt>
      <trkpt lat="36.753901" lon="-5.454120">
        <ele>654.108</ele>
        <time>2019-10-20T15:34:13Z</time>
      </trkpt>
      <trkpt lat="36.753763" lon="-5.453845">
        <ele>656.308</ele>
        <time>2019-10-20T15:34:19Z</time>
      </trkpt>
      <trkpt lat="36.753109" lon="-5.453575">
        <ele>662.346</ele>
        <time>2019-10-20T15:34:36Z</time>
      </trkpt>
      <trkpt lat="36.752104" lon="-5.453674">
        <ele>670.658</ele>
        <time>2019-10-20T15:35:03Z</time>
      </trkpt>
      <trkpt lat="36.751887" lon="-5.453359">
        <ele>672.712</ele>
        <time>2019-10-20T15:35:12Z</time>
      </trkpt>
      <trkpt lat="36.752079" lon="-5.452840">
        <ele>675.690</ele>
        <time>2019-10-20T15:35:24Z</time>
      </trkpt>
      <trkpt lat="36.752038" lon="-5.452671">
        <ele>676.469</ele>
        <time>2019-10-20T15:35:28Z</time>
      </trkpt>
      <trkpt lat="36.750778" lon="-5.452360">
        <ele>683.041</ele>
        <time>2019-10-20T15:35:59Z</time>
      </trkpt>
      <trkpt lat="36.750554" lon="-5.452156">
        <ele>685.049</ele>
        <time>2019-10-20T15:36:06Z</time>
      </trkpt>
      <trkpt lat="36.750641" lon="-5.451945">
        <ele>686.762</ele>
        <time>2019-10-20T15:36:11Z</time>
      </trkpt>
      <trkpt lat="36.751258" lon="-5.451996">
        <ele>691.578</ele>
        <time>2019-10-20T15:36:25Z</time>
      </trkpt>
      <trkpt lat="36.751649" lon="-5.451803">
        <ele>694.833</ele>
        <time>2019-10-20T15:36:36Z</time>
      </trkpt>
      <trkpt lat="36.752002" lon="-5.451544">
        <ele>698.226</ele>
        <time>2019-10-20T15:36:47Z</time>
      </trkpt>
      <trkpt lat="36.752102" lon="-5.451300">
        <ele>700.008</ele>
        <time>2019-10-20T15:36:53Z</time>
      </trkpt>
      <trkpt lat="36.751992" lon="-5.450946">
        <ele>702.651</ele>
        <time>2019-10-20T15:37:01Z</time>
      </trkpt>
      <trkpt lat="36.750962" lon="-5.450096">
        <ele>710.533</ele>
        <time>2019-10-20T15:37:33Z</time>
      </trkpt>
      <trkpt lat="36.750749" lon="-5.449540">
        <ele>715.097</ele>
        <time>2019-10-20T15:37:46Z</time>
      </trkpt>
      <trkpt lat="36.750870" lon="-5.449241">
        <ele>717.395</ele>
        <time>2019-10-20T15:37:53Z</time>
      </trkpt>
      <trkpt lat="36.751296" lon="-5.449018">
        <ele>721.514</ele>
        <time>2019-10-20T15:38:05Z</time>
      </trkpt>
      <trkpt lat="36.751880" lon="-5.449245">
        <ele>726.376</ele>
        <time>2019-10-20T15:38:22Z</time>
      </trkpt>
      <trkpt lat="36.752478" lon="-5.448754">
        <ele>733.544</ele>
        <time>2019-10-20T15:38:42Z</time>
      </trkpt>
      <trkpt lat="36.753226" lon="-5.448840">
        <ele>739.797</ele>
        <time>2019-10-20T15:39:02Z</time>
      </trkpt>
      <trkpt lat="36.753657" lon="-5.448116">
        <ele>745.938</ele>
        <time>2019-10-20T15:39:22Z</time>
      </trkpt>
      <trkpt lat="36.754018" lon="-5.447810">
        <ele>749.670</ele>
        <time>2019-10-20T15:39:34Z</time>
      </trkpt>
      <trkpt lat="36.754033" lon="-5.447573">
        <ele>751.317</ele>
        <time>2019-10-20T15:39:39Z</time>
      </trkpt>
      <trkpt lat="36.753674" lon="-5.446728">
        <ele>755.908</ele>
        <time>2019-10-20T15:39:59Z</time>
      </trkpt>
      <trkpt lat="36.753984" lon="-5.445765">
        <ele>762.927</ele>
        <time>2019-10-20T15:40:22Z</time>
      </trkpt>
      <trkpt lat="36.753851" lon="-5.445061">
        <ele>767.519</ele>
        <time>2019-10-20T15:40:37Z</time>
      </trkpt>
      <trkpt lat="36.753923" lon="-5.444619">
        <ele>771.453</ele>
        <time>2019-10-20T15:40:47Z</time>
      </trkpt>
      <trkpt lat="36.754392" lon="-5.444312">
        <ele>776.931</ele>
        <time>2019-10-20T15:41:00Z</time>
      </trkpt>
      <trkpt lat="36.754984" lon="-5.444361">
        <ele>781.560</ele>
        <time>2019-10-20T15:41:15Z</time>
      </trkpt>
      <trkpt lat="36.755421" lon="-5.444256">
        <ele>784.682</ele>
        <time>2019-10-20T15:41:26Z</time>
      </trkpt>
      <trkpt lat="36.756129" lon="-5.443472">
        <ele>795.320</ele>
        <time>2019-10-20T15:41:51Z</time>
      </trkpt>
      <trkpt lat="36.756327" lon="-5.442757">
        <ele>800.513</ele>
        <time>2019-10-20T15:42:09Z</time>
      </trkpt>
      <trkpt lat="36.757334" lon="-5.442561">
        <ele>811.213</ele>
        <time>2019-10-20T15:42:35Z</time>
      </trkpt>
      <trkpt lat="36.757470" lon="-5.442420">
        <ele>813.343</ele>
        <time>2019-10-20T15:42:41Z</time>
      </trkpt>
      <trkpt lat="36.757415" lon="-5.442227">
        <ele>814.907</ele>
        <time>2019-10-20T15:42:46Z</time>
      </trkpt>
      <trkpt lat="36.756741" lon="-5.441712">
        <ele>822.308</ele>
        <time>2019-10-20T15:43:07Z</time>
      </trkpt>
      <trkpt lat="36.756542" lon="-5.441404">
        <ele>826.225</ele>
        <time>2019-10-20T15:43:16Z</time>
      </trkpt>
      <trkpt lat="36.756097" lon="-5.437695">
        <ele>852.927</ele>
        <time>2019-10-20T15:44:39Z</time>
      </trkpt>
      <trkpt lat="36.755577" lon="-5.436318">
        <ele>861.041</ele>
        <time>2019-10-20T15:45:12Z</time>
      </trkpt>
      <trkpt lat="36.755034" lon="-5.435649">
        <ele>867.519</ele>
        <time>2019-10-20T15:45:33Z</time>
      </trkpt>
      <trkpt lat="36.755252" lon="-5.434250">
        <ele>879.758</ele>
        <time>2019-10-20T15:46:04Z</time>
      </trkpt>
      <trkpt lat="36.755565" lon="-5.433237">
        <ele>885.870</ele>
        <time>2019-10-20T15:46:25Z</time>
      </trkpt>
      <trkpt lat="36.755589" lon="-5.431698">
        <ele>896.298</ele>
        <time>2019-10-20T15:46:55Z</time>
      </trkpt>
      <trkpt lat="36.755361" lon="-5.430798">
        <ele>901.631</ele>
        <time>2019-10-20T15:47:14Z</time>
      </trkpt>
      <trkpt lat="36.755432" lon="-5.430092">
        <ele>905.453</ele>
        <time>2019-10-20T15:47:28Z</time>
      </trkpt>
      <trkpt lat="36.755369" lon="-5.429561">
        <ele>908.104</ele>
        <time>2019-10-20T15:47:39Z</time>
      </trkpt>
      <trkpt lat="36.755696" lon="-5.428816">
        <ele>913.814</ele>
        <time>2019-10-20T15:47:58Z</time>
      </trkpt>
      <trkpt lat="36.755476" lon="-5.427974">
        <ele>918.308</ele>
        <time>2019-10-20T15:48:17Z</time>
      </trkpt>
      <trkpt lat="36.755597" lon="-5.427368">
        <ele>922.159</ele>
        <time>2019-10-20T15:48:30Z</time>
      </trkpt>
      <trkpt lat="36.755295" lon="-5.426520">
        <ele>927.111</ele>
        <time>2019-10-20T15:48:45Z</time>
      </trkpt>
      <trkpt lat="36.755034" lon="-5.424615">
        <ele>938.275</ele>
        <time>2019-10-20T15:49:15Z</time>
      </trkpt>
      <trkpt lat="36.755122" lon="-5.423284">
        <ele>944.793</ele>
        <time>2019-10-20T15:49:36Z</time>
      </trkpt>
      <trkpt lat="36.754987" lon="-5.422422">
        <ele>949.042</ele>
        <time>2019-10-20T15:49:49Z</time>
      </trkpt>
      <trkpt lat="36.755029" lon="-5.421778">
        <ele>952.014</ele>
        <time>2019-10-20T15:49:59Z</time>
      </trkpt>
      <trkpt lat="36.755417" lon="-5.420138">
        <ele>960.542</ele>
        <time>2019-10-20T15:50:25Z</time>
      </trkpt>
      <trkpt lat="36.756032" lon="-5.418469">
        <ele>971.645</ele>
        <time>2019-10-20T15:50:54Z</time>
      </trkpt>
      <trkpt lat="36.756386" lon="-5.417846">
        <ele>975.014</ele>
        <time>2019-10-20T15:51:08Z</time>
      </trkpt>
      <trkpt lat="36.756755" lon="-5.416657">
        <ele>980.054</ele>
        <time>2019-10-20T15:51:33Z</time>
      </trkpt>
      <trkpt lat="36.756816" lon="-5.415992">
        <ele>982.909</ele>
        <time>2019-10-20T15:51:46Z</time>
      </trkpt>
      <trkpt lat="36.756666" lon="-5.415120">
        <ele>986.408</ele>
        <time>2019-10-20T15:52:04Z</time>
      </trkpt>
      <trkpt lat="36.756698" lon="-5.414654">
        <ele>988.755</ele>
        <time>2019-10-20T15:52:12Z</time>
      </trkpt>
      <trkpt lat="36.756518" lon="-5.413936">
        <ele>992.447</ele>
        <time>2019-10-20T15:52:27Z</time>
      </trkpt>
      <trkpt lat="36.756030" lon="-5.412886">
        <ele>1002.491</ele>
        <time>2019-10-20T15:52:49Z</time>
      </trkpt>
      <trkpt lat="36.756107" lon="-5.412171">
        <ele>1006.899</ele>
        <time>2019-10-20T15:53:02Z</time>
      </trkpt>
      <trkpt lat="36.756406" lon="-5.411363">
        <ele>1011.418</ele>
        <time>2019-10-20T15:53:20Z</time>
      </trkpt>
      <trkpt lat="36.756368" lon="-5.409594">
        <ele>1020.610</ele>
        <time>2019-10-20T15:53:55Z</time>
      </trkpt>
      <trkpt lat="36.756221" lon="-5.409279">
        <ele>1022.638</ele>
        <time>2019-10-20T15:54:02Z</time>
      </trkpt>
      <trkpt lat="36.755665" lon="-5.408741">
        <ele>1027.671</ele>
        <time>2019-10-20T15:54:20Z</time>
      </trkpt>
      <trkpt lat="36.755419" lon="-5.408310">
        <ele>1031.321</ele>
        <time>2019-10-20T15:54:30Z</time>
      </trkpt>
      <trkpt lat="36.755364" lon="-5.407385">
        <ele>1037.941</ele>
        <time>2019-10-20T15:54:49Z</time>
      </trkpt>
      <trkpt lat="36.755515" lon="-5.406781">
        <ele>1041.405</ele>
        <time>2019-10-20T15:55:02Z</time>
      </trkpt>
      <trkpt lat="36.756247" lon="-5.405197">
        <ele>1051.108</ele>
        <time>2019-10-20T15:55:39Z</time>
      </trkpt>
      <trkpt lat="36.756403" lon="-5.404580">
        <ele>1054.396</ele>
        <time>2019-10-20T15:55:51Z</time>
      </trkpt>
      <trkpt lat="36.756395" lon="-5.403889">
        <ele>1058.588</ele>
        <time>2019-10-20T15:56:03Z</time>
      </trkpt>
      <trkpt lat="36.756480" lon="-5.403734">
        <ele>1059.822</ele>
        <time>2019-10-20T15:56:05Z</time>
      </trkpt>
      <trkpt lat="36.756575" lon="-5.403795">
        <ele>1060.940</ele>
        <time>2019-10-20T15:56:07Z</time>
      </trkpt>
      <trkpt lat="36.756488" lon="-5.403816">
        <ele>1061.679</ele>
        <time>2019-10-20T15:56:09Z</time>
      </trkpt>
      <trkpt lat="36.756433" lon="-5.403530">
        <ele>1063.751</ele>
        <time>2019-10-20T15:56:14Z</time>
      </trkpt>
      <trkpt lat="36.756740" lon="-5.402333">
        <ele>1071.219</ele>
        <time>2019-10-20T15:56:37Z</time>
      </trkpt>
      <trkpt lat="36.757021" lon="-5.401766">
        <ele>1075.162</ele>
        <time>2019-10-20T15:56:50Z</time>
      </trkpt>
      <trkpt lat="36.757382" lon="-5.401619">
        <ele>1078.366</ele>
        <time>2019-10-20T15:56:59Z</time>
      </trkpt>
      <trkpt lat="36.757529" lon="-5.401257">
        <ele>1081.429</ele>
        <time>2019-10-20T15:57:09Z</time>
      </trkpt>
      <trkpt lat="36.757054" lon="-5.400611">
        <ele>1086.121</ele>
        <time>2019-10-20T15:57:24Z</time>
      </trkpt>
      <trkpt lat="36.756920" lon="-5.400211">
        <ele>1088.608</ele>
        <time>2019-10-20T15:57:32Z</time>
      </trkpt>
      <trkpt lat="36.757243" lon="-5.399543">
        <ele>1093.140</ele>
        <time>2019-10-20T15:57:48Z</time>
      </trkpt>
      <trkpt lat="36.757273" lon="-5.399233">
        <ele>1094.962</ele>
        <time>2019-10-20T15:57:54Z</time>
      </trkpt>
      <trkpt lat="36.757067" lon="-5.398133">
        <ele>1100.416</ele>
        <time>2019-10-20T15:58:17Z</time>
      </trkpt>
      <trkpt lat="36.757053" lon="-5.396055">
        <ele>1105.244</ele>
        <time>2019-10-20T15:58:51Z</time>
      </trkpt>
      <trkpt lat="36.756561" lon="-5.395444">
        <ele>1104.193</ele>
        <time>2019-10-20T15:59:04Z</time>
      </trkpt>
      <trkpt lat="36.755745" lon="-5.394888">
        <ele>1097.775</ele>
        <time>2019-10-20T15:59:21Z</time>
      </trkpt>
      <trkpt lat="36.755387" lon="-5.394437">
        <ele>1096.093</ele>
        <time>2019-10-20T15:59:31Z</time>
      </trkpt>
      <trkpt lat="36.755042" lon="-5.394281">
        <ele>1095.366</ele>
        <time>2019-10-20T15:59:36Z</time>
      </trkpt>
      <trkpt lat="36.754848" lon="-5.394042">
        <ele>1094.575</ele>
        <time>2019-10-20T15:59:53Z</time>
      </trkpt>
    </trkseg>
  </trk></gpx>