<?xml version="1.0" encoding="UTF-8"?>
<gpx creator="Wikiloc - https://www.wikiloc.com" version="1.1" xmlns="http://www.topografix.com/GPX/1/1" xmlns:xsi="http://www.w3.org/2001/XMLSchema-instance" xsi:schemaLocation="http://www.topografix.com/GPX/1/1 http://www.topografix.com/GPX/1/1/gpx.xsd">
  <metadata>
    <name>Wikiloc - Puerto Picon Blanco 1.519m , desde Espinosa de Los Monteros ...</name>
    <link href="https://www.wikiloc.com/cycling-trails/puerto-picon-blanco-1-519m-desde-espinosa-de-los-monteros-burgos-217513538">
      <text>Puerto Picon Blanco 1.519m , desde Espinosa de Los Monteros ... on Wikiloc</text>
    </link>
    <time>2025-06-07T08:47:44Z</time>
  </metadata>
  <trk>
    <name>Puerto Picon Blanco 1.519m , desde Espinosa de Los Monteros ... - Wikiloc</name>
    <cmt></cmt>
    <desc></desc>
    <trkseg>
      <trkpt lat="43.078256" lon="-3.552440">
        <ele>751.537</ele>
        <time>2025-06-07T07:57:30Z</time>
      </trkpt>
      <trkpt lat="43.078323" lon="-3.552428">
        <ele>751.649</ele>
        <time>2025-06-07T07:57:47Z</time>
      </trkpt>
      <trkpt lat="43.078311" lon="-3.552226">
        <ele>752.713</ele>
        <time>2025-06-07T07:57:51Z</time>
      </trkpt>
      <trkpt lat="43.078157" lon="-3.551034">
        <ele>756.209</ele>
        <time>2025-06-07T07:58:16Z</time>
      </trkpt>
      <trkpt lat="43.078854" lon="-3.550990">
        <ele>759.815</ele>
        <time>2025-06-07T07:58:37Z</time>
      </trkpt>
      <trkpt lat="43.078944" lon="-3.550751">
        <ele>761.344</ele>
        <time>2025-06-07T07:58:43Z</time>
      </trkpt>
      <trkpt lat="43.078976" lon="-3.550437">
        <ele>763.360</ele>
        <time>2025-06-07T07:58:50Z</time>
      </trkpt>
      <trkpt lat="43.079384" lon="-3.549624">
        <ele>768.288</ele>
        <time>2025-06-07T07:59:12Z</time>
      </trkpt>
      <trkpt lat="43.079451" lon="-3.549319">
        <ele>769.784</ele>
        <time>2025-06-07T07:59:19Z</time>
      </trkpt>
      <trkpt lat="43.079436" lon="-3.548947">
        <ele>771.926</ele>
        <time>2025-06-07T07:59:27Z</time>
      </trkpt>
      <trkpt lat="43.079541" lon="-3.548527">
        <ele>775.798</ele>
        <time>2025-06-07T07:59:54Z</time>
      </trkpt>
      <trkpt lat="43.079877" lon="-3.548119">
        <ele>782.146</ele>
        <time>2025-06-07T08:00:13Z</time>
      </trkpt>
      <trkpt lat="43.080683" lon="-3.547646">
        <ele>794.141</ele>
        <time>2025-06-07T08:00:51Z</time>
      </trkpt>
      <trkpt lat="43.080783" lon="-3.547499">
        <ele>795.613</ele>
        <time>2025-06-07T08:00:57Z</time>
      </trkpt>
      <trkpt lat="43.080794" lon="-3.547356">
        <ele>796.243</ele>
        <time>2025-06-07T08:01:01Z</time>
      </trkpt>
      <trkpt lat="43.080708" lon="-3.547164">
        <ele>797.207</ele>
        <time>2025-06-07T08:01:06Z</time>
      </trkpt>
      <trkpt lat="43.080236" lon="-3.546685">
        <ele>800.909</ele>
        <time>2025-06-07T08:01:27Z</time>
      </trkpt>
      <trkpt lat="43.080128" lon="-3.546479">
        <ele>802.073</ele>
        <time>2025-06-07T08:01:33Z</time>
      </trkpt>
      <trkpt lat="43.080181" lon="-3.545682">
        <ele>804.262</ele>
        <time>2025-06-07T08:01:49Z</time>
      </trkpt>
      <trkpt lat="43.080146" lon="-3.544931">
        <ele>807.978</ele>
        <time>2025-06-07T08:02:04Z</time>
      </trkpt>
      <trkpt lat="43.080462" lon="-3.543966">
        <ele>811.676</ele>
        <time>2025-06-07T08:02:25Z</time>
      </trkpt>
      <trkpt lat="43.080558" lon="-3.543854">
        <ele>811.782</ele>
        <time>2025-06-07T08:02:28Z</time>
      </trkpt>
      <trkpt lat="43.080730" lon="-3.543798">
        <ele>811.774</ele>
        <time>2025-06-07T08:02:32Z</time>
      </trkpt>
      <trkpt lat="43.081142" lon="-3.543889">
        <ele>811.886</ele>
        <time>2025-06-07T08:02:42Z</time>
      </trkpt>
      <trkpt lat="43.081300" lon="-3.543807">
        <ele>812.064</ele>
        <time>2025-06-07T08:02:46Z</time>
      </trkpt>
      <trkpt lat="43.081454" lon="-3.543168">
        <ele>815.879</ele>
        <time>2025-06-07T08:03:01Z</time>
      </trkpt>
      <trkpt lat="43.081623" lon="-3.542740">
        <ele>819.078</ele>
        <time>2025-06-07T08:03:13Z</time>
      </trkpt>
      <trkpt lat="43.081789" lon="-3.542517">
        <ele>821.933</ele>
        <time>2025-06-07T08:03:21Z</time>
      </trkpt>
      <trkpt lat="43.082209" lon="-3.542183">
        <ele>827.926</ele>
        <time>2025-06-07T08:03:42Z</time>
      </trkpt>
      <trkpt lat="43.082576" lon="-3.541080">
        <ele>833.809</ele>
        <time>2025-06-07T08:04:16Z</time>
      </trkpt>
      <trkpt lat="43.083144" lon="-3.539813">
        <ele>838.299</ele>
        <time>2025-06-07T08:04:42Z</time>
      </trkpt>
      <trkpt lat="43.083302" lon="-3.539659">
        <ele>838.968</ele>
        <time>2025-06-07T08:04:47Z</time>
      </trkpt>
      <trkpt lat="43.083436" lon="-3.539614">
        <ele>839.674</ele>
        <time>2025-06-07T08:04:51Z</time>
      </trkpt>
      <trkpt lat="43.083605" lon="-3.539653">
        <ele>840.822</ele>
        <time>2025-06-07T08:04:56Z</time>
      </trkpt>
      <trkpt lat="43.084018" lon="-3.539905">
        <ele>845.598</ele>
        <time>2025-06-07T08:05:11Z</time>
      </trkpt>
      <trkpt lat="43.084167" lon="-3.539891">
        <ele>847.240</ele>
        <time>2025-06-07T08:05:16Z</time>
      </trkpt>
      <trkpt lat="43.084221" lon="-3.539797">
        <ele>847.952</ele>
        <time>2025-06-07T08:05:19Z</time>
      </trkpt>
      <trkpt lat="43.084177" lon="-3.539414">
        <ele>849.510</ele>
        <time>2025-06-07T08:05:28Z</time>
      </trkpt>
      <trkpt lat="43.084209" lon="-3.539110">
        <ele>850.855</ele>
        <time>2025-06-07T08:05:35Z</time>
      </trkpt>
      <trkpt lat="43.084422" lon="-3.538594">
        <ele>853.796</ele>
        <time>2025-06-07T08:05:49Z</time>
      </trkpt>
      <trkpt lat="43.084610" lon="-3.538411">
        <ele>856.331</ele>
        <time>2025-06-07T08:05:59Z</time>
      </trkpt>
      <trkpt lat="43.085423" lon="-3.538031">
        <ele>867.924</ele>
        <time>2025-06-07T08:06:35Z</time>
      </trkpt>
      <trkpt lat="43.085824" lon="-3.537671">
        <ele>874.309</ele>
        <time>2025-06-07T08:06:57Z</time>
      </trkpt>
      <trkpt lat="43.086569" lon="-3.536360">
        <ele>890.651</ele>
        <time>2025-06-07T08:07:49Z</time>
      </trkpt>
      <trkpt lat="43.087174" lon="-3.535667">
        <ele>898.980</ele>
        <time>2025-06-07T08:08:19Z</time>
      </trkpt>
      <trkpt lat="43.087712" lon="-3.534940">
        <ele>910.656</ele>
        <time>2025-06-07T08:08:54Z</time>
      </trkpt>
      <trkpt lat="43.088469" lon="-3.534168">
        <ele>923.414</ele>
        <time>2025-06-07T08:09:37Z</time>
      </trkpt>
      <trkpt lat="43.088763" lon="-3.533941">
        <ele>926.990</ele>
        <time>2025-06-07T08:09:49Z</time>
      </trkpt>
      <trkpt lat="43.089173" lon="-3.533773">
        <ele>929.642</ele>
        <time>2025-06-07T08:10:03Z</time>
      </trkpt>
      <trkpt lat="43.089884" lon="-3.533798">
        <ele>934.664</ele>
        <time>2025-06-07T08:10:31Z</time>
      </trkpt>
      <trkpt lat="43.090535" lon="-3.533923">
        <ele>941.852</ele>
        <time>2025-06-07T08:10:54Z</time>
      </trkpt>
      <trkpt lat="43.091151" lon="-3.534447">
        <ele>951.587</ele>
        <time>2025-06-07T08:11:24Z</time>
      </trkpt>
      <trkpt lat="43.091795" lon="-3.535298">
        <ele>962.672</ele>
        <time>2025-06-07T08:12:02Z</time>
      </trkpt>
      <trkpt lat="43.092707" lon="-3.537260">
        <ele>981.213</ele>
        <time>2025-06-07T08:13:09Z</time>
      </trkpt>
      <trkpt lat="43.093018" lon="-3.537701">
        <ele>986.614</ele>
        <time>2025-06-07T08:13:27Z</time>
      </trkpt>
      <trkpt lat="43.093784" lon="-3.537953">
        <ele>991.809</ele>
        <time>2025-06-07T08:13:55Z</time>
      </trkpt>
      <trkpt lat="43.094118" lon="-3.538147">
        <ele>993.799</ele>
        <time>2025-06-07T08:14:05Z</time>
      </trkpt>
      <trkpt lat="43.094470" lon="-3.538143">
        <ele>995.648</ele>
        <time>2025-06-07T08:14:13Z</time>
      </trkpt>
      <trkpt lat="43.095309" lon="-3.537894">
        <ele>1002.454</ele>
        <time>2025-06-07T08:14:38Z</time>
      </trkpt>
      <trkpt lat="43.095582" lon="-3.537734">
        <ele>1004.032</ele>
        <time>2025-06-07T08:14:47Z</time>
      </trkpt>
      <trkpt lat="43.096169" lon="-3.536862">
        <ele>1009.058</ele>
        <time>2025-06-07T08:15:14Z</time>
      </trkpt>
      <trkpt lat="43.096873" lon="-3.535954">
        <ele>1014.480</ele>
        <time>2025-06-07T08:15:43Z</time>
      </trkpt>
      <trkpt lat="43.097223" lon="-3.535737">
        <ele>1016.182</ele>
        <time>2025-06-07T08:15:54Z</time>
      </trkpt>
      <trkpt lat="43.097613" lon="-3.535599">
        <ele>1018.730</ele>
        <time>2025-06-07T08:16:06Z</time>
      </trkpt>
      <trkpt lat="43.098007" lon="-3.535339">
        <ele>1022.885</ele>
        <time>2025-06-07T08:16:21Z</time>
      </trkpt>
      <trkpt lat="43.098432" lon="-3.534904">
        <ele>1028.632</ele>
        <time>2025-06-07T08:16:39Z</time>
      </trkpt>
      <trkpt lat="43.098681" lon="-3.534454">
        <ele>1032.692</ele>
        <time>2025-06-07T08:16:57Z</time>
      </trkpt>
      <trkpt lat="43.099467" lon="-3.533388">
        <ele>1043.811</ele>
        <time>2025-06-07T08:17:39Z</time>
      </trkpt>
      <trkpt lat="43.100415" lon="-3.532577">
        <ele>1059.409</ele>
        <time>2025-06-07T08:18:24Z</time>
      </trkpt>
      <trkpt lat="43.100763" lon="-3.532356">
        <ele>1066.465</ele>
        <time>2025-06-07T08:18:39Z</time>
      </trkpt>
      <trkpt lat="43.101495" lon="-3.532075">
        <ele>1080.474</ele>
        <time>2025-06-07T08:19:19Z</time>
      </trkpt>
      <trkpt lat="43.101897" lon="-3.531968">
        <ele>1088.120</ele>
        <time>2025-06-07T08:19:41Z</time>
      </trkpt>
      <trkpt lat="43.102315" lon="-3.531939">
        <ele>1095.898</ele>
        <time>2025-06-07T08:20:04Z</time>
      </trkpt>
      <trkpt lat="43.102860" lon="-3.531703">
        <ele>1104.764</ele>
        <time>2025-06-07T08:20:33Z</time>
      </trkpt>
      <trkpt lat="43.103605" lon="-3.531759">
        <ele>1113.576</ele>
        <time>2025-06-07T08:21:08Z</time>
      </trkpt>
      <trkpt lat="43.104160" lon="-3.531892">
        <ele>1119.638</ele>
        <time>2025-06-07T08:21:30Z</time>
      </trkpt>
      <trkpt lat="43.104991" lon="-3.532338">
        <ele>1131.716</ele>
        <time>2025-06-07T08:22:11Z</time>
      </trkpt>
      <trkpt lat="43.105744" lon="-3.532077">
        <ele>1141.651</ele>
        <time>2025-06-07T08:22:43Z</time>
      </trkpt>
      <trkpt lat="43.106427" lon="-3.532224">
        <ele>1149.937</ele>
        <time>2025-06-07T08:23:13Z</time>
      </trkpt>
      <trkpt lat="43.106858" lon="-3.532114">
        <ele>1155.949</ele>
        <time>2025-06-07T08:23:33Z</time>
      </trkpt>
      <trkpt lat="43.107260" lon="-3.532126">
        <ele>1160.513</ele>
        <time>2025-06-07T08:23:51Z</time>
      </trkpt>
      <trkpt lat="43.108123" lon="-3.532427">
        <ele>1169.009</ele>
        <time>2025-06-07T08:24:27Z</time>
      </trkpt>
      <trkpt lat="43.108462" lon="-3.532314">
        <ele>1172.225</ele>
        <time>2025-06-07T08:24:40Z</time>
      </trkpt>
      <trkpt lat="43.109258" lon="-3.531760">
        <ele>1182.844</ele>
        <time>2025-06-07T08:25:14Z</time>
      </trkpt>
      <trkpt lat="43.110032" lon="-3.531368">
        <ele>1193.980</ele>
        <time>2025-06-07T08:25:50Z</time>
      </trkpt>
      <trkpt lat="43.111955" lon="-3.530860">
        <ele>1210.138</ele>
        <time>2025-06-07T08:26:57Z</time>
      </trkpt>
      <trkpt lat="43.112479" lon="-3.530784">
        <ele>1214.564</ele>
        <time>2025-06-07T08:27:14Z</time>
      </trkpt>
      <trkpt lat="43.114038" lon="-3.530887">
        <ele>1232.676</ele>
        <time>2025-06-07T08:28:14Z</time>
      </trkpt>
      <trkpt lat="43.115235" lon="-3.530734">
        <ele>1248.368</ele>
        <time>2025-06-07T08:29:06Z</time>
      </trkpt>
      <trkpt lat="43.116269" lon="-3.530934">
        <ele>1260.596</ele>
        <time>2025-06-07T08:29:50Z</time>
      </trkpt>
      <trkpt lat="43.117761" lon="-3.532139">
        <ele>1279.881</ele>
        <time>2025-06-07T08:30:59Z</time>
      </trkpt>
      <trkpt lat="43.118809" lon="-3.532740">
        <ele>1293.224</ele>
        <time>2025-06-07T08:31:45Z</time>
      </trkpt>
      <trkpt lat="43.119615" lon="-3.533039">
        <ele>1302.004</ele>
        <time>2025-06-07T08:32:17Z</time>
      </trkpt>
      <trkpt lat="43.120133" lon="-3.533319">
        <ele>1309.914</ele>
        <time>2025-06-07T08:32:38Z</time>
      </trkpt>
      <trkpt lat="43.122584" lon="-3.533980">
        <ele>1342.709</ele>
        <time>2025-06-07T08:34:31Z</time>
      </trkpt>
      <trkpt lat="43.124465" lon="-3.534380">
        <ele>1368.554</ele>
        <time>2025-06-07T08:35:49Z</time>
      </trkpt>
      <trkpt lat="43.125397" lon="-3.534738">
        <ele>1376.723</ele>
        <time>2025-06-07T08:36:22Z</time>
      </trkpt>
      <trkpt lat="43.127586" lon="-3.536187">
        <ele>1389.059</ele>
        <time>2025-06-07T08:37:23Z</time>
      </trkpt>
      <trkpt lat="43.127734" lon="-3.536503">
        <ele>1391.587</ele>
        <time>2025-06-07T08:37:31Z</time>
      </trkpt>
      <trkpt lat="43.127880" lon="-3.537112">
        <ele>1395.983</ele>
        <time>2025-06-07T08:37:46Z</time>
      </trkpt>
      <trkpt lat="43.128365" lon="-3.537961">
        <ele>1401.225</ele>
        <time>2025-06-07T08:38:50Z</time>
      </trkpt>
      <trkpt lat="43.128482" lon="-3.538884">
        <ele>1408.267</ele>
        <time>2025-06-07T08:39:17Z</time>
      </trkpt>
      <trkpt lat="43.128531" lon="-3.539922">
        <ele>1415.885</ele>
        <time>2025-06-07T08:39:47Z</time>
      </trkpt>
      <trkpt lat="43.128700" lon="-3.540817">
        <ele>1424.690</ele>
        <time>2025-06-07T08:40:15Z</time>
      </trkpt>
      <trkpt lat="43.128859" lon="-3.541217">
        <ele>1430.955</ele>
        <time>2025-06-07T08:40:33Z</time>
      </trkpt>
      <trkpt lat="43.129013" lon="-3.541128">
        <ele>1433.307</ele>
        <time>2025-06-07T08:40:42Z</time>
      </trkpt>
      <trkpt lat="43.129090" lon="-3.540926">
        <ele>1435.017</ele>
        <time>2025-06-07T08:40:52Z</time>
      </trkpt>
      <trkpt lat="43.129133" lon="-3.540259">
        <ele>1439.209</ele>
        <time>2025-06-07T08:41:15Z</time>
      </trkpt>
      <trkpt lat="43.129210" lon="-3.540005">
        <ele>1440.347</ele>
        <time>2025-06-07T08:41:24Z</time>
      </trkpt>
      <trkpt lat="43.129329" lon="-3.539854">
        <ele>1441.356</ele>
        <time>2025-06-07T08:41:39Z</time>
      </trkpt>
      <trkpt lat="43.129478" lon="-3.539909">
        <ele>1442.112</ele>
        <time>2025-06-07T08:41:46Z</time>
      </trkpt>
      <trkpt lat="43.129544" lon="-3.540008">
        <ele>1442.630</ele>
        <time>2025-06-07T08:41:50Z</time>
      </trkpt>
      <trkpt lat="43.129697" lon="-3.540854">
        <ele>1447.426</ele>
        <time>2025-06-07T08:42:14Z</time>
      </trkpt>
      <trkpt lat="43.129735" lon="-3.541637">
        <ele>1455.938</ele>
        <time>2025-06-07T08:42:42Z</time>
      </trkpt>
      <trkpt lat="43.129451" lon="-3.542749">
        <ele>1466.770</ele>
        <time>2025-06-07T08:43:28Z</time>
      </trkpt>
      <trkpt lat="43.129247" lon="-3.543305">
        <ele>1471.588</ele>
        <time>2025-06-07T08:44:15Z</time>
      </trkpt>
      <trkpt lat="43.129085" lon="-3.543596">
        <ele>1474.483</ele>
        <time>2025-06-07T08:44:27Z</time>
      </trkpt>
      <trkpt lat="43.128940" lon="-3.543755">
        <ele>1476.488</ele>
        <time>2025-06-07T08:44:59Z</time>
      </trkpt>
      <trkpt lat="43.128927" lon="-3.543720">
        <ele>1476.824</ele>
        <time>2025-06-07T08:45:05Z</time>
      </trkpt>
      <trkpt lat="43.128935" lon="-3.543794">
        <ele>1477.326</ele>
        <time>2025-06-07T08:45:32Z</time>
      </trkpt>
      <trkpt lat="43.128797" lon="-3.543991">
        <ele>1479.309</ele>
        <time>2025-06-07T08:45:39Z</time>
      </trkpt>
      <trkpt lat="43.128796" lon="-3.544276">
        <ele>1481.390</ele>
        <time>2025-06-07T08:45:46Z</time>
      </trkpt>
      <trkpt lat="43.128891" lon="-3.544511">
        <ele>1483.089</ele>
        <time>2025-06-07T08:45:55Z</time>
      </trkpt>
      <trkpt lat="43.129263" lon="-3.544997">
        <ele>1488.365</ele>
        <time>2025-06-07T08:46:13Z</time>
      </trkpt>
      <trkpt lat="43.130244" lon="-3.545432">
        <ele>1499.423</ele>
        <time>2025-06-07T08:46:50Z</time>
      </trkpt>
      <trkpt lat="43.130727" lon="-3.546054">
        <ele>1502.379</ele>
        <time>2025-06-07T08:47:12Z</time>
      </trkpt>
      <trkpt lat="43.130853" lon="-3.546078">
        <ele>1502.911</ele>
        <time>2025-06-07T08:47:16Z</time>
      </trkpt>
      <trkpt lat="43.131053" lon="-3.545941">
        <ele>1504.483</ele>
        <time>2025-06-07T08:47:27Z</time>
      </trkpt>
      <trkpt lat="43.131283" lon="-3.546686">
        <ele>1504.191</ele>
        <time>2025-06-07T08:47:44Z</time>
      </trkpt>
    </trkseg>
  </trk></gpx>