<?xml version="1.0" encoding="UTF-8"?>
<gpx creator="Wikiloc - https://www.wikiloc.com" version="1.1" xmlns="http://www.topografix.com/GPX/1/1" xmlns:xsi="http://www.w3.org/2001/XMLSchema-instance" xsi:schemaLocation="http://www.topografix.com/GPX/1/1 http://www.topografix.com/GPX/1/1/gpx.xsd">
  <metadata>
    <name>Wikiloc - PUERTO DE LA QUESERA (por Riaza)</name>
    <link href="https://www.wikiloc.com/cycling-trails/puerto-de-la-quesera-por-riaza-271797465">
      <text>PUERTO DE LA QUESERA (por Riaza) - Wikiloc on Wikiloc</text>
    </link>
    <time>2026-07-16T11:00:10.683Z</time>
  </metadata>
  <trk>
    <name>PUERTO DE LA QUESERA (por Riaza) - Wikiloc</name>
    <cmt></cmt>
    <desc></desc>
    <trkseg>
      <trkpt lat="41.243130" lon="-3.451670">
        <ele>1266.185</ele>
        <time>2026-07-16T11:00:10.682Z</time>
      </trkpt>
      <trkpt lat="41.243190" lon="-3.451400">
        <ele>1268.989</ele>
        <time>2026-07-16T11:00:30.682Z</time>
      </trkpt>
      <trkpt lat="41.243170" lon="-3.450900">
        <ele>1271.817</ele>
        <time>2026-07-16T11:00:50.682Z</time>
      </trkpt>
      <trkpt lat="41.243130" lon="-3.450740">
        <ele>1273.909</ele>
        <time>2026-07-16T11:01:10.682Z</time>
      </trkpt>
      <trkpt lat="41.243080" lon="-3.450610">
        <ele>1275.590</ele>
        <time>2026-07-16T11:01:30.682Z</time>
      </trkpt>
      <trkpt lat="41.242940" lon="-3.450400">
        <ele>1277.145</ele>
        <time>2026-07-16T11:01:50.682Z</time>
      </trkpt>
      <trkpt lat="41.242610" lon="-3.450080">
        <ele>1278.279</ele>
        <time>2026-07-16T11:02:10.682Z</time>
      </trkpt>
      <trkpt lat="41.242520" lon="-3.449960">
        <ele>1278.925</ele>
        <time>2026-07-16T11:02:30.682Z</time>
      </trkpt>
      <trkpt lat="41.242470" lon="-3.449840">
        <ele>1279.967</ele>
        <time>2026-07-16T11:02:50.682Z</time>
      </trkpt>
      <trkpt lat="41.242420" lon="-3.449290">
        <ele>1286.795</ele>
        <time>2026-07-16T11:03:10.682Z</time>
      </trkpt>
      <trkpt lat="41.242400" lon="-3.449180">
        <ele>1287.982</ele>
        <time>2026-07-16T11:03:30.682Z</time>
      </trkpt>
      <trkpt lat="41.242350" lon="-3.449080">
        <ele>1288.734</ele>
        <time>2026-07-16T11:03:50.682Z</time>
      </trkpt>
      <trkpt lat="41.242270" lon="-3.449000">
        <ele>1288.513</ele>
        <time>2026-07-16T11:04:10.682Z</time>
      </trkpt>
      <trkpt lat="41.242080" lon="-3.448860">
        <ele>1287.875</ele>
        <time>2026-07-16T11:04:30.682Z</time>
      </trkpt>
      <trkpt lat="41.241300" lon="-3.448350">
        <ele>1290.128</ele>
        <time>2026-07-16T11:04:50.682Z</time>
      </trkpt>
      <trkpt lat="41.241190" lon="-3.448260">
        <ele>1290.020</ele>
        <time>2026-07-16T11:05:10.682Z</time>
      </trkpt>
      <trkpt lat="41.241120" lon="-3.448150">
        <ele>1291.109</ele>
        <time>2026-07-16T11:05:30.682Z</time>
      </trkpt>
      <trkpt lat="41.241060" lon="-3.448000">
        <ele>1292.559</ele>
        <time>2026-07-16T11:05:50.682Z</time>
      </trkpt>
      <trkpt lat="41.241020" lon="-3.447810">
        <ele>1294.294</ele>
        <time>2026-07-16T11:06:10.682Z</time>
      </trkpt>
      <trkpt lat="41.240880" lon="-3.446600">
        <ele>1304.088</ele>
        <time>2026-07-16T11:06:30.682Z</time>
      </trkpt>
      <trkpt lat="41.240850" lon="-3.446300">
        <ele>1303.754</ele>
        <time>2026-07-16T11:06:50.682Z</time>
      </trkpt>
      <trkpt lat="41.240840" lon="-3.445790">
        <ele>1307.156</ele>
        <time>2026-07-16T11:07:10.682Z</time>
      </trkpt>
      <trkpt lat="41.240820" lon="-3.445660">
        <ele>1309.534</ele>
        <time>2026-07-16T11:07:30.682Z</time>
      </trkpt>
      <trkpt lat="41.240790" lon="-3.445570">
        <ele>1310.931</ele>
        <time>2026-07-16T11:07:50.682Z</time>
      </trkpt>
      <trkpt lat="41.240540" lon="-3.445080">
        <ele>1315.233</ele>
        <time>2026-07-16T11:08:10.682Z</time>
      </trkpt>
      <trkpt lat="41.240420" lon="-3.444920">
        <ele>1315.712</ele>
        <time>2026-07-16T11:08:30.682Z</time>
      </trkpt>
      <trkpt lat="41.240220" lon="-3.444830">
        <ele>1313.955</ele>
        <time>2026-07-16T11:08:50.682Z</time>
      </trkpt>
      <trkpt lat="41.239970" lon="-3.444770">
        <ele>1312.907</ele>
        <time>2026-07-16T11:09:10.682Z</time>
      </trkpt>
      <trkpt lat="41.239880" lon="-3.444710">
        <ele>1313.617</ele>
        <time>2026-07-16T11:09:30.682Z</time>
      </trkpt>
      <trkpt lat="41.239800" lon="-3.444640">
        <ele>1314.009</ele>
        <time>2026-07-16T11:09:50.682Z</time>
      </trkpt>
      <trkpt lat="41.239470" lon="-3.444040">
        <ele>1317.027</ele>
        <time>2026-07-16T11:10:10.682Z</time>
      </trkpt>
      <trkpt lat="41.239400" lon="-3.443860">
        <ele>1316.922</ele>
        <time>2026-07-16T11:10:30.682Z</time>
      </trkpt>
      <trkpt lat="41.239360" lon="-3.443570">
        <ele>1317.686</ele>
        <time>2026-07-16T11:10:50.682Z</time>
      </trkpt>
      <trkpt lat="41.239390" lon="-3.442520">
        <ele>1322.522</ele>
        <time>2026-07-16T11:11:10.682Z</time>
      </trkpt>
      <trkpt lat="41.239380" lon="-3.442370">
        <ele>1324.184</ele>
        <time>2026-07-16T11:11:30.682Z</time>
      </trkpt>
      <trkpt lat="41.239360" lon="-3.442220">
        <ele>1325.872</ele>
        <time>2026-07-16T11:11:50.682Z</time>
      </trkpt>
      <trkpt lat="41.239280" lon="-3.441980">
        <ele>1326.969</ele>
        <time>2026-07-16T11:12:10.682Z</time>
      </trkpt>
      <trkpt lat="41.239210" lon="-3.441820">
        <ele>1327.721</ele>
        <time>2026-07-16T11:12:30.682Z</time>
      </trkpt>
      <trkpt lat="41.239100" lon="-3.441660">
        <ele>1329.240</ele>
        <time>2026-07-16T11:12:50.682Z</time>
      </trkpt>
      <trkpt lat="41.238860" lon="-3.441410">
        <ele>1333.244</ele>
        <time>2026-07-16T11:13:10.682Z</time>
      </trkpt>
      <trkpt lat="41.238510" lon="-3.441100">
        <ele>1333.705</ele>
        <time>2026-07-16T11:13:30.682Z</time>
      </trkpt>
      <trkpt lat="41.238280" lon="-3.440820">
        <ele>1333.415</ele>
        <time>2026-07-16T11:13:50.682Z</time>
      </trkpt>
      <trkpt lat="41.238150" lon="-3.440620">
        <ele>1333.309</ele>
        <time>2026-07-16T11:14:10.682Z</time>
      </trkpt>
      <trkpt lat="41.237740" lon="-3.439700">
        <ele>1332.396</ele>
        <time>2026-07-16T11:14:30.682Z</time>
      </trkpt>
      <trkpt lat="41.237700" lon="-3.439520">
        <ele>1332.651</ele>
        <time>2026-07-16T11:14:50.682Z</time>
      </trkpt>
      <trkpt lat="41.237700" lon="-3.439340">
        <ele>1333.025</ele>
        <time>2026-07-16T11:15:10.682Z</time>
      </trkpt>
      <trkpt lat="41.237740" lon="-3.438860">
        <ele>1332.791</ele>
        <time>2026-07-16T11:15:30.682Z</time>
      </trkpt>
      <trkpt lat="41.237850" lon="-3.438160">
        <ele>1332.993</ele>
        <time>2026-07-16T11:15:50.682Z</time>
      </trkpt>
      <trkpt lat="41.237870" lon="-3.437990">
        <ele>1334.171</ele>
        <time>2026-07-16T11:16:10.682Z</time>
      </trkpt>
      <trkpt lat="41.237860" lon="-3.437830">
        <ele>1334.328</ele>
        <time>2026-07-16T11:16:30.682Z</time>
      </trkpt>
      <trkpt lat="41.237830" lon="-3.437640">
        <ele>1333.760</ele>
        <time>2026-07-16T11:16:50.682Z</time>
      </trkpt>
      <trkpt lat="41.237670" lon="-3.437040">
        <ele>1330.389</ele>
        <time>2026-07-16T11:17:10.682Z</time>
      </trkpt>
      <trkpt lat="41.237660" lon="-3.436930">
        <ele>1329.829</ele>
        <time>2026-07-16T11:17:30.682Z</time>
      </trkpt>
      <trkpt lat="41.237690" lon="-3.436750">
        <ele>1329.700</ele>
        <time>2026-07-16T11:17:50.682Z</time>
      </trkpt>
      <trkpt lat="41.237720" lon="-3.436670">
        <ele>1330.020</ele>
        <time>2026-07-16T11:18:10.682Z</time>
      </trkpt>
      <trkpt lat="41.237800" lon="-3.436580">
        <ele>1331.809</ele>
        <time>2026-07-16T11:18:30.682Z</time>
      </trkpt>
      <trkpt lat="41.238660" lon="-3.435900">
        <ele>1336.494</ele>
        <time>2026-07-16T11:18:50.682Z</time>
      </trkpt>
      <trkpt lat="41.238790" lon="-3.435730">
        <ele>1335.789</ele>
        <time>2026-07-16T11:19:10.682Z</time>
      </trkpt>
      <trkpt lat="41.238850" lon="-3.435600">
        <ele>1334.983</ele>
        <time>2026-07-16T11:19:30.682Z</time>
      </trkpt>
      <trkpt lat="41.238870" lon="-3.435470">
        <ele>1334.649</ele>
        <time>2026-07-16T11:19:50.682Z</time>
      </trkpt>
      <trkpt lat="41.238870" lon="-3.435360">
        <ele>1334.631</ele>
        <time>2026-07-16T11:20:10.682Z</time>
      </trkpt>
      <trkpt lat="41.238840" lon="-3.435260">
        <ele>1334.179</ele>
        <time>2026-07-16T11:20:30.682Z</time>
      </trkpt>
      <trkpt lat="41.238720" lon="-3.435070">
        <ele>1333.386</ele>
        <time>2026-07-16T11:20:50.682Z</time>
      </trkpt>
      <trkpt lat="41.238580" lon="-3.435000">
        <ele>1331.998</ele>
        <time>2026-07-16T11:21:10.682Z</time>
      </trkpt>
      <trkpt lat="41.238390" lon="-3.435010">
        <ele>1331.167</ele>
        <time>2026-07-16T11:21:30.682Z</time>
      </trkpt>
      <trkpt lat="41.237750" lon="-3.435220">
        <ele>1341.039</ele>
        <time>2026-07-16T11:21:50.682Z</time>
      </trkpt>
      <trkpt lat="41.237640" lon="-3.435280">
        <ele>1341.401</ele>
        <time>2026-07-16T11:22:10.682Z</time>
      </trkpt>
      <trkpt lat="41.237220" lon="-3.435660">
        <ele>1340.421</ele>
        <time>2026-07-16T11:22:30.682Z</time>
      </trkpt>
      <trkpt lat="41.236940" lon="-3.435950">
        <ele>1340.309</ele>
        <time>2026-07-16T11:22:50.682Z</time>
      </trkpt>
      <trkpt lat="41.236840" lon="-3.436040">
        <ele>1339.575</ele>
        <time>2026-07-16T11:23:10.682Z</time>
      </trkpt>
      <trkpt lat="41.236770" lon="-3.436060">
        <ele>1339.580</ele>
        <time>2026-07-16T11:23:30.682Z</time>
      </trkpt>
      <trkpt lat="41.236690" lon="-3.436050">
        <ele>1340.014</ele>
        <time>2026-07-16T11:23:50.682Z</time>
      </trkpt>
      <trkpt lat="41.236620" lon="-3.436020">
        <ele>1340.430</ele>
        <time>2026-07-16T11:24:10.682Z</time>
      </trkpt>
      <trkpt lat="41.235560" lon="-3.434640">
        <ele>1350.872</ele>
        <time>2026-07-16T11:24:30.682Z</time>
      </trkpt>
      <trkpt lat="41.235360" lon="-3.434330">
        <ele>1354.210</ele>
        <time>2026-07-16T11:24:50.682Z</time>
      </trkpt>
      <trkpt lat="41.235250" lon="-3.434130">
        <ele>1356.027</ele>
        <time>2026-07-16T11:25:10.682Z</time>
      </trkpt>
      <trkpt lat="41.234250" lon="-3.431620">
        <ele>1371.589</ele>
        <time>2026-07-16T11:25:30.682Z</time>
      </trkpt>
      <trkpt lat="41.234200" lon="-3.431430">
        <ele>1373.178</ele>
        <time>2026-07-16T11:25:50.682Z</time>
      </trkpt>
      <trkpt lat="41.234170" lon="-3.431000">
        <ele>1376.948</ele>
        <time>2026-07-16T11:26:10.682Z</time>
      </trkpt>
      <trkpt lat="41.234170" lon="-3.430870">
        <ele>1377.861</ele>
        <time>2026-07-16T11:26:30.682Z</time>
      </trkpt>
      <trkpt lat="41.235020" lon="-3.427130">
        <ele>1407.517</ele>
        <time>2026-07-16T11:26:50.682Z</time>
      </trkpt>
      <trkpt lat="41.235120" lon="-3.426250">
        <ele>1413.709</ele>
        <time>2026-07-16T11:27:10.682Z</time>
      </trkpt>
      <trkpt lat="41.235080" lon="-3.426090">
        <ele>1414.036</ele>
        <time>2026-07-16T11:27:30.682Z</time>
      </trkpt>
      <trkpt lat="41.235040" lon="-3.425970">
        <ele>1414.841</ele>
        <time>2026-07-16T11:27:50.682Z</time>
      </trkpt>
      <trkpt lat="41.234980" lon="-3.425870">
        <ele>1415.175</ele>
        <time>2026-07-16T11:28:10.682Z</time>
      </trkpt>
      <trkpt lat="41.234910" lon="-3.425830">
        <ele>1415.141</ele>
        <time>2026-07-16T11:28:30.682Z</time>
      </trkpt>
      <trkpt lat="41.234830" lon="-3.425800">
        <ele>1414.613</ele>
        <time>2026-07-16T11:28:50.682Z</time>
      </trkpt>
      <trkpt lat="41.234590" lon="-3.425820">
        <ele>1415.071</ele>
        <time>2026-07-16T11:29:10.682Z</time>
      </trkpt>
      <trkpt lat="41.234540" lon="-3.425850">
        <ele>1415.558</ele>
        <time>2026-07-16T11:29:30.682Z</time>
      </trkpt>
      <trkpt lat="41.234490" lon="-3.425900">
        <ele>1415.970</ele>
        <time>2026-07-16T11:29:50.682Z</time>
      </trkpt>
      <trkpt lat="41.234460" lon="-3.425970">
        <ele>1416.239</ele>
        <time>2026-07-16T11:30:10.682Z</time>
      </trkpt>
      <trkpt lat="41.234400" lon="-3.426310">
        <ele>1414.848</ele>
        <time>2026-07-16T11:30:30.682Z</time>
      </trkpt>
      <trkpt lat="41.234320" lon="-3.426570">
        <ele>1414.961</ele>
        <time>2026-07-16T11:30:50.682Z</time>
      </trkpt>
      <trkpt lat="41.234110" lon="-3.426840">
        <ele>1419.317</ele>
        <time>2026-07-16T11:31:10.682Z</time>
      </trkpt>
      <trkpt lat="41.233270" lon="-3.427510">
        <ele>1425.409</ele>
        <time>2026-07-16T11:31:30.682Z</time>
      </trkpt>
      <trkpt lat="41.233170" lon="-3.427540">
        <ele>1425.636</ele>
        <time>2026-07-16T11:31:50.682Z</time>
      </trkpt>
      <trkpt lat="41.233080" lon="-3.427530">
        <ele>1426.981</ele>
        <time>2026-07-16T11:32:10.682Z</time>
      </trkpt>
      <trkpt lat="41.232850" lon="-3.427410">
        <ele>1428.545</ele>
        <time>2026-07-16T11:32:30.682Z</time>
      </trkpt>
      <trkpt lat="41.232570" lon="-3.427150">
        <ele>1430.091</ele>
        <time>2026-07-16T11:32:50.682Z</time>
      </trkpt>
      <trkpt lat="41.232330" lon="-3.426880">
        <ele>1432.633</ele>
        <time>2026-07-16T11:33:10.682Z</time>
      </trkpt>
      <trkpt lat="41.231800" lon="-3.426190">
        <ele>1436.081</ele>
        <time>2026-07-16T11:33:30.682Z</time>
      </trkpt>
      <trkpt lat="41.231560" lon="-3.425820">
        <ele>1439.638</ele>
        <time>2026-07-16T11:33:50.682Z</time>
      </trkpt>
      <trkpt lat="41.231340" lon="-3.425420">
        <ele>1442.180</ele>
        <time>2026-07-16T11:34:10.682Z</time>
      </trkpt>
      <trkpt lat="41.231230" lon="-3.425190">
        <ele>1443.199</ele>
        <time>2026-07-16T11:34:30.682Z</time>
      </trkpt>
      <trkpt lat="41.230670" lon="-3.423720">
        <ele>1459.624</ele>
        <time>2026-07-16T11:34:50.682Z</time>
      </trkpt>
      <trkpt lat="41.230550" lon="-3.423560">
        <ele>1462.204</ele>
        <time>2026-07-16T11:35:10.682Z</time>
      </trkpt>
      <trkpt lat="41.230230" lon="-3.423460">
        <ele>1460.714</ele>
        <time>2026-07-16T11:35:30.682Z</time>
      </trkpt>
      <trkpt lat="41.230050" lon="-3.423380">
        <ele>1458.709</ele>
        <time>2026-07-16T11:35:50.682Z</time>
      </trkpt>
      <trkpt lat="41.229960" lon="-3.423290">
        <ele>1459.544</ele>
        <time>2026-07-16T11:36:10.682Z</time>
      </trkpt>
      <trkpt lat="41.229760" lon="-3.423030">
        <ele>1463.919</ele>
        <time>2026-07-16T11:36:30.682Z</time>
      </trkpt>
      <trkpt lat="41.229510" lon="-3.422550">
        <ele>1467.953</ele>
        <time>2026-07-16T11:36:50.682Z</time>
      </trkpt>
      <trkpt lat="41.229390" lon="-3.422220">
        <ele>1468.399</ele>
        <time>2026-07-16T11:37:10.682Z</time>
      </trkpt>
      <trkpt lat="41.229360" lon="-3.422060">
        <ele>1468.511</ele>
        <time>2026-07-16T11:37:30.682Z</time>
      </trkpt>
      <trkpt lat="41.229370" lon="-3.421680">
        <ele>1474.369</ele>
        <time>2026-07-16T11:37:50.682Z</time>
      </trkpt>
      <trkpt lat="41.229330" lon="-3.421510">
        <ele>1475.846</ele>
        <time>2026-07-16T11:38:10.682Z</time>
      </trkpt>
      <trkpt lat="41.229220" lon="-3.421360">
        <ele>1475.678</ele>
        <time>2026-07-16T11:38:30.682Z</time>
      </trkpt>
      <trkpt lat="41.228990" lon="-3.421200">
        <ele>1475.987</ele>
        <time>2026-07-16T11:38:50.682Z</time>
      </trkpt>
      <trkpt lat="41.228620" lon="-3.420740">
        <ele>1479.912</ele>
        <time>2026-07-16T11:39:10.682Z</time>
      </trkpt>
      <trkpt lat="41.228470" lon="-3.420460">
        <ele>1480.332</ele>
        <time>2026-07-16T11:39:30.682Z</time>
      </trkpt>
      <trkpt lat="41.228220" lon="-3.419860">
        <ele>1488.205</ele>
        <time>2026-07-16T11:39:50.682Z</time>
      </trkpt>
      <trkpt lat="41.227720" lon="-3.419190">
        <ele>1491.609</ele>
        <time>2026-07-16T11:40:10.682Z</time>
      </trkpt>
      <trkpt lat="41.227540" lon="-3.418840">
        <ele>1492.753</ele>
        <time>2026-07-16T11:40:30.682Z</time>
      </trkpt>
      <trkpt lat="41.227420" lon="-3.418440">
        <ele>1492.418</ele>
        <time>2026-07-16T11:40:50.682Z</time>
      </trkpt>
      <trkpt lat="41.227400" lon="-3.418220">
        <ele>1493.272</ele>
        <time>2026-07-16T11:41:10.682Z</time>
      </trkpt>
      <trkpt lat="41.227450" lon="-3.418010">
        <ele>1496.728</ele>
        <time>2026-07-16T11:41:30.682Z</time>
      </trkpt>
      <trkpt lat="41.227620" lon="-3.417540">
        <ele>1505.090</ele>
        <time>2026-07-16T11:41:50.682Z</time>
      </trkpt>
      <trkpt lat="41.227700" lon="-3.417210">
        <ele>1511.378</ele>
        <time>2026-07-16T11:42:10.682Z</time>
      </trkpt>
      <trkpt lat="41.227720" lon="-3.417000">
        <ele>1514.035</ele>
        <time>2026-07-16T11:42:30.682Z</time>
      </trkpt>
      <trkpt lat="41.227680" lon="-3.416840">
        <ele>1515.927</ele>
        <time>2026-07-16T11:42:50.682Z</time>
      </trkpt>
      <trkpt lat="41.227590" lon="-3.416740">
        <ele>1515.416</ele>
        <time>2026-07-16T11:43:10.682Z</time>
      </trkpt>
      <trkpt lat="41.227310" lon="-3.416560">
        <ele>1512.767</ele>
        <time>2026-07-16T11:43:30.682Z</time>
      </trkpt>
      <trkpt lat="41.227190" lon="-3.416460">
        <ele>1512.681</ele>
        <time>2026-07-16T11:43:50.682Z</time>
      </trkpt>
      <trkpt lat="41.227090" lon="-3.416360">
        <ele>1513.419</ele>
        <time>2026-07-16T11:44:10.682Z</time>
      </trkpt>
      <trkpt lat="41.227010" lon="-3.416240">
        <ele>1514.609</ele>
        <time>2026-07-16T11:44:30.682Z</time>
      </trkpt>
      <trkpt lat="41.226840" lon="-3.415930">
        <ele>1518.648</ele>
        <time>2026-07-16T11:44:50.682Z</time>
      </trkpt>
      <trkpt lat="41.226750" lon="-3.415820">
        <ele>1519.153</ele>
        <time>2026-07-16T11:45:10.682Z</time>
      </trkpt>
      <trkpt lat="41.226620" lon="-3.415790">
        <ele>1517.677</ele>
        <time>2026-07-16T11:45:30.682Z</time>
      </trkpt>
      <trkpt lat="41.226300" lon="-3.415850">
        <ele>1514.293</ele>
        <time>2026-07-16T11:45:50.682Z</time>
      </trkpt>
      <trkpt lat="41.226200" lon="-3.415850">
        <ele>1513.915</ele>
        <time>2026-07-16T11:46:10.682Z</time>
      </trkpt>
      <trkpt lat="41.226030" lon="-3.415780">
        <ele>1513.933</ele>
        <time>2026-07-16T11:46:30.682Z</time>
      </trkpt>
      <trkpt lat="41.225950" lon="-3.415700">
        <ele>1514.320</ele>
        <time>2026-07-16T11:46:50.682Z</time>
      </trkpt>
      <trkpt lat="41.225900" lon="-3.415620">
        <ele>1515.062</ele>
        <time>2026-07-16T11:47:10.682Z</time>
      </trkpt>
      <trkpt lat="41.225850" lon="-3.415500">
        <ele>1515.981</ele>
        <time>2026-07-16T11:47:30.682Z</time>
      </trkpt>
      <trkpt lat="41.225810" lon="-3.415280">
        <ele>1517.297</ele>
        <time>2026-07-16T11:47:50.682Z</time>
      </trkpt>
      <trkpt lat="41.225810" lon="-3.415070">
        <ele>1518.123</ele>
        <time>2026-07-16T11:48:10.682Z</time>
      </trkpt>
      <trkpt lat="41.225840" lon="-3.414900">
        <ele>1519.725</ele>
        <time>2026-07-16T11:48:30.682Z</time>
      </trkpt>
      <trkpt lat="41.226140" lon="-3.413710">
        <ele>1540.409</ele>
        <time>2026-07-16T11:48:50.682Z</time>
      </trkpt>
      <trkpt lat="41.226180" lon="-3.413340">
        <ele>1543.731</ele>
        <time>2026-07-16T11:49:10.682Z</time>
      </trkpt>
      <trkpt lat="41.226170" lon="-3.412700">
        <ele>1551.546</ele>
        <time>2026-07-16T11:49:30.682Z</time>
      </trkpt>
      <trkpt lat="41.226120" lon="-3.412550">
        <ele>1552.580</ele>
        <time>2026-07-16T11:49:50.682Z</time>
      </trkpt>
      <trkpt lat="41.226070" lon="-3.412490">
        <ele>1553.226</ele>
        <time>2026-07-16T11:50:10.682Z</time>
      </trkpt>
      <trkpt lat="41.226010" lon="-3.412430">
        <ele>1554.568</ele>
        <time>2026-07-16T11:50:30.682Z</time>
      </trkpt>
      <trkpt lat="41.225940" lon="-3.412410">
        <ele>1555.356</ele>
        <time>2026-07-16T11:50:50.682Z</time>
      </trkpt>
      <trkpt lat="41.225870" lon="-3.412420">
        <ele>1555.493</ele>
        <time>2026-07-16T11:51:10.682Z</time>
      </trkpt>
      <trkpt lat="41.225780" lon="-3.412480">
        <ele>1554.655</ele>
        <time>2026-07-16T11:51:30.682Z</time>
      </trkpt>
      <trkpt lat="41.225460" lon="-3.412820">
        <ele>1550.894</ele>
        <time>2026-07-16T11:51:50.682Z</time>
      </trkpt>
      <trkpt lat="41.225340" lon="-3.412910">
        <ele>1551.471</ele>
        <time>2026-07-16T11:52:10.682Z</time>
      </trkpt>
      <trkpt lat="41.224560" lon="-3.413350">
        <ele>1557.241</ele>
        <time>2026-07-16T11:52:30.682Z</time>
      </trkpt>
      <trkpt lat="41.224280" lon="-3.413530">
        <ele>1555.315</ele>
        <time>2026-07-16T11:52:50.682Z</time>
      </trkpt>
      <trkpt lat="41.224190" lon="-3.413560">
        <ele>1556.309</ele>
        <time>2026-07-16T11:53:10.682Z</time>
      </trkpt>
      <trkpt lat="41.224090" lon="-3.413580">
        <ele>1556.119</ele>
        <time>2026-07-16T11:53:30.682Z</time>
      </trkpt>
      <trkpt lat="41.223920" lon="-3.413540">
        <ele>1557.364</ele>
        <time>2026-07-16T11:53:50.682Z</time>
      </trkpt>
      <trkpt lat="41.223820" lon="-3.413510">
        <ele>1558.058</ele>
        <time>2026-07-16T11:54:10.682Z</time>
      </trkpt>
      <trkpt lat="41.223460" lon="-3.413300">
        <ele>1562.114</ele>
        <time>2026-07-16T11:54:30.682Z</time>
      </trkpt>
      <trkpt lat="41.223140" lon="-3.413070">
        <ele>1566.516</ele>
        <time>2026-07-16T11:54:50.682Z</time>
      </trkpt>
      <trkpt lat="41.222550" lon="-3.412590">
        <ele>1569.634</ele>
        <time>2026-07-16T11:55:10.682Z</time>
      </trkpt>
      <trkpt lat="41.222340" lon="-3.412360">
        <ele>1570.731</ele>
        <time>2026-07-16T11:55:30.682Z</time>
      </trkpt>
      <trkpt lat="41.222250" lon="-3.412240">
        <ele>1571.353</ele>
        <time>2026-07-16T11:55:50.682Z</time>
      </trkpt>
      <trkpt lat="41.222140" lon="-3.412040">
        <ele>1571.862</ele>
        <time>2026-07-16T11:56:10.682Z</time>
      </trkpt>
      <trkpt lat="41.222080" lon="-3.411860">
        <ele>1573.949</ele>
        <time>2026-07-16T11:56:30.682Z</time>
      </trkpt>
      <trkpt lat="41.222000" lon="-3.411140">
        <ele>1585.102</ele>
        <time>2026-07-16T11:56:50.682Z</time>
      </trkpt>
      <trkpt lat="41.221810" lon="-3.410200">
        <ele>1598.522</ele>
        <time>2026-07-16T11:57:10.682Z</time>
      </trkpt>
      <trkpt lat="41.221740" lon="-3.409970">
        <ele>1601.609</ele>
        <time>2026-07-16T11:57:30.682Z</time>
      </trkpt>
      <trkpt lat="41.221640" lon="-3.409860">
        <ele>1601.436</ele>
        <time>2026-07-16T11:57:50.682Z</time>
      </trkpt>
      <trkpt lat="41.221540" lon="-3.409810">
        <ele>1602.171</ele>
        <time>2026-07-16T11:58:10.682Z</time>
      </trkpt>
      <trkpt lat="41.221390" lon="-3.409780">
        <ele>1602.515</ele>
        <time>2026-07-16T11:58:30.682Z</time>
      </trkpt>
      <trkpt lat="41.221160" lon="-3.409820">
        <ele>1605.611</ele>
        <time>2026-07-16T11:58:50.682Z</time>
      </trkpt>
      <trkpt lat="41.220960" lon="-3.409900">
        <ele>1605.223</ele>
        <time>2026-07-16T11:59:10.682Z</time>
      </trkpt>
      <trkpt lat="41.220860" lon="-3.409960">
        <ele>1604.251</ele>
        <time>2026-07-16T11:59:30.682Z</time>
      </trkpt>
      <trkpt lat="41.220600" lon="-3.410200">
        <ele>1602.528</ele>
        <time>2026-07-16T11:59:50.682Z</time>
      </trkpt>
      <trkpt lat="41.220150" lon="-3.410720">
        <ele>1606.850</ele>
        <time>2026-07-16T12:00:10.682Z</time>
      </trkpt>
      <trkpt lat="41.220040" lon="-3.410810">
        <ele>1607.559</ele>
        <time>2026-07-16T12:00:30.682Z</time>
      </trkpt>
      <trkpt lat="41.219930" lon="-3.410870">
        <ele>1607.172</ele>
        <time>2026-07-16T12:00:50.682Z</time>
      </trkpt>
      <trkpt lat="41.219830" lon="-3.410900">
        <ele>1606.913</ele>
        <time>2026-07-16T12:01:10.682Z</time>
      </trkpt>
      <trkpt lat="41.219670" lon="-3.410910">
        <ele>1608.414</ele>
        <time>2026-07-16T12:01:30.682Z</time>
      </trkpt>
      <trkpt lat="41.219140" lon="-3.410860">
        <ele>1611.909</ele>
        <time>2026-07-16T12:01:50.682Z</time>
      </trkpt>
      <trkpt lat="41.219000" lon="-3.410820">
        <ele>1612.839</ele>
        <time>2026-07-16T12:02:10.682Z</time>
      </trkpt>
      <trkpt lat="41.218590" lon="-3.410680">
        <ele>1615.724</ele>
        <time>2026-07-16T12:02:30.682Z</time>
      </trkpt>
      <trkpt lat="41.218280" lon="-3.410550">
        <ele>1616.448</ele>
        <time>2026-07-16T12:02:50.682Z</time>
      </trkpt>
      <trkpt lat="41.218050" lon="-3.410390">
        <ele>1618.274</ele>
        <time>2026-07-16T12:03:10.682Z</time>
      </trkpt>
      <trkpt lat="41.217590" lon="-3.409890">
        <ele>1626.746</ele>
        <time>2026-07-16T12:03:30.682Z</time>
      </trkpt>
      <trkpt lat="41.217330" lon="-3.409670">
        <ele>1632.954</ele>
        <time>2026-07-16T12:03:50.682Z</time>
      </trkpt>
      <trkpt lat="41.217030" lon="-3.409500">
        <ele>1637.181</ele>
        <time>2026-07-16T12:04:10.682Z</time>
      </trkpt>
      <trkpt lat="41.216730" lon="-3.409420">
        <ele>1642.313</ele>
        <time>2026-07-16T12:04:30.682Z</time>
      </trkpt>
      <trkpt lat="41.216640" lon="-3.409440">
        <ele>1643.852</ele>
        <time>2026-07-16T12:04:50.682Z</time>
      </trkpt>
      <trkpt lat="41.216560" lon="-3.409480">
        <ele>1646.023</ele>
        <time>2026-07-16T12:05:10.682Z</time>
      </trkpt>
      <trkpt lat="41.216500" lon="-3.409560">
        <ele>1647.983</ele>
        <time>2026-07-16T12:05:30.682Z</time>
      </trkpt>
      <trkpt lat="41.216460" lon="-3.409650">
        <ele>1649.311</ele>
        <time>2026-07-16T12:05:50.682Z</time>
      </trkpt>
      <trkpt lat="41.216450" lon="-3.409870">
        <ele>1650.309</ele>
        <time>2026-07-16T12:06:10.682Z</time>
      </trkpt>
      <trkpt lat="41.216560" lon="-3.410520">
        <ele>1646.584</ele>
        <time>2026-07-16T12:06:30.682Z</time>
      </trkpt>
      <trkpt lat="41.216560" lon="-3.410630">
        <ele>1646.449</ele>
        <time>2026-07-16T12:06:50.682Z</time>
      </trkpt>
      <trkpt lat="41.216420" lon="-3.411220">
        <ele>1657.073</ele>
        <time>2026-07-16T12:07:10.682Z</time>
      </trkpt>
      <trkpt lat="41.216400" lon="-3.411350">
        <ele>1659.189</ele>
        <time>2026-07-16T12:07:30.682Z</time>
      </trkpt>
      <trkpt lat="41.216380" lon="-3.411780">
        <ele>1656.781</ele>
        <time>2026-07-16T12:07:50.682Z</time>
      </trkpt>
      <trkpt lat="41.216210" lon="-3.412540">
        <ele>1667.669</ele>
        <time>2026-07-16T12:08:10.682Z</time>
      </trkpt>
      <trkpt lat="41.216220" lon="-3.412660">
        <ele>1667.886</ele>
        <time>2026-07-16T12:08:30.682Z</time>
      </trkpt>
      <trkpt lat="41.216240" lon="-3.412780">
        <ele>1667.558</ele>
        <time>2026-07-16T12:08:50.682Z</time>
      </trkpt>
      <trkpt lat="41.216390" lon="-3.413130">
        <ele>1663.017</ele>
        <time>2026-07-16T12:09:10.682Z</time>
      </trkpt>
      <trkpt lat="41.216540" lon="-3.413570">
        <ele>1667.021</ele>
        <time>2026-07-16T12:09:30.682Z</time>
      </trkpt>
      <trkpt lat="41.216580" lon="-3.413750">
        <ele>1669.241</ele>
        <time>2026-07-16T12:09:50.682Z</time>
      </trkpt>
      <trkpt lat="41.216620" lon="-3.414190">
        <ele>1673.805</ele>
        <time>2026-07-16T12:10:10.682Z</time>
      </trkpt>
      <trkpt lat="41.216660" lon="-3.414440">
        <ele>1675.209</ele>
        <time>2026-07-16T12:10:30.682Z</time>
      </trkpt>
      <trkpt lat="41.216720" lon="-3.414660">
        <ele>1676.294</ele>
        <time>2026-07-16T12:10:50.682Z</time>
      </trkpt>
      <trkpt lat="41.216770" lon="-3.414800">
        <ele>1678.189</ele>
        <time>2026-07-16T12:11:10.682Z</time>
      </trkpt>
      <trkpt lat="41.216850" lon="-3.414920">
        <ele>1679.023</ele>
        <time>2026-07-16T12:11:30.682Z</time>
      </trkpt>
      <trkpt lat="41.217070" lon="-3.415170">
        <ele>1676.949</ele>
        <time>2026-07-16T12:11:50.682Z</time>
      </trkpt>
      <trkpt lat="41.217250" lon="-3.415510">
        <ele>1676.991</ele>
        <time>2026-07-16T12:12:10.682Z</time>
      </trkpt>
      <trkpt lat="41.217530" lon="-3.415850">
        <ele>1675.519</ele>
        <time>2026-07-16T12:12:30.682Z</time>
      </trkpt>
      <trkpt lat="41.217680" lon="-3.416100">
        <ele>1676.626</ele>
        <time>2026-07-16T12:12:50.682Z</time>
      </trkpt>
      <trkpt lat="41.217760" lon="-3.416270">
        <ele>1677.118</ele>
        <time>2026-07-16T12:13:10.682Z</time>
      </trkpt>
      <trkpt lat="41.217820" lon="-3.416470">
        <ele>1679.067</ele>
        <time>2026-07-16T12:13:30.682Z</time>
      </trkpt>
      <trkpt lat="41.217840" lon="-3.416600">
        <ele>1680.267</ele>
        <time>2026-07-16T12:13:50.682Z</time>
      </trkpt>
      <trkpt lat="41.217850" lon="-3.416870">
        <ele>1681.581</ele>
        <time>2026-07-16T12:14:10.682Z</time>
      </trkpt>
      <trkpt lat="41.217770" lon="-3.417960">
        <ele>1690.419</ele>
        <time>2026-07-16T12:14:30.682Z</time>
      </trkpt>
      <trkpt lat="41.217740" lon="-3.418070">
        <ele>1692.009</ele>
        <time>2026-07-16T12:14:50.682Z</time>
      </trkpt>
      <trkpt lat="41.217480" lon="-3.418820">
        <ele>1692.688</ele>
        <time>2026-07-16T12:15:10.682Z</time>
      </trkpt>
      <trkpt lat="41.217340" lon="-3.419040">
        <ele>1692.793</ele>
        <time>2026-07-16T12:15:30.682Z</time>
      </trkpt>
      <trkpt lat="41.216880" lon="-3.419560">
        <ele>1702.347</ele>
        <time>2026-07-16T12:15:50.682Z</time>
      </trkpt>
      <trkpt lat="41.216660" lon="-3.420000">
        <ele>1702.213</ele>
        <time>2026-07-16T12:16:10.682Z</time>
      </trkpt>
      <trkpt lat="41.216540" lon="-3.420170">
        <ele>1704.545</ele>
        <time>2026-07-16T12:16:30.682Z</time>
      </trkpt>
      <trkpt lat="41.216260" lon="-3.420490">
        <ele>1705.513</ele>
        <time>2026-07-16T12:16:50.682Z</time>
      </trkpt>
      <trkpt lat="41.216160" lon="-3.420530">
        <ele>1707.160</ele>
        <time>2026-07-16T12:17:10.682Z</time>
      </trkpt>
      <trkpt lat="41.216050" lon="-3.420540">
        <ele>1708.762</ele>
        <time>2026-07-16T12:17:30.682Z</time>
      </trkpt>
      <trkpt lat="41.215950" lon="-3.420510">
        <ele>1709.661</ele>
        <time>2026-07-16T12:17:50.682Z</time>
      </trkpt>
      <trkpt lat="41.215890" lon="-3.420460">
        <ele>1709.943</ele>
        <time>2026-07-16T12:18:10.682Z</time>
      </trkpt>
      <trkpt lat="41.215860" lon="-3.420410">
        <ele>1709.864</ele>
        <time>2026-07-16T12:18:30.682Z</time>
      </trkpt>
      <trkpt lat="41.215810" lon="-3.420440">
        <ele>1710.010</ele>
        <time>2026-07-16T12:18:50.682Z</time>
      </trkpt>
    </trkseg>
  </trk></gpx>