<?xml version="1.0" encoding="UTF-8"?>
<gpx creator="Wikiloc - https://www.wikiloc.com" version="1.1" xmlns="http://www.topografix.com/GPX/1/1" xmlns:xsi="http://www.w3.org/2001/XMLSchema-instance" xsi:schemaLocation="http://www.topografix.com/GPX/1/1 http://www.topografix.com/GPX/1/1/gpx.xsd">
  <metadata>
    <name>Wikiloc - PUERTO DEL SOL (por Periana)</name>
    <link href="https://www.wikiloc.com/cycling-trails/puerto-del-sol-por-periana-262434761">
      <text>PUERTO DEL SOL (por Periana) - Wikiloc on Wikiloc</text>
    </link>
    <time>2026-07-16T10:05:00.863Z</time>
  </metadata>
  <trk>
    <name>PUERTO DEL SOL (por Periana) - Wikiloc</name>
    <cmt></cmt>
    <desc></desc>
    <trkseg>
      <trkpt lat="36.875850" lon="-4.152150">
        <ele>188.239</ele>
        <time>2026-07-16T10:05:00.861Z</time>
      </trkpt>
      <trkpt lat="36.876620" lon="-4.152340">
        <ele>190.501</ele>
        <time>2026-07-16T10:05:20.861Z</time>
      </trkpt>
      <trkpt lat="36.877510" lon="-4.152600">
        <ele>191.721</ele>
        <time>2026-07-16T10:05:40.861Z</time>
      </trkpt>
      <trkpt lat="36.878280" lon="-4.152630">
        <ele>191.609</ele>
        <time>2026-07-16T10:06:00.861Z</time>
      </trkpt>
      <trkpt lat="36.879310" lon="-4.152200">
        <ele>192.335</ele>
        <time>2026-07-16T10:06:20.861Z</time>
      </trkpt>
      <trkpt lat="36.881960" lon="-4.150560">
        <ele>195.329</ele>
        <time>2026-07-16T10:06:40.861Z</time>
      </trkpt>
      <trkpt lat="36.882760" lon="-4.149980">
        <ele>197.655</ele>
        <time>2026-07-16T10:07:00.861Z</time>
      </trkpt>
      <trkpt lat="36.883290" lon="-4.149420">
        <ele>196.937</ele>
        <time>2026-07-16T10:07:20.861Z</time>
      </trkpt>
      <trkpt lat="36.884080" lon="-4.148460">
        <ele>200.966</ele>
        <time>2026-07-16T10:07:40.861Z</time>
      </trkpt>
      <trkpt lat="36.884880" lon="-4.147740">
        <ele>206.757</ele>
        <time>2026-07-16T10:08:00.861Z</time>
      </trkpt>
      <trkpt lat="36.885300" lon="-4.147440">
        <ele>210.460</ele>
        <time>2026-07-16T10:08:20.861Z</time>
      </trkpt>
      <trkpt lat="36.886020" lon="-4.147130">
        <ele>217.139</ele>
        <time>2026-07-16T10:08:40.861Z</time>
      </trkpt>
      <trkpt lat="36.887840" lon="-4.146830">
        <ele>229.284</ele>
        <time>2026-07-16T10:09:00.861Z</time>
      </trkpt>
      <trkpt lat="36.888460" lon="-4.146760">
        <ele>236.612</ele>
        <time>2026-07-16T10:09:20.861Z</time>
      </trkpt>
      <trkpt lat="36.889870" lon="-4.146900">
        <ele>242.232</ele>
        <time>2026-07-16T10:09:40.861Z</time>
      </trkpt>
      <trkpt lat="36.890640" lon="-4.147450">
        <ele>248.105</ele>
        <time>2026-07-16T10:10:00.861Z</time>
      </trkpt>
      <trkpt lat="36.891290" lon="-4.148220">
        <ele>247.109</ele>
        <time>2026-07-16T10:10:20.861Z</time>
      </trkpt>
      <trkpt lat="36.891460" lon="-4.148350">
        <ele>245.723</ele>
        <time>2026-07-16T10:10:40.861Z</time>
      </trkpt>
      <trkpt lat="36.891770" lon="-4.148460">
        <ele>245.287</ele>
        <time>2026-07-16T10:11:00.861Z</time>
      </trkpt>
      <trkpt lat="36.891900" lon="-4.148570">
        <ele>245.773</ele>
        <time>2026-07-16T10:11:20.861Z</time>
      </trkpt>
      <trkpt lat="36.891970" lon="-4.148680">
        <ele>245.895</ele>
        <time>2026-07-16T10:11:40.861Z</time>
      </trkpt>
      <trkpt lat="36.892050" lon="-4.149170">
        <ele>243.074</ele>
        <time>2026-07-16T10:12:00.861Z</time>
      </trkpt>
      <trkpt lat="36.892190" lon="-4.149560">
        <ele>239.185</ele>
        <time>2026-07-16T10:12:20.861Z</time>
      </trkpt>
      <trkpt lat="36.892370" lon="-4.149740">
        <ele>240.328</ele>
        <time>2026-07-16T10:12:40.861Z</time>
      </trkpt>
      <trkpt lat="36.892700" lon="-4.149900">
        <ele>244.437</ele>
        <time>2026-07-16T10:13:00.861Z</time>
      </trkpt>
      <trkpt lat="36.893040" lon="-4.150230">
        <ele>241.652</ele>
        <time>2026-07-16T10:13:20.861Z</time>
      </trkpt>
      <trkpt lat="36.893240" lon="-4.150370">
        <ele>242.138</ele>
        <time>2026-07-16T10:13:40.861Z</time>
      </trkpt>
      <trkpt lat="36.893410" lon="-4.150500">
        <ele>242.770</ele>
        <time>2026-07-16T10:14:00.861Z</time>
      </trkpt>
      <trkpt lat="36.893480" lon="-4.150710">
        <ele>240.317</ele>
        <time>2026-07-16T10:14:20.861Z</time>
      </trkpt>
      <trkpt lat="36.893590" lon="-4.151090">
        <ele>237.709</ele>
        <time>2026-07-16T10:14:40.861Z</time>
      </trkpt>
      <trkpt lat="36.893820" lon="-4.151450">
        <ele>240.645</ele>
        <time>2026-07-16T10:15:00.861Z</time>
      </trkpt>
      <trkpt lat="36.893950" lon="-4.151910">
        <ele>240.369</ele>
        <time>2026-07-16T10:15:20.861Z</time>
      </trkpt>
      <trkpt lat="36.893900" lon="-4.152130">
        <ele>239.225</ele>
        <time>2026-07-16T10:15:40.861Z</time>
      </trkpt>
      <trkpt lat="36.893750" lon="-4.152210">
        <ele>238.557</ele>
        <time>2026-07-16T10:16:00.861Z</time>
      </trkpt>
      <trkpt lat="36.893340" lon="-4.152380">
        <ele>241.936</ele>
        <time>2026-07-16T10:16:20.861Z</time>
      </trkpt>
      <trkpt lat="36.893210" lon="-4.152840">
        <ele>243.187</ele>
        <time>2026-07-16T10:16:40.861Z</time>
      </trkpt>
      <trkpt lat="36.893200" lon="-4.153070">
        <ele>244.180</ele>
        <time>2026-07-16T10:17:00.861Z</time>
      </trkpt>
      <trkpt lat="36.893640" lon="-4.153990">
        <ele>254.099</ele>
        <time>2026-07-16T10:17:20.861Z</time>
      </trkpt>
      <trkpt lat="36.894020" lon="-4.154740">
        <ele>254.894</ele>
        <time>2026-07-16T10:17:40.861Z</time>
      </trkpt>
      <trkpt lat="36.894300" lon="-4.155300">
        <ele>254.441</ele>
        <time>2026-07-16T10:18:00.861Z</time>
      </trkpt>
      <trkpt lat="36.894510" lon="-4.155560">
        <ele>255.681</ele>
        <time>2026-07-16T10:18:20.861Z</time>
      </trkpt>
      <trkpt lat="36.894800" lon="-4.155830">
        <ele>257.809</ele>
        <time>2026-07-16T10:18:40.861Z</time>
      </trkpt>
      <trkpt lat="36.895000" lon="-4.156280">
        <ele>260.609</ele>
        <time>2026-07-16T10:19:00.861Z</time>
      </trkpt>
      <trkpt lat="36.895190" lon="-4.157000">
        <ele>261.196</ele>
        <time>2026-07-16T10:19:20.861Z</time>
      </trkpt>
      <trkpt lat="36.895300" lon="-4.157220">
        <ele>261.810</ele>
        <time>2026-07-16T10:19:40.861Z</time>
      </trkpt>
      <trkpt lat="36.895570" lon="-4.157420">
        <ele>263.446</ele>
        <time>2026-07-16T10:20:00.861Z</time>
      </trkpt>
      <trkpt lat="36.896440" lon="-4.157790">
        <ele>266.928</ele>
        <time>2026-07-16T10:20:20.861Z</time>
      </trkpt>
      <trkpt lat="36.896770" lon="-4.158100">
        <ele>267.197</ele>
        <time>2026-07-16T10:20:40.861Z</time>
      </trkpt>
      <trkpt lat="36.897150" lon="-4.158680">
        <ele>268.298</ele>
        <time>2026-07-16T10:21:00.861Z</time>
      </trkpt>
      <trkpt lat="36.897550" lon="-4.159080">
        <ele>270.521</ele>
        <time>2026-07-16T10:21:20.861Z</time>
      </trkpt>
      <trkpt lat="36.897880" lon="-4.159460">
        <ele>270.940</ele>
        <time>2026-07-16T10:21:40.861Z</time>
      </trkpt>
      <trkpt lat="36.898250" lon="-4.159710">
        <ele>271.855</ele>
        <time>2026-07-16T10:22:00.861Z</time>
      </trkpt>
      <trkpt lat="36.898410" lon="-4.159890">
        <ele>271.925</ele>
        <time>2026-07-16T10:22:20.861Z</time>
      </trkpt>
      <trkpt lat="36.898840" lon="-4.160420">
        <ele>276.726</ele>
        <time>2026-07-16T10:22:40.861Z</time>
      </trkpt>
      <trkpt lat="36.899410" lon="-4.160540">
        <ele>276.108</ele>
        <time>2026-07-16T10:23:00.861Z</time>
      </trkpt>
      <trkpt lat="36.899710" lon="-4.160780">
        <ele>274.809</ele>
        <time>2026-07-16T10:23:20.861Z</time>
      </trkpt>
      <trkpt lat="36.900220" lon="-4.161660">
        <ele>278.424</ele>
        <time>2026-07-16T10:23:40.861Z</time>
      </trkpt>
      <trkpt lat="36.900370" lon="-4.161880">
        <ele>279.738</ele>
        <time>2026-07-16T10:24:00.861Z</time>
      </trkpt>
      <trkpt lat="36.900450" lon="-4.162240">
        <ele>284.254</ele>
        <time>2026-07-16T10:24:20.861Z</time>
      </trkpt>
      <trkpt lat="36.900560" lon="-4.162490">
        <ele>286.936</ele>
        <time>2026-07-16T10:24:40.861Z</time>
      </trkpt>
      <trkpt lat="36.900900" lon="-4.162820">
        <ele>286.755</ele>
        <time>2026-07-16T10:25:00.861Z</time>
      </trkpt>
      <trkpt lat="36.901160" lon="-4.163310">
        <ele>291.266</ele>
        <time>2026-07-16T10:25:20.861Z</time>
      </trkpt>
      <trkpt lat="36.901470" lon="-4.163570">
        <ele>295.699</ele>
        <time>2026-07-16T10:25:40.861Z</time>
      </trkpt>
      <trkpt lat="36.902110" lon="-4.163560">
        <ele>294.318</ele>
        <time>2026-07-16T10:26:00.861Z</time>
      </trkpt>
      <trkpt lat="36.902220" lon="-4.163580">
        <ele>294.323</ele>
        <time>2026-07-16T10:26:20.861Z</time>
      </trkpt>
      <trkpt lat="36.902330" lon="-4.163650">
        <ele>296.782</ele>
        <time>2026-07-16T10:26:40.861Z</time>
      </trkpt>
      <trkpt lat="36.902530" lon="-4.163840">
        <ele>300.043</ele>
        <time>2026-07-16T10:27:00.861Z</time>
      </trkpt>
      <trkpt lat="36.902680" lon="-4.163890">
        <ele>299.117</ele>
        <time>2026-07-16T10:27:20.861Z</time>
      </trkpt>
      <trkpt lat="36.902890" lon="-4.163960">
        <ele>297.909</ele>
        <time>2026-07-16T10:27:40.861Z</time>
      </trkpt>
      <trkpt lat="36.903740" lon="-4.164550">
        <ele>307.770</ele>
        <time>2026-07-16T10:28:00.861Z</time>
      </trkpt>
      <trkpt lat="36.904610" lon="-4.164630">
        <ele>307.634</ele>
        <time>2026-07-16T10:28:20.861Z</time>
      </trkpt>
      <trkpt lat="36.904840" lon="-4.164720">
        <ele>310.040</ele>
        <time>2026-07-16T10:28:40.861Z</time>
      </trkpt>
      <trkpt lat="36.905050" lon="-4.165070">
        <ele>313.152</ele>
        <time>2026-07-16T10:29:00.861Z</time>
      </trkpt>
      <trkpt lat="36.905150" lon="-4.165350">
        <ele>313.561</ele>
        <time>2026-07-16T10:29:20.861Z</time>
      </trkpt>
      <trkpt lat="36.905240" lon="-4.165640">
        <ele>310.732</ele>
        <time>2026-07-16T10:29:40.861Z</time>
      </trkpt>
      <trkpt lat="36.905960" lon="-4.166020">
        <ele>312.265</ele>
        <time>2026-07-16T10:30:00.861Z</time>
      </trkpt>
      <trkpt lat="36.906750" lon="-4.166340">
        <ele>321.414</ele>
        <time>2026-07-16T10:30:20.861Z</time>
      </trkpt>
      <trkpt lat="36.906930" lon="-4.166650">
        <ele>322.979</ele>
        <time>2026-07-16T10:30:40.861Z</time>
      </trkpt>
      <trkpt lat="36.907430" lon="-4.166990">
        <ele>327.733</ele>
        <time>2026-07-16T10:31:00.861Z</time>
      </trkpt>
      <trkpt lat="36.907580" lon="-4.167000">
        <ele>329.323</ele>
        <time>2026-07-16T10:31:20.861Z</time>
      </trkpt>
      <trkpt lat="36.907840" lon="-4.166510">
        <ele>333.915</ele>
        <time>2026-07-16T10:31:40.861Z</time>
      </trkpt>
      <trkpt lat="36.908160" lon="-4.165470">
        <ele>343.209</ele>
        <time>2026-07-16T10:32:00.861Z</time>
      </trkpt>
      <trkpt lat="36.908380" lon="-4.165380">
        <ele>346.145</ele>
        <time>2026-07-16T10:32:20.861Z</time>
      </trkpt>
      <trkpt lat="36.909430" lon="-4.166050">
        <ele>356.849</ele>
        <time>2026-07-16T10:32:40.861Z</time>
      </trkpt>
      <trkpt lat="36.909790" lon="-4.166220">
        <ele>358.125</ele>
        <time>2026-07-16T10:33:00.861Z</time>
      </trkpt>
      <trkpt lat="36.910150" lon="-4.166210">
        <ele>359.977</ele>
        <time>2026-07-16T10:33:20.861Z</time>
      </trkpt>
      <trkpt lat="36.910440" lon="-4.166230">
        <ele>362.686</ele>
        <time>2026-07-16T10:33:40.861Z</time>
      </trkpt>
      <trkpt lat="36.910570" lon="-4.166340">
        <ele>364.377</ele>
        <time>2026-07-16T10:34:00.861Z</time>
      </trkpt>
      <trkpt lat="36.910710" lon="-4.166740">
        <ele>368.650</ele>
        <time>2026-07-16T10:34:20.861Z</time>
      </trkpt>
      <trkpt lat="36.911120" lon="-4.167700">
        <ele>375.899</ele>
        <time>2026-07-16T10:34:40.861Z</time>
      </trkpt>
      <trkpt lat="36.911360" lon="-4.168460">
        <ele>380.144</ele>
        <time>2026-07-16T10:35:00.861Z</time>
      </trkpt>
      <trkpt lat="36.911540" lon="-4.168930">
        <ele>383.245</ele>
        <time>2026-07-16T10:35:20.861Z</time>
      </trkpt>
      <trkpt lat="36.911780" lon="-4.169700">
        <ele>385.647</ele>
        <time>2026-07-16T10:35:40.861Z</time>
      </trkpt>
      <trkpt lat="36.911980" lon="-4.170140">
        <ele>388.111</ele>
        <time>2026-07-16T10:36:00.861Z</time>
      </trkpt>
      <trkpt lat="36.912240" lon="-4.170310">
        <ele>392.009</ele>
        <time>2026-07-16T10:36:20.861Z</time>
      </trkpt>
      <trkpt lat="36.912590" lon="-4.170240">
        <ele>396.446</ele>
        <time>2026-07-16T10:36:40.861Z</time>
      </trkpt>
      <trkpt lat="36.913130" lon="-4.170150">
        <ele>399.180</ele>
        <time>2026-07-16T10:37:00.861Z</time>
      </trkpt>
      <trkpt lat="36.913830" lon="-4.170340">
        <ele>406.126</ele>
        <time>2026-07-16T10:37:20.861Z</time>
      </trkpt>
      <trkpt lat="36.914360" lon="-4.170370">
        <ele>409.698</ele>
        <time>2026-07-16T10:37:40.861Z</time>
      </trkpt>
      <trkpt lat="36.914700" lon="-4.170290">
        <ele>412.897</ele>
        <time>2026-07-16T10:38:00.861Z</time>
      </trkpt>
      <trkpt lat="36.914860" lon="-4.170360">
        <ele>415.568</ele>
        <time>2026-07-16T10:38:20.861Z</time>
      </trkpt>
      <trkpt lat="36.915090" lon="-4.170810">
        <ele>419.731</ele>
        <time>2026-07-16T10:38:40.861Z</time>
      </trkpt>
      <trkpt lat="36.915350" lon="-4.171050">
        <ele>422.750</ele>
        <time>2026-07-16T10:39:00.861Z</time>
      </trkpt>
      <trkpt lat="36.915560" lon="-4.171300">
        <ele>426.135</ele>
        <time>2026-07-16T10:39:20.861Z</time>
      </trkpt>
      <trkpt lat="36.915720" lon="-4.171810">
        <ele>427.033</ele>
        <time>2026-07-16T10:39:40.861Z</time>
      </trkpt>
      <trkpt lat="36.915960" lon="-4.172260">
        <ele>428.123</ele>
        <time>2026-07-16T10:40:00.861Z</time>
      </trkpt>
      <trkpt lat="36.916280" lon="-4.172520">
        <ele>432.815</ele>
        <time>2026-07-16T10:40:20.861Z</time>
      </trkpt>
      <trkpt lat="36.916970" lon="-4.172860">
        <ele>438.409</ele>
        <time>2026-07-16T10:40:40.861Z</time>
      </trkpt>
      <trkpt lat="36.917510" lon="-4.172950">
        <ele>442.665</ele>
        <time>2026-07-16T10:41:00.861Z</time>
      </trkpt>
      <trkpt lat="36.918160" lon="-4.172780">
        <ele>450.139</ele>
        <time>2026-07-16T10:41:20.861Z</time>
      </trkpt>
      <trkpt lat="36.918800" lon="-4.172220">
        <ele>455.375</ele>
        <time>2026-07-16T10:41:40.861Z</time>
      </trkpt>
      <trkpt lat="36.919050" lon="-4.172040">
        <ele>456.457</ele>
        <time>2026-07-16T10:42:00.861Z</time>
      </trkpt>
      <trkpt lat="36.919150" lon="-4.172090">
        <ele>457.346</ele>
        <time>2026-07-16T10:42:20.861Z</time>
      </trkpt>
      <trkpt lat="36.919270" lon="-4.172320">
        <ele>459.957</ele>
        <time>2026-07-16T10:42:40.861Z</time>
      </trkpt>
      <trkpt lat="36.919240" lon="-4.172940">
        <ele>462.120</ele>
        <time>2026-07-16T10:43:00.861Z</time>
      </trkpt>
      <trkpt lat="36.919420" lon="-4.173850">
        <ele>467.859</ele>
        <time>2026-07-16T10:43:20.861Z</time>
      </trkpt>
      <trkpt lat="36.919790" lon="-4.175040">
        <ele>476.834</ele>
        <time>2026-07-16T10:43:40.861Z</time>
      </trkpt>
      <trkpt lat="36.919970" lon="-4.175390">
        <ele>481.075</ele>
        <time>2026-07-16T10:44:00.861Z</time>
      </trkpt>
      <trkpt lat="36.920290" lon="-4.175810">
        <ele>482.528</ele>
        <time>2026-07-16T10:44:20.861Z</time>
      </trkpt>
      <trkpt lat="36.920380" lon="-4.176230">
        <ele>487.120</ele>
        <time>2026-07-16T10:44:40.861Z</time>
      </trkpt>
      <trkpt lat="36.920220" lon="-4.176750">
        <ele>490.709</ele>
        <time>2026-07-16T10:45:00.861Z</time>
      </trkpt>
      <trkpt lat="36.919580" lon="-4.177860">
        <ele>491.799</ele>
        <time>2026-07-16T10:45:20.861Z</time>
      </trkpt>
      <trkpt lat="36.919410" lon="-4.178290">
        <ele>494.393</ele>
        <time>2026-07-16T10:45:40.861Z</time>
      </trkpt>
      <trkpt lat="36.919450" lon="-4.178490">
        <ele>495.579</ele>
        <time>2026-07-16T10:46:00.861Z</time>
      </trkpt>
      <trkpt lat="36.919870" lon="-4.178780">
        <ele>496.731</ele>
        <time>2026-07-16T10:46:20.861Z</time>
      </trkpt>
      <trkpt lat="36.920160" lon="-4.178840">
        <ele>497.150</ele>
        <time>2026-07-16T10:46:40.861Z</time>
      </trkpt>
      <trkpt lat="36.920420" lon="-4.178780">
        <ele>498.631</ele>
        <time>2026-07-16T10:47:00.861Z</time>
      </trkpt>
      <trkpt lat="36.920800" lon="-4.178220">
        <ele>506.324</ele>
        <time>2026-07-16T10:47:20.861Z</time>
      </trkpt>
      <trkpt lat="36.921220" lon="-4.177750">
        <ele>510.893</ele>
        <time>2026-07-16T10:47:40.861Z</time>
      </trkpt>
      <trkpt lat="36.921900" lon="-4.177390">
        <ele>519.928</ele>
        <time>2026-07-16T10:48:00.861Z</time>
      </trkpt>
      <trkpt lat="36.922590" lon="-4.177260">
        <ele>522.997</ele>
        <time>2026-07-16T10:48:20.861Z</time>
      </trkpt>
      <trkpt lat="36.923150" lon="-4.177220">
        <ele>531.123</ele>
        <time>2026-07-16T10:48:40.861Z</time>
      </trkpt>
      <trkpt lat="36.923960" lon="-4.177280">
        <ele>536.925</ele>
        <time>2026-07-16T10:49:00.861Z</time>
      </trkpt>
      <trkpt lat="36.924070" lon="-4.177320">
        <ele>537.809</ele>
        <time>2026-07-16T10:49:20.861Z</time>
      </trkpt>
      <trkpt lat="36.924230" lon="-4.177520">
        <ele>540.381</ele>
        <time>2026-07-16T10:49:40.861Z</time>
      </trkpt>
      <trkpt lat="36.924480" lon="-4.178460">
        <ele>542.935</ele>
        <time>2026-07-16T10:50:00.861Z</time>
      </trkpt>
      <trkpt lat="36.924770" lon="-4.179330">
        <ele>553.811</ele>
        <time>2026-07-16T10:50:20.861Z</time>
      </trkpt>
      <trkpt lat="36.924680" lon="-4.180330">
        <ele>555.363</ele>
        <time>2026-07-16T10:50:40.861Z</time>
      </trkpt>
      <trkpt lat="36.924760" lon="-4.180940">
        <ele>560.142</ele>
        <time>2026-07-16T10:51:00.861Z</time>
      </trkpt>
      <trkpt lat="36.925000" lon="-4.181660">
        <ele>564.023</ele>
        <time>2026-07-16T10:51:20.861Z</time>
      </trkpt>
      <trkpt lat="36.925160" lon="-4.182420">
        <ele>563.186</ele>
        <time>2026-07-16T10:51:40.861Z</time>
      </trkpt>
      <trkpt lat="36.925200" lon="-4.183410">
        <ele>559.875</ele>
        <time>2026-07-16T10:52:00.861Z</time>
      </trkpt>
      <trkpt lat="36.925220" lon="-4.183670">
        <ele>557.870</ele>
        <time>2026-07-16T10:52:20.861Z</time>
      </trkpt>
      <trkpt lat="36.925290" lon="-4.183790">
        <ele>557.794</ele>
        <time>2026-07-16T10:52:40.861Z</time>
      </trkpt>
      <trkpt lat="36.925590" lon="-4.184090">
        <ele>563.257</ele>
        <time>2026-07-16T10:53:00.861Z</time>
      </trkpt>
      <trkpt lat="36.925740" lon="-4.184370">
        <ele>566.822</ele>
        <time>2026-07-16T10:53:20.861Z</time>
      </trkpt>
      <trkpt lat="36.925900" lon="-4.184920">
        <ele>567.909</ele>
        <time>2026-07-16T10:53:40.861Z</time>
      </trkpt>
      <trkpt lat="36.926210" lon="-4.185480">
        <ele>572.291</ele>
        <time>2026-07-16T10:54:00.861Z</time>
      </trkpt>
      <trkpt lat="36.926600" lon="-4.185750">
        <ele>575.645</ele>
        <time>2026-07-16T10:54:20.861Z</time>
      </trkpt>
      <trkpt lat="36.926760" lon="-4.185950">
        <ele>576.111</ele>
        <time>2026-07-16T10:54:40.861Z</time>
      </trkpt>
      <trkpt lat="36.926970" lon="-4.186400">
        <ele>573.383</ele>
        <time>2026-07-16T10:55:00.861Z</time>
      </trkpt>
      <trkpt lat="36.926990" lon="-4.186420">
        <ele>573.682</ele>
        <time>2026-07-16T10:55:20.861Z</time>
      </trkpt>
      <trkpt lat="36.927010" lon="-4.186450">
        <ele>573.833</ele>
        <time>2026-07-16T10:55:40.861Z</time>
      </trkpt>
      <trkpt lat="36.927010" lon="-4.186490">
        <ele>573.746</ele>
        <time>2026-07-16T10:56:00.861Z</time>
      </trkpt>
      <trkpt lat="36.927060" lon="-4.186650">
        <ele>574.135</ele>
        <time>2026-07-16T10:56:20.861Z</time>
      </trkpt>
      <trkpt lat="36.927370" lon="-4.187590">
        <ele>575.870</ele>
        <time>2026-07-16T10:56:40.861Z</time>
      </trkpt>
      <trkpt lat="36.927620" lon="-4.188210">
        <ele>575.735</ele>
        <time>2026-07-16T10:57:00.861Z</time>
      </trkpt>
      <trkpt lat="36.927710" lon="-4.188320">
        <ele>577.486</ele>
        <time>2026-07-16T10:57:20.861Z</time>
      </trkpt>
      <trkpt lat="36.928060" lon="-4.188540">
        <ele>581.814</ele>
        <time>2026-07-16T10:57:40.861Z</time>
      </trkpt>
      <trkpt lat="36.928240" lon="-4.188690">
        <ele>582.309</ele>
        <time>2026-07-16T10:58:00.861Z</time>
      </trkpt>
      <trkpt lat="36.928610" lon="-4.189120">
        <ele>584.545</ele>
        <time>2026-07-16T10:58:20.861Z</time>
      </trkpt>
      <trkpt lat="36.928850" lon="-4.189380">
        <ele>584.529</ele>
        <time>2026-07-16T10:58:40.861Z</time>
      </trkpt>
      <trkpt lat="36.928940" lon="-4.189400">
        <ele>585.555</ele>
        <time>2026-07-16T10:59:00.861Z</time>
      </trkpt>
      <trkpt lat="36.929310" lon="-4.189370">
        <ele>592.237</ele>
        <time>2026-07-16T10:59:20.861Z</time>
      </trkpt>
      <trkpt lat="36.929560" lon="-4.189470">
        <ele>594.976</ele>
        <time>2026-07-16T10:59:40.861Z</time>
      </trkpt>
      <trkpt lat="36.930020" lon="-4.189720">
        <ele>598.327</ele>
        <time>2026-07-16T11:00:00.861Z</time>
      </trkpt>
      <trkpt lat="36.930110" lon="-4.189870">
        <ele>597.810</ele>
        <time>2026-07-16T11:00:20.861Z</time>
      </trkpt>
      <trkpt lat="36.930100" lon="-4.190160">
        <ele>595.779</ele>
        <time>2026-07-16T11:00:40.861Z</time>
      </trkpt>
      <trkpt lat="36.930120" lon="-4.190620">
        <ele>595.714</ele>
        <time>2026-07-16T11:01:00.861Z</time>
      </trkpt>
      <trkpt lat="36.930260" lon="-4.191000">
        <ele>593.751</ele>
        <time>2026-07-16T11:01:20.861Z</time>
      </trkpt>
      <trkpt lat="36.930460" lon="-4.191410">
        <ele>593.701</ele>
        <time>2026-07-16T11:01:40.861Z</time>
      </trkpt>
      <trkpt lat="36.930560" lon="-4.191840">
        <ele>592.211</ele>
        <time>2026-07-16T11:02:00.861Z</time>
      </trkpt>
      <trkpt lat="36.930670" lon="-4.192360">
        <ele>589.209</ele>
        <time>2026-07-16T11:02:20.861Z</time>
      </trkpt>
      <trkpt lat="36.931110" lon="-4.193040">
        <ele>587.437</ele>
        <time>2026-07-16T11:02:40.861Z</time>
      </trkpt>
      <trkpt lat="36.931400" lon="-4.193330">
        <ele>588.391</ele>
        <time>2026-07-16T11:03:00.861Z</time>
      </trkpt>
      <trkpt lat="36.931700" lon="-4.193540">
        <ele>592.247</ele>
        <time>2026-07-16T11:03:20.861Z</time>
      </trkpt>
      <trkpt lat="36.931840" lon="-4.193670">
        <ele>592.719</ele>
        <time>2026-07-16T11:03:40.861Z</time>
      </trkpt>
      <trkpt lat="36.931870" lon="-4.193670">
        <ele>593.058</ele>
        <time>2026-07-16T11:04:00.861Z</time>
      </trkpt>
      <trkpt lat="36.931900" lon="-4.193680">
        <ele>593.379</ele>
        <time>2026-07-16T11:04:20.861Z</time>
      </trkpt>
      <trkpt lat="36.931920" lon="-4.193700">
        <ele>593.442</ele>
        <time>2026-07-16T11:04:40.861Z</time>
      </trkpt>
      <trkpt lat="36.931940" lon="-4.193730">
        <ele>593.521</ele>
        <time>2026-07-16T11:05:00.861Z</time>
      </trkpt>
      <trkpt lat="36.931950" lon="-4.193770">
        <ele>593.576</ele>
        <time>2026-07-16T11:05:20.861Z</time>
      </trkpt>
      <trkpt lat="36.931940" lon="-4.193800">
        <ele>593.335</ele>
        <time>2026-07-16T11:05:40.861Z</time>
      </trkpt>
      <trkpt lat="36.931930" lon="-4.193830">
        <ele>593.186</ele>
        <time>2026-07-16T11:06:00.861Z</time>
      </trkpt>
      <trkpt lat="36.931940" lon="-4.193910">
        <ele>593.014</ele>
        <time>2026-07-16T11:06:20.861Z</time>
      </trkpt>
      <trkpt lat="36.931930" lon="-4.194260">
        <ele>593.809</ele>
        <time>2026-07-16T11:06:40.861Z</time>
      </trkpt>
      <trkpt lat="36.932090" lon="-4.194790">
        <ele>593.385</ele>
        <time>2026-07-16T11:07:00.861Z</time>
      </trkpt>
      <trkpt lat="36.932310" lon="-4.195150">
        <ele>591.639</ele>
        <time>2026-07-16T11:07:20.861Z</time>
      </trkpt>
      <trkpt lat="36.932720" lon="-4.195610">
        <ele>589.015</ele>
        <time>2026-07-16T11:07:40.861Z</time>
      </trkpt>
      <trkpt lat="36.933150" lon="-4.195800">
        <ele>588.517</ele>
        <time>2026-07-16T11:08:00.861Z</time>
      </trkpt>
      <trkpt lat="36.933260" lon="-4.196040">
        <ele>587.766</ele>
        <time>2026-07-16T11:08:20.861Z</time>
      </trkpt>
      <trkpt lat="36.933440" lon="-4.196990">
        <ele>585.627</ele>
        <time>2026-07-16T11:08:40.861Z</time>
      </trkpt>
      <trkpt lat="36.933560" lon="-4.197480">
        <ele>584.220</ele>
        <time>2026-07-16T11:09:00.861Z</time>
      </trkpt>
      <trkpt lat="36.933500" lon="-4.197990">
        <ele>582.139</ele>
        <time>2026-07-16T11:09:20.861Z</time>
      </trkpt>
      <trkpt lat="36.933540" lon="-4.198500">
        <ele>582.544</ele>
        <time>2026-07-16T11:09:40.861Z</time>
      </trkpt>
      <trkpt lat="36.933670" lon="-4.198830">
        <ele>584.784</ele>
        <time>2026-07-16T11:10:00.861Z</time>
      </trkpt>
      <trkpt lat="36.934280" lon="-4.199430">
        <ele>585.007</ele>
        <time>2026-07-16T11:10:20.861Z</time>
      </trkpt>
      <trkpt lat="36.934740" lon="-4.199760">
        <ele>584.617</ele>
        <time>2026-07-16T11:10:40.861Z</time>
      </trkpt>
      <trkpt lat="36.935070" lon="-4.200130">
        <ele>580.309</ele>
        <time>2026-07-16T11:11:00.861Z</time>
      </trkpt>
      <trkpt lat="36.935590" lon="-4.200320">
        <ele>579.740</ele>
        <time>2026-07-16T11:11:20.861Z</time>
      </trkpt>
      <trkpt lat="36.935910" lon="-4.200320">
        <ele>576.544</ele>
        <time>2026-07-16T11:11:40.861Z</time>
      </trkpt>
      <trkpt lat="36.936250" lon="-4.200130">
        <ele>576.970</ele>
        <time>2026-07-16T11:12:00.861Z</time>
      </trkpt>
      <trkpt lat="36.936530" lon="-4.199810">
        <ele>579.452</ele>
        <time>2026-07-16T11:12:20.861Z</time>
      </trkpt>
      <trkpt lat="36.936820" lon="-4.199690">
        <ele>581.321</ele>
        <time>2026-07-16T11:12:40.861Z</time>
      </trkpt>
      <trkpt lat="36.937140" lon="-4.199750">
        <ele>581.842</ele>
        <time>2026-07-16T11:13:00.861Z</time>
      </trkpt>
      <trkpt lat="36.937460" lon="-4.199930">
        <ele>579.955</ele>
        <time>2026-07-16T11:13:20.861Z</time>
      </trkpt>
      <trkpt lat="36.937900" lon="-4.199870">
        <ele>578.524</ele>
        <time>2026-07-16T11:13:40.861Z</time>
      </trkpt>
      <trkpt lat="36.938240" lon="-4.199700">
        <ele>576.539</ele>
        <time>2026-07-16T11:14:00.861Z</time>
      </trkpt>
      <trkpt lat="36.938620" lon="-4.199380">
        <ele>577.617</ele>
        <time>2026-07-16T11:14:20.861Z</time>
      </trkpt>
      <trkpt lat="36.938940" lon="-4.199240">
        <ele>578.787</ele>
        <time>2026-07-16T11:14:40.861Z</time>
      </trkpt>
      <trkpt lat="36.939120" lon="-4.199320">
        <ele>577.215</ele>
        <time>2026-07-16T11:15:00.861Z</time>
      </trkpt>
      <trkpt lat="36.939190" lon="-4.199310">
        <ele>577.409</ele>
        <time>2026-07-16T11:15:20.861Z</time>
      </trkpt>
      <trkpt lat="36.939470" lon="-4.199330">
        <ele>576.563</ele>
        <time>2026-07-16T11:15:40.861Z</time>
      </trkpt>
      <trkpt lat="36.939670" lon="-4.199160">
        <ele>578.337</ele>
        <time>2026-07-16T11:16:00.861Z</time>
      </trkpt>
      <trkpt lat="36.940150" lon="-4.199070">
        <ele>583.653</ele>
        <time>2026-07-16T11:16:20.861Z</time>
      </trkpt>
      <trkpt lat="36.940350" lon="-4.199160">
        <ele>585.435</ele>
        <time>2026-07-16T11:16:40.861Z</time>
      </trkpt>
      <trkpt lat="36.940500" lon="-4.199480">
        <ele>584.534</ele>
        <time>2026-07-16T11:17:00.861Z</time>
      </trkpt>
      <trkpt lat="36.940710" lon="-4.199680">
        <ele>586.545</ele>
        <time>2026-07-16T11:17:20.861Z</time>
      </trkpt>
      <trkpt lat="36.940890" lon="-4.199900">
        <ele>586.668</ele>
        <time>2026-07-16T11:17:40.861Z</time>
      </trkpt>
      <trkpt lat="36.941060" lon="-4.200170">
        <ele>585.037</ele>
        <time>2026-07-16T11:18:00.861Z</time>
      </trkpt>
      <trkpt lat="36.941340" lon="-4.200290">
        <ele>586.312</ele>
        <time>2026-07-16T11:18:20.861Z</time>
      </trkpt>
      <trkpt lat="36.941980" lon="-4.200170">
        <ele>588.876</ele>
        <time>2026-07-16T11:18:40.861Z</time>
      </trkpt>
      <trkpt lat="36.942370" lon="-4.199830">
        <ele>592.590</ele>
        <time>2026-07-16T11:19:00.861Z</time>
      </trkpt>
      <trkpt lat="36.942810" lon="-4.199400">
        <ele>593.419</ele>
        <time>2026-07-16T11:19:20.861Z</time>
      </trkpt>
      <trkpt lat="36.942960" lon="-4.198980">
        <ele>598.809</ele>
        <time>2026-07-16T11:19:40.861Z</time>
      </trkpt>
      <trkpt lat="36.943300" lon="-4.198590">
        <ele>598.089</ele>
        <time>2026-07-16T11:20:00.861Z</time>
      </trkpt>
      <trkpt lat="36.943570" lon="-4.198450">
        <ele>596.673</ele>
        <time>2026-07-16T11:20:20.861Z</time>
      </trkpt>
      <trkpt lat="36.943790" lon="-4.198300">
        <ele>597.999</ele>
        <time>2026-07-16T11:20:40.861Z</time>
      </trkpt>
      <trkpt lat="36.944420" lon="-4.198450">
        <ele>596.821</ele>
        <time>2026-07-16T11:21:00.861Z</time>
      </trkpt>
      <trkpt lat="36.944860" lon="-4.198840">
        <ele>596.270</ele>
        <time>2026-07-16T11:21:20.861Z</time>
      </trkpt>
      <trkpt lat="36.945130" lon="-4.199230">
        <ele>599.981</ele>
        <time>2026-07-16T11:21:40.861Z</time>
      </trkpt>
      <trkpt lat="36.945220" lon="-4.199750">
        <ele>600.344</ele>
        <time>2026-07-16T11:22:00.861Z</time>
      </trkpt>
      <trkpt lat="36.945300" lon="-4.200340">
        <ele>595.633</ele>
        <time>2026-07-16T11:22:20.861Z</time>
      </trkpt>
      <trkpt lat="36.945570" lon="-4.200730">
        <ele>593.848</ele>
        <time>2026-07-16T11:22:40.861Z</time>
      </trkpt>
      <trkpt lat="36.945750" lon="-4.200830">
        <ele>593.718</ele>
        <time>2026-07-16T11:23:00.861Z</time>
      </trkpt>
      <trkpt lat="36.945890" lon="-4.200750">
        <ele>594.998</ele>
        <time>2026-07-16T11:23:20.861Z</time>
      </trkpt>
      <trkpt lat="36.946260" lon="-4.200620">
        <ele>596.717</ele>
        <time>2026-07-16T11:23:40.861Z</time>
      </trkpt>
      <trkpt lat="36.946600" lon="-4.200670">
        <ele>596.809</ele>
        <time>2026-07-16T11:24:00.861Z</time>
      </trkpt>
      <trkpt lat="36.947240" lon="-4.201020">
        <ele>596.123</ele>
        <time>2026-07-16T11:24:20.861Z</time>
      </trkpt>
      <trkpt lat="36.947550" lon="-4.201120">
        <ele>596.597</ele>
        <time>2026-07-16T11:24:40.861Z</time>
      </trkpt>
      <trkpt lat="36.947850" lon="-4.201040">
        <ele>595.683</ele>
        <time>2026-07-16T11:25:00.861Z</time>
      </trkpt>
      <trkpt lat="36.948770" lon="-4.200470">
        <ele>602.255</ele>
        <time>2026-07-16T11:25:20.861Z</time>
      </trkpt>
      <trkpt lat="36.949070" lon="-4.200010">
        <ele>604.334</ele>
        <time>2026-07-16T11:25:40.861Z</time>
      </trkpt>
      <trkpt lat="36.949390" lon="-4.199800">
        <ele>606.335</ele>
        <time>2026-07-16T11:26:00.861Z</time>
      </trkpt>
      <trkpt lat="36.949510" lon="-4.199610">
        <ele>607.278</ele>
        <time>2026-07-16T11:26:20.861Z</time>
      </trkpt>
      <trkpt lat="36.949590" lon="-4.199240">
        <ele>609.977</ele>
        <time>2026-07-16T11:26:40.861Z</time>
      </trkpt>
      <trkpt lat="36.949860" lon="-4.198760">
        <ele>609.782</ele>
        <time>2026-07-16T11:27:00.861Z</time>
      </trkpt>
      <trkpt lat="36.950070" lon="-4.198470">
        <ele>608.288</ele>
        <time>2026-07-16T11:27:20.861Z</time>
      </trkpt>
      <trkpt lat="36.950220" lon="-4.197930">
        <ele>609.924</ele>
        <time>2026-07-16T11:27:40.861Z</time>
      </trkpt>
      <trkpt lat="36.950550" lon="-4.197570">
        <ele>605.926</ele>
        <time>2026-07-16T11:28:00.861Z</time>
      </trkpt>
      <trkpt lat="36.950620" lon="-4.197560">
        <ele>605.409</ele>
        <time>2026-07-16T11:28:20.861Z</time>
      </trkpt>
      <trkpt lat="36.950820" lon="-4.197770">
        <ele>605.060</ele>
        <time>2026-07-16T11:28:40.861Z</time>
      </trkpt>
      <trkpt lat="36.950860" lon="-4.197930">
        <ele>607.124</ele>
        <time>2026-07-16T11:29:00.861Z</time>
      </trkpt>
      <trkpt lat="36.950810" lon="-4.198480">
        <ele>609.180</ele>
        <time>2026-07-16T11:29:20.861Z</time>
      </trkpt>
      <trkpt lat="36.950940" lon="-4.198850">
        <ele>607.252</ele>
        <time>2026-07-16T11:29:40.861Z</time>
      </trkpt>
      <trkpt lat="36.951160" lon="-4.199110">
        <ele>607.651</ele>
        <time>2026-07-16T11:30:00.861Z</time>
      </trkpt>
      <trkpt lat="36.951430" lon="-4.199320">
        <ele>610.022</ele>
        <time>2026-07-16T11:30:20.861Z</time>
      </trkpt>
      <trkpt lat="36.951530" lon="-4.199590">
        <ele>613.365</ele>
        <time>2026-07-16T11:30:40.861Z</time>
      </trkpt>
      <trkpt lat="36.951610" lon="-4.200360">
        <ele>618.794</ele>
        <time>2026-07-16T11:31:00.861Z</time>
      </trkpt>
      <trkpt lat="36.951710" lon="-4.200540">
        <ele>621.599</ele>
        <time>2026-07-16T11:31:20.861Z</time>
      </trkpt>
      <trkpt lat="36.951880" lon="-4.200800">
        <ele>624.183</ele>
        <time>2026-07-16T11:31:40.861Z</time>
      </trkpt>
      <trkpt lat="36.952030" lon="-4.201010">
        <ele>625.525</ele>
        <time>2026-07-16T11:32:00.861Z</time>
      </trkpt>
      <trkpt lat="36.952190" lon="-4.201220">
        <ele>627.217</ele>
        <time>2026-07-16T11:32:20.861Z</time>
      </trkpt>
      <trkpt lat="36.952270" lon="-4.201480">
        <ele>627.609</ele>
        <time>2026-07-16T11:32:40.861Z</time>
      </trkpt>
      <trkpt lat="36.952320" lon="-4.201660">
        <ele>628.170</ele>
        <time>2026-07-16T11:33:00.861Z</time>
      </trkpt>
      <trkpt lat="36.952480" lon="-4.201770">
        <ele>628.324</ele>
        <time>2026-07-16T11:33:20.861Z</time>
      </trkpt>
      <trkpt lat="36.952610" lon="-4.201740">
        <ele>629.820</ele>
        <time>2026-07-16T11:33:40.861Z</time>
      </trkpt>
      <trkpt lat="36.952700" lon="-4.201630">
        <ele>631.852</ele>
        <time>2026-07-16T11:34:00.861Z</time>
      </trkpt>
      <trkpt lat="36.952740" lon="-4.201430">
        <ele>634.171</ele>
        <time>2026-07-16T11:34:20.861Z</time>
      </trkpt>
      <trkpt lat="36.952760" lon="-4.200670">
        <ele>634.732</ele>
        <time>2026-07-16T11:34:40.861Z</time>
      </trkpt>
      <trkpt lat="36.952840" lon="-4.200410">
        <ele>637.775</ele>
        <time>2026-07-16T11:35:00.861Z</time>
      </trkpt>
      <trkpt lat="36.953140" lon="-4.199710">
        <ele>646.944</ele>
        <time>2026-07-16T11:35:20.861Z</time>
      </trkpt>
      <trkpt lat="36.953310" lon="-4.199150">
        <ele>648.539</ele>
        <time>2026-07-16T11:35:40.861Z</time>
      </trkpt>
      <trkpt lat="36.953290" lon="-4.198730">
        <ele>646.631</ele>
        <time>2026-07-16T11:36:00.861Z</time>
      </trkpt>
      <trkpt lat="36.953340" lon="-4.198510">
        <ele>646.461</ele>
        <time>2026-07-16T11:36:20.861Z</time>
      </trkpt>
      <trkpt lat="36.953740" lon="-4.198040">
        <ele>654.107</ele>
        <time>2026-07-16T11:36:40.861Z</time>
      </trkpt>
      <trkpt lat="36.953990" lon="-4.197750">
        <ele>657.609</ele>
        <time>2026-07-16T11:37:00.861Z</time>
      </trkpt>
      <trkpt lat="36.954150" lon="-4.197470">
        <ele>658.235</ele>
        <time>2026-07-16T11:37:20.861Z</time>
      </trkpt>
      <trkpt lat="36.954280" lon="-4.197430">
        <ele>660.039</ele>
        <time>2026-07-16T11:37:40.861Z</time>
      </trkpt>
      <trkpt lat="36.954350" lon="-4.197510">
        <ele>662.445</ele>
        <time>2026-07-16T11:38:00.861Z</time>
      </trkpt>
      <trkpt lat="36.954240" lon="-4.197830">
        <ele>663.087</ele>
        <time>2026-07-16T11:38:20.861Z</time>
      </trkpt>
      <trkpt lat="36.954180" lon="-4.198060">
        <ele>664.296</ele>
        <time>2026-07-16T11:38:40.861Z</time>
      </trkpt>
      <trkpt lat="36.954350" lon="-4.198620">
        <ele>668.027</ele>
        <time>2026-07-16T11:39:00.861Z</time>
      </trkpt>
      <trkpt lat="36.954620" lon="-4.199000">
        <ele>670.330</ele>
        <time>2026-07-16T11:39:20.861Z</time>
      </trkpt>
      <trkpt lat="36.954900" lon="-4.199010">
        <ele>674.269</ele>
        <time>2026-07-16T11:39:40.861Z</time>
      </trkpt>
      <trkpt lat="36.955070" lon="-4.198820">
        <ele>678.624</ele>
        <time>2026-07-16T11:40:00.861Z</time>
      </trkpt>
      <trkpt lat="36.955230" lon="-4.198270">
        <ele>681.023</ele>
        <time>2026-07-16T11:40:20.861Z</time>
      </trkpt>
      <trkpt lat="36.955260" lon="-4.197940">
        <ele>680.383</ele>
        <time>2026-07-16T11:40:40.861Z</time>
      </trkpt>
      <trkpt lat="36.955440" lon="-4.197760">
        <ele>682.211</ele>
        <time>2026-07-16T11:41:00.861Z</time>
      </trkpt>
      <trkpt lat="36.955900" lon="-4.197450">
        <ele>683.909</ele>
        <time>2026-07-16T11:41:20.861Z</time>
      </trkpt>
      <trkpt lat="36.956130" lon="-4.197380">
        <ele>685.824</ele>
        <time>2026-07-16T11:41:40.861Z</time>
      </trkpt>
      <trkpt lat="36.956590" lon="-4.197340">
        <ele>691.698</ele>
        <time>2026-07-16T11:42:00.861Z</time>
      </trkpt>
      <trkpt lat="36.957210" lon="-4.197080">
        <ele>695.824</ele>
        <time>2026-07-16T11:42:20.861Z</time>
      </trkpt>
      <trkpt lat="36.957380" lon="-4.196770">
        <ele>697.086</ele>
        <time>2026-07-16T11:42:40.861Z</time>
      </trkpt>
      <trkpt lat="36.957510" lon="-4.196660">
        <ele>699.135</ele>
        <time>2026-07-16T11:43:00.861Z</time>
      </trkpt>
      <trkpt lat="36.957850" lon="-4.196590">
        <ele>703.466</ele>
        <time>2026-07-16T11:43:20.861Z</time>
      </trkpt>
      <trkpt lat="36.958310" lon="-4.196440">
        <ele>704.679</ele>
        <time>2026-07-16T11:43:40.861Z</time>
      </trkpt>
      <trkpt lat="36.958410" lon="-4.196500">
        <ele>706.498</ele>
        <time>2026-07-16T11:44:00.861Z</time>
      </trkpt>
      <trkpt lat="36.958410" lon="-4.196760">
        <ele>710.143</ele>
        <time>2026-07-16T11:44:20.861Z</time>
      </trkpt>
      <trkpt lat="36.958340" lon="-4.197250">
        <ele>716.378</ele>
        <time>2026-07-16T11:44:40.861Z</time>
      </trkpt>
      <trkpt lat="36.958170" lon="-4.197570">
        <ele>718.033</ele>
        <time>2026-07-16T11:45:00.861Z</time>
      </trkpt>
      <trkpt lat="36.958070" lon="-4.197840">
        <ele>717.226</ele>
        <time>2026-07-16T11:45:20.861Z</time>
      </trkpt>
      <trkpt lat="36.958040" lon="-4.198100">
        <ele>717.409</ele>
        <time>2026-07-16T11:45:40.861Z</time>
      </trkpt>
      <trkpt lat="36.958030" lon="-4.198330">
        <ele>720.639</ele>
        <time>2026-07-16T11:46:00.861Z</time>
      </trkpt>
      <trkpt lat="36.957810" lon="-4.198750">
        <ele>725.383</ele>
        <time>2026-07-16T11:46:20.861Z</time>
      </trkpt>
      <trkpt lat="36.957770" lon="-4.198910">
        <ele>727.159</ele>
        <time>2026-07-16T11:46:40.861Z</time>
      </trkpt>
      <trkpt lat="36.957850" lon="-4.199010">
        <ele>728.751</ele>
        <time>2026-07-16T11:47:00.861Z</time>
      </trkpt>
      <trkpt lat="36.958420" lon="-4.198920">
        <ele>732.090</ele>
        <time>2026-07-16T11:47:20.861Z</time>
      </trkpt>
      <trkpt lat="36.958570" lon="-4.198900">
        <ele>734.411</ele>
        <time>2026-07-16T11:47:40.861Z</time>
      </trkpt>
      <trkpt lat="36.958760" lon="-4.198700">
        <ele>736.454</ele>
        <time>2026-07-16T11:48:00.861Z</time>
      </trkpt>
      <trkpt lat="36.958870" lon="-4.198640">
        <ele>738.893</ele>
        <time>2026-07-16T11:48:20.861Z</time>
      </trkpt>
      <trkpt lat="36.958980" lon="-4.198730">
        <ele>742.918</ele>
        <time>2026-07-16T11:48:40.861Z</time>
      </trkpt>
      <trkpt lat="36.959020" lon="-4.198940">
        <ele>746.159</ele>
        <time>2026-07-16T11:49:00.861Z</time>
      </trkpt>
      <trkpt lat="36.958890" lon="-4.199340">
        <ele>745.303</ele>
        <time>2026-07-16T11:49:20.861Z</time>
      </trkpt>
      <trkpt lat="36.958860" lon="-4.199540">
        <ele>745.423</ele>
        <time>2026-07-16T11:49:40.861Z</time>
      </trkpt>
      <trkpt lat="36.958910" lon="-4.199700">
        <ele>746.509</ele>
        <time>2026-07-16T11:50:00.861Z</time>
      </trkpt>
      <trkpt lat="36.959300" lon="-4.200120">
        <ele>754.247</ele>
        <time>2026-07-16T11:50:20.861Z</time>
      </trkpt>
      <trkpt lat="36.959550" lon="-4.200460">
        <ele>756.811</ele>
        <time>2026-07-16T11:50:40.861Z</time>
      </trkpt>
      <trkpt lat="36.959700" lon="-4.200910">
        <ele>756.647</ele>
        <time>2026-07-16T11:51:00.861Z</time>
      </trkpt>
      <trkpt lat="36.959890" lon="-4.201270">
        <ele>758.899</ele>
        <time>2026-07-16T11:51:20.861Z</time>
      </trkpt>
      <trkpt lat="36.960050" lon="-4.201330">
        <ele>760.938</ele>
        <time>2026-07-16T11:51:40.861Z</time>
      </trkpt>
      <trkpt lat="36.960160" lon="-4.201250">
        <ele>762.899</ele>
        <time>2026-07-16T11:52:00.861Z</time>
      </trkpt>
      <trkpt lat="36.960160" lon="-4.200980">
        <ele>764.312</ele>
        <time>2026-07-16T11:52:20.861Z</time>
      </trkpt>
      <trkpt lat="36.959990" lon="-4.200530">
        <ele>763.061</ele>
        <time>2026-07-16T11:52:40.862Z</time>
      </trkpt>
      <trkpt lat="36.959980" lon="-4.200330">
        <ele>764.316</ele>
        <time>2026-07-16T11:53:00.862Z</time>
      </trkpt>
      <trkpt lat="36.960060" lon="-4.200140">
        <ele>767.799</ele>
        <time>2026-07-16T11:53:20.862Z</time>
      </trkpt>
      <trkpt lat="36.960170" lon="-4.200110">
        <ele>770.107</ele>
        <time>2026-07-16T11:53:40.862Z</time>
      </trkpt>
      <trkpt lat="36.960380" lon="-4.200230">
        <ele>773.127</ele>
        <time>2026-07-16T11:54:00.862Z</time>
      </trkpt>
      <trkpt lat="36.960640" lon="-4.200460">
        <ele>778.309</ele>
        <time>2026-07-16T11:54:20.862Z</time>
      </trkpt>
      <trkpt lat="36.960890" lon="-4.201010">
        <ele>778.291</ele>
        <time>2026-07-16T11:54:40.862Z</time>
      </trkpt>
      <trkpt lat="36.960970" lon="-4.201040">
        <ele>779.835</ele>
        <time>2026-07-16T11:55:00.862Z</time>
      </trkpt>
      <trkpt lat="36.961030" lon="-4.201000">
        <ele>781.881</ele>
        <time>2026-07-16T11:55:20.862Z</time>
      </trkpt>
      <trkpt lat="36.961130" lon="-4.200110">
        <ele>787.853</ele>
        <time>2026-07-16T11:55:40.862Z</time>
      </trkpt>
      <trkpt lat="36.961220" lon="-4.199780">
        <ele>787.172</ele>
        <time>2026-07-16T11:56:00.862Z</time>
      </trkpt>
      <trkpt lat="36.961420" lon="-4.199720">
        <ele>789.253</ele>
        <time>2026-07-16T11:56:20.862Z</time>
      </trkpt>
      <trkpt lat="36.961850" lon="-4.199770">
        <ele>794.016</ele>
        <time>2026-07-16T11:56:40.862Z</time>
      </trkpt>
      <trkpt lat="36.961910" lon="-4.199800">
        <ele>795.395</ele>
        <time>2026-07-16T11:57:00.862Z</time>
      </trkpt>
      <trkpt lat="36.961930" lon="-4.199850">
        <ele>796.660</ele>
        <time>2026-07-16T11:57:20.862Z</time>
      </trkpt>
      <trkpt lat="36.961910" lon="-4.199930">
        <ele>798.053</ele>
        <time>2026-07-16T11:57:40.862Z</time>
      </trkpt>
      <trkpt lat="36.961750" lon="-4.200040">
        <ele>797.704</ele>
        <time>2026-07-16T11:58:00.862Z</time>
      </trkpt>
      <trkpt lat="36.961680" lon="-4.200150">
        <ele>797.814</ele>
        <time>2026-07-16T11:58:20.862Z</time>
      </trkpt>
      <trkpt lat="36.961750" lon="-4.200240">
        <ele>800.109</ele>
        <time>2026-07-16T11:58:40.862Z</time>
      </trkpt>
      <trkpt lat="36.962070" lon="-4.200240">
        <ele>804.937</ele>
        <time>2026-07-16T11:59:00.862Z</time>
      </trkpt>
      <trkpt lat="36.962310" lon="-4.200320">
        <ele>807.571</ele>
        <time>2026-07-16T11:59:20.862Z</time>
      </trkpt>
      <trkpt lat="36.962710" lon="-4.200700">
        <ele>810.937</ele>
        <time>2026-07-16T11:59:40.862Z</time>
      </trkpt>
      <trkpt lat="36.962890" lon="-4.200840">
        <ele>812.099</ele>
        <time>2026-07-16T12:00:00.862Z</time>
      </trkpt>
      <trkpt lat="36.963550" lon="-4.201100">
        <ele>816.528</ele>
        <time>2026-07-16T12:00:20.862Z</time>
      </trkpt>
      <trkpt lat="36.963600" lon="-4.201180">
        <ele>817.989</ele>
        <time>2026-07-16T12:00:40.862Z</time>
      </trkpt>
      <trkpt lat="36.963580" lon="-4.201300">
        <ele>819.532</ele>
        <time>2026-07-16T12:01:00.862Z</time>
      </trkpt>
      <trkpt lat="36.963430" lon="-4.201430">
        <ele>820.091</ele>
        <time>2026-07-16T12:01:20.862Z</time>
      </trkpt>
      <trkpt lat="36.963350" lon="-4.201600">
        <ele>820.746</ele>
        <time>2026-07-16T12:01:40.862Z</time>
      </trkpt>
      <trkpt lat="36.963310" lon="-4.202010">
        <ele>822.056</ele>
        <time>2026-07-16T12:02:00.862Z</time>
      </trkpt>
      <trkpt lat="36.963350" lon="-4.202110">
        <ele>823.559</ele>
        <time>2026-07-16T12:02:20.862Z</time>
      </trkpt>
      <trkpt lat="36.963460" lon="-4.202120">
        <ele>825.514</ele>
        <time>2026-07-16T12:02:40.862Z</time>
      </trkpt>
      <trkpt lat="36.963680" lon="-4.202050">
        <ele>828.409</ele>
        <time>2026-07-16T12:03:00.862Z</time>
      </trkpt>
      <trkpt lat="36.963880" lon="-4.202170">
        <ele>832.187</ele>
        <time>2026-07-16T12:03:20.862Z</time>
      </trkpt>
      <trkpt lat="36.964090" lon="-4.202370">
        <ele>836.221</ele>
        <time>2026-07-16T12:03:40.862Z</time>
      </trkpt>
      <trkpt lat="36.964630" lon="-4.202500">
        <ele>841.327</ele>
        <time>2026-07-16T12:04:00.862Z</time>
      </trkpt>
      <trkpt lat="36.965010" lon="-4.202450">
        <ele>843.999</ele>
        <time>2026-07-16T12:04:20.862Z</time>
      </trkpt>
      <trkpt lat="36.965410" lon="-4.202470">
        <ele>848.838</ele>
        <time>2026-07-16T12:04:40.862Z</time>
      </trkpt>
      <trkpt lat="36.965850" lon="-4.202460">
        <ele>853.059</ele>
        <time>2026-07-16T12:05:00.862Z</time>
      </trkpt>
      <trkpt lat="36.966140" lon="-4.202380">
        <ele>853.062</ele>
        <time>2026-07-16T12:05:20.862Z</time>
      </trkpt>
      <trkpt lat="36.966170" lon="-4.202460">
        <ele>854.991</ele>
        <time>2026-07-16T12:05:40.862Z</time>
      </trkpt>
      <trkpt lat="36.966090" lon="-4.202590">
        <ele>855.916</ele>
        <time>2026-07-16T12:06:00.862Z</time>
      </trkpt>
      <trkpt lat="36.965630" lon="-4.202870">
        <ele>859.355</ele>
        <time>2026-07-16T12:06:20.862Z</time>
      </trkpt>
      <trkpt lat="36.965230" lon="-4.202940">
        <ele>855.107</ele>
        <time>2026-07-16T12:06:40.862Z</time>
      </trkpt>
      <trkpt lat="36.965110" lon="-4.203090">
        <ele>855.617</ele>
        <time>2026-07-16T12:07:00.862Z</time>
      </trkpt>
      <trkpt lat="36.965100" lon="-4.203420">
        <ele>861.809</ele>
        <time>2026-07-16T12:07:20.862Z</time>
      </trkpt>
      <trkpt lat="36.964940" lon="-4.203610">
        <ele>862.157</ele>
        <time>2026-07-16T12:07:40.862Z</time>
      </trkpt>
      <trkpt lat="36.964690" lon="-4.203850">
        <ele>860.971</ele>
        <time>2026-07-16T12:08:00.862Z</time>
      </trkpt>
      <trkpt lat="36.964390" lon="-4.204640">
        <ele>868.077</ele>
        <time>2026-07-16T12:08:20.862Z</time>
      </trkpt>
      <trkpt lat="36.964330" lon="-4.205370">
        <ele>876.439</ele>
        <time>2026-07-16T12:08:40.862Z</time>
      </trkpt>
      <trkpt lat="36.964280" lon="-4.206010">
        <ele>879.988</ele>
        <time>2026-07-16T12:09:00.862Z</time>
      </trkpt>
      <trkpt lat="36.964330" lon="-4.206100">
        <ele>882.269</ele>
        <time>2026-07-16T12:09:20.862Z</time>
      </trkpt>
      <trkpt lat="36.964430" lon="-4.206070">
        <ele>885.232</ele>
        <time>2026-07-16T12:09:40.862Z</time>
      </trkpt>
      <trkpt lat="36.964590" lon="-4.205580">
        <ele>887.441</ele>
        <time>2026-07-16T12:10:00.862Z</time>
      </trkpt>
      <trkpt lat="36.964660" lon="-4.205080">
        <ele>887.416</ele>
        <time>2026-07-16T12:10:20.862Z</time>
      </trkpt>
      <trkpt lat="36.964780" lon="-4.204790">
        <ele>889.561</ele>
        <time>2026-07-16T12:10:40.862Z</time>
      </trkpt>
      <trkpt lat="36.965070" lon="-4.204560">
        <ele>892.121</ele>
        <time>2026-07-16T12:11:00.862Z</time>
      </trkpt>
      <trkpt lat="36.965290" lon="-4.204460">
        <ele>891.613</ele>
        <time>2026-07-16T12:11:20.862Z</time>
      </trkpt>
      <trkpt lat="36.965920" lon="-4.204460">
        <ele>899.909</ele>
        <time>2026-07-16T12:11:40.862Z</time>
      </trkpt>
      <trkpt lat="36.966040" lon="-4.204520">
        <ele>902.388</ele>
        <time>2026-07-16T12:12:00.862Z</time>
      </trkpt>
      <trkpt lat="36.966040" lon="-4.204640">
        <ele>905.172</ele>
        <time>2026-07-16T12:12:20.862Z</time>
      </trkpt>
      <trkpt lat="36.965930" lon="-4.204730">
        <ele>905.568</ele>
        <time>2026-07-16T12:12:40.862Z</time>
      </trkpt>
      <trkpt lat="36.965660" lon="-4.204800">
        <ele>903.470</ele>
        <time>2026-07-16T12:13:00.862Z</time>
      </trkpt>
      <trkpt lat="36.965370" lon="-4.204810">
        <ele>901.099</ele>
        <time>2026-07-16T12:13:20.862Z</time>
      </trkpt>
      <trkpt lat="36.965200" lon="-4.204900">
        <ele>901.370</ele>
        <time>2026-07-16T12:13:40.862Z</time>
      </trkpt>
      <trkpt lat="36.965080" lon="-4.205040">
        <ele>901.873</ele>
        <time>2026-07-16T12:14:00.862Z</time>
      </trkpt>
      <trkpt lat="36.965060" lon="-4.205190">
        <ele>902.742</ele>
        <time>2026-07-16T12:14:20.862Z</time>
      </trkpt>
      <trkpt lat="36.965170" lon="-4.205590">
        <ele>907.437</ele>
        <time>2026-07-16T12:14:40.862Z</time>
      </trkpt>
      <trkpt lat="36.965270" lon="-4.206150">
        <ele>912.821</ele>
        <time>2026-07-16T12:15:00.862Z</time>
      </trkpt>
      <trkpt lat="36.965270" lon="-4.206500">
        <ele>913.241</ele>
        <time>2026-07-16T12:15:20.862Z</time>
      </trkpt>
      <trkpt lat="36.965210" lon="-4.206710">
        <ele>913.105</ele>
        <time>2026-07-16T12:15:40.862Z</time>
      </trkpt>
      <trkpt lat="36.965050" lon="-4.207020">
        <ele>912.809</ele>
        <time>2026-07-16T12:16:00.862Z</time>
      </trkpt>
      <trkpt lat="36.964970" lon="-4.207330">
        <ele>916.444</ele>
        <time>2026-07-16T12:16:20.862Z</time>
      </trkpt>
      <trkpt lat="36.964930" lon="-4.207560">
        <ele>919.688</ele>
        <time>2026-07-16T12:16:40.862Z</time>
      </trkpt>
      <trkpt lat="36.964770" lon="-4.207750">
        <ele>919.554</ele>
        <time>2026-07-16T12:17:00.862Z</time>
      </trkpt>
      <trkpt lat="36.964350" lon="-4.208160">
        <ele>919.166</ele>
        <time>2026-07-16T12:17:20.862Z</time>
      </trkpt>
      <trkpt lat="36.964220" lon="-4.208400">
        <ele>920.375</ele>
        <time>2026-07-16T12:17:40.862Z</time>
      </trkpt>
      <trkpt lat="36.964190" lon="-4.208640">
        <ele>922.046</ele>
        <time>2026-07-16T12:18:00.862Z</time>
      </trkpt>
      <trkpt lat="36.964170" lon="-4.209080">
        <ele>924.819</ele>
        <time>2026-07-16T12:18:20.862Z</time>
      </trkpt>
      <trkpt lat="36.964050" lon="-4.209590">
        <ele>923.598</ele>
        <time>2026-07-16T12:18:40.862Z</time>
      </trkpt>
      <trkpt lat="36.964000" lon="-4.209840">
        <ele>923.043</ele>
        <time>2026-07-16T12:19:00.862Z</time>
      </trkpt>
      <trkpt lat="36.964030" lon="-4.209910">
        <ele>924.292</ele>
        <time>2026-07-16T12:19:20.862Z</time>
      </trkpt>
      <trkpt lat="36.964080" lon="-4.209940">
        <ele>926.073</ele>
        <time>2026-07-16T12:19:40.862Z</time>
      </trkpt>
      <trkpt lat="36.964150" lon="-4.209920">
        <ele>928.220</ele>
        <time>2026-07-16T12:20:00.862Z</time>
      </trkpt>
      <trkpt lat="36.964260" lon="-4.209740">
        <ele>930.409</ele>
        <time>2026-07-16T12:20:20.862Z</time>
      </trkpt>
      <trkpt lat="36.964570" lon="-4.209020">
        <ele>933.391</ele>
        <time>2026-07-16T12:20:40.862Z</time>
      </trkpt>
      <trkpt lat="36.964650" lon="-4.208800">
        <ele>934.395</ele>
        <time>2026-07-16T12:21:00.862Z</time>
      </trkpt>
      <trkpt lat="36.964740" lon="-4.208670">
        <ele>935.531</ele>
        <time>2026-07-16T12:21:20.862Z</time>
      </trkpt>
      <trkpt lat="36.964900" lon="-4.208580">
        <ele>937.083</ele>
        <time>2026-07-16T12:21:40.862Z</time>
      </trkpt>
      <trkpt lat="36.965280" lon="-4.208460">
        <ele>939.312</ele>
        <time>2026-07-16T12:22:00.862Z</time>
      </trkpt>
      <trkpt lat="36.965460" lon="-4.208300">
        <ele>940.143</ele>
        <time>2026-07-16T12:22:20.862Z</time>
      </trkpt>
      <trkpt lat="36.965590" lon="-4.208040">
        <ele>940.026</ele>
        <time>2026-07-16T12:22:40.862Z</time>
      </trkpt>
      <trkpt lat="36.965700" lon="-4.207830">
        <ele>940.525</ele>
        <time>2026-07-16T12:23:00.862Z</time>
      </trkpt>
      <trkpt lat="36.965960" lon="-4.207620">
        <ele>944.210</ele>
        <time>2026-07-16T12:23:20.862Z</time>
      </trkpt>
      <trkpt lat="36.966060" lon="-4.207630">
        <ele>946.388</ele>
        <time>2026-07-16T12:23:40.862Z</time>
      </trkpt>
      <trkpt lat="36.966100" lon="-4.207700">
        <ele>948.424</ele>
        <time>2026-07-16T12:24:00.862Z</time>
      </trkpt>
      <trkpt lat="36.966080" lon="-4.207840">
        <ele>950.426</ele>
        <time>2026-07-16T12:24:20.862Z</time>
      </trkpt>
      <trkpt lat="36.965860" lon="-4.208130">
        <ele>950.409</ele>
        <time>2026-07-16T12:24:40.862Z</time>
      </trkpt>
      <trkpt lat="36.965800" lon="-4.208280">
        <ele>950.310</ele>
        <time>2026-07-16T12:25:00.862Z</time>
      </trkpt>
      <trkpt lat="36.965810" lon="-4.208510">
        <ele>954.644</ele>
        <time>2026-07-16T12:25:20.862Z</time>
      </trkpt>
      <trkpt lat="36.965820" lon="-4.208780">
        <ele>959.130</ele>
        <time>2026-07-16T12:25:40.862Z</time>
      </trkpt>
      <trkpt lat="36.965730" lon="-4.209100">
        <ele>960.612</ele>
        <time>2026-07-16T12:26:00.862Z</time>
      </trkpt>
      <trkpt lat="36.965690" lon="-4.209350">
        <ele>960.811</ele>
        <time>2026-07-16T12:26:20.862Z</time>
      </trkpt>
      <trkpt lat="36.965750" lon="-4.209710">
        <ele>962.532</ele>
        <time>2026-07-16T12:26:40.862Z</time>
      </trkpt>
      <trkpt lat="36.965750" lon="-4.210030">
        <ele>965.525</ele>
        <time>2026-07-16T12:27:00.862Z</time>
      </trkpt>
      <trkpt lat="36.965680" lon="-4.210390">
        <ele>966.114</ele>
        <time>2026-07-16T12:27:20.862Z</time>
      </trkpt>
      <trkpt lat="36.965690" lon="-4.210550">
        <ele>966.429</ele>
        <time>2026-07-16T12:27:40.862Z</time>
      </trkpt>
      <trkpt lat="36.965760" lon="-4.210580">
        <ele>968.295</ele>
        <time>2026-07-16T12:28:00.862Z</time>
      </trkpt>
      <trkpt lat="36.965990" lon="-4.210430">
        <ele>973.549</ele>
        <time>2026-07-16T12:28:20.862Z</time>
      </trkpt>
      <trkpt lat="36.966220" lon="-4.210110">
        <ele>974.423</ele>
        <time>2026-07-16T12:28:40.862Z</time>
      </trkpt>
      <trkpt lat="36.966420" lon="-4.209580">
        <ele>972.509</ele>
        <time>2026-07-16T12:29:00.862Z</time>
      </trkpt>
      <trkpt lat="36.966610" lon="-4.209020">
        <ele>975.431</ele>
        <time>2026-07-16T12:29:20.862Z</time>
      </trkpt>
      <trkpt lat="36.966740" lon="-4.208940">
        <ele>978.645</ele>
        <time>2026-07-16T12:29:40.862Z</time>
      </trkpt>
      <trkpt lat="36.966910" lon="-4.208960">
        <ele>982.711</ele>
        <time>2026-07-16T12:30:00.862Z</time>
      </trkpt>
      <trkpt lat="36.967010" lon="-4.209060">
        <ele>984.753</ele>
        <time>2026-07-16T12:30:20.862Z</time>
      </trkpt>
      <trkpt lat="36.967090" lon="-4.209280">
        <ele>986.932</ele>
        <time>2026-07-16T12:30:40.862Z</time>
      </trkpt>
      <trkpt lat="36.967120" lon="-4.209550">
        <ele>989.353</ele>
        <time>2026-07-16T12:31:00.862Z</time>
      </trkpt>
      <trkpt lat="36.967110" lon="-4.210350">
        <ele>1001.736</ele>
        <time>2026-07-16T12:31:20.862Z</time>
      </trkpt>
      <trkpt lat="36.967070" lon="-4.210690">
        <ele>1004.365</ele>
        <time>2026-07-16T12:31:40.862Z</time>
      </trkpt>
      <trkpt lat="36.967000" lon="-4.210980">
        <ele>1001.340</ele>
        <time>2026-07-16T12:32:00.862Z</time>
      </trkpt>
      <trkpt lat="36.966960" lon="-4.211290">
        <ele>1000.611</ele>
        <time>2026-07-16T12:32:20.862Z</time>
      </trkpt>
      <trkpt lat="36.966970" lon="-4.211800">
        <ele>1005.021</ele>
        <time>2026-07-16T12:32:40.862Z</time>
      </trkpt>
      <trkpt lat="36.966970" lon="-4.212340">
        <ele>1003.603</ele>
        <time>2026-07-16T12:33:00.862Z</time>
      </trkpt>
      <trkpt lat="36.967010" lon="-4.212970">
        <ele>1009.409</ele>
        <time>2026-07-16T12:33:20.862Z</time>
      </trkpt>
      <trkpt lat="36.967010" lon="-4.213490">
        <ele>1014.083</ele>
        <time>2026-07-16T12:33:40.862Z</time>
      </trkpt>
      <trkpt lat="36.966940" lon="-4.213840">
        <ele>1013.687</ele>
        <time>2026-07-16T12:34:00.862Z</time>
      </trkpt>
      <trkpt lat="36.966870" lon="-4.214110">
        <ele>1016.673</ele>
        <time>2026-07-16T12:34:20.862Z</time>
      </trkpt>
      <trkpt lat="36.966940" lon="-4.214210">
        <ele>1018.625</ele>
        <time>2026-07-16T12:34:40.862Z</time>
      </trkpt>
      <trkpt lat="36.967060" lon="-4.214240">
        <ele>1021.124</ele>
        <time>2026-07-16T12:35:00.862Z</time>
      </trkpt>
      <trkpt lat="36.967230" lon="-4.214160">
        <ele>1023.225</ele>
        <time>2026-07-16T12:35:20.862Z</time>
      </trkpt>
      <trkpt lat="36.967350" lon="-4.213970">
        <ele>1026.128</ele>
        <time>2026-07-16T12:35:40.862Z</time>
      </trkpt>
      <trkpt lat="36.967380" lon="-4.213740">
        <ele>1026.157</ele>
        <time>2026-07-16T12:36:00.862Z</time>
      </trkpt>
      <trkpt lat="36.967430" lon="-4.213460">
        <ele>1027.632</ele>
        <time>2026-07-16T12:36:20.862Z</time>
      </trkpt>
      <trkpt lat="36.967540" lon="-4.213070">
        <ele>1031.465</ele>
        <time>2026-07-16T12:36:40.862Z</time>
      </trkpt>
      <trkpt lat="36.967610" lon="-4.212750">
        <ele>1034.768</ele>
        <time>2026-07-16T12:37:00.862Z</time>
      </trkpt>
      <trkpt lat="36.967630" lon="-4.212240">
        <ele>1034.114</ele>
        <time>2026-07-16T12:37:20.862Z</time>
      </trkpt>
      <trkpt lat="36.967600" lon="-4.211830">
        <ele>1031.609</ele>
        <time>2026-07-16T12:37:40.862Z</time>
      </trkpt>
      <trkpt lat="36.967630" lon="-4.211520">
        <ele>1033.958</ele>
        <time>2026-07-16T12:38:00.862Z</time>
      </trkpt>
      <trkpt lat="36.967700" lon="-4.211390">
        <ele>1037.452</ele>
        <time>2026-07-16T12:38:20.862Z</time>
      </trkpt>
      <trkpt lat="36.967770" lon="-4.211380">
        <ele>1040.628</ele>
        <time>2026-07-16T12:38:40.862Z</time>
      </trkpt>
      <trkpt lat="36.967810" lon="-4.211430">
        <ele>1041.930</ele>
        <time>2026-07-16T12:39:00.862Z</time>
      </trkpt>
      <trkpt lat="36.967800" lon="-4.211620">
        <ele>1040.919</ele>
        <time>2026-07-16T12:39:20.862Z</time>
      </trkpt>
      <trkpt lat="36.967750" lon="-4.211940">
        <ele>1038.680</ele>
        <time>2026-07-16T12:39:40.862Z</time>
      </trkpt>
      <trkpt lat="36.967810" lon="-4.212420">
        <ele>1043.933</ele>
        <time>2026-07-16T12:40:00.862Z</time>
      </trkpt>
      <trkpt lat="36.967870" lon="-4.212910">
        <ele>1044.442</ele>
        <time>2026-07-16T12:40:20.862Z</time>
      </trkpt>
      <trkpt lat="36.968010" lon="-4.213200">
        <ele>1049.127</ele>
        <time>2026-07-16T12:40:40.862Z</time>
      </trkpt>
      <trkpt lat="36.968180" lon="-4.213510">
        <ele>1056.987</ele>
        <time>2026-07-16T12:41:00.862Z</time>
      </trkpt>
      <trkpt lat="36.968260" lon="-4.213900">
        <ele>1058.442</ele>
        <time>2026-07-16T12:41:20.862Z</time>
      </trkpt>
      <trkpt lat="36.968400" lon="-4.214330">
        <ele>1059.426</ele>
        <time>2026-07-16T12:41:40.862Z</time>
      </trkpt>
      <trkpt lat="36.968540" lon="-4.214800">
        <ele>1058.709</ele>
        <time>2026-07-16T12:42:00.862Z</time>
      </trkpt>
      <trkpt lat="36.968690" lon="-4.215180">
        <ele>1060.420</ele>
        <time>2026-07-16T12:42:20.862Z</time>
      </trkpt>
      <trkpt lat="36.968920" lon="-4.215470">
        <ele>1066.734</ele>
        <time>2026-07-16T12:42:40.862Z</time>
      </trkpt>
      <trkpt lat="36.968930" lon="-4.215650">
        <ele>1067.410</ele>
        <time>2026-07-16T12:43:00.862Z</time>
      </trkpt>
      <trkpt lat="36.968870" lon="-4.215970">
        <ele>1067.682</ele>
        <time>2026-07-16T12:43:20.862Z</time>
      </trkpt>
      <trkpt lat="36.968980" lon="-4.216470">
        <ele>1069.541</ele>
        <time>2026-07-16T12:43:40.862Z</time>
      </trkpt>
      <trkpt lat="36.969030" lon="-4.217040">
        <ele>1070.082</ele>
        <time>2026-07-16T12:44:00.862Z</time>
      </trkpt>
      <trkpt lat="36.969190" lon="-4.217340">
        <ele>1071.695</ele>
        <time>2026-07-16T12:44:20.862Z</time>
      </trkpt>
      <trkpt lat="36.969560" lon="-4.217640">
        <ele>1077.484</ele>
        <time>2026-07-16T12:44:40.862Z</time>
      </trkpt>
      <trkpt lat="36.969680" lon="-4.218050">
        <ele>1077.469</ele>
        <time>2026-07-16T12:45:00.862Z</time>
      </trkpt>
      <trkpt lat="36.969860" lon="-4.218900">
        <ele>1082.079</ele>
        <time>2026-07-16T12:45:20.862Z</time>
      </trkpt>
      <trkpt lat="36.970030" lon="-4.219080">
        <ele>1081.405</ele>
        <time>2026-07-16T12:45:40.862Z</time>
      </trkpt>
      <trkpt lat="36.970240" lon="-4.219070">
        <ele>1080.325</ele>
        <time>2026-07-16T12:46:00.862Z</time>
      </trkpt>
      <trkpt lat="36.970530" lon="-4.219030">
        <ele>1078.609</ele>
        <time>2026-07-16T12:46:20.862Z</time>
      </trkpt>
    </trkseg>
  </trk></gpx>