<?xml version="1.0" encoding="UTF-8"?>
<gpx creator="Wikiloc - https://www.wikiloc.com" version="1.1" xmlns="http://www.topografix.com/GPX/1/1" xmlns:xsi="http://www.w3.org/2001/XMLSchema-instance" xsi:schemaLocation="http://www.topografix.com/GPX/1/1 http://www.topografix.com/GPX/1/1/gpx.xsd">
  <metadata>
    <name>Wikiloc - PUERTO DE SAN LORENZO (por San Martín de Teverga)</name>
    <link href="https://www.wikiloc.com/cycling-trails/puerto-de-san-lorenzo-por-san-martin-de-teverga-273165575">
      <text>PUERTO DE SAN LORENZO (por San Martín de Teverga) - Wikiloc on Wikiloc</text>
    </link>
    <time>2026-07-16T10:57:42.960Z</time>
  </metadata>
  <trk>
    <name>PUERTO DE SAN LORENZO (por San Martín de Teverga) - Wikiloc</name>
    <cmt></cmt>
    <desc></desc>
    <trkseg>
      <trkpt lat="43.160840" lon="-6.098380">
        <ele>457.811</ele>
        <time>2026-07-16T10:57:42.958Z</time>
      </trkpt>
      <trkpt lat="43.160760" lon="-6.098490">
        <ele>458.321</ele>
        <time>2026-07-16T10:58:02.958Z</time>
      </trkpt>
      <trkpt lat="43.160380" lon="-6.099250">
        <ele>461.403</ele>
        <time>2026-07-16T10:58:22.958Z</time>
      </trkpt>
      <trkpt lat="43.159790" lon="-6.100500">
        <ele>463.809</ele>
        <time>2026-07-16T10:58:42.958Z</time>
      </trkpt>
      <trkpt lat="43.159770" lon="-6.101040">
        <ele>464.323</ele>
        <time>2026-07-16T10:59:02.958Z</time>
      </trkpt>
      <trkpt lat="43.159760" lon="-6.101550">
        <ele>469.118</ele>
        <time>2026-07-16T10:59:22.958Z</time>
      </trkpt>
      <trkpt lat="43.159700" lon="-6.101820">
        <ele>471.634</ele>
        <time>2026-07-16T10:59:42.958Z</time>
      </trkpt>
      <trkpt lat="43.159580" lon="-6.102070">
        <ele>474.852</ele>
        <time>2026-07-16T11:00:02.958Z</time>
      </trkpt>
      <trkpt lat="43.159460" lon="-6.102250">
        <ele>474.727</ele>
        <time>2026-07-16T11:00:22.958Z</time>
      </trkpt>
      <trkpt lat="43.159230" lon="-6.102450">
        <ele>474.356</ele>
        <time>2026-07-16T11:00:42.958Z</time>
      </trkpt>
      <trkpt lat="43.159020" lon="-6.102680">
        <ele>474.286</ele>
        <time>2026-07-16T11:01:02.958Z</time>
      </trkpt>
      <trkpt lat="43.158960" lon="-6.102800">
        <ele>474.358</ele>
        <time>2026-07-16T11:01:22.958Z</time>
      </trkpt>
      <trkpt lat="43.158920" lon="-6.102940">
        <ele>475.266</ele>
        <time>2026-07-16T11:01:42.958Z</time>
      </trkpt>
      <trkpt lat="43.158870" lon="-6.103080">
        <ele>476.394</ele>
        <time>2026-07-16T11:02:02.958Z</time>
      </trkpt>
      <trkpt lat="43.158770" lon="-6.103320">
        <ele>478.757</ele>
        <time>2026-07-16T11:02:22.958Z</time>
      </trkpt>
      <trkpt lat="43.158690" lon="-6.103450">
        <ele>476.922</ele>
        <time>2026-07-16T11:02:42.958Z</time>
      </trkpt>
      <trkpt lat="43.158560" lon="-6.103590">
        <ele>474.009</ele>
        <time>2026-07-16T11:03:02.958Z</time>
      </trkpt>
      <trkpt lat="43.158310" lon="-6.103840">
        <ele>472.371</ele>
        <time>2026-07-16T11:03:22.958Z</time>
      </trkpt>
      <trkpt lat="43.157800" lon="-6.105010">
        <ele>477.926</ele>
        <time>2026-07-16T11:03:42.958Z</time>
      </trkpt>
      <trkpt lat="43.157540" lon="-6.105830">
        <ele>482.462</ele>
        <time>2026-07-16T11:04:02.958Z</time>
      </trkpt>
      <trkpt lat="43.157520" lon="-6.105950">
        <ele>483.920</ele>
        <time>2026-07-16T11:04:22.958Z</time>
      </trkpt>
      <trkpt lat="43.157510" lon="-6.106100">
        <ele>485.985</ele>
        <time>2026-07-16T11:04:42.958Z</time>
      </trkpt>
      <trkpt lat="43.157530" lon="-6.106280">
        <ele>487.474</ele>
        <time>2026-07-16T11:05:02.958Z</time>
      </trkpt>
      <trkpt lat="43.157550" lon="-6.106430">
        <ele>488.374</ele>
        <time>2026-07-16T11:05:22.958Z</time>
      </trkpt>
      <trkpt lat="43.157600" lon="-6.106660">
        <ele>489.066</ele>
        <time>2026-07-16T11:05:42.958Z</time>
      </trkpt>
      <trkpt lat="43.157730" lon="-6.107160">
        <ele>490.894</ele>
        <time>2026-07-16T11:06:02.958Z</time>
      </trkpt>
      <trkpt lat="43.157730" lon="-6.107340">
        <ele>490.816</ele>
        <time>2026-07-16T11:06:22.958Z</time>
      </trkpt>
      <trkpt lat="43.157710" lon="-6.107480">
        <ele>490.576</ele>
        <time>2026-07-16T11:06:42.958Z</time>
      </trkpt>
      <trkpt lat="43.157620" lon="-6.107830">
        <ele>491.413</ele>
        <time>2026-07-16T11:07:02.958Z</time>
      </trkpt>
      <trkpt lat="43.157600" lon="-6.108000">
        <ele>490.809</ele>
        <time>2026-07-16T11:07:22.958Z</time>
      </trkpt>
      <trkpt lat="43.157580" lon="-6.108150">
        <ele>491.133</ele>
        <time>2026-07-16T11:07:42.958Z</time>
      </trkpt>
      <trkpt lat="43.157590" lon="-6.108280">
        <ele>491.398</ele>
        <time>2026-07-16T11:08:02.958Z</time>
      </trkpt>
      <trkpt lat="43.157610" lon="-6.108400">
        <ele>490.984</ele>
        <time>2026-07-16T11:08:22.958Z</time>
      </trkpt>
      <trkpt lat="43.157640" lon="-6.108580">
        <ele>490.082</ele>
        <time>2026-07-16T11:08:42.958Z</time>
      </trkpt>
      <trkpt lat="43.157680" lon="-6.108720">
        <ele>490.017</ele>
        <time>2026-07-16T11:09:02.958Z</time>
      </trkpt>
      <trkpt lat="43.157860" lon="-6.109190">
        <ele>492.066</ele>
        <time>2026-07-16T11:09:22.958Z</time>
      </trkpt>
      <trkpt lat="43.157910" lon="-6.109680">
        <ele>497.356</ele>
        <time>2026-07-16T11:09:42.958Z</time>
      </trkpt>
      <trkpt lat="43.157900" lon="-6.109860">
        <ele>498.728</ele>
        <time>2026-07-16T11:10:02.958Z</time>
      </trkpt>
      <trkpt lat="43.157870" lon="-6.110050">
        <ele>499.296</ele>
        <time>2026-07-16T11:10:22.958Z</time>
      </trkpt>
      <trkpt lat="43.157850" lon="-6.110190">
        <ele>499.485</ele>
        <time>2026-07-16T11:10:42.958Z</time>
      </trkpt>
      <trkpt lat="43.157810" lon="-6.110340">
        <ele>499.389</ele>
        <time>2026-07-16T11:11:02.958Z</time>
      </trkpt>
      <trkpt lat="43.157640" lon="-6.110780">
        <ele>499.517</ele>
        <time>2026-07-16T11:11:22.958Z</time>
      </trkpt>
      <trkpt lat="43.157600" lon="-6.110860">
        <ele>499.509</ele>
        <time>2026-07-16T11:11:42.958Z</time>
      </trkpt>
      <trkpt lat="43.157580" lon="-6.110970">
        <ele>499.640</ele>
        <time>2026-07-16T11:12:02.958Z</time>
      </trkpt>
      <trkpt lat="43.157570" lon="-6.111140">
        <ele>500.135</ele>
        <time>2026-07-16T11:12:22.958Z</time>
      </trkpt>
      <trkpt lat="43.157570" lon="-6.111210">
        <ele>500.431</ele>
        <time>2026-07-16T11:12:42.958Z</time>
      </trkpt>
      <trkpt lat="43.157610" lon="-6.111480">
        <ele>502.529</ele>
        <time>2026-07-16T11:13:02.958Z</time>
      </trkpt>
      <trkpt lat="43.157620" lon="-6.111680">
        <ele>504.794</ele>
        <time>2026-07-16T11:13:22.958Z</time>
      </trkpt>
      <trkpt lat="43.157610" lon="-6.111800">
        <ele>504.983</ele>
        <time>2026-07-16T11:13:42.958Z</time>
      </trkpt>
      <trkpt lat="43.157590" lon="-6.111910">
        <ele>504.813</ele>
        <time>2026-07-16T11:14:02.958Z</time>
      </trkpt>
      <trkpt lat="43.157550" lon="-6.112030">
        <ele>503.695</ele>
        <time>2026-07-16T11:14:22.958Z</time>
      </trkpt>
      <trkpt lat="43.157510" lon="-6.112150">
        <ele>502.333</ele>
        <time>2026-07-16T11:14:42.958Z</time>
      </trkpt>
      <trkpt lat="43.157480" lon="-6.112260">
        <ele>502.025</ele>
        <time>2026-07-16T11:15:02.958Z</time>
      </trkpt>
      <trkpt lat="43.157470" lon="-6.112360">
        <ele>502.326</ele>
        <time>2026-07-16T11:15:22.958Z</time>
      </trkpt>
      <trkpt lat="43.157470" lon="-6.112450">
        <ele>502.708</ele>
        <time>2026-07-16T11:15:42.958Z</time>
      </trkpt>
      <trkpt lat="43.157480" lon="-6.112540">
        <ele>503.109</ele>
        <time>2026-07-16T11:16:02.958Z</time>
      </trkpt>
      <trkpt lat="43.157490" lon="-6.112620">
        <ele>503.464</ele>
        <time>2026-07-16T11:16:22.958Z</time>
      </trkpt>
      <trkpt lat="43.157560" lon="-6.113050">
        <ele>505.589</ele>
        <time>2026-07-16T11:16:42.958Z</time>
      </trkpt>
      <trkpt lat="43.157580" lon="-6.113310">
        <ele>507.675</ele>
        <time>2026-07-16T11:17:02.958Z</time>
      </trkpt>
      <trkpt lat="43.157590" lon="-6.113450">
        <ele>507.893</ele>
        <time>2026-07-16T11:17:22.958Z</time>
      </trkpt>
      <trkpt lat="43.157580" lon="-6.113670">
        <ele>507.788</ele>
        <time>2026-07-16T11:17:42.958Z</time>
      </trkpt>
      <trkpt lat="43.157580" lon="-6.113760">
        <ele>508.477</ele>
        <time>2026-07-16T11:18:02.958Z</time>
      </trkpt>
      <trkpt lat="43.157520" lon="-6.114180">
        <ele>509.567</ele>
        <time>2026-07-16T11:18:22.958Z</time>
      </trkpt>
      <trkpt lat="43.157410" lon="-6.115240">
        <ele>512.919</ele>
        <time>2026-07-16T11:18:42.958Z</time>
      </trkpt>
      <trkpt lat="43.157370" lon="-6.115720">
        <ele>513.687</ele>
        <time>2026-07-16T11:19:02.958Z</time>
      </trkpt>
      <trkpt lat="43.157250" lon="-6.116280">
        <ele>514.277</ele>
        <time>2026-07-16T11:19:22.958Z</time>
      </trkpt>
      <trkpt lat="43.157220" lon="-6.116450">
        <ele>514.261</ele>
        <time>2026-07-16T11:19:42.958Z</time>
      </trkpt>
      <trkpt lat="43.157200" lon="-6.116590">
        <ele>514.727</ele>
        <time>2026-07-16T11:20:02.958Z</time>
      </trkpt>
      <trkpt lat="43.157200" lon="-6.116700">
        <ele>515.309</ele>
        <time>2026-07-16T11:20:22.958Z</time>
      </trkpt>
      <trkpt lat="43.157200" lon="-6.116840">
        <ele>516.829</ele>
        <time>2026-07-16T11:20:42.958Z</time>
      </trkpt>
      <trkpt lat="43.157250" lon="-6.117110">
        <ele>520.084</ele>
        <time>2026-07-16T11:21:02.958Z</time>
      </trkpt>
      <trkpt lat="43.157280" lon="-6.117460">
        <ele>522.480</ele>
        <time>2026-07-16T11:21:22.958Z</time>
      </trkpt>
      <trkpt lat="43.157280" lon="-6.117700">
        <ele>522.548</ele>
        <time>2026-07-16T11:21:42.958Z</time>
      </trkpt>
      <trkpt lat="43.157270" lon="-6.117800">
        <ele>522.553</ele>
        <time>2026-07-16T11:22:02.958Z</time>
      </trkpt>
      <trkpt lat="43.157260" lon="-6.117910">
        <ele>523.942</ele>
        <time>2026-07-16T11:22:22.958Z</time>
      </trkpt>
      <trkpt lat="43.157210" lon="-6.118130">
        <ele>525.912</ele>
        <time>2026-07-16T11:22:42.958Z</time>
      </trkpt>
      <trkpt lat="43.157110" lon="-6.118440">
        <ele>527.634</ele>
        <time>2026-07-16T11:23:02.958Z</time>
      </trkpt>
      <trkpt lat="43.157070" lon="-6.118570">
        <ele>527.842</ele>
        <time>2026-07-16T11:23:22.958Z</time>
      </trkpt>
      <trkpt lat="43.157040" lon="-6.118750">
        <ele>528.652</ele>
        <time>2026-07-16T11:23:42.958Z</time>
      </trkpt>
      <trkpt lat="43.157030" lon="-6.118870">
        <ele>529.253</ele>
        <time>2026-07-16T11:24:02.958Z</time>
      </trkpt>
      <trkpt lat="43.157040" lon="-6.119100">
        <ele>531.508</ele>
        <time>2026-07-16T11:24:22.958Z</time>
      </trkpt>
      <trkpt lat="43.157130" lon="-6.119720">
        <ele>538.309</ele>
        <time>2026-07-16T11:24:42.958Z</time>
      </trkpt>
      <trkpt lat="43.157240" lon="-6.120320">
        <ele>542.627</ele>
        <time>2026-07-16T11:25:02.958Z</time>
      </trkpt>
      <trkpt lat="43.157380" lon="-6.121150">
        <ele>549.762</ele>
        <time>2026-07-16T11:25:22.958Z</time>
      </trkpt>
      <trkpt lat="43.157360" lon="-6.121310">
        <ele>552.268</ele>
        <time>2026-07-16T11:25:42.958Z</time>
      </trkpt>
      <trkpt lat="43.157340" lon="-6.121450">
        <ele>554.516</ele>
        <time>2026-07-16T11:26:02.958Z</time>
      </trkpt>
      <trkpt lat="43.157290" lon="-6.121620">
        <ele>556.191</ele>
        <time>2026-07-16T11:26:22.958Z</time>
      </trkpt>
      <trkpt lat="43.157230" lon="-6.121780">
        <ele>558.520</ele>
        <time>2026-07-16T11:26:42.958Z</time>
      </trkpt>
      <trkpt lat="43.157080" lon="-6.121990">
        <ele>559.670</ele>
        <time>2026-07-16T11:27:02.958Z</time>
      </trkpt>
      <trkpt lat="43.156890" lon="-6.122170">
        <ele>557.352</ele>
        <time>2026-07-16T11:27:22.958Z</time>
      </trkpt>
      <trkpt lat="43.156610" lon="-6.122450">
        <ele>550.280</ele>
        <time>2026-07-16T11:27:42.958Z</time>
      </trkpt>
      <trkpt lat="43.156430" lon="-6.122660">
        <ele>547.538</ele>
        <time>2026-07-16T11:28:02.958Z</time>
      </trkpt>
      <trkpt lat="43.156350" lon="-6.122810">
        <ele>547.370</ele>
        <time>2026-07-16T11:28:22.958Z</time>
      </trkpt>
      <trkpt lat="43.156310" lon="-6.122910">
        <ele>546.917</ele>
        <time>2026-07-16T11:28:42.958Z</time>
      </trkpt>
      <trkpt lat="43.156280" lon="-6.123040">
        <ele>547.009</ele>
        <time>2026-07-16T11:29:02.958Z</time>
      </trkpt>
      <trkpt lat="43.156270" lon="-6.123140">
        <ele>548.095</ele>
        <time>2026-07-16T11:29:22.958Z</time>
      </trkpt>
      <trkpt lat="43.156260" lon="-6.123290">
        <ele>549.780</ele>
        <time>2026-07-16T11:29:42.958Z</time>
      </trkpt>
      <trkpt lat="43.156260" lon="-6.123370">
        <ele>551.186</ele>
        <time>2026-07-16T11:30:02.958Z</time>
      </trkpt>
      <trkpt lat="43.156260" lon="-6.123570">
        <ele>555.594</ele>
        <time>2026-07-16T11:30:22.958Z</time>
      </trkpt>
      <trkpt lat="43.156270" lon="-6.123860">
        <ele>560.369</ele>
        <time>2026-07-16T11:30:42.958Z</time>
      </trkpt>
      <trkpt lat="43.156230" lon="-6.124370">
        <ele>565.318</ele>
        <time>2026-07-16T11:31:02.958Z</time>
      </trkpt>
      <trkpt lat="43.156190" lon="-6.124610">
        <ele>564.678</ele>
        <time>2026-07-16T11:31:22.958Z</time>
      </trkpt>
      <trkpt lat="43.155980" lon="-6.125330">
        <ele>561.010</ele>
        <time>2026-07-16T11:31:42.958Z</time>
      </trkpt>
      <trkpt lat="43.155940" lon="-6.125590">
        <ele>563.548</ele>
        <time>2026-07-16T11:32:02.958Z</time>
      </trkpt>
      <trkpt lat="43.155930" lon="-6.125760">
        <ele>565.766</ele>
        <time>2026-07-16T11:32:22.958Z</time>
      </trkpt>
      <trkpt lat="43.155910" lon="-6.126120">
        <ele>569.329</ele>
        <time>2026-07-16T11:32:42.958Z</time>
      </trkpt>
      <trkpt lat="43.155840" lon="-6.126470">
        <ele>569.121</ele>
        <time>2026-07-16T11:33:02.958Z</time>
      </trkpt>
      <trkpt lat="43.155620" lon="-6.127120">
        <ele>571.309</ele>
        <time>2026-07-16T11:33:22.958Z</time>
      </trkpt>
      <trkpt lat="43.155500" lon="-6.127510">
        <ele>575.838</ele>
        <time>2026-07-16T11:33:42.958Z</time>
      </trkpt>
      <trkpt lat="43.155480" lon="-6.127650">
        <ele>578.063</ele>
        <time>2026-07-16T11:34:02.958Z</time>
      </trkpt>
      <trkpt lat="43.155420" lon="-6.128070">
        <ele>582.949</ele>
        <time>2026-07-16T11:34:22.958Z</time>
      </trkpt>
      <trkpt lat="43.155370" lon="-6.128420">
        <ele>587.967</ele>
        <time>2026-07-16T11:34:42.958Z</time>
      </trkpt>
      <trkpt lat="43.155250" lon="-6.128860">
        <ele>587.062</ele>
        <time>2026-07-16T11:35:02.958Z</time>
      </trkpt>
      <trkpt lat="43.154910" lon="-6.129690">
        <ele>597.281</ele>
        <time>2026-07-16T11:35:22.958Z</time>
      </trkpt>
      <trkpt lat="43.154730" lon="-6.130050">
        <ele>601.361</ele>
        <time>2026-07-16T11:35:42.958Z</time>
      </trkpt>
      <trkpt lat="43.154490" lon="-6.130340">
        <ele>601.083</ele>
        <time>2026-07-16T11:36:02.958Z</time>
      </trkpt>
      <trkpt lat="43.154160" lon="-6.130670">
        <ele>597.261</ele>
        <time>2026-07-16T11:36:22.958Z</time>
      </trkpt>
      <trkpt lat="43.154020" lon="-6.130880">
        <ele>598.547</ele>
        <time>2026-07-16T11:36:42.958Z</time>
      </trkpt>
      <trkpt lat="43.153760" lon="-6.131360">
        <ele>601.729</ele>
        <time>2026-07-16T11:37:02.958Z</time>
      </trkpt>
      <trkpt lat="43.153360" lon="-6.131940">
        <ele>612.221</ele>
        <time>2026-07-16T11:37:22.958Z</time>
      </trkpt>
      <trkpt lat="43.152850" lon="-6.132570">
        <ele>615.509</ele>
        <time>2026-07-16T11:37:42.958Z</time>
      </trkpt>
      <trkpt lat="43.152630" lon="-6.133040">
        <ele>615.636</ele>
        <time>2026-07-16T11:38:02.958Z</time>
      </trkpt>
      <trkpt lat="43.152580" lon="-6.133220">
        <ele>617.351</ele>
        <time>2026-07-16T11:38:22.958Z</time>
      </trkpt>
      <trkpt lat="43.152550" lon="-6.133650">
        <ele>621.977</ele>
        <time>2026-07-16T11:38:42.958Z</time>
      </trkpt>
      <trkpt lat="43.152570" lon="-6.134330">
        <ele>624.555</ele>
        <time>2026-07-16T11:39:02.958Z</time>
      </trkpt>
      <trkpt lat="43.152550" lon="-6.134890">
        <ele>627.760</ele>
        <time>2026-07-16T11:39:22.958Z</time>
      </trkpt>
      <trkpt lat="43.152480" lon="-6.135310">
        <ele>631.079</ele>
        <time>2026-07-16T11:39:42.958Z</time>
      </trkpt>
      <trkpt lat="43.152320" lon="-6.135760">
        <ele>631.859</ele>
        <time>2026-07-16T11:40:02.958Z</time>
      </trkpt>
      <trkpt lat="43.152040" lon="-6.136230">
        <ele>634.631</ele>
        <time>2026-07-16T11:40:22.958Z</time>
      </trkpt>
      <trkpt lat="43.151740" lon="-6.136630">
        <ele>643.299</ele>
        <time>2026-07-16T11:40:42.958Z</time>
      </trkpt>
      <trkpt lat="43.151650" lon="-6.136740">
        <ele>644.859</ele>
        <time>2026-07-16T11:41:02.958Z</time>
      </trkpt>
      <trkpt lat="43.151570" lon="-6.136860">
        <ele>644.303</ele>
        <time>2026-07-16T11:41:22.958Z</time>
      </trkpt>
      <trkpt lat="43.151510" lon="-6.136980">
        <ele>644.423</ele>
        <time>2026-07-16T11:41:42.958Z</time>
      </trkpt>
      <trkpt lat="43.151460" lon="-6.137080">
        <ele>644.309</ele>
        <time>2026-07-16T11:42:02.958Z</time>
      </trkpt>
      <trkpt lat="43.151320" lon="-6.137480">
        <ele>642.797</ele>
        <time>2026-07-16T11:42:22.958Z</time>
      </trkpt>
      <trkpt lat="43.151010" lon="-6.138430">
        <ele>644.962</ele>
        <time>2026-07-16T11:42:42.958Z</time>
      </trkpt>
      <trkpt lat="43.150840" lon="-6.138760">
        <ele>647.888</ele>
        <time>2026-07-16T11:43:02.958Z</time>
      </trkpt>
      <trkpt lat="43.150540" lon="-6.139050">
        <ele>652.636</ele>
        <time>2026-07-16T11:43:22.958Z</time>
      </trkpt>
      <trkpt lat="43.150040" lon="-6.139580">
        <ele>660.351</ele>
        <time>2026-07-16T11:43:42.958Z</time>
      </trkpt>
      <trkpt lat="43.149710" lon="-6.139930">
        <ele>661.650</ele>
        <time>2026-07-16T11:44:02.958Z</time>
      </trkpt>
      <trkpt lat="43.149380" lon="-6.140180">
        <ele>662.410</ele>
        <time>2026-07-16T11:44:22.958Z</time>
      </trkpt>
      <trkpt lat="43.148960" lon="-6.140480">
        <ele>665.682</ele>
        <time>2026-07-16T11:44:42.958Z</time>
      </trkpt>
      <trkpt lat="43.148930" lon="-6.140510">
        <ele>665.890</ele>
        <time>2026-07-16T11:45:02.958Z</time>
      </trkpt>
      <trkpt lat="43.148910" lon="-6.140560">
        <ele>666.296</ele>
        <time>2026-07-16T11:45:22.958Z</time>
      </trkpt>
      <trkpt lat="43.148880" lon="-6.140640">
        <ele>666.531</ele>
        <time>2026-07-16T11:45:42.958Z</time>
      </trkpt>
      <trkpt lat="43.148850" lon="-6.140740">
        <ele>666.924</ele>
        <time>2026-07-16T11:46:02.958Z</time>
      </trkpt>
      <trkpt lat="43.148820" lon="-6.140860">
        <ele>667.609</ele>
        <time>2026-07-16T11:46:22.958Z</time>
      </trkpt>
      <trkpt lat="43.148760" lon="-6.141100">
        <ele>669.691</ele>
        <time>2026-07-16T11:46:42.958Z</time>
      </trkpt>
      <trkpt lat="43.148690" lon="-6.141440">
        <ele>672.676</ele>
        <time>2026-07-16T11:47:02.958Z</time>
      </trkpt>
      <trkpt lat="43.148560" lon="-6.141720">
        <ele>675.792</ele>
        <time>2026-07-16T11:47:22.958Z</time>
      </trkpt>
      <trkpt lat="43.148210" lon="-6.142260">
        <ele>679.190</ele>
        <time>2026-07-16T11:47:42.958Z</time>
      </trkpt>
      <trkpt lat="43.147770" lon="-6.142760">
        <ele>680.335</ele>
        <time>2026-07-16T11:48:02.958Z</time>
      </trkpt>
      <trkpt lat="43.147700" lon="-6.142870">
        <ele>680.534</ele>
        <time>2026-07-16T11:48:22.958Z</time>
      </trkpt>
      <trkpt lat="43.147640" lon="-6.143020">
        <ele>681.844</ele>
        <time>2026-07-16T11:48:42.958Z</time>
      </trkpt>
      <trkpt lat="43.147610" lon="-6.143130">
        <ele>682.496</ele>
        <time>2026-07-16T11:49:02.958Z</time>
      </trkpt>
      <trkpt lat="43.147600" lon="-6.143230">
        <ele>683.174</ele>
        <time>2026-07-16T11:49:22.958Z</time>
      </trkpt>
      <trkpt lat="43.147600" lon="-6.143320">
        <ele>684.112</ele>
        <time>2026-07-16T11:49:42.958Z</time>
      </trkpt>
      <trkpt lat="43.147610" lon="-6.143410">
        <ele>684.732</ele>
        <time>2026-07-16T11:50:02.958Z</time>
      </trkpt>
      <trkpt lat="43.147660" lon="-6.143660">
        <ele>686.505</ele>
        <time>2026-07-16T11:50:22.958Z</time>
      </trkpt>
      <trkpt lat="43.147790" lon="-6.144100">
        <ele>691.109</ele>
        <time>2026-07-16T11:50:42.958Z</time>
      </trkpt>
      <trkpt lat="43.147820" lon="-6.144320">
        <ele>692.883</ele>
        <time>2026-07-16T11:51:02.958Z</time>
      </trkpt>
      <trkpt lat="43.147820" lon="-6.144440">
        <ele>693.228</ele>
        <time>2026-07-16T11:51:22.958Z</time>
      </trkpt>
      <trkpt lat="43.147810" lon="-6.144530">
        <ele>693.254</ele>
        <time>2026-07-16T11:51:42.958Z</time>
      </trkpt>
      <trkpt lat="43.147780" lon="-6.144700">
        <ele>693.072</ele>
        <time>2026-07-16T11:52:02.958Z</time>
      </trkpt>
      <trkpt lat="43.147720" lon="-6.144900">
        <ele>693.887</ele>
        <time>2026-07-16T11:52:22.958Z</time>
      </trkpt>
      <trkpt lat="43.147700" lon="-6.145090">
        <ele>696.416</ele>
        <time>2026-07-16T11:52:42.958Z</time>
      </trkpt>
      <trkpt lat="43.147700" lon="-6.145220">
        <ele>698.916</ele>
        <time>2026-07-16T11:53:02.958Z</time>
      </trkpt>
      <trkpt lat="43.147720" lon="-6.145650">
        <ele>705.158</ele>
        <time>2026-07-16T11:53:22.958Z</time>
      </trkpt>
      <trkpt lat="43.147710" lon="-6.145980">
        <ele>704.116</ele>
        <time>2026-07-16T11:53:42.958Z</time>
      </trkpt>
      <trkpt lat="43.147720" lon="-6.146140">
        <ele>703.373</ele>
        <time>2026-07-16T11:54:02.958Z</time>
      </trkpt>
      <trkpt lat="43.147760" lon="-6.146260">
        <ele>704.285</ele>
        <time>2026-07-16T11:54:22.958Z</time>
      </trkpt>
      <trkpt lat="43.147810" lon="-6.146410">
        <ele>705.513</ele>
        <time>2026-07-16T11:54:42.958Z</time>
      </trkpt>
      <trkpt lat="43.147840" lon="-6.146560">
        <ele>706.809</ele>
        <time>2026-07-16T11:55:02.958Z</time>
      </trkpt>
      <trkpt lat="43.147880" lon="-6.146740">
        <ele>708.869</ele>
        <time>2026-07-16T11:55:22.958Z</time>
      </trkpt>
      <trkpt lat="43.147950" lon="-6.146980">
        <ele>712.324</ele>
        <time>2026-07-16T11:55:42.958Z</time>
      </trkpt>
      <trkpt lat="43.147990" lon="-6.147110">
        <ele>714.230</ele>
        <time>2026-07-16T11:56:02.958Z</time>
      </trkpt>
      <trkpt lat="43.148040" lon="-6.147210">
        <ele>716.418</ele>
        <time>2026-07-16T11:56:22.958Z</time>
      </trkpt>
      <trkpt lat="43.148310" lon="-6.147750">
        <ele>722.383</ele>
        <time>2026-07-16T11:56:42.958Z</time>
      </trkpt>
      <trkpt lat="43.148600" lon="-6.148540">
        <ele>720.182</ele>
        <time>2026-07-16T11:57:02.958Z</time>
      </trkpt>
      <trkpt lat="43.148690" lon="-6.148800">
        <ele>720.592</ele>
        <time>2026-07-16T11:57:22.958Z</time>
      </trkpt>
      <trkpt lat="43.148740" lon="-6.149110">
        <ele>721.584</ele>
        <time>2026-07-16T11:57:42.958Z</time>
      </trkpt>
      <trkpt lat="43.148840" lon="-6.150000">
        <ele>721.712</ele>
        <time>2026-07-16T11:58:02.958Z</time>
      </trkpt>
      <trkpt lat="43.148890" lon="-6.150160">
        <ele>719.389</ele>
        <time>2026-07-16T11:58:22.958Z</time>
      </trkpt>
      <trkpt lat="43.148910" lon="-6.150220">
        <ele>717.806</ele>
        <time>2026-07-16T11:58:42.958Z</time>
      </trkpt>
      <trkpt lat="43.148940" lon="-6.150280">
        <ele>716.826</ele>
        <time>2026-07-16T11:59:02.958Z</time>
      </trkpt>
      <trkpt lat="43.148990" lon="-6.150340">
        <ele>717.009</ele>
        <time>2026-07-16T11:59:22.958Z</time>
      </trkpt>
      <trkpt lat="43.149220" lon="-6.150590">
        <ele>715.940</ele>
        <time>2026-07-16T11:59:42.958Z</time>
      </trkpt>
      <trkpt lat="43.149310" lon="-6.150710">
        <ele>715.795</ele>
        <time>2026-07-16T12:00:02.958Z</time>
      </trkpt>
      <trkpt lat="43.149360" lon="-6.150780">
        <ele>715.391</ele>
        <time>2026-07-16T12:00:22.958Z</time>
      </trkpt>
      <trkpt lat="43.149540" lon="-6.151200">
        <ele>718.969</ele>
        <time>2026-07-16T12:00:42.958Z</time>
      </trkpt>
      <trkpt lat="43.149840" lon="-6.151960">
        <ele>729.294</ele>
        <time>2026-07-16T12:01:02.958Z</time>
      </trkpt>
      <trkpt lat="43.150050" lon="-6.152940">
        <ele>730.083</ele>
        <time>2026-07-16T12:01:22.958Z</time>
      </trkpt>
      <trkpt lat="43.150160" lon="-6.153440">
        <ele>731.013</ele>
        <time>2026-07-16T12:01:42.958Z</time>
      </trkpt>
      <trkpt lat="43.150400" lon="-6.154030">
        <ele>730.825</ele>
        <time>2026-07-16T12:02:02.958Z</time>
      </trkpt>
      <trkpt lat="43.150480" lon="-6.154320">
        <ele>733.343</ele>
        <time>2026-07-16T12:02:22.958Z</time>
      </trkpt>
      <trkpt lat="43.150510" lon="-6.154590">
        <ele>736.749</ele>
        <time>2026-07-16T12:02:42.958Z</time>
      </trkpt>
      <trkpt lat="43.150520" lon="-6.154990">
        <ele>739.202</ele>
        <time>2026-07-16T12:03:02.958Z</time>
      </trkpt>
      <trkpt lat="43.150500" lon="-6.155190">
        <ele>737.722</ele>
        <time>2026-07-16T12:03:22.958Z</time>
      </trkpt>
      <trkpt lat="43.150270" lon="-6.156570">
        <ele>740.609</ele>
        <time>2026-07-16T12:03:42.958Z</time>
      </trkpt>
      <trkpt lat="43.150260" lon="-6.156890">
        <ele>744.356</ele>
        <time>2026-07-16T12:04:02.958Z</time>
      </trkpt>
      <trkpt lat="43.150240" lon="-6.157130">
        <ele>746.111</ele>
        <time>2026-07-16T12:04:22.958Z</time>
      </trkpt>
      <trkpt lat="43.150170" lon="-6.157430">
        <ele>747.987</ele>
        <time>2026-07-16T12:04:42.958Z</time>
      </trkpt>
      <trkpt lat="43.150030" lon="-6.157950">
        <ele>753.585</ele>
        <time>2026-07-16T12:05:02.958Z</time>
      </trkpt>
      <trkpt lat="43.149990" lon="-6.158310">
        <ele>756.720</ele>
        <time>2026-07-16T12:05:22.958Z</time>
      </trkpt>
      <trkpt lat="43.150000" lon="-6.158600">
        <ele>758.059</ele>
        <time>2026-07-16T12:05:42.958Z</time>
      </trkpt>
      <trkpt lat="43.150070" lon="-6.159030">
        <ele>765.329</ele>
        <time>2026-07-16T12:06:02.958Z</time>
      </trkpt>
      <trkpt lat="43.150090" lon="-6.159200">
        <ele>768.891</ele>
        <time>2026-07-16T12:06:22.958Z</time>
      </trkpt>
      <trkpt lat="43.150080" lon="-6.159440">
        <ele>772.239</ele>
        <time>2026-07-16T12:06:42.958Z</time>
      </trkpt>
      <trkpt lat="43.149960" lon="-6.160090">
        <ele>776.342</ele>
        <time>2026-07-16T12:07:02.958Z</time>
      </trkpt>
      <trkpt lat="43.149890" lon="-6.160480">
        <ele>781.422</ele>
        <time>2026-07-16T12:07:22.958Z</time>
      </trkpt>
      <trkpt lat="43.149860" lon="-6.160680">
        <ele>783.514</ele>
        <time>2026-07-16T12:07:42.958Z</time>
      </trkpt>
      <trkpt lat="43.149810" lon="-6.161440">
        <ele>793.209</ele>
        <time>2026-07-16T12:08:02.958Z</time>
      </trkpt>
      <trkpt lat="43.149780" lon="-6.161800">
        <ele>796.916</ele>
        <time>2026-07-16T12:08:22.958Z</time>
      </trkpt>
      <trkpt lat="43.149730" lon="-6.162100">
        <ele>796.941</ele>
        <time>2026-07-16T12:08:42.958Z</time>
      </trkpt>
      <trkpt lat="43.149580" lon="-6.162510">
        <ele>793.147</ele>
        <time>2026-07-16T12:09:02.958Z</time>
      </trkpt>
      <trkpt lat="43.149440" lon="-6.162900">
        <ele>794.015</ele>
        <time>2026-07-16T12:09:22.958Z</time>
      </trkpt>
      <trkpt lat="43.149390" lon="-6.163110">
        <ele>795.450</ele>
        <time>2026-07-16T12:09:42.958Z</time>
      </trkpt>
      <trkpt lat="43.149370" lon="-6.163290">
        <ele>796.729</ele>
        <time>2026-07-16T12:10:02.958Z</time>
      </trkpt>
      <trkpt lat="43.149380" lon="-6.163480">
        <ele>799.919</ele>
        <time>2026-07-16T12:10:22.958Z</time>
      </trkpt>
      <trkpt lat="43.149440" lon="-6.163860">
        <ele>806.691</ele>
        <time>2026-07-16T12:10:42.958Z</time>
      </trkpt>
      <trkpt lat="43.149480" lon="-6.164070">
        <ele>810.319</ele>
        <time>2026-07-16T12:11:02.958Z</time>
      </trkpt>
      <trkpt lat="43.149720" lon="-6.164830">
        <ele>818.359</ele>
        <time>2026-07-16T12:11:22.958Z</time>
      </trkpt>
      <trkpt lat="43.149800" lon="-6.164970">
        <ele>819.903</ele>
        <time>2026-07-16T12:11:42.958Z</time>
      </trkpt>
      <trkpt lat="43.150010" lon="-6.165140">
        <ele>826.523</ele>
        <time>2026-07-16T12:12:02.958Z</time>
      </trkpt>
      <trkpt lat="43.150080" lon="-6.165230">
        <ele>829.109</ele>
        <time>2026-07-16T12:12:22.958Z</time>
      </trkpt>
      <trkpt lat="43.150130" lon="-6.165350">
        <ele>831.067</ele>
        <time>2026-07-16T12:12:42.958Z</time>
      </trkpt>
      <trkpt lat="43.150130" lon="-6.165640">
        <ele>831.532</ele>
        <time>2026-07-16T12:13:02.958Z</time>
      </trkpt>
      <trkpt lat="43.150110" lon="-6.166150">
        <ele>832.558</ele>
        <time>2026-07-16T12:13:22.958Z</time>
      </trkpt>
      <trkpt lat="43.150130" lon="-6.166270">
        <ele>832.676</ele>
        <time>2026-07-16T12:13:42.958Z</time>
      </trkpt>
      <trkpt lat="43.150270" lon="-6.166600">
        <ele>836.941</ele>
        <time>2026-07-16T12:14:02.958Z</time>
      </trkpt>
      <trkpt lat="43.150300" lon="-6.166730">
        <ele>838.480</ele>
        <time>2026-07-16T12:14:22.958Z</time>
      </trkpt>
      <trkpt lat="43.150300" lon="-6.166890">
        <ele>839.590</ele>
        <time>2026-07-16T12:14:42.958Z</time>
      </trkpt>
      <trkpt lat="43.150240" lon="-6.167210">
        <ele>840.572</ele>
        <time>2026-07-16T12:15:02.958Z</time>
      </trkpt>
      <trkpt lat="43.150270" lon="-6.167350">
        <ele>842.270</ele>
        <time>2026-07-16T12:15:22.958Z</time>
      </trkpt>
      <trkpt lat="43.150350" lon="-6.167490">
        <ele>845.839</ele>
        <time>2026-07-16T12:15:42.958Z</time>
      </trkpt>
      <trkpt lat="43.150730" lon="-6.167840">
        <ele>860.801</ele>
        <time>2026-07-16T12:16:02.958Z</time>
      </trkpt>
      <trkpt lat="43.150860" lon="-6.168020">
        <ele>863.121</ele>
        <time>2026-07-16T12:16:22.958Z</time>
      </trkpt>
      <trkpt lat="43.151220" lon="-6.168680">
        <ele>874.709</ele>
        <time>2026-07-16T12:16:42.958Z</time>
      </trkpt>
      <trkpt lat="43.151260" lon="-6.168800">
        <ele>876.635</ele>
        <time>2026-07-16T12:17:02.958Z</time>
      </trkpt>
      <trkpt lat="43.151250" lon="-6.168890">
        <ele>877.070</ele>
        <time>2026-07-16T12:17:22.958Z</time>
      </trkpt>
      <trkpt lat="43.151200" lon="-6.169020">
        <ele>879.556</ele>
        <time>2026-07-16T12:17:42.958Z</time>
      </trkpt>
      <trkpt lat="43.151110" lon="-6.169100">
        <ele>881.174</ele>
        <time>2026-07-16T12:18:02.958Z</time>
      </trkpt>
      <trkpt lat="43.151020" lon="-6.169110">
        <ele>881.259</ele>
        <time>2026-07-16T12:18:22.958Z</time>
      </trkpt>
      <trkpt lat="43.150810" lon="-6.169020">
        <ele>877.988</ele>
        <time>2026-07-16T12:18:42.958Z</time>
      </trkpt>
      <trkpt lat="43.150580" lon="-6.168860">
        <ele>872.928</ele>
        <time>2026-07-16T12:19:02.958Z</time>
      </trkpt>
      <trkpt lat="43.150460" lon="-6.168840">
        <ele>871.420</ele>
        <time>2026-07-16T12:19:22.958Z</time>
      </trkpt>
      <trkpt lat="43.150140" lon="-6.168980">
        <ele>873.398</ele>
        <time>2026-07-16T12:19:42.958Z</time>
      </trkpt>
      <trkpt lat="43.150030" lon="-6.169090">
        <ele>875.663</ele>
        <time>2026-07-16T12:20:02.958Z</time>
      </trkpt>
      <trkpt lat="43.149980" lon="-6.169190">
        <ele>877.344</ele>
        <time>2026-07-16T12:20:22.958Z</time>
      </trkpt>
      <trkpt lat="43.149970" lon="-6.169330">
        <ele>877.318</ele>
        <time>2026-07-16T12:20:42.958Z</time>
      </trkpt>
      <trkpt lat="43.150010" lon="-6.169510">
        <ele>878.909</ele>
        <time>2026-07-16T12:21:02.958Z</time>
      </trkpt>
      <trkpt lat="43.150080" lon="-6.169810">
        <ele>879.378</ele>
        <time>2026-07-16T12:21:22.958Z</time>
      </trkpt>
      <trkpt lat="43.150090" lon="-6.169980">
        <ele>879.053</ele>
        <time>2026-07-16T12:21:42.958Z</time>
      </trkpt>
      <trkpt lat="43.150050" lon="-6.170420">
        <ele>884.519</ele>
        <time>2026-07-16T12:22:02.958Z</time>
      </trkpt>
      <trkpt lat="43.150080" lon="-6.170680">
        <ele>889.427</ele>
        <time>2026-07-16T12:22:22.958Z</time>
      </trkpt>
      <trkpt lat="43.150160" lon="-6.170940">
        <ele>893.522</ele>
        <time>2026-07-16T12:22:42.958Z</time>
      </trkpt>
      <trkpt lat="43.150450" lon="-6.171340">
        <ele>902.291</ele>
        <time>2026-07-16T12:23:02.958Z</time>
      </trkpt>
      <trkpt lat="43.150510" lon="-6.171490">
        <ele>904.611</ele>
        <time>2026-07-16T12:23:22.958Z</time>
      </trkpt>
      <trkpt lat="43.150510" lon="-6.171660">
        <ele>904.183</ele>
        <time>2026-07-16T12:23:42.958Z</time>
      </trkpt>
      <trkpt lat="43.150480" lon="-6.171750">
        <ele>906.511</ele>
        <time>2026-07-16T12:24:02.958Z</time>
      </trkpt>
      <trkpt lat="43.150420" lon="-6.171860">
        <ele>908.595</ele>
        <time>2026-07-16T12:24:22.958Z</time>
      </trkpt>
      <trkpt lat="43.150150" lon="-6.172200">
        <ele>911.049</ele>
        <time>2026-07-16T12:24:42.958Z</time>
      </trkpt>
      <trkpt lat="43.150060" lon="-6.172330">
        <ele>911.323</ele>
        <time>2026-07-16T12:25:02.958Z</time>
      </trkpt>
      <trkpt lat="43.150010" lon="-6.172480">
        <ele>913.009</ele>
        <time>2026-07-16T12:25:22.958Z</time>
      </trkpt>
      <trkpt lat="43.149770" lon="-6.173280">
        <ele>926.591</ele>
        <time>2026-07-16T12:25:42.958Z</time>
      </trkpt>
      <trkpt lat="43.149530" lon="-6.174140">
        <ele>932.496</ele>
        <time>2026-07-16T12:26:02.958Z</time>
      </trkpt>
      <trkpt lat="43.149490" lon="-6.174370">
        <ele>935.312</ele>
        <time>2026-07-16T12:26:22.958Z</time>
      </trkpt>
      <trkpt lat="43.149480" lon="-6.174690">
        <ele>936.040</ele>
        <time>2026-07-16T12:26:42.958Z</time>
      </trkpt>
      <trkpt lat="43.149510" lon="-6.175050">
        <ele>935.185</ele>
        <time>2026-07-16T12:27:02.958Z</time>
      </trkpt>
      <trkpt lat="43.149720" lon="-6.175900">
        <ele>940.934</ele>
        <time>2026-07-16T12:27:22.958Z</time>
      </trkpt>
      <trkpt lat="43.149830" lon="-6.176480">
        <ele>951.264</ele>
        <time>2026-07-16T12:27:42.958Z</time>
      </trkpt>
      <trkpt lat="43.149910" lon="-6.177040">
        <ele>954.276</ele>
        <time>2026-07-16T12:28:02.958Z</time>
      </trkpt>
      <trkpt lat="43.149990" lon="-6.177680">
        <ele>961.324</ele>
        <time>2026-07-16T12:28:22.958Z</time>
      </trkpt>
      <trkpt lat="43.150040" lon="-6.177930">
        <ele>964.681</ele>
        <time>2026-07-16T12:28:42.958Z</time>
      </trkpt>
      <trkpt lat="43.150140" lon="-6.178290">
        <ele>973.461</ele>
        <time>2026-07-16T12:29:02.958Z</time>
      </trkpt>
      <trkpt lat="43.150150" lon="-6.178460">
        <ele>975.017</ele>
        <time>2026-07-16T12:29:22.958Z</time>
      </trkpt>
      <trkpt lat="43.150040" lon="-6.179330">
        <ele>979.609</ele>
        <time>2026-07-16T12:29:42.958Z</time>
      </trkpt>
      <trkpt lat="43.149980" lon="-6.179600">
        <ele>981.740</ele>
        <time>2026-07-16T12:30:02.958Z</time>
      </trkpt>
      <trkpt lat="43.149920" lon="-6.179660">
        <ele>985.955</ele>
        <time>2026-07-16T12:30:22.958Z</time>
      </trkpt>
      <trkpt lat="43.149860" lon="-6.179680">
        <ele>989.711</ele>
        <time>2026-07-16T12:30:42.958Z</time>
      </trkpt>
      <trkpt lat="43.149780" lon="-6.179640">
        <ele>993.479</ele>
        <time>2026-07-16T12:31:02.958Z</time>
      </trkpt>
      <trkpt lat="43.149710" lon="-6.179540">
        <ele>994.594</ele>
        <time>2026-07-16T12:31:22.958Z</time>
      </trkpt>
      <trkpt lat="43.149650" lon="-6.179270">
        <ele>989.013</ele>
        <time>2026-07-16T12:31:42.958Z</time>
      </trkpt>
      <trkpt lat="43.149580" lon="-6.179010">
        <ele>985.283</ele>
        <time>2026-07-16T12:32:02.958Z</time>
      </trkpt>
      <trkpt lat="43.149460" lon="-6.178850">
        <ele>987.295</ele>
        <time>2026-07-16T12:32:22.958Z</time>
      </trkpt>
      <trkpt lat="43.148990" lon="-6.178530">
        <ele>1004.673</ele>
        <time>2026-07-16T12:32:42.958Z</time>
      </trkpt>
      <trkpt lat="43.148640" lon="-6.178110">
        <ele>989.989</ele>
        <time>2026-07-16T12:33:02.958Z</time>
      </trkpt>
      <trkpt lat="43.148510" lon="-6.177990">
        <ele>990.506</ele>
        <time>2026-07-16T12:33:22.958Z</time>
      </trkpt>
      <trkpt lat="43.148390" lon="-6.177930">
        <ele>993.426</ele>
        <time>2026-07-16T12:33:42.958Z</time>
      </trkpt>
      <trkpt lat="43.148080" lon="-6.177830">
        <ele>997.309</ele>
        <time>2026-07-16T12:34:02.958Z</time>
      </trkpt>
      <trkpt lat="43.147670" lon="-6.177740">
        <ele>1002.650</ele>
        <time>2026-07-16T12:34:22.958Z</time>
      </trkpt>
      <trkpt lat="43.147540" lon="-6.177750">
        <ele>1002.275</ele>
        <time>2026-07-16T12:34:42.958Z</time>
      </trkpt>
      <trkpt lat="43.147280" lon="-6.177850">
        <ele>1009.821</ele>
        <time>2026-07-16T12:35:02.958Z</time>
      </trkpt>
      <trkpt lat="43.146940" lon="-6.177850">
        <ele>1013.649</ele>
        <time>2026-07-16T12:35:22.958Z</time>
      </trkpt>
      <trkpt lat="43.146780" lon="-6.177890">
        <ele>1019.064</ele>
        <time>2026-07-16T12:35:42.958Z</time>
      </trkpt>
      <trkpt lat="43.146560" lon="-6.178050">
        <ele>1033.253</ele>
        <time>2026-07-16T12:36:02.958Z</time>
      </trkpt>
      <trkpt lat="43.146470" lon="-6.178090">
        <ele>1035.843</ele>
        <time>2026-07-16T12:36:22.958Z</time>
      </trkpt>
      <trkpt lat="43.146250" lon="-6.178060">
        <ele>1032.245</ele>
        <time>2026-07-16T12:36:42.958Z</time>
      </trkpt>
      <trkpt lat="43.146110" lon="-6.178070">
        <ele>1031.693</ele>
        <time>2026-07-16T12:37:02.958Z</time>
      </trkpt>
      <trkpt lat="43.146000" lon="-6.178160">
        <ele>1034.215</ele>
        <time>2026-07-16T12:37:22.958Z</time>
      </trkpt>
      <trkpt lat="43.145790" lon="-6.178420">
        <ele>1039.865</ele>
        <time>2026-07-16T12:37:42.958Z</time>
      </trkpt>
      <trkpt lat="43.145600" lon="-6.178570">
        <ele>1037.411</ele>
        <time>2026-07-16T12:38:02.958Z</time>
      </trkpt>
      <trkpt lat="43.145290" lon="-6.178760">
        <ele>1037.709</ele>
        <time>2026-07-16T12:38:22.958Z</time>
      </trkpt>
      <trkpt lat="43.145160" lon="-6.178910">
        <ele>1040.423</ele>
        <time>2026-07-16T12:38:42.958Z</time>
      </trkpt>
      <trkpt lat="43.144850" lon="-6.179340">
        <ele>1050.378</ele>
        <time>2026-07-16T12:39:02.958Z</time>
      </trkpt>
      <trkpt lat="43.144430" lon="-6.179930">
        <ele>1061.254</ele>
        <time>2026-07-16T12:39:22.958Z</time>
      </trkpt>
      <trkpt lat="43.144310" lon="-6.180180">
        <ele>1067.342</ele>
        <time>2026-07-16T12:39:42.958Z</time>
      </trkpt>
      <trkpt lat="43.144240" lon="-6.180370">
        <ele>1071.447</ele>
        <time>2026-07-16T12:40:02.958Z</time>
      </trkpt>
      <trkpt lat="43.144190" lon="-6.180610">
        <ele>1076.726</ele>
        <time>2026-07-16T12:40:22.958Z</time>
      </trkpt>
      <trkpt lat="43.144140" lon="-6.180870">
        <ele>1084.196</ele>
        <time>2026-07-16T12:40:42.958Z</time>
      </trkpt>
      <trkpt lat="43.144090" lon="-6.180970">
        <ele>1088.078</ele>
        <time>2026-07-16T12:41:02.958Z</time>
      </trkpt>
      <trkpt lat="43.143990" lon="-6.181040">
        <ele>1090.156</ele>
        <time>2026-07-16T12:41:22.958Z</time>
      </trkpt>
      <trkpt lat="43.143450" lon="-6.181100">
        <ele>1090.563</ele>
        <time>2026-07-16T12:41:42.958Z</time>
      </trkpt>
      <trkpt lat="43.143270" lon="-6.181090">
        <ele>1087.044</ele>
        <time>2026-07-16T12:42:02.958Z</time>
      </trkpt>
      <trkpt lat="43.143130" lon="-6.181060">
        <ele>1083.618</ele>
        <time>2026-07-16T12:42:22.958Z</time>
      </trkpt>
      <trkpt lat="43.143020" lon="-6.181090">
        <ele>1083.109</ele>
        <time>2026-07-16T12:42:42.958Z</time>
      </trkpt>
      <trkpt lat="43.142820" lon="-6.181260">
        <ele>1089.318</ele>
        <time>2026-07-16T12:43:02.958Z</time>
      </trkpt>
      <trkpt lat="43.142430" lon="-6.181670">
        <ele>1106.193</ele>
        <time>2026-07-16T12:43:22.958Z</time>
      </trkpt>
      <trkpt lat="43.142250" lon="-6.181770">
        <ele>1106.749</ele>
        <time>2026-07-16T12:43:42.958Z</time>
      </trkpt>
      <trkpt lat="43.141950" lon="-6.181840">
        <ele>1102.317</ele>
        <time>2026-07-16T12:44:02.958Z</time>
      </trkpt>
      <trkpt lat="43.141810" lon="-6.181910">
        <ele>1103.322</ele>
        <time>2026-07-16T12:44:22.958Z</time>
      </trkpt>
      <trkpt lat="43.141780" lon="-6.181940">
        <ele>1103.991</ele>
        <time>2026-07-16T12:44:42.958Z</time>
      </trkpt>
      <trkpt lat="43.141770" lon="-6.182070">
        <ele>1107.661</ele>
        <time>2026-07-16T12:45:02.958Z</time>
      </trkpt>
      <trkpt lat="43.141770" lon="-6.182160">
        <ele>1110.243</ele>
        <time>2026-07-16T12:45:22.958Z</time>
      </trkpt>
      <trkpt lat="43.141790" lon="-6.182230">
        <ele>1112.311</ele>
        <time>2026-07-16T12:45:42.958Z</time>
      </trkpt>
      <trkpt lat="43.141860" lon="-6.182290">
        <ele>1114.594</ele>
        <time>2026-07-16T12:46:02.958Z</time>
      </trkpt>
      <trkpt lat="43.141950" lon="-6.182300">
        <ele>1115.157</ele>
        <time>2026-07-16T12:46:22.958Z</time>
      </trkpt>
      <trkpt lat="43.142440" lon="-6.182140">
        <ele>1120.022</ele>
        <time>2026-07-16T12:46:42.958Z</time>
      </trkpt>
      <trkpt lat="43.142750" lon="-6.181960">
        <ele>1121.009</ele>
        <time>2026-07-16T12:47:02.958Z</time>
      </trkpt>
      <trkpt lat="43.142910" lon="-6.181900">
        <ele>1121.941</ele>
        <time>2026-07-16T12:47:22.958Z</time>
      </trkpt>
      <trkpt lat="43.143060" lon="-6.181870">
        <ele>1123.776</ele>
        <time>2026-07-16T12:47:42.958Z</time>
      </trkpt>
      <trkpt lat="43.143190" lon="-6.181890">
        <ele>1125.992</ele>
        <time>2026-07-16T12:48:02.958Z</time>
      </trkpt>
      <trkpt lat="43.143750" lon="-6.182050">
        <ele>1135.220</ele>
        <time>2026-07-16T12:48:22.958Z</time>
      </trkpt>
      <trkpt lat="43.144250" lon="-6.182260">
        <ele>1144.495</ele>
        <time>2026-07-16T12:48:42.958Z</time>
      </trkpt>
      <trkpt lat="43.144380" lon="-6.182300">
        <ele>1146.814</ele>
        <time>2026-07-16T12:49:02.958Z</time>
      </trkpt>
      <trkpt lat="43.144590" lon="-6.182300">
        <ele>1152.274</ele>
        <time>2026-07-16T12:49:22.958Z</time>
      </trkpt>
      <trkpt lat="43.144720" lon="-6.182350">
        <ele>1158.536</ele>
        <time>2026-07-16T12:49:42.958Z</time>
      </trkpt>
      <trkpt lat="43.144760" lon="-6.182390">
        <ele>1161.674</ele>
        <time>2026-07-16T12:50:02.958Z</time>
      </trkpt>
      <trkpt lat="43.144800" lon="-6.182480">
        <ele>1165.966</ele>
        <time>2026-07-16T12:50:22.958Z</time>
      </trkpt>
      <trkpt lat="43.144800" lon="-6.182560">
        <ele>1167.629</ele>
        <time>2026-07-16T12:50:42.958Z</time>
      </trkpt>
      <trkpt lat="43.144790" lon="-6.182630">
        <ele>1168.521</ele>
        <time>2026-07-16T12:51:02.958Z</time>
      </trkpt>
      <trkpt lat="43.144740" lon="-6.182700">
        <ele>1168.709</ele>
        <time>2026-07-16T12:51:22.958Z</time>
      </trkpt>
      <trkpt lat="43.144660" lon="-6.182720">
        <ele>1167.878</ele>
        <time>2026-07-16T12:51:42.958Z</time>
      </trkpt>
      <trkpt lat="43.144550" lon="-6.182680">
        <ele>1164.793</ele>
        <time>2026-07-16T12:52:02.958Z</time>
      </trkpt>
      <trkpt lat="43.144250" lon="-6.182550">
        <ele>1157.939</ele>
        <time>2026-07-16T12:52:22.958Z</time>
      </trkpt>
      <trkpt lat="43.143750" lon="-6.182500">
        <ele>1155.027</ele>
        <time>2026-07-16T12:52:42.958Z</time>
      </trkpt>
      <trkpt lat="43.143660" lon="-6.182530">
        <ele>1155.772</ele>
        <time>2026-07-16T12:53:02.958Z</time>
      </trkpt>
      <trkpt lat="43.143550" lon="-6.182620">
        <ele>1158.131</ele>
        <time>2026-07-16T12:53:22.958Z</time>
      </trkpt>
      <trkpt lat="43.143500" lon="-6.182690">
        <ele>1160.191</ele>
        <time>2026-07-16T12:53:42.958Z</time>
      </trkpt>
      <trkpt lat="43.143440" lon="-6.182850">
        <ele>1164.843</ele>
        <time>2026-07-16T12:54:02.958Z</time>
      </trkpt>
      <trkpt lat="43.143420" lon="-6.183110">
        <ele>1172.961</ele>
        <time>2026-07-16T12:54:22.958Z</time>
      </trkpt>
      <trkpt lat="43.143410" lon="-6.183330">
        <ele>1178.398</ele>
        <time>2026-07-16T12:54:42.958Z</time>
      </trkpt>
      <trkpt lat="43.143350" lon="-6.183500">
        <ele>1180.915</ele>
        <time>2026-07-16T12:55:02.958Z</time>
      </trkpt>
      <trkpt lat="43.143250" lon="-6.183630">
        <ele>1183.026</ele>
        <time>2026-07-16T12:55:22.958Z</time>
      </trkpt>
      <trkpt lat="43.143060" lon="-6.183740">
        <ele>1187.009</ele>
        <time>2026-07-16T12:55:42.958Z</time>
      </trkpt>
      <trkpt lat="43.142620" lon="-6.183940">
        <ele>1191.761</ele>
        <time>2026-07-16T12:56:02.958Z</time>
      </trkpt>
      <trkpt lat="43.142410" lon="-6.183980">
        <ele>1195.296</ele>
        <time>2026-07-16T12:56:22.958Z</time>
      </trkpt>
      <trkpt lat="43.142200" lon="-6.183940">
        <ele>1196.772</ele>
        <time>2026-07-16T12:56:42.958Z</time>
      </trkpt>
      <trkpt lat="43.141680" lon="-6.183640">
        <ele>1201.130</ele>
        <time>2026-07-16T12:57:02.958Z</time>
      </trkpt>
      <trkpt lat="43.141570" lon="-6.183620">
        <ele>1199.625</ele>
        <time>2026-07-16T12:57:22.958Z</time>
      </trkpt>
      <trkpt lat="43.141440" lon="-6.183630">
        <ele>1197.894</ele>
        <time>2026-07-16T12:57:42.958Z</time>
      </trkpt>
      <trkpt lat="43.141320" lon="-6.183720">
        <ele>1198.824</ele>
        <time>2026-07-16T12:58:02.958Z</time>
      </trkpt>
      <trkpt lat="43.140990" lon="-6.184330">
        <ele>1211.136</ele>
        <time>2026-07-16T12:58:22.958Z</time>
      </trkpt>
      <trkpt lat="43.140950" lon="-6.184460">
        <ele>1211.254</ele>
        <time>2026-07-16T12:58:42.958Z</time>
      </trkpt>
      <trkpt lat="43.140930" lon="-6.184580">
        <ele>1210.747</ele>
        <time>2026-07-16T12:59:02.958Z</time>
      </trkpt>
      <trkpt lat="43.140970" lon="-6.184940">
        <ele>1215.829</ele>
        <time>2026-07-16T12:59:22.958Z</time>
      </trkpt>
      <trkpt lat="43.141040" lon="-6.185600">
        <ele>1239.621</ele>
        <time>2026-07-16T12:59:42.958Z</time>
      </trkpt>
      <trkpt lat="43.141040" lon="-6.185760">
        <ele>1245.509</ele>
        <time>2026-07-16T13:00:02.958Z</time>
      </trkpt>
      <trkpt lat="43.141000" lon="-6.185870">
        <ele>1248.186</ele>
        <time>2026-07-16T13:00:22.958Z</time>
      </trkpt>
      <trkpt lat="43.140920" lon="-6.185990">
        <ele>1249.851</ele>
        <time>2026-07-16T13:00:42.958Z</time>
      </trkpt>
      <trkpt lat="43.140670" lon="-6.186180">
        <ele>1248.377</ele>
        <time>2026-07-16T13:01:02.958Z</time>
      </trkpt>
      <trkpt lat="43.140350" lon="-6.186420">
        <ele>1239.975</ele>
        <time>2026-07-16T13:01:22.958Z</time>
      </trkpt>
      <trkpt lat="43.140270" lon="-6.186530">
        <ele>1240.670</ele>
        <time>2026-07-16T13:01:42.958Z</time>
      </trkpt>
      <trkpt lat="43.140000" lon="-6.187120">
        <ele>1245.379</ele>
        <time>2026-07-16T13:02:02.958Z</time>
      </trkpt>
      <trkpt lat="43.139970" lon="-6.187200">
        <ele>1243.799</ele>
        <time>2026-07-16T13:02:22.958Z</time>
      </trkpt>
      <trkpt lat="43.139950" lon="-6.187380">
        <ele>1244.751</ele>
        <time>2026-07-16T13:02:42.958Z</time>
      </trkpt>
      <trkpt lat="43.139960" lon="-6.188050">
        <ele>1260.029</ele>
        <time>2026-07-16T13:03:02.958Z</time>
      </trkpt>
      <trkpt lat="43.139960" lon="-6.188400">
        <ele>1266.077</ele>
        <time>2026-07-16T13:03:22.958Z</time>
      </trkpt>
      <trkpt lat="43.139930" lon="-6.188790">
        <ele>1268.061</ele>
        <time>2026-07-16T13:03:42.958Z</time>
      </trkpt>
      <trkpt lat="43.139900" lon="-6.189400">
        <ele>1268.827</ele>
        <time>2026-07-16T13:04:02.958Z</time>
      </trkpt>
      <trkpt lat="43.139930" lon="-6.190170">
        <ele>1274.309</ele>
        <time>2026-07-16T13:04:22.958Z</time>
      </trkpt>
      <trkpt lat="43.140000" lon="-6.190620">
        <ele>1280.219</ele>
        <time>2026-07-16T13:04:42.958Z</time>
      </trkpt>
      <trkpt lat="43.140170" lon="-6.191220">
        <ele>1286.984</ele>
        <time>2026-07-16T13:05:02.958Z</time>
      </trkpt>
      <trkpt lat="43.140280" lon="-6.191590">
        <ele>1289.160</ele>
        <time>2026-07-16T13:05:22.958Z</time>
      </trkpt>
      <trkpt lat="43.140380" lon="-6.192010">
        <ele>1292.998</ele>
        <time>2026-07-16T13:05:42.958Z</time>
      </trkpt>
      <trkpt lat="43.140430" lon="-6.192550">
        <ele>1299.393</ele>
        <time>2026-07-16T13:06:02.958Z</time>
      </trkpt>
      <trkpt lat="43.140440" lon="-6.192660">
        <ele>1300.822</ele>
        <time>2026-07-16T13:06:22.958Z</time>
      </trkpt>
      <trkpt lat="43.140480" lon="-6.192730">
        <ele>1301.782</ele>
        <time>2026-07-16T13:06:42.958Z</time>
      </trkpt>
      <trkpt lat="43.140520" lon="-6.192780">
        <ele>1302.234</ele>
        <time>2026-07-16T13:07:02.958Z</time>
      </trkpt>
      <trkpt lat="43.140650" lon="-6.192810">
        <ele>1305.072</ele>
        <time>2026-07-16T13:07:22.958Z</time>
      </trkpt>
      <trkpt lat="43.140720" lon="-6.192770">
        <ele>1306.144</ele>
        <time>2026-07-16T13:07:42.958Z</time>
      </trkpt>
      <trkpt lat="43.140770" lon="-6.192660">
        <ele>1306.105</ele>
        <time>2026-07-16T13:08:02.958Z</time>
      </trkpt>
      <trkpt lat="43.140840" lon="-6.191970">
        <ele>1306.415</ele>
        <time>2026-07-16T13:08:22.958Z</time>
      </trkpt>
      <trkpt lat="43.140940" lon="-6.190980">
        <ele>1317.709</ele>
        <time>2026-07-16T13:08:42.958Z</time>
      </trkpt>
      <trkpt lat="43.140960" lon="-6.190690">
        <ele>1320.356</ele>
        <time>2026-07-16T13:09:02.958Z</time>
      </trkpt>
      <trkpt lat="43.141000" lon="-6.190630">
        <ele>1322.521</ele>
        <time>2026-07-16T13:09:22.958Z</time>
      </trkpt>
      <trkpt lat="43.141060" lon="-6.190600">
        <ele>1325.347</ele>
        <time>2026-07-16T13:09:42.958Z</time>
      </trkpt>
      <trkpt lat="43.141120" lon="-6.190610">
        <ele>1327.825</ele>
        <time>2026-07-16T13:10:02.958Z</time>
      </trkpt>
      <trkpt lat="43.141200" lon="-6.190670">
        <ele>1330.430</ele>
        <time>2026-07-16T13:10:22.958Z</time>
      </trkpt>
      <trkpt lat="43.141230" lon="-6.190750">
        <ele>1330.959</ele>
        <time>2026-07-16T13:10:42.958Z</time>
      </trkpt>
      <trkpt lat="43.141290" lon="-6.191150">
        <ele>1330.739</ele>
        <time>2026-07-16T13:11:02.958Z</time>
      </trkpt>
      <trkpt lat="43.141520" lon="-6.191860">
        <ele>1333.781</ele>
        <time>2026-07-16T13:11:22.958Z</time>
      </trkpt>
      <trkpt lat="43.141590" lon="-6.192140">
        <ele>1334.549</ele>
        <time>2026-07-16T13:11:42.958Z</time>
      </trkpt>
      <trkpt lat="43.141650" lon="-6.192500">
        <ele>1335.582</ele>
        <time>2026-07-16T13:12:02.958Z</time>
      </trkpt>
      <trkpt lat="43.141680" lon="-6.192780">
        <ele>1337.643</ele>
        <time>2026-07-16T13:12:22.958Z</time>
      </trkpt>
      <trkpt lat="43.141690" lon="-6.193290">
        <ele>1342.517</ele>
        <time>2026-07-16T13:12:42.958Z</time>
      </trkpt>
      <trkpt lat="43.141670" lon="-6.193580">
        <ele>1343.009</ele>
        <time>2026-07-16T13:13:02.958Z</time>
      </trkpt>
      <trkpt lat="43.141580" lon="-6.193960">
        <ele>1340.470</ele>
        <time>2026-07-16T13:13:22.958Z</time>
      </trkpt>
      <trkpt lat="43.141440" lon="-6.194300">
        <ele>1339.945</ele>
        <time>2026-07-16T13:13:42.958Z</time>
      </trkpt>
      <trkpt lat="43.141310" lon="-6.194540">
        <ele>1341.911</ele>
        <time>2026-07-16T13:14:02.958Z</time>
      </trkpt>
      <trkpt lat="43.141150" lon="-6.194790">
        <ele>1344.679</ele>
        <time>2026-07-16T13:14:22.958Z</time>
      </trkpt>
      <trkpt lat="43.141110" lon="-6.194930">
        <ele>1345.564</ele>
        <time>2026-07-16T13:14:42.958Z</time>
      </trkpt>
    </trkseg>
  </trk></gpx>