<?xml version="1.0" encoding="UTF-8"?>
<gpx creator="Wikiloc - https://www.wikiloc.com" version="1.1" xmlns="http://www.topografix.com/GPX/1/1" xmlns:xsi="http://www.w3.org/2001/XMLSchema-instance" xsi:schemaLocation="http://www.topografix.com/GPX/1/1 http://www.topografix.com/GPX/1/1/gpx.xsd">
  <metadata>
    <name>Wikiloc - PUERTO DE TORNAVACAS (por Barco de Ávila)</name>
    <link href="https://www.wikiloc.com/cycling-trails/puerto-de-tornavacas-por-barco-de-avila-258204625">
      <text>PUERTO DE TORNAVACAS (por Barco de Ávila) - Wikiloc on Wikiloc</text>
    </link>
    <time>2026-07-16T10:03:39.236Z</time>
  </metadata>
  <trk>
    <name>PUERTO DE TORNAVACAS (por Barco de Ávila) - Wikiloc</name>
    <cmt></cmt>
    <desc></desc>
    <trkseg>
      <trkpt lat="40.360650" lon="-5.526620">
        <ele>995.243</ele>
        <time>2026-07-16T10:03:39.235Z</time>
      </trkpt>
      <trkpt lat="40.360960" lon="-5.527020">
        <ele>1010.564</ele>
        <time>2026-07-16T10:03:59.235Z</time>
      </trkpt>
      <trkpt lat="40.360950" lon="-5.527200">
        <ele>1012.110</ele>
        <time>2026-07-16T10:04:19.235Z</time>
      </trkpt>
      <trkpt lat="40.360620" lon="-5.527340">
        <ele>1005.609</ele>
        <time>2026-07-16T10:04:39.235Z</time>
      </trkpt>
      <trkpt lat="40.359950" lon="-5.528500">
        <ele>1013.136</ele>
        <time>2026-07-16T10:04:59.235Z</time>
      </trkpt>
      <trkpt lat="40.358580" lon="-5.530320">
        <ele>1020.469</ele>
        <time>2026-07-16T10:05:19.235Z</time>
      </trkpt>
      <trkpt lat="40.350050" lon="-5.546050">
        <ele>1019.932</ele>
        <time>2026-07-16T10:05:39.235Z</time>
      </trkpt>
      <trkpt lat="40.349560" lon="-5.546600">
        <ele>1024.076</ele>
        <time>2026-07-16T10:05:59.235Z</time>
      </trkpt>
      <trkpt lat="40.348550" lon="-5.546960">
        <ele>1028.714</ele>
        <time>2026-07-16T10:06:19.235Z</time>
      </trkpt>
      <trkpt lat="40.348180" lon="-5.547240">
        <ele>1028.538</ele>
        <time>2026-07-16T10:06:39.235Z</time>
      </trkpt>
      <trkpt lat="40.346220" lon="-5.550200">
        <ele>1034.120</ele>
        <time>2026-07-16T10:06:59.235Z</time>
      </trkpt>
      <trkpt lat="40.345980" lon="-5.550860">
        <ele>1035.146</ele>
        <time>2026-07-16T10:07:19.235Z</time>
      </trkpt>
      <trkpt lat="40.345570" lon="-5.553170">
        <ele>1030.919</ele>
        <time>2026-07-16T10:07:39.235Z</time>
      </trkpt>
      <trkpt lat="40.344220" lon="-5.554710">
        <ele>1038.684</ele>
        <time>2026-07-16T10:07:59.235Z</time>
      </trkpt>
      <trkpt lat="40.343540" lon="-5.556930">
        <ele>1038.207</ele>
        <time>2026-07-16T10:08:19.235Z</time>
      </trkpt>
      <trkpt lat="40.338920" lon="-5.562270">
        <ele>1052.017</ele>
        <time>2026-07-16T10:08:39.235Z</time>
      </trkpt>
      <trkpt lat="40.335530" lon="-5.570790">
        <ele>1050.609</ele>
        <time>2026-07-16T10:08:59.235Z</time>
      </trkpt>
      <trkpt lat="40.335060" lon="-5.571630">
        <ele>1054.240</ele>
        <time>2026-07-16T10:09:19.235Z</time>
      </trkpt>
      <trkpt lat="40.333690" lon="-5.573280">
        <ele>1058.233</ele>
        <time>2026-07-16T10:09:39.235Z</time>
      </trkpt>
      <trkpt lat="40.332690" lon="-5.576860">
        <ele>1067.116</ele>
        <time>2026-07-16T10:09:59.235Z</time>
      </trkpt>
      <trkpt lat="40.330540" lon="-5.581240">
        <ele>1076.410</ele>
        <time>2026-07-16T10:10:19.235Z</time>
      </trkpt>
      <trkpt lat="40.328510" lon="-5.584480">
        <ele>1077.898</ele>
        <time>2026-07-16T10:10:39.235Z</time>
      </trkpt>
      <trkpt lat="40.327660" lon="-5.585460">
        <ele>1078.632</ele>
        <time>2026-07-16T10:10:59.235Z</time>
      </trkpt>
      <trkpt lat="40.323260" lon="-5.589090">
        <ele>1071.544</ele>
        <time>2026-07-16T10:11:19.235Z</time>
      </trkpt>
      <trkpt lat="40.321500" lon="-5.589410">
        <ele>1070.130</ele>
        <time>2026-07-16T10:11:39.235Z</time>
      </trkpt>
      <trkpt lat="40.317840" lon="-5.591740">
        <ele>1080.053</ele>
        <time>2026-07-16T10:11:59.235Z</time>
      </trkpt>
      <trkpt lat="40.316830" lon="-5.592580">
        <ele>1085.361</ele>
        <time>2026-07-16T10:12:19.235Z</time>
      </trkpt>
      <trkpt lat="40.299750" lon="-5.615070">
        <ele>1121.021</ele>
        <time>2026-07-16T10:12:39.235Z</time>
      </trkpt>
      <trkpt lat="40.297160" lon="-5.620450">
        <ele>1124.513</ele>
        <time>2026-07-16T10:12:59.235Z</time>
      </trkpt>
      <trkpt lat="40.296770" lon="-5.620790">
        <ele>1124.909</ele>
        <time>2026-07-16T10:13:19.235Z</time>
      </trkpt>
      <trkpt lat="40.295250" lon="-5.621460">
        <ele>1130.148</ele>
        <time>2026-07-16T10:13:39.235Z</time>
      </trkpt>
      <trkpt lat="40.294780" lon="-5.621820">
        <ele>1132.231</ele>
        <time>2026-07-16T10:13:59.235Z</time>
      </trkpt>
      <trkpt lat="40.290240" lon="-5.626800">
        <ele>1163.134</ele>
        <time>2026-07-16T10:14:19.235Z</time>
      </trkpt>
      <trkpt lat="40.288320" lon="-5.629550">
        <ele>1166.768</ele>
        <time>2026-07-16T10:14:39.235Z</time>
      </trkpt>
      <trkpt lat="40.287090" lon="-5.631480">
        <ele>1163.386</ele>
        <time>2026-07-16T10:14:59.235Z</time>
      </trkpt>
      <trkpt lat="40.286220" lon="-5.633280">
        <ele>1162.230</ele>
        <time>2026-07-16T10:15:19.235Z</time>
      </trkpt>
      <trkpt lat="40.285360" lon="-5.635250">
        <ele>1172.442</ele>
        <time>2026-07-16T10:15:39.235Z</time>
      </trkpt>
      <trkpt lat="40.284590" lon="-5.637500">
        <ele>1178.068</ele>
        <time>2026-07-16T10:15:59.235Z</time>
      </trkpt>
      <trkpt lat="40.283240" lon="-5.640050">
        <ele>1178.221</ele>
        <time>2026-07-16T10:16:19.235Z</time>
      </trkpt>
      <trkpt lat="40.282570" lon="-5.642360">
        <ele>1179.755</ele>
        <time>2026-07-16T10:16:39.235Z</time>
      </trkpt>
      <trkpt lat="40.281170" lon="-5.646190">
        <ele>1184.907</ele>
        <time>2026-07-16T10:16:59.235Z</time>
      </trkpt>
      <trkpt lat="40.279210" lon="-5.649780">
        <ele>1198.617</ele>
        <time>2026-07-16T10:17:19.235Z</time>
      </trkpt>
      <trkpt lat="40.277190" lon="-5.654870">
        <ele>1220.709</ele>
        <time>2026-07-16T10:17:39.235Z</time>
      </trkpt>
      <trkpt lat="40.276240" lon="-5.658820">
        <ele>1244.127</ele>
        <time>2026-07-16T10:17:59.235Z</time>
      </trkpt>
      <trkpt lat="40.275290" lon="-5.660340">
        <ele>1256.790</ele>
        <time>2026-07-16T10:18:19.235Z</time>
      </trkpt>
      <trkpt lat="40.273340" lon="-5.661400">
        <ele>1272.043</ele>
        <time>2026-07-16T10:18:39.235Z</time>
      </trkpt>
      <trkpt lat="40.273060" lon="-5.661700">
        <ele>1273.017</ele>
        <time>2026-07-16T10:18:59.235Z</time>
      </trkpt>
      <trkpt lat="40.272850" lon="-5.662270">
        <ele>1275.065</ele>
        <time>2026-07-16T10:19:19.235Z</time>
      </trkpt>
    </trkseg>
  </trk></gpx>