<?xml version="1.0" encoding="UTF-8"?>
<gpx creator="Wikiloc - https://www.wikiloc.com" version="1.1" xmlns="http://www.topografix.com/GPX/1/1" xmlns:xsi="http://www.w3.org/2001/XMLSchema-instance" xsi:schemaLocation="http://www.topografix.com/GPX/1/1 http://www.topografix.com/GPX/1/1/gpx.xsd">
  <metadata>
    <name>Wikiloc - Puerto de Cotefablo 1.423m desde Broto (Huesca)</name>
    <link href="https://www.wikiloc.com/cycling-trails/puerto-de-cotefablo-1-423m-desde-broto-huesca-190786198">
      <text>Puerto de Cotefablo 1.423m desde Broto (Huesca) - Wikiloc on Wikiloc</text>
    </link>
    <time>2024-06-21T08:34:53Z</time>
  </metadata>
  <trk>
    <name>Puerto de Cotefablo 1.423m desde Broto (Huesca) - Wikiloc</name>
    <cmt></cmt>
    <desc></desc>
    <trkseg>
      <trkpt lat="42.604505" lon="-0.122887">
        <ele>898.571</ele>
        <time>2024-06-21T07:45:31Z</time>
      </trkpt>
      <trkpt lat="42.604957" lon="-0.123567">
        <ele>898.141</ele>
        <time>2024-06-21T07:45:49Z</time>
      </trkpt>
      <trkpt lat="42.605390" lon="-0.123823">
        <ele>897.615</ele>
        <time>2024-06-21T07:45:58Z</time>
      </trkpt>
      <trkpt lat="42.606521" lon="-0.123319">
        <ele>902.609</ele>
        <time>2024-06-21T07:46:25Z</time>
      </trkpt>
      <trkpt lat="42.606735" lon="-0.123439">
        <ele>919.348</ele>
        <time>2024-06-21T07:46:32Z</time>
      </trkpt>
      <trkpt lat="42.606878" lon="-0.123314">
        <ele>924.246</ele>
        <time>2024-06-21T07:46:37Z</time>
      </trkpt>
      <trkpt lat="42.606927" lon="-0.123094">
        <ele>904.337</ele>
        <time>2024-06-21T07:46:43Z</time>
      </trkpt>
      <trkpt lat="42.607322" lon="-0.122928">
        <ele>907.234</ele>
        <time>2024-06-21T07:46:55Z</time>
      </trkpt>
      <trkpt lat="42.608286" lon="-0.122951">
        <ele>912.725</ele>
        <time>2024-06-21T07:47:25Z</time>
      </trkpt>
      <trkpt lat="42.609154" lon="-0.123248">
        <ele>918.443</ele>
        <time>2024-06-21T07:47:50Z</time>
      </trkpt>
      <trkpt lat="42.610958" lon="-0.124330">
        <ele>928.148</ele>
        <time>2024-06-21T07:48:43Z</time>
      </trkpt>
      <trkpt lat="42.611282" lon="-0.124350">
        <ele>929.566</ele>
        <time>2024-06-21T07:48:51Z</time>
      </trkpt>
      <trkpt lat="42.611525" lon="-0.123997">
        <ele>931.445</ele>
        <time>2024-06-21T07:49:00Z</time>
      </trkpt>
      <trkpt lat="42.611570" lon="-0.123401">
        <ele>934.049</ele>
        <time>2024-06-21T07:49:12Z</time>
      </trkpt>
      <trkpt lat="42.611336" lon="-0.120445">
        <ele>941.202</ele>
        <time>2024-06-21T07:51:03Z</time>
      </trkpt>
      <trkpt lat="42.611578" lon="-0.119455">
        <ele>946.022</ele>
        <time>2024-06-21T07:51:23Z</time>
      </trkpt>
      <trkpt lat="42.611748" lon="-0.119250">
        <ele>947.709</ele>
        <time>2024-06-21T07:51:29Z</time>
      </trkpt>
      <trkpt lat="42.611949" lon="-0.119217">
        <ele>949.355</ele>
        <time>2024-06-21T07:51:35Z</time>
      </trkpt>
      <trkpt lat="42.612141" lon="-0.119417">
        <ele>951.483</ele>
        <time>2024-06-21T07:51:43Z</time>
      </trkpt>
      <trkpt lat="42.612242" lon="-0.120004">
        <ele>954.774</ele>
        <time>2024-06-21T07:51:59Z</time>
      </trkpt>
      <trkpt lat="42.611923" lon="-0.121287">
        <ele>961.531</ele>
        <time>2024-06-21T07:52:30Z</time>
      </trkpt>
      <trkpt lat="42.611904" lon="-0.122429">
        <ele>967.742</ele>
        <time>2024-06-21T07:52:55Z</time>
      </trkpt>
      <trkpt lat="42.611994" lon="-0.123234">
        <ele>972.730</ele>
        <time>2024-06-21T07:53:11Z</time>
      </trkpt>
      <trkpt lat="42.612321" lon="-0.124139">
        <ele>979.135</ele>
        <time>2024-06-21T07:53:35Z</time>
      </trkpt>
      <trkpt lat="42.612534" lon="-0.124331">
        <ele>981.343</ele>
        <time>2024-06-21T07:53:42Z</time>
      </trkpt>
      <trkpt lat="42.612747" lon="-0.124334">
        <ele>983.112</ele>
        <time>2024-06-21T07:53:49Z</time>
      </trkpt>
      <trkpt lat="42.612905" lon="-0.124172">
        <ele>984.553</ele>
        <time>2024-06-21T07:53:58Z</time>
      </trkpt>
      <trkpt lat="42.612989" lon="-0.123702">
        <ele>986.704</ele>
        <time>2024-06-21T07:54:11Z</time>
      </trkpt>
      <trkpt lat="42.612985" lon="-0.122417">
        <ele>993.414</ele>
        <time>2024-06-21T07:54:44Z</time>
      </trkpt>
      <trkpt lat="42.612837" lon="-0.121351">
        <ele>999.109</ele>
        <time>2024-06-21T07:55:08Z</time>
      </trkpt>
      <trkpt lat="42.613012" lon="-0.120568">
        <ele>1002.676</ele>
        <time>2024-06-21T07:55:26Z</time>
      </trkpt>
      <trkpt lat="42.613316" lon="-0.120157">
        <ele>1004.614</ele>
        <time>2024-06-21T07:55:36Z</time>
      </trkpt>
      <trkpt lat="42.613995" lon="-0.119823">
        <ele>1006.285</ele>
        <time>2024-06-21T07:55:51Z</time>
      </trkpt>
      <trkpt lat="42.614310" lon="-0.119146">
        <ele>1008.112</ele>
        <time>2024-06-21T07:56:04Z</time>
      </trkpt>
      <trkpt lat="42.614852" lon="-0.118818">
        <ele>1011.153</ele>
        <time>2024-06-21T07:56:19Z</time>
      </trkpt>
      <trkpt lat="42.615287" lon="-0.118212">
        <ele>1015.361</ele>
        <time>2024-06-21T07:56:35Z</time>
      </trkpt>
      <trkpt lat="42.615567" lon="-0.118202">
        <ele>1017.576</ele>
        <time>2024-06-21T07:56:42Z</time>
      </trkpt>
      <trkpt lat="42.615721" lon="-0.118355">
        <ele>1018.674</ele>
        <time>2024-06-21T07:56:47Z</time>
      </trkpt>
      <trkpt lat="42.615733" lon="-0.118835">
        <ele>1021.223</ele>
        <time>2024-06-21T07:56:57Z</time>
      </trkpt>
      <trkpt lat="42.614628" lon="-0.120729">
        <ele>1033.229</ele>
        <time>2024-06-21T07:57:53Z</time>
      </trkpt>
      <trkpt lat="42.614607" lon="-0.121522">
        <ele>1038.300</ele>
        <time>2024-06-21T07:58:11Z</time>
      </trkpt>
      <trkpt lat="42.614958" lon="-0.122596">
        <ele>1046.820</ele>
        <time>2024-06-21T07:58:40Z</time>
      </trkpt>
      <trkpt lat="42.614910" lon="-0.122969">
        <ele>1049.309</ele>
        <time>2024-06-21T07:58:50Z</time>
      </trkpt>
      <trkpt lat="42.614776" lon="-0.123047">
        <ele>1050.413</ele>
        <time>2024-06-21T07:58:57Z</time>
      </trkpt>
      <trkpt lat="42.614651" lon="-0.122982">
        <ele>1051.221</ele>
        <time>2024-06-21T07:59:03Z</time>
      </trkpt>
      <trkpt lat="42.614150" lon="-0.122255">
        <ele>1055.952</ele>
        <time>2024-06-21T07:59:32Z</time>
      </trkpt>
      <trkpt lat="42.613980" lon="-0.122302">
        <ele>1057.319</ele>
        <time>2024-06-21T07:59:39Z</time>
      </trkpt>
      <trkpt lat="42.613911" lon="-0.122524">
        <ele>1058.840</ele>
        <time>2024-06-21T07:59:45Z</time>
      </trkpt>
      <trkpt lat="42.614322" lon="-0.124967">
        <ele>1070.318</ele>
        <time>2024-06-21T08:00:47Z</time>
      </trkpt>
      <trkpt lat="42.614187" lon="-0.126914">
        <ele>1080.993</ele>
        <time>2024-06-21T08:02:19Z</time>
      </trkpt>
      <trkpt lat="42.614205" lon="-0.128479">
        <ele>1089.241</ele>
        <time>2024-06-21T08:02:50Z</time>
      </trkpt>
      <trkpt lat="42.614539" lon="-0.129693">
        <ele>1095.450</ele>
        <time>2024-06-21T08:03:19Z</time>
      </trkpt>
      <trkpt lat="42.614841" lon="-0.131378">
        <ele>1104.336</ele>
        <time>2024-06-21T08:03:55Z</time>
      </trkpt>
      <trkpt lat="42.614985" lon="-0.132471">
        <ele>1110.217</ele>
        <time>2024-06-21T08:04:22Z</time>
      </trkpt>
      <trkpt lat="42.614993" lon="-0.133514">
        <ele>1116.018</ele>
        <time>2024-06-21T08:04:42Z</time>
      </trkpt>
      <trkpt lat="42.615316" lon="-0.135523">
        <ele>1129.309</ele>
        <time>2024-06-21T08:05:27Z</time>
      </trkpt>
      <trkpt lat="42.615413" lon="-0.135894">
        <ele>1131.914</ele>
        <time>2024-06-21T08:05:37Z</time>
      </trkpt>
      <trkpt lat="42.615709" lon="-0.136314">
        <ele>1135.362</ele>
        <time>2024-06-21T08:05:51Z</time>
      </trkpt>
      <trkpt lat="42.615790" lon="-0.136849">
        <ele>1138.353</ele>
        <time>2024-06-21T08:06:02Z</time>
      </trkpt>
      <trkpt lat="42.615245" lon="-0.137495">
        <ele>1140.770</ele>
        <time>2024-06-21T08:06:24Z</time>
      </trkpt>
      <trkpt lat="42.614689" lon="-0.138776">
        <ele>1145.691</ele>
        <time>2024-06-21T08:06:58Z</time>
      </trkpt>
      <trkpt lat="42.614550" lon="-0.139390">
        <ele>1148.939</ele>
        <time>2024-06-21T08:07:13Z</time>
      </trkpt>
      <trkpt lat="42.614547" lon="-0.139815">
        <ele>1151.654</ele>
        <time>2024-06-21T08:07:23Z</time>
      </trkpt>
      <trkpt lat="42.614804" lon="-0.140426">
        <ele>1160.092</ele>
        <time>2024-06-21T08:07:40Z</time>
      </trkpt>
      <trkpt lat="42.614842" lon="-0.141294">
        <ele>1156.071</ele>
        <time>2024-06-21T08:07:51Z</time>
      </trkpt>
      <trkpt lat="42.615024" lon="-0.141848">
        <ele>1158.465</ele>
        <time>2024-06-21T08:08:03Z</time>
      </trkpt>
      <trkpt lat="42.614853" lon="-0.142081">
        <ele>1159.468</ele>
        <time>2024-06-21T08:08:08Z</time>
      </trkpt>
      <trkpt lat="42.614378" lon="-0.142181">
        <ele>1162.114</ele>
        <time>2024-06-21T08:08:24Z</time>
      </trkpt>
      <trkpt lat="42.614177" lon="-0.142389">
        <ele>1163.409</ele>
        <time>2024-06-21T08:08:32Z</time>
      </trkpt>
      <trkpt lat="42.613503" lon="-0.146016">
        <ele>1177.737</ele>
        <time>2024-06-21T08:09:44Z</time>
      </trkpt>
      <trkpt lat="42.612877" lon="-0.147554">
        <ele>1185.445</ele>
        <time>2024-06-21T08:10:17Z</time>
      </trkpt>
      <trkpt lat="42.612410" lon="-0.149260">
        <ele>1194.486</ele>
        <time>2024-06-21T08:10:53Z</time>
      </trkpt>
      <trkpt lat="42.611601" lon="-0.150567">
        <ele>1203.393</ele>
        <time>2024-06-21T08:11:33Z</time>
      </trkpt>
      <trkpt lat="42.611530" lon="-0.151430">
        <ele>1207.794</ele>
        <time>2024-06-21T08:11:53Z</time>
      </trkpt>
      <trkpt lat="42.611036" lon="-0.152293">
        <ele>1212.642</ele>
        <time>2024-06-21T08:12:16Z</time>
      </trkpt>
      <trkpt lat="42.610941" lon="-0.152996">
        <ele>1214.727</ele>
        <time>2024-06-21T08:12:27Z</time>
      </trkpt>
      <trkpt lat="42.611172" lon="-0.153432">
        <ele>1215.595</ele>
        <time>2024-06-21T08:12:36Z</time>
      </trkpt>
      <trkpt lat="42.612224" lon="-0.153957">
        <ele>1219.814</ele>
        <time>2024-06-21T08:13:04Z</time>
      </trkpt>
      <trkpt lat="42.614572" lon="-0.154028">
        <ele>1215.825</ele>
        <time>2024-06-21T08:13:41Z</time>
      </trkpt>
      <trkpt lat="42.615267" lon="-0.154149">
        <ele>1216.526</ele>
        <time>2024-06-21T08:13:50Z</time>
      </trkpt>
      <trkpt lat="42.616369" lon="-0.154889">
        <ele>1217.708</ele>
        <time>2024-06-21T08:14:12Z</time>
      </trkpt>
      <trkpt lat="42.617180" lon="-0.155096">
        <ele>1217.109</ele>
        <time>2024-06-21T08:14:26Z</time>
      </trkpt>
      <trkpt lat="42.617412" lon="-0.155302">
        <ele>1217.283</ele>
        <time>2024-06-21T08:14:30Z</time>
      </trkpt>
      <trkpt lat="42.617520" lon="-0.155697">
        <ele>1218.861</ele>
        <time>2024-06-21T08:14:35Z</time>
      </trkpt>
      <trkpt lat="42.617225" lon="-0.156258">
        <ele>1221.822</ele>
        <time>2024-06-21T08:14:45Z</time>
      </trkpt>
      <trkpt lat="42.617046" lon="-0.157369">
        <ele>1224.299</ele>
        <time>2024-06-21T08:15:04Z</time>
      </trkpt>
      <trkpt lat="42.617222" lon="-0.157745">
        <ele>1223.960</ele>
        <time>2024-06-21T08:15:10Z</time>
      </trkpt>
      <trkpt lat="42.617904" lon="-0.158461">
        <ele>1220.528</ele>
        <time>2024-06-21T08:15:24Z</time>
      </trkpt>
      <trkpt lat="42.618362" lon="-0.159385">
        <ele>1221.613</ele>
        <time>2024-06-21T08:15:37Z</time>
      </trkpt>
      <trkpt lat="42.618921" lon="-0.160951">
        <ele>1228.791</ele>
        <time>2024-06-21T08:16:07Z</time>
      </trkpt>
      <trkpt lat="42.619033" lon="-0.161886">
        <ele>1229.940</ele>
        <time>2024-06-21T08:16:21Z</time>
      </trkpt>
      <trkpt lat="42.618949" lon="-0.163189">
        <ele>1231.796</ele>
        <time>2024-06-21T08:16:38Z</time>
      </trkpt>
      <trkpt lat="42.619154" lon="-0.163907">
        <ele>1231.131</ele>
        <time>2024-06-21T08:16:48Z</time>
      </trkpt>
      <trkpt lat="42.619393" lon="-0.164309">
        <ele>1230.024</ele>
        <time>2024-06-21T08:16:54Z</time>
      </trkpt>
      <trkpt lat="42.619969" lon="-0.164813">
        <ele>1227.509</ele>
        <time>2024-06-21T08:17:03Z</time>
      </trkpt>
      <trkpt lat="42.620240" lon="-0.165342">
        <ele>1225.090</ele>
        <time>2024-06-21T08:17:09Z</time>
      </trkpt>
      <trkpt lat="42.621151" lon="-0.165759">
        <ele>1219.118</ele>
        <time>2024-06-21T08:17:19Z</time>
      </trkpt>
      <trkpt lat="42.621864" lon="-0.166285">
        <ele>1215.529</ele>
        <time>2024-06-21T08:17:27Z</time>
      </trkpt>
      <trkpt lat="42.622154" lon="-0.166658">
        <ele>1214.776</ele>
        <time>2024-06-21T08:17:31Z</time>
      </trkpt>
      <trkpt lat="42.622398" lon="-0.167336">
        <ele>1214.087</ele>
        <time>2024-06-21T08:17:37Z</time>
      </trkpt>
      <trkpt lat="42.623028" lon="-0.167413">
        <ele>1213.265</ele>
        <time>2024-06-21T08:17:44Z</time>
      </trkpt>
      <trkpt lat="42.623263" lon="-0.167715">
        <ele>1213.060</ele>
        <time>2024-06-21T08:17:48Z</time>
      </trkpt>
      <trkpt lat="42.623275" lon="-0.168712">
        <ele>1212.728</ele>
        <time>2024-06-21T08:17:57Z</time>
      </trkpt>
      <trkpt lat="42.623095" lon="-0.169170">
        <ele>1212.087</ele>
        <time>2024-06-21T08:18:02Z</time>
      </trkpt>
      <trkpt lat="42.622865" lon="-0.169391">
        <ele>1211.672</ele>
        <time>2024-06-21T08:18:06Z</time>
      </trkpt>
      <trkpt lat="42.621731" lon="-0.170001">
        <ele>1218.713</ele>
        <time>2024-06-21T08:18:28Z</time>
      </trkpt>
      <trkpt lat="42.621198" lon="-0.169745">
        <ele>1222.414</ele>
        <time>2024-06-21T08:18:40Z</time>
      </trkpt>
      <trkpt lat="42.620315" lon="-0.170088">
        <ele>1226.209</ele>
        <time>2024-06-21T08:19:01Z</time>
      </trkpt>
      <trkpt lat="42.619125" lon="-0.170084">
        <ele>1230.868</ele>
        <time>2024-06-21T08:19:28Z</time>
      </trkpt>
      <trkpt lat="42.618894" lon="-0.170239">
        <ele>1231.166</ele>
        <time>2024-06-21T08:19:34Z</time>
      </trkpt>
      <trkpt lat="42.618794" lon="-0.170529">
        <ele>1231.417</ele>
        <time>2024-06-21T08:19:40Z</time>
      </trkpt>
      <trkpt lat="42.619222" lon="-0.172824">
        <ele>1232.784</ele>
        <time>2024-06-21T08:20:15Z</time>
      </trkpt>
      <trkpt lat="42.619358" lon="-0.175374">
        <ele>1234.315</ele>
        <time>2024-06-21T08:20:51Z</time>
      </trkpt>
      <trkpt lat="42.619690" lon="-0.176921">
        <ele>1235.033</ele>
        <time>2024-06-21T08:21:13Z</time>
      </trkpt>
      <trkpt lat="42.620085" lon="-0.177931">
        <ele>1235.918</ele>
        <time>2024-06-21T08:21:28Z</time>
      </trkpt>
      <trkpt lat="42.620139" lon="-0.178658">
        <ele>1237.126</ele>
        <time>2024-06-21T08:21:38Z</time>
      </trkpt>
      <trkpt lat="42.620298" lon="-0.179150">
        <ele>1237.925</ele>
        <time>2024-06-21T08:21:46Z</time>
      </trkpt>
      <trkpt lat="42.620346" lon="-0.180327">
        <ele>1239.735</ele>
        <time>2024-06-21T08:22:01Z</time>
      </trkpt>
      <trkpt lat="42.620517" lon="-0.181233">
        <ele>1241.286</ele>
        <time>2024-06-21T08:22:15Z</time>
      </trkpt>
      <trkpt lat="42.620486" lon="-0.183166">
        <ele>1244.614</ele>
        <time>2024-06-21T08:22:43Z</time>
      </trkpt>
      <trkpt lat="42.620801" lon="-0.183809">
        <ele>1246.509</ele>
        <time>2024-06-21T08:22:55Z</time>
      </trkpt>
      <trkpt lat="42.620863" lon="-0.184185">
        <ele>1247.444</ele>
        <time>2024-06-21T08:23:02Z</time>
      </trkpt>
      <trkpt lat="42.620780" lon="-0.184848">
        <ele>1249.732</ele>
        <time>2024-06-21T08:23:11Z</time>
      </trkpt>
      <trkpt lat="42.620247" lon="-0.186688">
        <ele>1258.963</ele>
        <time>2024-06-21T08:23:50Z</time>
      </trkpt>
      <trkpt lat="42.620361" lon="-0.187640">
        <ele>1264.220</ele>
        <time>2024-06-21T08:24:08Z</time>
      </trkpt>
      <trkpt lat="42.620034" lon="-0.188552">
        <ele>1269.261</ele>
        <time>2024-06-21T08:24:25Z</time>
      </trkpt>
      <trkpt lat="42.619907" lon="-0.189269">
        <ele>1273.389</ele>
        <time>2024-06-21T08:24:39Z</time>
      </trkpt>
      <trkpt lat="42.619996" lon="-0.190333">
        <ele>1279.724</ele>
        <time>2024-06-21T08:25:02Z</time>
      </trkpt>
      <trkpt lat="42.620156" lon="-0.190756">
        <ele>1282.622</ele>
        <time>2024-06-21T08:25:12Z</time>
      </trkpt>
      <trkpt lat="42.621036" lon="-0.191559">
        <ele>1290.711</ele>
        <time>2024-06-21T08:25:46Z</time>
      </trkpt>
      <trkpt lat="42.621763" lon="-0.192581">
        <ele>1298.287</ele>
        <time>2024-06-21T08:26:22Z</time>
      </trkpt>
      <trkpt lat="42.622497" lon="-0.193949">
        <ele>1306.042</ele>
        <time>2024-06-21T08:26:57Z</time>
      </trkpt>
      <trkpt lat="42.622576" lon="-0.194306">
        <ele>1307.526</ele>
        <time>2024-06-21T08:27:03Z</time>
      </trkpt>
      <trkpt lat="42.622522" lon="-0.194659">
        <ele>1308.709</ele>
        <time>2024-06-21T08:27:10Z</time>
      </trkpt>
      <trkpt lat="42.622344" lon="-0.194880">
        <ele>1309.229</ele>
        <time>2024-06-21T08:27:16Z</time>
      </trkpt>
      <trkpt lat="42.621930" lon="-0.194899">
        <ele>1309.847</ele>
        <time>2024-06-21T08:27:25Z</time>
      </trkpt>
      <trkpt lat="42.620553" lon="-0.194326">
        <ele>1319.858</ele>
        <time>2024-06-21T08:28:05Z</time>
      </trkpt>
      <trkpt lat="42.619925" lon="-0.193920">
        <ele>1325.285</ele>
        <time>2024-06-21T08:28:28Z</time>
      </trkpt>
      <trkpt lat="42.619585" lon="-0.194022">
        <ele>1328.436</ele>
        <time>2024-06-21T08:28:42Z</time>
      </trkpt>
      <trkpt lat="42.619053" lon="-0.194666">
        <ele>1333.664</ele>
        <time>2024-06-21T08:29:07Z</time>
      </trkpt>
      <trkpt lat="42.618861" lon="-0.195236">
        <ele>1336.799</ele>
        <time>2024-06-21T08:29:22Z</time>
      </trkpt>
      <trkpt lat="42.618993" lon="-0.197024">
        <ele>1346.927</ele>
        <time>2024-06-21T08:30:10Z</time>
      </trkpt>
      <trkpt lat="42.618718" lon="-0.198671">
        <ele>1356.586</ele>
        <time>2024-06-21T08:30:45Z</time>
      </trkpt>
      <trkpt lat="42.618714" lon="-0.199308">
        <ele>1359.447</ele>
        <time>2024-06-21T08:30:59Z</time>
      </trkpt>
      <trkpt lat="42.618610" lon="-0.199540">
        <ele>1360.029</ele>
        <time>2024-06-21T08:31:05Z</time>
      </trkpt>
      <trkpt lat="42.618393" lon="-0.199642">
        <ele>1360.321</ele>
        <time>2024-06-21T08:31:11Z</time>
      </trkpt>
      <trkpt lat="42.618035" lon="-0.199494">
        <ele>1360.409</ele>
        <time>2024-06-21T08:31:20Z</time>
      </trkpt>
      <trkpt lat="42.617828" lon="-0.199242">
        <ele>1360.885</ele>
        <time>2024-06-21T08:31:26Z</time>
      </trkpt>
      <trkpt lat="42.617638" lon="-0.198697">
        <ele>1362.113</ele>
        <time>2024-06-21T08:31:36Z</time>
      </trkpt>
      <trkpt lat="42.617243" lon="-0.198154">
        <ele>1365.034</ele>
        <time>2024-06-21T08:31:48Z</time>
      </trkpt>
      <trkpt lat="42.617008" lon="-0.197977">
        <ele>1367.231</ele>
        <time>2024-06-21T08:31:54Z</time>
      </trkpt>
      <trkpt lat="42.616855" lon="-0.198005">
        <ele>1368.572</ele>
        <time>2024-06-21T08:31:58Z</time>
      </trkpt>
      <trkpt lat="42.616040" lon="-0.198773">
        <ele>1375.570</ele>
        <time>2024-06-21T08:32:28Z</time>
      </trkpt>
      <trkpt lat="42.615239" lon="-0.199818">
        <ele>1385.735</ele>
        <time>2024-06-21T08:33:07Z</time>
      </trkpt>
      <trkpt lat="42.614474" lon="-0.200238">
        <ele>1392.843</ele>
        <time>2024-06-21T08:33:38Z</time>
      </trkpt>
      <trkpt lat="42.613954" lon="-0.200957">
        <ele>1399.192</ele>
        <time>2024-06-21T08:34:06Z</time>
      </trkpt>
      <trkpt lat="42.613140" lon="-0.201362">
        <ele>1404.355</ele>
        <time>2024-06-21T08:34:34Z</time>
      </trkpt>
      <trkpt lat="42.612957" lon="-0.201934">
        <ele>1410.107</ele>
        <time>2024-06-21T08:34:53Z</time>
      </trkpt>
    </trkseg>
  </trk></gpx>