<?xml version="1.0" encoding="UTF-8"?>
<gpx creator="Wikiloc - https://www.wikiloc.com" version="1.1" xmlns="http://www.topografix.com/GPX/1/1" xmlns:xsi="http://www.w3.org/2001/XMLSchema-instance" xsi:schemaLocation="http://www.topografix.com/GPX/1/1 http://www.topografix.com/GPX/1/1/gpx.xsd">
  <metadata>
    <name>Wikiloc - PUERTO DEL POZO DE LAS MUJERES MUERTAS (por Monasterio de Co...</name>
    <link href="https://www.wikiloc.com/cycling-trails/puerto-del-pozo-de-las-mujeres-muertas-por-monasterio-de-coto-272896354">
      <text>PUERTO DEL POZO DE LAS MUJERES MUERTAS (por Monasterio de Co... on Wikiloc</text>
    </link>
    <time>2026-07-16T10:53:10.758Z</time>
  </metadata>
  <trk>
    <name>PUERTO DEL POZO DE LAS MUJERES MUERTAS (por Monasterio de Co... - Wikiloc</name>
    <cmt></cmt>
    <desc></desc>
    <trkseg>
      <trkpt lat="43.097130" lon="-6.725640">
        <ele>623.649</ele>
        <time>2026-07-16T10:53:10.757Z</time>
      </trkpt>
      <trkpt lat="43.097130" lon="-6.725570">
        <ele>623.102</ele>
        <time>2026-07-16T10:53:30.757Z</time>
      </trkpt>
      <trkpt lat="43.097080" lon="-6.725490">
        <ele>622.022</ele>
        <time>2026-07-16T10:53:50.757Z</time>
      </trkpt>
      <trkpt lat="43.096490" lon="-6.726520">
        <ele>621.109</ele>
        <time>2026-07-16T10:54:10.757Z</time>
      </trkpt>
      <trkpt lat="43.096390" lon="-6.726730">
        <ele>622.536</ele>
        <time>2026-07-16T10:54:30.757Z</time>
      </trkpt>
      <trkpt lat="43.096330" lon="-6.726930">
        <ele>623.741</ele>
        <time>2026-07-16T10:54:50.757Z</time>
      </trkpt>
      <trkpt lat="43.096260" lon="-6.727460">
        <ele>633.356</ele>
        <time>2026-07-16T10:55:10.757Z</time>
      </trkpt>
      <trkpt lat="43.096170" lon="-6.727930">
        <ele>637.822</ele>
        <time>2026-07-16T10:55:30.757Z</time>
      </trkpt>
      <trkpt lat="43.096100" lon="-6.728180">
        <ele>640.293</ele>
        <time>2026-07-16T10:55:50.757Z</time>
      </trkpt>
      <trkpt lat="43.095750" lon="-6.729050">
        <ele>634.880</ele>
        <time>2026-07-16T10:56:10.757Z</time>
      </trkpt>
      <trkpt lat="43.095230" lon="-6.731190">
        <ele>650.477</ele>
        <time>2026-07-16T10:56:30.757Z</time>
      </trkpt>
      <trkpt lat="43.095140" lon="-6.731370">
        <ele>649.289</ele>
        <time>2026-07-16T10:56:50.757Z</time>
      </trkpt>
      <trkpt lat="43.094580" lon="-6.731770">
        <ele>637.898</ele>
        <time>2026-07-16T10:57:10.757Z</time>
      </trkpt>
      <trkpt lat="43.094080" lon="-6.732560">
        <ele>638.728</ele>
        <time>2026-07-16T10:57:30.757Z</time>
      </trkpt>
      <trkpt lat="43.093930" lon="-6.732970">
        <ele>643.789</ele>
        <time>2026-07-16T10:57:50.757Z</time>
      </trkpt>
      <trkpt lat="43.093840" lon="-6.733450">
        <ele>643.817</ele>
        <time>2026-07-16T10:58:10.757Z</time>
      </trkpt>
      <trkpt lat="43.093650" lon="-6.734000">
        <ele>643.109</ele>
        <time>2026-07-16T10:58:30.757Z</time>
      </trkpt>
      <trkpt lat="43.093510" lon="-6.735240">
        <ele>650.334</ele>
        <time>2026-07-16T10:58:50.757Z</time>
      </trkpt>
      <trkpt lat="43.093730" lon="-6.736010">
        <ele>655.749</ele>
        <time>2026-07-16T10:59:10.757Z</time>
      </trkpt>
      <trkpt lat="43.093980" lon="-6.737010">
        <ele>651.144</ele>
        <time>2026-07-16T10:59:30.757Z</time>
      </trkpt>
      <trkpt lat="43.094390" lon="-6.738000">
        <ele>651.350</ele>
        <time>2026-07-16T10:59:50.757Z</time>
      </trkpt>
      <trkpt lat="43.094690" lon="-6.738250">
        <ele>650.841</ele>
        <time>2026-07-16T11:00:10.757Z</time>
      </trkpt>
      <trkpt lat="43.095030" lon="-6.738920">
        <ele>654.428</ele>
        <time>2026-07-16T11:00:30.757Z</time>
      </trkpt>
      <trkpt lat="43.095180" lon="-6.739050">
        <ele>656.135</ele>
        <time>2026-07-16T11:00:50.757Z</time>
      </trkpt>
      <trkpt lat="43.095280" lon="-6.739170">
        <ele>657.197</ele>
        <time>2026-07-16T11:01:10.757Z</time>
      </trkpt>
      <trkpt lat="43.095320" lon="-6.739300">
        <ele>659.786</ele>
        <time>2026-07-16T11:01:30.757Z</time>
      </trkpt>
      <trkpt lat="43.095310" lon="-6.739430">
        <ele>659.571</ele>
        <time>2026-07-16T11:01:50.757Z</time>
      </trkpt>
      <trkpt lat="43.095290" lon="-6.739560">
        <ele>658.541</ele>
        <time>2026-07-16T11:02:10.757Z</time>
      </trkpt>
      <trkpt lat="43.095240" lon="-6.739660">
        <ele>657.815</ele>
        <time>2026-07-16T11:02:30.757Z</time>
      </trkpt>
      <trkpt lat="43.095110" lon="-6.739810">
        <ele>656.509</ele>
        <time>2026-07-16T11:02:50.757Z</time>
      </trkpt>
      <trkpt lat="43.095030" lon="-6.740070">
        <ele>656.629</ele>
        <time>2026-07-16T11:03:10.757Z</time>
      </trkpt>
      <trkpt lat="43.095050" lon="-6.740230">
        <ele>657.714</ele>
        <time>2026-07-16T11:03:30.757Z</time>
      </trkpt>
      <trkpt lat="43.095090" lon="-6.740380">
        <ele>658.369</ele>
        <time>2026-07-16T11:03:50.757Z</time>
      </trkpt>
      <trkpt lat="43.095280" lon="-6.740590">
        <ele>653.355</ele>
        <time>2026-07-16T11:04:10.757Z</time>
      </trkpt>
      <trkpt lat="43.095650" lon="-6.740840">
        <ele>659.186</ele>
        <time>2026-07-16T11:04:30.757Z</time>
      </trkpt>
      <trkpt lat="43.095790" lon="-6.741170">
        <ele>666.733</ele>
        <time>2026-07-16T11:04:50.757Z</time>
      </trkpt>
      <trkpt lat="43.095750" lon="-6.741570">
        <ele>668.110</ele>
        <time>2026-07-16T11:05:10.757Z</time>
      </trkpt>
      <trkpt lat="43.095410" lon="-6.742370">
        <ele>669.532</ele>
        <time>2026-07-16T11:05:30.757Z</time>
      </trkpt>
      <trkpt lat="43.095380" lon="-6.742890">
        <ele>673.251</ele>
        <time>2026-07-16T11:05:50.757Z</time>
      </trkpt>
      <trkpt lat="43.095250" lon="-6.743540">
        <ele>668.418</ele>
        <time>2026-07-16T11:06:10.757Z</time>
      </trkpt>
      <trkpt lat="43.095260" lon="-6.743950">
        <ele>667.798</ele>
        <time>2026-07-16T11:06:30.757Z</time>
      </trkpt>
      <trkpt lat="43.095430" lon="-6.744310">
        <ele>670.417</ele>
        <time>2026-07-16T11:06:50.757Z</time>
      </trkpt>
      <trkpt lat="43.095890" lon="-6.744740">
        <ele>674.509</ele>
        <time>2026-07-16T11:07:10.757Z</time>
      </trkpt>
      <trkpt lat="43.096180" lon="-6.745180">
        <ele>676.123</ele>
        <time>2026-07-16T11:07:30.757Z</time>
      </trkpt>
      <trkpt lat="43.096490" lon="-6.745790">
        <ele>671.028</ele>
        <time>2026-07-16T11:07:50.757Z</time>
      </trkpt>
      <trkpt lat="43.097000" lon="-6.746200">
        <ele>675.643</ele>
        <time>2026-07-16T11:08:10.757Z</time>
      </trkpt>
      <trkpt lat="43.097420" lon="-6.746730">
        <ele>674.919</ele>
        <time>2026-07-16T11:08:30.757Z</time>
      </trkpt>
      <trkpt lat="43.097650" lon="-6.746770">
        <ele>676.370</ele>
        <time>2026-07-16T11:08:50.757Z</time>
      </trkpt>
      <trkpt lat="43.097830" lon="-6.746670">
        <ele>677.667</ele>
        <time>2026-07-16T11:09:10.757Z</time>
      </trkpt>
      <trkpt lat="43.098000" lon="-6.746470">
        <ele>680.764</ele>
        <time>2026-07-16T11:09:30.757Z</time>
      </trkpt>
      <trkpt lat="43.098190" lon="-6.746380">
        <ele>678.826</ele>
        <time>2026-07-16T11:09:50.757Z</time>
      </trkpt>
      <trkpt lat="43.098420" lon="-6.746400">
        <ele>675.825</ele>
        <time>2026-07-16T11:10:10.757Z</time>
      </trkpt>
      <trkpt lat="43.099060" lon="-6.746640">
        <ele>680.857</ele>
        <time>2026-07-16T11:10:30.757Z</time>
      </trkpt>
      <trkpt lat="43.099200" lon="-6.746660">
        <ele>681.200</ele>
        <time>2026-07-16T11:10:50.757Z</time>
      </trkpt>
      <trkpt lat="43.099460" lon="-6.746560">
        <ele>684.120</ele>
        <time>2026-07-16T11:11:10.757Z</time>
      </trkpt>
      <trkpt lat="43.099620" lon="-6.746460">
        <ele>687.809</ele>
        <time>2026-07-16T11:11:30.757Z</time>
      </trkpt>
      <trkpt lat="43.099740" lon="-6.746420">
        <ele>689.447</ele>
        <time>2026-07-16T11:11:50.757Z</time>
      </trkpt>
      <trkpt lat="43.099860" lon="-6.746420">
        <ele>688.342</ele>
        <time>2026-07-16T11:12:10.757Z</time>
      </trkpt>
      <trkpt lat="43.099980" lon="-6.746490">
        <ele>687.137</ele>
        <time>2026-07-16T11:12:30.757Z</time>
      </trkpt>
      <trkpt lat="43.100100" lon="-6.746620">
        <ele>686.693</ele>
        <time>2026-07-16T11:12:50.757Z</time>
      </trkpt>
      <trkpt lat="43.100160" lon="-6.746730">
        <ele>686.444</ele>
        <time>2026-07-16T11:13:10.757Z</time>
      </trkpt>
      <trkpt lat="43.100180" lon="-6.746950">
        <ele>686.451</ele>
        <time>2026-07-16T11:13:30.757Z</time>
      </trkpt>
      <trkpt lat="43.100160" lon="-6.747130">
        <ele>687.528</ele>
        <time>2026-07-16T11:13:50.757Z</time>
      </trkpt>
      <trkpt lat="43.100080" lon="-6.747470">
        <ele>689.750</ele>
        <time>2026-07-16T11:14:10.757Z</time>
      </trkpt>
      <trkpt lat="43.100040" lon="-6.747710">
        <ele>691.819</ele>
        <time>2026-07-16T11:14:30.757Z</time>
      </trkpt>
      <trkpt lat="43.100070" lon="-6.747940">
        <ele>693.231</ele>
        <time>2026-07-16T11:14:50.757Z</time>
      </trkpt>
      <trkpt lat="43.100150" lon="-6.748230">
        <ele>695.161</ele>
        <time>2026-07-16T11:15:10.757Z</time>
      </trkpt>
      <trkpt lat="43.100170" lon="-6.748460">
        <ele>695.307</ele>
        <time>2026-07-16T11:15:30.757Z</time>
      </trkpt>
      <trkpt lat="43.100210" lon="-6.748700">
        <ele>694.109</ele>
        <time>2026-07-16T11:15:50.757Z</time>
      </trkpt>
      <trkpt lat="43.100480" lon="-6.749090">
        <ele>697.885</ele>
        <time>2026-07-16T11:16:10.757Z</time>
      </trkpt>
      <trkpt lat="43.100530" lon="-6.749300">
        <ele>698.860</ele>
        <time>2026-07-16T11:16:30.757Z</time>
      </trkpt>
      <trkpt lat="43.100590" lon="-6.749880">
        <ele>703.575</ele>
        <time>2026-07-16T11:16:50.757Z</time>
      </trkpt>
      <trkpt lat="43.101490" lon="-6.751840">
        <ele>706.931</ele>
        <time>2026-07-16T11:17:10.757Z</time>
      </trkpt>
      <trkpt lat="43.101510" lon="-6.752150">
        <ele>713.642</ele>
        <time>2026-07-16T11:17:30.757Z</time>
      </trkpt>
      <trkpt lat="43.101390" lon="-6.752450">
        <ele>718.439</ele>
        <time>2026-07-16T11:17:50.757Z</time>
      </trkpt>
      <trkpt lat="43.101390" lon="-6.752800">
        <ele>719.186</ele>
        <time>2026-07-16T11:18:10.757Z</time>
      </trkpt>
      <trkpt lat="43.101640" lon="-6.753330">
        <ele>736.928</ele>
        <time>2026-07-16T11:18:30.757Z</time>
      </trkpt>
      <trkpt lat="43.101720" lon="-6.754700">
        <ele>738.567</ele>
        <time>2026-07-16T11:18:50.757Z</time>
      </trkpt>
      <trkpt lat="43.101880" lon="-6.755250">
        <ele>746.039</ele>
        <time>2026-07-16T11:19:10.757Z</time>
      </trkpt>
      <trkpt lat="43.102100" lon="-6.755600">
        <ele>759.001</ele>
        <time>2026-07-16T11:19:30.757Z</time>
      </trkpt>
      <trkpt lat="43.102100" lon="-6.755870">
        <ele>757.221</ele>
        <time>2026-07-16T11:19:50.757Z</time>
      </trkpt>
      <trkpt lat="43.102050" lon="-6.756140">
        <ele>749.409</ele>
        <time>2026-07-16T11:20:10.757Z</time>
      </trkpt>
      <trkpt lat="43.102100" lon="-6.756510">
        <ele>750.145</ele>
        <time>2026-07-16T11:20:30.757Z</time>
      </trkpt>
      <trkpt lat="43.102070" lon="-6.756820">
        <ele>747.230</ele>
        <time>2026-07-16T11:20:50.757Z</time>
      </trkpt>
      <trkpt lat="43.102150" lon="-6.757110">
        <ele>751.645</ele>
        <time>2026-07-16T11:21:10.757Z</time>
      </trkpt>
      <trkpt lat="43.102280" lon="-6.757370">
        <ele>758.941</ele>
        <time>2026-07-16T11:21:30.757Z</time>
      </trkpt>
      <trkpt lat="43.102430" lon="-6.757990">
        <ele>761.762</ele>
        <time>2026-07-16T11:21:50.757Z</time>
      </trkpt>
      <trkpt lat="43.102580" lon="-6.758310">
        <ele>768.249</ele>
        <time>2026-07-16T11:22:10.757Z</time>
      </trkpt>
      <trkpt lat="43.102640" lon="-6.758610">
        <ele>770.626</ele>
        <time>2026-07-16T11:22:30.757Z</time>
      </trkpt>
      <trkpt lat="43.102600" lon="-6.759190">
        <ele>777.518</ele>
        <time>2026-07-16T11:22:50.757Z</time>
      </trkpt>
      <trkpt lat="43.102640" lon="-6.760290">
        <ele>775.077</ele>
        <time>2026-07-16T11:23:10.757Z</time>
      </trkpt>
      <trkpt lat="43.102680" lon="-6.760590">
        <ele>774.965</ele>
        <time>2026-07-16T11:23:30.757Z</time>
      </trkpt>
      <trkpt lat="43.102770" lon="-6.761050">
        <ele>780.268</ele>
        <time>2026-07-16T11:23:50.757Z</time>
      </trkpt>
      <trkpt lat="43.102850" lon="-6.761880">
        <ele>789.314</ele>
        <time>2026-07-16T11:24:10.757Z</time>
      </trkpt>
      <trkpt lat="43.102880" lon="-6.762410">
        <ele>782.809</ele>
        <time>2026-07-16T11:24:30.757Z</time>
      </trkpt>
      <trkpt lat="43.103040" lon="-6.762710">
        <ele>793.248</ele>
        <time>2026-07-16T11:24:50.757Z</time>
      </trkpt>
      <trkpt lat="43.103660" lon="-6.763380">
        <ele>814.283</ele>
        <time>2026-07-16T11:25:10.757Z</time>
      </trkpt>
      <trkpt lat="43.103800" lon="-6.763690">
        <ele>816.748</ele>
        <time>2026-07-16T11:25:30.757Z</time>
      </trkpt>
      <trkpt lat="43.103750" lon="-6.764170">
        <ele>818.064</ele>
        <time>2026-07-16T11:25:50.757Z</time>
      </trkpt>
      <trkpt lat="43.103780" lon="-6.764920">
        <ele>833.595</ele>
        <time>2026-07-16T11:26:10.757Z</time>
      </trkpt>
      <trkpt lat="43.103720" lon="-6.765240">
        <ele>830.582</ele>
        <time>2026-07-16T11:26:30.757Z</time>
      </trkpt>
      <trkpt lat="43.103750" lon="-6.765680">
        <ele>832.199</ele>
        <time>2026-07-16T11:26:50.757Z</time>
      </trkpt>
      <trkpt lat="43.104160" lon="-6.766680">
        <ele>862.211</ele>
        <time>2026-07-16T11:27:10.757Z</time>
      </trkpt>
      <trkpt lat="43.104140" lon="-6.766950">
        <ele>859.680</ele>
        <time>2026-07-16T11:27:30.757Z</time>
      </trkpt>
      <trkpt lat="43.104040" lon="-6.767230">
        <ele>852.128</ele>
        <time>2026-07-16T11:27:50.757Z</time>
      </trkpt>
      <trkpt lat="43.104030" lon="-6.767490">
        <ele>854.189</ele>
        <time>2026-07-16T11:28:10.757Z</time>
      </trkpt>
      <trkpt lat="43.104100" lon="-6.767860">
        <ele>863.517</ele>
        <time>2026-07-16T11:28:30.757Z</time>
      </trkpt>
      <trkpt lat="43.104070" lon="-6.768090">
        <ele>859.609</ele>
        <time>2026-07-16T11:28:50.757Z</time>
      </trkpt>
      <trkpt lat="43.103990" lon="-6.768330">
        <ele>852.514</ele>
        <time>2026-07-16T11:29:10.757Z</time>
      </trkpt>
      <trkpt lat="43.104100" lon="-6.768950">
        <ele>855.419</ele>
        <time>2026-07-16T11:29:30.757Z</time>
      </trkpt>
      <trkpt lat="43.104310" lon="-6.769290">
        <ele>860.884</ele>
        <time>2026-07-16T11:29:50.757Z</time>
      </trkpt>
      <trkpt lat="43.104630" lon="-6.769420">
        <ele>867.930</ele>
        <time>2026-07-16T11:30:10.757Z</time>
      </trkpt>
      <trkpt lat="43.105140" lon="-6.769420">
        <ele>879.791</ele>
        <time>2026-07-16T11:30:30.757Z</time>
      </trkpt>
      <trkpt lat="43.105470" lon="-6.769510">
        <ele>886.868</ele>
        <time>2026-07-16T11:30:50.757Z</time>
      </trkpt>
      <trkpt lat="43.105840" lon="-6.769810">
        <ele>885.455</ele>
        <time>2026-07-16T11:31:10.757Z</time>
      </trkpt>
      <trkpt lat="43.105990" lon="-6.769830">
        <ele>889.017</ele>
        <time>2026-07-16T11:31:30.757Z</time>
      </trkpt>
      <trkpt lat="43.106140" lon="-6.769800">
        <ele>894.876</ele>
        <time>2026-07-16T11:31:50.757Z</time>
      </trkpt>
      <trkpt lat="43.106300" lon="-6.769810">
        <ele>898.699</ele>
        <time>2026-07-16T11:32:10.757Z</time>
      </trkpt>
      <trkpt lat="43.106740" lon="-6.770060">
        <ele>900.907</ele>
        <time>2026-07-16T11:32:30.757Z</time>
      </trkpt>
      <trkpt lat="43.106970" lon="-6.770140">
        <ele>898.427</ele>
        <time>2026-07-16T11:32:50.757Z</time>
      </trkpt>
      <trkpt lat="43.107120" lon="-6.770050">
        <ele>904.109</ele>
        <time>2026-07-16T11:33:10.757Z</time>
      </trkpt>
      <trkpt lat="43.107310" lon="-6.769900">
        <ele>909.161</ele>
        <time>2026-07-16T11:33:30.757Z</time>
      </trkpt>
      <trkpt lat="43.107740" lon="-6.769770">
        <ele>914.946</ele>
        <time>2026-07-16T11:33:50.757Z</time>
      </trkpt>
      <trkpt lat="43.107980" lon="-6.769870">
        <ele>923.951</ele>
        <time>2026-07-16T11:34:10.757Z</time>
      </trkpt>
      <trkpt lat="43.108130" lon="-6.770180">
        <ele>919.887</ele>
        <time>2026-07-16T11:34:30.757Z</time>
      </trkpt>
      <trkpt lat="43.108340" lon="-6.770880">
        <ele>908.188</ele>
        <time>2026-07-16T11:34:50.757Z</time>
      </trkpt>
      <trkpt lat="43.108510" lon="-6.771040">
        <ele>916.315</ele>
        <time>2026-07-16T11:35:10.757Z</time>
      </trkpt>
      <trkpt lat="43.108700" lon="-6.771080">
        <ele>926.432</ele>
        <time>2026-07-16T11:35:30.757Z</time>
      </trkpt>
      <trkpt lat="43.108940" lon="-6.771370">
        <ele>927.684</ele>
        <time>2026-07-16T11:35:50.757Z</time>
      </trkpt>
      <trkpt lat="43.109110" lon="-6.771400">
        <ele>933.563</ele>
        <time>2026-07-16T11:36:10.757Z</time>
      </trkpt>
      <trkpt lat="43.109310" lon="-6.771320">
        <ele>942.073</ele>
        <time>2026-07-16T11:36:30.757Z</time>
      </trkpt>
      <trkpt lat="43.109500" lon="-6.771320">
        <ele>946.885</ele>
        <time>2026-07-16T11:36:50.757Z</time>
      </trkpt>
      <trkpt lat="43.109790" lon="-6.771590">
        <ele>951.413</ele>
        <time>2026-07-16T11:37:10.757Z</time>
      </trkpt>
      <trkpt lat="43.109830" lon="-6.771770">
        <ele>953.509</ele>
        <time>2026-07-16T11:37:30.757Z</time>
      </trkpt>
      <trkpt lat="43.109770" lon="-6.772450">
        <ele>972.139</ele>
        <time>2026-07-16T11:37:50.757Z</time>
      </trkpt>
      <trkpt lat="43.109690" lon="-6.772670">
        <ele>975.044</ele>
        <time>2026-07-16T11:38:10.757Z</time>
      </trkpt>
      <trkpt lat="43.109240" lon="-6.773080">
        <ele>969.779</ele>
        <time>2026-07-16T11:38:30.757Z</time>
      </trkpt>
      <trkpt lat="43.109190" lon="-6.773430">
        <ele>966.315</ele>
        <time>2026-07-16T11:38:50.757Z</time>
      </trkpt>
      <trkpt lat="43.109730" lon="-6.774260">
        <ele>984.696</ele>
        <time>2026-07-16T11:39:10.757Z</time>
      </trkpt>
      <trkpt lat="43.109850" lon="-6.774670">
        <ele>988.953</ele>
        <time>2026-07-16T11:39:30.757Z</time>
      </trkpt>
      <trkpt lat="43.109900" lon="-6.774970">
        <ele>986.230</ele>
        <time>2026-07-16T11:39:50.757Z</time>
      </trkpt>
      <trkpt lat="43.110080" lon="-6.775200">
        <ele>994.282</ele>
        <time>2026-07-16T11:40:10.757Z</time>
      </trkpt>
      <trkpt lat="43.110260" lon="-6.775390">
        <ele>1003.551</ele>
        <time>2026-07-16T11:40:30.757Z</time>
      </trkpt>
      <trkpt lat="43.110290" lon="-6.775780">
        <ele>1008.858</ele>
        <time>2026-07-16T11:40:50.757Z</time>
      </trkpt>
      <trkpt lat="43.110200" lon="-6.776170">
        <ele>1006.352</ele>
        <time>2026-07-16T11:41:10.757Z</time>
      </trkpt>
      <trkpt lat="43.110210" lon="-6.776400">
        <ele>1006.117</ele>
        <time>2026-07-16T11:41:30.757Z</time>
      </trkpt>
      <trkpt lat="43.110260" lon="-6.776700">
        <ele>1011.109</ele>
        <time>2026-07-16T11:41:50.757Z</time>
      </trkpt>
      <trkpt lat="43.110200" lon="-6.777230">
        <ele>1012.217</ele>
        <time>2026-07-16T11:42:10.757Z</time>
      </trkpt>
      <trkpt lat="43.110210" lon="-6.777650">
        <ele>1014.822</ele>
        <time>2026-07-16T11:42:30.757Z</time>
      </trkpt>
      <trkpt lat="43.110370" lon="-6.778170">
        <ele>1023.887</ele>
        <time>2026-07-16T11:42:50.757Z</time>
      </trkpt>
      <trkpt lat="43.110580" lon="-6.778620">
        <ele>1038.013</ele>
        <time>2026-07-16T11:43:10.757Z</time>
      </trkpt>
      <trkpt lat="43.110580" lon="-6.778940">
        <ele>1041.974</ele>
        <time>2026-07-16T11:43:30.757Z</time>
      </trkpt>
      <trkpt lat="43.110430" lon="-6.779220">
        <ele>1045.491</ele>
        <time>2026-07-16T11:43:50.757Z</time>
      </trkpt>
      <trkpt lat="43.110080" lon="-6.779420">
        <ele>1036.258</ele>
        <time>2026-07-16T11:44:10.757Z</time>
      </trkpt>
      <trkpt lat="43.109920" lon="-6.779660">
        <ele>1040.970</ele>
        <time>2026-07-16T11:44:30.757Z</time>
      </trkpt>
      <trkpt lat="43.109860" lon="-6.779930">
        <ele>1043.119</ele>
        <time>2026-07-16T11:44:50.757Z</time>
      </trkpt>
      <trkpt lat="43.109890" lon="-6.780220">
        <ele>1051.059</ele>
        <time>2026-07-16T11:45:10.757Z</time>
      </trkpt>
      <trkpt lat="43.109870" lon="-6.780500">
        <ele>1057.003</ele>
        <time>2026-07-16T11:45:30.757Z</time>
      </trkpt>
      <trkpt lat="43.109820" lon="-6.780620">
        <ele>1056.823</ele>
        <time>2026-07-16T11:45:50.757Z</time>
      </trkpt>
      <trkpt lat="43.109560" lon="-6.780890">
        <ele>1048.509</ele>
        <time>2026-07-16T11:46:10.757Z</time>
      </trkpt>
      <trkpt lat="43.109500" lon="-6.781030">
        <ele>1049.167</ele>
        <time>2026-07-16T11:46:30.757Z</time>
      </trkpt>
      <trkpt lat="43.109470" lon="-6.781180">
        <ele>1050.362</ele>
        <time>2026-07-16T11:46:50.757Z</time>
      </trkpt>
      <trkpt lat="43.109510" lon="-6.781730">
        <ele>1062.267</ele>
        <time>2026-07-16T11:47:10.757Z</time>
      </trkpt>
      <trkpt lat="43.109490" lon="-6.781890">
        <ele>1066.883</ele>
        <time>2026-07-16T11:47:30.757Z</time>
      </trkpt>
      <trkpt lat="43.109430" lon="-6.782020">
        <ele>1068.614</ele>
        <time>2026-07-16T11:47:50.757Z</time>
      </trkpt>
      <trkpt lat="43.109240" lon="-6.782250">
        <ele>1071.551</ele>
        <time>2026-07-16T11:48:10.757Z</time>
      </trkpt>
      <trkpt lat="43.108930" lon="-6.782530">
        <ele>1075.168</ele>
        <time>2026-07-16T11:48:30.757Z</time>
      </trkpt>
      <trkpt lat="43.108680" lon="-6.782900">
        <ele>1077.360</ele>
        <time>2026-07-16T11:48:50.757Z</time>
      </trkpt>
      <trkpt lat="43.108560" lon="-6.783160">
        <ele>1076.469</ele>
        <time>2026-07-16T11:49:10.757Z</time>
      </trkpt>
      <trkpt lat="43.108350" lon="-6.783790">
        <ele>1083.649</ele>
        <time>2026-07-16T11:49:30.757Z</time>
      </trkpt>
      <trkpt lat="43.108200" lon="-6.784100">
        <ele>1086.002</ele>
        <time>2026-07-16T11:49:50.757Z</time>
      </trkpt>
      <trkpt lat="43.107600" lon="-6.784960">
        <ele>1088.822</ele>
        <time>2026-07-16T11:50:10.757Z</time>
      </trkpt>
      <trkpt lat="43.107380" lon="-6.785380">
        <ele>1089.609</ele>
        <time>2026-07-16T11:50:30.757Z</time>
      </trkpt>
      <trkpt lat="43.106950" lon="-6.786020">
        <ele>1098.556</ele>
        <time>2026-07-16T11:50:50.757Z</time>
      </trkpt>
      <trkpt lat="43.106660" lon="-6.786340">
        <ele>1099.161</ele>
        <time>2026-07-16T11:51:10.757Z</time>
      </trkpt>
      <trkpt lat="43.106370" lon="-6.786600">
        <ele>1100.136</ele>
        <time>2026-07-16T11:51:30.757Z</time>
      </trkpt>
      <trkpt lat="43.106030" lon="-6.786850">
        <ele>1103.712</ele>
        <time>2026-07-16T11:51:50.757Z</time>
      </trkpt>
      <trkpt lat="43.105510" lon="-6.787140">
        <ele>1111.663</ele>
        <time>2026-07-16T11:52:10.757Z</time>
      </trkpt>
      <trkpt lat="43.105290" lon="-6.787280">
        <ele>1114.470</ele>
        <time>2026-07-16T11:52:30.757Z</time>
      </trkpt>
      <trkpt lat="43.105030" lon="-6.787720">
        <ele>1111.547</ele>
        <time>2026-07-16T11:52:50.757Z</time>
      </trkpt>
      <trkpt lat="43.104900" lon="-6.788010">
        <ele>1115.719</ele>
        <time>2026-07-16T11:53:10.757Z</time>
      </trkpt>
      <trkpt lat="43.104870" lon="-6.788310">
        <ele>1115.618</ele>
        <time>2026-07-16T11:53:30.757Z</time>
      </trkpt>
      <trkpt lat="43.104870" lon="-6.789130">
        <ele>1121.179</ele>
        <time>2026-07-16T11:53:50.757Z</time>
      </trkpt>
      <trkpt lat="43.104880" lon="-6.789270">
        <ele>1122.805</ele>
        <time>2026-07-16T11:54:10.757Z</time>
      </trkpt>
      <trkpt lat="43.104940" lon="-6.789430">
        <ele>1123.625</ele>
        <time>2026-07-16T11:54:30.757Z</time>
      </trkpt>
      <trkpt lat="43.105310" lon="-6.789990">
        <ele>1117.009</ele>
        <time>2026-07-16T11:54:50.757Z</time>
      </trkpt>
      <trkpt lat="43.105400" lon="-6.790230">
        <ele>1116.919</ele>
        <time>2026-07-16T11:55:10.757Z</time>
      </trkpt>
      <trkpt lat="43.105410" lon="-6.790350">
        <ele>1117.764</ele>
        <time>2026-07-16T11:55:30.757Z</time>
      </trkpt>
      <trkpt lat="43.105420" lon="-6.790480">
        <ele>1118.079</ele>
        <time>2026-07-16T11:55:50.757Z</time>
      </trkpt>
      <trkpt lat="43.105390" lon="-6.790720">
        <ele>1117.935</ele>
        <time>2026-07-16T11:56:10.757Z</time>
      </trkpt>
      <trkpt lat="43.105350" lon="-6.790850">
        <ele>1117.636</ele>
        <time>2026-07-16T11:56:30.757Z</time>
      </trkpt>
      <trkpt lat="43.105270" lon="-6.790980">
        <ele>1117.023</ele>
        <time>2026-07-16T11:56:50.757Z</time>
      </trkpt>
      <trkpt lat="43.105170" lon="-6.791110">
        <ele>1116.010</ele>
        <time>2026-07-16T11:57:10.757Z</time>
      </trkpt>
      <trkpt lat="43.105050" lon="-6.791200">
        <ele>1115.382</ele>
        <time>2026-07-16T11:57:30.757Z</time>
      </trkpt>
      <trkpt lat="43.103620" lon="-6.791610">
        <ele>1127.291</ele>
        <time>2026-07-16T11:57:50.757Z</time>
      </trkpt>
      <trkpt lat="43.103150" lon="-6.791800">
        <ele>1128.262</ele>
        <time>2026-07-16T11:58:10.757Z</time>
      </trkpt>
      <trkpt lat="43.102700" lon="-6.792060">
        <ele>1135.183</ele>
        <time>2026-07-16T11:58:30.757Z</time>
      </trkpt>
      <trkpt lat="43.102190" lon="-6.792450">
        <ele>1139.311</ele>
        <time>2026-07-16T11:58:50.757Z</time>
      </trkpt>
      <trkpt lat="43.101920" lon="-6.792700">
        <ele>1138.609</ele>
        <time>2026-07-16T11:59:10.757Z</time>
      </trkpt>
      <trkpt lat="43.101800" lon="-6.792940">
        <ele>1138.018</ele>
        <time>2026-07-16T11:59:30.757Z</time>
      </trkpt>
      <trkpt lat="43.101760" lon="-6.793210">
        <ele>1139.013</ele>
        <time>2026-07-16T11:59:50.757Z</time>
      </trkpt>
      <trkpt lat="43.101770" lon="-6.793360">
        <ele>1139.228</ele>
        <time>2026-07-16T12:00:10.757Z</time>
      </trkpt>
      <trkpt lat="43.101810" lon="-6.793540">
        <ele>1139.174</ele>
        <time>2026-07-16T12:00:30.757Z</time>
      </trkpt>
      <trkpt lat="43.101870" lon="-6.793720">
        <ele>1138.015</ele>
        <time>2026-07-16T12:00:50.757Z</time>
      </trkpt>
    </trkseg>
  </trk></gpx>