<?xml version="1.0" encoding="UTF-8"?>
<gpx creator="Wikiloc - https://www.wikiloc.com" version="1.1" xmlns="http://www.topografix.com/GPX/1/1" xmlns:xsi="http://www.w3.org/2001/XMLSchema-instance" xsi:schemaLocation="http://www.topografix.com/GPX/1/1 http://www.topografix.com/GPX/1/1/gpx.xsd">
  <metadata>
    <name>Wikiloc - Puerto de Torre ( Sierra de La Estrella ) 1.993m , desde Cov...</name>
    <link href="https://www.wikiloc.com/cycling-trails/puerto-de-torre-sierra-de-la-estrella-1-993m-desde-covilha-portugal-127206977">
      <text>Puerto de Torre ( Sierra de La Estrella ) 1.993m , desde Cov... on Wikiloc</text>
    </link>
    <time>2023-02-26T11:07:03Z</time>
  </metadata>
  <trk>
    <name>Puerto de Torre ( Sierra de La Estrella ) 1.993m , desde Cov... - Wikiloc</name>
    <cmt></cmt>
    <desc></desc>
    <trkseg>
      <trkpt lat="40.266566" lon="-7.489108">
        <ele>459.098</ele>
        <time>2023-02-26T09:16:19Z</time>
      </trkpt>
      <trkpt lat="40.266400" lon="-7.489168">
        <ele>458.915</ele>
        <time>2023-02-26T09:16:30Z</time>
      </trkpt>
      <trkpt lat="40.265869" lon="-7.489919">
        <ele>460.526</ele>
        <time>2023-02-26T09:16:50Z</time>
      </trkpt>
      <trkpt lat="40.265782" lon="-7.490295">
        <ele>462.509</ele>
        <time>2023-02-26T09:16:57Z</time>
      </trkpt>
      <trkpt lat="40.265411" lon="-7.490803">
        <ele>466.550</ele>
        <time>2023-02-26T09:17:10Z</time>
      </trkpt>
      <trkpt lat="40.265232" lon="-7.491491">
        <ele>470.541</ele>
        <time>2023-02-26T09:17:23Z</time>
      </trkpt>
      <trkpt lat="40.265235" lon="-7.492287">
        <ele>473.576</ele>
        <time>2023-02-26T09:17:37Z</time>
      </trkpt>
      <trkpt lat="40.265692" lon="-7.493575">
        <ele>476.511</ele>
        <time>2023-02-26T09:18:02Z</time>
      </trkpt>
      <trkpt lat="40.267225" lon="-7.496093">
        <ele>485.349</ele>
        <time>2023-02-26T09:18:56Z</time>
      </trkpt>
      <trkpt lat="40.267688" lon="-7.497102">
        <ele>492.485</ele>
        <time>2023-02-26T09:19:18Z</time>
      </trkpt>
      <trkpt lat="40.267889" lon="-7.498430">
        <ele>500.088</ele>
        <time>2023-02-26T09:19:46Z</time>
      </trkpt>
      <trkpt lat="40.267680" lon="-7.499416">
        <ele>506.336</ele>
        <time>2023-02-26T09:20:08Z</time>
      </trkpt>
      <trkpt lat="40.266564" lon="-7.500710">
        <ele>517.016</ele>
        <time>2023-02-26T09:20:52Z</time>
      </trkpt>
      <trkpt lat="40.266283" lon="-7.501280">
        <ele>521.617</ele>
        <time>2023-02-26T09:21:09Z</time>
      </trkpt>
      <trkpt lat="40.266117" lon="-7.502966">
        <ele>529.487</ele>
        <time>2023-02-26T09:21:43Z</time>
      </trkpt>
      <trkpt lat="40.266205" lon="-7.503579">
        <ele>531.115</ele>
        <time>2023-02-26T09:21:55Z</time>
      </trkpt>
      <trkpt lat="40.266523" lon="-7.504103">
        <ele>533.609</ele>
        <time>2023-02-26T09:22:08Z</time>
      </trkpt>
      <trkpt lat="40.267061" lon="-7.504464">
        <ele>536.922</ele>
        <time>2023-02-26T09:22:23Z</time>
      </trkpt>
      <trkpt lat="40.267500" lon="-7.504598">
        <ele>539.343</ele>
        <time>2023-02-26T09:22:34Z</time>
      </trkpt>
      <trkpt lat="40.268749" lon="-7.504880">
        <ele>545.848</ele>
        <time>2023-02-26T09:23:04Z</time>
      </trkpt>
      <trkpt lat="40.269219" lon="-7.504865">
        <ele>549.323</ele>
        <time>2023-02-26T09:23:16Z</time>
      </trkpt>
      <trkpt lat="40.271101" lon="-7.504419">
        <ele>565.331</ele>
        <time>2023-02-26T09:24:10Z</time>
      </trkpt>
      <trkpt lat="40.272742" lon="-7.503377">
        <ele>579.857</ele>
        <time>2023-02-26T09:25:02Z</time>
      </trkpt>
      <trkpt lat="40.273056" lon="-7.502900">
        <ele>584.250</ele>
        <time>2023-02-26T09:25:13Z</time>
      </trkpt>
      <trkpt lat="40.273482" lon="-7.503079">
        <ele>586.678</ele>
        <time>2023-02-26T09:25:23Z</time>
      </trkpt>
      <trkpt lat="40.274016" lon="-7.502973">
        <ele>590.638</ele>
        <time>2023-02-26T09:25:38Z</time>
      </trkpt>
      <trkpt lat="40.274406" lon="-7.503306">
        <ele>594.067</ele>
        <time>2023-02-26T09:25:51Z</time>
      </trkpt>
      <trkpt lat="40.275056" lon="-7.504409">
        <ele>603.281</ele>
        <time>2023-02-26T09:26:18Z</time>
      </trkpt>
      <trkpt lat="40.275784" lon="-7.505197">
        <ele>608.019</ele>
        <time>2023-02-26T09:26:42Z</time>
      </trkpt>
      <trkpt lat="40.276106" lon="-7.505782">
        <ele>610.909</ele>
        <time>2023-02-26T09:26:56Z</time>
      </trkpt>
      <trkpt lat="40.276403" lon="-7.506721">
        <ele>616.657</ele>
        <time>2023-02-26T09:27:16Z</time>
      </trkpt>
      <trkpt lat="40.276300" lon="-7.507481">
        <ele>621.348</ele>
        <time>2023-02-26T09:27:31Z</time>
      </trkpt>
      <trkpt lat="40.276386" lon="-7.508410">
        <ele>626.563</ele>
        <time>2023-02-26T09:27:50Z</time>
      </trkpt>
      <trkpt lat="40.277210" lon="-7.510360">
        <ele>628.628</ele>
        <time>2023-02-26T09:28:22Z</time>
      </trkpt>
      <trkpt lat="40.277474" lon="-7.510291">
        <ele>629.596</ele>
        <time>2023-02-26T09:28:27Z</time>
      </trkpt>
      <trkpt lat="40.277884" lon="-7.509271">
        <ele>632.582</ele>
        <time>2023-02-26T09:28:50Z</time>
      </trkpt>
      <trkpt lat="40.278002" lon="-7.506691">
        <ele>638.015</ele>
        <time>2023-02-26T09:29:32Z</time>
      </trkpt>
      <trkpt lat="40.278286" lon="-7.505918">
        <ele>644.583</ele>
        <time>2023-02-26T09:29:50Z</time>
      </trkpt>
      <trkpt lat="40.278218" lon="-7.504535">
        <ele>650.763</ele>
        <time>2023-02-26T09:30:19Z</time>
      </trkpt>
      <trkpt lat="40.278435" lon="-7.503710">
        <ele>652.972</ele>
        <time>2023-02-26T09:30:36Z</time>
      </trkpt>
      <trkpt lat="40.279004" lon="-7.502791">
        <ele>652.513</ele>
        <time>2023-02-26T09:31:04Z</time>
      </trkpt>
      <trkpt lat="40.279157" lon="-7.502720">
        <ele>652.514</ele>
        <time>2023-02-26T09:31:37Z</time>
      </trkpt>
      <trkpt lat="40.279521" lon="-7.502879">
        <ele>657.409</ele>
        <time>2023-02-26T09:31:45Z</time>
      </trkpt>
      <trkpt lat="40.280225" lon="-7.502611">
        <ele>664.198</ele>
        <time>2023-02-26T09:32:06Z</time>
      </trkpt>
      <trkpt lat="40.280589" lon="-7.502647">
        <ele>667.719</ele>
        <time>2023-02-26T09:32:16Z</time>
      </trkpt>
      <trkpt lat="40.280781" lon="-7.502825">
        <ele>671.134</ele>
        <time>2023-02-26T09:32:25Z</time>
      </trkpt>
      <trkpt lat="40.280853" lon="-7.503095">
        <ele>672.879</ele>
        <time>2023-02-26T09:32:34Z</time>
      </trkpt>
      <trkpt lat="40.280726" lon="-7.503802">
        <ele>678.817</ele>
        <time>2023-02-26T09:32:54Z</time>
      </trkpt>
      <trkpt lat="40.280825" lon="-7.504224">
        <ele>685.033</ele>
        <time>2023-02-26T09:33:07Z</time>
      </trkpt>
      <trkpt lat="40.281118" lon="-7.504269">
        <ele>686.456</ele>
        <time>2023-02-26T09:33:22Z</time>
      </trkpt>
      <trkpt lat="40.281397" lon="-7.504093">
        <ele>686.364</ele>
        <time>2023-02-26T09:33:35Z</time>
      </trkpt>
      <trkpt lat="40.281711" lon="-7.504374">
        <ele>686.824</ele>
        <time>2023-02-26T09:33:48Z</time>
      </trkpt>
      <trkpt lat="40.281845" lon="-7.505296">
        <ele>694.832</ele>
        <time>2023-02-26T09:34:08Z</time>
      </trkpt>
      <trkpt lat="40.281782" lon="-7.505957">
        <ele>701.992</ele>
        <time>2023-02-26T09:34:29Z</time>
      </trkpt>
      <trkpt lat="40.282057" lon="-7.507298">
        <ele>712.411</ele>
        <time>2023-02-26T09:35:02Z</time>
      </trkpt>
      <trkpt lat="40.282169" lon="-7.507573">
        <ele>715.609</ele>
        <time>2023-02-26T09:35:12Z</time>
      </trkpt>
      <trkpt lat="40.282608" lon="-7.507718">
        <ele>721.854</ele>
        <time>2023-02-26T09:35:27Z</time>
      </trkpt>
      <trkpt lat="40.282749" lon="-7.508090">
        <ele>725.925</ele>
        <time>2023-02-26T09:35:40Z</time>
      </trkpt>
      <trkpt lat="40.282664" lon="-7.508329">
        <ele>728.470</ele>
        <time>2023-02-26T09:35:50Z</time>
      </trkpt>
      <trkpt lat="40.282295" lon="-7.508620">
        <ele>733.025</ele>
        <time>2023-02-26T09:36:08Z</time>
      </trkpt>
      <trkpt lat="40.281402" lon="-7.508791">
        <ele>740.643</ele>
        <time>2023-02-26T09:36:37Z</time>
      </trkpt>
      <trkpt lat="40.281034" lon="-7.509345">
        <ele>747.579</ele>
        <time>2023-02-26T09:36:55Z</time>
      </trkpt>
      <trkpt lat="40.281194" lon="-7.509749">
        <ele>751.152</ele>
        <time>2023-02-26T09:37:11Z</time>
      </trkpt>
      <trkpt lat="40.280981" lon="-7.510802">
        <ele>757.680</ele>
        <time>2023-02-26T09:37:36Z</time>
      </trkpt>
      <trkpt lat="40.281131" lon="-7.512232">
        <ele>766.280</ele>
        <time>2023-02-26T09:38:10Z</time>
      </trkpt>
      <trkpt lat="40.281029" lon="-7.512856">
        <ele>770.529</ele>
        <time>2023-02-26T09:38:27Z</time>
      </trkpt>
      <trkpt lat="40.281195" lon="-7.513206">
        <ele>772.900</ele>
        <time>2023-02-26T09:38:37Z</time>
      </trkpt>
      <trkpt lat="40.281332" lon="-7.514395">
        <ele>777.720</ele>
        <time>2023-02-26T09:39:01Z</time>
      </trkpt>
      <trkpt lat="40.281237" lon="-7.515152">
        <ele>780.509</ele>
        <time>2023-02-26T09:39:11Z</time>
      </trkpt>
      <trkpt lat="40.281387" lon="-7.516286">
        <ele>787.333</ele>
        <time>2023-02-26T09:39:30Z</time>
      </trkpt>
      <trkpt lat="40.281099" lon="-7.517583">
        <ele>796.484</ele>
        <time>2023-02-26T09:39:59Z</time>
      </trkpt>
      <trkpt lat="40.281120" lon="-7.518471">
        <ele>804.149</ele>
        <time>2023-02-26T09:40:19Z</time>
      </trkpt>
      <trkpt lat="40.280917" lon="-7.519598">
        <ele>813.594</ele>
        <time>2023-02-26T09:40:53Z</time>
      </trkpt>
      <trkpt lat="40.281232" lon="-7.520733">
        <ele>823.832</ele>
        <time>2023-02-26T09:41:26Z</time>
      </trkpt>
      <trkpt lat="40.281148" lon="-7.521811">
        <ele>832.458</ele>
        <time>2023-02-26T09:41:54Z</time>
      </trkpt>
      <trkpt lat="40.281426" lon="-7.523071">
        <ele>845.231</ele>
        <time>2023-02-26T09:42:27Z</time>
      </trkpt>
      <trkpt lat="40.280876" lon="-7.524321">
        <ele>856.649</ele>
        <time>2023-02-26T09:43:05Z</time>
      </trkpt>
      <trkpt lat="40.281282" lon="-7.525209">
        <ele>866.989</ele>
        <time>2023-02-26T09:43:39Z</time>
      </trkpt>
      <trkpt lat="40.281907" lon="-7.525382">
        <ele>875.166</ele>
        <time>2023-02-26T09:44:02Z</time>
      </trkpt>
      <trkpt lat="40.282243" lon="-7.524892">
        <ele>881.829</ele>
        <time>2023-02-26T09:44:23Z</time>
      </trkpt>
      <trkpt lat="40.282377" lon="-7.523747">
        <ele>886.821</ele>
        <time>2023-02-26T09:44:48Z</time>
      </trkpt>
      <trkpt lat="40.282301" lon="-7.522062">
        <ele>886.409</ele>
        <time>2023-02-26T09:45:17Z</time>
      </trkpt>
      <trkpt lat="40.282788" lon="-7.520701">
        <ele>892.787</ele>
        <time>2023-02-26T09:45:42Z</time>
      </trkpt>
      <trkpt lat="40.283148" lon="-7.520451">
        <ele>896.228</ele>
        <time>2023-02-26T09:45:53Z</time>
      </trkpt>
      <trkpt lat="40.285210" lon="-7.520138">
        <ele>914.413</ele>
        <time>2023-02-26T09:46:58Z</time>
      </trkpt>
      <trkpt lat="40.285327" lon="-7.520321">
        <ele>916.858</ele>
        <time>2023-02-26T09:47:06Z</time>
      </trkpt>
      <trkpt lat="40.285252" lon="-7.520496">
        <ele>918.546</ele>
        <time>2023-02-26T09:47:13Z</time>
      </trkpt>
      <trkpt lat="40.284233" lon="-7.521873">
        <ele>935.252</ele>
        <time>2023-02-26T09:48:07Z</time>
      </trkpt>
      <trkpt lat="40.283913" lon="-7.522121">
        <ele>941.695</ele>
        <time>2023-02-26T09:48:21Z</time>
      </trkpt>
      <trkpt lat="40.283988" lon="-7.522402">
        <ele>945.693</ele>
        <time>2023-02-26T09:48:33Z</time>
      </trkpt>
      <trkpt lat="40.284204" lon="-7.522407">
        <ele>948.223</ele>
        <time>2023-02-26T09:48:44Z</time>
      </trkpt>
      <trkpt lat="40.284358" lon="-7.522587">
        <ele>951.124</ele>
        <time>2023-02-26T09:48:53Z</time>
      </trkpt>
      <trkpt lat="40.284249" lon="-7.523451">
        <ele>957.104</ele>
        <time>2023-02-26T09:49:20Z</time>
      </trkpt>
      <trkpt lat="40.284411" lon="-7.524078">
        <ele>965.114</ele>
        <time>2023-02-26T09:49:37Z</time>
      </trkpt>
      <trkpt lat="40.284715" lon="-7.524342">
        <ele>968.509</ele>
        <time>2023-02-26T09:49:50Z</time>
      </trkpt>
      <trkpt lat="40.285130" lon="-7.524359">
        <ele>973.993</ele>
        <time>2023-02-26T09:50:08Z</time>
      </trkpt>
      <trkpt lat="40.285630" lon="-7.524090">
        <ele>981.514</ele>
        <time>2023-02-26T09:50:24Z</time>
      </trkpt>
      <trkpt lat="40.285947" lon="-7.523519">
        <ele>990.239</ele>
        <time>2023-02-26T09:50:47Z</time>
      </trkpt>
      <trkpt lat="40.286132" lon="-7.523587">
        <ele>993.764</ele>
        <time>2023-02-26T09:50:55Z</time>
      </trkpt>
      <trkpt lat="40.286194" lon="-7.526165">
        <ele>1012.132</ele>
        <time>2023-02-26T09:52:14Z</time>
      </trkpt>
      <trkpt lat="40.286649" lon="-7.527527">
        <ele>1027.528</ele>
        <time>2023-02-26T09:53:00Z</time>
      </trkpt>
      <trkpt lat="40.287071" lon="-7.527484">
        <ele>1033.791</ele>
        <time>2023-02-26T09:53:17Z</time>
      </trkpt>
      <trkpt lat="40.287751" lon="-7.526334">
        <ele>1047.249</ele>
        <time>2023-02-26T09:54:03Z</time>
      </trkpt>
      <trkpt lat="40.287992" lon="-7.526214">
        <ele>1051.049</ele>
        <time>2023-02-26T09:54:14Z</time>
      </trkpt>
      <trkpt lat="40.288283" lon="-7.526309">
        <ele>1055.267</ele>
        <time>2023-02-26T09:54:27Z</time>
      </trkpt>
      <trkpt lat="40.288423" lon="-7.526588">
        <ele>1058.181</ele>
        <time>2023-02-26T09:54:38Z</time>
      </trkpt>
      <trkpt lat="40.288430" lon="-7.528238">
        <ele>1074.419</ele>
        <time>2023-02-26T09:55:28Z</time>
      </trkpt>
      <trkpt lat="40.288519" lon="-7.528345">
        <ele>1076.609</ele>
        <time>2023-02-26T09:55:34Z</time>
      </trkpt>
      <trkpt lat="40.288716" lon="-7.528255">
        <ele>1080.117</ele>
        <time>2023-02-26T09:55:45Z</time>
      </trkpt>
      <trkpt lat="40.289005" lon="-7.527442">
        <ele>1086.838</ele>
        <time>2023-02-26T09:56:10Z</time>
      </trkpt>
      <trkpt lat="40.289472" lon="-7.526854">
        <ele>1096.353</ele>
        <time>2023-02-26T09:56:34Z</time>
      </trkpt>
      <trkpt lat="40.289718" lon="-7.527004">
        <ele>1100.668</ele>
        <time>2023-02-26T09:56:47Z</time>
      </trkpt>
      <trkpt lat="40.289783" lon="-7.527410">
        <ele>1104.926</ele>
        <time>2023-02-26T09:56:59Z</time>
      </trkpt>
      <trkpt lat="40.289904" lon="-7.527532">
        <ele>1107.352</ele>
        <time>2023-02-26T09:57:05Z</time>
      </trkpt>
      <trkpt lat="40.290269" lon="-7.527034">
        <ele>1115.715</ele>
        <time>2023-02-26T09:57:28Z</time>
      </trkpt>
      <trkpt lat="40.290609" lon="-7.527441">
        <ele>1122.443</ele>
        <time>2023-02-26T09:57:48Z</time>
      </trkpt>
      <trkpt lat="40.290868" lon="-7.527379">
        <ele>1123.013</ele>
        <time>2023-02-26T09:57:59Z</time>
      </trkpt>
      <trkpt lat="40.291075" lon="-7.527509">
        <ele>1125.973</ele>
        <time>2023-02-26T09:58:08Z</time>
      </trkpt>
      <trkpt lat="40.291082" lon="-7.527893">
        <ele>1129.185</ele>
        <time>2023-02-26T09:58:20Z</time>
      </trkpt>
      <trkpt lat="40.290403" lon="-7.528510">
        <ele>1131.613</ele>
        <time>2023-02-26T09:58:49Z</time>
      </trkpt>
      <trkpt lat="40.289949" lon="-7.530563">
        <ele>1150.109</ele>
        <time>2023-02-26T09:59:47Z</time>
      </trkpt>
      <trkpt lat="40.289896" lon="-7.531478">
        <ele>1160.538</ele>
        <time>2023-02-26T10:00:16Z</time>
      </trkpt>
      <trkpt lat="40.289980" lon="-7.531590">
        <ele>1162.369</ele>
        <time>2023-02-26T10:00:22Z</time>
      </trkpt>
      <trkpt lat="40.290120" lon="-7.531533">
        <ele>1163.614</ele>
        <time>2023-02-26T10:00:28Z</time>
      </trkpt>
      <trkpt lat="40.291012" lon="-7.529859">
        <ele>1175.929</ele>
        <time>2023-02-26T10:01:25Z</time>
      </trkpt>
      <trkpt lat="40.291219" lon="-7.529707">
        <ele>1178.487</ele>
        <time>2023-02-26T10:01:34Z</time>
      </trkpt>
      <trkpt lat="40.291405" lon="-7.529736">
        <ele>1180.393</ele>
        <time>2023-02-26T10:01:41Z</time>
      </trkpt>
      <trkpt lat="40.291545" lon="-7.530144">
        <ele>1183.366</ele>
        <time>2023-02-26T10:01:54Z</time>
      </trkpt>
      <trkpt lat="40.291131" lon="-7.531437">
        <ele>1196.994</ele>
        <time>2023-02-26T10:02:37Z</time>
      </trkpt>
      <trkpt lat="40.291652" lon="-7.531856">
        <ele>1207.284</ele>
        <time>2023-02-26T10:03:04Z</time>
      </trkpt>
      <trkpt lat="40.291713" lon="-7.532665">
        <ele>1217.116</ele>
        <time>2023-02-26T10:03:31Z</time>
      </trkpt>
      <trkpt lat="40.292206" lon="-7.532720">
        <ele>1221.276</ele>
        <time>2023-02-26T10:03:53Z</time>
      </trkpt>
      <trkpt lat="40.292680" lon="-7.533052">
        <ele>1223.913</ele>
        <time>2023-02-26T10:04:14Z</time>
      </trkpt>
      <trkpt lat="40.293222" lon="-7.533542">
        <ele>1231.709</ele>
        <time>2023-02-26T10:04:39Z</time>
      </trkpt>
      <trkpt lat="40.293984" lon="-7.534573">
        <ele>1248.072</ele>
        <time>2023-02-26T10:05:18Z</time>
      </trkpt>
      <trkpt lat="40.293857" lon="-7.535003">
        <ele>1252.963</ele>
        <time>2023-02-26T10:05:31Z</time>
      </trkpt>
      <trkpt lat="40.293579" lon="-7.535100">
        <ele>1256.118</ele>
        <time>2023-02-26T10:05:42Z</time>
      </trkpt>
      <trkpt lat="40.293020" lon="-7.534409">
        <ele>1265.363</ele>
        <time>2023-02-26T10:06:17Z</time>
      </trkpt>
      <trkpt lat="40.292792" lon="-7.534370">
        <ele>1268.521</ele>
        <time>2023-02-26T10:06:29Z</time>
      </trkpt>
      <trkpt lat="40.292506" lon="-7.534628">
        <ele>1272.067</ele>
        <time>2023-02-26T10:06:43Z</time>
      </trkpt>
      <trkpt lat="40.292336" lon="-7.535159">
        <ele>1276.660</ele>
        <time>2023-02-26T10:07:02Z</time>
      </trkpt>
      <trkpt lat="40.292371" lon="-7.535425">
        <ele>1278.678</ele>
        <time>2023-02-26T10:07:12Z</time>
      </trkpt>
      <trkpt lat="40.292864" lon="-7.536106">
        <ele>1280.618</ele>
        <time>2023-02-26T10:07:39Z</time>
      </trkpt>
      <trkpt lat="40.293749" lon="-7.537016">
        <ele>1280.265</ele>
        <time>2023-02-26T10:08:00Z</time>
      </trkpt>
      <trkpt lat="40.295921" lon="-7.537927">
        <ele>1287.568</ele>
        <time>2023-02-26T10:08:51Z</time>
      </trkpt>
      <trkpt lat="40.298264" lon="-7.538586">
        <ele>1307.314</ele>
        <time>2023-02-26T10:09:54Z</time>
      </trkpt>
      <trkpt lat="40.298664" lon="-7.538586">
        <ele>1310.409</ele>
        <time>2023-02-26T10:10:08Z</time>
      </trkpt>
      <trkpt lat="40.301395" lon="-7.536025">
        <ele>1324.317</ele>
        <time>2023-02-26T10:11:33Z</time>
      </trkpt>
      <trkpt lat="40.301667" lon="-7.535564">
        <ele>1327.578</ele>
        <time>2023-02-26T10:11:45Z</time>
      </trkpt>
      <trkpt lat="40.302047" lon="-7.534290">
        <ele>1334.943</ele>
        <time>2023-02-26T10:12:13Z</time>
      </trkpt>
      <trkpt lat="40.302319" lon="-7.534014">
        <ele>1336.238</ele>
        <time>2023-02-26T10:12:22Z</time>
      </trkpt>
      <trkpt lat="40.302573" lon="-7.533972">
        <ele>1337.526</ele>
        <time>2023-02-26T10:12:29Z</time>
      </trkpt>
      <trkpt lat="40.302977" lon="-7.534261">
        <ele>1339.712</ele>
        <time>2023-02-26T10:12:41Z</time>
      </trkpt>
      <trkpt lat="40.304428" lon="-7.537127">
        <ele>1353.065</ele>
        <time>2023-02-26T10:13:49Z</time>
      </trkpt>
      <trkpt lat="40.304777" lon="-7.537546">
        <ele>1355.723</ele>
        <time>2023-02-26T10:14:01Z</time>
      </trkpt>
      <trkpt lat="40.305249" lon="-7.537564">
        <ele>1358.723</ele>
        <time>2023-02-26T10:14:13Z</time>
      </trkpt>
      <trkpt lat="40.307357" lon="-7.536715">
        <ele>1374.828</ele>
        <time>2023-02-26T10:15:18Z</time>
      </trkpt>
      <trkpt lat="40.307963" lon="-7.537043">
        <ele>1379.689</ele>
        <time>2023-02-26T10:15:42Z</time>
      </trkpt>
      <trkpt lat="40.308444" lon="-7.537636">
        <ele>1384.817</ele>
        <time>2023-02-26T10:15:59Z</time>
      </trkpt>
      <trkpt lat="40.308548" lon="-7.538055">
        <ele>1387.709</ele>
        <time>2023-02-26T10:16:09Z</time>
      </trkpt>
      <trkpt lat="40.308475" lon="-7.538688">
        <ele>1391.513</ele>
        <time>2023-02-26T10:16:25Z</time>
      </trkpt>
      <trkpt lat="40.307562" lon="-7.540233">
        <ele>1401.484</ele>
        <time>2023-02-26T10:17:08Z</time>
      </trkpt>
      <trkpt lat="40.306913" lon="-7.541016">
        <ele>1408.079</ele>
        <time>2023-02-26T10:17:32Z</time>
      </trkpt>
      <trkpt lat="40.305884" lon="-7.543422">
        <ele>1427.724</ele>
        <time>2023-02-26T10:18:33Z</time>
      </trkpt>
      <trkpt lat="40.305711" lon="-7.544166">
        <ele>1433.882</ele>
        <time>2023-02-26T10:18:56Z</time>
      </trkpt>
      <trkpt lat="40.305855" lon="-7.545367">
        <ele>1444.828</ele>
        <time>2023-02-26T10:19:24Z</time>
      </trkpt>
      <trkpt lat="40.307105" lon="-7.547902">
        <ele>1473.261</ele>
        <time>2023-02-26T10:20:52Z</time>
      </trkpt>
      <trkpt lat="40.308118" lon="-7.548839">
        <ele>1487.099</ele>
        <time>2023-02-26T10:21:39Z</time>
      </trkpt>
      <trkpt lat="40.308496" lon="-7.549731">
        <ele>1495.449</ele>
        <time>2023-02-26T10:22:08Z</time>
      </trkpt>
      <trkpt lat="40.309655" lon="-7.550344">
        <ele>1503.989</ele>
        <time>2023-02-26T10:22:51Z</time>
      </trkpt>
      <trkpt lat="40.313255" lon="-7.555013">
        <ele>1534.106</ele>
        <time>2023-02-26T10:25:12Z</time>
      </trkpt>
      <trkpt lat="40.313411" lon="-7.555613">
        <ele>1536.726</ele>
        <time>2023-02-26T10:25:25Z</time>
      </trkpt>
      <trkpt lat="40.313428" lon="-7.557424">
        <ele>1544.309</ele>
        <time>2023-02-26T10:26:01Z</time>
      </trkpt>
      <trkpt lat="40.313608" lon="-7.557736">
        <ele>1546.229</ele>
        <time>2023-02-26T10:26:09Z</time>
      </trkpt>
      <trkpt lat="40.314195" lon="-7.558233">
        <ele>1550.650</ele>
        <time>2023-02-26T10:26:28Z</time>
      </trkpt>
      <trkpt lat="40.314369" lon="-7.558727">
        <ele>1553.465</ele>
        <time>2023-02-26T10:26:39Z</time>
      </trkpt>
      <trkpt lat="40.313994" lon="-7.563437">
        <ele>1569.870</ele>
        <time>2023-02-26T10:28:12Z</time>
      </trkpt>
      <trkpt lat="40.314246" lon="-7.563892">
        <ele>1571.788</ele>
        <time>2023-02-26T10:28:23Z</time>
      </trkpt>
      <trkpt lat="40.314499" lon="-7.564008">
        <ele>1572.934</ele>
        <time>2023-02-26T10:28:30Z</time>
      </trkpt>
      <trkpt lat="40.316367" lon="-7.563456">
        <ele>1577.717</ele>
        <time>2023-02-26T10:29:21Z</time>
      </trkpt>
      <trkpt lat="40.316808" lon="-7.563744">
        <ele>1578.685</ele>
        <time>2023-02-26T10:29:33Z</time>
      </trkpt>
      <trkpt lat="40.316977" lon="-7.564393">
        <ele>1580.065</ele>
        <time>2023-02-26T10:29:47Z</time>
      </trkpt>
      <trkpt lat="40.317806" lon="-7.570575">
        <ele>1608.144</ele>
        <time>2023-02-26T10:32:08Z</time>
      </trkpt>
      <trkpt lat="40.317695" lon="-7.572024">
        <ele>1604.205</ele>
        <time>2023-02-26T10:32:26Z</time>
      </trkpt>
      <trkpt lat="40.317503" lon="-7.572651">
        <ele>1603.315</ele>
        <time>2023-02-26T10:32:34Z</time>
      </trkpt>
      <trkpt lat="40.316544" lon="-7.574675">
        <ele>1595.009</ele>
        <time>2023-02-26T10:33:03Z</time>
      </trkpt>
      <trkpt lat="40.316337" lon="-7.576103">
        <ele>1587.685</ele>
        <time>2023-02-26T10:33:21Z</time>
      </trkpt>
      <trkpt lat="40.315119" lon="-7.577682">
        <ele>1574.536</ele>
        <time>2023-02-26T10:33:43Z</time>
      </trkpt>
      <trkpt lat="40.313572" lon="-7.579045">
        <ele>1561.541</ele>
        <time>2023-02-26T10:34:21Z</time>
      </trkpt>
      <trkpt lat="40.311845" lon="-7.581253">
        <ele>1546.386</ele>
        <time>2023-02-26T10:34:43Z</time>
      </trkpt>
      <trkpt lat="40.311575" lon="-7.581936">
        <ele>1542.994</ele>
        <time>2023-02-26T10:34:48Z</time>
      </trkpt>
      <trkpt lat="40.311615" lon="-7.582823">
        <ele>1540.620</ele>
        <time>2023-02-26T10:34:54Z</time>
      </trkpt>
      <trkpt lat="40.312034" lon="-7.583539">
        <ele>1541.873</ele>
        <time>2023-02-26T10:35:01Z</time>
      </trkpt>
      <trkpt lat="40.313599" lon="-7.584468">
        <ele>1553.771</ele>
        <time>2023-02-26T10:35:38Z</time>
      </trkpt>
      <trkpt lat="40.315412" lon="-7.586220">
        <ele>1567.991</ele>
        <time>2023-02-26T10:36:42Z</time>
      </trkpt>
      <trkpt lat="40.315890" lon="-7.586546">
        <ele>1571.532</ele>
        <time>2023-02-26T10:36:58Z</time>
      </trkpt>
      <trkpt lat="40.318138" lon="-7.587424">
        <ele>1587.292</ele>
        <time>2023-02-26T10:38:09Z</time>
      </trkpt>
      <trkpt lat="40.318610" lon="-7.587364">
        <ele>1590.411</ele>
        <time>2023-02-26T10:38:23Z</time>
      </trkpt>
      <trkpt lat="40.319242" lon="-7.587043">
        <ele>1595.409</ele>
        <time>2023-02-26T10:38:44Z</time>
      </trkpt>
      <trkpt lat="40.319582" lon="-7.587031">
        <ele>1598.234</ele>
        <time>2023-02-26T10:38:55Z</time>
      </trkpt>
      <trkpt lat="40.320407" lon="-7.588789">
        <ele>1607.385</ele>
        <time>2023-02-26T10:40:36Z</time>
      </trkpt>
      <trkpt lat="40.320926" lon="-7.588842">
        <ele>1611.120</ele>
        <time>2023-02-26T10:40:50Z</time>
      </trkpt>
      <trkpt lat="40.322060" lon="-7.587830">
        <ele>1620.185</ele>
        <time>2023-02-26T10:41:28Z</time>
      </trkpt>
      <trkpt lat="40.322296" lon="-7.587755">
        <ele>1621.583</ele>
        <time>2023-02-26T10:41:35Z</time>
      </trkpt>
      <trkpt lat="40.322531" lon="-7.587841">
        <ele>1622.719</ele>
        <time>2023-02-26T10:41:42Z</time>
      </trkpt>
      <trkpt lat="40.322758" lon="-7.588294">
        <ele>1623.822</ele>
        <time>2023-02-26T10:41:55Z</time>
      </trkpt>
      <trkpt lat="40.322571" lon="-7.590522">
        <ele>1626.680</ele>
        <time>2023-02-26T10:42:39Z</time>
      </trkpt>
      <trkpt lat="40.322769" lon="-7.590885">
        <ele>1628.830</ele>
        <time>2023-02-26T10:42:48Z</time>
      </trkpt>
      <trkpt lat="40.323048" lon="-7.590918">
        <ele>1631.032</ele>
        <time>2023-02-26T10:42:55Z</time>
      </trkpt>
      <trkpt lat="40.323478" lon="-7.590743">
        <ele>1634.992</ele>
        <time>2023-02-26T10:43:07Z</time>
      </trkpt>
      <trkpt lat="40.323834" lon="-7.590310">
        <ele>1639.211</ele>
        <time>2023-02-26T10:43:21Z</time>
      </trkpt>
      <trkpt lat="40.324085" lon="-7.589510">
        <ele>1645.709</ele>
        <time>2023-02-26T10:43:44Z</time>
      </trkpt>
      <trkpt lat="40.324304" lon="-7.589372">
        <ele>1648.564</ele>
        <time>2023-02-26T10:43:58Z</time>
      </trkpt>
      <trkpt lat="40.324421" lon="-7.589430">
        <ele>1650.465</ele>
        <time>2023-02-26T10:44:17Z</time>
      </trkpt>
      <trkpt lat="40.324378" lon="-7.589857">
        <ele>1653.220</ele>
        <time>2023-02-26T10:44:35Z</time>
      </trkpt>
      <trkpt lat="40.324056" lon="-7.590383">
        <ele>1657.385</ele>
        <time>2023-02-26T10:44:51Z</time>
      </trkpt>
      <trkpt lat="40.323538" lon="-7.591735">
        <ele>1667.653</ele>
        <time>2023-02-26T10:45:31Z</time>
      </trkpt>
      <trkpt lat="40.322524" lon="-7.593096">
        <ele>1681.339</ele>
        <time>2023-02-26T10:46:23Z</time>
      </trkpt>
      <trkpt lat="40.321783" lon="-7.593778">
        <ele>1690.672</ele>
        <time>2023-02-26T10:46:57Z</time>
      </trkpt>
      <trkpt lat="40.320992" lon="-7.593650">
        <ele>1698.710</ele>
        <time>2023-02-26T10:47:22Z</time>
      </trkpt>
      <trkpt lat="40.320349" lon="-7.592851">
        <ele>1706.640</ele>
        <time>2023-02-26T10:47:56Z</time>
      </trkpt>
      <trkpt lat="40.320019" lon="-7.592044">
        <ele>1712.623</ele>
        <time>2023-02-26T10:48:18Z</time>
      </trkpt>
      <trkpt lat="40.320025" lon="-7.590726">
        <ele>1722.783</ele>
        <time>2023-02-26T10:48:50Z</time>
      </trkpt>
      <trkpt lat="40.319687" lon="-7.590338">
        <ele>1727.711</ele>
        <time>2023-02-26T10:49:08Z</time>
      </trkpt>
      <trkpt lat="40.319029" lon="-7.590747">
        <ele>1735.209</ele>
        <time>2023-02-26T10:49:36Z</time>
      </trkpt>
      <trkpt lat="40.318570" lon="-7.591380">
        <ele>1741.733</ele>
        <time>2023-02-26T10:49:55Z</time>
      </trkpt>
      <trkpt lat="40.318216" lon="-7.592092">
        <ele>1748.144</ele>
        <time>2023-02-26T10:50:16Z</time>
      </trkpt>
      <trkpt lat="40.318185" lon="-7.592766">
        <ele>1753.519</ele>
        <time>2023-02-26T10:50:32Z</time>
      </trkpt>
      <trkpt lat="40.318713" lon="-7.594287">
        <ele>1766.364</ele>
        <time>2023-02-26T10:51:17Z</time>
      </trkpt>
      <trkpt lat="40.319033" lon="-7.596431">
        <ele>1779.352</ele>
        <time>2023-02-26T10:52:18Z</time>
      </trkpt>
      <trkpt lat="40.320017" lon="-7.598480">
        <ele>1797.538</ele>
        <time>2023-02-26T10:53:09Z</time>
      </trkpt>
      <trkpt lat="40.320320" lon="-7.599454">
        <ele>1805.581</ele>
        <time>2023-02-26T10:53:37Z</time>
      </trkpt>
      <trkpt lat="40.321118" lon="-7.600302">
        <ele>1815.729</ele>
        <time>2023-02-26T10:54:16Z</time>
      </trkpt>
      <trkpt lat="40.321217" lon="-7.601364">
        <ele>1823.319</ele>
        <time>2023-02-26T10:54:47Z</time>
      </trkpt>
      <trkpt lat="40.321392" lon="-7.601719">
        <ele>1825.659</ele>
        <time>2023-02-26T10:54:59Z</time>
      </trkpt>
      <trkpt lat="40.322528" lon="-7.602709">
        <ele>1840.003</ele>
        <time>2023-02-26T10:55:44Z</time>
      </trkpt>
      <trkpt lat="40.323591" lon="-7.602985">
        <ele>1853.323</ele>
        <time>2023-02-26T10:56:18Z</time>
      </trkpt>
      <trkpt lat="40.324395" lon="-7.602801">
        <ele>1862.109</ele>
        <time>2023-02-26T10:56:46Z</time>
      </trkpt>
      <trkpt lat="40.324817" lon="-7.602534">
        <ele>1866.766</ele>
        <time>2023-02-26T10:57:02Z</time>
      </trkpt>
      <trkpt lat="40.325813" lon="-7.600925">
        <ele>1875.167</ele>
        <time>2023-02-26T10:57:55Z</time>
      </trkpt>
      <trkpt lat="40.326238" lon="-7.600404">
        <ele>1878.132</ele>
        <time>2023-02-26T10:58:14Z</time>
      </trkpt>
      <trkpt lat="40.326479" lon="-7.600285">
        <ele>1879.547</ele>
        <time>2023-02-26T10:58:24Z</time>
      </trkpt>
      <trkpt lat="40.326559" lon="-7.600484">
        <ele>1879.365</ele>
        <time>2023-02-26T10:58:32Z</time>
      </trkpt>
      <trkpt lat="40.326356" lon="-7.601398">
        <ele>1877.471</ele>
        <time>2023-02-26T10:58:57Z</time>
      </trkpt>
      <trkpt lat="40.326396" lon="-7.601686">
        <ele>1877.464</ele>
        <time>2023-02-26T10:59:05Z</time>
      </trkpt>
      <trkpt lat="40.326507" lon="-7.601902">
        <ele>1877.352</ele>
        <time>2023-02-26T10:59:13Z</time>
      </trkpt>
      <trkpt lat="40.327095" lon="-7.602353">
        <ele>1874.262</ele>
        <time>2023-02-26T10:59:35Z</time>
      </trkpt>
      <trkpt lat="40.327575" lon="-7.603742">
        <ele>1892.582</ele>
        <time>2023-02-26T11:00:11Z</time>
      </trkpt>
      <trkpt lat="40.327501" lon="-7.604293">
        <ele>1899.643</ele>
        <time>2023-02-26T11:00:24Z</time>
      </trkpt>
      <trkpt lat="40.326847" lon="-7.604691">
        <ele>1910.517</ele>
        <time>2023-02-26T11:00:49Z</time>
      </trkpt>
      <trkpt lat="40.326727" lon="-7.604921">
        <ele>1914.009</ele>
        <time>2023-02-26T11:00:56Z</time>
      </trkpt>
      <trkpt lat="40.327111" lon="-7.606825">
        <ele>1938.679</ele>
        <time>2023-02-26T11:01:51Z</time>
      </trkpt>
      <trkpt lat="40.326501" lon="-7.607479">
        <ele>1941.150</ele>
        <time>2023-02-26T11:02:20Z</time>
      </trkpt>
      <trkpt lat="40.326153" lon="-7.608123">
        <ele>1945.385</ele>
        <time>2023-02-26T11:02:41Z</time>
      </trkpt>
      <trkpt lat="40.326029" lon="-7.608146">
        <ele>1946.130</ele>
        <time>2023-02-26T11:02:50Z</time>
      </trkpt>
      <trkpt lat="40.325396" lon="-7.609910">
        <ele>1954.628</ele>
        <time>2023-02-26T11:03:31Z</time>
      </trkpt>
      <trkpt lat="40.324695" lon="-7.610742">
        <ele>1961.764</ele>
        <time>2023-02-26T11:03:58Z</time>
      </trkpt>
      <trkpt lat="40.322327" lon="-7.612632">
        <ele>1987.217</ele>
        <time>2023-02-26T11:05:35Z</time>
      </trkpt>
      <trkpt lat="40.322175" lon="-7.612678">
        <ele>1987.315</ele>
        <time>2023-02-26T11:05:42Z</time>
      </trkpt>
      <trkpt lat="40.322188" lon="-7.612600">
        <ele>1987.485</ele>
        <time>2023-02-26T11:06:27Z</time>
      </trkpt>
      <trkpt lat="40.322259" lon="-7.612861">
        <ele>1987.353</ele>
        <time>2023-02-26T11:06:35Z</time>
      </trkpt>
      <trkpt lat="40.322176" lon="-7.613203">
        <ele>1987.504</ele>
        <time>2023-02-26T11:06:44Z</time>
      </trkpt>
      <trkpt lat="40.321764" lon="-7.613323">
        <ele>1988.414</ele>
        <time>2023-02-26T11:07:03Z</time>
      </trkpt>
    </trkseg>
  </trk></gpx>