<?xml version="1.0" encoding="UTF-8"?>
<gpx creator="Wikiloc - https://www.wikiloc.com" version="1.1" xmlns="http://www.topografix.com/GPX/1/1" xmlns:xsi="http://www.w3.org/2001/XMLSchema-instance" xsi:schemaLocation="http://www.topografix.com/GPX/1/1 http://www.topografix.com/GPX/1/1/gpx.xsd">
  <metadata>
    <name>Wikiloc - PUERTO DE PALOMBERA (por Espinilla)</name>
    <link href="https://www.wikiloc.com/cycling-trails/puerto-de-palombera-por-espinilla-270850388">
      <text>PUERTO DE PALOMBERA (por Espinilla) - Wikiloc on Wikiloc</text>
    </link>
    <time>2026-07-16T10:59:25.265Z</time>
  </metadata>
  <trk>
    <name>PUERTO DE PALOMBERA (por Espinilla) - Wikiloc</name>
    <cmt></cmt>
    <desc></desc>
    <trkseg>
      <trkpt lat="43.021110" lon="-4.224510">
        <ele>928.891</ele>
        <time>2026-07-16T10:59:25.263Z</time>
      </trkpt>
      <trkpt lat="43.021190" lon="-4.224540">
        <ele>928.781</ele>
        <time>2026-07-16T10:59:45.263Z</time>
      </trkpt>
      <trkpt lat="43.021220" lon="-4.224570">
        <ele>928.519</ele>
        <time>2026-07-16T11:00:05.263Z</time>
      </trkpt>
      <trkpt lat="43.021250" lon="-4.224580">
        <ele>928.509</ele>
        <time>2026-07-16T11:00:25.263Z</time>
      </trkpt>
      <trkpt lat="43.021300" lon="-4.224620">
        <ele>928.461</ele>
        <time>2026-07-16T11:00:45.263Z</time>
      </trkpt>
      <trkpt lat="43.021340" lon="-4.224650">
        <ele>928.376</ele>
        <time>2026-07-16T11:01:05.263Z</time>
      </trkpt>
      <trkpt lat="43.021390" lon="-4.224680">
        <ele>928.299</ele>
        <time>2026-07-16T11:01:25.263Z</time>
      </trkpt>
      <trkpt lat="43.021390" lon="-4.224690">
        <ele>928.147</ele>
        <time>2026-07-16T11:01:45.263Z</time>
      </trkpt>
      <trkpt lat="43.021470" lon="-4.224700">
        <ele>928.394</ele>
        <time>2026-07-16T11:02:05.263Z</time>
      </trkpt>
      <trkpt lat="43.021600" lon="-4.224710">
        <ele>928.819</ele>
        <time>2026-07-16T11:02:25.263Z</time>
      </trkpt>
      <trkpt lat="43.021910" lon="-4.224700">
        <ele>929.872</ele>
        <time>2026-07-16T11:02:45.263Z</time>
      </trkpt>
      <trkpt lat="43.022220" lon="-4.224680">
        <ele>930.067</ele>
        <time>2026-07-16T11:03:05.263Z</time>
      </trkpt>
      <trkpt lat="43.022540" lon="-4.224670">
        <ele>931.087</ele>
        <time>2026-07-16T11:03:25.263Z</time>
      </trkpt>
      <trkpt lat="43.022830" lon="-4.224650">
        <ele>931.919</ele>
        <time>2026-07-16T11:03:45.263Z</time>
      </trkpt>
      <trkpt lat="43.023090" lon="-4.224640">
        <ele>932.709</ele>
        <time>2026-07-16T11:04:05.263Z</time>
      </trkpt>
      <trkpt lat="43.023420" lon="-4.224620">
        <ele>933.319</ele>
        <time>2026-07-16T11:04:25.263Z</time>
      </trkpt>
      <trkpt lat="43.024040" lon="-4.224590">
        <ele>935.509</ele>
        <time>2026-07-16T11:04:45.263Z</time>
      </trkpt>
      <trkpt lat="43.024320" lon="-4.224570">
        <ele>936.023</ele>
        <time>2026-07-16T11:05:05.263Z</time>
      </trkpt>
      <trkpt lat="43.024810" lon="-4.224530">
        <ele>937.368</ele>
        <time>2026-07-16T11:05:25.263Z</time>
      </trkpt>
      <trkpt lat="43.025270" lon="-4.224510">
        <ele>939.061</ele>
        <time>2026-07-16T11:05:45.263Z</time>
      </trkpt>
      <trkpt lat="43.026240" lon="-4.224500">
        <ele>942.459</ele>
        <time>2026-07-16T11:06:05.263Z</time>
      </trkpt>
      <trkpt lat="43.026410" lon="-4.224490">
        <ele>942.966</ele>
        <time>2026-07-16T11:06:25.263Z</time>
      </trkpt>
      <trkpt lat="43.026450" lon="-4.224490">
        <ele>943.151</ele>
        <time>2026-07-16T11:06:45.263Z</time>
      </trkpt>
      <trkpt lat="43.026840" lon="-4.224470">
        <ele>944.014</ele>
        <time>2026-07-16T11:07:05.263Z</time>
      </trkpt>
      <trkpt lat="43.027330" lon="-4.224420">
        <ele>945.499</ele>
        <time>2026-07-16T11:07:25.263Z</time>
      </trkpt>
      <trkpt lat="43.028450" lon="-4.224360">
        <ele>948.349</ele>
        <time>2026-07-16T11:07:45.263Z</time>
      </trkpt>
      <trkpt lat="43.029340" lon="-4.224300">
        <ele>951.616</ele>
        <time>2026-07-16T11:08:05.263Z</time>
      </trkpt>
      <trkpt lat="43.029530" lon="-4.224290">
        <ele>952.576</ele>
        <time>2026-07-16T11:08:25.263Z</time>
      </trkpt>
      <trkpt lat="43.030560" lon="-4.224230">
        <ele>955.013</ele>
        <time>2026-07-16T11:08:45.263Z</time>
      </trkpt>
      <trkpt lat="43.032330" lon="-4.224120">
        <ele>959.109</ele>
        <time>2026-07-16T11:09:05.263Z</time>
      </trkpt>
      <trkpt lat="43.032560" lon="-4.224090">
        <ele>959.853</ele>
        <time>2026-07-16T11:09:25.263Z</time>
      </trkpt>
      <trkpt lat="43.032760" lon="-4.224080">
        <ele>960.048</ele>
        <time>2026-07-16T11:09:45.263Z</time>
      </trkpt>
      <trkpt lat="43.033230" lon="-4.224050">
        <ele>960.811</ele>
        <time>2026-07-16T11:10:05.263Z</time>
      </trkpt>
      <trkpt lat="43.033340" lon="-4.224040">
        <ele>961.049</ele>
        <time>2026-07-16T11:10:25.263Z</time>
      </trkpt>
      <trkpt lat="43.033440" lon="-4.224030">
        <ele>961.266</ele>
        <time>2026-07-16T11:10:45.263Z</time>
      </trkpt>
      <trkpt lat="43.033530" lon="-4.224030">
        <ele>961.411</ele>
        <time>2026-07-16T11:11:05.263Z</time>
      </trkpt>
      <trkpt lat="43.033630" lon="-4.224010">
        <ele>961.554</ele>
        <time>2026-07-16T11:11:25.263Z</time>
      </trkpt>
      <trkpt lat="43.033650" lon="-4.224010">
        <ele>961.669</ele>
        <time>2026-07-16T11:11:45.263Z</time>
      </trkpt>
      <trkpt lat="43.033660" lon="-4.224000">
        <ele>961.639</ele>
        <time>2026-07-16T11:12:05.263Z</time>
      </trkpt>
      <trkpt lat="43.033680" lon="-4.224000">
        <ele>961.661</ele>
        <time>2026-07-16T11:12:25.263Z</time>
      </trkpt>
      <trkpt lat="43.033700" lon="-4.223990">
        <ele>961.721</ele>
        <time>2026-07-16T11:12:45.263Z</time>
      </trkpt>
      <trkpt lat="43.033710" lon="-4.223990">
        <ele>961.713</ele>
        <time>2026-07-16T11:13:05.263Z</time>
      </trkpt>
      <trkpt lat="43.033730" lon="-4.223980">
        <ele>961.809</ele>
        <time>2026-07-16T11:13:25.263Z</time>
      </trkpt>
      <trkpt lat="43.033760" lon="-4.223960">
        <ele>961.828</ele>
        <time>2026-07-16T11:13:45.263Z</time>
      </trkpt>
      <trkpt lat="43.033790" lon="-4.223930">
        <ele>961.873</ele>
        <time>2026-07-16T11:14:05.263Z</time>
      </trkpt>
      <trkpt lat="43.033840" lon="-4.223890">
        <ele>961.846</ele>
        <time>2026-07-16T11:14:25.263Z</time>
      </trkpt>
      <trkpt lat="43.033860" lon="-4.223860">
        <ele>961.964</ele>
        <time>2026-07-16T11:14:45.263Z</time>
      </trkpt>
      <trkpt lat="43.033880" lon="-4.223840">
        <ele>962.041</ele>
        <time>2026-07-16T11:15:05.263Z</time>
      </trkpt>
      <trkpt lat="43.033910" lon="-4.223810">
        <ele>962.026</ele>
        <time>2026-07-16T11:15:25.263Z</time>
      </trkpt>
      <trkpt lat="43.033930" lon="-4.223780">
        <ele>962.099</ele>
        <time>2026-07-16T11:15:45.263Z</time>
      </trkpt>
      <trkpt lat="43.033940" lon="-4.223750">
        <ele>962.084</ele>
        <time>2026-07-16T11:16:05.263Z</time>
      </trkpt>
      <trkpt lat="43.033950" lon="-4.223730">
        <ele>962.094</ele>
        <time>2026-07-16T11:16:25.263Z</time>
      </trkpt>
      <trkpt lat="43.033970" lon="-4.223710">
        <ele>961.961</ele>
        <time>2026-07-16T11:16:45.263Z</time>
      </trkpt>
      <trkpt lat="43.033990" lon="-4.223660">
        <ele>961.821</ele>
        <time>2026-07-16T11:17:05.263Z</time>
      </trkpt>
      <trkpt lat="43.034010" lon="-4.223620">
        <ele>961.613</ele>
        <time>2026-07-16T11:17:25.263Z</time>
      </trkpt>
      <trkpt lat="43.034020" lon="-4.223600">
        <ele>961.509</ele>
        <time>2026-07-16T11:17:45.263Z</time>
      </trkpt>
      <trkpt lat="43.034040" lon="-4.223550">
        <ele>961.548</ele>
        <time>2026-07-16T11:18:05.263Z</time>
      </trkpt>
      <trkpt lat="43.034140" lon="-4.223290">
        <ele>962.763</ele>
        <time>2026-07-16T11:18:25.263Z</time>
      </trkpt>
      <trkpt lat="43.034190" lon="-4.223150">
        <ele>963.156</ele>
        <time>2026-07-16T11:18:45.263Z</time>
      </trkpt>
      <trkpt lat="43.034230" lon="-4.223070">
        <ele>963.214</ele>
        <time>2026-07-16T11:19:05.263Z</time>
      </trkpt>
      <trkpt lat="43.034300" lon="-4.222910">
        <ele>963.571</ele>
        <time>2026-07-16T11:19:25.263Z</time>
      </trkpt>
      <trkpt lat="43.034340" lon="-4.222840">
        <ele>963.846</ele>
        <time>2026-07-16T11:19:45.263Z</time>
      </trkpt>
      <trkpt lat="43.034360" lon="-4.222800">
        <ele>964.199</ele>
        <time>2026-07-16T11:20:05.263Z</time>
      </trkpt>
      <trkpt lat="43.034370" lon="-4.222780">
        <ele>964.264</ele>
        <time>2026-07-16T11:20:25.263Z</time>
      </trkpt>
      <trkpt lat="43.034390" lon="-4.222760">
        <ele>964.464</ele>
        <time>2026-07-16T11:20:45.263Z</time>
      </trkpt>
      <trkpt lat="43.034420" lon="-4.222730">
        <ele>964.729</ele>
        <time>2026-07-16T11:21:05.263Z</time>
      </trkpt>
      <trkpt lat="43.034450" lon="-4.222700">
        <ele>965.000</ele>
        <time>2026-07-16T11:21:25.263Z</time>
      </trkpt>
      <trkpt lat="43.034460" lon="-4.222680">
        <ele>965.120</ele>
        <time>2026-07-16T11:21:45.263Z</time>
      </trkpt>
      <trkpt lat="43.034480" lon="-4.222670">
        <ele>965.209</ele>
        <time>2026-07-16T11:22:05.263Z</time>
      </trkpt>
      <trkpt lat="43.034500" lon="-4.222650">
        <ele>965.314</ele>
        <time>2026-07-16T11:22:25.263Z</time>
      </trkpt>
      <trkpt lat="43.034520" lon="-4.222640">
        <ele>965.459</ele>
        <time>2026-07-16T11:22:45.263Z</time>
      </trkpt>
      <trkpt lat="43.034550" lon="-4.222620">
        <ele>965.552</ele>
        <time>2026-07-16T11:23:05.263Z</time>
      </trkpt>
      <trkpt lat="43.034560" lon="-4.222610">
        <ele>965.680</ele>
        <time>2026-07-16T11:23:25.263Z</time>
      </trkpt>
      <trkpt lat="43.034650" lon="-4.222540">
        <ele>965.827</ele>
        <time>2026-07-16T11:23:45.263Z</time>
      </trkpt>
      <trkpt lat="43.034670" lon="-4.222530">
        <ele>965.972</ele>
        <time>2026-07-16T11:24:05.263Z</time>
      </trkpt>
      <trkpt lat="43.034680" lon="-4.222520">
        <ele>965.965</ele>
        <time>2026-07-16T11:24:25.263Z</time>
      </trkpt>
      <trkpt lat="43.034700" lon="-4.222500">
        <ele>965.950</ele>
        <time>2026-07-16T11:24:45.263Z</time>
      </trkpt>
      <trkpt lat="43.034720" lon="-4.222490">
        <ele>966.010</ele>
        <time>2026-07-16T11:25:05.263Z</time>
      </trkpt>
      <trkpt lat="43.034730" lon="-4.222470">
        <ele>966.031</ele>
        <time>2026-07-16T11:25:25.263Z</time>
      </trkpt>
      <trkpt lat="43.034750" lon="-4.222460">
        <ele>966.161</ele>
        <time>2026-07-16T11:25:45.263Z</time>
      </trkpt>
      <trkpt lat="43.034760" lon="-4.222440">
        <ele>966.107</ele>
        <time>2026-07-16T11:26:05.263Z</time>
      </trkpt>
      <trkpt lat="43.034770" lon="-4.222420">
        <ele>966.109</ele>
        <time>2026-07-16T11:26:25.263Z</time>
      </trkpt>
      <trkpt lat="43.034800" lon="-4.222380">
        <ele>966.225</ele>
        <time>2026-07-16T11:26:45.263Z</time>
      </trkpt>
      <trkpt lat="43.034850" lon="-4.222310">
        <ele>966.160</ele>
        <time>2026-07-16T11:27:05.263Z</time>
      </trkpt>
      <trkpt lat="43.034890" lon="-4.222240">
        <ele>966.063</ele>
        <time>2026-07-16T11:27:25.263Z</time>
      </trkpt>
      <trkpt lat="43.035000" lon="-4.222070">
        <ele>965.581</ele>
        <time>2026-07-16T11:27:45.263Z</time>
      </trkpt>
      <trkpt lat="43.035140" lon="-4.221850">
        <ele>964.068</ele>
        <time>2026-07-16T11:28:05.263Z</time>
      </trkpt>
      <trkpt lat="43.035240" lon="-4.221730">
        <ele>963.853</ele>
        <time>2026-07-16T11:28:25.263Z</time>
      </trkpt>
      <trkpt lat="43.035340" lon="-4.221580">
        <ele>963.336</ele>
        <time>2026-07-16T11:28:45.263Z</time>
      </trkpt>
      <trkpt lat="43.035710" lon="-4.221000">
        <ele>964.131</ele>
        <time>2026-07-16T11:29:05.263Z</time>
      </trkpt>
      <trkpt lat="43.036040" lon="-4.220500">
        <ele>968.671</ele>
        <time>2026-07-16T11:29:25.263Z</time>
      </trkpt>
      <trkpt lat="43.036080" lon="-4.220450">
        <ele>969.129</ele>
        <time>2026-07-16T11:29:45.263Z</time>
      </trkpt>
      <trkpt lat="43.036360" lon="-4.220020">
        <ele>970.900</ele>
        <time>2026-07-16T11:30:05.263Z</time>
      </trkpt>
      <trkpt lat="43.036700" lon="-4.219510">
        <ele>968.220</ele>
        <time>2026-07-16T11:30:25.263Z</time>
      </trkpt>
      <trkpt lat="43.036780" lon="-4.219390">
        <ele>968.009</ele>
        <time>2026-07-16T11:30:45.263Z</time>
      </trkpt>
      <trkpt lat="43.036870" lon="-4.219280">
        <ele>968.754</ele>
        <time>2026-07-16T11:31:05.263Z</time>
      </trkpt>
      <trkpt lat="43.036910" lon="-4.219220">
        <ele>969.389</ele>
        <time>2026-07-16T11:31:25.263Z</time>
      </trkpt>
      <trkpt lat="43.036940" lon="-4.219190">
        <ele>969.822</ele>
        <time>2026-07-16T11:31:45.263Z</time>
      </trkpt>
      <trkpt lat="43.036970" lon="-4.219170">
        <ele>970.190</ele>
        <time>2026-07-16T11:32:05.263Z</time>
      </trkpt>
      <trkpt lat="43.036990" lon="-4.219160">
        <ele>970.367</ele>
        <time>2026-07-16T11:32:25.263Z</time>
      </trkpt>
      <trkpt lat="43.037040" lon="-4.219150">
        <ele>970.612</ele>
        <time>2026-07-16T11:32:45.263Z</time>
      </trkpt>
      <trkpt lat="43.037050" lon="-4.219150">
        <ele>970.755</ele>
        <time>2026-07-16T11:33:05.263Z</time>
      </trkpt>
      <trkpt lat="43.037130" lon="-4.219130">
        <ele>971.590</ele>
        <time>2026-07-16T11:33:25.263Z</time>
      </trkpt>
      <trkpt lat="43.037440" lon="-4.219150">
        <ele>973.960</ele>
        <time>2026-07-16T11:33:45.263Z</time>
      </trkpt>
      <trkpt lat="43.037550" lon="-4.219150">
        <ele>974.479</ele>
        <time>2026-07-16T11:34:05.263Z</time>
      </trkpt>
      <trkpt lat="43.037640" lon="-4.219150">
        <ele>974.005</ele>
        <time>2026-07-16T11:34:25.263Z</time>
      </trkpt>
      <trkpt lat="43.037670" lon="-4.219140">
        <ele>974.325</ele>
        <time>2026-07-16T11:34:45.263Z</time>
      </trkpt>
      <trkpt lat="43.037700" lon="-4.219140">
        <ele>974.109</ele>
        <time>2026-07-16T11:35:05.263Z</time>
      </trkpt>
      <trkpt lat="43.037710" lon="-4.219130">
        <ele>974.469</ele>
        <time>2026-07-16T11:35:25.263Z</time>
      </trkpt>
      <trkpt lat="43.037730" lon="-4.219130">
        <ele>974.414</ele>
        <time>2026-07-16T11:35:45.263Z</time>
      </trkpt>
      <trkpt lat="43.037740" lon="-4.219120">
        <ele>974.697</ele>
        <time>2026-07-16T11:36:05.263Z</time>
      </trkpt>
      <trkpt lat="43.037810" lon="-4.219060">
        <ele>976.265</ele>
        <time>2026-07-16T11:36:25.263Z</time>
      </trkpt>
      <trkpt lat="43.037910" lon="-4.218970">
        <ele>977.562</ele>
        <time>2026-07-16T11:36:45.263Z</time>
      </trkpt>
      <trkpt lat="43.038260" lon="-4.218610">
        <ele>980.687</ele>
        <time>2026-07-16T11:37:05.263Z</time>
      </trkpt>
      <trkpt lat="43.038570" lon="-4.218280">
        <ele>984.290</ele>
        <time>2026-07-16T11:37:25.263Z</time>
      </trkpt>
      <trkpt lat="43.038740" lon="-4.218140">
        <ele>985.095</ele>
        <time>2026-07-16T11:37:45.263Z</time>
      </trkpt>
      <trkpt lat="43.038750" lon="-4.218130">
        <ele>985.115</ele>
        <time>2026-07-16T11:38:05.263Z</time>
      </trkpt>
      <trkpt lat="43.038850" lon="-4.218060">
        <ele>985.497</ele>
        <time>2026-07-16T11:38:25.263Z</time>
      </trkpt>
      <trkpt lat="43.038960" lon="-4.217980">
        <ele>986.523</ele>
        <time>2026-07-16T11:38:45.263Z</time>
      </trkpt>
      <trkpt lat="43.039060" lon="-4.217930">
        <ele>987.525</ele>
        <time>2026-07-16T11:39:05.263Z</time>
      </trkpt>
      <trkpt lat="43.039110" lon="-4.217910">
        <ele>987.909</ele>
        <time>2026-07-16T11:39:25.263Z</time>
      </trkpt>
      <trkpt lat="43.039170" lon="-4.217900">
        <ele>988.161</ele>
        <time>2026-07-16T11:39:45.263Z</time>
      </trkpt>
      <trkpt lat="43.039260" lon="-4.217890">
        <ele>989.086</ele>
        <time>2026-07-16T11:40:05.263Z</time>
      </trkpt>
      <trkpt lat="43.039370" lon="-4.217880">
        <ele>990.079</ele>
        <time>2026-07-16T11:40:25.263Z</time>
      </trkpt>
      <trkpt lat="43.039450" lon="-4.217890">
        <ele>990.367</ele>
        <time>2026-07-16T11:40:45.263Z</time>
      </trkpt>
      <trkpt lat="43.039540" lon="-4.217900">
        <ele>991.694</ele>
        <time>2026-07-16T11:41:05.263Z</time>
      </trkpt>
      <trkpt lat="43.039620" lon="-4.217930">
        <ele>992.469</ele>
        <time>2026-07-16T11:41:25.263Z</time>
      </trkpt>
      <trkpt lat="43.039850" lon="-4.218060">
        <ele>994.322</ele>
        <time>2026-07-16T11:41:45.263Z</time>
      </trkpt>
      <trkpt lat="43.040070" lon="-4.218200">
        <ele>996.387</ele>
        <time>2026-07-16T11:42:05.263Z</time>
      </trkpt>
      <trkpt lat="43.040120" lon="-4.218230">
        <ele>996.667</ele>
        <time>2026-07-16T11:42:25.263Z</time>
      </trkpt>
      <trkpt lat="43.040140" lon="-4.218240">
        <ele>996.752</ele>
        <time>2026-07-16T11:42:45.263Z</time>
      </trkpt>
      <trkpt lat="43.040170" lon="-4.218250">
        <ele>996.953</ele>
        <time>2026-07-16T11:43:05.263Z</time>
      </trkpt>
      <trkpt lat="43.040190" lon="-4.218250">
        <ele>997.208</ele>
        <time>2026-07-16T11:43:25.263Z</time>
      </trkpt>
      <trkpt lat="43.040210" lon="-4.218250">
        <ele>997.409</ele>
        <time>2026-07-16T11:43:45.263Z</time>
      </trkpt>
      <trkpt lat="43.040250" lon="-4.218250">
        <ele>997.967</ele>
        <time>2026-07-16T11:44:05.263Z</time>
      </trkpt>
      <trkpt lat="43.040290" lon="-4.218260">
        <ele>998.122</ele>
        <time>2026-07-16T11:44:25.263Z</time>
      </trkpt>
      <trkpt lat="43.040550" lon="-4.218250">
        <ele>998.925</ele>
        <time>2026-07-16T11:44:45.263Z</time>
      </trkpt>
      <trkpt lat="43.040650" lon="-4.218240">
        <ele>999.813</ele>
        <time>2026-07-16T11:45:05.263Z</time>
      </trkpt>
      <trkpt lat="43.040800" lon="-4.218230">
        <ele>1001.270</ele>
        <time>2026-07-16T11:45:25.263Z</time>
      </trkpt>
      <trkpt lat="43.040910" lon="-4.218210">
        <ele>1002.135</ele>
        <time>2026-07-16T11:45:45.263Z</time>
      </trkpt>
      <trkpt lat="43.041030" lon="-4.218170">
        <ele>1003.638</ele>
        <time>2026-07-16T11:46:05.263Z</time>
      </trkpt>
      <trkpt lat="43.041230" lon="-4.218110">
        <ele>1005.393</ele>
        <time>2026-07-16T11:46:25.263Z</time>
      </trkpt>
      <trkpt lat="43.041370" lon="-4.218050">
        <ele>1006.243</ele>
        <time>2026-07-16T11:46:45.263Z</time>
      </trkpt>
      <trkpt lat="43.041570" lon="-4.217980">
        <ele>1007.643</ele>
        <time>2026-07-16T11:47:05.263Z</time>
      </trkpt>
      <trkpt lat="43.041680" lon="-4.217930">
        <ele>1008.664</ele>
        <time>2026-07-16T11:47:25.263Z</time>
      </trkpt>
      <trkpt lat="43.041750" lon="-4.217890">
        <ele>1008.810</ele>
        <time>2026-07-16T11:47:45.263Z</time>
      </trkpt>
      <trkpt lat="43.041810" lon="-4.217840">
        <ele>1009.209</ele>
        <time>2026-07-16T11:48:05.263Z</time>
      </trkpt>
      <trkpt lat="43.041860" lon="-4.217790">
        <ele>1009.796</ele>
        <time>2026-07-16T11:48:25.263Z</time>
      </trkpt>
      <trkpt lat="43.041890" lon="-4.217750">
        <ele>1010.081</ele>
        <time>2026-07-16T11:48:45.263Z</time>
      </trkpt>
      <trkpt lat="43.041900" lon="-4.217690">
        <ele>1010.814</ele>
        <time>2026-07-16T11:49:05.263Z</time>
      </trkpt>
      <trkpt lat="43.041910" lon="-4.217640">
        <ele>1011.532</ele>
        <time>2026-07-16T11:49:25.263Z</time>
      </trkpt>
      <trkpt lat="43.041920" lon="-4.217590">
        <ele>1012.189</ele>
        <time>2026-07-16T11:49:45.263Z</time>
      </trkpt>
      <trkpt lat="43.041920" lon="-4.217510">
        <ele>1013.394</ele>
        <time>2026-07-16T11:50:05.263Z</time>
      </trkpt>
      <trkpt lat="43.041930" lon="-4.217460">
        <ele>1013.537</ele>
        <time>2026-07-16T11:50:25.263Z</time>
      </trkpt>
      <trkpt lat="43.041940" lon="-4.217420">
        <ele>1013.682</ele>
        <time>2026-07-16T11:50:45.263Z</time>
      </trkpt>
      <trkpt lat="43.041960" lon="-4.217370">
        <ele>1013.842</ele>
        <time>2026-07-16T11:51:05.263Z</time>
      </trkpt>
      <trkpt lat="43.041980" lon="-4.217330">
        <ele>1014.057</ele>
        <time>2026-07-16T11:51:25.263Z</time>
      </trkpt>
      <trkpt lat="43.042030" lon="-4.217250">
        <ele>1014.400</ele>
        <time>2026-07-16T11:51:45.263Z</time>
      </trkpt>
      <trkpt lat="43.042070" lon="-4.217190">
        <ele>1014.920</ele>
        <time>2026-07-16T11:52:05.263Z</time>
      </trkpt>
      <trkpt lat="43.042280" lon="-4.216940">
        <ele>1018.009</ele>
        <time>2026-07-16T11:52:25.263Z</time>
      </trkpt>
      <trkpt lat="43.042520" lon="-4.216740">
        <ele>1019.697</ele>
        <time>2026-07-16T11:52:45.263Z</time>
      </trkpt>
      <trkpt lat="43.042600" lon="-4.216670">
        <ele>1020.772</ele>
        <time>2026-07-16T11:53:05.263Z</time>
      </trkpt>
      <trkpt lat="43.042740" lon="-4.216590">
        <ele>1022.375</ele>
        <time>2026-07-16T11:53:25.263Z</time>
      </trkpt>
      <trkpt lat="43.042850" lon="-4.216530">
        <ele>1023.413</ele>
        <time>2026-07-16T11:53:45.263Z</time>
      </trkpt>
      <trkpt lat="43.043050" lon="-4.216450">
        <ele>1024.840</ele>
        <time>2026-07-16T11:54:05.263Z</time>
      </trkpt>
      <trkpt lat="43.043300" lon="-4.216360">
        <ele>1026.975</ele>
        <time>2026-07-16T11:54:25.263Z</time>
      </trkpt>
      <trkpt lat="43.043740" lon="-4.216210">
        <ele>1030.198</ele>
        <time>2026-07-16T11:54:45.263Z</time>
      </trkpt>
      <trkpt lat="43.043910" lon="-4.216150">
        <ele>1031.663</ele>
        <time>2026-07-16T11:55:05.263Z</time>
      </trkpt>
      <trkpt lat="43.044010" lon="-4.216110">
        <ele>1032.583</ele>
        <time>2026-07-16T11:55:25.263Z</time>
      </trkpt>
      <trkpt lat="43.044090" lon="-4.216080">
        <ele>1033.172</ele>
        <time>2026-07-16T11:55:45.263Z</time>
      </trkpt>
      <trkpt lat="43.044130" lon="-4.216060">
        <ele>1033.613</ele>
        <time>2026-07-16T11:56:05.263Z</time>
      </trkpt>
      <trkpt lat="43.044170" lon="-4.216050">
        <ele>1033.914</ele>
        <time>2026-07-16T11:56:25.263Z</time>
      </trkpt>
      <trkpt lat="43.044200" lon="-4.216050">
        <ele>1034.109</ele>
        <time>2026-07-16T11:56:45.263Z</time>
      </trkpt>
      <trkpt lat="43.044250" lon="-4.216050">
        <ele>1034.549</ele>
        <time>2026-07-16T11:57:05.263Z</time>
      </trkpt>
      <trkpt lat="43.044400" lon="-4.216050">
        <ele>1035.664</ele>
        <time>2026-07-16T11:57:25.263Z</time>
      </trkpt>
      <trkpt lat="43.044490" lon="-4.216070">
        <ele>1036.057</ele>
        <time>2026-07-16T11:57:45.263Z</time>
      </trkpt>
      <trkpt lat="43.044550" lon="-4.216080">
        <ele>1036.335</ele>
        <time>2026-07-16T11:58:05.263Z</time>
      </trkpt>
      <trkpt lat="43.044640" lon="-4.216090">
        <ele>1036.892</ele>
        <time>2026-07-16T11:58:25.263Z</time>
      </trkpt>
      <trkpt lat="43.044710" lon="-4.216090">
        <ele>1037.477</ele>
        <time>2026-07-16T11:58:45.263Z</time>
      </trkpt>
      <trkpt lat="43.044770" lon="-4.216090">
        <ele>1037.860</ele>
        <time>2026-07-16T11:59:05.263Z</time>
      </trkpt>
      <trkpt lat="43.044840" lon="-4.216090">
        <ele>1038.275</ele>
        <time>2026-07-16T11:59:25.263Z</time>
      </trkpt>
      <trkpt lat="43.044900" lon="-4.216090">
        <ele>1038.665</ele>
        <time>2026-07-16T11:59:45.263Z</time>
      </trkpt>
      <trkpt lat="43.044930" lon="-4.216080">
        <ele>1039.079</ele>
        <time>2026-07-16T12:00:05.263Z</time>
      </trkpt>
      <trkpt lat="43.044950" lon="-4.216080">
        <ele>1039.105</ele>
        <time>2026-07-16T12:00:25.263Z</time>
      </trkpt>
      <trkpt lat="43.044960" lon="-4.216080">
        <ele>1039.225</ele>
        <time>2026-07-16T12:00:45.263Z</time>
      </trkpt>
      <trkpt lat="43.044970" lon="-4.216070">
        <ele>1039.409</ele>
        <time>2026-07-16T12:01:05.263Z</time>
      </trkpt>
      <trkpt lat="43.045000" lon="-4.216050">
        <ele>1039.969</ele>
        <time>2026-07-16T12:01:25.263Z</time>
      </trkpt>
      <trkpt lat="43.045040" lon="-4.216030">
        <ele>1039.854</ele>
        <time>2026-07-16T12:01:45.263Z</time>
      </trkpt>
      <trkpt lat="43.045100" lon="-4.215970">
        <ele>1040.357</ele>
        <time>2026-07-16T12:02:05.263Z</time>
      </trkpt>
      <trkpt lat="43.045190" lon="-4.215920">
        <ele>1040.675</ele>
        <time>2026-07-16T12:02:25.263Z</time>
      </trkpt>
      <trkpt lat="43.045310" lon="-4.215820">
        <ele>1041.992</ele>
        <time>2026-07-16T12:02:45.263Z</time>
      </trkpt>
      <trkpt lat="43.045430" lon="-4.215730">
        <ele>1042.317</ele>
        <time>2026-07-16T12:03:05.263Z</time>
      </trkpt>
      <trkpt lat="43.045550" lon="-4.215670">
        <ele>1042.670</ele>
        <time>2026-07-16T12:03:25.263Z</time>
      </trkpt>
      <trkpt lat="43.045690" lon="-4.215600">
        <ele>1043.425</ele>
        <time>2026-07-16T12:03:45.263Z</time>
      </trkpt>
      <trkpt lat="43.045810" lon="-4.215540">
        <ele>1044.465</ele>
        <time>2026-07-16T12:04:05.263Z</time>
      </trkpt>
      <trkpt lat="43.045910" lon="-4.215490">
        <ele>1044.982</ele>
        <time>2026-07-16T12:04:25.263Z</time>
      </trkpt>
      <trkpt lat="43.045990" lon="-4.215430">
        <ele>1045.643</ele>
        <time>2026-07-16T12:04:45.263Z</time>
      </trkpt>
      <trkpt lat="43.046050" lon="-4.215360">
        <ele>1046.717</ele>
        <time>2026-07-16T12:05:05.263Z</time>
      </trkpt>
      <trkpt lat="43.046120" lon="-4.215270">
        <ele>1048.009</ele>
        <time>2026-07-16T12:05:25.263Z</time>
      </trkpt>
      <trkpt lat="43.046180" lon="-4.215170">
        <ele>1048.790</ele>
        <time>2026-07-16T12:05:45.263Z</time>
      </trkpt>
      <trkpt lat="43.046220" lon="-4.215080">
        <ele>1049.635</ele>
        <time>2026-07-16T12:06:05.263Z</time>
      </trkpt>
      <trkpt lat="43.046280" lon="-4.214950">
        <ele>1050.728</ele>
        <time>2026-07-16T12:06:25.263Z</time>
      </trkpt>
      <trkpt lat="43.046370" lon="-4.214780">
        <ele>1051.696</ele>
        <time>2026-07-16T12:06:45.263Z</time>
      </trkpt>
      <trkpt lat="43.046430" lon="-4.214620">
        <ele>1053.123</ele>
        <time>2026-07-16T12:07:05.263Z</time>
      </trkpt>
      <trkpt lat="43.046500" lon="-4.214520">
        <ele>1054.038</ele>
        <time>2026-07-16T12:07:25.263Z</time>
      </trkpt>
      <trkpt lat="43.046540" lon="-4.214440">
        <ele>1055.061</ele>
        <time>2026-07-16T12:07:45.263Z</time>
      </trkpt>
      <trkpt lat="43.046550" lon="-4.214430">
        <ele>1055.196</ele>
        <time>2026-07-16T12:08:05.263Z</time>
      </trkpt>
      <trkpt lat="43.046560" lon="-4.214420">
        <ele>1055.266</ele>
        <time>2026-07-16T12:08:25.263Z</time>
      </trkpt>
      <trkpt lat="43.046580" lon="-4.214400">
        <ele>1055.443</ele>
        <time>2026-07-16T12:08:45.263Z</time>
      </trkpt>
      <trkpt lat="43.046600" lon="-4.214380">
        <ele>1055.664</ele>
        <time>2026-07-16T12:09:05.263Z</time>
      </trkpt>
      <trkpt lat="43.046660" lon="-4.214360">
        <ele>1055.610</ele>
        <time>2026-07-16T12:09:25.263Z</time>
      </trkpt>
      <trkpt lat="43.046750" lon="-4.214340">
        <ele>1055.809</ele>
        <time>2026-07-16T12:09:45.263Z</time>
      </trkpt>
      <trkpt lat="43.046870" lon="-4.214310">
        <ele>1056.456</ele>
        <time>2026-07-16T12:10:05.263Z</time>
      </trkpt>
      <trkpt lat="43.047000" lon="-4.214300">
        <ele>1057.491</ele>
        <time>2026-07-16T12:10:25.263Z</time>
      </trkpt>
      <trkpt lat="43.047100" lon="-4.214290">
        <ele>1059.034</ele>
        <time>2026-07-16T12:10:45.263Z</time>
      </trkpt>
      <trkpt lat="43.047210" lon="-4.214290">
        <ele>1060.552</ele>
        <time>2026-07-16T12:11:05.263Z</time>
      </trkpt>
      <trkpt lat="43.047290" lon="-4.214300">
        <ele>1061.549</ele>
        <time>2026-07-16T12:11:25.263Z</time>
      </trkpt>
      <trkpt lat="43.047360" lon="-4.214320">
        <ele>1062.354</ele>
        <time>2026-07-16T12:11:45.263Z</time>
      </trkpt>
      <trkpt lat="43.047420" lon="-4.214380">
        <ele>1062.577</ele>
        <time>2026-07-16T12:12:05.263Z</time>
      </trkpt>
      <trkpt lat="43.047510" lon="-4.214470">
        <ele>1062.952</ele>
        <time>2026-07-16T12:12:25.263Z</time>
      </trkpt>
      <trkpt lat="43.047570" lon="-4.214530">
        <ele>1063.892</ele>
        <time>2026-07-16T12:12:45.263Z</time>
      </trkpt>
      <trkpt lat="43.047630" lon="-4.214590">
        <ele>1064.619</ele>
        <time>2026-07-16T12:13:05.263Z</time>
      </trkpt>
      <trkpt lat="43.047690" lon="-4.214640">
        <ele>1065.709</ele>
        <time>2026-07-16T12:13:25.263Z</time>
      </trkpt>
      <trkpt lat="43.047790" lon="-4.214720">
        <ele>1067.219</ele>
        <time>2026-07-16T12:13:45.263Z</time>
      </trkpt>
      <trkpt lat="43.047850" lon="-4.214750">
        <ele>1067.609</ele>
        <time>2026-07-16T12:14:05.263Z</time>
      </trkpt>
      <trkpt lat="43.047910" lon="-4.214770">
        <ele>1068.163</ele>
        <time>2026-07-16T12:14:25.263Z</time>
      </trkpt>
      <trkpt lat="43.047980" lon="-4.214790">
        <ele>1068.588</ele>
        <time>2026-07-16T12:14:45.263Z</time>
      </trkpt>
      <trkpt lat="43.048030" lon="-4.214800">
        <ele>1068.861</ele>
        <time>2026-07-16T12:15:05.263Z</time>
      </trkpt>
      <trkpt lat="43.048130" lon="-4.214810">
        <ele>1069.899</ele>
        <time>2026-07-16T12:15:25.263Z</time>
      </trkpt>
      <trkpt lat="43.048240" lon="-4.214840">
        <ele>1070.446</ele>
        <time>2026-07-16T12:15:45.263Z</time>
      </trkpt>
      <trkpt lat="43.048360" lon="-4.214860">
        <ele>1071.631</ele>
        <time>2026-07-16T12:16:05.263Z</time>
      </trkpt>
      <trkpt lat="43.048570" lon="-4.214970">
        <ele>1073.074</ele>
        <time>2026-07-16T12:16:25.263Z</time>
      </trkpt>
      <trkpt lat="43.048670" lon="-4.215030">
        <ele>1073.869</ele>
        <time>2026-07-16T12:16:45.263Z</time>
      </trkpt>
      <trkpt lat="43.048890" lon="-4.215130">
        <ele>1077.679</ele>
        <time>2026-07-16T12:17:05.263Z</time>
      </trkpt>
      <trkpt lat="43.049000" lon="-4.215160">
        <ele>1078.584</ele>
        <time>2026-07-16T12:17:25.263Z</time>
      </trkpt>
      <trkpt lat="43.049120" lon="-4.215170">
        <ele>1079.807</ele>
        <time>2026-07-16T12:17:45.263Z</time>
      </trkpt>
      <trkpt lat="43.049170" lon="-4.215170">
        <ele>1080.417</ele>
        <time>2026-07-16T12:18:05.263Z</time>
      </trkpt>
      <trkpt lat="43.049230" lon="-4.215160">
        <ele>1080.309</ele>
        <time>2026-07-16T12:18:25.263Z</time>
      </trkpt>
      <trkpt lat="43.049270" lon="-4.215140">
        <ele>1080.320</ele>
        <time>2026-07-16T12:18:45.263Z</time>
      </trkpt>
      <trkpt lat="43.049320" lon="-4.215120">
        <ele>1080.485</ele>
        <time>2026-07-16T12:19:05.263Z</time>
      </trkpt>
      <trkpt lat="43.049400" lon="-4.215080">
        <ele>1080.818</ele>
        <time>2026-07-16T12:19:25.263Z</time>
      </trkpt>
      <trkpt lat="43.049480" lon="-4.215040">
        <ele>1081.486</ele>
        <time>2026-07-16T12:19:45.263Z</time>
      </trkpt>
      <trkpt lat="43.049560" lon="-4.215000">
        <ele>1082.073</ele>
        <time>2026-07-16T12:20:05.263Z</time>
      </trkpt>
      <trkpt lat="43.049620" lon="-4.214960">
        <ele>1083.058</ele>
        <time>2026-07-16T12:20:25.263Z</time>
      </trkpt>
      <trkpt lat="43.049670" lon="-4.214930">
        <ele>1083.661</ele>
        <time>2026-07-16T12:20:45.263Z</time>
      </trkpt>
      <trkpt lat="43.049740" lon="-4.214910">
        <ele>1084.156</ele>
        <time>2026-07-16T12:21:05.263Z</time>
      </trkpt>
      <trkpt lat="43.049790" lon="-4.214910">
        <ele>1084.496</ele>
        <time>2026-07-16T12:21:25.263Z</time>
      </trkpt>
      <trkpt lat="43.050430" lon="-4.214930">
        <ele>1091.582</ele>
        <time>2026-07-16T12:21:45.263Z</time>
      </trkpt>
      <trkpt lat="43.050550" lon="-4.214930">
        <ele>1092.543</ele>
        <time>2026-07-16T12:22:05.263Z</time>
      </trkpt>
      <trkpt lat="43.050650" lon="-4.214920">
        <ele>1092.617</ele>
        <time>2026-07-16T12:22:25.263Z</time>
      </trkpt>
      <trkpt lat="43.050760" lon="-4.214900">
        <ele>1092.909</ele>
        <time>2026-07-16T12:22:45.263Z</time>
      </trkpt>
      <trkpt lat="43.050860" lon="-4.214830">
        <ele>1093.990</ele>
        <time>2026-07-16T12:23:05.263Z</time>
      </trkpt>
      <trkpt lat="43.050940" lon="-4.214720">
        <ele>1095.725</ele>
        <time>2026-07-16T12:23:25.263Z</time>
      </trkpt>
      <trkpt lat="43.051030" lon="-4.214660">
        <ele>1096.348</ele>
        <time>2026-07-16T12:23:45.263Z</time>
      </trkpt>
      <trkpt lat="43.051120" lon="-4.214650">
        <ele>1096.366</ele>
        <time>2026-07-16T12:24:05.263Z</time>
      </trkpt>
      <trkpt lat="43.051220" lon="-4.214690">
        <ele>1098.483</ele>
        <time>2026-07-16T12:24:25.263Z</time>
      </trkpt>
      <trkpt lat="43.051320" lon="-4.214790">
        <ele>1099.268</ele>
        <time>2026-07-16T12:24:45.263Z</time>
      </trkpt>
      <trkpt lat="43.051460" lon="-4.215010">
        <ele>1100.211</ele>
        <time>2026-07-16T12:25:05.263Z</time>
      </trkpt>
      <trkpt lat="43.051550" lon="-4.215120">
        <ele>1101.426</ele>
        <time>2026-07-16T12:25:25.263Z</time>
      </trkpt>
      <trkpt lat="43.051640" lon="-4.215210">
        <ele>1102.596</ele>
        <time>2026-07-16T12:25:45.263Z</time>
      </trkpt>
      <trkpt lat="43.051740" lon="-4.215300">
        <ele>1102.856</ele>
        <time>2026-07-16T12:26:05.263Z</time>
      </trkpt>
      <trkpt lat="43.051850" lon="-4.215350">
        <ele>1104.059</ele>
        <time>2026-07-16T12:26:25.263Z</time>
      </trkpt>
      <trkpt lat="43.051950" lon="-4.215410">
        <ele>1105.114</ele>
        <time>2026-07-16T12:26:45.263Z</time>
      </trkpt>
      <trkpt lat="43.051980" lon="-4.215430">
        <ele>1105.409</ele>
        <time>2026-07-16T12:27:05.263Z</time>
      </trkpt>
      <trkpt lat="43.052050" lon="-4.215460">
        <ele>1106.277</ele>
        <time>2026-07-16T12:27:25.263Z</time>
      </trkpt>
      <trkpt lat="43.052160" lon="-4.215500">
        <ele>1107.582</ele>
        <time>2026-07-16T12:27:45.263Z</time>
      </trkpt>
      <trkpt lat="43.052280" lon="-4.215510">
        <ele>1108.415</ele>
        <time>2026-07-16T12:28:05.263Z</time>
      </trkpt>
      <trkpt lat="43.052400" lon="-4.215470">
        <ele>1109.033</ele>
        <time>2026-07-16T12:28:25.263Z</time>
      </trkpt>
      <trkpt lat="43.052490" lon="-4.215400">
        <ele>1110.230</ele>
        <time>2026-07-16T12:28:45.263Z</time>
      </trkpt>
      <trkpt lat="43.052600" lon="-4.215330">
        <ele>1110.895</ele>
        <time>2026-07-16T12:29:05.263Z</time>
      </trkpt>
      <trkpt lat="43.052700" lon="-4.215260">
        <ele>1111.698</ele>
        <time>2026-07-16T12:29:25.263Z</time>
      </trkpt>
      <trkpt lat="43.052790" lon="-4.215170">
        <ele>1112.883</ele>
        <time>2026-07-16T12:29:45.263Z</time>
      </trkpt>
      <trkpt lat="43.052890" lon="-4.215080">
        <ele>1113.383</ele>
        <time>2026-07-16T12:30:05.263Z</time>
      </trkpt>
      <trkpt lat="43.052960" lon="-4.214970">
        <ele>1114.678</ele>
        <time>2026-07-16T12:30:25.263Z</time>
      </trkpt>
      <trkpt lat="43.053050" lon="-4.214870">
        <ele>1115.433</ele>
        <time>2026-07-16T12:30:45.263Z</time>
      </trkpt>
      <trkpt lat="43.053120" lon="-4.214760">
        <ele>1116.826</ele>
        <time>2026-07-16T12:31:05.263Z</time>
      </trkpt>
      <trkpt lat="43.053210" lon="-4.214650">
        <ele>1118.209</ele>
        <time>2026-07-16T12:31:25.263Z</time>
      </trkpt>
      <trkpt lat="43.053310" lon="-4.214580">
        <ele>1118.779</ele>
        <time>2026-07-16T12:31:45.263Z</time>
      </trkpt>
      <trkpt lat="43.053410" lon="-4.214520">
        <ele>1119.714</ele>
        <time>2026-07-16T12:32:05.263Z</time>
      </trkpt>
      <trkpt lat="43.053530" lon="-4.214500">
        <ele>1120.157</ele>
        <time>2026-07-16T12:32:25.263Z</time>
      </trkpt>
      <trkpt lat="43.053650" lon="-4.214510">
        <ele>1121.085</ele>
        <time>2026-07-16T12:32:45.263Z</time>
      </trkpt>
      <trkpt lat="43.053700" lon="-4.214530">
        <ele>1121.942</ele>
        <time>2026-07-16T12:33:05.263Z</time>
      </trkpt>
      <trkpt lat="43.053720" lon="-4.214540">
        <ele>1122.267</ele>
        <time>2026-07-16T12:33:25.263Z</time>
      </trkpt>
      <trkpt lat="43.053730" lon="-4.214550">
        <ele>1122.490</ele>
        <time>2026-07-16T12:33:45.263Z</time>
      </trkpt>
      <trkpt lat="43.053750" lon="-4.214580">
        <ele>1122.575</ele>
        <time>2026-07-16T12:34:05.263Z</time>
      </trkpt>
      <trkpt lat="43.053800" lon="-4.214660">
        <ele>1123.075</ele>
        <time>2026-07-16T12:34:25.263Z</time>
      </trkpt>
      <trkpt lat="43.053850" lon="-4.214810">
        <ele>1123.697</ele>
        <time>2026-07-16T12:34:45.263Z</time>
      </trkpt>
      <trkpt lat="43.053880" lon="-4.214960">
        <ele>1123.923</ele>
        <time>2026-07-16T12:35:05.263Z</time>
      </trkpt>
      <trkpt lat="43.053890" lon="-4.215120">
        <ele>1124.925</ele>
        <time>2026-07-16T12:35:25.263Z</time>
      </trkpt>
      <trkpt lat="43.053890" lon="-4.215280">
        <ele>1126.109</ele>
        <time>2026-07-16T12:35:45.263Z</time>
      </trkpt>
      <trkpt lat="43.053880" lon="-4.215430">
        <ele>1127.821</ele>
        <time>2026-07-16T12:36:05.263Z</time>
      </trkpt>
      <trkpt lat="43.053850" lon="-4.215570">
        <ele>1128.126</ele>
        <time>2026-07-16T12:36:25.263Z</time>
      </trkpt>
      <trkpt lat="43.053820" lon="-4.215730">
        <ele>1128.629</ele>
        <time>2026-07-16T12:36:45.263Z</time>
      </trkpt>
      <trkpt lat="43.053810" lon="-4.215890">
        <ele>1129.937</ele>
        <time>2026-07-16T12:37:05.263Z</time>
      </trkpt>
      <trkpt lat="43.053810" lon="-4.216210">
        <ele>1131.854</ele>
        <time>2026-07-16T12:37:25.263Z</time>
      </trkpt>
      <trkpt lat="43.053830" lon="-4.216370">
        <ele>1133.519</ele>
        <time>2026-07-16T12:37:45.263Z</time>
      </trkpt>
      <trkpt lat="43.053840" lon="-4.216520">
        <ele>1134.092</ele>
        <time>2026-07-16T12:38:05.263Z</time>
      </trkpt>
      <trkpt lat="43.053870" lon="-4.216680">
        <ele>1135.157</ele>
        <time>2026-07-16T12:38:25.263Z</time>
      </trkpt>
      <trkpt lat="43.053880" lon="-4.217000">
        <ele>1136.297</ele>
        <time>2026-07-16T12:38:45.263Z</time>
      </trkpt>
      <trkpt lat="43.053870" lon="-4.217150">
        <ele>1137.394</ele>
        <time>2026-07-16T12:39:05.263Z</time>
      </trkpt>
      <trkpt lat="43.053840" lon="-4.217300">
        <ele>1137.857</ele>
        <time>2026-07-16T12:39:25.263Z</time>
      </trkpt>
      <trkpt lat="43.053830" lon="-4.217450">
        <ele>1139.422</ele>
        <time>2026-07-16T12:39:45.263Z</time>
      </trkpt>
      <trkpt lat="43.053820" lon="-4.217610">
        <ele>1140.009</ele>
        <time>2026-07-16T12:40:05.263Z</time>
      </trkpt>
      <trkpt lat="43.053830" lon="-4.217770">
        <ele>1141.241</ele>
        <time>2026-07-16T12:40:25.263Z</time>
      </trkpt>
      <trkpt lat="43.053830" lon="-4.218090">
        <ele>1142.816</ele>
        <time>2026-07-16T12:40:45.263Z</time>
      </trkpt>
      <trkpt lat="43.053780" lon="-4.218300">
        <ele>1144.199</ele>
        <time>2026-07-16T12:41:05.263Z</time>
      </trkpt>
      <trkpt lat="43.053750" lon="-4.218460">
        <ele>1144.637</ele>
        <time>2026-07-16T12:41:25.263Z</time>
      </trkpt>
      <trkpt lat="43.053730" lon="-4.218760">
        <ele>1145.694</ele>
        <time>2026-07-16T12:41:45.263Z</time>
      </trkpt>
      <trkpt lat="43.053750" lon="-4.218920">
        <ele>1146.429</ele>
        <time>2026-07-16T12:42:05.263Z</time>
      </trkpt>
      <trkpt lat="43.053790" lon="-4.219070">
        <ele>1147.182</ele>
        <time>2026-07-16T12:42:25.263Z</time>
      </trkpt>
      <trkpt lat="43.053840" lon="-4.219210">
        <ele>1148.027</ele>
        <time>2026-07-16T12:42:45.263Z</time>
      </trkpt>
      <trkpt lat="43.053910" lon="-4.219330">
        <ele>1148.927</ele>
        <time>2026-07-16T12:43:05.263Z</time>
      </trkpt>
      <trkpt lat="43.053990" lon="-4.219440">
        <ele>1150.053</ele>
        <time>2026-07-16T12:43:25.263Z</time>
      </trkpt>
      <trkpt lat="43.054080" lon="-4.219540">
        <ele>1151.104</ele>
        <time>2026-07-16T12:43:45.263Z</time>
      </trkpt>
      <trkpt lat="43.054160" lon="-4.219640">
        <ele>1152.014</ele>
        <time>2026-07-16T12:44:05.263Z</time>
      </trkpt>
      <trkpt lat="43.054250" lon="-4.219770">
        <ele>1152.609</ele>
        <time>2026-07-16T12:44:25.263Z</time>
      </trkpt>
      <trkpt lat="43.054290" lon="-4.219820">
        <ele>1153.187</ele>
        <time>2026-07-16T12:44:45.263Z</time>
      </trkpt>
      <trkpt lat="43.054340" lon="-4.219900">
        <ele>1153.632</ele>
        <time>2026-07-16T12:45:05.263Z</time>
      </trkpt>
      <trkpt lat="43.054370" lon="-4.219960">
        <ele>1153.825</ele>
        <time>2026-07-16T12:45:25.263Z</time>
      </trkpt>
      <trkpt lat="43.054410" lon="-4.220020">
        <ele>1154.523</ele>
        <time>2026-07-16T12:45:45.263Z</time>
      </trkpt>
      <trkpt lat="43.054440" lon="-4.220080">
        <ele>1155.030</ele>
        <time>2026-07-16T12:46:05.263Z</time>
      </trkpt>
      <trkpt lat="43.054480" lon="-4.220150">
        <ele>1156.275</ele>
        <time>2026-07-16T12:46:25.263Z</time>
      </trkpt>
      <trkpt lat="43.054510" lon="-4.220230">
        <ele>1156.858</ele>
        <time>2026-07-16T12:46:45.263Z</time>
      </trkpt>
      <trkpt lat="43.054560" lon="-4.220360">
        <ele>1158.053</ele>
        <time>2026-07-16T12:47:05.263Z</time>
      </trkpt>
      <trkpt lat="43.054600" lon="-4.220500">
        <ele>1158.333</ele>
        <time>2026-07-16T12:47:25.263Z</time>
      </trkpt>
      <trkpt lat="43.054640" lon="-4.220650">
        <ele>1158.837</ele>
        <time>2026-07-16T12:47:45.263Z</time>
      </trkpt>
      <trkpt lat="43.054690" lon="-4.220800">
        <ele>1159.849</ele>
        <time>2026-07-16T12:48:05.263Z</time>
      </trkpt>
      <trkpt lat="43.054740" lon="-4.220930">
        <ele>1160.813</ele>
        <time>2026-07-16T12:48:25.263Z</time>
      </trkpt>
      <trkpt lat="43.054790" lon="-4.221070">
        <ele>1161.609</ele>
        <time>2026-07-16T12:48:45.263Z</time>
      </trkpt>
      <trkpt lat="43.054840" lon="-4.221220">
        <ele>1162.275</ele>
        <time>2026-07-16T12:49:05.263Z</time>
      </trkpt>
      <trkpt lat="43.054890" lon="-4.221340">
        <ele>1162.920</ele>
        <time>2026-07-16T12:49:25.263Z</time>
      </trkpt>
      <trkpt lat="43.054960" lon="-4.221470">
        <ele>1164.293</ele>
        <time>2026-07-16T12:49:45.263Z</time>
      </trkpt>
      <trkpt lat="43.055030" lon="-4.221600">
        <ele>1165.171</ele>
        <time>2026-07-16T12:50:05.263Z</time>
      </trkpt>
      <trkpt lat="43.055110" lon="-4.221710">
        <ele>1166.248</ele>
        <time>2026-07-16T12:50:25.263Z</time>
      </trkpt>
      <trkpt lat="43.055190" lon="-4.221810">
        <ele>1167.163</ele>
        <time>2026-07-16T12:50:45.263Z</time>
      </trkpt>
      <trkpt lat="43.055280" lon="-4.221930">
        <ele>1167.436</ele>
        <time>2026-07-16T12:51:05.263Z</time>
      </trkpt>
      <trkpt lat="43.055370" lon="-4.222030">
        <ele>1168.871</ele>
        <time>2026-07-16T12:51:25.263Z</time>
      </trkpt>
      <trkpt lat="43.055440" lon="-4.222130">
        <ele>1169.511</ele>
        <time>2026-07-16T12:51:45.263Z</time>
      </trkpt>
      <trkpt lat="43.055520" lon="-4.222250">
        <ele>1170.336</ele>
        <time>2026-07-16T12:52:05.263Z</time>
      </trkpt>
      <trkpt lat="43.055590" lon="-4.222380">
        <ele>1171.317</ele>
        <time>2026-07-16T12:52:25.263Z</time>
      </trkpt>
      <trkpt lat="43.055650" lon="-4.222510">
        <ele>1172.318</ele>
        <time>2026-07-16T12:52:45.263Z</time>
      </trkpt>
      <trkpt lat="43.055700" lon="-4.222640">
        <ele>1173.009</ele>
        <time>2026-07-16T12:53:05.263Z</time>
      </trkpt>
      <trkpt lat="43.055780" lon="-4.222760">
        <ele>1174.945</ele>
        <time>2026-07-16T12:53:25.263Z</time>
      </trkpt>
      <trkpt lat="43.055830" lon="-4.222910">
        <ele>1175.460</ele>
        <time>2026-07-16T12:53:45.263Z</time>
      </trkpt>
      <trkpt lat="43.055880" lon="-4.223040">
        <ele>1176.213</ele>
        <time>2026-07-16T12:54:05.263Z</time>
      </trkpt>
      <trkpt lat="43.055930" lon="-4.223180">
        <ele>1177.131</ele>
        <time>2026-07-16T12:54:25.263Z</time>
      </trkpt>
      <trkpt lat="43.055990" lon="-4.223320">
        <ele>1178.348</ele>
        <time>2026-07-16T12:54:45.263Z</time>
      </trkpt>
      <trkpt lat="43.056020" lon="-4.223460">
        <ele>1178.883</ele>
        <time>2026-07-16T12:55:05.263Z</time>
      </trkpt>
      <trkpt lat="43.056050" lon="-4.223610">
        <ele>1179.426</ele>
        <time>2026-07-16T12:55:25.263Z</time>
      </trkpt>
      <trkpt lat="43.056050" lon="-4.223770">
        <ele>1181.151</ele>
        <time>2026-07-16T12:55:45.264Z</time>
      </trkpt>
      <trkpt lat="43.056030" lon="-4.223930">
        <ele>1182.061</ele>
        <time>2026-07-16T12:56:05.264Z</time>
      </trkpt>
      <trkpt lat="43.056000" lon="-4.224080">
        <ele>1182.515</ele>
        <time>2026-07-16T12:56:25.264Z</time>
      </trkpt>
      <trkpt lat="43.055990" lon="-4.224240">
        <ele>1183.365</ele>
        <time>2026-07-16T12:56:45.264Z</time>
      </trkpt>
      <trkpt lat="43.055990" lon="-4.224330">
        <ele>1183.511</ele>
        <time>2026-07-16T12:57:05.264Z</time>
      </trkpt>
      <trkpt lat="43.055990" lon="-4.224360">
        <ele>1183.509</ele>
        <time>2026-07-16T12:57:25.264Z</time>
      </trkpt>
      <trkpt lat="43.055990" lon="-4.224380">
        <ele>1183.573</ele>
        <time>2026-07-16T12:57:45.264Z</time>
      </trkpt>
      <trkpt lat="43.056000" lon="-4.224400">
        <ele>1183.968</ele>
        <time>2026-07-16T12:58:05.264Z</time>
      </trkpt>
      <trkpt lat="43.056000" lon="-4.224410">
        <ele>1184.021</ele>
        <time>2026-07-16T12:58:25.264Z</time>
      </trkpt>
      <trkpt lat="43.056030" lon="-4.224530">
        <ele>1184.589</ele>
        <time>2026-07-16T12:58:45.264Z</time>
      </trkpt>
      <trkpt lat="43.056080" lon="-4.224680">
        <ele>1185.266</ele>
        <time>2026-07-16T12:59:05.264Z</time>
      </trkpt>
      <trkpt lat="43.056110" lon="-4.224750">
        <ele>1185.711</ele>
        <time>2026-07-16T12:59:25.264Z</time>
      </trkpt>
      <trkpt lat="43.056140" lon="-4.224810">
        <ele>1186.114</ele>
        <time>2026-07-16T12:59:45.264Z</time>
      </trkpt>
      <trkpt lat="43.056200" lon="-4.224940">
        <ele>1186.769</ele>
        <time>2026-07-16T13:00:05.264Z</time>
      </trkpt>
      <trkpt lat="43.056270" lon="-4.225070">
        <ele>1186.999</ele>
        <time>2026-07-16T13:00:25.264Z</time>
      </trkpt>
      <trkpt lat="43.056350" lon="-4.225180">
        <ele>1188.076</ele>
        <time>2026-07-16T13:00:45.264Z</time>
      </trkpt>
      <trkpt lat="43.056440" lon="-4.225280">
        <ele>1189.490</ele>
        <time>2026-07-16T13:01:05.264Z</time>
      </trkpt>
      <trkpt lat="43.056490" lon="-4.225340">
        <ele>1189.719</ele>
        <time>2026-07-16T13:01:25.264Z</time>
      </trkpt>
      <trkpt lat="43.056520" lon="-4.225380">
        <ele>1189.709</ele>
        <time>2026-07-16T13:01:45.264Z</time>
      </trkpt>
      <trkpt lat="43.056560" lon="-4.225410">
        <ele>1190.479</ele>
        <time>2026-07-16T13:02:05.264Z</time>
      </trkpt>
      <trkpt lat="43.056630" lon="-4.225460">
        <ele>1191.694</ele>
        <time>2026-07-16T13:02:25.264Z</time>
      </trkpt>
      <trkpt lat="43.056720" lon="-4.225540">
        <ele>1192.417</ele>
        <time>2026-07-16T13:02:45.264Z</time>
      </trkpt>
      <trkpt lat="43.056910" lon="-4.225680">
        <ele>1193.985</ele>
        <time>2026-07-16T13:03:05.264Z</time>
      </trkpt>
      <trkpt lat="43.057010" lon="-4.225770">
        <ele>1195.232</ele>
        <time>2026-07-16T13:03:25.264Z</time>
      </trkpt>
      <trkpt lat="43.057090" lon="-4.225880">
        <ele>1196.227</ele>
        <time>2026-07-16T13:03:45.264Z</time>
      </trkpt>
      <trkpt lat="43.057150" lon="-4.226010">
        <ele>1197.120</ele>
        <time>2026-07-16T13:04:05.264Z</time>
      </trkpt>
      <trkpt lat="43.057220" lon="-4.226200">
        <ele>1198.355</ele>
        <time>2026-07-16T13:04:25.264Z</time>
      </trkpt>
      <trkpt lat="43.057260" lon="-4.226290">
        <ele>1199.125</ele>
        <time>2026-07-16T13:04:45.264Z</time>
      </trkpt>
      <trkpt lat="43.057310" lon="-4.226440">
        <ele>1199.782</ele>
        <time>2026-07-16T13:05:05.264Z</time>
      </trkpt>
      <trkpt lat="43.057360" lon="-4.226580">
        <ele>1199.943</ele>
        <time>2026-07-16T13:05:25.264Z</time>
      </trkpt>
      <trkpt lat="43.057430" lon="-4.226700">
        <ele>1200.617</ele>
        <time>2026-07-16T13:05:45.264Z</time>
      </trkpt>
      <trkpt lat="43.057500" lon="-4.226820">
        <ele>1201.309</ele>
        <time>2026-07-16T13:06:05.264Z</time>
      </trkpt>
      <trkpt lat="43.057580" lon="-4.226940">
        <ele>1202.180</ele>
        <time>2026-07-16T13:06:25.264Z</time>
      </trkpt>
      <trkpt lat="43.057720" lon="-4.227140">
        <ele>1204.195</ele>
        <time>2026-07-16T13:06:45.264Z</time>
      </trkpt>
      <trkpt lat="43.057740" lon="-4.227160">
        <ele>1204.558</ele>
        <time>2026-07-16T13:07:05.264Z</time>
      </trkpt>
      <trkpt lat="43.057820" lon="-4.227250">
        <ele>1205.486</ele>
        <time>2026-07-16T13:07:25.264Z</time>
      </trkpt>
      <trkpt lat="43.058020" lon="-4.227420">
        <ele>1207.383</ele>
        <time>2026-07-16T13:07:45.264Z</time>
      </trkpt>
      <trkpt lat="43.058120" lon="-4.227500">
        <ele>1208.698</ele>
        <time>2026-07-16T13:08:05.264Z</time>
      </trkpt>
      <trkpt lat="43.058230" lon="-4.227580">
        <ele>1209.621</ele>
        <time>2026-07-16T13:08:25.264Z</time>
      </trkpt>
      <trkpt lat="43.058320" lon="-4.227650">
        <ele>1210.466</ele>
        <time>2026-07-16T13:08:45.264Z</time>
      </trkpt>
      <trkpt lat="43.058410" lon="-4.227750">
        <ele>1210.956</ele>
        <time>2026-07-16T13:09:05.264Z</time>
      </trkpt>
      <trkpt lat="43.058500" lon="-4.227840">
        <ele>1211.353</ele>
        <time>2026-07-16T13:09:25.264Z</time>
      </trkpt>
      <trkpt lat="43.058760" lon="-4.228160">
        <ele>1214.604</ele>
        <time>2026-07-16T13:09:45.264Z</time>
      </trkpt>
      <trkpt lat="43.058880" lon="-4.228410">
        <ele>1216.214</ele>
        <time>2026-07-16T13:10:05.264Z</time>
      </trkpt>
      <trkpt lat="43.058930" lon="-4.228540">
        <ele>1216.709</ele>
        <time>2026-07-16T13:10:25.264Z</time>
      </trkpt>
      <trkpt lat="43.058960" lon="-4.228590">
        <ele>1217.757</ele>
        <time>2026-07-16T13:10:45.264Z</time>
      </trkpt>
      <trkpt lat="43.058970" lon="-4.228630">
        <ele>1217.932</ele>
        <time>2026-07-16T13:11:05.264Z</time>
      </trkpt>
      <trkpt lat="43.058980" lon="-4.228660">
        <ele>1218.565</ele>
        <time>2026-07-16T13:11:25.264Z</time>
      </trkpt>
      <trkpt lat="43.058990" lon="-4.228690">
        <ele>1219.113</ele>
        <time>2026-07-16T13:11:45.264Z</time>
      </trkpt>
      <trkpt lat="43.059000" lon="-4.228750">
        <ele>1219.680</ele>
        <time>2026-07-16T13:12:05.264Z</time>
      </trkpt>
      <trkpt lat="43.059000" lon="-4.228850">
        <ele>1219.525</ele>
        <time>2026-07-16T13:12:25.264Z</time>
      </trkpt>
      <trkpt lat="43.059020" lon="-4.228990">
        <ele>1219.958</ele>
        <time>2026-07-16T13:12:45.264Z</time>
      </trkpt>
      <trkpt lat="43.059050" lon="-4.229150">
        <ele>1220.113</ele>
        <time>2026-07-16T13:13:05.264Z</time>
      </trkpt>
      <trkpt lat="43.059080" lon="-4.229240">
        <ele>1220.533</ele>
        <time>2026-07-16T13:13:25.264Z</time>
      </trkpt>
      <trkpt lat="43.059110" lon="-4.229290">
        <ele>1221.194</ele>
        <time>2026-07-16T13:13:45.264Z</time>
      </trkpt>
      <trkpt lat="43.059150" lon="-4.229360">
        <ele>1221.757</ele>
        <time>2026-07-16T13:14:05.264Z</time>
      </trkpt>
      <trkpt lat="43.059180" lon="-4.229400">
        <ele>1222.022</ele>
        <time>2026-07-16T13:14:25.264Z</time>
      </trkpt>
      <trkpt lat="43.059290" lon="-4.229480">
        <ele>1223.309</ele>
        <time>2026-07-16T13:14:45.264Z</time>
      </trkpt>
      <trkpt lat="43.059380" lon="-4.229550">
        <ele>1223.661</ele>
        <time>2026-07-16T13:15:05.264Z</time>
      </trkpt>
      <trkpt lat="43.059730" lon="-4.229750">
        <ele>1226.266</ele>
        <time>2026-07-16T13:15:25.264Z</time>
      </trkpt>
      <trkpt lat="43.059830" lon="-4.229810">
        <ele>1226.929</ele>
        <time>2026-07-16T13:15:45.264Z</time>
      </trkpt>
      <trkpt lat="43.059890" lon="-4.229830">
        <ele>1228.147</ele>
        <time>2026-07-16T13:16:05.264Z</time>
      </trkpt>
      <trkpt lat="43.059950" lon="-4.229870">
        <ele>1228.744</ele>
        <time>2026-07-16T13:16:25.264Z</time>
      </trkpt>
      <trkpt lat="43.059990" lon="-4.229890">
        <ele>1229.599</ele>
        <time>2026-07-16T13:16:45.264Z</time>
      </trkpt>
      <trkpt lat="43.060050" lon="-4.229940">
        <ele>1230.072</ele>
        <time>2026-07-16T13:17:05.264Z</time>
      </trkpt>
      <trkpt lat="43.060140" lon="-4.230020">
        <ele>1230.687</ele>
        <time>2026-07-16T13:17:25.264Z</time>
      </trkpt>
      <trkpt lat="43.060230" lon="-4.230120">
        <ele>1231.247</ele>
        <time>2026-07-16T13:17:45.264Z</time>
      </trkpt>
      <trkpt lat="43.060300" lon="-4.230240">
        <ele>1231.792</ele>
        <time>2026-07-16T13:18:05.264Z</time>
      </trkpt>
      <trkpt lat="43.060370" lon="-4.230370">
        <ele>1232.773</ele>
        <time>2026-07-16T13:18:25.264Z</time>
      </trkpt>
      <trkpt lat="43.060430" lon="-4.230510">
        <ele>1233.520</ele>
        <time>2026-07-16T13:18:45.264Z</time>
      </trkpt>
      <trkpt lat="43.060500" lon="-4.230630">
        <ele>1235.109</ele>
        <time>2026-07-16T13:19:05.264Z</time>
      </trkpt>
      <trkpt lat="43.060570" lon="-4.230770">
        <ele>1235.471</ele>
        <time>2026-07-16T13:19:25.264Z</time>
      </trkpt>
      <trkpt lat="43.060640" lon="-4.230890">
        <ele>1236.366</ele>
        <time>2026-07-16T13:19:45.264Z</time>
      </trkpt>
      <trkpt lat="43.060710" lon="-4.231010">
        <ele>1236.779</ele>
        <time>2026-07-16T13:20:05.264Z</time>
      </trkpt>
      <trkpt lat="43.060790" lon="-4.231120">
        <ele>1237.627</ele>
        <time>2026-07-16T13:20:25.264Z</time>
      </trkpt>
      <trkpt lat="43.060870" lon="-4.231240">
        <ele>1238.094</ele>
        <time>2026-07-16T13:20:45.264Z</time>
      </trkpt>
      <trkpt lat="43.060960" lon="-4.231350">
        <ele>1238.749</ele>
        <time>2026-07-16T13:21:05.264Z</time>
      </trkpt>
      <trkpt lat="43.061060" lon="-4.231440">
        <ele>1240.482</ele>
        <time>2026-07-16T13:21:25.264Z</time>
      </trkpt>
      <trkpt lat="43.061150" lon="-4.231540">
        <ele>1241.257</ele>
        <time>2026-07-16T13:21:45.264Z</time>
      </trkpt>
      <trkpt lat="43.061240" lon="-4.231640">
        <ele>1241.947</ele>
        <time>2026-07-16T13:22:05.264Z</time>
      </trkpt>
      <trkpt lat="43.061340" lon="-4.231730">
        <ele>1243.452</ele>
        <time>2026-07-16T13:22:25.264Z</time>
      </trkpt>
      <trkpt lat="43.061440" lon="-4.231810">
        <ele>1244.953</ele>
        <time>2026-07-16T13:22:45.264Z</time>
      </trkpt>
      <trkpt lat="43.061550" lon="-4.231900">
        <ele>1245.908</ele>
        <time>2026-07-16T13:23:05.264Z</time>
      </trkpt>
      <trkpt lat="43.061760" lon="-4.232020">
        <ele>1248.009</ele>
        <time>2026-07-16T13:23:25.264Z</time>
      </trkpt>
      <trkpt lat="43.061890" lon="-4.232070">
        <ele>1248.937</ele>
        <time>2026-07-16T13:23:45.264Z</time>
      </trkpt>
      <trkpt lat="43.061990" lon="-4.232100">
        <ele>1249.612</ele>
        <time>2026-07-16T13:24:05.264Z</time>
      </trkpt>
      <trkpt lat="43.062100" lon="-4.232140">
        <ele>1249.855</ele>
        <time>2026-07-16T13:24:25.264Z</time>
      </trkpt>
      <trkpt lat="43.062210" lon="-4.232170">
        <ele>1250.293</ele>
        <time>2026-07-16T13:24:45.264Z</time>
      </trkpt>
      <trkpt lat="43.062440" lon="-4.232220">
        <ele>1251.410</ele>
        <time>2026-07-16T13:25:05.264Z</time>
      </trkpt>
      <trkpt lat="43.062560" lon="-4.232240">
        <ele>1252.665</ele>
        <time>2026-07-16T13:25:25.264Z</time>
      </trkpt>
      <trkpt lat="43.062680" lon="-4.232260">
        <ele>1254.058</ele>
        <time>2026-07-16T13:25:45.264Z</time>
      </trkpt>
      <trkpt lat="43.062780" lon="-4.232290">
        <ele>1255.043</ele>
        <time>2026-07-16T13:26:05.264Z</time>
      </trkpt>
      <trkpt lat="43.062890" lon="-4.232320">
        <ele>1255.833</ele>
        <time>2026-07-16T13:26:25.264Z</time>
      </trkpt>
      <trkpt lat="43.063020" lon="-4.232340">
        <ele>1256.973</ele>
        <time>2026-07-16T13:26:45.264Z</time>
      </trkpt>
      <trkpt lat="43.063130" lon="-4.232370">
        <ele>1257.385</ele>
        <time>2026-07-16T13:27:05.264Z</time>
      </trkpt>
      <trkpt lat="43.063360" lon="-4.232420">
        <ele>1257.913</ele>
        <time>2026-07-16T13:27:25.264Z</time>
      </trkpt>
      <trkpt lat="43.063470" lon="-4.232450">
        <ele>1257.609</ele>
        <time>2026-07-16T13:27:45.264Z</time>
      </trkpt>
      <trkpt lat="43.063590" lon="-4.232480">
        <ele>1257.359</ele>
        <time>2026-07-16T13:28:05.264Z</time>
      </trkpt>
      <trkpt lat="43.063700" lon="-4.232500">
        <ele>1257.084</ele>
        <time>2026-07-16T13:28:25.264Z</time>
      </trkpt>
      <trkpt lat="43.063810" lon="-4.232540">
        <ele>1256.817</ele>
        <time>2026-07-16T13:28:45.264Z</time>
      </trkpt>
      <trkpt lat="43.063930" lon="-4.232570">
        <ele>1256.645</ele>
        <time>2026-07-16T13:29:05.264Z</time>
      </trkpt>
      <trkpt lat="43.064020" lon="-4.232580">
        <ele>1256.282</ele>
        <time>2026-07-16T13:29:25.264Z</time>
      </trkpt>
    </trkseg>
  </trk></gpx>