<?xml version="1.0" encoding="UTF-8"?>
<gpx creator="Wikiloc - https://www.wikiloc.com" version="1.1" xmlns="http://www.topografix.com/GPX/1/1" xmlns:xsi="http://www.w3.org/2001/XMLSchema-instance" xsi:schemaLocation="http://www.topografix.com/GPX/1/1 http://www.topografix.com/GPX/1/1/gpx.xsd">
  <metadata>
    <name>Wikiloc - PUERTO DE LA RAGUA (La Calahorra)</name>
    <link href="https://www.wikiloc.com/cycling-trails/puerto-de-la-ragua-la-calahorra-256874418">
      <text>PUERTO DE LA RAGUA (La Calahorra) - Wikiloc on Wikiloc</text>
    </link>
    <time>2026-07-16T10:03:24.623Z</time>
  </metadata>
  <trk>
    <name>PUERTO DE LA RAGUA (La Calahorra) - Wikiloc</name>
    <cmt></cmt>
    <desc></desc>
    <trkseg>
      <trkpt lat="37.182750" lon="-3.059950">
        <ele>1195.182</ele>
        <time>2026-07-16T10:03:24.621Z</time>
      </trkpt>
      <trkpt lat="37.182650" lon="-3.059850">
        <ele>1195.343</ele>
        <time>2026-07-16T10:03:44.621Z</time>
      </trkpt>
      <trkpt lat="37.181960" lon="-3.059240">
        <ele>1201.317</ele>
        <time>2026-07-16T10:04:04.621Z</time>
      </trkpt>
      <trkpt lat="37.181480" lon="-3.058790">
        <ele>1205.709</ele>
        <time>2026-07-16T10:04:24.621Z</time>
      </trkpt>
      <trkpt lat="37.181300" lon="-3.058670">
        <ele>1207.060</ele>
        <time>2026-07-16T10:04:44.621Z</time>
      </trkpt>
      <trkpt lat="37.181110" lon="-3.058600">
        <ele>1207.293</ele>
        <time>2026-07-16T10:05:04.621Z</time>
      </trkpt>
      <trkpt lat="37.180520" lon="-3.058380">
        <ele>1208.724</ele>
        <time>2026-07-16T10:05:24.621Z</time>
      </trkpt>
      <trkpt lat="37.180150" lon="-3.058240">
        <ele>1211.056</ele>
        <time>2026-07-16T10:05:44.621Z</time>
      </trkpt>
      <trkpt lat="37.179320" lon="-3.057910">
        <ele>1217.385</ele>
        <time>2026-07-16T10:06:04.621Z</time>
      </trkpt>
      <trkpt lat="37.179140" lon="-3.057730">
        <ele>1218.252</ele>
        <time>2026-07-16T10:06:24.621Z</time>
      </trkpt>
      <trkpt lat="37.177950" lon="-3.056130">
        <ele>1225.342</ele>
        <time>2026-07-16T10:06:44.621Z</time>
      </trkpt>
      <trkpt lat="37.177220" lon="-3.055160">
        <ele>1227.829</ele>
        <time>2026-07-16T10:07:04.621Z</time>
      </trkpt>
      <trkpt lat="37.177120" lon="-3.055010">
        <ele>1228.976</ele>
        <time>2026-07-16T10:07:24.621Z</time>
      </trkpt>
      <trkpt lat="37.176940" lon="-3.054650">
        <ele>1233.372</ele>
        <time>2026-07-16T10:07:44.621Z</time>
      </trkpt>
      <trkpt lat="37.176660" lon="-3.053840">
        <ele>1238.213</ele>
        <time>2026-07-16T10:08:04.621Z</time>
      </trkpt>
      <trkpt lat="37.176590" lon="-3.053610">
        <ele>1238.614</ele>
        <time>2026-07-16T10:08:24.621Z</time>
      </trkpt>
      <trkpt lat="37.176560" lon="-3.053410">
        <ele>1239.809</ele>
        <time>2026-07-16T10:08:44.621Z</time>
      </trkpt>
      <trkpt lat="37.176550" lon="-3.053240">
        <ele>1240.749</ele>
        <time>2026-07-16T10:09:04.621Z</time>
      </trkpt>
      <trkpt lat="37.176550" lon="-3.052980">
        <ele>1241.832</ele>
        <time>2026-07-16T10:09:24.621Z</time>
      </trkpt>
      <trkpt lat="37.176550" lon="-3.052550">
        <ele>1245.373</ele>
        <time>2026-07-16T10:09:44.621Z</time>
      </trkpt>
      <trkpt lat="37.176520" lon="-3.051930">
        <ele>1248.015</ele>
        <time>2026-07-16T10:10:04.621Z</time>
      </trkpt>
      <trkpt lat="37.176390" lon="-3.051010">
        <ele>1249.064</ele>
        <time>2026-07-16T10:10:24.621Z</time>
      </trkpt>
      <trkpt lat="37.176200" lon="-3.050180">
        <ele>1250.781</ele>
        <time>2026-07-16T10:10:44.621Z</time>
      </trkpt>
      <trkpt lat="37.176030" lon="-3.049640">
        <ele>1252.251</ele>
        <time>2026-07-16T10:11:04.621Z</time>
      </trkpt>
      <trkpt lat="37.175860" lon="-3.049380">
        <ele>1255.618</ele>
        <time>2026-07-16T10:11:24.621Z</time>
      </trkpt>
      <trkpt lat="37.175530" lon="-3.049020">
        <ele>1259.175</ele>
        <time>2026-07-16T10:11:44.621Z</time>
      </trkpt>
      <trkpt lat="37.175390" lon="-3.048820">
        <ele>1260.681</ele>
        <time>2026-07-16T10:12:04.621Z</time>
      </trkpt>
      <trkpt lat="37.175200" lon="-3.048350">
        <ele>1262.661</ele>
        <time>2026-07-16T10:12:24.621Z</time>
      </trkpt>
      <trkpt lat="37.175110" lon="-3.048100">
        <ele>1263.917</ele>
        <time>2026-07-16T10:12:44.621Z</time>
      </trkpt>
      <trkpt lat="37.174960" lon="-3.047680">
        <ele>1263.309</ele>
        <time>2026-07-16T10:13:04.621Z</time>
      </trkpt>
      <trkpt lat="37.174840" lon="-3.047400">
        <ele>1263.350</ele>
        <time>2026-07-16T10:13:24.621Z</time>
      </trkpt>
      <trkpt lat="37.174750" lon="-3.047320">
        <ele>1263.073</ele>
        <time>2026-07-16T10:13:44.621Z</time>
      </trkpt>
      <trkpt lat="37.174690" lon="-3.047290">
        <ele>1263.624</ele>
        <time>2026-07-16T10:14:04.621Z</time>
      </trkpt>
      <trkpt lat="37.174630" lon="-3.047290">
        <ele>1264.736</ele>
        <time>2026-07-16T10:14:24.621Z</time>
      </trkpt>
      <trkpt lat="37.174570" lon="-3.047310">
        <ele>1265.785</ele>
        <time>2026-07-16T10:14:44.621Z</time>
      </trkpt>
      <trkpt lat="37.174480" lon="-3.047390">
        <ele>1267.422</ele>
        <time>2026-07-16T10:15:04.621Z</time>
      </trkpt>
      <trkpt lat="37.174450" lon="-3.047440">
        <ele>1267.952</ele>
        <time>2026-07-16T10:15:24.621Z</time>
      </trkpt>
      <trkpt lat="37.174190" lon="-3.048510">
        <ele>1275.519</ele>
        <time>2026-07-16T10:15:44.621Z</time>
      </trkpt>
      <trkpt lat="37.174090" lon="-3.048820">
        <ele>1277.886</ele>
        <time>2026-07-16T10:16:04.621Z</time>
      </trkpt>
      <trkpt lat="37.174010" lon="-3.048920">
        <ele>1279.387</ele>
        <time>2026-07-16T10:16:24.621Z</time>
      </trkpt>
      <trkpt lat="37.173830" lon="-3.048970">
        <ele>1281.842</ele>
        <time>2026-07-16T10:16:44.621Z</time>
      </trkpt>
      <trkpt lat="37.172580" lon="-3.049000">
        <ele>1290.026</ele>
        <time>2026-07-16T10:17:04.621Z</time>
      </trkpt>
      <trkpt lat="37.172350" lon="-3.049010">
        <ele>1290.109</ele>
        <time>2026-07-16T10:17:24.621Z</time>
      </trkpt>
      <trkpt lat="37.172220" lon="-3.048970">
        <ele>1291.350</ele>
        <time>2026-07-16T10:17:44.621Z</time>
      </trkpt>
      <trkpt lat="37.172070" lon="-3.048880">
        <ele>1293.243</ele>
        <time>2026-07-16T10:18:04.621Z</time>
      </trkpt>
      <trkpt lat="37.171740" lon="-3.048620">
        <ele>1298.674</ele>
        <time>2026-07-16T10:18:24.621Z</time>
      </trkpt>
      <trkpt lat="37.171600" lon="-3.048550">
        <ele>1301.856</ele>
        <time>2026-07-16T10:18:44.621Z</time>
      </trkpt>
      <trkpt lat="37.171510" lon="-3.048550">
        <ele>1303.285</ele>
        <time>2026-07-16T10:19:04.621Z</time>
      </trkpt>
      <trkpt lat="37.171410" lon="-3.048580">
        <ele>1304.262</ele>
        <time>2026-07-16T10:19:24.621Z</time>
      </trkpt>
      <trkpt lat="37.171290" lon="-3.048700">
        <ele>1306.292</ele>
        <time>2026-07-16T10:19:44.621Z</time>
      </trkpt>
      <trkpt lat="37.171260" lon="-3.048780">
        <ele>1306.519</ele>
        <time>2026-07-16T10:20:04.621Z</time>
      </trkpt>
      <trkpt lat="37.171260" lon="-3.048980">
        <ele>1305.216</ele>
        <time>2026-07-16T10:20:24.621Z</time>
      </trkpt>
      <trkpt lat="37.171270" lon="-3.049110">
        <ele>1304.221</ele>
        <time>2026-07-16T10:20:44.621Z</time>
      </trkpt>
      <trkpt lat="37.171250" lon="-3.049260">
        <ele>1303.841</ele>
        <time>2026-07-16T10:21:04.621Z</time>
      </trkpt>
      <trkpt lat="37.171150" lon="-3.049430">
        <ele>1305.805</ele>
        <time>2026-07-16T10:21:24.621Z</time>
      </trkpt>
      <trkpt lat="37.170790" lon="-3.049710">
        <ele>1309.309</ele>
        <time>2026-07-16T10:21:44.621Z</time>
      </trkpt>
      <trkpt lat="37.170480" lon="-3.049860">
        <ele>1313.564</ele>
        <time>2026-07-16T10:22:04.621Z</time>
      </trkpt>
      <trkpt lat="37.170160" lon="-3.049910">
        <ele>1318.917</ele>
        <time>2026-07-16T10:22:24.621Z</time>
      </trkpt>
      <trkpt lat="37.170050" lon="-3.049910">
        <ele>1321.048</ele>
        <time>2026-07-16T10:22:44.621Z</time>
      </trkpt>
      <trkpt lat="37.170030" lon="-3.049920">
        <ele>1321.310</ele>
        <time>2026-07-16T10:23:04.621Z</time>
      </trkpt>
      <trkpt lat="37.170010" lon="-3.049930">
        <ele>1321.639</ele>
        <time>2026-07-16T10:23:24.621Z</time>
      </trkpt>
      <trkpt lat="37.169990" lon="-3.049940">
        <ele>1321.966</ele>
        <time>2026-07-16T10:23:44.621Z</time>
      </trkpt>
      <trkpt lat="37.169970" lon="-3.049960">
        <ele>1322.396</ele>
        <time>2026-07-16T10:24:04.621Z</time>
      </trkpt>
      <trkpt lat="37.169960" lon="-3.049970">
        <ele>1322.583</ele>
        <time>2026-07-16T10:24:24.621Z</time>
      </trkpt>
      <trkpt lat="37.169960" lon="-3.049990">
        <ele>1322.390</ele>
        <time>2026-07-16T10:24:44.621Z</time>
      </trkpt>
      <trkpt lat="37.169950" lon="-3.050010">
        <ele>1322.648</ele>
        <time>2026-07-16T10:25:04.621Z</time>
      </trkpt>
      <trkpt lat="37.169940" lon="-3.050030">
        <ele>1323.161</ele>
        <time>2026-07-16T10:25:24.621Z</time>
      </trkpt>
      <trkpt lat="37.169940" lon="-3.050060">
        <ele>1323.417</ele>
        <time>2026-07-16T10:25:44.621Z</time>
      </trkpt>
      <trkpt lat="37.169940" lon="-3.050080">
        <ele>1323.709</ele>
        <time>2026-07-16T10:26:04.621Z</time>
      </trkpt>
      <trkpt lat="37.169940" lon="-3.050100">
        <ele>1323.976</ele>
        <time>2026-07-16T10:26:24.621Z</time>
      </trkpt>
      <trkpt lat="37.169950" lon="-3.050130">
        <ele>1323.919</ele>
        <time>2026-07-16T10:26:44.621Z</time>
      </trkpt>
      <trkpt lat="37.169950" lon="-3.050150">
        <ele>1324.270</ele>
        <time>2026-07-16T10:27:04.621Z</time>
      </trkpt>
      <trkpt lat="37.169960" lon="-3.050170">
        <ele>1324.152</ele>
        <time>2026-07-16T10:27:24.621Z</time>
      </trkpt>
      <trkpt lat="37.169970" lon="-3.050190">
        <ele>1324.011</ele>
        <time>2026-07-16T10:27:44.621Z</time>
      </trkpt>
      <trkpt lat="37.169980" lon="-3.050210">
        <ele>1323.948</ele>
        <time>2026-07-16T10:28:04.621Z</time>
      </trkpt>
      <trkpt lat="37.170140" lon="-3.050440">
        <ele>1321.288</ele>
        <time>2026-07-16T10:28:24.621Z</time>
      </trkpt>
      <trkpt lat="37.170340" lon="-3.050750">
        <ele>1320.185</ele>
        <time>2026-07-16T10:28:44.621Z</time>
      </trkpt>
      <trkpt lat="37.170510" lon="-3.050910">
        <ele>1320.642</ele>
        <time>2026-07-16T10:29:04.621Z</time>
      </trkpt>
      <trkpt lat="37.170870" lon="-3.051150">
        <ele>1322.792</ele>
        <time>2026-07-16T10:29:24.621Z</time>
      </trkpt>
      <trkpt lat="37.171070" lon="-3.051320">
        <ele>1325.073</ele>
        <time>2026-07-16T10:29:44.621Z</time>
      </trkpt>
      <trkpt lat="37.171140" lon="-3.051430">
        <ele>1325.720</ele>
        <time>2026-07-16T10:30:04.621Z</time>
      </trkpt>
      <trkpt lat="37.171180" lon="-3.051520">
        <ele>1325.509</ele>
        <time>2026-07-16T10:30:24.621Z</time>
      </trkpt>
      <trkpt lat="37.171190" lon="-3.051600">
        <ele>1325.681</ele>
        <time>2026-07-16T10:30:44.621Z</time>
      </trkpt>
      <trkpt lat="37.171140" lon="-3.051800">
        <ele>1325.184</ele>
        <time>2026-07-16T10:31:04.621Z</time>
      </trkpt>
      <trkpt lat="37.171080" lon="-3.051880">
        <ele>1324.925</ele>
        <time>2026-07-16T10:31:24.621Z</time>
      </trkpt>
      <trkpt lat="37.171060" lon="-3.051900">
        <ele>1324.847</ele>
        <time>2026-07-16T10:31:44.621Z</time>
      </trkpt>
      <trkpt lat="37.170820" lon="-3.051950">
        <ele>1326.156</ele>
        <time>2026-07-16T10:32:04.621Z</time>
      </trkpt>
      <trkpt lat="37.170640" lon="-3.051940">
        <ele>1328.813</ele>
        <time>2026-07-16T10:32:24.621Z</time>
      </trkpt>
      <trkpt lat="37.170510" lon="-3.051880">
        <ele>1331.283</ele>
        <time>2026-07-16T10:32:44.621Z</time>
      </trkpt>
      <trkpt lat="37.170430" lon="-3.051820">
        <ele>1332.930</ele>
        <time>2026-07-16T10:33:04.621Z</time>
      </trkpt>
      <trkpt lat="37.170270" lon="-3.051630">
        <ele>1336.977</ele>
        <time>2026-07-16T10:33:24.621Z</time>
      </trkpt>
      <trkpt lat="37.170040" lon="-3.051310">
        <ele>1335.922</ele>
        <time>2026-07-16T10:33:44.621Z</time>
      </trkpt>
      <trkpt lat="37.169930" lon="-3.051130">
        <ele>1335.462</ele>
        <time>2026-07-16T10:34:04.621Z</time>
      </trkpt>
      <trkpt lat="37.169820" lon="-3.051040">
        <ele>1336.708</ele>
        <time>2026-07-16T10:34:24.621Z</time>
      </trkpt>
      <trkpt lat="37.169510" lon="-3.050820">
        <ele>1341.109</ele>
        <time>2026-07-16T10:34:44.621Z</time>
      </trkpt>
      <trkpt lat="37.169410" lon="-3.050730">
        <ele>1343.114</ele>
        <time>2026-07-16T10:35:04.621Z</time>
      </trkpt>
      <trkpt lat="37.169350" lon="-3.050640">
        <ele>1345.167</ele>
        <time>2026-07-16T10:35:24.621Z</time>
      </trkpt>
      <trkpt lat="37.169210" lon="-3.050180">
        <ele>1351.858</ele>
        <time>2026-07-16T10:35:44.621Z</time>
      </trkpt>
      <trkpt lat="37.169110" lon="-3.049940">
        <ele>1354.110</ele>
        <time>2026-07-16T10:36:04.621Z</time>
      </trkpt>
      <trkpt lat="37.169010" lon="-3.049710">
        <ele>1356.239</ele>
        <time>2026-07-16T10:36:24.621Z</time>
      </trkpt>
      <trkpt lat="37.169000" lon="-3.049610">
        <ele>1357.266</ele>
        <time>2026-07-16T10:36:44.621Z</time>
      </trkpt>
      <trkpt lat="37.169000" lon="-3.049540">
        <ele>1357.746</ele>
        <time>2026-07-16T10:37:04.621Z</time>
      </trkpt>
      <trkpt lat="37.169080" lon="-3.049390">
        <ele>1356.553</ele>
        <time>2026-07-16T10:37:24.621Z</time>
      </trkpt>
      <trkpt lat="37.169380" lon="-3.048660">
        <ele>1357.510</ele>
        <time>2026-07-16T10:37:44.621Z</time>
      </trkpt>
      <trkpt lat="37.169400" lon="-3.048360">
        <ele>1359.413</ele>
        <time>2026-07-16T10:38:04.621Z</time>
      </trkpt>
      <trkpt lat="37.169390" lon="-3.048270">
        <ele>1360.243</ele>
        <time>2026-07-16T10:38:24.621Z</time>
      </trkpt>
      <trkpt lat="37.169370" lon="-3.048220">
        <ele>1360.707</ele>
        <time>2026-07-16T10:38:44.621Z</time>
      </trkpt>
      <trkpt lat="37.169350" lon="-3.048170">
        <ele>1361.109</ele>
        <time>2026-07-16T10:39:04.621Z</time>
      </trkpt>
      <trkpt lat="37.169330" lon="-3.048130">
        <ele>1361.543</ele>
        <time>2026-07-16T10:39:24.621Z</time>
      </trkpt>
      <trkpt lat="37.169270" lon="-3.048080">
        <ele>1362.246</ele>
        <time>2026-07-16T10:39:44.621Z</time>
      </trkpt>
      <trkpt lat="37.169220" lon="-3.048060">
        <ele>1362.647</ele>
        <time>2026-07-16T10:40:04.621Z</time>
      </trkpt>
      <trkpt lat="37.169180" lon="-3.048050">
        <ele>1362.989</ele>
        <time>2026-07-16T10:40:24.621Z</time>
      </trkpt>
      <trkpt lat="37.169140" lon="-3.048050">
        <ele>1363.028</ele>
        <time>2026-07-16T10:40:44.621Z</time>
      </trkpt>
      <trkpt lat="37.169050" lon="-3.048080">
        <ele>1363.535</ele>
        <time>2026-07-16T10:41:04.621Z</time>
      </trkpt>
      <trkpt lat="37.168930" lon="-3.048160">
        <ele>1364.895</ele>
        <time>2026-07-16T10:41:24.621Z</time>
      </trkpt>
      <trkpt lat="37.168760" lon="-3.048310">
        <ele>1366.222</ele>
        <time>2026-07-16T10:41:44.621Z</time>
      </trkpt>
      <trkpt lat="37.168670" lon="-3.048440">
        <ele>1367.769</ele>
        <time>2026-07-16T10:42:04.621Z</time>
      </trkpt>
      <trkpt lat="37.168630" lon="-3.048550">
        <ele>1369.125</ele>
        <time>2026-07-16T10:42:24.621Z</time>
      </trkpt>
      <trkpt lat="37.168540" lon="-3.048960">
        <ele>1371.226</ele>
        <time>2026-07-16T10:42:44.621Z</time>
      </trkpt>
      <trkpt lat="37.168510" lon="-3.049030">
        <ele>1371.608</ele>
        <time>2026-07-16T10:43:04.621Z</time>
      </trkpt>
      <trkpt lat="37.168440" lon="-3.049130">
        <ele>1372.609</ele>
        <time>2026-07-16T10:43:24.621Z</time>
      </trkpt>
      <trkpt lat="37.167980" lon="-3.049520">
        <ele>1377.324</ele>
        <time>2026-07-16T10:43:44.621Z</time>
      </trkpt>
      <trkpt lat="37.167910" lon="-3.049570">
        <ele>1377.157</ele>
        <time>2026-07-16T10:44:04.621Z</time>
      </trkpt>
      <trkpt lat="37.167840" lon="-3.049580">
        <ele>1377.328</ele>
        <time>2026-07-16T10:44:24.621Z</time>
      </trkpt>
      <trkpt lat="37.167710" lon="-3.049570">
        <ele>1378.580</ele>
        <time>2026-07-16T10:44:44.621Z</time>
      </trkpt>
      <trkpt lat="37.167570" lon="-3.049540">
        <ele>1380.959</ele>
        <time>2026-07-16T10:45:04.621Z</time>
      </trkpt>
      <trkpt lat="37.167350" lon="-3.049280">
        <ele>1383.456</ele>
        <time>2026-07-16T10:45:24.621Z</time>
      </trkpt>
      <trkpt lat="37.167100" lon="-3.048970">
        <ele>1383.296</ele>
        <time>2026-07-16T10:45:44.621Z</time>
      </trkpt>
      <trkpt lat="37.166900" lon="-3.048790">
        <ele>1386.253</ele>
        <time>2026-07-16T10:46:04.621Z</time>
      </trkpt>
      <trkpt lat="37.166690" lon="-3.048680">
        <ele>1392.850</ele>
        <time>2026-07-16T10:46:24.621Z</time>
      </trkpt>
      <trkpt lat="37.166400" lon="-3.048550">
        <ele>1399.472</ele>
        <time>2026-07-16T10:46:44.621Z</time>
      </trkpt>
      <trkpt lat="37.166190" lon="-3.048340">
        <ele>1403.013</ele>
        <time>2026-07-16T10:47:04.621Z</time>
      </trkpt>
      <trkpt lat="37.166120" lon="-3.048220">
        <ele>1404.414</ele>
        <time>2026-07-16T10:47:24.621Z</time>
      </trkpt>
      <trkpt lat="37.166070" lon="-3.048020">
        <ele>1404.009</ele>
        <time>2026-07-16T10:47:44.621Z</time>
      </trkpt>
      <trkpt lat="37.165930" lon="-3.047080">
        <ele>1399.779</ele>
        <time>2026-07-16T10:48:04.621Z</time>
      </trkpt>
      <trkpt lat="37.165890" lon="-3.046960">
        <ele>1400.492</ele>
        <time>2026-07-16T10:48:24.621Z</time>
      </trkpt>
      <trkpt lat="37.165830" lon="-3.046900">
        <ele>1402.313</ele>
        <time>2026-07-16T10:48:44.621Z</time>
      </trkpt>
      <trkpt lat="37.165690" lon="-3.046760">
        <ele>1407.745</ele>
        <time>2026-07-16T10:49:04.621Z</time>
      </trkpt>
      <trkpt lat="37.165670" lon="-3.046730">
        <ele>1408.374</ele>
        <time>2026-07-16T10:49:24.621Z</time>
      </trkpt>
      <trkpt lat="37.165650" lon="-3.046650">
        <ele>1409.031</ele>
        <time>2026-07-16T10:49:44.621Z</time>
      </trkpt>
      <trkpt lat="37.165650" lon="-3.046540">
        <ele>1409.681</ele>
        <time>2026-07-16T10:50:04.621Z</time>
      </trkpt>
      <trkpt lat="37.165750" lon="-3.046170">
        <ele>1408.098</ele>
        <time>2026-07-16T10:50:24.621Z</time>
      </trkpt>
      <trkpt lat="37.165770" lon="-3.045920">
        <ele>1407.325</ele>
        <time>2026-07-16T10:50:44.621Z</time>
      </trkpt>
      <trkpt lat="37.165740" lon="-3.045670">
        <ele>1407.145</ele>
        <time>2026-07-16T10:51:04.621Z</time>
      </trkpt>
      <trkpt lat="37.165710" lon="-3.045560">
        <ele>1407.247</ele>
        <time>2026-07-16T10:51:24.621Z</time>
      </trkpt>
      <trkpt lat="37.165680" lon="-3.045480">
        <ele>1407.111</ele>
        <time>2026-07-16T10:51:44.621Z</time>
      </trkpt>
      <trkpt lat="37.165650" lon="-3.045430">
        <ele>1407.209</ele>
        <time>2026-07-16T10:52:04.621Z</time>
      </trkpt>
      <trkpt lat="37.165610" lon="-3.045390">
        <ele>1407.766</ele>
        <time>2026-07-16T10:52:24.621Z</time>
      </trkpt>
      <trkpt lat="37.165560" lon="-3.045360">
        <ele>1408.579</ele>
        <time>2026-07-16T10:52:44.621Z</time>
      </trkpt>
      <trkpt lat="37.165510" lon="-3.045350">
        <ele>1408.760</ele>
        <time>2026-07-16T10:53:04.621Z</time>
      </trkpt>
      <trkpt lat="37.165470" lon="-3.045350">
        <ele>1408.922</ele>
        <time>2026-07-16T10:53:24.621Z</time>
      </trkpt>
      <trkpt lat="37.165410" lon="-3.045380">
        <ele>1409.741</ele>
        <time>2026-07-16T10:53:44.621Z</time>
      </trkpt>
      <trkpt lat="37.165360" lon="-3.045410">
        <ele>1410.678</ele>
        <time>2026-07-16T10:54:04.621Z</time>
      </trkpt>
      <trkpt lat="37.165320" lon="-3.045460">
        <ele>1412.188</ele>
        <time>2026-07-16T10:54:24.621Z</time>
      </trkpt>
      <trkpt lat="37.165280" lon="-3.045520">
        <ele>1414.145</ele>
        <time>2026-07-16T10:54:44.621Z</time>
      </trkpt>
      <trkpt lat="37.165260" lon="-3.045580">
        <ele>1415.672</ele>
        <time>2026-07-16T10:55:04.621Z</time>
      </trkpt>
      <trkpt lat="37.165250" lon="-3.045650">
        <ele>1416.893</ele>
        <time>2026-07-16T10:55:24.621Z</time>
      </trkpt>
      <trkpt lat="37.165240" lon="-3.045700">
        <ele>1417.865</ele>
        <time>2026-07-16T10:55:44.621Z</time>
      </trkpt>
      <trkpt lat="37.165280" lon="-3.046060">
        <ele>1419.821</ele>
        <time>2026-07-16T10:56:04.621Z</time>
      </trkpt>
      <trkpt lat="37.165270" lon="-3.046320">
        <ele>1421.009</ele>
        <time>2026-07-16T10:56:24.621Z</time>
      </trkpt>
      <trkpt lat="37.165210" lon="-3.046720">
        <ele>1427.681</ele>
        <time>2026-07-16T10:56:44.621Z</time>
      </trkpt>
      <trkpt lat="37.165210" lon="-3.046860">
        <ele>1429.854</ele>
        <time>2026-07-16T10:57:04.621Z</time>
      </trkpt>
      <trkpt lat="37.165240" lon="-3.047050">
        <ele>1430.715</ele>
        <time>2026-07-16T10:57:24.621Z</time>
      </trkpt>
      <trkpt lat="37.165320" lon="-3.047290">
        <ele>1428.057</ele>
        <time>2026-07-16T10:57:44.621Z</time>
      </trkpt>
      <trkpt lat="37.165360" lon="-3.047440">
        <ele>1426.676</ele>
        <time>2026-07-16T10:58:04.621Z</time>
      </trkpt>
      <trkpt lat="37.165360" lon="-3.047590">
        <ele>1426.533</ele>
        <time>2026-07-16T10:58:24.621Z</time>
      </trkpt>
      <trkpt lat="37.165280" lon="-3.048150">
        <ele>1433.683</ele>
        <time>2026-07-16T10:58:44.621Z</time>
      </trkpt>
      <trkpt lat="37.165210" lon="-3.048420">
        <ele>1436.760</ele>
        <time>2026-07-16T10:59:04.621Z</time>
      </trkpt>
      <trkpt lat="37.165150" lon="-3.048520">
        <ele>1437.997</ele>
        <time>2026-07-16T10:59:24.621Z</time>
      </trkpt>
      <trkpt lat="37.165040" lon="-3.048640">
        <ele>1439.521</ele>
        <time>2026-07-16T10:59:44.621Z</time>
      </trkpt>
      <trkpt lat="37.164890" lon="-3.048810">
        <ele>1439.141</ele>
        <time>2026-07-16T11:00:04.621Z</time>
      </trkpt>
      <trkpt lat="37.164750" lon="-3.048930">
        <ele>1438.805</ele>
        <time>2026-07-16T11:00:24.621Z</time>
      </trkpt>
      <trkpt lat="37.164480" lon="-3.049020">
        <ele>1440.209</ele>
        <time>2026-07-16T11:00:44.621Z</time>
      </trkpt>
      <trkpt lat="37.164020" lon="-3.049130">
        <ele>1448.094</ele>
        <time>2026-07-16T11:01:04.621Z</time>
      </trkpt>
      <trkpt lat="37.163620" lon="-3.049310">
        <ele>1453.397</ele>
        <time>2026-07-16T11:01:24.621Z</time>
      </trkpt>
      <trkpt lat="37.163470" lon="-3.049400">
        <ele>1455.478</ele>
        <time>2026-07-16T11:01:44.621Z</time>
      </trkpt>
      <trkpt lat="37.163350" lon="-3.049550">
        <ele>1456.520</ele>
        <time>2026-07-16T11:02:04.621Z</time>
      </trkpt>
      <trkpt lat="37.163230" lon="-3.049800">
        <ele>1460.089</ele>
        <time>2026-07-16T11:02:24.621Z</time>
      </trkpt>
      <trkpt lat="37.163210" lon="-3.049880">
        <ele>1461.386</ele>
        <time>2026-07-16T11:02:44.621Z</time>
      </trkpt>
      <trkpt lat="37.163210" lon="-3.049960">
        <ele>1461.856</ele>
        <time>2026-07-16T11:03:04.621Z</time>
      </trkpt>
      <trkpt lat="37.163230" lon="-3.050030">
        <ele>1461.993</ele>
        <time>2026-07-16T11:03:24.621Z</time>
      </trkpt>
      <trkpt lat="37.163270" lon="-3.050080">
        <ele>1461.630</ele>
        <time>2026-07-16T11:03:44.621Z</time>
      </trkpt>
      <trkpt lat="37.163350" lon="-3.050130">
        <ele>1460.527</ele>
        <time>2026-07-16T11:04:04.621Z</time>
      </trkpt>
      <trkpt lat="37.163640" lon="-3.050250">
        <ele>1458.968</ele>
        <time>2026-07-16T11:04:24.621Z</time>
      </trkpt>
      <trkpt lat="37.163860" lon="-3.050380">
        <ele>1458.714</ele>
        <time>2026-07-16T11:04:44.621Z</time>
      </trkpt>
      <trkpt lat="37.164050" lon="-3.050580">
        <ele>1459.509</ele>
        <time>2026-07-16T11:05:04.621Z</time>
      </trkpt>
      <trkpt lat="37.164240" lon="-3.050950">
        <ele>1461.814</ele>
        <time>2026-07-16T11:05:24.621Z</time>
      </trkpt>
      <trkpt lat="37.164310" lon="-3.051150">
        <ele>1462.047</ele>
        <time>2026-07-16T11:05:44.621Z</time>
      </trkpt>
      <trkpt lat="37.164320" lon="-3.051300">
        <ele>1462.298</ele>
        <time>2026-07-16T11:06:04.621Z</time>
      </trkpt>
      <trkpt lat="37.164270" lon="-3.051480">
        <ele>1463.480</ele>
        <time>2026-07-16T11:06:24.621Z</time>
      </trkpt>
      <trkpt lat="37.164210" lon="-3.051620">
        <ele>1464.149</ele>
        <time>2026-07-16T11:06:44.622Z</time>
      </trkpt>
      <trkpt lat="37.164140" lon="-3.051720">
        <ele>1464.066</ele>
        <time>2026-07-16T11:07:04.622Z</time>
      </trkpt>
      <trkpt lat="37.164090" lon="-3.051750">
        <ele>1463.926</ele>
        <time>2026-07-16T11:07:24.622Z</time>
      </trkpt>
      <trkpt lat="37.163720" lon="-3.051780">
        <ele>1465.713</ele>
        <time>2026-07-16T11:07:44.622Z</time>
      </trkpt>
      <trkpt lat="37.162900" lon="-3.051750">
        <ele>1477.540</ele>
        <time>2026-07-16T11:08:04.622Z</time>
      </trkpt>
      <trkpt lat="37.162730" lon="-3.051720">
        <ele>1480.894</ele>
        <time>2026-07-16T11:08:24.622Z</time>
      </trkpt>
      <trkpt lat="37.162320" lon="-3.051680">
        <ele>1488.757</ele>
        <time>2026-07-16T11:08:44.622Z</time>
      </trkpt>
      <trkpt lat="37.162180" lon="-3.051710">
        <ele>1490.122</ele>
        <time>2026-07-16T11:09:04.622Z</time>
      </trkpt>
      <trkpt lat="37.162080" lon="-3.051810">
        <ele>1490.209</ele>
        <time>2026-07-16T11:09:24.622Z</time>
      </trkpt>
      <trkpt lat="37.161830" lon="-3.052120">
        <ele>1490.851</ele>
        <time>2026-07-16T11:09:44.622Z</time>
      </trkpt>
      <trkpt lat="37.161560" lon="-3.052370">
        <ele>1496.254</ele>
        <time>2026-07-16T11:10:04.622Z</time>
      </trkpt>
      <trkpt lat="37.161500" lon="-3.052450">
        <ele>1497.445</ele>
        <time>2026-07-16T11:10:24.622Z</time>
      </trkpt>
      <trkpt lat="37.161490" lon="-3.052480">
        <ele>1497.537</ele>
        <time>2026-07-16T11:10:44.622Z</time>
      </trkpt>
      <trkpt lat="37.161480" lon="-3.052530">
        <ele>1498.146</ele>
        <time>2026-07-16T11:11:04.622Z</time>
      </trkpt>
      <trkpt lat="37.161510" lon="-3.052610">
        <ele>1498.513</ele>
        <time>2026-07-16T11:11:24.622Z</time>
      </trkpt>
      <trkpt lat="37.161630" lon="-3.052750">
        <ele>1497.573</ele>
        <time>2026-07-16T11:11:44.622Z</time>
      </trkpt>
      <trkpt lat="37.162140" lon="-3.053210">
        <ele>1495.220</ele>
        <time>2026-07-16T11:12:04.622Z</time>
      </trkpt>
      <trkpt lat="37.162530" lon="-3.053780">
        <ele>1496.977</ele>
        <time>2026-07-16T11:12:24.622Z</time>
      </trkpt>
      <trkpt lat="37.162590" lon="-3.053950">
        <ele>1498.919</ele>
        <time>2026-07-16T11:12:44.622Z</time>
      </trkpt>
      <trkpt lat="37.162610" lon="-3.054090">
        <ele>1500.709</ele>
        <time>2026-07-16T11:13:04.622Z</time>
      </trkpt>
      <trkpt lat="37.162580" lon="-3.054400">
        <ele>1506.019</ele>
        <time>2026-07-16T11:13:24.622Z</time>
      </trkpt>
      <trkpt lat="37.162470" lon="-3.054810">
        <ele>1510.909</ele>
        <time>2026-07-16T11:13:44.622Z</time>
      </trkpt>
      <trkpt lat="37.162360" lon="-3.055180">
        <ele>1510.993</ele>
        <time>2026-07-16T11:14:04.622Z</time>
      </trkpt>
      <trkpt lat="37.162180" lon="-3.055490">
        <ele>1509.426</ele>
        <time>2026-07-16T11:14:24.622Z</time>
      </trkpt>
      <trkpt lat="37.162070" lon="-3.055580">
        <ele>1509.597</ele>
        <time>2026-07-16T11:14:44.622Z</time>
      </trkpt>
      <trkpt lat="37.161820" lon="-3.055660">
        <ele>1511.719</ele>
        <time>2026-07-16T11:15:04.622Z</time>
      </trkpt>
      <trkpt lat="37.161360" lon="-3.055630">
        <ele>1517.098</ele>
        <time>2026-07-16T11:15:24.622Z</time>
      </trkpt>
      <trkpt lat="37.161080" lon="-3.055600">
        <ele>1520.945</ele>
        <time>2026-07-16T11:15:44.622Z</time>
      </trkpt>
      <trkpt lat="37.160880" lon="-3.055500">
        <ele>1522.855</ele>
        <time>2026-07-16T11:16:04.622Z</time>
      </trkpt>
      <trkpt lat="37.160490" lon="-3.055210">
        <ele>1529.152</ele>
        <time>2026-07-16T11:16:24.622Z</time>
      </trkpt>
      <trkpt lat="37.160280" lon="-3.055090">
        <ele>1534.489</ele>
        <time>2026-07-16T11:16:44.622Z</time>
      </trkpt>
      <trkpt lat="37.160220" lon="-3.055070">
        <ele>1535.941</ele>
        <time>2026-07-16T11:17:04.622Z</time>
      </trkpt>
      <trkpt lat="37.160150" lon="-3.055060">
        <ele>1537.381</ele>
        <time>2026-07-16T11:17:24.622Z</time>
      </trkpt>
      <trkpt lat="37.160080" lon="-3.055070">
        <ele>1538.209</ele>
        <time>2026-07-16T11:17:44.622Z</time>
      </trkpt>
      <trkpt lat="37.160020" lon="-3.055100">
        <ele>1538.509</ele>
        <time>2026-07-16T11:18:04.622Z</time>
      </trkpt>
      <trkpt lat="37.159980" lon="-3.055140">
        <ele>1538.696</ele>
        <time>2026-07-16T11:18:24.622Z</time>
      </trkpt>
      <trkpt lat="37.159940" lon="-3.055190">
        <ele>1538.879</ele>
        <time>2026-07-16T11:18:44.622Z</time>
      </trkpt>
      <trkpt lat="37.159910" lon="-3.055260">
        <ele>1538.330</ele>
        <time>2026-07-16T11:19:04.622Z</time>
      </trkpt>
      <trkpt lat="37.159810" lon="-3.056020">
        <ele>1537.242</ele>
        <time>2026-07-16T11:19:24.622Z</time>
      </trkpt>
      <trkpt lat="37.159690" lon="-3.056640">
        <ele>1538.321</ele>
        <time>2026-07-16T11:19:44.622Z</time>
      </trkpt>
      <trkpt lat="37.159570" lon="-3.056930">
        <ele>1540.528</ele>
        <time>2026-07-16T11:20:04.622Z</time>
      </trkpt>
      <trkpt lat="37.159430" lon="-3.057130">
        <ele>1541.688</ele>
        <time>2026-07-16T11:20:24.622Z</time>
      </trkpt>
      <trkpt lat="37.159270" lon="-3.057330">
        <ele>1540.925</ele>
        <time>2026-07-16T11:20:44.622Z</time>
      </trkpt>
      <trkpt lat="37.159250" lon="-3.057350">
        <ele>1540.772</ele>
        <time>2026-07-16T11:21:04.622Z</time>
      </trkpt>
      <trkpt lat="37.159230" lon="-3.057360">
        <ele>1540.758</ele>
        <time>2026-07-16T11:21:24.622Z</time>
      </trkpt>
      <trkpt lat="37.159210" lon="-3.057360">
        <ele>1541.052</ele>
        <time>2026-07-16T11:21:44.622Z</time>
      </trkpt>
      <trkpt lat="37.159190" lon="-3.057370">
        <ele>1541.017</ele>
        <time>2026-07-16T11:22:04.622Z</time>
      </trkpt>
      <trkpt lat="37.159170" lon="-3.057370">
        <ele>1541.209</ele>
        <time>2026-07-16T11:22:24.622Z</time>
      </trkpt>
      <trkpt lat="37.159150" lon="-3.057360">
        <ele>1541.387</ele>
        <time>2026-07-16T11:22:44.622Z</time>
      </trkpt>
      <trkpt lat="37.159130" lon="-3.057350">
        <ele>1541.390</ele>
        <time>2026-07-16T11:23:04.622Z</time>
      </trkpt>
      <trkpt lat="37.159110" lon="-3.057350">
        <ele>1541.141</ele>
        <time>2026-07-16T11:23:24.622Z</time>
      </trkpt>
      <trkpt lat="37.159100" lon="-3.057330">
        <ele>1541.453</ele>
        <time>2026-07-16T11:23:44.622Z</time>
      </trkpt>
      <trkpt lat="37.159090" lon="-3.057320">
        <ele>1541.532</ele>
        <time>2026-07-16T11:24:04.622Z</time>
      </trkpt>
      <trkpt lat="37.159080" lon="-3.057300">
        <ele>1541.979</ele>
        <time>2026-07-16T11:24:24.622Z</time>
      </trkpt>
      <trkpt lat="37.159070" lon="-3.057290">
        <ele>1542.099</ele>
        <time>2026-07-16T11:24:44.622Z</time>
      </trkpt>
      <trkpt lat="37.159060" lon="-3.057270">
        <ele>1542.376</ele>
        <time>2026-07-16T11:25:04.622Z</time>
      </trkpt>
      <trkpt lat="37.159050" lon="-3.057250">
        <ele>1542.743</ele>
        <time>2026-07-16T11:25:24.622Z</time>
      </trkpt>
      <trkpt lat="37.158960" lon="-3.056710">
        <ele>1548.358</ele>
        <time>2026-07-16T11:25:44.622Z</time>
      </trkpt>
      <trkpt lat="37.158950" lon="-3.056340">
        <ele>1552.452</ele>
        <time>2026-07-16T11:26:04.622Z</time>
      </trkpt>
      <trkpt lat="37.159000" lon="-3.055960">
        <ele>1554.317</ele>
        <time>2026-07-16T11:26:24.622Z</time>
      </trkpt>
      <trkpt lat="37.159050" lon="-3.055600">
        <ele>1555.709</ele>
        <time>2026-07-16T11:26:44.622Z</time>
      </trkpt>
      <trkpt lat="37.159100" lon="-3.055400">
        <ele>1556.397</ele>
        <time>2026-07-16T11:27:04.622Z</time>
      </trkpt>
      <trkpt lat="37.159320" lon="-3.054810">
        <ele>1561.060</ele>
        <time>2026-07-16T11:27:24.622Z</time>
      </trkpt>
      <trkpt lat="37.159580" lon="-3.053980">
        <ele>1566.051</ele>
        <time>2026-07-16T11:27:44.622Z</time>
      </trkpt>
      <trkpt lat="37.159650" lon="-3.053670">
        <ele>1566.593</ele>
        <time>2026-07-16T11:28:04.622Z</time>
      </trkpt>
      <trkpt lat="37.159670" lon="-3.053450">
        <ele>1568.212</ele>
        <time>2026-07-16T11:28:24.622Z</time>
      </trkpt>
      <trkpt lat="37.159670" lon="-3.053330">
        <ele>1569.579</ele>
        <time>2026-07-16T11:28:44.622Z</time>
      </trkpt>
      <trkpt lat="37.159280" lon="-3.051610">
        <ele>1581.329</ele>
        <time>2026-07-16T11:29:04.622Z</time>
      </trkpt>
      <trkpt lat="37.159210" lon="-3.051410">
        <ele>1581.716</ele>
        <time>2026-07-16T11:29:24.622Z</time>
      </trkpt>
      <trkpt lat="37.159140" lon="-3.051270">
        <ele>1581.913</ele>
        <time>2026-07-16T11:29:44.622Z</time>
      </trkpt>
      <trkpt lat="37.159030" lon="-3.051120">
        <ele>1582.676</ele>
        <time>2026-07-16T11:30:04.622Z</time>
      </trkpt>
      <trkpt lat="37.158940" lon="-3.051050">
        <ele>1583.690</ele>
        <time>2026-07-16T11:30:24.622Z</time>
      </trkpt>
      <trkpt lat="37.158810" lon="-3.050990">
        <ele>1585.419</ele>
        <time>2026-07-16T11:30:44.622Z</time>
      </trkpt>
      <trkpt lat="37.158120" lon="-3.050770">
        <ele>1590.209</ele>
        <time>2026-07-16T11:31:04.622Z</time>
      </trkpt>
      <trkpt lat="37.157900" lon="-3.050690">
        <ele>1590.319</ele>
        <time>2026-07-16T11:31:24.622Z</time>
      </trkpt>
      <trkpt lat="37.157610" lon="-3.050540">
        <ele>1591.272</ele>
        <time>2026-07-16T11:31:44.622Z</time>
      </trkpt>
      <trkpt lat="37.157390" lon="-3.050480">
        <ele>1593.653</ele>
        <time>2026-07-16T11:32:04.622Z</time>
      </trkpt>
      <trkpt lat="37.156980" lon="-3.050440">
        <ele>1598.835</ele>
        <time>2026-07-16T11:32:24.622Z</time>
      </trkpt>
      <trkpt lat="37.156710" lon="-3.050480">
        <ele>1602.154</ele>
        <time>2026-07-16T11:32:44.622Z</time>
      </trkpt>
      <trkpt lat="37.156530" lon="-3.050550">
        <ele>1606.361</ele>
        <time>2026-07-16T11:33:04.622Z</time>
      </trkpt>
      <trkpt lat="37.156440" lon="-3.050550">
        <ele>1607.341</ele>
        <time>2026-07-16T11:33:24.622Z</time>
      </trkpt>
      <trkpt lat="37.156300" lon="-3.050510">
        <ele>1608.178</ele>
        <time>2026-07-16T11:33:44.622Z</time>
      </trkpt>
      <trkpt lat="37.155790" lon="-3.050260">
        <ele>1610.475</ele>
        <time>2026-07-16T11:34:04.622Z</time>
      </trkpt>
      <trkpt lat="37.154940" lon="-3.049580">
        <ele>1616.536</ele>
        <time>2026-07-16T11:34:24.622Z</time>
      </trkpt>
      <trkpt lat="37.154760" lon="-3.049480">
        <ele>1618.017</ele>
        <time>2026-07-16T11:34:44.622Z</time>
      </trkpt>
      <trkpt lat="37.154680" lon="-3.049460">
        <ele>1618.618</ele>
        <time>2026-07-16T11:35:04.622Z</time>
      </trkpt>
      <trkpt lat="37.154080" lon="-3.049410">
        <ele>1623.809</ele>
        <time>2026-07-16T11:35:24.622Z</time>
      </trkpt>
      <trkpt lat="37.153910" lon="-3.049380">
        <ele>1626.035</ele>
        <time>2026-07-16T11:35:44.622Z</time>
      </trkpt>
      <trkpt lat="37.153620" lon="-3.049310">
        <ele>1628.088</ele>
        <time>2026-07-16T11:36:04.622Z</time>
      </trkpt>
      <trkpt lat="37.153360" lon="-3.049320">
        <ele>1629.579</ele>
        <time>2026-07-16T11:36:24.622Z</time>
      </trkpt>
      <trkpt lat="37.152880" lon="-3.049500">
        <ele>1633.451</ele>
        <time>2026-07-16T11:36:44.622Z</time>
      </trkpt>
      <trkpt lat="37.152440" lon="-3.049690">
        <ele>1639.260</ele>
        <time>2026-07-16T11:37:04.622Z</time>
      </trkpt>
      <trkpt lat="37.152040" lon="-3.049850">
        <ele>1646.087</ele>
        <time>2026-07-16T11:37:24.622Z</time>
      </trkpt>
      <trkpt lat="37.151680" lon="-3.050080">
        <ele>1651.517</ele>
        <time>2026-07-16T11:37:44.622Z</time>
      </trkpt>
      <trkpt lat="37.151460" lon="-3.050250">
        <ele>1656.184</ele>
        <time>2026-07-16T11:38:04.622Z</time>
      </trkpt>
      <trkpt lat="37.151140" lon="-3.050520">
        <ele>1660.811</ele>
        <time>2026-07-16T11:38:24.622Z</time>
      </trkpt>
      <trkpt lat="37.150950" lon="-3.050640">
        <ele>1661.034</ele>
        <time>2026-07-16T11:38:44.622Z</time>
      </trkpt>
      <trkpt lat="37.150750" lon="-3.050720">
        <ele>1661.155</ele>
        <time>2026-07-16T11:39:04.622Z</time>
      </trkpt>
      <trkpt lat="37.150540" lon="-3.050740">
        <ele>1660.610</ele>
        <time>2026-07-16T11:39:24.622Z</time>
      </trkpt>
      <trkpt lat="37.150330" lon="-3.050710">
        <ele>1659.909</ele>
        <time>2026-07-16T11:39:44.622Z</time>
      </trkpt>
      <trkpt lat="37.150260" lon="-3.050680">
        <ele>1660.275</ele>
        <time>2026-07-16T11:40:04.622Z</time>
      </trkpt>
      <trkpt lat="37.150110" lon="-3.050610">
        <ele>1660.528</ele>
        <time>2026-07-16T11:40:24.622Z</time>
      </trkpt>
      <trkpt lat="37.149970" lon="-3.050510">
        <ele>1661.379</ele>
        <time>2026-07-16T11:40:44.622Z</time>
      </trkpt>
      <trkpt lat="37.149840" lon="-3.050380">
        <ele>1661.081</ele>
        <time>2026-07-16T11:41:04.622Z</time>
      </trkpt>
      <trkpt lat="37.149470" lon="-3.049990">
        <ele>1661.790</ele>
        <time>2026-07-16T11:41:24.622Z</time>
      </trkpt>
      <trkpt lat="37.149310" lon="-3.049820">
        <ele>1664.687</ele>
        <time>2026-07-16T11:41:44.622Z</time>
      </trkpt>
      <trkpt lat="37.149150" lon="-3.049660">
        <ele>1666.817</ele>
        <time>2026-07-16T11:42:04.622Z</time>
      </trkpt>
      <trkpt lat="37.148980" lon="-3.049510">
        <ele>1668.744</ele>
        <time>2026-07-16T11:42:24.622Z</time>
      </trkpt>
      <trkpt lat="37.148630" lon="-3.049250">
        <ele>1673.431</ele>
        <time>2026-07-16T11:42:44.622Z</time>
      </trkpt>
      <trkpt lat="37.148250" lon="-3.049040">
        <ele>1678.936</ele>
        <time>2026-07-16T11:43:04.622Z</time>
      </trkpt>
      <trkpt lat="37.147660" lon="-3.048820">
        <ele>1682.717</ele>
        <time>2026-07-16T11:43:24.622Z</time>
      </trkpt>
      <trkpt lat="37.147140" lon="-3.048760">
        <ele>1688.618</ele>
        <time>2026-07-16T11:43:44.622Z</time>
      </trkpt>
      <trkpt lat="37.146890" lon="-3.048780">
        <ele>1692.209</ele>
        <time>2026-07-16T11:44:04.622Z</time>
      </trkpt>
      <trkpt lat="37.146760" lon="-3.048820">
        <ele>1693.895</ele>
        <time>2026-07-16T11:44:24.622Z</time>
      </trkpt>
      <trkpt lat="37.146590" lon="-3.048910">
        <ele>1693.988</ele>
        <time>2026-07-16T11:44:44.622Z</time>
      </trkpt>
      <trkpt lat="37.146390" lon="-3.049070">
        <ele>1691.419</ele>
        <time>2026-07-16T11:45:04.622Z</time>
      </trkpt>
      <trkpt lat="37.145850" lon="-3.049800">
        <ele>1692.271</ele>
        <time>2026-07-16T11:45:24.622Z</time>
      </trkpt>
      <trkpt lat="37.145770" lon="-3.049910">
        <ele>1693.550</ele>
        <time>2026-07-16T11:45:44.622Z</time>
      </trkpt>
      <trkpt lat="37.145670" lon="-3.050050">
        <ele>1695.417</ele>
        <time>2026-07-16T11:46:04.622Z</time>
      </trkpt>
      <trkpt lat="37.145560" lon="-3.050160">
        <ele>1697.757</ele>
        <time>2026-07-16T11:46:24.622Z</time>
      </trkpt>
      <trkpt lat="37.145440" lon="-3.050240">
        <ele>1699.584</ele>
        <time>2026-07-16T11:46:44.622Z</time>
      </trkpt>
      <trkpt lat="37.145310" lon="-3.050290">
        <ele>1701.271</ele>
        <time>2026-07-16T11:47:04.622Z</time>
      </trkpt>
      <trkpt lat="37.145160" lon="-3.050310">
        <ele>1701.837</ele>
        <time>2026-07-16T11:47:24.622Z</time>
      </trkpt>
      <trkpt lat="37.145020" lon="-3.050300">
        <ele>1702.549</ele>
        <time>2026-07-16T11:47:44.622Z</time>
      </trkpt>
      <trkpt lat="37.144880" lon="-3.050250">
        <ele>1704.413</ele>
        <time>2026-07-16T11:48:04.622Z</time>
      </trkpt>
      <trkpt lat="37.144750" lon="-3.050170">
        <ele>1706.809</ele>
        <time>2026-07-16T11:48:24.622Z</time>
      </trkpt>
      <trkpt lat="37.144690" lon="-3.050100">
        <ele>1708.485</ele>
        <time>2026-07-16T11:48:44.622Z</time>
      </trkpt>
      <trkpt lat="37.144600" lon="-3.050010">
        <ele>1710.718</ele>
        <time>2026-07-16T11:49:04.622Z</time>
      </trkpt>
      <trkpt lat="37.144470" lon="-3.049790">
        <ele>1714.249</ele>
        <time>2026-07-16T11:49:24.622Z</time>
      </trkpt>
      <trkpt lat="37.144400" lon="-3.049570">
        <ele>1717.871</ele>
        <time>2026-07-16T11:49:44.622Z</time>
      </trkpt>
      <trkpt lat="37.144380" lon="-3.049350">
        <ele>1720.280</ele>
        <time>2026-07-16T11:50:04.622Z</time>
      </trkpt>
      <trkpt lat="37.144390" lon="-3.049230">
        <ele>1720.787</ele>
        <time>2026-07-16T11:50:24.622Z</time>
      </trkpt>
      <trkpt lat="37.144450" lon="-3.049020">
        <ele>1722.657</ele>
        <time>2026-07-16T11:50:44.622Z</time>
      </trkpt>
      <trkpt lat="37.144540" lon="-3.048820">
        <ele>1725.124</ele>
        <time>2026-07-16T11:51:04.622Z</time>
      </trkpt>
      <trkpt lat="37.144860" lon="-3.048400">
        <ele>1726.281</ele>
        <time>2026-07-16T11:51:24.622Z</time>
      </trkpt>
      <trkpt lat="37.145200" lon="-3.048120">
        <ele>1725.219</ele>
        <time>2026-07-16T11:51:44.622Z</time>
      </trkpt>
      <trkpt lat="37.145460" lon="-3.047960">
        <ele>1725.409</ele>
        <time>2026-07-16T11:52:04.622Z</time>
      </trkpt>
      <trkpt lat="37.146040" lon="-3.047720">
        <ele>1729.719</ele>
        <time>2026-07-16T11:52:24.622Z</time>
      </trkpt>
      <trkpt lat="37.146290" lon="-3.047640">
        <ele>1730.509</ele>
        <time>2026-07-16T11:52:44.622Z</time>
      </trkpt>
      <trkpt lat="37.146440" lon="-3.047580">
        <ele>1730.513</ele>
        <time>2026-07-16T11:53:04.622Z</time>
      </trkpt>
      <trkpt lat="37.146580" lon="-3.047500">
        <ele>1730.616</ele>
        <time>2026-07-16T11:53:24.622Z</time>
      </trkpt>
      <trkpt lat="37.146780" lon="-3.047350">
        <ele>1730.147</ele>
        <time>2026-07-16T11:53:44.622Z</time>
      </trkpt>
      <trkpt lat="37.146900" lon="-3.047210">
        <ele>1729.589</ele>
        <time>2026-07-16T11:54:04.622Z</time>
      </trkpt>
      <trkpt lat="37.147060" lon="-3.046920">
        <ele>1730.498</ele>
        <time>2026-07-16T11:54:24.622Z</time>
      </trkpt>
      <trkpt lat="37.147130" lon="-3.046660">
        <ele>1732.195</ele>
        <time>2026-07-16T11:54:44.622Z</time>
      </trkpt>
      <trkpt lat="37.147170" lon="-3.046330">
        <ele>1734.495</ele>
        <time>2026-07-16T11:55:04.622Z</time>
      </trkpt>
      <trkpt lat="37.147130" lon="-3.046000">
        <ele>1737.262</ele>
        <time>2026-07-16T11:55:24.622Z</time>
      </trkpt>
      <trkpt lat="37.147030" lon="-3.045690">
        <ele>1738.989</ele>
        <time>2026-07-16T11:55:44.622Z</time>
      </trkpt>
      <trkpt lat="37.146870" lon="-3.045430">
        <ele>1739.765</ele>
        <time>2026-07-16T11:56:04.622Z</time>
      </trkpt>
      <trkpt lat="37.146680" lon="-3.045240">
        <ele>1741.068</ele>
        <time>2026-07-16T11:56:24.622Z</time>
      </trkpt>
      <trkpt lat="37.146460" lon="-3.045110">
        <ele>1742.714</ele>
        <time>2026-07-16T11:56:44.622Z</time>
      </trkpt>
      <trkpt lat="37.146210" lon="-3.045060">
        <ele>1745.009</ele>
        <time>2026-07-16T11:57:04.622Z</time>
      </trkpt>
      <trkpt lat="37.145950" lon="-3.045080">
        <ele>1746.228</ele>
        <time>2026-07-16T11:57:24.622Z</time>
      </trkpt>
      <trkpt lat="37.145690" lon="-3.045180">
        <ele>1747.311</ele>
        <time>2026-07-16T11:57:44.622Z</time>
      </trkpt>
      <trkpt lat="37.145450" lon="-3.045380">
        <ele>1749.522</ele>
        <time>2026-07-16T11:58:04.622Z</time>
      </trkpt>
      <trkpt lat="37.144790" lon="-3.046060">
        <ele>1757.054</ele>
        <time>2026-07-16T11:58:24.622Z</time>
      </trkpt>
      <trkpt lat="37.143710" lon="-3.047150">
        <ele>1764.063</ele>
        <time>2026-07-16T11:58:44.622Z</time>
      </trkpt>
      <trkpt lat="37.143380" lon="-3.047430">
        <ele>1765.790</ele>
        <time>2026-07-16T11:59:04.622Z</time>
      </trkpt>
      <trkpt lat="37.143150" lon="-3.047590">
        <ele>1769.670</ele>
        <time>2026-07-16T11:59:24.622Z</time>
      </trkpt>
      <trkpt lat="37.143040" lon="-3.047640">
        <ele>1771.797</ele>
        <time>2026-07-16T11:59:44.622Z</time>
      </trkpt>
      <trkpt lat="37.142790" lon="-3.047740">
        <ele>1776.484</ele>
        <time>2026-07-16T12:00:04.622Z</time>
      </trkpt>
      <trkpt lat="37.140450" lon="-3.048210">
        <ele>1799.521</ele>
        <time>2026-07-16T12:00:24.622Z</time>
      </trkpt>
      <trkpt lat="37.139650" lon="-3.048310">
        <ele>1811.841</ele>
        <time>2026-07-16T12:00:44.622Z</time>
      </trkpt>
      <trkpt lat="37.139230" lon="-3.048280">
        <ele>1813.405</ele>
        <time>2026-07-16T12:01:04.622Z</time>
      </trkpt>
      <trkpt lat="37.138820" lon="-3.048220">
        <ele>1815.909</ele>
        <time>2026-07-16T12:01:24.622Z</time>
      </trkpt>
      <trkpt lat="37.138430" lon="-3.048090">
        <ele>1818.264</ele>
        <time>2026-07-16T12:01:44.622Z</time>
      </trkpt>
      <trkpt lat="37.138050" lon="-3.047910">
        <ele>1821.577</ele>
        <time>2026-07-16T12:02:04.622Z</time>
      </trkpt>
      <trkpt lat="37.137690" lon="-3.047690">
        <ele>1827.018</ele>
        <time>2026-07-16T12:02:24.622Z</time>
      </trkpt>
      <trkpt lat="37.137360" lon="-3.047410">
        <ele>1833.260</ele>
        <time>2026-07-16T12:02:44.622Z</time>
      </trkpt>
      <trkpt lat="37.136540" lon="-3.046710">
        <ele>1847.219</ele>
        <time>2026-07-16T12:03:04.622Z</time>
      </trkpt>
      <trkpt lat="37.136120" lon="-3.046310">
        <ele>1851.816</ele>
        <time>2026-07-16T12:03:24.622Z</time>
      </trkpt>
      <trkpt lat="37.135970" lon="-3.046130">
        <ele>1850.676</ele>
        <time>2026-07-16T12:03:44.622Z</time>
      </trkpt>
      <trkpt lat="37.135790" lon="-3.045880">
        <ele>1850.463</ele>
        <time>2026-07-16T12:04:04.622Z</time>
      </trkpt>
      <trkpt lat="37.135630" lon="-3.045500">
        <ele>1855.060</ele>
        <time>2026-07-16T12:04:24.622Z</time>
      </trkpt>
      <trkpt lat="37.135470" lon="-3.044930">
        <ele>1856.786</ele>
        <time>2026-07-16T12:04:44.622Z</time>
      </trkpt>
      <trkpt lat="37.135420" lon="-3.044600">
        <ele>1856.760</ele>
        <time>2026-07-16T12:05:04.622Z</time>
      </trkpt>
      <trkpt lat="37.135400" lon="-3.044390">
        <ele>1856.226</ele>
        <time>2026-07-16T12:05:24.622Z</time>
      </trkpt>
      <trkpt lat="37.135350" lon="-3.044150">
        <ele>1856.209</ele>
        <time>2026-07-16T12:05:44.622Z</time>
      </trkpt>
      <trkpt lat="37.135140" lon="-3.043280">
        <ele>1862.760</ele>
        <time>2026-07-16T12:06:04.622Z</time>
      </trkpt>
      <trkpt lat="37.135070" lon="-3.042900">
        <ele>1862.873</ele>
        <time>2026-07-16T12:06:24.622Z</time>
      </trkpt>
      <trkpt lat="37.135030" lon="-3.042760">
        <ele>1863.084</ele>
        <time>2026-07-16T12:06:44.622Z</time>
      </trkpt>
      <trkpt lat="37.134890" lon="-3.042520">
        <ele>1865.416</ele>
        <time>2026-07-16T12:07:04.622Z</time>
      </trkpt>
      <trkpt lat="37.134790" lon="-3.042410">
        <ele>1865.665</ele>
        <time>2026-07-16T12:07:24.622Z</time>
      </trkpt>
      <trkpt lat="37.134310" lon="-3.042160">
        <ele>1869.672</ele>
        <time>2026-07-16T12:07:44.622Z</time>
      </trkpt>
      <trkpt lat="37.133950" lon="-3.042000">
        <ele>1872.772</ele>
        <time>2026-07-16T12:08:04.622Z</time>
      </trkpt>
      <trkpt lat="37.133830" lon="-3.041980">
        <ele>1873.869</ele>
        <time>2026-07-16T12:08:24.622Z</time>
      </trkpt>
      <trkpt lat="37.133760" lon="-3.041990">
        <ele>1874.166</ele>
        <time>2026-07-16T12:08:44.622Z</time>
      </trkpt>
      <trkpt lat="37.133690" lon="-3.042000">
        <ele>1874.355</ele>
        <time>2026-07-16T12:09:04.622Z</time>
      </trkpt>
      <trkpt lat="37.133200" lon="-3.042340">
        <ele>1880.607</ele>
        <time>2026-07-16T12:09:24.622Z</time>
      </trkpt>
      <trkpt lat="37.132880" lon="-3.042590">
        <ele>1884.017</ele>
        <time>2026-07-16T12:09:44.622Z</time>
      </trkpt>
      <trkpt lat="37.132580" lon="-3.042910">
        <ele>1888.109</ele>
        <time>2026-07-16T12:10:04.622Z</time>
      </trkpt>
      <trkpt lat="37.132340" lon="-3.043090">
        <ele>1891.417</ele>
        <time>2026-07-16T12:10:24.622Z</time>
      </trkpt>
      <trkpt lat="37.131710" lon="-3.043430">
        <ele>1894.940</ele>
        <time>2026-07-16T12:10:44.622Z</time>
      </trkpt>
      <trkpt lat="37.131470" lon="-3.043520">
        <ele>1896.821</ele>
        <time>2026-07-16T12:11:04.622Z</time>
      </trkpt>
      <trkpt lat="37.130840" lon="-3.043650">
        <ele>1901.513</ele>
        <time>2026-07-16T12:11:24.622Z</time>
      </trkpt>
      <trkpt lat="37.130510" lon="-3.043680">
        <ele>1905.582</ele>
        <time>2026-07-16T12:11:44.622Z</time>
      </trkpt>
      <trkpt lat="37.129950" lon="-3.043600">
        <ele>1911.129</ele>
        <time>2026-07-16T12:12:04.622Z</time>
      </trkpt>
      <trkpt lat="37.129880" lon="-3.043580">
        <ele>1911.279</ele>
        <time>2026-07-16T12:12:24.622Z</time>
      </trkpt>
      <trkpt lat="37.129830" lon="-3.043540">
        <ele>1910.346</ele>
        <time>2026-07-16T12:12:44.622Z</time>
      </trkpt>
      <trkpt lat="37.129780" lon="-3.043470">
        <ele>1908.663</ele>
        <time>2026-07-16T12:13:04.622Z</time>
      </trkpt>
      <trkpt lat="37.129650" lon="-3.043320">
        <ele>1906.856</ele>
        <time>2026-07-16T12:13:24.622Z</time>
      </trkpt>
      <trkpt lat="37.128840" lon="-3.042830">
        <ele>1912.159</ele>
        <time>2026-07-16T12:13:44.622Z</time>
      </trkpt>
      <trkpt lat="37.128630" lon="-3.042710">
        <ele>1911.814</ele>
        <time>2026-07-16T12:14:04.622Z</time>
      </trkpt>
      <trkpt lat="37.128440" lon="-3.042700">
        <ele>1913.709</ele>
        <time>2026-07-16T12:14:24.622Z</time>
      </trkpt>
      <trkpt lat="37.127860" lon="-3.042720">
        <ele>1925.967</ele>
        <time>2026-07-16T12:14:44.622Z</time>
      </trkpt>
      <trkpt lat="37.127760" lon="-3.042680">
        <ele>1927.490</ele>
        <time>2026-07-16T12:15:04.622Z</time>
      </trkpt>
      <trkpt lat="37.127720" lon="-3.042630">
        <ele>1927.271</ele>
        <time>2026-07-16T12:15:24.622Z</time>
      </trkpt>
      <trkpt lat="37.127670" lon="-3.042550">
        <ele>1926.463</ele>
        <time>2026-07-16T12:15:44.622Z</time>
      </trkpt>
      <trkpt lat="37.127620" lon="-3.042330">
        <ele>1920.062</ele>
        <time>2026-07-16T12:16:04.622Z</time>
      </trkpt>
      <trkpt lat="37.127560" lon="-3.042220">
        <ele>1918.399</ele>
        <time>2026-07-16T12:16:24.622Z</time>
      </trkpt>
      <trkpt lat="37.127500" lon="-3.042170">
        <ele>1918.729</ele>
        <time>2026-07-16T12:16:44.622Z</time>
      </trkpt>
      <trkpt lat="37.127040" lon="-3.041970">
        <ele>1928.426</ele>
        <time>2026-07-16T12:17:04.622Z</time>
      </trkpt>
      <trkpt lat="37.126680" lon="-3.041820">
        <ele>1940.713</ele>
        <time>2026-07-16T12:17:24.622Z</time>
      </trkpt>
      <trkpt lat="37.126630" lon="-3.041780">
        <ele>1942.173</ele>
        <time>2026-07-16T12:17:44.622Z</time>
      </trkpt>
      <trkpt lat="37.126610" lon="-3.041740">
        <ele>1942.385</ele>
        <time>2026-07-16T12:18:04.622Z</time>
      </trkpt>
      <trkpt lat="37.126590" lon="-3.041700">
        <ele>1942.513</ele>
        <time>2026-07-16T12:18:24.622Z</time>
      </trkpt>
      <trkpt lat="37.126590" lon="-3.041640">
        <ele>1941.709</ele>
        <time>2026-07-16T12:18:44.622Z</time>
      </trkpt>
      <trkpt lat="37.126750" lon="-3.040440">
        <ele>1933.959</ele>
        <time>2026-07-16T12:19:04.622Z</time>
      </trkpt>
      <trkpt lat="37.126740" lon="-3.040260">
        <ele>1935.252</ele>
        <time>2026-07-16T12:19:24.622Z</time>
      </trkpt>
      <trkpt lat="37.126700" lon="-3.040100">
        <ele>1937.523</ele>
        <time>2026-07-16T12:19:44.622Z</time>
      </trkpt>
      <trkpt lat="37.126500" lon="-3.039570">
        <ele>1943.985</ele>
        <time>2026-07-16T12:20:04.622Z</time>
      </trkpt>
      <trkpt lat="37.126410" lon="-3.039300">
        <ele>1944.634</ele>
        <time>2026-07-16T12:20:24.622Z</time>
      </trkpt>
      <trkpt lat="37.126360" lon="-3.039000">
        <ele>1945.141</ele>
        <time>2026-07-16T12:20:44.622Z</time>
      </trkpt>
      <trkpt lat="37.126320" lon="-3.038630">
        <ele>1947.931</ele>
        <time>2026-07-16T12:21:04.622Z</time>
      </trkpt>
      <trkpt lat="37.126260" lon="-3.037920">
        <ele>1947.618</ele>
        <time>2026-07-16T12:21:24.622Z</time>
      </trkpt>
      <trkpt lat="37.126200" lon="-3.037650">
        <ele>1943.895</ele>
        <time>2026-07-16T12:21:44.622Z</time>
      </trkpt>
      <trkpt lat="37.126140" lon="-3.037570">
        <ele>1942.521</ele>
        <time>2026-07-16T12:22:04.622Z</time>
      </trkpt>
      <trkpt lat="37.126070" lon="-3.037510">
        <ele>1942.441</ele>
        <time>2026-07-16T12:22:24.622Z</time>
      </trkpt>
      <trkpt lat="37.125820" lon="-3.037420">
        <ele>1947.305</ele>
        <time>2026-07-16T12:22:44.622Z</time>
      </trkpt>
      <trkpt lat="37.125380" lon="-3.037300">
        <ele>1952.709</ele>
        <time>2026-07-16T12:23:04.622Z</time>
      </trkpt>
      <trkpt lat="37.125210" lon="-3.037330">
        <ele>1956.694</ele>
        <time>2026-07-16T12:23:24.622Z</time>
      </trkpt>
      <trkpt lat="37.125050" lon="-3.037350">
        <ele>1960.167</ele>
        <time>2026-07-16T12:23:44.622Z</time>
      </trkpt>
      <trkpt lat="37.124930" lon="-3.037340">
        <ele>1961.328</ele>
        <time>2026-07-16T12:24:04.622Z</time>
      </trkpt>
      <trkpt lat="37.124730" lon="-3.037270">
        <ele>1959.730</ele>
        <time>2026-07-16T12:24:24.622Z</time>
      </trkpt>
      <trkpt lat="37.124500" lon="-3.037130">
        <ele>1962.569</ele>
        <time>2026-07-16T12:24:44.622Z</time>
      </trkpt>
      <trkpt lat="37.124350" lon="-3.036960">
        <ele>1963.046</ele>
        <time>2026-07-16T12:25:04.622Z</time>
      </trkpt>
      <trkpt lat="37.124070" lon="-3.036560">
        <ele>1966.016</ele>
        <time>2026-07-16T12:25:24.622Z</time>
      </trkpt>
      <trkpt lat="37.123930" lon="-3.036440">
        <ele>1968.883</ele>
        <time>2026-07-16T12:25:44.622Z</time>
      </trkpt>
      <trkpt lat="37.123800" lon="-3.036270">
        <ele>1970.220</ele>
        <time>2026-07-16T12:26:04.622Z</time>
      </trkpt>
      <trkpt lat="37.123720" lon="-3.036110">
        <ele>1969.956</ele>
        <time>2026-07-16T12:26:24.622Z</time>
      </trkpt>
      <trkpt lat="37.123640" lon="-3.035910">
        <ele>1968.859</ele>
        <time>2026-07-16T12:26:44.622Z</time>
      </trkpt>
      <trkpt lat="37.123320" lon="-3.035480">
        <ele>1970.114</ele>
        <time>2026-07-16T12:27:04.622Z</time>
      </trkpt>
      <trkpt lat="37.123240" lon="-3.035410">
        <ele>1969.809</ele>
        <time>2026-07-16T12:27:24.622Z</time>
      </trkpt>
      <trkpt lat="37.123170" lon="-3.035380">
        <ele>1970.537</ele>
        <time>2026-07-16T12:27:44.622Z</time>
      </trkpt>
      <trkpt lat="37.122920" lon="-3.035300">
        <ele>1976.070</ele>
        <time>2026-07-16T12:28:04.622Z</time>
      </trkpt>
      <trkpt lat="37.122650" lon="-3.035170">
        <ele>1980.661</ele>
        <time>2026-07-16T12:28:24.622Z</time>
      </trkpt>
      <trkpt lat="37.122360" lon="-3.034940">
        <ele>1981.623</ele>
        <time>2026-07-16T12:28:44.622Z</time>
      </trkpt>
      <trkpt lat="37.122300" lon="-3.034840">
        <ele>1980.792</ele>
        <time>2026-07-16T12:29:04.622Z</time>
      </trkpt>
      <trkpt lat="37.122190" lon="-3.034590">
        <ele>1978.149</ele>
        <time>2026-07-16T12:29:24.622Z</time>
      </trkpt>
      <trkpt lat="37.122100" lon="-3.034400">
        <ele>1976.119</ele>
        <time>2026-07-16T12:29:44.622Z</time>
      </trkpt>
      <trkpt lat="37.122000" lon="-3.034290">
        <ele>1975.856</ele>
        <time>2026-07-16T12:30:04.622Z</time>
      </trkpt>
      <trkpt lat="37.121710" lon="-3.034190">
        <ele>1981.663</ele>
        <time>2026-07-16T12:30:24.622Z</time>
      </trkpt>
      <trkpt lat="37.121430" lon="-3.034100">
        <ele>1986.223</ele>
        <time>2026-07-16T12:30:44.622Z</time>
      </trkpt>
      <trkpt lat="37.121060" lon="-3.034090">
        <ele>1991.783</ele>
        <time>2026-07-16T12:31:04.622Z</time>
      </trkpt>
      <trkpt lat="37.120880" lon="-3.034040">
        <ele>1993.611</ele>
        <time>2026-07-16T12:31:24.622Z</time>
      </trkpt>
      <trkpt lat="37.120770" lon="-3.033960">
        <ele>1991.909</ele>
        <time>2026-07-16T12:31:44.622Z</time>
      </trkpt>
      <trkpt lat="37.120660" lon="-3.033850">
        <ele>1989.564</ele>
        <time>2026-07-16T12:32:04.622Z</time>
      </trkpt>
      <trkpt lat="37.120560" lon="-3.033800">
        <ele>1989.427</ele>
        <time>2026-07-16T12:32:24.622Z</time>
      </trkpt>
      <trkpt lat="37.120360" lon="-3.033730">
        <ele>1990.718</ele>
        <time>2026-07-16T12:32:44.622Z</time>
      </trkpt>
      <trkpt lat="37.120270" lon="-3.033670">
        <ele>1991.420</ele>
        <time>2026-07-16T12:33:04.622Z</time>
      </trkpt>
      <trkpt lat="37.120190" lon="-3.033560">
        <ele>1992.959</ele>
        <time>2026-07-16T12:33:24.622Z</time>
      </trkpt>
      <trkpt lat="37.120090" lon="-3.033370">
        <ele>1993.486</ele>
        <time>2026-07-16T12:33:44.622Z</time>
      </trkpt>
      <trkpt lat="37.120020" lon="-3.033290">
        <ele>1994.466</ele>
        <time>2026-07-16T12:34:04.622Z</time>
      </trkpt>
      <trkpt lat="37.119890" lon="-3.033240">
        <ele>1998.193</ele>
        <time>2026-07-16T12:34:24.622Z</time>
      </trkpt>
      <trkpt lat="37.119720" lon="-3.033170">
        <ele>2002.110</ele>
        <time>2026-07-16T12:34:44.622Z</time>
      </trkpt>
      <trkpt lat="37.119670" lon="-3.033120">
        <ele>2002.434</ele>
        <time>2026-07-16T12:35:04.622Z</time>
      </trkpt>
      <trkpt lat="37.119590" lon="-3.032940">
        <ele>2002.955</ele>
        <time>2026-07-16T12:35:24.622Z</time>
      </trkpt>
      <trkpt lat="37.119540" lon="-3.032830">
        <ele>2003.410</ele>
        <time>2026-07-16T12:35:44.622Z</time>
      </trkpt>
      <trkpt lat="37.119490" lon="-3.032780">
        <ele>2003.709</ele>
        <time>2026-07-16T12:36:04.622Z</time>
      </trkpt>
      <trkpt lat="37.119250" lon="-3.032630">
        <ele>2009.965</ele>
        <time>2026-07-16T12:36:24.622Z</time>
      </trkpt>
      <trkpt lat="37.118840" lon="-3.032390">
        <ele>2011.488</ele>
        <time>2026-07-16T12:36:44.622Z</time>
      </trkpt>
      <trkpt lat="37.118670" lon="-3.032300">
        <ele>2013.069</ele>
        <time>2026-07-16T12:37:04.622Z</time>
      </trkpt>
      <trkpt lat="37.118570" lon="-3.032290">
        <ele>2013.211</ele>
        <time>2026-07-16T12:37:24.622Z</time>
      </trkpt>
      <trkpt lat="37.118230" lon="-3.032270">
        <ele>2014.970</ele>
        <time>2026-07-16T12:37:44.622Z</time>
      </trkpt>
      <trkpt lat="37.117970" lon="-3.032180">
        <ele>2016.657</ele>
        <time>2026-07-16T12:38:04.622Z</time>
      </trkpt>
      <trkpt lat="37.117870" lon="-3.032100">
        <ele>2017.267</ele>
        <time>2026-07-16T12:38:24.622Z</time>
      </trkpt>
      <trkpt lat="37.117660" lon="-3.031880">
        <ele>2018.884</ele>
        <time>2026-07-16T12:38:44.622Z</time>
      </trkpt>
      <trkpt lat="37.117390" lon="-3.031590">
        <ele>2021.771</ele>
        <time>2026-07-16T12:39:04.622Z</time>
      </trkpt>
      <trkpt lat="37.117270" lon="-3.031490">
        <ele>2021.897</ele>
        <time>2026-07-16T12:39:24.622Z</time>
      </trkpt>
      <trkpt lat="37.117150" lon="-3.031430">
        <ele>2021.923</ele>
        <time>2026-07-16T12:39:44.622Z</time>
      </trkpt>
      <trkpt lat="37.116820" lon="-3.031390">
        <ele>2023.925</ele>
        <time>2026-07-16T12:40:04.622Z</time>
      </trkpt>
      <trkpt lat="37.116520" lon="-3.031380">
        <ele>2026.209</ele>
        <time>2026-07-16T12:40:24.622Z</time>
      </trkpt>
      <trkpt lat="37.116370" lon="-3.031350">
        <ele>2027.881</ele>
        <time>2026-07-16T12:40:44.622Z</time>
      </trkpt>
      <trkpt lat="37.116170" lon="-3.031270">
        <ele>2030.414</ele>
        <time>2026-07-16T12:41:04.622Z</time>
      </trkpt>
      <trkpt lat="37.115760" lon="-3.031070">
        <ele>2031.415</ele>
        <time>2026-07-16T12:41:24.622Z</time>
      </trkpt>
      <trkpt lat="37.115400" lon="-3.030800">
        <ele>2033.927</ele>
        <time>2026-07-16T12:41:44.622Z</time>
      </trkpt>
      <trkpt lat="37.115030" lon="-3.030560">
        <ele>2036.966</ele>
        <time>2026-07-16T12:42:04.622Z</time>
      </trkpt>
      <trkpt lat="37.113790" lon="-3.030040">
        <ele>2042.373</ele>
        <time>2026-07-16T12:42:24.622Z</time>
      </trkpt>
    </trkseg>
  </trk></gpx>