<?xml version="1.0" encoding="UTF-8"?>
<gpx creator="Wikiloc - https://www.wikiloc.com" version="1.1" xmlns="http://www.topografix.com/GPX/1/1" xmlns:xsi="http://www.w3.org/2001/XMLSchema-instance" xsi:schemaLocation="http://www.topografix.com/GPX/1/1 http://www.topografix.com/GPX/1/1/gpx.xsd">
  <metadata>
    <name>Wikiloc - PUERTO CICLISTA: Pico del Buitre</name>
    <link href="https://www.wikiloc.com/cycling-trails/puerto-ciclista-pico-del-buitre-39609811">
      <text>PUERTO CICLISTA: Pico del Buitre - Wikiloc on Wikiloc</text>
    </link>
    <time>2019-08-07T17:00:04Z</time>
  </metadata>
  <trk>
    <name>PUERTO CICLISTA: Pico del Buitre - Wikiloc</name>
    <cmt></cmt>
    <desc></desc>
    <trkseg>
      <trkpt lat="39.993859" lon="-1.043259">
        <ele>1073.164</ele>
        <time>2019-08-07T12:35:04Z</time>
      </trkpt>
      <trkpt lat="39.994655" lon="-1.043435">
        <ele>1069.706</ele>
        <time>2019-08-07T12:38:04Z</time>
      </trkpt>
      <trkpt lat="39.995006" lon="-1.043218">
        <ele>1072.016</ele>
        <time>2019-08-07T12:39:44Z</time>
      </trkpt>
      <trkpt lat="39.996226" lon="-1.043523">
        <ele>1076.908</ele>
        <time>2019-08-07T12:42:44Z</time>
      </trkpt>
      <trkpt lat="39.997386" lon="-1.043944">
        <ele>1074.019</ele>
        <time>2019-08-07T12:46:24Z</time>
      </trkpt>
      <trkpt lat="39.998333" lon="-1.044597">
        <ele>1080.095</ele>
        <time>2019-08-07T12:49:04Z</time>
      </trkpt>
      <trkpt lat="40.000858" lon="-1.045137">
        <ele>1090.612</ele>
        <time>2019-08-07T12:54:24Z</time>
      </trkpt>
      <trkpt lat="40.001562" lon="-1.045076">
        <ele>1093.556</ele>
        <time>2019-08-07T12:56:24Z</time>
      </trkpt>
      <trkpt lat="40.001944" lon="-1.044723">
        <ele>1096.395</ele>
        <time>2019-08-07T12:58:24Z</time>
      </trkpt>
      <trkpt lat="40.002356" lon="-1.044802">
        <ele>1097.224</ele>
        <time>2019-08-07T13:00:44Z</time>
      </trkpt>
      <trkpt lat="40.003038" lon="-1.044271">
        <ele>1100.287</ele>
        <time>2019-08-07T13:02:24Z</time>
      </trkpt>
      <trkpt lat="40.004153" lon="-1.043927">
        <ele>1106.467</ele>
        <time>2019-08-07T13:06:24Z</time>
      </trkpt>
      <trkpt lat="40.004855" lon="-1.044124">
        <ele>1108.515</ele>
        <time>2019-08-07T13:08:44Z</time>
      </trkpt>
      <trkpt lat="40.005663" lon="-1.044945">
        <ele>1109.665</ele>
        <time>2019-08-07T13:10:24Z</time>
      </trkpt>
      <trkpt lat="40.006861" lon="-1.045370">
        <ele>1114.611</ele>
        <time>2019-08-07T13:12:04Z</time>
      </trkpt>
      <trkpt lat="40.008190" lon="-1.045146">
        <ele>1123.108</ele>
        <time>2019-08-07T13:14:44Z</time>
      </trkpt>
      <trkpt lat="40.009134" lon="-1.043478">
        <ele>1133.834</ele>
        <time>2019-08-07T13:17:44Z</time>
      </trkpt>
      <trkpt lat="40.010286" lon="-1.042986">
        <ele>1141.070</ele>
        <time>2019-08-07T13:20:44Z</time>
      </trkpt>
      <trkpt lat="40.010873" lon="-1.042978">
        <ele>1144.257</ele>
        <time>2019-08-07T13:22:24Z</time>
      </trkpt>
      <trkpt lat="40.011318" lon="-1.042765">
        <ele>1147.591</ele>
        <time>2019-08-07T13:23:44Z</time>
      </trkpt>
      <trkpt lat="40.011971" lon="-1.042883">
        <ele>1152.810</ele>
        <time>2019-08-07T13:25:04Z</time>
      </trkpt>
      <trkpt lat="40.012371" lon="-1.043228">
        <ele>1154.489</ele>
        <time>2019-08-07T13:26:44Z</time>
      </trkpt>
      <trkpt lat="40.013560" lon="-1.043398">
        <ele>1161.782</ele>
        <time>2019-08-07T13:28:44Z</time>
      </trkpt>
      <trkpt lat="40.014200" lon="-1.043293">
        <ele>1169.372</ele>
        <time>2019-08-07T13:31:04Z</time>
      </trkpt>
      <trkpt lat="40.015372" lon="-1.044356">
        <ele>1171.564</ele>
        <time>2019-08-07T13:33:44Z</time>
      </trkpt>
      <trkpt lat="40.016297" lon="-1.044654">
        <ele>1171.306</ele>
        <time>2019-08-07T13:36:04Z</time>
      </trkpt>
      <trkpt lat="40.016616" lon="-1.045010">
        <ele>1171.016</ele>
        <time>2019-08-07T13:38:04Z</time>
      </trkpt>
      <trkpt lat="40.017121" lon="-1.044482">
        <ele>1173.008</ele>
        <time>2019-08-07T13:39:44Z</time>
      </trkpt>
      <trkpt lat="40.017925" lon="-1.044450">
        <ele>1183.069</ele>
        <time>2019-08-07T13:41:44Z</time>
      </trkpt>
      <trkpt lat="40.018272" lon="-1.044262">
        <ele>1185.015</ele>
        <time>2019-08-07T13:42:44Z</time>
      </trkpt>
      <trkpt lat="40.019089" lon="-1.044298">
        <ele>1189.612</ele>
        <time>2019-08-07T13:44:24Z</time>
      </trkpt>
      <trkpt lat="40.021023" lon="-1.043949">
        <ele>1198.026</ele>
        <time>2019-08-07T13:47:44Z</time>
      </trkpt>
      <trkpt lat="40.022675" lon="-1.044264">
        <ele>1216.895</ele>
        <time>2019-08-07T13:51:24Z</time>
      </trkpt>
      <trkpt lat="40.022917" lon="-1.044157">
        <ele>1222.534</ele>
        <time>2019-08-07T13:52:24Z</time>
      </trkpt>
      <trkpt lat="40.023221" lon="-1.043633">
        <ele>1229.497</ele>
        <time>2019-08-07T13:53:24Z</time>
      </trkpt>
      <trkpt lat="40.024747" lon="-1.042032">
        <ele>1237.147</ele>
        <time>2019-08-07T13:56:04Z</time>
      </trkpt>
      <trkpt lat="40.025834" lon="-1.041506">
        <ele>1242.046</ele>
        <time>2019-08-07T13:58:04Z</time>
      </trkpt>
      <trkpt lat="40.026630" lon="-1.041525">
        <ele>1243.588</ele>
        <time>2019-08-07T14:00:44Z</time>
      </trkpt>
      <trkpt lat="40.027753" lon="-1.040224">
        <ele>1269.716</ele>
        <time>2019-08-07T14:03:24Z</time>
      </trkpt>
      <trkpt lat="40.028127" lon="-1.039975">
        <ele>1275.708</ele>
        <time>2019-08-07T14:04:04Z</time>
      </trkpt>
      <trkpt lat="40.028630" lon="-1.039810">
        <ele>1281.717</ele>
        <time>2019-08-07T14:05:44Z</time>
      </trkpt>
      <trkpt lat="40.029714" lon="-1.039014">
        <ele>1300.823</ele>
        <time>2019-08-07T14:08:44Z</time>
      </trkpt>
      <trkpt lat="40.030591" lon="-1.039242">
        <ele>1310.320</ele>
        <time>2019-08-07T14:12:04Z</time>
      </trkpt>
      <trkpt lat="40.031166" lon="-1.038645">
        <ele>1322.434</ele>
        <time>2019-08-07T14:15:04Z</time>
      </trkpt>
      <trkpt lat="40.031553" lon="-1.040215">
        <ele>1335.223</ele>
        <time>2019-08-07T14:20:44Z</time>
      </trkpt>
      <trkpt lat="40.032331" lon="-1.040556">
        <ele>1344.552</ele>
        <time>2019-08-07T14:23:44Z</time>
      </trkpt>
      <trkpt lat="40.033164" lon="-1.040674">
        <ele>1356.695</ele>
        <time>2019-08-07T14:25:44Z</time>
      </trkpt>
      <trkpt lat="40.034243" lon="-1.039960">
        <ele>1365.075</ele>
        <time>2019-08-07T14:28:24Z</time>
      </trkpt>
      <trkpt lat="40.034861" lon="-1.038919">
        <ele>1377.073</ele>
        <time>2019-08-07T14:31:24Z</time>
      </trkpt>
      <trkpt lat="40.035767" lon="-1.039025">
        <ele>1385.985</ele>
        <time>2019-08-07T14:33:44Z</time>
      </trkpt>
      <trkpt lat="40.036365" lon="-1.038606">
        <ele>1397.813</ele>
        <time>2019-08-07T14:36:04Z</time>
      </trkpt>
      <trkpt lat="40.036971" lon="-1.038709">
        <ele>1400.908</ele>
        <time>2019-08-07T14:38:04Z</time>
      </trkpt>
      <trkpt lat="40.038172" lon="-1.038542">
        <ele>1409.530</ele>
        <time>2019-08-07T14:41:24Z</time>
      </trkpt>
      <trkpt lat="40.039208" lon="-1.038792">
        <ele>1417.246</ele>
        <time>2019-08-07T14:44:44Z</time>
      </trkpt>
      <trkpt lat="40.040238" lon="-1.039363">
        <ele>1422.613</ele>
        <time>2019-08-07T14:47:04Z</time>
      </trkpt>
      <trkpt lat="40.041563" lon="-1.041593">
        <ele>1416.467</ele>
        <time>2019-08-07T14:52:04Z</time>
      </trkpt>
      <trkpt lat="40.042407" lon="-1.041961">
        <ele>1416.066</ele>
        <time>2019-08-07T14:55:04Z</time>
      </trkpt>
      <trkpt lat="40.043271" lon="-1.041945">
        <ele>1424.225</ele>
        <time>2019-08-07T14:57:04Z</time>
      </trkpt>
      <trkpt lat="40.044551" lon="-1.040558">
        <ele>1441.058</ele>
        <time>2019-08-07T15:01:04Z</time>
      </trkpt>
      <trkpt lat="40.044860" lon="-1.039247">
        <ele>1455.418</ele>
        <time>2019-08-07T15:04:04Z</time>
      </trkpt>
      <trkpt lat="40.045319" lon="-1.038412">
        <ele>1466.236</ele>
        <time>2019-08-07T15:06:44Z</time>
      </trkpt>
      <trkpt lat="40.045732" lon="-1.037025">
        <ele>1483.317</ele>
        <time>2019-08-07T15:11:24Z</time>
      </trkpt>
      <trkpt lat="40.045526" lon="-1.036441">
        <ele>1490.318</ele>
        <time>2019-08-07T15:13:44Z</time>
      </trkpt>
      <trkpt lat="40.045353" lon="-1.036823">
        <ele>1497.008</ele>
        <time>2019-08-07T15:15:44Z</time>
      </trkpt>
      <trkpt lat="40.045023" lon="-1.036921">
        <ele>1496.756</ele>
        <time>2019-08-07T15:17:44Z</time>
      </trkpt>
      <trkpt lat="40.044748" lon="-1.037326">
        <ele>1495.032</ele>
        <time>2019-08-07T15:19:44Z</time>
      </trkpt>
      <trkpt lat="40.043918" lon="-1.037007">
        <ele>1499.069</ele>
        <time>2019-08-07T15:22:24Z</time>
      </trkpt>
      <trkpt lat="40.043126" lon="-1.037388">
        <ele>1510.333</ele>
        <time>2019-08-07T15:25:24Z</time>
      </trkpt>
      <trkpt lat="40.042524" lon="-1.037010">
        <ele>1517.952</ele>
        <time>2019-08-07T15:28:04Z</time>
      </trkpt>
      <trkpt lat="40.043710" lon="-1.035796">
        <ele>1539.721</ele>
        <time>2019-08-07T15:33:04Z</time>
      </trkpt>
      <trkpt lat="40.043554" lon="-1.035154">
        <ele>1545.084</ele>
        <time>2019-08-07T15:35:24Z</time>
      </trkpt>
      <trkpt lat="40.043819" lon="-1.034490">
        <ele>1548.624</ele>
        <time>2019-08-07T15:36:44Z</time>
      </trkpt>
      <trkpt lat="40.045168" lon="-1.034148">
        <ele>1568.943</ele>
        <time>2019-08-07T15:39:24Z</time>
      </trkpt>
      <trkpt lat="40.045774" lon="-1.033371">
        <ele>1575.664</ele>
        <time>2019-08-07T15:41:04Z</time>
      </trkpt>
      <trkpt lat="40.045894" lon="-1.032713">
        <ele>1581.610</ele>
        <time>2019-08-07T15:43:24Z</time>
      </trkpt>
      <trkpt lat="40.045547" lon="-1.033251">
        <ele>1582.008</ele>
        <time>2019-08-07T15:45:24Z</time>
      </trkpt>
      <trkpt lat="40.045430" lon="-1.033160">
        <ele>1586.127</ele>
        <time>2019-08-07T15:46:44Z</time>
      </trkpt>
      <trkpt lat="40.046027" lon="-1.031495">
        <ele>1618.653</ele>
        <time>2019-08-07T15:49:44Z</time>
      </trkpt>
      <trkpt lat="40.046593" lon="-1.030764">
        <ele>1623.540</ele>
        <time>2019-08-07T15:50:44Z</time>
      </trkpt>
      <trkpt lat="40.047388" lon="-1.030108">
        <ele>1626.594</ele>
        <time>2019-08-07T15:52:24Z</time>
      </trkpt>
      <trkpt lat="40.047527" lon="-1.028599">
        <ele>1647.583</ele>
        <time>2019-08-07T15:54:04Z</time>
      </trkpt>
      <trkpt lat="40.047356" lon="-1.027808">
        <ele>1657.752</ele>
        <time>2019-08-07T15:56:24Z</time>
      </trkpt>
      <trkpt lat="40.048124" lon="-1.027378">
        <ele>1670.435</ele>
        <time>2019-08-07T15:58:24Z</time>
      </trkpt>
      <trkpt lat="40.049119" lon="-1.026172">
        <ele>1686.255</ele>
        <time>2019-08-07T16:00:24Z</time>
      </trkpt>
      <trkpt lat="40.050300" lon="-1.026118">
        <ele>1699.899</ele>
        <time>2019-08-07T16:03:04Z</time>
      </trkpt>
      <trkpt lat="40.050700" lon="-1.024831">
        <ele>1713.907</ele>
        <time>2019-08-07T16:05:24Z</time>
      </trkpt>
      <trkpt lat="40.051088" lon="-1.024252">
        <ele>1723.027</ele>
        <time>2019-08-07T16:06:44Z</time>
      </trkpt>
      <trkpt lat="40.051386" lon="-1.024039">
        <ele>1728.808</ele>
        <time>2019-08-07T16:07:44Z</time>
      </trkpt>
      <trkpt lat="40.051974" lon="-1.024116">
        <ele>1732.252</ele>
        <time>2019-08-07T16:10:04Z</time>
      </trkpt>
      <trkpt lat="40.052494" lon="-1.023827">
        <ele>1737.068</ele>
        <time>2019-08-07T16:11:44Z</time>
      </trkpt>
      <trkpt lat="40.052582" lon="-1.023113">
        <ele>1742.885</ele>
        <time>2019-08-07T16:14:04Z</time>
      </trkpt>
      <trkpt lat="40.052907" lon="-1.022694">
        <ele>1748.099</ele>
        <time>2019-08-07T16:15:24Z</time>
      </trkpt>
      <trkpt lat="40.054328" lon="-1.021657">
        <ele>1760.048</ele>
        <time>2019-08-07T16:18:04Z</time>
      </trkpt>
      <trkpt lat="40.054927" lon="-1.021032">
        <ele>1770.877</ele>
        <time>2019-08-07T16:21:04Z</time>
      </trkpt>
      <trkpt lat="40.054663" lon="-1.020809">
        <ele>1772.740</ele>
        <time>2019-08-07T16:22:44Z</time>
      </trkpt>
      <trkpt lat="40.054153" lon="-1.021193">
        <ele>1776.380</ele>
        <time>2019-08-07T16:25:04Z</time>
      </trkpt>
      <trkpt lat="40.052598" lon="-1.021362">
        <ele>1795.067</ele>
        <time>2019-08-07T16:27:24Z</time>
      </trkpt>
      <trkpt lat="40.051993" lon="-1.021239">
        <ele>1801.381</ele>
        <time>2019-08-07T16:29:04Z</time>
      </trkpt>
      <trkpt lat="40.050220" lon="-1.019359">
        <ele>1825.619</ele>
        <time>2019-08-07T16:33:04Z</time>
      </trkpt>
      <trkpt lat="40.050027" lon="-1.018824">
        <ele>1830.208</ele>
        <time>2019-08-07T16:34:04Z</time>
      </trkpt>
      <trkpt lat="40.049759" lon="-1.016494">
        <ele>1854.159</ele>
        <time>2019-08-07T16:37:24Z</time>
      </trkpt>
      <trkpt lat="40.049235" lon="-1.015606">
        <ele>1864.195</ele>
        <time>2019-08-07T16:39:04Z</time>
      </trkpt>
      <trkpt lat="40.048222" lon="-1.015133">
        <ele>1876.742</ele>
        <time>2019-08-07T16:41:24Z</time>
      </trkpt>
      <trkpt lat="40.047611" lon="-1.014631">
        <ele>1884.536</ele>
        <time>2019-08-07T16:42:24Z</time>
      </trkpt>
      <trkpt lat="40.046805" lon="-1.014320">
        <ele>1895.135</ele>
        <time>2019-08-07T16:43:44Z</time>
      </trkpt>
      <trkpt lat="40.046266" lon="-1.013754">
        <ele>1897.024</ele>
        <time>2019-08-07T16:45:24Z</time>
      </trkpt>
      <trkpt lat="40.045400" lon="-1.014598">
        <ele>1908.067</ele>
        <time>2019-08-07T16:48:04Z</time>
      </trkpt>
      <trkpt lat="40.045270" lon="-1.016038">
        <ele>1922.837</ele>
        <time>2019-08-07T16:51:04Z</time>
      </trkpt>
      <trkpt lat="40.044893" lon="-1.016383">
        <ele>1926.076</ele>
        <time>2019-08-07T16:52:44Z</time>
      </trkpt>
      <trkpt lat="40.044672" lon="-1.016384">
        <ele>1927.090</ele>
        <time>2019-08-07T16:53:44Z</time>
      </trkpt>
      <trkpt lat="40.044343" lon="-1.015672">
        <ele>1934.619</ele>
        <time>2019-08-07T16:55:44Z</time>
      </trkpt>
      <trkpt lat="40.043766" lon="-1.015522">
        <ele>1939.108</ele>
        <time>2019-08-07T16:57:04Z</time>
      </trkpt>
      <trkpt lat="40.042262" lon="-1.015952">
        <ele>1950.540</ele>
        <time>2019-08-07T17:00:04Z</time>
      </trkpt>
    </trkseg>
  </trk></gpx>