<?xml version="1.0" encoding="UTF-8"?>
<gpx creator="Wikiloc - https://www.wikiloc.com" version="1.1" xmlns="http://www.topografix.com/GPX/1/1" xmlns:xsi="http://www.w3.org/2001/XMLSchema-instance" xsi:schemaLocation="http://www.topografix.com/GPX/1/1 http://www.topografix.com/GPX/1/1/gpx.xsd">
  <metadata>
    <name>Wikiloc - Punta Liena (Parzán)</name>
    <link href="https://www.wikiloc.com/mountain-biking-trails/punta-liena-parzan-251065727">
      <text>Punta Liena (Parzán) - Wikiloc on Wikiloc</text>
    </link>
    <time>2020-08-06T11:38:21Z</time>
  </metadata>
  <trk>
    <name>Punta Liena (Parzán) - Wikiloc</name>
    <cmt></cmt>
    <desc></desc>
    <trkseg>
      <trkpt lat="42.663970" lon="0.210428">
        <ele>1059.827</ele>
        <time>2020-08-06T08:56:13Z</time>
      </trkpt>
      <trkpt lat="42.663945" lon="0.209939">
        <ele>1061.168</ele>
        <time>2020-08-06T08:56:29Z</time>
      </trkpt>
      <trkpt lat="42.663443" lon="0.209292">
        <ele>1068.014</ele>
        <time>2020-08-06T08:56:54Z</time>
      </trkpt>
      <trkpt lat="42.663159" lon="0.208491">
        <ele>1073.009</ele>
        <time>2020-08-06T08:57:18Z</time>
      </trkpt>
      <trkpt lat="42.662223" lon="0.207550">
        <ele>1087.194</ele>
        <time>2020-08-06T08:58:07Z</time>
      </trkpt>
      <trkpt lat="42.660646" lon="0.204139">
        <ele>1119.167</ele>
        <time>2020-08-06T09:00:21Z</time>
      </trkpt>
      <trkpt lat="42.660760" lon="0.204114">
        <ele>1121.493</ele>
        <time>2020-08-06T09:00:27Z</time>
      </trkpt>
      <trkpt lat="42.661526" lon="0.205231">
        <ele>1130.462</ele>
        <time>2020-08-06T09:01:13Z</time>
      </trkpt>
      <trkpt lat="42.662078" lon="0.205725">
        <ele>1138.018</ele>
        <time>2020-08-06T09:01:42Z</time>
      </trkpt>
      <trkpt lat="42.661738" lon="0.205146">
        <ele>1144.577</ele>
        <time>2020-08-06T09:02:08Z</time>
      </trkpt>
      <trkpt lat="42.661589" lon="0.204557">
        <ele>1149.889</ele>
        <time>2020-08-06T09:02:29Z</time>
      </trkpt>
      <trkpt lat="42.661554" lon="0.203663">
        <ele>1156.154</ele>
        <time>2020-08-06T09:02:57Z</time>
      </trkpt>
      <trkpt lat="42.661693" lon="0.202970">
        <ele>1162.439</ele>
        <time>2020-08-06T09:03:21Z</time>
      </trkpt>
      <trkpt lat="42.661495" lon="0.201860">
        <ele>1169.082</ele>
        <time>2020-08-06T09:03:53Z</time>
      </trkpt>
      <trkpt lat="42.661566" lon="0.201754">
        <ele>1170.143</ele>
        <time>2020-08-06T09:03:59Z</time>
      </trkpt>
      <trkpt lat="42.662113" lon="0.203660">
        <ele>1183.817</ele>
        <time>2020-08-06T09:05:01Z</time>
      </trkpt>
      <trkpt lat="42.662171" lon="0.202598">
        <ele>1191.409</ele>
        <time>2020-08-06T09:05:35Z</time>
      </trkpt>
      <trkpt lat="42.662086" lon="0.201834">
        <ele>1197.480</ele>
        <time>2020-08-06T09:05:58Z</time>
      </trkpt>
      <trkpt lat="42.662184" lon="0.201730">
        <ele>1199.113</ele>
        <time>2020-08-06T09:06:06Z</time>
      </trkpt>
      <trkpt lat="42.662437" lon="0.203409">
        <ele>1209.469</ele>
        <time>2020-08-06T09:06:55Z</time>
      </trkpt>
      <trkpt lat="42.662543" lon="0.203504">
        <ele>1210.568</ele>
        <time>2020-08-06T09:07:01Z</time>
      </trkpt>
      <trkpt lat="42.662882" lon="0.199367">
        <ele>1238.174</ele>
        <time>2020-08-06T09:09:07Z</time>
      </trkpt>
      <trkpt lat="42.662979" lon="0.199369">
        <ele>1240.443</ele>
        <time>2020-08-06T09:09:12Z</time>
      </trkpt>
      <trkpt lat="42.663064" lon="0.200644">
        <ele>1249.845</ele>
        <time>2020-08-06T09:09:55Z</time>
      </trkpt>
      <trkpt lat="42.663317" lon="0.199360">
        <ele>1259.540</ele>
        <time>2020-08-06T09:10:41Z</time>
      </trkpt>
      <trkpt lat="42.663936" lon="0.198507">
        <ele>1265.895</ele>
        <time>2020-08-06T09:11:13Z</time>
      </trkpt>
      <trkpt lat="42.663977" lon="0.197863">
        <ele>1268.172</ele>
        <time>2020-08-06T09:11:28Z</time>
      </trkpt>
      <trkpt lat="42.664172" lon="0.197305">
        <ele>1274.013</ele>
        <time>2020-08-06T09:11:48Z</time>
      </trkpt>
      <trkpt lat="42.664786" lon="0.196299">
        <ele>1283.114</ele>
        <time>2020-08-06T09:12:30Z</time>
      </trkpt>
      <trkpt lat="42.664394" lon="0.194897">
        <ele>1292.109</ele>
        <time>2020-08-06T09:13:16Z</time>
      </trkpt>
      <trkpt lat="42.664672" lon="0.193020">
        <ele>1300.549</ele>
        <time>2020-08-06T09:14:05Z</time>
      </trkpt>
      <trkpt lat="42.665191" lon="0.192270">
        <ele>1306.422</ele>
        <time>2020-08-06T09:14:33Z</time>
      </trkpt>
      <trkpt lat="42.665478" lon="0.192243">
        <ele>1308.168</ele>
        <time>2020-08-06T09:14:42Z</time>
      </trkpt>
      <trkpt lat="42.665698" lon="0.191888">
        <ele>1309.017</ele>
        <time>2020-08-06T09:14:54Z</time>
      </trkpt>
      <trkpt lat="42.665649" lon="0.191643">
        <ele>1309.023</ele>
        <time>2020-08-06T09:15:00Z</time>
      </trkpt>
      <trkpt lat="42.664716" lon="0.191412">
        <ele>1311.032</ele>
        <time>2020-08-06T09:15:22Z</time>
      </trkpt>
      <trkpt lat="42.664410" lon="0.191212">
        <ele>1311.014</ele>
        <time>2020-08-06T09:15:28Z</time>
      </trkpt>
      <trkpt lat="42.663995" lon="0.190572">
        <ele>1311.029</ele>
        <time>2020-08-06T09:15:39Z</time>
      </trkpt>
      <trkpt lat="42.663854" lon="0.189853">
        <ele>1311.044</ele>
        <time>2020-08-06T09:15:49Z</time>
      </trkpt>
      <trkpt lat="42.663935" lon="0.187220">
        <ele>1323.585</ele>
        <time>2020-08-06T09:16:48Z</time>
      </trkpt>
      <trkpt lat="42.664094" lon="0.186846">
        <ele>1325.889</ele>
        <time>2020-08-06T09:16:57Z</time>
      </trkpt>
      <trkpt lat="42.664438" lon="0.186598">
        <ele>1325.817</ele>
        <time>2020-08-06T09:17:08Z</time>
      </trkpt>
      <trkpt lat="42.665325" lon="0.187025">
        <ele>1332.009</ele>
        <time>2020-08-06T09:17:45Z</time>
      </trkpt>
      <trkpt lat="42.665883" lon="0.187029">
        <ele>1332.090</ele>
        <time>2020-08-06T09:18:00Z</time>
      </trkpt>
      <trkpt lat="42.665819" lon="0.186724">
        <ele>1332.083</ele>
        <time>2020-08-06T09:18:03Z</time>
      </trkpt>
      <trkpt lat="42.665237" lon="0.186212">
        <ele>1334.549</ele>
        <time>2020-08-06T09:18:24Z</time>
      </trkpt>
      <trkpt lat="42.664988" lon="0.185682">
        <ele>1336.518</ele>
        <time>2020-08-06T09:18:38Z</time>
      </trkpt>
      <trkpt lat="42.664915" lon="0.184344">
        <ele>1340.574</ele>
        <time>2020-08-06T09:19:07Z</time>
      </trkpt>
      <trkpt lat="42.664776" lon="0.184118">
        <ele>1340.553</ele>
        <time>2020-08-06T09:19:13Z</time>
      </trkpt>
      <trkpt lat="42.664345" lon="0.184349">
        <ele>1342.855</ele>
        <time>2020-08-06T09:19:29Z</time>
      </trkpt>
      <trkpt lat="42.664077" lon="0.184215">
        <ele>1344.090</ele>
        <time>2020-08-06T09:19:40Z</time>
      </trkpt>
      <trkpt lat="42.663289" lon="0.182030">
        <ele>1356.455</ele>
        <time>2020-08-06T09:20:47Z</time>
      </trkpt>
      <trkpt lat="42.662135" lon="0.180386">
        <ele>1371.075</ele>
        <time>2020-08-06T09:21:56Z</time>
      </trkpt>
      <trkpt lat="42.661838" lon="0.179718">
        <ele>1376.528</ele>
        <time>2020-08-06T09:22:22Z</time>
      </trkpt>
      <trkpt lat="42.661228" lon="0.178952">
        <ele>1384.120</ele>
        <time>2020-08-06T09:23:00Z</time>
      </trkpt>
      <trkpt lat="42.660727" lon="0.178645">
        <ele>1389.809</ele>
        <time>2020-08-06T09:23:25Z</time>
      </trkpt>
      <trkpt lat="42.660713" lon="0.178158">
        <ele>1394.149</ele>
        <time>2020-08-06T09:23:43Z</time>
      </trkpt>
      <trkpt lat="42.661181" lon="0.177343">
        <ele>1398.842</ele>
        <time>2020-08-06T09:24:15Z</time>
      </trkpt>
      <trkpt lat="42.661637" lon="0.176027">
        <ele>1405.058</ele>
        <time>2020-08-06T09:24:56Z</time>
      </trkpt>
      <trkpt lat="42.661735" lon="0.175468">
        <ele>1407.197</ele>
        <time>2020-08-06T09:25:17Z</time>
      </trkpt>
      <trkpt lat="42.661660" lon="0.174711">
        <ele>1413.543</ele>
        <time>2020-08-06T09:25:46Z</time>
      </trkpt>
      <trkpt lat="42.661874" lon="0.173686">
        <ele>1424.092</ele>
        <time>2020-08-06T09:26:29Z</time>
      </trkpt>
      <trkpt lat="42.662712" lon="0.171935">
        <ele>1436.174</ele>
        <time>2020-08-06T09:27:45Z</time>
      </trkpt>
      <trkpt lat="42.663054" lon="0.171617">
        <ele>1439.189</ele>
        <time>2020-08-06T09:28:08Z</time>
      </trkpt>
      <trkpt lat="42.663144" lon="0.171134">
        <ele>1442.014</ele>
        <time>2020-08-06T09:28:28Z</time>
      </trkpt>
      <trkpt lat="42.663742" lon="0.170288">
        <ele>1452.184</ele>
        <time>2020-08-06T09:29:15Z</time>
      </trkpt>
      <trkpt lat="42.663997" lon="0.170338">
        <ele>1454.107</ele>
        <time>2020-08-06T09:29:29Z</time>
      </trkpt>
      <trkpt lat="42.664146" lon="0.170211">
        <ele>1454.517</ele>
        <time>2020-08-06T09:29:37Z</time>
      </trkpt>
      <trkpt lat="42.664339" lon="0.169771">
        <ele>1456.509</ele>
        <time>2020-08-06T09:29:55Z</time>
      </trkpt>
      <trkpt lat="42.664245" lon="0.169543">
        <ele>1457.530</ele>
        <time>2020-08-06T09:30:03Z</time>
      </trkpt>
      <trkpt lat="42.664286" lon="0.169263">
        <ele>1459.093</ele>
        <time>2020-08-06T09:30:13Z</time>
      </trkpt>
      <trkpt lat="42.664615" lon="0.169009">
        <ele>1463.139</ele>
        <time>2020-08-06T09:30:34Z</time>
      </trkpt>
      <trkpt lat="42.664627" lon="0.168574">
        <ele>1465.478</ele>
        <time>2020-08-06T09:30:50Z</time>
      </trkpt>
      <trkpt lat="42.665130" lon="0.167826">
        <ele>1471.434</ele>
        <time>2020-08-06T09:31:26Z</time>
      </trkpt>
      <trkpt lat="42.665117" lon="0.166841">
        <ele>1477.013</ele>
        <time>2020-08-06T09:32:04Z</time>
      </trkpt>
      <trkpt lat="42.665208" lon="0.166453">
        <ele>1480.855</ele>
        <time>2020-08-06T09:32:20Z</time>
      </trkpt>
      <trkpt lat="42.665613" lon="0.165535">
        <ele>1487.150</ele>
        <time>2020-08-06T09:33:02Z</time>
      </trkpt>
      <trkpt lat="42.665877" lon="0.165187">
        <ele>1490.075</ele>
        <time>2020-08-06T09:33:21Z</time>
      </trkpt>
      <trkpt lat="42.666224" lon="0.163459">
        <ele>1504.078</ele>
        <time>2020-08-06T09:34:41Z</time>
      </trkpt>
      <trkpt lat="42.666736" lon="0.162654">
        <ele>1510.533</ele>
        <time>2020-08-06T09:35:27Z</time>
      </trkpt>
      <trkpt lat="42.666567" lon="0.162502">
        <ele>1512.126</ele>
        <time>2020-08-06T09:35:36Z</time>
      </trkpt>
      <trkpt lat="42.665974" lon="0.162941">
        <ele>1514.409</ele>
        <time>2020-08-06T09:36:03Z</time>
      </trkpt>
      <trkpt lat="42.665913" lon="0.162542">
        <ele>1514.479</ele>
        <time>2020-08-06T09:36:11Z</time>
      </trkpt>
      <trkpt lat="42.666691" lon="0.161428">
        <ele>1518.832</ele>
        <time>2020-08-06T09:36:53Z</time>
      </trkpt>
      <trkpt lat="42.667657" lon="0.158758">
        <ele>1535.588</ele>
        <time>2020-08-06T09:38:34Z</time>
      </trkpt>
      <trkpt lat="42.667853" lon="0.158530">
        <ele>1536.017</ele>
        <time>2020-08-06T09:38:45Z</time>
      </trkpt>
      <trkpt lat="42.668450" lon="0.158355">
        <ele>1540.413</ele>
        <time>2020-08-06T09:39:11Z</time>
      </trkpt>
      <trkpt lat="42.668393" lon="0.157831">
        <ele>1540.472</ele>
        <time>2020-08-06T09:39:25Z</time>
      </trkpt>
      <trkpt lat="42.669342" lon="0.155613">
        <ele>1543.064</ele>
        <time>2020-08-06T09:40:24Z</time>
      </trkpt>
      <trkpt lat="42.669928" lon="0.154735">
        <ele>1544.599</ele>
        <time>2020-08-06T09:40:50Z</time>
      </trkpt>
      <trkpt lat="42.670985" lon="0.153596">
        <ele>1548.854</ele>
        <time>2020-08-06T09:41:33Z</time>
      </trkpt>
      <trkpt lat="42.671642" lon="0.152626">
        <ele>1553.112</ele>
        <time>2020-08-06T09:42:08Z</time>
      </trkpt>
      <trkpt lat="42.671914" lon="0.152426">
        <ele>1555.032</ele>
        <time>2020-08-06T09:42:20Z</time>
      </trkpt>
      <trkpt lat="42.672387" lon="0.152484">
        <ele>1557.005</ele>
        <time>2020-08-06T09:42:35Z</time>
      </trkpt>
      <trkpt lat="42.673012" lon="0.152307">
        <ele>1560.809</ele>
        <time>2020-08-06T09:43:00Z</time>
      </trkpt>
      <trkpt lat="42.672911" lon="0.151263">
        <ele>1565.573</ele>
        <time>2020-08-06T09:43:33Z</time>
      </trkpt>
      <trkpt lat="42.673640" lon="0.149178">
        <ele>1580.576</ele>
        <time>2020-08-06T09:44:53Z</time>
      </trkpt>
      <trkpt lat="42.675156" lon="0.148333">
        <ele>1597.112</ele>
        <time>2020-08-06T09:46:27Z</time>
      </trkpt>
      <trkpt lat="42.676051" lon="0.147452">
        <ele>1606.411</ele>
        <time>2020-08-06T09:47:32Z</time>
      </trkpt>
      <trkpt lat="42.676827" lon="0.146867">
        <ele>1616.017</ele>
        <time>2020-08-06T09:48:24Z</time>
      </trkpt>
      <trkpt lat="42.677092" lon="0.146116">
        <ele>1623.026</ele>
        <time>2020-08-06T09:49:02Z</time>
      </trkpt>
      <trkpt lat="42.677601" lon="0.145265">
        <ele>1638.448</ele>
        <time>2020-08-06T09:50:07Z</time>
      </trkpt>
      <trkpt lat="42.679765" lon="0.142472">
        <ele>1700.563</ele>
        <time>2020-08-06T09:56:59Z</time>
      </trkpt>
      <trkpt lat="42.680062" lon="0.141385">
        <ele>1713.858</ele>
        <time>2020-08-06T09:58:40Z</time>
      </trkpt>
      <trkpt lat="42.680514" lon="0.141020">
        <ele>1724.849</ele>
        <time>2020-08-06T09:59:49Z</time>
      </trkpt>
      <trkpt lat="42.681187" lon="0.140774">
        <ele>1740.402</ele>
        <time>2020-08-06T10:01:27Z</time>
      </trkpt>
      <trkpt lat="42.681353" lon="0.140504">
        <ele>1745.522</ele>
        <time>2020-08-06T10:01:56Z</time>
      </trkpt>
      <trkpt lat="42.680957" lon="0.139638">
        <ele>1754.409</ele>
        <time>2020-08-06T10:03:16Z</time>
      </trkpt>
      <trkpt lat="42.680850" lon="0.138954">
        <ele>1758.536</ele>
        <time>2020-08-06T10:04:06Z</time>
      </trkpt>
      <trkpt lat="42.681099" lon="0.138446">
        <ele>1762.529</ele>
        <time>2020-08-06T10:04:33Z</time>
      </trkpt>
      <trkpt lat="42.681687" lon="0.137879">
        <ele>1767.155</ele>
        <time>2020-08-06T10:05:16Z</time>
      </trkpt>
      <trkpt lat="42.681886" lon="0.137093">
        <ele>1771.064</ele>
        <time>2020-08-06T10:05:45Z</time>
      </trkpt>
      <trkpt lat="42.682351" lon="0.135950">
        <ele>1776.840</ele>
        <time>2020-08-06T10:06:32Z</time>
      </trkpt>
      <trkpt lat="42.682317" lon="0.135448">
        <ele>1780.119</ele>
        <time>2020-08-06T10:06:57Z</time>
      </trkpt>
      <trkpt lat="42.682478" lon="0.134174">
        <ele>1792.421</ele>
        <time>2020-08-06T10:08:01Z</time>
      </trkpt>
      <trkpt lat="42.682326" lon="0.132574">
        <ele>1799.556</ele>
        <time>2020-08-06T10:10:48Z</time>
      </trkpt>
      <trkpt lat="42.682620" lon="0.131949">
        <ele>1805.581</ele>
        <time>2020-08-06T10:11:21Z</time>
      </trkpt>
      <trkpt lat="42.682919" lon="0.130768">
        <ele>1814.145</ele>
        <time>2020-08-06T10:12:17Z</time>
      </trkpt>
      <trkpt lat="42.682882" lon="0.129806">
        <ele>1816.447</ele>
        <time>2020-08-06T10:12:51Z</time>
      </trkpt>
      <trkpt lat="42.683066" lon="0.129278">
        <ele>1822.511</ele>
        <time>2020-08-06T10:13:25Z</time>
      </trkpt>
      <trkpt lat="42.683509" lon="0.131110">
        <ele>1840.409</ele>
        <time>2020-08-06T10:15:12Z</time>
      </trkpt>
      <trkpt lat="42.683459" lon="0.131822">
        <ele>1846.556</ele>
        <time>2020-08-06T10:15:49Z</time>
      </trkpt>
      <trkpt lat="42.683785" lon="0.134773">
        <ele>1873.819</ele>
        <time>2020-08-06T10:18:37Z</time>
      </trkpt>
      <trkpt lat="42.684303" lon="0.135273">
        <ele>1884.485</ele>
        <time>2020-08-06T10:19:29Z</time>
      </trkpt>
      <trkpt lat="42.684484" lon="0.135718">
        <ele>1887.044</ele>
        <time>2020-08-06T10:19:57Z</time>
      </trkpt>
      <trkpt lat="42.683713" lon="0.137481">
        <ele>1903.540</ele>
        <time>2020-08-06T10:21:36Z</time>
      </trkpt>
      <trkpt lat="42.683627" lon="0.138044">
        <ele>1903.559</ele>
        <time>2020-08-06T10:21:57Z</time>
      </trkpt>
      <trkpt lat="42.683261" lon="0.138918">
        <ele>1908.091</ele>
        <time>2020-08-06T10:22:29Z</time>
      </trkpt>
      <trkpt lat="42.683329" lon="0.139278">
        <ele>1908.486</ele>
        <time>2020-08-06T10:22:42Z</time>
      </trkpt>
      <trkpt lat="42.683759" lon="0.139808">
        <ele>1915.191</ele>
        <time>2020-08-06T10:23:18Z</time>
      </trkpt>
      <trkpt lat="42.684281" lon="0.141031">
        <ele>1925.478</ele>
        <time>2020-08-06T10:24:25Z</time>
      </trkpt>
      <trkpt lat="42.684334" lon="0.142370">
        <ele>1934.033</ele>
        <time>2020-08-06T10:25:27Z</time>
      </trkpt>
      <trkpt lat="42.684501" lon="0.143326">
        <ele>1939.826</ele>
        <time>2020-08-06T10:26:13Z</time>
      </trkpt>
      <trkpt lat="42.684039" lon="0.144461">
        <ele>1949.109</ele>
        <time>2020-08-06T10:27:22Z</time>
      </trkpt>
      <trkpt lat="42.683685" lon="0.144706">
        <ele>1953.839</ele>
        <time>2020-08-06T10:27:48Z</time>
      </trkpt>
      <trkpt lat="42.683252" lon="0.145608">
        <ele>1960.442</ele>
        <time>2020-08-06T10:29:19Z</time>
      </trkpt>
      <trkpt lat="42.683384" lon="0.145771">
        <ele>1961.188</ele>
        <time>2020-08-06T10:29:43Z</time>
      </trkpt>
      <trkpt lat="42.683729" lon="0.145667">
        <ele>1965.467</ele>
        <time>2020-08-06T10:30:28Z</time>
      </trkpt>
      <trkpt lat="42.683876" lon="0.145837">
        <ele>1967.833</ele>
        <time>2020-08-06T10:30:41Z</time>
      </trkpt>
      <trkpt lat="42.683622" lon="0.146339">
        <ele>1973.852</ele>
        <time>2020-08-06T10:31:11Z</time>
      </trkpt>
      <trkpt lat="42.683641" lon="0.146546">
        <ele>1973.874</ele>
        <time>2020-08-06T10:31:21Z</time>
      </trkpt>
      <trkpt lat="42.683713" lon="0.146540">
        <ele>1974.149</ele>
        <time>2020-08-06T10:31:25Z</time>
      </trkpt>
      <trkpt lat="42.684269" lon="0.145706">
        <ele>1982.554</ele>
        <time>2020-08-06T10:32:17Z</time>
      </trkpt>
      <trkpt lat="42.684750" lon="0.145297">
        <ele>1988.162</ele>
        <time>2020-08-06T10:32:52Z</time>
      </trkpt>
      <trkpt lat="42.685342" lon="0.145205">
        <ele>1993.483</ele>
        <time>2020-08-06T10:33:31Z</time>
      </trkpt>
      <trkpt lat="42.685691" lon="0.144892">
        <ele>1999.511</ele>
        <time>2020-08-06T10:34:01Z</time>
      </trkpt>
      <trkpt lat="42.685992" lon="0.144913">
        <ele>2004.009</ele>
        <time>2020-08-06T10:34:24Z</time>
      </trkpt>
      <trkpt lat="42.686212" lon="0.144793">
        <ele>2006.128</ele>
        <time>2020-08-06T10:34:42Z</time>
      </trkpt>
      <trkpt lat="42.686322" lon="0.144984">
        <ele>2008.481</ele>
        <time>2020-08-06T10:34:55Z</time>
      </trkpt>
      <trkpt lat="42.686241" lon="0.145421">
        <ele>2012.887</ele>
        <time>2020-08-06T10:35:19Z</time>
      </trkpt>
      <trkpt lat="42.685817" lon="0.145784">
        <ele>2017.466</ele>
        <time>2020-08-06T10:35:53Z</time>
      </trkpt>
      <trkpt lat="42.685168" lon="0.147116">
        <ele>2037.012</ele>
        <time>2020-08-06T10:37:29Z</time>
      </trkpt>
      <trkpt lat="42.685071" lon="0.147707">
        <ele>2043.421</ele>
        <time>2020-08-06T10:38:07Z</time>
      </trkpt>
      <trkpt lat="42.684660" lon="0.148619">
        <ele>2054.663</ele>
        <time>2020-08-06T10:39:08Z</time>
      </trkpt>
      <trkpt lat="42.684672" lon="0.148744">
        <ele>2056.178</ele>
        <time>2020-08-06T10:39:15Z</time>
      </trkpt>
      <trkpt lat="42.684807" lon="0.148773">
        <ele>2057.063</ele>
        <time>2020-08-06T10:39:24Z</time>
      </trkpt>
      <trkpt lat="42.685431" lon="0.148465">
        <ele>2068.365</ele>
        <time>2020-08-06T10:40:20Z</time>
      </trkpt>
      <trkpt lat="42.685824" lon="0.148642">
        <ele>2076.168</ele>
        <time>2020-08-06T10:41:01Z</time>
      </trkpt>
      <trkpt lat="42.686063" lon="0.148482">
        <ele>2082.314</ele>
        <time>2020-08-06T10:42:07Z</time>
      </trkpt>
      <trkpt lat="42.685943" lon="0.148983">
        <ele>2086.809</ele>
        <time>2020-08-06T10:42:36Z</time>
      </trkpt>
      <trkpt lat="42.685648" lon="0.149227">
        <ele>2093.358</ele>
        <time>2020-08-06T10:43:04Z</time>
      </trkpt>
      <trkpt lat="42.685256" lon="0.149857">
        <ele>2099.831</ele>
        <time>2020-08-06T10:43:50Z</time>
      </trkpt>
      <trkpt lat="42.685284" lon="0.150017">
        <ele>2100.347</ele>
        <time>2020-08-06T10:43:59Z</time>
      </trkpt>
      <trkpt lat="42.685589" lon="0.150034">
        <ele>2106.886</ele>
        <time>2020-08-06T10:44:26Z</time>
      </trkpt>
      <trkpt lat="42.685741" lon="0.150273">
        <ele>2108.672</ele>
        <time>2020-08-06T10:44:40Z</time>
      </trkpt>
      <trkpt lat="42.685682" lon="0.151001">
        <ele>2117.111</ele>
        <time>2020-08-06T10:45:26Z</time>
      </trkpt>
      <trkpt lat="42.685454" lon="0.151368">
        <ele>2124.173</ele>
        <time>2020-08-06T10:46:33Z</time>
      </trkpt>
      <trkpt lat="42.684990" lon="0.151511">
        <ele>2130.668</ele>
        <time>2020-08-06T10:47:15Z</time>
      </trkpt>
      <trkpt lat="42.684682" lon="0.152131">
        <ele>2139.163</ele>
        <time>2020-08-06T10:48:02Z</time>
      </trkpt>
      <trkpt lat="42.684122" lon="0.153605">
        <ele>2149.842</ele>
        <time>2020-08-06T10:49:16Z</time>
      </trkpt>
      <trkpt lat="42.683911" lon="0.155143">
        <ele>2155.122</ele>
        <time>2020-08-06T10:50:19Z</time>
      </trkpt>
      <trkpt lat="42.684249" lon="0.155484">
        <ele>2158.614</ele>
        <time>2020-08-06T10:50:46Z</time>
      </trkpt>
      <trkpt lat="42.684561" lon="0.155222">
        <ele>2159.009</ele>
        <time>2020-08-06T10:51:02Z</time>
      </trkpt>
      <trkpt lat="42.684975" lon="0.154555">
        <ele>2167.656</ele>
        <time>2020-08-06T10:51:45Z</time>
      </trkpt>
      <trkpt lat="42.685411" lon="0.154221">
        <ele>2178.149</ele>
        <time>2020-08-06T10:52:44Z</time>
      </trkpt>
      <trkpt lat="42.685706" lon="0.154228">
        <ele>2182.315</ele>
        <time>2020-08-06T10:53:27Z</time>
      </trkpt>
      <trkpt lat="42.685880" lon="0.154372">
        <ele>2185.314</ele>
        <time>2020-08-06T10:53:52Z</time>
      </trkpt>
      <trkpt lat="42.685910" lon="0.154617">
        <ele>2188.820</ele>
        <time>2020-08-06T10:54:13Z</time>
      </trkpt>
      <trkpt lat="42.685577" lon="0.155235">
        <ele>2194.369</ele>
        <time>2020-08-06T10:55:01Z</time>
      </trkpt>
      <trkpt lat="42.685656" lon="0.156177">
        <ele>2203.131</ele>
        <time>2020-08-06T10:55:51Z</time>
      </trkpt>
      <trkpt lat="42.685472" lon="0.157312">
        <ele>2215.096</ele>
        <time>2020-08-06T10:56:58Z</time>
      </trkpt>
      <trkpt lat="42.685420" lon="0.158787">
        <ele>2230.031</ele>
        <time>2020-08-06T10:58:22Z</time>
      </trkpt>
      <trkpt lat="42.685239" lon="0.159442">
        <ele>2234.314</ele>
        <time>2020-08-06T10:58:57Z</time>
      </trkpt>
      <trkpt lat="42.685437" lon="0.160732">
        <ele>2248.054</ele>
        <time>2020-08-06T11:00:13Z</time>
      </trkpt>
      <trkpt lat="42.686277" lon="0.161382">
        <ele>2257.609</ele>
        <time>2020-08-06T11:01:19Z</time>
      </trkpt>
      <trkpt lat="42.686460" lon="0.161727">
        <ele>2261.309</ele>
        <time>2020-08-06T11:01:41Z</time>
      </trkpt>
      <trkpt lat="42.686457" lon="0.162630">
        <ele>2267.033</ele>
        <time>2020-08-06T11:02:22Z</time>
      </trkpt>
      <trkpt lat="42.686003" lon="0.164261">
        <ele>2275.346</ele>
        <time>2020-08-06T11:03:28Z</time>
      </trkpt>
      <trkpt lat="42.686076" lon="0.164324">
        <ele>2276.192</ele>
        <time>2020-08-06T11:03:36Z</time>
      </trkpt>
      <trkpt lat="42.686261" lon="0.164084">
        <ele>2279.861</ele>
        <time>2020-08-06T11:03:56Z</time>
      </trkpt>
      <trkpt lat="42.686720" lon="0.163255">
        <ele>2285.017</ele>
        <time>2020-08-06T11:04:44Z</time>
      </trkpt>
      <trkpt lat="42.687533" lon="0.163080">
        <ele>2293.146</ele>
        <time>2020-08-06T11:05:40Z</time>
      </trkpt>
      <trkpt lat="42.687588" lon="0.163284">
        <ele>2295.158</ele>
        <time>2020-08-06T11:05:52Z</time>
      </trkpt>
      <trkpt lat="42.687085" lon="0.163860">
        <ele>2305.393</ele>
        <time>2020-08-06T11:06:47Z</time>
      </trkpt>
      <trkpt lat="42.687070" lon="0.164099">
        <ele>2308.148</ele>
        <time>2020-08-06T11:07:01Z</time>
      </trkpt>
      <trkpt lat="42.687193" lon="0.164276">
        <ele>2308.652</ele>
        <time>2020-08-06T11:07:16Z</time>
      </trkpt>
      <trkpt lat="42.687984" lon="0.164136">
        <ele>2318.653</ele>
        <time>2020-08-06T11:08:16Z</time>
      </trkpt>
      <trkpt lat="42.688306" lon="0.163850">
        <ele>2324.108</ele>
        <time>2020-08-06T11:09:01Z</time>
      </trkpt>
      <trkpt lat="42.688585" lon="0.163924">
        <ele>2327.109</ele>
        <time>2020-08-06T11:09:38Z</time>
      </trkpt>
      <trkpt lat="42.688696" lon="0.164149">
        <ele>2329.877</ele>
        <time>2020-08-06T11:09:56Z</time>
      </trkpt>
      <trkpt lat="42.688687" lon="0.164489">
        <ele>2333.810</ele>
        <time>2020-08-06T11:10:16Z</time>
      </trkpt>
      <trkpt lat="42.688399" lon="0.165030">
        <ele>2336.656</ele>
        <time>2020-08-06T11:11:09Z</time>
      </trkpt>
      <trkpt lat="42.688261" lon="0.165559">
        <ele>2342.355</ele>
        <time>2020-08-06T11:12:10Z</time>
      </trkpt>
      <trkpt lat="42.688368" lon="0.166145">
        <ele>2346.821</ele>
        <time>2020-08-06T11:13:09Z</time>
      </trkpt>
      <trkpt lat="42.688319" lon="0.166624">
        <ele>2351.010</ele>
        <time>2020-08-06T11:13:33Z</time>
      </trkpt>
      <trkpt lat="42.687846" lon="0.167061">
        <ele>2354.032</ele>
        <time>2020-08-06T11:14:06Z</time>
      </trkpt>
      <trkpt lat="42.686891" lon="0.169130">
        <ele>2375.037</ele>
        <time>2020-08-06T11:16:35Z</time>
      </trkpt>
      <trkpt lat="42.686806" lon="0.169812">
        <ele>2381.882</ele>
        <time>2020-08-06T11:17:19Z</time>
      </trkpt>
      <trkpt lat="42.686649" lon="0.170130">
        <ele>2384.042</ele>
        <time>2020-08-06T11:17:41Z</time>
      </trkpt>
      <trkpt lat="42.686442" lon="0.170268">
        <ele>2387.822</ele>
        <time>2020-08-06T11:17:59Z</time>
      </trkpt>
      <trkpt lat="42.686476" lon="0.170366">
        <ele>2388.114</ele>
        <time>2020-08-06T11:18:09Z</time>
      </trkpt>
      <trkpt lat="42.687449" lon="0.169922">
        <ele>2402.609</ele>
        <time>2020-08-06T11:20:34Z</time>
      </trkpt>
      <trkpt lat="42.688877" lon="0.168827">
        <ele>2415.026</ele>
        <time>2020-08-06T11:22:25Z</time>
      </trkpt>
      <trkpt lat="42.688555" lon="0.169285">
        <ele>2419.149</ele>
        <time>2020-08-06T11:23:12Z</time>
      </trkpt>
      <trkpt lat="42.687967" lon="0.170614">
        <ele>2431.845</ele>
        <time>2020-08-06T11:24:38Z</time>
      </trkpt>
      <trkpt lat="42.687579" lon="0.171116">
        <ele>2438.324</ele>
        <time>2020-08-06T11:25:25Z</time>
      </trkpt>
      <trkpt lat="42.687328" lon="0.171822">
        <ele>2447.110</ele>
        <time>2020-08-06T11:26:19Z</time>
      </trkpt>
      <trkpt lat="42.687403" lon="0.171937">
        <ele>2449.829</ele>
        <time>2020-08-06T11:26:32Z</time>
      </trkpt>
      <trkpt lat="42.687809" lon="0.171553">
        <ele>2455.871</ele>
        <time>2020-08-06T11:27:12Z</time>
      </trkpt>
      <trkpt lat="42.688859" lon="0.170922">
        <ele>2467.076</ele>
        <time>2020-08-06T11:28:31Z</time>
      </trkpt>
      <trkpt lat="42.689079" lon="0.170920">
        <ele>2471.021</ele>
        <time>2020-08-06T11:29:08Z</time>
      </trkpt>
      <trkpt lat="42.688387" lon="0.172061">
        <ele>2484.053</ele>
        <time>2020-08-06T11:36:28Z</time>
      </trkpt>
      <trkpt lat="42.688142" lon="0.172303">
        <ele>2484.004</ele>
        <time>2020-08-06T11:36:56Z</time>
      </trkpt>
      <trkpt lat="42.688164" lon="0.172537">
        <ele>2486.014</ele>
        <time>2020-08-06T11:37:19Z</time>
      </trkpt>
      <trkpt lat="42.687900" lon="0.173409">
        <ele>2493.109</ele>
        <time>2020-08-06T11:38:21Z</time>
      </trkpt>
    </trkseg>
  </trk></gpx>