<?xml version="1.0" encoding="UTF-8"?>
<gpx creator="Wikiloc - https://www.wikiloc.com" version="1.1" xmlns="http://www.topografix.com/GPX/1/1" xmlns:xsi="http://www.w3.org/2001/XMLSchema-instance" xsi:schemaLocation="http://www.topografix.com/GPX/1/1 http://www.topografix.com/GPX/1/1/gpx.xsd">
  <metadata>
    <name>Wikiloc - SIERRA DE ALFAGUARA (por Puerto Lobo)</name>
    <link href="https://www.wikiloc.com/cycling-trails/sierra-de-alfaguara-por-puerto-lobo-264825908">
      <text>SIERRA DE ALFAGUARA (por Puerto Lobo) - Wikiloc on Wikiloc</text>
    </link>
    <time>2026-07-16T10:11:42.068Z</time>
  </metadata>
  <trk>
    <name>SIERRA DE ALFAGUARA (por Puerto Lobo) - Wikiloc</name>
    <cmt></cmt>
    <desc></desc>
    <trkseg>
      <trkpt lat="37.213080" lon="-3.592880">
        <ele>752.625</ele>
        <time>2026-07-16T10:11:42.066Z</time>
      </trkpt>
      <trkpt lat="37.213130" lon="-3.592880">
        <ele>752.526</ele>
        <time>2026-07-16T10:12:02.066Z</time>
      </trkpt>
      <trkpt lat="37.213680" lon="-3.592510">
        <ele>755.208</ele>
        <time>2026-07-16T10:12:22.066Z</time>
      </trkpt>
      <trkpt lat="37.214180" lon="-3.592100">
        <ele>758.809</ele>
        <time>2026-07-16T10:12:42.066Z</time>
      </trkpt>
      <trkpt lat="37.214650" lon="-3.591680">
        <ele>757.864</ele>
        <time>2026-07-16T10:13:02.066Z</time>
      </trkpt>
      <trkpt lat="37.214700" lon="-3.591580">
        <ele>757.938</ele>
        <time>2026-07-16T10:13:22.066Z</time>
      </trkpt>
      <trkpt lat="37.215130" lon="-3.591110">
        <ele>762.026</ele>
        <time>2026-07-16T10:13:42.066Z</time>
      </trkpt>
      <trkpt lat="37.215240" lon="-3.591000">
        <ele>763.260</ele>
        <time>2026-07-16T10:14:02.066Z</time>
      </trkpt>
      <trkpt lat="37.215320" lon="-3.590940">
        <ele>764.064</ele>
        <time>2026-07-16T10:14:22.066Z</time>
      </trkpt>
      <trkpt lat="37.215500" lon="-3.590730">
        <ele>766.627</ele>
        <time>2026-07-16T10:14:42.066Z</time>
      </trkpt>
      <trkpt lat="37.215780" lon="-3.590450">
        <ele>770.791</ele>
        <time>2026-07-16T10:15:02.066Z</time>
      </trkpt>
      <trkpt lat="37.216370" lon="-3.590020">
        <ele>775.992</ele>
        <time>2026-07-16T10:15:22.066Z</time>
      </trkpt>
      <trkpt lat="37.216640" lon="-3.589890">
        <ele>773.760</ele>
        <time>2026-07-16T10:15:42.066Z</time>
      </trkpt>
      <trkpt lat="37.216860" lon="-3.589850">
        <ele>771.128</ele>
        <time>2026-07-16T10:16:02.066Z</time>
      </trkpt>
      <trkpt lat="37.217060" lon="-3.589760">
        <ele>772.089</ele>
        <time>2026-07-16T10:16:22.066Z</time>
      </trkpt>
      <trkpt lat="37.217080" lon="-3.589750">
        <ele>772.317</ele>
        <time>2026-07-16T10:16:42.066Z</time>
      </trkpt>
      <trkpt lat="37.217140" lon="-3.589410">
        <ele>775.209</ele>
        <time>2026-07-16T10:17:02.066Z</time>
      </trkpt>
      <trkpt lat="37.217230" lon="-3.589150">
        <ele>778.394</ele>
        <time>2026-07-16T10:17:22.066Z</time>
      </trkpt>
      <trkpt lat="37.217290" lon="-3.589070">
        <ele>780.528</ele>
        <time>2026-07-16T10:17:42.066Z</time>
      </trkpt>
      <trkpt lat="37.217480" lon="-3.588850">
        <ele>786.726</ele>
        <time>2026-07-16T10:18:02.066Z</time>
      </trkpt>
      <trkpt lat="37.217530" lon="-3.588760">
        <ele>788.080</ele>
        <time>2026-07-16T10:18:22.066Z</time>
      </trkpt>
      <trkpt lat="37.217670" lon="-3.588340">
        <ele>789.144</ele>
        <time>2026-07-16T10:18:42.066Z</time>
      </trkpt>
      <trkpt lat="37.217740" lon="-3.588220">
        <ele>788.767</ele>
        <time>2026-07-16T10:19:02.066Z</time>
      </trkpt>
      <trkpt lat="37.217930" lon="-3.588000">
        <ele>789.881</ele>
        <time>2026-07-16T10:19:22.066Z</time>
      </trkpt>
      <trkpt lat="37.218640" lon="-3.587500">
        <ele>798.132</ele>
        <time>2026-07-16T10:19:42.066Z</time>
      </trkpt>
      <trkpt lat="37.218730" lon="-3.587410">
        <ele>798.610</ele>
        <time>2026-07-16T10:20:02.066Z</time>
      </trkpt>
      <trkpt lat="37.219200" lon="-3.586690">
        <ele>802.531</ele>
        <time>2026-07-16T10:20:22.066Z</time>
      </trkpt>
      <trkpt lat="37.219480" lon="-3.586410">
        <ele>803.661</ele>
        <time>2026-07-16T10:20:42.066Z</time>
      </trkpt>
      <trkpt lat="37.220360" lon="-3.585640">
        <ele>813.307</ele>
        <time>2026-07-16T10:21:02.066Z</time>
      </trkpt>
      <trkpt lat="37.221280" lon="-3.584680">
        <ele>809.109</ele>
        <time>2026-07-16T10:21:22.066Z</time>
      </trkpt>
      <trkpt lat="37.221880" lon="-3.583990">
        <ele>813.125</ele>
        <time>2026-07-16T10:21:42.066Z</time>
      </trkpt>
      <trkpt lat="37.222600" lon="-3.583020">
        <ele>822.749</ele>
        <time>2026-07-16T10:22:02.066Z</time>
      </trkpt>
      <trkpt lat="37.222920" lon="-3.582470">
        <ele>824.077</ele>
        <time>2026-07-16T10:22:22.066Z</time>
      </trkpt>
      <trkpt lat="37.223110" lon="-3.582220">
        <ele>821.041</ele>
        <time>2026-07-16T10:22:42.066Z</time>
      </trkpt>
      <trkpt lat="37.223670" lon="-3.581780">
        <ele>816.765</ele>
        <time>2026-07-16T10:23:02.066Z</time>
      </trkpt>
      <trkpt lat="37.224040" lon="-3.581330">
        <ele>816.958</ele>
        <time>2026-07-16T10:23:22.066Z</time>
      </trkpt>
      <trkpt lat="37.224320" lon="-3.580940">
        <ele>819.752</ele>
        <time>2026-07-16T10:23:42.066Z</time>
      </trkpt>
      <trkpt lat="37.224550" lon="-3.580540">
        <ele>826.263</ele>
        <time>2026-07-16T10:24:02.066Z</time>
      </trkpt>
      <trkpt lat="37.224630" lon="-3.580370">
        <ele>827.811</ele>
        <time>2026-07-16T10:24:22.066Z</time>
      </trkpt>
      <trkpt lat="37.224700" lon="-3.580110">
        <ele>828.137</ele>
        <time>2026-07-16T10:24:42.066Z</time>
      </trkpt>
      <trkpt lat="37.224700" lon="-3.579680">
        <ele>828.949</ele>
        <time>2026-07-16T10:25:02.066Z</time>
      </trkpt>
      <trkpt lat="37.224710" lon="-3.579560">
        <ele>829.513</ele>
        <time>2026-07-16T10:25:22.066Z</time>
      </trkpt>
      <trkpt lat="37.224800" lon="-3.579350">
        <ele>829.809</ele>
        <time>2026-07-16T10:25:42.066Z</time>
      </trkpt>
      <trkpt lat="37.224890" lon="-3.579190">
        <ele>830.015</ele>
        <time>2026-07-16T10:26:02.066Z</time>
      </trkpt>
      <trkpt lat="37.224950" lon="-3.579130">
        <ele>830.069</ele>
        <time>2026-07-16T10:26:22.066Z</time>
      </trkpt>
      <trkpt lat="37.225060" lon="-3.579070">
        <ele>830.677</ele>
        <time>2026-07-16T10:26:42.066Z</time>
      </trkpt>
      <trkpt lat="37.225120" lon="-3.579060">
        <ele>830.941</ele>
        <time>2026-07-16T10:27:02.066Z</time>
      </trkpt>
      <trkpt lat="37.225170" lon="-3.579080">
        <ele>830.945</ele>
        <time>2026-07-16T10:27:22.066Z</time>
      </trkpt>
      <trkpt lat="37.225270" lon="-3.579150">
        <ele>831.048</ele>
        <time>2026-07-16T10:27:42.066Z</time>
      </trkpt>
      <trkpt lat="37.225300" lon="-3.579210">
        <ele>831.582</ele>
        <time>2026-07-16T10:28:02.066Z</time>
      </trkpt>
      <trkpt lat="37.225320" lon="-3.579300">
        <ele>832.193</ele>
        <time>2026-07-16T10:28:22.066Z</time>
      </trkpt>
      <trkpt lat="37.225320" lon="-3.579430">
        <ele>832.321</ele>
        <time>2026-07-16T10:28:42.066Z</time>
      </trkpt>
      <trkpt lat="37.225200" lon="-3.579750">
        <ele>831.226</ele>
        <time>2026-07-16T10:29:02.066Z</time>
      </trkpt>
      <trkpt lat="37.225180" lon="-3.579860">
        <ele>831.447</ele>
        <time>2026-07-16T10:29:22.066Z</time>
      </trkpt>
      <trkpt lat="37.225170" lon="-3.580300">
        <ele>834.011</ele>
        <time>2026-07-16T10:29:42.066Z</time>
      </trkpt>
      <trkpt lat="37.225120" lon="-3.580520">
        <ele>833.409</ele>
        <time>2026-07-16T10:30:02.066Z</time>
      </trkpt>
      <trkpt lat="37.225110" lon="-3.580720">
        <ele>833.144</ele>
        <time>2026-07-16T10:30:22.066Z</time>
      </trkpt>
      <trkpt lat="37.225170" lon="-3.580850">
        <ele>833.918</ele>
        <time>2026-07-16T10:30:42.066Z</time>
      </trkpt>
      <trkpt lat="37.225270" lon="-3.580920">
        <ele>835.236</ele>
        <time>2026-07-16T10:31:02.066Z</time>
      </trkpt>
      <trkpt lat="37.225330" lon="-3.580930">
        <ele>835.640</ele>
        <time>2026-07-16T10:31:22.066Z</time>
      </trkpt>
      <trkpt lat="37.225440" lon="-3.580890">
        <ele>836.654</ele>
        <time>2026-07-16T10:31:42.066Z</time>
      </trkpt>
      <trkpt lat="37.225500" lon="-3.580830">
        <ele>837.687</ele>
        <time>2026-07-16T10:32:02.066Z</time>
      </trkpt>
      <trkpt lat="37.225530" lon="-3.580740">
        <ele>838.571</ele>
        <time>2026-07-16T10:32:22.066Z</time>
      </trkpt>
      <trkpt lat="37.225540" lon="-3.580630">
        <ele>839.352</ele>
        <time>2026-07-16T10:32:42.066Z</time>
      </trkpt>
      <trkpt lat="37.225520" lon="-3.580300">
        <ele>840.430</ele>
        <time>2026-07-16T10:33:02.066Z</time>
      </trkpt>
      <trkpt lat="37.225520" lon="-3.580160">
        <ele>840.074</ele>
        <time>2026-07-16T10:33:22.066Z</time>
      </trkpt>
      <trkpt lat="37.225600" lon="-3.579970">
        <ele>840.756</ele>
        <time>2026-07-16T10:33:42.066Z</time>
      </trkpt>
      <trkpt lat="37.225730" lon="-3.579730">
        <ele>844.321</ele>
        <time>2026-07-16T10:34:02.066Z</time>
      </trkpt>
      <trkpt lat="37.226330" lon="-3.578270">
        <ele>857.209</ele>
        <time>2026-07-16T10:34:22.066Z</time>
      </trkpt>
      <trkpt lat="37.226510" lon="-3.577990">
        <ele>862.239</ele>
        <time>2026-07-16T10:34:42.066Z</time>
      </trkpt>
      <trkpt lat="37.226800" lon="-3.577570">
        <ele>869.713</ele>
        <time>2026-07-16T10:35:02.066Z</time>
      </trkpt>
      <trkpt lat="37.227010" lon="-3.577300">
        <ele>872.691</ele>
        <time>2026-07-16T10:35:22.066Z</time>
      </trkpt>
      <trkpt lat="37.227490" lon="-3.576840">
        <ele>877.585</ele>
        <time>2026-07-16T10:35:42.066Z</time>
      </trkpt>
      <trkpt lat="37.228090" lon="-3.576070">
        <ele>881.189</ele>
        <time>2026-07-16T10:36:02.066Z</time>
      </trkpt>
      <trkpt lat="37.228530" lon="-3.575360">
        <ele>889.152</ele>
        <time>2026-07-16T10:36:22.066Z</time>
      </trkpt>
      <trkpt lat="37.229040" lon="-3.574490">
        <ele>897.276</ele>
        <time>2026-07-16T10:36:42.066Z</time>
      </trkpt>
      <trkpt lat="37.229320" lon="-3.573950">
        <ele>901.787</ele>
        <time>2026-07-16T10:37:02.066Z</time>
      </trkpt>
      <trkpt lat="37.229500" lon="-3.573420">
        <ele>904.585</ele>
        <time>2026-07-16T10:37:22.066Z</time>
      </trkpt>
      <trkpt lat="37.229620" lon="-3.573260">
        <ele>906.466</ele>
        <time>2026-07-16T10:37:42.066Z</time>
      </trkpt>
      <trkpt lat="37.229740" lon="-3.573140">
        <ele>909.029</ele>
        <time>2026-07-16T10:38:02.066Z</time>
      </trkpt>
      <trkpt lat="37.230030" lon="-3.572980">
        <ele>913.221</ele>
        <time>2026-07-16T10:38:22.066Z</time>
      </trkpt>
      <trkpt lat="37.230360" lon="-3.572830">
        <ele>914.309</ele>
        <time>2026-07-16T10:38:42.066Z</time>
      </trkpt>
      <trkpt lat="37.230560" lon="-3.572710">
        <ele>914.838</ele>
        <time>2026-07-16T10:39:02.066Z</time>
      </trkpt>
      <trkpt lat="37.230840" lon="-3.572450">
        <ele>916.642</ele>
        <time>2026-07-16T10:39:22.066Z</time>
      </trkpt>
      <trkpt lat="37.230960" lon="-3.572350">
        <ele>917.980</ele>
        <time>2026-07-16T10:39:42.066Z</time>
      </trkpt>
      <trkpt lat="37.231450" lon="-3.571790">
        <ele>924.984</ele>
        <time>2026-07-16T10:40:02.066Z</time>
      </trkpt>
      <trkpt lat="37.231860" lon="-3.571010">
        <ele>919.128</ele>
        <time>2026-07-16T10:40:22.066Z</time>
      </trkpt>
      <trkpt lat="37.231960" lon="-3.570830">
        <ele>919.021</ele>
        <time>2026-07-16T10:40:42.066Z</time>
      </trkpt>
      <trkpt lat="37.232280" lon="-3.570380">
        <ele>918.685</ele>
        <time>2026-07-16T10:41:02.066Z</time>
      </trkpt>
      <trkpt lat="37.232810" lon="-3.569620">
        <ele>923.036</ele>
        <time>2026-07-16T10:41:22.066Z</time>
      </trkpt>
      <trkpt lat="37.233030" lon="-3.569300">
        <ele>923.064</ele>
        <time>2026-07-16T10:41:42.066Z</time>
      </trkpt>
      <trkpt lat="37.233090" lon="-3.569150">
        <ele>923.021</ele>
        <time>2026-07-16T10:42:02.066Z</time>
      </trkpt>
      <trkpt lat="37.233140" lon="-3.568930">
        <ele>923.041</ele>
        <time>2026-07-16T10:42:22.066Z</time>
      </trkpt>
      <trkpt lat="37.233120" lon="-3.568880">
        <ele>923.105</ele>
        <time>2026-07-16T10:42:42.066Z</time>
      </trkpt>
      <trkpt lat="37.233120" lon="-3.568810">
        <ele>924.009</ele>
        <time>2026-07-16T10:43:02.066Z</time>
      </trkpt>
      <trkpt lat="37.233160" lon="-3.568750">
        <ele>924.644</ele>
        <time>2026-07-16T10:43:22.066Z</time>
      </trkpt>
      <trkpt lat="37.233240" lon="-3.568750">
        <ele>924.368</ele>
        <time>2026-07-16T10:43:42.066Z</time>
      </trkpt>
      <trkpt lat="37.233380" lon="-3.568690">
        <ele>924.556</ele>
        <time>2026-07-16T10:44:02.066Z</time>
      </trkpt>
      <trkpt lat="37.233450" lon="-3.568640">
        <ele>924.880</ele>
        <time>2026-07-16T10:44:22.066Z</time>
      </trkpt>
      <trkpt lat="37.233530" lon="-3.568530">
        <ele>926.044</ele>
        <time>2026-07-16T10:44:42.066Z</time>
      </trkpt>
      <trkpt lat="37.233650" lon="-3.568350">
        <ele>927.537</ele>
        <time>2026-07-16T10:45:02.066Z</time>
      </trkpt>
      <trkpt lat="37.233790" lon="-3.568070">
        <ele>929.631</ele>
        <time>2026-07-16T10:45:22.066Z</time>
      </trkpt>
      <trkpt lat="37.233970" lon="-3.567790">
        <ele>930.072</ele>
        <time>2026-07-16T10:45:42.066Z</time>
      </trkpt>
      <trkpt lat="37.234040" lon="-3.567700">
        <ele>929.630</ele>
        <time>2026-07-16T10:46:02.066Z</time>
      </trkpt>
      <trkpt lat="37.234330" lon="-3.567460">
        <ele>928.197</ele>
        <time>2026-07-16T10:46:22.066Z</time>
      </trkpt>
      <trkpt lat="37.234430" lon="-3.567360">
        <ele>927.723</ele>
        <time>2026-07-16T10:46:42.066Z</time>
      </trkpt>
      <trkpt lat="37.234550" lon="-3.567190">
        <ele>927.025</ele>
        <time>2026-07-16T10:47:02.066Z</time>
      </trkpt>
      <trkpt lat="37.234690" lon="-3.566910">
        <ele>926.609</ele>
        <time>2026-07-16T10:47:22.066Z</time>
      </trkpt>
      <trkpt lat="37.234800" lon="-3.566650">
        <ele>926.331</ele>
        <time>2026-07-16T10:47:42.066Z</time>
      </trkpt>
      <trkpt lat="37.234890" lon="-3.566370">
        <ele>928.415</ele>
        <time>2026-07-16T10:48:02.066Z</time>
      </trkpt>
      <trkpt lat="37.234930" lon="-3.566100">
        <ele>930.123</ele>
        <time>2026-07-16T10:48:22.066Z</time>
      </trkpt>
      <trkpt lat="37.234970" lon="-3.565970">
        <ele>930.487</ele>
        <time>2026-07-16T10:48:42.066Z</time>
      </trkpt>
      <trkpt lat="37.235010" lon="-3.565910">
        <ele>930.351</ele>
        <time>2026-07-16T10:49:02.066Z</time>
      </trkpt>
      <trkpt lat="37.235060" lon="-3.565870">
        <ele>929.944</ele>
        <time>2026-07-16T10:49:22.066Z</time>
      </trkpt>
      <trkpt lat="37.235390" lon="-3.565790">
        <ele>926.998</ele>
        <time>2026-07-16T10:49:42.066Z</time>
      </trkpt>
      <trkpt lat="37.235650" lon="-3.565690">
        <ele>927.099</ele>
        <time>2026-07-16T10:50:02.066Z</time>
      </trkpt>
      <trkpt lat="37.235870" lon="-3.565530">
        <ele>929.297</ele>
        <time>2026-07-16T10:50:22.066Z</time>
      </trkpt>
      <trkpt lat="37.236000" lon="-3.565350">
        <ele>930.348</ele>
        <time>2026-07-16T10:50:42.066Z</time>
      </trkpt>
      <trkpt lat="37.236030" lon="-3.565300">
        <ele>930.661</ele>
        <time>2026-07-16T10:51:02.066Z</time>
      </trkpt>
      <trkpt lat="37.236050" lon="-3.565220">
        <ele>931.017</ele>
        <time>2026-07-16T10:51:22.066Z</time>
      </trkpt>
      <trkpt lat="37.236090" lon="-3.565190">
        <ele>931.209</ele>
        <time>2026-07-16T10:51:42.066Z</time>
      </trkpt>
      <trkpt lat="37.236150" lon="-3.565200">
        <ele>931.776</ele>
        <time>2026-07-16T10:52:02.066Z</time>
      </trkpt>
      <trkpt lat="37.236180" lon="-3.565240">
        <ele>931.870</ele>
        <time>2026-07-16T10:52:22.066Z</time>
      </trkpt>
      <trkpt lat="37.236250" lon="-3.565200">
        <ele>932.638</ele>
        <time>2026-07-16T10:52:42.066Z</time>
      </trkpt>
      <trkpt lat="37.236910" lon="-3.563990">
        <ele>943.012</ele>
        <time>2026-07-16T10:53:02.066Z</time>
      </trkpt>
      <trkpt lat="37.237320" lon="-3.563160">
        <ele>952.156</ele>
        <time>2026-07-16T10:53:22.066Z</time>
      </trkpt>
      <trkpt lat="37.237450" lon="-3.562800">
        <ele>956.289</ele>
        <time>2026-07-16T10:53:42.066Z</time>
      </trkpt>
      <trkpt lat="37.237980" lon="-3.560500">
        <ele>978.573</ele>
        <time>2026-07-16T10:54:02.066Z</time>
      </trkpt>
      <trkpt lat="37.238010" lon="-3.560250">
        <ele>979.694</ele>
        <time>2026-07-16T10:54:22.066Z</time>
      </trkpt>
      <trkpt lat="37.238040" lon="-3.559270">
        <ele>990.412</ele>
        <time>2026-07-16T10:54:42.066Z</time>
      </trkpt>
      <trkpt lat="37.238050" lon="-3.559100">
        <ele>989.122</ele>
        <time>2026-07-16T10:55:02.066Z</time>
      </trkpt>
      <trkpt lat="37.238090" lon="-3.558940">
        <ele>988.662</ele>
        <time>2026-07-16T10:55:22.066Z</time>
      </trkpt>
      <trkpt lat="37.238150" lon="-3.558790">
        <ele>989.608</ele>
        <time>2026-07-16T10:55:42.066Z</time>
      </trkpt>
      <trkpt lat="37.238230" lon="-3.558620">
        <ele>991.109</ele>
        <time>2026-07-16T10:56:02.066Z</time>
      </trkpt>
      <trkpt lat="37.238440" lon="-3.558310">
        <ele>995.934</ele>
        <time>2026-07-16T10:56:22.066Z</time>
      </trkpt>
      <trkpt lat="37.238600" lon="-3.558000">
        <ele>998.568</ele>
        <time>2026-07-16T10:56:42.066Z</time>
      </trkpt>
      <trkpt lat="37.238690" lon="-3.557790">
        <ele>1000.616</ele>
        <time>2026-07-16T10:57:02.066Z</time>
      </trkpt>
      <trkpt lat="37.238800" lon="-3.557430">
        <ele>1003.390</ele>
        <time>2026-07-16T10:57:22.066Z</time>
      </trkpt>
      <trkpt lat="37.238820" lon="-3.557250">
        <ele>1004.274</ele>
        <time>2026-07-16T10:57:42.066Z</time>
      </trkpt>
      <trkpt lat="37.238700" lon="-3.556120">
        <ele>1004.957</ele>
        <time>2026-07-16T10:58:02.066Z</time>
      </trkpt>
      <trkpt lat="37.238670" lon="-3.555710">
        <ele>1006.971</ele>
        <time>2026-07-16T10:58:22.066Z</time>
      </trkpt>
      <trkpt lat="37.238690" lon="-3.555020">
        <ele>1011.252</ele>
        <time>2026-07-16T10:58:42.066Z</time>
      </trkpt>
      <trkpt lat="37.238710" lon="-3.554610">
        <ele>1015.050</ele>
        <time>2026-07-16T10:59:02.066Z</time>
      </trkpt>
      <trkpt lat="37.238750" lon="-3.554100">
        <ele>1021.337</ele>
        <time>2026-07-16T10:59:22.066Z</time>
      </trkpt>
      <trkpt lat="37.238830" lon="-3.553770">
        <ele>1025.749</ele>
        <time>2026-07-16T10:59:42.066Z</time>
      </trkpt>
      <trkpt lat="37.238950" lon="-3.553520">
        <ele>1028.413</ele>
        <time>2026-07-16T11:00:02.066Z</time>
      </trkpt>
      <trkpt lat="37.239090" lon="-3.553370">
        <ele>1031.509</ele>
        <time>2026-07-16T11:00:22.066Z</time>
      </trkpt>
      <trkpt lat="37.239190" lon="-3.553330">
        <ele>1033.355</ele>
        <time>2026-07-16T11:00:42.066Z</time>
      </trkpt>
      <trkpt lat="37.239300" lon="-3.553340">
        <ele>1034.989</ele>
        <time>2026-07-16T11:01:02.066Z</time>
      </trkpt>
      <trkpt lat="37.239390" lon="-3.553380">
        <ele>1036.577</ele>
        <time>2026-07-16T11:01:22.066Z</time>
      </trkpt>
      <trkpt lat="37.239490" lon="-3.553490">
        <ele>1039.291</ele>
        <time>2026-07-16T11:01:42.066Z</time>
      </trkpt>
      <trkpt lat="37.239710" lon="-3.553850">
        <ele>1043.995</ele>
        <time>2026-07-16T11:02:02.066Z</time>
      </trkpt>
      <trkpt lat="37.239820" lon="-3.554000">
        <ele>1045.788</ele>
        <time>2026-07-16T11:02:22.066Z</time>
      </trkpt>
      <trkpt lat="37.240150" lon="-3.554260">
        <ele>1051.442</ele>
        <time>2026-07-16T11:02:42.066Z</time>
      </trkpt>
      <trkpt lat="37.240250" lon="-3.554360">
        <ele>1052.593</ele>
        <time>2026-07-16T11:03:02.066Z</time>
      </trkpt>
      <trkpt lat="37.240320" lon="-3.554470">
        <ele>1053.251</ele>
        <time>2026-07-16T11:03:22.066Z</time>
      </trkpt>
      <trkpt lat="37.240460" lon="-3.554800">
        <ele>1054.323</ele>
        <time>2026-07-16T11:03:42.066Z</time>
      </trkpt>
      <trkpt lat="37.240530" lon="-3.554930">
        <ele>1053.783</ele>
        <time>2026-07-16T11:04:02.066Z</time>
      </trkpt>
      <trkpt lat="37.240640" lon="-3.555040">
        <ele>1054.911</ele>
        <time>2026-07-16T11:04:22.066Z</time>
      </trkpt>
      <trkpt lat="37.240750" lon="-3.555120">
        <ele>1056.709</ele>
        <time>2026-07-16T11:04:42.066Z</time>
      </trkpt>
      <trkpt lat="37.241200" lon="-3.555380">
        <ele>1065.884</ele>
        <time>2026-07-16T11:05:02.066Z</time>
      </trkpt>
      <trkpt lat="37.241630" lon="-3.555780">
        <ele>1068.258</ele>
        <time>2026-07-16T11:05:22.066Z</time>
      </trkpt>
      <trkpt lat="37.241820" lon="-3.555930">
        <ele>1069.176</ele>
        <time>2026-07-16T11:05:42.066Z</time>
      </trkpt>
      <trkpt lat="37.241970" lon="-3.556000">
        <ele>1069.860</ele>
        <time>2026-07-16T11:06:02.066Z</time>
      </trkpt>
      <trkpt lat="37.242100" lon="-3.556020">
        <ele>1069.594</ele>
        <time>2026-07-16T11:06:22.066Z</time>
      </trkpt>
      <trkpt lat="37.242490" lon="-3.556040">
        <ele>1068.837</ele>
        <time>2026-07-16T11:06:42.066Z</time>
      </trkpt>
      <trkpt lat="37.242720" lon="-3.556080">
        <ele>1070.081</ele>
        <time>2026-07-16T11:07:02.066Z</time>
      </trkpt>
      <trkpt lat="37.243810" lon="-3.556400">
        <ele>1072.832</ele>
        <time>2026-07-16T11:07:22.066Z</time>
      </trkpt>
      <trkpt lat="37.244290" lon="-3.556590">
        <ele>1078.080</ele>
        <time>2026-07-16T11:07:42.066Z</time>
      </trkpt>
      <trkpt lat="37.244370" lon="-3.556570">
        <ele>1078.416</ele>
        <time>2026-07-16T11:08:02.066Z</time>
      </trkpt>
      <trkpt lat="37.244800" lon="-3.556200">
        <ele>1081.776</ele>
        <time>2026-07-16T11:08:22.066Z</time>
      </trkpt>
      <trkpt lat="37.245550" lon="-3.555260">
        <ele>1089.213</ele>
        <time>2026-07-16T11:08:42.066Z</time>
      </trkpt>
      <trkpt lat="37.245620" lon="-3.555060">
        <ele>1092.409</ele>
        <time>2026-07-16T11:09:02.066Z</time>
      </trkpt>
      <trkpt lat="37.245640" lon="-3.554880">
        <ele>1095.163</ele>
        <time>2026-07-16T11:09:22.066Z</time>
      </trkpt>
      <trkpt lat="37.245560" lon="-3.554380">
        <ele>1102.957</ele>
        <time>2026-07-16T11:09:42.066Z</time>
      </trkpt>
      <trkpt lat="37.245550" lon="-3.553790">
        <ele>1111.075</ele>
        <time>2026-07-16T11:10:02.066Z</time>
      </trkpt>
      <trkpt lat="37.245530" lon="-3.553650">
        <ele>1112.489</ele>
        <time>2026-07-16T11:10:22.066Z</time>
      </trkpt>
      <trkpt lat="37.245540" lon="-3.553490">
        <ele>1114.213</ele>
        <time>2026-07-16T11:10:42.066Z</time>
      </trkpt>
      <trkpt lat="37.246540" lon="-3.553420">
        <ele>1110.116</ele>
        <time>2026-07-16T11:11:02.066Z</time>
      </trkpt>
      <trkpt lat="37.246720" lon="-3.553430">
        <ele>1111.450</ele>
        <time>2026-07-16T11:11:22.066Z</time>
      </trkpt>
      <trkpt lat="37.246760" lon="-3.553370">
        <ele>1112.551</ele>
        <time>2026-07-16T11:11:42.066Z</time>
      </trkpt>
      <trkpt lat="37.246830" lon="-3.553330">
        <ele>1113.819</ele>
        <time>2026-07-16T11:12:02.066Z</time>
      </trkpt>
      <trkpt lat="37.246950" lon="-3.553320">
        <ele>1115.584</ele>
        <time>2026-07-16T11:12:22.066Z</time>
      </trkpt>
      <trkpt lat="37.247100" lon="-3.553390">
        <ele>1116.807</ele>
        <time>2026-07-16T11:12:42.066Z</time>
      </trkpt>
      <trkpt lat="37.247250" lon="-3.553630">
        <ele>1115.317</ele>
        <time>2026-07-16T11:13:02.066Z</time>
      </trkpt>
      <trkpt lat="37.247330" lon="-3.553730">
        <ele>1115.609</ele>
        <time>2026-07-16T11:13:22.066Z</time>
      </trkpt>
      <trkpt lat="37.247580" lon="-3.553930">
        <ele>1119.210</ele>
        <time>2026-07-16T11:13:42.066Z</time>
      </trkpt>
      <trkpt lat="37.247670" lon="-3.554010">
        <ele>1121.144</ele>
        <time>2026-07-16T11:14:02.066Z</time>
      </trkpt>
      <trkpt lat="37.247740" lon="-3.554130">
        <ele>1121.512</ele>
        <time>2026-07-16T11:14:22.066Z</time>
      </trkpt>
      <trkpt lat="37.247930" lon="-3.554640">
        <ele>1122.186</ele>
        <time>2026-07-16T11:14:42.066Z</time>
      </trkpt>
      <trkpt lat="37.248080" lon="-3.554860">
        <ele>1123.670</ele>
        <time>2026-07-16T11:15:02.066Z</time>
      </trkpt>
      <trkpt lat="37.248200" lon="-3.554960">
        <ele>1125.153</ele>
        <time>2026-07-16T11:15:22.066Z</time>
      </trkpt>
      <trkpt lat="37.248360" lon="-3.555070">
        <ele>1127.927</ele>
        <time>2026-07-16T11:15:42.066Z</time>
      </trkpt>
      <trkpt lat="37.249480" lon="-3.555690">
        <ele>1149.498</ele>
        <time>2026-07-16T11:16:02.066Z</time>
      </trkpt>
      <trkpt lat="37.249580" lon="-3.555790">
        <ele>1150.886</ele>
        <time>2026-07-16T11:16:22.066Z</time>
      </trkpt>
      <trkpt lat="37.249660" lon="-3.555940">
        <ele>1152.156</ele>
        <time>2026-07-16T11:16:42.066Z</time>
      </trkpt>
      <trkpt lat="37.249780" lon="-3.556540">
        <ele>1153.159</ele>
        <time>2026-07-16T11:17:02.066Z</time>
      </trkpt>
      <trkpt lat="37.249860" lon="-3.556750">
        <ele>1155.314</ele>
        <time>2026-07-16T11:17:22.066Z</time>
      </trkpt>
      <trkpt lat="37.249950" lon="-3.556940">
        <ele>1156.909</ele>
        <time>2026-07-16T11:17:42.066Z</time>
      </trkpt>
      <trkpt lat="37.250070" lon="-3.557100">
        <ele>1158.377</ele>
        <time>2026-07-16T11:18:02.066Z</time>
      </trkpt>
      <trkpt lat="37.250190" lon="-3.557210">
        <ele>1159.591</ele>
        <time>2026-07-16T11:18:22.066Z</time>
      </trkpt>
      <trkpt lat="37.250320" lon="-3.557300">
        <ele>1160.519</ele>
        <time>2026-07-16T11:18:42.066Z</time>
      </trkpt>
      <trkpt lat="37.250490" lon="-3.557370">
        <ele>1161.983</ele>
        <time>2026-07-16T11:19:02.066Z</time>
      </trkpt>
      <trkpt lat="37.250660" lon="-3.557400">
        <ele>1164.577</ele>
        <time>2026-07-16T11:19:22.066Z</time>
      </trkpt>
      <trkpt lat="37.251020" lon="-3.557390">
        <ele>1170.790</ele>
        <time>2026-07-16T11:19:42.067Z</time>
      </trkpt>
      <trkpt lat="37.251200" lon="-3.557420">
        <ele>1173.524</ele>
        <time>2026-07-16T11:20:02.067Z</time>
      </trkpt>
      <trkpt lat="37.251330" lon="-3.557470">
        <ele>1175.425</ele>
        <time>2026-07-16T11:20:22.067Z</time>
      </trkpt>
      <trkpt lat="37.251440" lon="-3.557560">
        <ele>1176.293</ele>
        <time>2026-07-16T11:20:42.067Z</time>
      </trkpt>
      <trkpt lat="37.251550" lon="-3.557690">
        <ele>1176.629</ele>
        <time>2026-07-16T11:21:02.067Z</time>
      </trkpt>
      <trkpt lat="37.251920" lon="-3.558250">
        <ele>1181.600</ele>
        <time>2026-07-16T11:21:22.067Z</time>
      </trkpt>
      <trkpt lat="37.251960" lon="-3.558370">
        <ele>1182.120</ele>
        <time>2026-07-16T11:21:42.067Z</time>
      </trkpt>
      <trkpt lat="37.251990" lon="-3.558370">
        <ele>1182.709</ele>
        <time>2026-07-16T11:22:02.067Z</time>
      </trkpt>
      <trkpt lat="37.252130" lon="-3.558420">
        <ele>1185.264</ele>
        <time>2026-07-16T11:22:22.067Z</time>
      </trkpt>
      <trkpt lat="37.252210" lon="-3.558630">
        <ele>1184.498</ele>
        <time>2026-07-16T11:22:42.067Z</time>
      </trkpt>
      <trkpt lat="37.252550" lon="-3.558990">
        <ele>1182.036</ele>
        <time>2026-07-16T11:23:02.067Z</time>
      </trkpt>
      <trkpt lat="37.252620" lon="-3.559150">
        <ele>1180.860</ele>
        <time>2026-07-16T11:23:22.067Z</time>
      </trkpt>
      <trkpt lat="37.252650" lon="-3.559370">
        <ele>1178.434</ele>
        <time>2026-07-16T11:23:42.067Z</time>
      </trkpt>
      <trkpt lat="37.252780" lon="-3.559790">
        <ele>1176.367</ele>
        <time>2026-07-16T11:24:02.067Z</time>
      </trkpt>
      <trkpt lat="37.252800" lon="-3.559920">
        <ele>1175.511</ele>
        <time>2026-07-16T11:24:22.067Z</time>
      </trkpt>
      <trkpt lat="37.252820" lon="-3.560390">
        <ele>1169.762</ele>
        <time>2026-07-16T11:24:42.067Z</time>
      </trkpt>
      <trkpt lat="37.252930" lon="-3.560890">
        <ele>1168.140</ele>
        <time>2026-07-16T11:25:02.067Z</time>
      </trkpt>
      <trkpt lat="37.252940" lon="-3.561050">
        <ele>1167.688</ele>
        <time>2026-07-16T11:25:22.067Z</time>
      </trkpt>
      <trkpt lat="37.252920" lon="-3.561420">
        <ele>1165.424</ele>
        <time>2026-07-16T11:25:42.067Z</time>
      </trkpt>
      <trkpt lat="37.252930" lon="-3.561600">
        <ele>1164.826</ele>
        <time>2026-07-16T11:26:02.067Z</time>
      </trkpt>
      <trkpt lat="37.252970" lon="-3.561870">
        <ele>1164.509</ele>
        <time>2026-07-16T11:26:22.067Z</time>
      </trkpt>
      <trkpt lat="37.253070" lon="-3.562090">
        <ele>1164.750</ele>
        <time>2026-07-16T11:26:42.067Z</time>
      </trkpt>
      <trkpt lat="37.253160" lon="-3.562230">
        <ele>1164.524</ele>
        <time>2026-07-16T11:27:02.067Z</time>
      </trkpt>
      <trkpt lat="37.253290" lon="-3.562340">
        <ele>1165.852</ele>
        <time>2026-07-16T11:27:22.067Z</time>
      </trkpt>
      <trkpt lat="37.253430" lon="-3.562380">
        <ele>1166.166</ele>
        <time>2026-07-16T11:27:42.067Z</time>
      </trkpt>
      <trkpt lat="37.253540" lon="-3.562370">
        <ele>1166.270</ele>
        <time>2026-07-16T11:28:02.067Z</time>
      </trkpt>
      <trkpt lat="37.253760" lon="-3.562270">
        <ele>1169.533</ele>
        <time>2026-07-16T11:28:22.067Z</time>
      </trkpt>
      <trkpt lat="37.253840" lon="-3.562250">
        <ele>1170.127</ele>
        <time>2026-07-16T11:28:42.067Z</time>
      </trkpt>
      <trkpt lat="37.254310" lon="-3.562200">
        <ele>1171.578</ele>
        <time>2026-07-16T11:29:02.067Z</time>
      </trkpt>
      <trkpt lat="37.254420" lon="-3.562120">
        <ele>1172.676</ele>
        <time>2026-07-16T11:29:22.067Z</time>
      </trkpt>
      <trkpt lat="37.254470" lon="-3.562040">
        <ele>1174.869</ele>
        <time>2026-07-16T11:29:42.067Z</time>
      </trkpt>
      <trkpt lat="37.254510" lon="-3.561920">
        <ele>1178.104</ele>
        <time>2026-07-16T11:30:02.067Z</time>
      </trkpt>
      <trkpt lat="37.254620" lon="-3.561210">
        <ele>1182.424</ele>
        <time>2026-07-16T11:30:22.067Z</time>
      </trkpt>
      <trkpt lat="37.254700" lon="-3.560450">
        <ele>1188.609</ele>
        <time>2026-07-16T11:30:42.067Z</time>
      </trkpt>
      <trkpt lat="37.254730" lon="-3.560330">
        <ele>1188.088</ele>
        <time>2026-07-16T11:31:02.067Z</time>
      </trkpt>
      <trkpt lat="37.254750" lon="-3.560250">
        <ele>1188.392</ele>
        <time>2026-07-16T11:31:22.067Z</time>
      </trkpt>
      <trkpt lat="37.254810" lon="-3.560150">
        <ele>1188.930</ele>
        <time>2026-07-16T11:31:42.067Z</time>
      </trkpt>
      <trkpt lat="37.254880" lon="-3.560060">
        <ele>1189.214</ele>
        <time>2026-07-16T11:32:02.067Z</time>
      </trkpt>
      <trkpt lat="37.255000" lon="-3.560010">
        <ele>1189.098</ele>
        <time>2026-07-16T11:32:22.067Z</time>
      </trkpt>
      <trkpt lat="37.255120" lon="-3.560030">
        <ele>1190.221</ele>
        <time>2026-07-16T11:32:42.067Z</time>
      </trkpt>
      <trkpt lat="37.255230" lon="-3.560120">
        <ele>1191.145</ele>
        <time>2026-07-16T11:33:02.067Z</time>
      </trkpt>
      <trkpt lat="37.255320" lon="-3.560270">
        <ele>1191.876</ele>
        <time>2026-07-16T11:33:22.067Z</time>
      </trkpt>
      <trkpt lat="37.255430" lon="-3.560700">
        <ele>1193.284</ele>
        <time>2026-07-16T11:33:42.067Z</time>
      </trkpt>
      <trkpt lat="37.255530" lon="-3.560850">
        <ele>1195.638</ele>
        <time>2026-07-16T11:34:02.067Z</time>
      </trkpt>
      <trkpt lat="37.255630" lon="-3.560940">
        <ele>1199.670</ele>
        <time>2026-07-16T11:34:22.067Z</time>
      </trkpt>
      <trkpt lat="37.255720" lon="-3.560960">
        <ele>1203.117</ele>
        <time>2026-07-16T11:34:42.067Z</time>
      </trkpt>
      <trkpt lat="37.255810" lon="-3.560950">
        <ele>1206.409</ele>
        <time>2026-07-16T11:35:02.067Z</time>
      </trkpt>
      <trkpt lat="37.255890" lon="-3.560860">
        <ele>1208.245</ele>
        <time>2026-07-16T11:35:22.067Z</time>
      </trkpt>
      <trkpt lat="37.255910" lon="-3.560660">
        <ele>1208.269</ele>
        <time>2026-07-16T11:35:42.067Z</time>
      </trkpt>
      <trkpt lat="37.255900" lon="-3.560120">
        <ele>1206.317</ele>
        <time>2026-07-16T11:36:02.067Z</time>
      </trkpt>
      <trkpt lat="37.255870" lon="-3.559860">
        <ele>1209.371</ele>
        <time>2026-07-16T11:36:22.067Z</time>
      </trkpt>
      <trkpt lat="37.255740" lon="-3.559410">
        <ele>1215.825</ele>
        <time>2026-07-16T11:36:42.067Z</time>
      </trkpt>
      <trkpt lat="37.255710" lon="-3.559230">
        <ele>1217.598</ele>
        <time>2026-07-16T11:37:02.067Z</time>
      </trkpt>
      <trkpt lat="37.255710" lon="-3.559060">
        <ele>1220.592</ele>
        <time>2026-07-16T11:37:22.067Z</time>
      </trkpt>
      <trkpt lat="37.255770" lon="-3.558680">
        <ele>1228.993</ele>
        <time>2026-07-16T11:37:42.067Z</time>
      </trkpt>
      <trkpt lat="37.255770" lon="-3.558530">
        <ele>1229.221</ele>
        <time>2026-07-16T11:38:02.067Z</time>
      </trkpt>
      <trkpt lat="37.255740" lon="-3.558410">
        <ele>1227.668</ele>
        <time>2026-07-16T11:38:22.067Z</time>
      </trkpt>
      <trkpt lat="37.255690" lon="-3.558300">
        <ele>1226.942</ele>
        <time>2026-07-16T11:38:42.067Z</time>
      </trkpt>
      <trkpt lat="37.255420" lon="-3.558040">
        <ele>1231.726</ele>
        <time>2026-07-16T11:39:02.067Z</time>
      </trkpt>
      <trkpt lat="37.255380" lon="-3.557920">
        <ele>1233.709</ele>
        <time>2026-07-16T11:39:22.067Z</time>
      </trkpt>
      <trkpt lat="37.255370" lon="-3.557750">
        <ele>1236.078</ele>
        <time>2026-07-16T11:39:42.067Z</time>
      </trkpt>
      <trkpt lat="37.255420" lon="-3.557540">
        <ele>1237.562</ele>
        <time>2026-07-16T11:40:02.067Z</time>
      </trkpt>
      <trkpt lat="37.255540" lon="-3.557440">
        <ele>1237.180</ele>
        <time>2026-07-16T11:40:22.067Z</time>
      </trkpt>
      <trkpt lat="37.255640" lon="-3.557410">
        <ele>1238.524</ele>
        <time>2026-07-16T11:40:42.067Z</time>
      </trkpt>
      <trkpt lat="37.256460" lon="-3.557290">
        <ele>1253.148</ele>
        <time>2026-07-16T11:41:02.067Z</time>
      </trkpt>
      <trkpt lat="37.256650" lon="-3.557290">
        <ele>1254.471</ele>
        <time>2026-07-16T11:41:22.067Z</time>
      </trkpt>
      <trkpt lat="37.256740" lon="-3.557320">
        <ele>1256.535</ele>
        <time>2026-07-16T11:41:42.067Z</time>
      </trkpt>
      <trkpt lat="37.256830" lon="-3.557400">
        <ele>1258.256</ele>
        <time>2026-07-16T11:42:02.067Z</time>
      </trkpt>
      <trkpt lat="37.256910" lon="-3.557510">
        <ele>1259.654</ele>
        <time>2026-07-16T11:42:22.067Z</time>
      </trkpt>
      <trkpt lat="37.256960" lon="-3.557700">
        <ele>1261.541</ele>
        <time>2026-07-16T11:42:42.067Z</time>
      </trkpt>
      <trkpt lat="37.257010" lon="-3.558010">
        <ele>1263.881</ele>
        <time>2026-07-16T11:43:02.067Z</time>
      </trkpt>
      <trkpt lat="37.257100" lon="-3.558210">
        <ele>1266.409</ele>
        <time>2026-07-16T11:43:22.067Z</time>
      </trkpt>
      <trkpt lat="37.257240" lon="-3.558400">
        <ele>1268.809</ele>
        <time>2026-07-16T11:43:42.067Z</time>
      </trkpt>
      <trkpt lat="37.257340" lon="-3.558760">
        <ele>1271.656</ele>
        <time>2026-07-16T11:44:02.067Z</time>
      </trkpt>
      <trkpt lat="37.257390" lon="-3.559200">
        <ele>1273.330</ele>
        <time>2026-07-16T11:44:22.067Z</time>
      </trkpt>
      <trkpt lat="37.257340" lon="-3.559730">
        <ele>1274.068</ele>
        <time>2026-07-16T11:44:42.067Z</time>
      </trkpt>
      <trkpt lat="37.257370" lon="-3.559870">
        <ele>1275.992</ele>
        <time>2026-07-16T11:45:02.067Z</time>
      </trkpt>
      <trkpt lat="37.257460" lon="-3.559930">
        <ele>1282.236</ele>
        <time>2026-07-16T11:45:22.067Z</time>
      </trkpt>
      <trkpt lat="37.257600" lon="-3.559920">
        <ele>1294.039</ele>
        <time>2026-07-16T11:45:42.067Z</time>
      </trkpt>
      <trkpt lat="37.257670" lon="-3.559750">
        <ele>1297.783</ele>
        <time>2026-07-16T11:46:02.067Z</time>
      </trkpt>
      <trkpt lat="37.257680" lon="-3.559520">
        <ele>1294.974</ele>
        <time>2026-07-16T11:46:22.067Z</time>
      </trkpt>
      <trkpt lat="37.257630" lon="-3.559080">
        <ele>1291.742</ele>
        <time>2026-07-16T11:46:42.067Z</time>
      </trkpt>
      <trkpt lat="37.257640" lon="-3.558760">
        <ele>1295.677</ele>
        <time>2026-07-16T11:47:02.067Z</time>
      </trkpt>
      <trkpt lat="37.257680" lon="-3.558450">
        <ele>1296.561</ele>
        <time>2026-07-16T11:47:22.067Z</time>
      </trkpt>
      <trkpt lat="37.257700" lon="-3.558040">
        <ele>1289.527</ele>
        <time>2026-07-16T11:47:42.067Z</time>
      </trkpt>
      <trkpt lat="37.257720" lon="-3.557930">
        <ele>1289.609</ele>
        <time>2026-07-16T11:48:02.067Z</time>
      </trkpt>
      <trkpt lat="37.258120" lon="-3.557260">
        <ele>1300.389</ele>
        <time>2026-07-16T11:48:22.067Z</time>
      </trkpt>
      <trkpt lat="37.258230" lon="-3.556920">
        <ele>1305.093</ele>
        <time>2026-07-16T11:48:42.067Z</time>
      </trkpt>
      <trkpt lat="37.258250" lon="-3.556460">
        <ele>1308.521</ele>
        <time>2026-07-16T11:49:02.067Z</time>
      </trkpt>
      <trkpt lat="37.258180" lon="-3.556040">
        <ele>1312.015</ele>
        <time>2026-07-16T11:49:22.067Z</time>
      </trkpt>
      <trkpt lat="37.258120" lon="-3.555920">
        <ele>1311.449</ele>
        <time>2026-07-16T11:49:42.067Z</time>
      </trkpt>
      <trkpt lat="37.258020" lon="-3.555890">
        <ele>1309.952</ele>
        <time>2026-07-16T11:50:02.067Z</time>
      </trkpt>
      <trkpt lat="37.257690" lon="-3.555910">
        <ele>1307.276</ele>
        <time>2026-07-16T11:50:22.067Z</time>
      </trkpt>
      <trkpt lat="37.257590" lon="-3.555780">
        <ele>1311.647</ele>
        <time>2026-07-16T11:50:42.067Z</time>
      </trkpt>
      <trkpt lat="37.257590" lon="-3.555630">
        <ele>1314.135</ele>
        <time>2026-07-16T11:51:02.067Z</time>
      </trkpt>
      <trkpt lat="37.257630" lon="-3.555510">
        <ele>1315.668</ele>
        <time>2026-07-16T11:51:22.067Z</time>
      </trkpt>
      <trkpt lat="37.257810" lon="-3.555420">
        <ele>1314.942</ele>
        <time>2026-07-16T11:51:42.067Z</time>
      </trkpt>
      <trkpt lat="37.258060" lon="-3.555420">
        <ele>1314.526</ele>
        <time>2026-07-16T11:52:02.067Z</time>
      </trkpt>
      <trkpt lat="37.258180" lon="-3.555480">
        <ele>1315.009</ele>
        <time>2026-07-16T11:52:22.067Z</time>
      </trkpt>
      <trkpt lat="37.258400" lon="-3.555770">
        <ele>1317.368</ele>
        <time>2026-07-16T11:52:42.067Z</time>
      </trkpt>
      <trkpt lat="37.258520" lon="-3.555800">
        <ele>1319.412</ele>
        <time>2026-07-16T11:53:02.067Z</time>
      </trkpt>
      <trkpt lat="37.258630" lon="-3.555710">
        <ele>1322.390</ele>
        <time>2026-07-16T11:53:22.067Z</time>
      </trkpt>
      <trkpt lat="37.258670" lon="-3.555490">
        <ele>1324.834</ele>
        <time>2026-07-16T11:53:42.067Z</time>
      </trkpt>
      <trkpt lat="37.258580" lon="-3.555340">
        <ele>1322.948</ele>
        <time>2026-07-16T11:54:02.067Z</time>
      </trkpt>
      <trkpt lat="37.258390" lon="-3.555140">
        <ele>1322.971</ele>
        <time>2026-07-16T11:54:22.067Z</time>
      </trkpt>
      <trkpt lat="37.258200" lon="-3.554800">
        <ele>1327.985</ele>
        <time>2026-07-16T11:54:42.067Z</time>
      </trkpt>
      <trkpt lat="37.257980" lon="-3.554610">
        <ele>1327.526</ele>
        <time>2026-07-16T11:55:02.067Z</time>
      </trkpt>
      <trkpt lat="37.257830" lon="-3.554580">
        <ele>1327.294</ele>
        <time>2026-07-16T11:55:22.067Z</time>
      </trkpt>
      <trkpt lat="37.257390" lon="-3.554650">
        <ele>1333.996</ele>
        <time>2026-07-16T11:55:42.067Z</time>
      </trkpt>
      <trkpt lat="37.257270" lon="-3.554600">
        <ele>1337.331</ele>
        <time>2026-07-16T11:56:02.067Z</time>
      </trkpt>
      <trkpt lat="37.257200" lon="-3.554520">
        <ele>1339.424</ele>
        <time>2026-07-16T11:56:22.067Z</time>
      </trkpt>
      <trkpt lat="37.257120" lon="-3.554260">
        <ele>1342.209</ele>
        <time>2026-07-16T11:56:42.067Z</time>
      </trkpt>
      <trkpt lat="37.257060" lon="-3.553850">
        <ele>1342.091</ele>
        <time>2026-07-16T11:57:02.067Z</time>
      </trkpt>
      <trkpt lat="37.257040" lon="-3.553550">
        <ele>1343.675</ele>
        <time>2026-07-16T11:57:22.067Z</time>
      </trkpt>
      <trkpt lat="37.257060" lon="-3.553230">
        <ele>1348.113</ele>
        <time>2026-07-16T11:57:42.067Z</time>
      </trkpt>
      <trkpt lat="37.257140" lon="-3.552920">
        <ele>1348.717</ele>
        <time>2026-07-16T11:58:02.067Z</time>
      </trkpt>
      <trkpt lat="37.257250" lon="-3.552650">
        <ele>1345.681</ele>
        <time>2026-07-16T11:58:22.067Z</time>
      </trkpt>
      <trkpt lat="37.257400" lon="-3.552450">
        <ele>1344.894</ele>
        <time>2026-07-16T11:58:42.067Z</time>
      </trkpt>
      <trkpt lat="37.257530" lon="-3.552320">
        <ele>1346.078</ele>
        <time>2026-07-16T11:59:02.067Z</time>
      </trkpt>
      <trkpt lat="37.257660" lon="-3.552220">
        <ele>1348.819</ele>
        <time>2026-07-16T11:59:22.067Z</time>
      </trkpt>
      <trkpt lat="37.257890" lon="-3.552110">
        <ele>1353.257</ele>
        <time>2026-07-16T11:59:42.067Z</time>
      </trkpt>
      <trkpt lat="37.258130" lon="-3.552070">
        <ele>1358.432</ele>
        <time>2026-07-16T12:00:02.067Z</time>
      </trkpt>
      <trkpt lat="37.258210" lon="-3.552020">
        <ele>1360.692</ele>
        <time>2026-07-16T12:00:22.067Z</time>
      </trkpt>
      <trkpt lat="37.258280" lon="-3.551920">
        <ele>1362.411</ele>
        <time>2026-07-16T12:00:42.067Z</time>
      </trkpt>
      <trkpt lat="37.258330" lon="-3.551840">
        <ele>1363.709</ele>
        <time>2026-07-16T12:01:02.067Z</time>
      </trkpt>
      <trkpt lat="37.258570" lon="-3.550860">
        <ele>1376.645</ele>
        <time>2026-07-16T12:01:22.067Z</time>
      </trkpt>
      <trkpt lat="37.258690" lon="-3.550480">
        <ele>1378.229</ele>
        <time>2026-07-16T12:01:42.067Z</time>
      </trkpt>
      <trkpt lat="37.258830" lon="-3.550170">
        <ele>1377.847</ele>
        <time>2026-07-16T12:02:02.067Z</time>
      </trkpt>
      <trkpt lat="37.259050" lon="-3.549770">
        <ele>1377.851</ele>
        <time>2026-07-16T12:02:22.067Z</time>
      </trkpt>
      <trkpt lat="37.259380" lon="-3.549070">
        <ele>1380.055</ele>
        <time>2026-07-16T12:02:42.067Z</time>
      </trkpt>
      <trkpt lat="37.259910" lon="-3.548360">
        <ele>1383.798</ele>
        <time>2026-07-16T12:03:02.067Z</time>
      </trkpt>
      <trkpt lat="37.260590" lon="-3.547050">
        <ele>1386.292</ele>
        <time>2026-07-16T12:03:22.067Z</time>
      </trkpt>
      <trkpt lat="37.261320" lon="-3.546100">
        <ele>1391.783</ele>
        <time>2026-07-16T12:03:42.067Z</time>
      </trkpt>
      <trkpt lat="37.262000" lon="-3.545510">
        <ele>1392.061</ele>
        <time>2026-07-16T12:04:02.067Z</time>
      </trkpt>
      <trkpt lat="37.262320" lon="-3.545220">
        <ele>1395.066</ele>
        <time>2026-07-16T12:04:22.067Z</time>
      </trkpt>
      <trkpt lat="37.262870" lon="-3.543750">
        <ele>1400.029</ele>
        <time>2026-07-16T12:04:42.067Z</time>
      </trkpt>
      <trkpt lat="37.263260" lon="-3.542310">
        <ele>1401.821</ele>
        <time>2026-07-16T12:05:02.067Z</time>
      </trkpt>
      <trkpt lat="37.263690" lon="-3.541000">
        <ele>1402.209</ele>
        <time>2026-07-16T12:05:22.067Z</time>
      </trkpt>
      <trkpt lat="37.263890" lon="-3.540140">
        <ele>1402.068</ele>
        <time>2026-07-16T12:05:42.067Z</time>
      </trkpt>
      <trkpt lat="37.263840" lon="-3.539020">
        <ele>1403.512</ele>
        <time>2026-07-16T12:06:02.067Z</time>
      </trkpt>
      <trkpt lat="37.263750" lon="-3.537870">
        <ele>1401.310</ele>
        <time>2026-07-16T12:06:22.067Z</time>
      </trkpt>
      <trkpt lat="37.263840" lon="-3.536680">
        <ele>1401.274</ele>
        <time>2026-07-16T12:06:42.067Z</time>
      </trkpt>
      <trkpt lat="37.263750" lon="-3.536640">
        <ele>1400.968</ele>
        <time>2026-07-16T12:07:02.067Z</time>
      </trkpt>
      <trkpt lat="37.263710" lon="-3.536310">
        <ele>1400.241</ele>
        <time>2026-07-16T12:07:22.067Z</time>
      </trkpt>
      <trkpt lat="37.263690" lon="-3.535810">
        <ele>1402.895</ele>
        <time>2026-07-16T12:07:42.067Z</time>
      </trkpt>
      <trkpt lat="37.263630" lon="-3.535620">
        <ele>1403.756</ele>
        <time>2026-07-16T12:08:02.067Z</time>
      </trkpt>
      <trkpt lat="37.263580" lon="-3.535540">
        <ele>1404.434</ele>
        <time>2026-07-16T12:08:22.067Z</time>
      </trkpt>
      <trkpt lat="37.263510" lon="-3.535450">
        <ele>1405.399</ele>
        <time>2026-07-16T12:08:42.067Z</time>
      </trkpt>
      <trkpt lat="37.263420" lon="-3.535380">
        <ele>1406.307</ele>
        <time>2026-07-16T12:09:02.067Z</time>
      </trkpt>
      <trkpt lat="37.262670" lon="-3.535000">
        <ele>1415.427</ele>
        <time>2026-07-16T12:09:22.067Z</time>
      </trkpt>
      <trkpt lat="37.262060" lon="-3.534600">
        <ele>1416.009</ele>
        <time>2026-07-16T12:09:42.067Z</time>
      </trkpt>
      <trkpt lat="37.261910" lon="-3.534440">
        <ele>1416.821</ele>
        <time>2026-07-16T12:10:02.067Z</time>
      </trkpt>
      <trkpt lat="37.261810" lon="-3.534240">
        <ele>1419.015</ele>
        <time>2026-07-16T12:10:22.067Z</time>
      </trkpt>
      <trkpt lat="37.261760" lon="-3.534080">
        <ele>1419.733</ele>
        <time>2026-07-16T12:10:42.067Z</time>
      </trkpt>
      <trkpt lat="37.261730" lon="-3.533800">
        <ele>1421.437</ele>
        <time>2026-07-16T12:11:02.067Z</time>
      </trkpt>
      <trkpt lat="37.261690" lon="-3.533640">
        <ele>1421.211</ele>
        <time>2026-07-16T12:11:22.067Z</time>
      </trkpt>
      <trkpt lat="37.261620" lon="-3.533450">
        <ele>1421.884</ele>
        <time>2026-07-16T12:11:42.067Z</time>
      </trkpt>
      <trkpt lat="37.261380" lon="-3.532880">
        <ele>1430.168</ele>
        <time>2026-07-16T12:12:02.067Z</time>
      </trkpt>
      <trkpt lat="37.261170" lon="-3.532200">
        <ele>1428.649</ele>
        <time>2026-07-16T12:12:22.067Z</time>
      </trkpt>
      <trkpt lat="37.261130" lon="-3.531980">
        <ele>1429.887</ele>
        <time>2026-07-16T12:12:42.067Z</time>
      </trkpt>
      <trkpt lat="37.261090" lon="-3.531680">
        <ele>1430.885</ele>
        <time>2026-07-16T12:13:02.067Z</time>
      </trkpt>
      <trkpt lat="37.261090" lon="-3.531470">
        <ele>1430.289</ele>
        <time>2026-07-16T12:13:22.067Z</time>
      </trkpt>
      <trkpt lat="37.261130" lon="-3.531210">
        <ele>1431.417</ele>
        <time>2026-07-16T12:13:42.067Z</time>
      </trkpt>
      <trkpt lat="37.261120" lon="-3.531000">
        <ele>1433.609</ele>
        <time>2026-07-16T12:14:02.067Z</time>
      </trkpt>
      <trkpt lat="37.261070" lon="-3.530910">
        <ele>1434.950</ele>
        <time>2026-07-16T12:14:22.067Z</time>
      </trkpt>
      <trkpt lat="37.260930" lon="-3.530760">
        <ele>1437.184</ele>
        <time>2026-07-16T12:14:42.067Z</time>
      </trkpt>
      <trkpt lat="37.260360" lon="-3.530390">
        <ele>1442.012</ele>
        <time>2026-07-16T12:15:02.067Z</time>
      </trkpt>
      <trkpt lat="37.260160" lon="-3.530200">
        <ele>1445.076</ele>
        <time>2026-07-16T12:15:22.067Z</time>
      </trkpt>
      <trkpt lat="37.259960" lon="-3.529980">
        <ele>1445.850</ele>
        <time>2026-07-16T12:15:42.067Z</time>
      </trkpt>
      <trkpt lat="37.259960" lon="-3.529930">
        <ele>1446.083</ele>
        <time>2026-07-16T12:16:02.067Z</time>
      </trkpt>
      <trkpt lat="37.259980" lon="-3.529860">
        <ele>1446.477</ele>
        <time>2026-07-16T12:16:22.067Z</time>
      </trkpt>
      <trkpt lat="37.260000" lon="-3.529720">
        <ele>1447.028</ele>
        <time>2026-07-16T12:16:42.067Z</time>
      </trkpt>
      <trkpt lat="37.260000" lon="-3.529590">
        <ele>1448.486</ele>
        <time>2026-07-16T12:17:02.067Z</time>
      </trkpt>
      <trkpt lat="37.259950" lon="-3.529240">
        <ele>1453.863</ele>
        <time>2026-07-16T12:17:22.067Z</time>
      </trkpt>
      <trkpt lat="37.259940" lon="-3.529050">
        <ele>1456.844</ele>
        <time>2026-07-16T12:17:42.067Z</time>
      </trkpt>
      <trkpt lat="37.259860" lon="-3.528700">
        <ele>1461.118</ele>
        <time>2026-07-16T12:18:02.067Z</time>
      </trkpt>
      <trkpt lat="37.260200" lon="-3.528620">
        <ele>1464.309</ele>
        <time>2026-07-16T12:18:22.067Z</time>
      </trkpt>
      <trkpt lat="37.260810" lon="-3.528800">
        <ele>1473.038</ele>
        <time>2026-07-16T12:18:42.067Z</time>
      </trkpt>
      <trkpt lat="37.261130" lon="-3.529110">
        <ele>1474.922</ele>
        <time>2026-07-16T12:19:02.067Z</time>
      </trkpt>
      <trkpt lat="37.261300" lon="-3.529170">
        <ele>1477.790</ele>
        <time>2026-07-16T12:19:22.067Z</time>
      </trkpt>
      <trkpt lat="37.261370" lon="-3.529160">
        <ele>1479.774</ele>
        <time>2026-07-16T12:19:42.067Z</time>
      </trkpt>
      <trkpt lat="37.261320" lon="-3.528990">
        <ele>1482.278</ele>
        <time>2026-07-16T12:20:02.067Z</time>
      </trkpt>
      <trkpt lat="37.261240" lon="-3.528830">
        <ele>1483.461</ele>
        <time>2026-07-16T12:20:22.067Z</time>
      </trkpt>
      <trkpt lat="37.261220" lon="-3.528690">
        <ele>1484.555</ele>
        <time>2026-07-16T12:20:42.067Z</time>
      </trkpt>
      <trkpt lat="37.261250" lon="-3.528490">
        <ele>1487.116</ele>
        <time>2026-07-16T12:21:02.067Z</time>
      </trkpt>
      <trkpt lat="37.261290" lon="-3.528330">
        <ele>1489.254</ele>
        <time>2026-07-16T12:21:22.067Z</time>
      </trkpt>
      <trkpt lat="37.261470" lon="-3.527860">
        <ele>1494.624</ele>
        <time>2026-07-16T12:21:42.067Z</time>
      </trkpt>
      <trkpt lat="37.261640" lon="-3.527330">
        <ele>1496.504</ele>
        <time>2026-07-16T12:22:02.067Z</time>
      </trkpt>
      <trkpt lat="37.261880" lon="-3.526680">
        <ele>1499.014</ele>
        <time>2026-07-16T12:22:22.067Z</time>
      </trkpt>
      <trkpt lat="37.261950" lon="-3.526460">
        <ele>1498.309</ele>
        <time>2026-07-16T12:22:42.067Z</time>
      </trkpt>
      <trkpt lat="37.261960" lon="-3.526450">
        <ele>1498.344</ele>
        <time>2026-07-16T12:23:02.067Z</time>
      </trkpt>
    </trkseg>
  </trk></gpx>