<?xml version="1.0" encoding="UTF-8"?><gpx creator="https://climbfinder.com" version="1.1"  xmlns:xsi="http://www.w3.org/2001/XMLSchema-instance"  xmlns="http://www.topografix.com/GPX/1/1" xsi:schemaLocation="http://www.topografix.com/GPX/1/1 http://www.topografix.com/GPX/1/1/gpx.xsd">
  <metadata>
    <name>sierra-de-la-pandera-desde-valdepenas-de-jaen</name>
    <author>
      <link href="https://climbfinder.com">
        <text>climbfinder</text>
        <type>text/html</type>
      </link>
    </author>
  </metadata>
  <trk>
    <name>sierra-de-la-pandera-desde-valdepenas-de-jaen</name>
    <trkseg>
			<trkpt lat="37.59388" lon="-3.8149">
        <ele>899</ele>
        <time>2026-08-04T09:00:00Z</time>
      </trkpt>
			<trkpt lat="37.59426" lon="-3.8148">
        <ele>899.3</ele>
        <time>2026-08-04T09:00:06Z</time>
      </trkpt>
			<trkpt lat="37.59464" lon="-3.81469">
        <ele>899.7</ele>
        <time>2026-08-04T09:00:13Z</time>
      </trkpt>
			<trkpt lat="37.59492" lon="-3.81456">
        <ele>900</ele>
        <time>2026-08-04T09:00:18Z</time>
      </trkpt>
			<trkpt lat="37.59523" lon="-3.81435">
        <ele>900.3</ele>
        <time>2026-08-04T09:00:24Z</time>
      </trkpt>
			<trkpt lat="37.59553" lon="-3.81414">
        <ele>900.7</ele>
        <time>2026-08-04T09:00:30Z</time>
      </trkpt>
			<trkpt lat="37.59571" lon="-3.81399">
        <ele>901</ele>
        <time>2026-08-04T09:00:34Z</time>
      </trkpt>
			<trkpt lat="37.59581" lon="-3.81385">
        <ele>901.2</ele>
        <time>2026-08-04T09:00:37Z</time>
      </trkpt>
			<trkpt lat="37.59596" lon="-3.81359">
        <ele>901.5</ele>
        <time>2026-08-04T09:00:41Z</time>
      </trkpt>
			<trkpt lat="37.59607" lon="-3.81346">
        <ele>901.7</ele>
        <time>2026-08-04T09:00:44Z</time>
      </trkpt>
			<trkpt lat="37.59622" lon="-3.81337">
        <ele>901.9</ele>
        <time>2026-08-04T09:00:47Z</time>
      </trkpt>
			<trkpt lat="37.59646" lon="-3.81328">
        <ele>902.2</ele>
        <time>2026-08-04T09:00:51Z</time>
      </trkpt>
			<trkpt lat="37.59678" lon="-3.8132">
        <ele>902.6</ele>
        <time>2026-08-04T09:00:57Z</time>
      </trkpt>
			<trkpt lat="37.59709" lon="-3.81311">
        <ele>903</ele>
        <time>2026-08-04T09:01:02Z</time>
      </trkpt>
			<trkpt lat="37.5973" lon="-3.81301">
        <ele>903.3</ele>
        <time>2026-08-04T09:01:06Z</time>
      </trkpt>
			<trkpt lat="37.59747" lon="-3.81287">
        <ele>903.5</ele>
        <time>2026-08-04T09:01:10Z</time>
      </trkpt>
			<trkpt lat="37.59762" lon="-3.81269">
        <ele>903.7</ele>
        <time>2026-08-04T09:01:13Z</time>
      </trkpt>
			<trkpt lat="37.59791" lon="-3.81228">
        <ele>904.2</ele>
        <time>2026-08-04T09:01:21Z</time>
      </trkpt>
			<trkpt lat="37.59804" lon="-3.81214">
        <ele>904.3</ele>
        <time>2026-08-04T09:01:24Z</time>
      </trkpt>
			<trkpt lat="37.5982" lon="-3.81203">
        <ele>904.5</ele>
        <time>2026-08-04T09:01:27Z</time>
      </trkpt>
			<trkpt lat="37.59839" lon="-3.81195">
        <ele>904.7</ele>
        <time>2026-08-04T09:01:30Z</time>
      </trkpt>
			<trkpt lat="37.59865" lon="-3.81188">
        <ele>905</ele>
        <time>2026-08-04T09:01:35Z</time>
      </trkpt>
			<trkpt lat="37.59891" lon="-3.8118">
        <ele>905.2</ele>
        <time>2026-08-04T09:01:40Z</time>
      </trkpt>
			<trkpt lat="37.59919" lon="-3.81167">
        <ele>905.6</ele>
        <time>2026-08-04T09:01:45Z</time>
      </trkpt>
			<trkpt lat="37.59932" lon="-3.81163">
        <ele>905.8</ele>
        <time>2026-08-04T09:01:47Z</time>
      </trkpt>
			<trkpt lat="37.59949" lon="-3.81163">
        <ele>906</ele>
        <time>2026-08-04T09:01:50Z</time>
      </trkpt>
			<trkpt lat="37.59982" lon="-3.81168">
        <ele>906.6</ele>
        <time>2026-08-04T09:01:57Z</time>
      </trkpt>
			<trkpt lat="37.60014" lon="-3.81174">
        <ele>907.3</ele>
        <time>2026-08-04T09:02:03Z</time>
      </trkpt>
			<trkpt lat="37.60032" lon="-3.81176">
        <ele>907.7</ele>
        <time>2026-08-04T09:02:06Z</time>
      </trkpt>
			<trkpt lat="37.60056" lon="-3.81178">
        <ele>908.4</ele>
        <time>2026-08-04T09:02:12Z</time>
      </trkpt>
			<trkpt lat="37.60086" lon="-3.81171">
        <ele>909.4</ele>
        <time>2026-08-04T09:02:18Z</time>
      </trkpt>
			<trkpt lat="37.60115" lon="-3.81163">
        <ele>910.5</ele>
        <time>2026-08-04T09:02:25Z</time>
      </trkpt>
			<trkpt lat="37.60131" lon="-3.81157">
        <ele>911.2</ele>
        <time>2026-08-04T09:02:29Z</time>
      </trkpt>
			<trkpt lat="37.60147" lon="-3.81147">
        <ele>912</ele>
        <time>2026-08-04T09:02:34Z</time>
      </trkpt>
			<trkpt lat="37.60167" lon="-3.81131">
        <ele>913.2</ele>
        <time>2026-08-04T09:02:40Z</time>
      </trkpt>
			<trkpt lat="37.6019" lon="-3.81111">
        <ele>914.7</ele>
        <time>2026-08-04T09:02:48Z</time>
      </trkpt>
			<trkpt lat="37.60212" lon="-3.8109">
        <ele>916.3</ele>
        <time>2026-08-04T09:02:56Z</time>
      </trkpt>
			<trkpt lat="37.60231" lon="-3.81077">
        <ele>917.7</ele>
        <time>2026-08-04T09:03:03Z</time>
      </trkpt>
			<trkpt lat="37.6025" lon="-3.81067">
        <ele>919.1</ele>
        <time>2026-08-04T09:03:09Z</time>
      </trkpt>
			<trkpt lat="37.60279" lon="-3.81058">
        <ele>921.2</ele>
        <time>2026-08-04T09:03:18Z</time>
      </trkpt>
			<trkpt lat="37.6032" lon="-3.81049">
        <ele>924.2</ele>
        <time>2026-08-04T09:03:31Z</time>
      </trkpt>
			<trkpt lat="37.6035" lon="-3.81045">
        <ele>926.4</ele>
        <time>2026-08-04T09:03:41Z</time>
      </trkpt>
			<trkpt lat="37.6037" lon="-3.81047">
        <ele>928</ele>
        <time>2026-08-04T09:03:48Z</time>
      </trkpt>
			<trkpt lat="37.60391" lon="-3.81052">
        <ele>929.5</ele>
        <time>2026-08-04T09:03:55Z</time>
      </trkpt>
			<trkpt lat="37.60418" lon="-3.81062">
        <ele>931.7</ele>
        <time>2026-08-04T09:04:04Z</time>
      </trkpt>
			<trkpt lat="37.60454" lon="-3.81085">
        <ele>934.7</ele>
        <time>2026-08-04T09:04:17Z</time>
      </trkpt>
			<trkpt lat="37.6049" lon="-3.81107">
        <ele>937.7</ele>
        <time>2026-08-04T09:04:31Z</time>
      </trkpt>
			<trkpt lat="37.60526" lon="-3.8113">
        <ele>940.8</ele>
        <time>2026-08-04T09:04:44Z</time>
      </trkpt>
			<trkpt lat="37.60561" lon="-3.81153">
        <ele>943.9</ele>
        <time>2026-08-04T09:04:57Z</time>
      </trkpt>
			<trkpt lat="37.60597" lon="-3.81176">
        <ele>947.2</ele>
        <time>2026-08-04T09:05:11Z</time>
      </trkpt>
			<trkpt lat="37.60633" lon="-3.81198">
        <ele>950.5</ele>
        <time>2026-08-04T09:05:24Z</time>
      </trkpt>
			<trkpt lat="37.60669" lon="-3.81221">
        <ele>953.9</ele>
        <time>2026-08-04T09:05:40Z</time>
      </trkpt>
			<trkpt lat="37.60687" lon="-3.81233">
        <ele>955.6</ele>
        <time>2026-08-04T09:05:48Z</time>
      </trkpt>
			<trkpt lat="37.60706" lon="-3.81252">
        <ele>957.7</ele>
        <time>2026-08-04T09:05:58Z</time>
      </trkpt>
			<trkpt lat="37.60724" lon="-3.81275">
        <ele>959.8</ele>
        <time>2026-08-04T09:06:07Z</time>
      </trkpt>
			<trkpt lat="37.60746" lon="-3.81315">
        <ele>963</ele>
        <time>2026-08-04T09:06:20Z</time>
      </trkpt>
			<trkpt lat="37.60768" lon="-3.81356">
        <ele>966.1</ele>
        <time>2026-08-04T09:06:33Z</time>
      </trkpt>
			<trkpt lat="37.60788" lon="-3.8139">
        <ele>968.7</ele>
        <time>2026-08-04T09:06:44Z</time>
      </trkpt>
			<trkpt lat="37.60808" lon="-3.81425">
        <ele>971.3</ele>
        <time>2026-08-04T09:06:55Z</time>
      </trkpt>
			<trkpt lat="37.6082" lon="-3.81449">
        <ele>973</ele>
        <time>2026-08-04T09:07:03Z</time>
      </trkpt>
			<trkpt lat="37.60832" lon="-3.81473">
        <ele>974.7</ele>
        <time>2026-08-04T09:07:10Z</time>
      </trkpt>
			<trkpt lat="37.60837" lon="-3.81488">
        <ele>975.6</ele>
        <time>2026-08-04T09:07:14Z</time>
      </trkpt>
			<trkpt lat="37.60844" lon="-3.81514">
        <ele>977.2</ele>
        <time>2026-08-04T09:07:21Z</time>
      </trkpt>
			<trkpt lat="37.60844" lon="-3.81539">
        <ele>978.6</ele>
        <time>2026-08-04T09:07:28Z</time>
      </trkpt>
			<trkpt lat="37.60842" lon="-3.81559">
        <ele>979.8</ele>
        <time>2026-08-04T09:07:33Z</time>
      </trkpt>
			<trkpt lat="37.60837" lon="-3.8158">
        <ele>981.1</ele>
        <time>2026-08-04T09:07:39Z</time>
      </trkpt>
			<trkpt lat="37.60828" lon="-3.81603">
        <ele>982.7</ele>
        <time>2026-08-04T09:07:45Z</time>
      </trkpt>
			<trkpt lat="37.60812" lon="-3.81644">
        <ele>985.5</ele>
        <time>2026-08-04T09:07:58Z</time>
      </trkpt>
			<trkpt lat="37.60809" lon="-3.81666">
        <ele>986.9</ele>
        <time>2026-08-04T09:08:03Z</time>
      </trkpt>
			<trkpt lat="37.60808" lon="-3.81685">
        <ele>988.2</ele>
        <time>2026-08-04T09:08:09Z</time>
      </trkpt>
			<trkpt lat="37.60812" lon="-3.81707">
        <ele>989.6</ele>
        <time>2026-08-04T09:08:15Z</time>
      </trkpt>
			<trkpt lat="37.60821" lon="-3.81731">
        <ele>991.4</ele>
        <time>2026-08-04T09:08:24Z</time>
      </trkpt>
			<trkpt lat="37.60834" lon="-3.8175">
        <ele>993.1</ele>
        <time>2026-08-04T09:08:32Z</time>
      </trkpt>
			<trkpt lat="37.60868" lon="-3.81782">
        <ele>996.9</ele>
        <time>2026-08-04T09:08:49Z</time>
      </trkpt>
			<trkpt lat="37.60894" lon="-3.81813">
        <ele>1000.2</ele>
        <time>2026-08-04T09:09:03Z</time>
      </trkpt>
			<trkpt lat="37.6091" lon="-3.81842">
        <ele>1002.8</ele>
        <time>2026-08-04T09:09:14Z</time>
      </trkpt>
			<trkpt lat="37.60917" lon="-3.81861">
        <ele>1004.4</ele>
        <time>2026-08-04T09:09:22Z</time>
      </trkpt>
			<trkpt lat="37.60924" lon="-3.81891">
        <ele>1006.7</ele>
        <time>2026-08-04T09:09:32Z</time>
      </trkpt>
			<trkpt lat="37.60929" lon="-3.81922">
        <ele>1009.1</ele>
        <time>2026-08-04T09:09:43Z</time>
      </trkpt>
			<trkpt lat="37.60934" lon="-3.81953">
        <ele>1011.5</ele>
        <time>2026-08-04T09:09:54Z</time>
      </trkpt>
			<trkpt lat="37.60943" lon="-3.81988">
        <ele>1014.3</ele>
        <time>2026-08-04T09:10:07Z</time>
      </trkpt>
			<trkpt lat="37.60956" lon="-3.8202">
        <ele>1017.1</ele>
        <time>2026-08-04T09:10:20Z</time>
      </trkpt>
			<trkpt lat="37.60973" lon="-3.82046">
        <ele>1019.7</ele>
        <time>2026-08-04T09:10:31Z</time>
      </trkpt>
			<trkpt lat="37.6099" lon="-3.82064">
        <ele>1021.8</ele>
        <time>2026-08-04T09:10:41Z</time>
      </trkpt>
			<trkpt lat="37.61009" lon="-3.82078">
        <ele>1024</ele>
        <time>2026-08-04T09:10:51Z</time>
      </trkpt>
			<trkpt lat="37.61033" lon="-3.82092">
        <ele>1026.5</ele>
        <time>2026-08-04T09:11:03Z</time>
      </trkpt>
			<trkpt lat="37.61075" lon="-3.82111">
        <ele>1030.7</ele>
        <time>2026-08-04T09:11:21Z</time>
      </trkpt>
			<trkpt lat="37.61116" lon="-3.8213">
        <ele>1034.6</ele>
        <time>2026-08-04T09:11:38Z</time>
      </trkpt>
			<trkpt lat="37.61158" lon="-3.82149">
        <ele>1037.9</ele>
        <time>2026-08-04T09:11:53Z</time>
      </trkpt>
			<trkpt lat="37.61199" lon="-3.82168">
        <ele>1040.7</ele>
        <time>2026-08-04T09:12:06Z</time>
      </trkpt>
			<trkpt lat="37.61241" lon="-3.82187">
        <ele>1043.2</ele>
        <time>2026-08-04T09:12:19Z</time>
      </trkpt>
			<trkpt lat="37.61262" lon="-3.82194">
        <ele>1044.4</ele>
        <time>2026-08-04T09:12:25Z</time>
      </trkpt>
			<trkpt lat="37.61276" lon="-3.82197">
        <ele>1045.1</ele>
        <time>2026-08-04T09:12:29Z</time>
      </trkpt>
			<trkpt lat="37.61291" lon="-3.82196">
        <ele>1046</ele>
        <time>2026-08-04T09:12:33Z</time>
      </trkpt>
			<trkpt lat="37.61303" lon="-3.82194">
        <ele>1046.6</ele>
        <time>2026-08-04T09:12:36Z</time>
      </trkpt>
			<trkpt lat="37.6133" lon="-3.82184">
        <ele>1048.3</ele>
        <time>2026-08-04T09:12:44Z</time>
      </trkpt>
			<trkpt lat="37.61357" lon="-3.8217">
        <ele>1050.1</ele>
        <time>2026-08-04T09:12:53Z</time>
      </trkpt>
			<trkpt lat="37.61374" lon="-3.82164">
        <ele>1051.3</ele>
        <time>2026-08-04T09:12:59Z</time>
      </trkpt>
			<trkpt lat="37.61387" lon="-3.8216">
        <ele>1052.3</ele>
        <time>2026-08-04T09:13:03Z</time>
      </trkpt>
			<trkpt lat="37.61399" lon="-3.82159">
        <ele>1053.2</ele>
        <time>2026-08-04T09:13:07Z</time>
      </trkpt>
			<trkpt lat="37.61412" lon="-3.82161">
        <ele>1054.2</ele>
        <time>2026-08-04T09:13:12Z</time>
      </trkpt>
			<trkpt lat="37.61424" lon="-3.82164">
        <ele>1055.2</ele>
        <time>2026-08-04T09:13:16Z</time>
      </trkpt>
			<trkpt lat="37.61437" lon="-3.8217">
        <ele>1056.3</ele>
        <time>2026-08-04T09:13:20Z</time>
      </trkpt>
			<trkpt lat="37.6145" lon="-3.82179">
        <ele>1057.7</ele>
        <time>2026-08-04T09:13:26Z</time>
      </trkpt>
			<trkpt lat="37.61461" lon="-3.82189">
        <ele>1058.9</ele>
        <time>2026-08-04T09:13:32Z</time>
      </trkpt>
			<trkpt lat="37.6147" lon="-3.82203">
        <ele>1060.3</ele>
        <time>2026-08-04T09:13:38Z</time>
      </trkpt>
			<trkpt lat="37.61479" lon="-3.8222">
        <ele>1061.9</ele>
        <time>2026-08-04T09:13:45Z</time>
      </trkpt>
			<trkpt lat="37.61485" lon="-3.82235">
        <ele>1063.3</ele>
        <time>2026-08-04T09:13:51Z</time>
      </trkpt>
			<trkpt lat="37.61489" lon="-3.82254">
        <ele>1064.9</ele>
        <time>2026-08-04T09:13:58Z</time>
      </trkpt>
			<trkpt lat="37.61491" lon="-3.82274">
        <ele>1066.6</ele>
        <time>2026-08-04T09:14:06Z</time>
      </trkpt>
			<trkpt lat="37.61491" lon="-3.82315">
        <ele>1070.2</ele>
        <time>2026-08-04T09:14:22Z</time>
      </trkpt>
			<trkpt lat="37.61491" lon="-3.82338">
        <ele>1072.2</ele>
        <time>2026-08-04T09:14:31Z</time>
      </trkpt>
			<trkpt lat="37.61493" lon="-3.82357">
        <ele>1073.9</ele>
        <time>2026-08-04T09:14:39Z</time>
      </trkpt>
			<trkpt lat="37.61498" lon="-3.82374">
        <ele>1075.5</ele>
        <time>2026-08-04T09:14:46Z</time>
      </trkpt>
			<trkpt lat="37.61505" lon="-3.82392">
        <ele>1077.4</ele>
        <time>2026-08-04T09:14:54Z</time>
      </trkpt>
			<trkpt lat="37.61513" lon="-3.82404">
        <ele>1078.8</ele>
        <time>2026-08-04T09:15:00Z</time>
      </trkpt>
			<trkpt lat="37.61522" lon="-3.82415">
        <ele>1080.1</ele>
        <time>2026-08-04T09:15:06Z</time>
      </trkpt>
			<trkpt lat="37.61532" lon="-3.82423">
        <ele>1081.5</ele>
        <time>2026-08-04T09:15:12Z</time>
      </trkpt>
			<trkpt lat="37.61544" lon="-3.8243">
        <ele>1082.9</ele>
        <time>2026-08-04T09:15:19Z</time>
      </trkpt>
			<trkpt lat="37.61555" lon="-3.82434">
        <ele>1084.1</ele>
        <time>2026-08-04T09:15:24Z</time>
      </trkpt>
			<trkpt lat="37.6157" lon="-3.82436">
        <ele>1085.8</ele>
        <time>2026-08-04T09:15:31Z</time>
      </trkpt>
			<trkpt lat="37.61609" lon="-3.82434">
        <ele>1090</ele>
        <time>2026-08-04T09:15:51Z</time>
      </trkpt>
			<trkpt lat="37.61647" lon="-3.82431">
        <ele>1094</ele>
        <time>2026-08-04T09:16:08Z</time>
      </trkpt>
			<trkpt lat="37.61678" lon="-3.82427">
        <ele>1097.3</ele>
        <time>2026-08-04T09:16:23Z</time>
      </trkpt>
			<trkpt lat="37.6171" lon="-3.82423">
        <ele>1100.5</ele>
        <time>2026-08-04T09:16:38Z</time>
      </trkpt>
			<trkpt lat="37.61741" lon="-3.82419">
        <ele>1103.7</ele>
        <time>2026-08-04T09:16:51Z</time>
      </trkpt>
			<trkpt lat="37.61782" lon="-3.82415">
        <ele>1107.8</ele>
        <time>2026-08-04T09:17:10Z</time>
      </trkpt>
			<trkpt lat="37.61816" lon="-3.82415">
        <ele>1111.2</ele>
        <time>2026-08-04T09:17:25Z</time>
      </trkpt>
			<trkpt lat="37.61849" lon="-3.82415">
        <ele>1114.7</ele>
        <time>2026-08-04T09:17:41Z</time>
      </trkpt>
			<trkpt lat="37.61881" lon="-3.82419">
        <ele>1118.1</ele>
        <time>2026-08-04T09:17:57Z</time>
      </trkpt>
			<trkpt lat="37.61914" lon="-3.82427">
        <ele>1121.6</ele>
        <time>2026-08-04T09:18:12Z</time>
      </trkpt>
			<trkpt lat="37.61951" lon="-3.82445">
        <ele>1125.9</ele>
        <time>2026-08-04T09:18:32Z</time>
      </trkpt>
			<trkpt lat="37.61989" lon="-3.82468">
        <ele>1130.5</ele>
        <time>2026-08-04T09:18:53Z</time>
      </trkpt>
			<trkpt lat="37.62027" lon="-3.8249">
        <ele>1135</ele>
        <time>2026-08-04T09:19:14Z</time>
      </trkpt>
			<trkpt lat="37.62065" lon="-3.82513">
        <ele>1139.3</ele>
        <time>2026-08-04T09:19:33Z</time>
      </trkpt>
			<trkpt lat="37.62103" lon="-3.82535">
        <ele>1143.2</ele>
        <time>2026-08-04T09:19:50Z</time>
      </trkpt>
			<trkpt lat="37.62141" lon="-3.82558">
        <ele>1146.9</ele>
        <time>2026-08-04T09:20:07Z</time>
      </trkpt>
			<trkpt lat="37.62171" lon="-3.82571">
        <ele>1149.5</ele>
        <time>2026-08-04T09:20:17Z</time>
      </trkpt>
			<trkpt lat="37.62193" lon="-3.82576">
        <ele>1151.2</ele>
        <time>2026-08-04T09:20:25Z</time>
      </trkpt>
			<trkpt lat="37.62217" lon="-3.82577">
        <ele>1153</ele>
        <time>2026-08-04T09:20:33Z</time>
      </trkpt>
			<trkpt lat="37.62235" lon="-3.82575">
        <ele>1154.3</ele>
        <time>2026-08-04T09:20:38Z</time>
      </trkpt>
			<trkpt lat="37.62263" lon="-3.82568">
        <ele>1156.3</ele>
        <time>2026-08-04T09:20:47Z</time>
      </trkpt>
			<trkpt lat="37.62302" lon="-3.82554">
        <ele>1159.1</ele>
        <time>2026-08-04T09:20:59Z</time>
      </trkpt>
			<trkpt lat="37.62342" lon="-3.82539">
        <ele>1161.8</ele>
        <time>2026-08-04T09:21:12Z</time>
      </trkpt>
			<trkpt lat="37.62381" lon="-3.82525">
        <ele>1164.3</ele>
        <time>2026-08-04T09:21:25Z</time>
      </trkpt>
			<trkpt lat="37.62421" lon="-3.82511">
        <ele>1166.3</ele>
        <time>2026-08-04T09:21:35Z</time>
      </trkpt>
			<trkpt lat="37.6246" lon="-3.82497">
        <ele>1167.9</ele>
        <time>2026-08-04T09:21:45Z</time>
      </trkpt>
			<trkpt lat="37.62499" lon="-3.82482">
        <ele>1168.8</ele>
        <time>2026-08-04T09:21:53Z</time>
      </trkpt>
			<trkpt lat="37.62539" lon="-3.82468">
        <ele>1169</ele>
        <time>2026-08-04T09:21:59Z</time>
      </trkpt>
			<trkpt lat="37.62578" lon="-3.82454">
        <ele>1168.6</ele>
        <time>2026-08-04T09:22:03Z</time>
      </trkpt>
			<trkpt lat="37.62618" lon="-3.82439">
        <ele>1167.7</ele>
        <time>2026-08-04T09:22:07Z</time>
      </trkpt>
			<trkpt lat="37.62657" lon="-3.82425">
        <ele>1166.6</ele>
        <time>2026-08-04T09:22:11Z</time>
      </trkpt>
			<trkpt lat="37.62673" lon="-3.82421">
        <ele>1166.1</ele>
        <time>2026-08-04T09:22:13Z</time>
      </trkpt>
			<trkpt lat="37.6269" lon="-3.82419">
        <ele>1165.6</ele>
        <time>2026-08-04T09:22:14Z</time>
      </trkpt>
			<trkpt lat="37.62713" lon="-3.82421">
        <ele>1164.9</ele>
        <time>2026-08-04T09:22:17Z</time>
      </trkpt>
			<trkpt lat="37.62739" lon="-3.82427">
        <ele>1164.1</ele>
        <time>2026-08-04T09:22:19Z</time>
      </trkpt>
			<trkpt lat="37.62764" lon="-3.82433">
        <ele>1163.3</ele>
        <time>2026-08-04T09:22:22Z</time>
      </trkpt>
			<trkpt lat="37.62782" lon="-3.82433">
        <ele>1162.8</ele>
        <time>2026-08-04T09:22:24Z</time>
      </trkpt>
			<trkpt lat="37.62796" lon="-3.8243">
        <ele>1162.4</ele>
        <time>2026-08-04T09:22:25Z</time>
      </trkpt>
			<trkpt lat="37.62806" lon="-3.82425">
        <ele>1162.1</ele>
        <time>2026-08-04T09:22:26Z</time>
      </trkpt>
			<trkpt lat="37.6282" lon="-3.82416">
        <ele>1161.6</ele>
        <time>2026-08-04T09:22:27Z</time>
      </trkpt>
			<trkpt lat="37.62831" lon="-3.82402">
        <ele>1161.1</ele>
        <time>2026-08-04T09:22:29Z</time>
      </trkpt>
			<trkpt lat="37.62846" lon="-3.82378">
        <ele>1160.4</ele>
        <time>2026-08-04T09:22:31Z</time>
      </trkpt>
			<trkpt lat="37.6286" lon="-3.82353">
        <ele>1159.8</ele>
        <time>2026-08-04T09:22:34Z</time>
      </trkpt>
			<trkpt lat="37.62872" lon="-3.82333">
        <ele>1159.3</ele>
        <time>2026-08-04T09:22:36Z</time>
      </trkpt>
			<trkpt lat="37.62887" lon="-3.82319">
        <ele>1158.8</ele>
        <time>2026-08-04T09:22:37Z</time>
      </trkpt>
			<trkpt lat="37.62902" lon="-3.82309">
        <ele>1158.4</ele>
        <time>2026-08-04T09:22:39Z</time>
      </trkpt>
			<trkpt lat="37.62913" lon="-3.82305">
        <ele>1158.2</ele>
        <time>2026-08-04T09:22:40Z</time>
      </trkpt>
			<trkpt lat="37.6293" lon="-3.82303">
        <ele>1157.9</ele>
        <time>2026-08-04T09:22:42Z</time>
      </trkpt>
			<trkpt lat="37.62944" lon="-3.82305">
        <ele>1157.6</ele>
        <time>2026-08-04T09:22:43Z</time>
      </trkpt>
			<trkpt lat="37.62962" lon="-3.82313">
        <ele>1157.4</ele>
        <time>2026-08-04T09:22:45Z</time>
      </trkpt>
			<trkpt lat="37.62969" lon="-3.82318">
        <ele>1157.3</ele>
        <time>2026-08-04T09:22:46Z</time>
      </trkpt>
			<trkpt lat="37.62984" lon="-3.82331">
        <ele>1157.2</ele>
        <time>2026-08-04T09:22:49Z</time>
      </trkpt>
			<trkpt lat="37.62985" lon="-3.82324">
        <ele>1157.2</ele>
        <time>2026-08-04T09:22:49Z</time>
      </trkpt>
			<trkpt lat="37.62984" lon="-3.82316">
        <ele>1157.2</ele>
        <time>2026-08-04T09:22:50Z</time>
      </trkpt>
			<trkpt lat="37.62972" lon="-3.82286">
        <ele>1157.4</ele>
        <time>2026-08-04T09:22:55Z</time>
      </trkpt>
			<trkpt lat="37.62966" lon="-3.82264">
        <ele>1157.7</ele>
        <time>2026-08-04T09:22:58Z</time>
      </trkpt>
			<trkpt lat="37.6296" lon="-3.82226">
        <ele>1158.6</ele>
        <time>2026-08-04T09:23:05Z</time>
      </trkpt>
			<trkpt lat="37.62956" lon="-3.82186">
        <ele>1159.9</ele>
        <time>2026-08-04T09:23:13Z</time>
      </trkpt>
			<trkpt lat="37.62955" lon="-3.82132">
        <ele>1162.6</ele>
        <time>2026-08-04T09:23:26Z</time>
      </trkpt>
			<trkpt lat="37.62953" lon="-3.82079">
        <ele>1166.1</ele>
        <time>2026-08-04T09:23:40Z</time>
      </trkpt>
			<trkpt lat="37.62954" lon="-3.82045">
        <ele>1168.6</ele>
        <time>2026-08-04T09:23:51Z</time>
      </trkpt>
			<trkpt lat="37.62962" lon="-3.81991">
        <ele>1173</ele>
        <time>2026-08-04T09:24:10Z</time>
      </trkpt>
			<trkpt lat="37.62969" lon="-3.81958">
        <ele>1175.8</ele>
        <time>2026-08-04T09:24:22Z</time>
      </trkpt>
			<trkpt lat="37.62978" lon="-3.81937">
        <ele>1177.8</ele>
        <time>2026-08-04T09:24:32Z</time>
      </trkpt>
			<trkpt lat="37.62992" lon="-3.81912">
        <ele>1180.4</ele>
        <time>2026-08-04T09:24:44Z</time>
      </trkpt>
			<trkpt lat="37.62996" lon="-3.81901">
        <ele>1181.5</ele>
        <time>2026-08-04T09:24:49Z</time>
      </trkpt>
			<trkpt lat="37.63011" lon="-3.8185">
        <ele>1186.1</ele>
        <time>2026-08-04T09:25:10Z</time>
      </trkpt>
			<trkpt lat="37.63026" lon="-3.81798">
        <ele>1190.7</ele>
        <time>2026-08-04T09:25:30Z</time>
      </trkpt>
			<trkpt lat="37.63034" lon="-3.81768">
        <ele>1193.3</ele>
        <time>2026-08-04T09:25:41Z</time>
      </trkpt>
			<trkpt lat="37.6304" lon="-3.8173">
        <ele>1196.5</ele>
        <time>2026-08-04T09:25:55Z</time>
      </trkpt>
			<trkpt lat="37.63046" lon="-3.81693">
        <ele>1199.7</ele>
        <time>2026-08-04T09:26:10Z</time>
      </trkpt>
			<trkpt lat="37.63052" lon="-3.81655">
        <ele>1202.8</ele>
        <time>2026-08-04T09:26:23Z</time>
      </trkpt>
			<trkpt lat="37.63062" lon="-3.81615">
        <ele>1206.1</ele>
        <time>2026-08-04T09:26:38Z</time>
      </trkpt>
			<trkpt lat="37.63068" lon="-3.81595">
        <ele>1207.8</ele>
        <time>2026-08-04T09:26:46Z</time>
      </trkpt>
			<trkpt lat="37.63081" lon="-3.81566">
        <ele>1210.4</ele>
        <time>2026-08-04T09:26:57Z</time>
      </trkpt>
			<trkpt lat="37.63082" lon="-3.81553">
        <ele>1211.4</ele>
        <time>2026-08-04T09:27:02Z</time>
      </trkpt>
			<trkpt lat="37.6308" lon="-3.81544">
        <ele>1212.2</ele>
        <time>2026-08-04T09:27:06Z</time>
      </trkpt>
			<trkpt lat="37.63074" lon="-3.81531">
        <ele>1213.4</ele>
        <time>2026-08-04T09:27:11Z</time>
      </trkpt>
			<trkpt lat="37.63043" lon="-3.81497">
        <ele>1217.6</ele>
        <time>2026-08-04T09:27:29Z</time>
      </trkpt>
			<trkpt lat="37.63034" lon="-3.81492">
        <ele>1218.6</ele>
        <time>2026-08-04T09:27:34Z</time>
      </trkpt>
			<trkpt lat="37.63007" lon="-3.81488">
        <ele>1221.5</ele>
        <time>2026-08-04T09:27:47Z</time>
      </trkpt>
			<trkpt lat="37.62999" lon="-3.81483">
        <ele>1222.5</ele>
        <time>2026-08-04T09:27:52Z</time>
      </trkpt>
			<trkpt lat="37.62993" lon="-3.81475">
        <ele>1223.4</ele>
        <time>2026-08-04T09:27:56Z</time>
      </trkpt>
			<trkpt lat="37.62984" lon="-3.81455">
        <ele>1225.4</ele>
        <time>2026-08-04T09:28:05Z</time>
      </trkpt>
			<trkpt lat="37.62973" lon="-3.81411">
        <ele>1229.5</ele>
        <time>2026-08-04T09:28:23Z</time>
      </trkpt>
			<trkpt lat="37.62962" lon="-3.81367">
        <ele>1233.8</ele>
        <time>2026-08-04T09:28:41Z</time>
      </trkpt>
			<trkpt lat="37.6296" lon="-3.81351">
        <ele>1235.3</ele>
        <time>2026-08-04T09:28:48Z</time>
      </trkpt>
			<trkpt lat="37.62962" lon="-3.81333">
        <ele>1237</ele>
        <time>2026-08-04T09:28:55Z</time>
      </trkpt>
			<trkpt lat="37.62965" lon="-3.81318">
        <ele>1238.5</ele>
        <time>2026-08-04T09:29:01Z</time>
      </trkpt>
			<trkpt lat="37.6297" lon="-3.81307">
        <ele>1239.8</ele>
        <time>2026-08-04T09:29:07Z</time>
      </trkpt>
			<trkpt lat="37.62986" lon="-3.81292">
        <ele>1242.3</ele>
        <time>2026-08-04T09:29:17Z</time>
      </trkpt>
			<trkpt lat="37.62995" lon="-3.8128">
        <ele>1244.1</ele>
        <time>2026-08-04T09:29:24Z</time>
      </trkpt>
			<trkpt lat="37.63001" lon="-3.81268">
        <ele>1245.5</ele>
        <time>2026-08-04T09:29:30Z</time>
      </trkpt>
			<trkpt lat="37.63004" lon="-3.81254">
        <ele>1247.2</ele>
        <time>2026-08-04T09:29:37Z</time>
      </trkpt>
			<trkpt lat="37.63005" lon="-3.8124">
        <ele>1248.7</ele>
        <time>2026-08-04T09:29:44Z</time>
      </trkpt>
			<trkpt lat="37.63002" lon="-3.81227">
        <ele>1250.3</ele>
        <time>2026-08-04T09:29:51Z</time>
      </trkpt>
			<trkpt lat="37.62989" lon="-3.812">
        <ele>1254.3</ele>
        <time>2026-08-04T09:30:08Z</time>
      </trkpt>
			<trkpt lat="37.62981" lon="-3.81166">
        <ele>1259</ele>
        <time>2026-08-04T09:30:30Z</time>
      </trkpt>
			<trkpt lat="37.6297" lon="-3.81134">
        <ele>1264.2</ele>
        <time>2026-08-04T09:30:52Z</time>
      </trkpt>
			<trkpt lat="37.62958" lon="-3.81103">
        <ele>1269.5</ele>
        <time>2026-08-04T09:31:14Z</time>
      </trkpt>
			<trkpt lat="37.62948" lon="-3.8105">
        <ele>1278.3</ele>
        <time>2026-08-04T09:31:49Z</time>
      </trkpt>
			<trkpt lat="37.62938" lon="-3.80997">
        <ele>1286.7</ele>
        <time>2026-08-04T09:32:23Z</time>
      </trkpt>
			<trkpt lat="37.62928" lon="-3.80944">
        <ele>1293.5</ele>
        <time>2026-08-04T09:32:52Z</time>
      </trkpt>
			<trkpt lat="37.62924" lon="-3.80931">
        <ele>1295.1</ele>
        <time>2026-08-04T09:32:59Z</time>
      </trkpt>
			<trkpt lat="37.6291" lon="-3.80909">
        <ele>1297.5</ele>
        <time>2026-08-04T09:33:11Z</time>
      </trkpt>
			<trkpt lat="37.62885" lon="-3.80874">
        <ele>1300.6</ele>
        <time>2026-08-04T09:33:23Z</time>
      </trkpt>
			<trkpt lat="37.6288" lon="-3.80865">
        <ele>1301.2</ele>
        <time>2026-08-04T09:33:26Z</time>
      </trkpt>
			<trkpt lat="37.62877" lon="-3.80855">
        <ele>1301.6</ele>
        <time>2026-08-04T09:33:28Z</time>
      </trkpt>
			<trkpt lat="37.62874" lon="-3.8082">
        <ele>1302.7</ele>
        <time>2026-08-04T09:33:35Z</time>
      </trkpt>
			<trkpt lat="37.62874" lon="-3.80806">
        <ele>1302.9</ele>
        <time>2026-08-04T09:33:37Z</time>
      </trkpt>
			<trkpt lat="37.62875" lon="-3.80792">
        <ele>1303.1</ele>
        <time>2026-08-04T09:33:39Z</time>
      </trkpt>
			<trkpt lat="37.62883" lon="-3.80759">
        <ele>1303.4</ele>
        <time>2026-08-04T09:33:44Z</time>
      </trkpt>
			<trkpt lat="37.62887" lon="-3.80752">
        <ele>1303.4</ele>
        <time>2026-08-04T09:33:45Z</time>
      </trkpt>
			<trkpt lat="37.62892" lon="-3.80749">
        <ele>1303.4</ele>
        <time>2026-08-04T09:33:46Z</time>
      </trkpt>
			<trkpt lat="37.62897" lon="-3.80748">
        <ele>1303.4</ele>
        <time>2026-08-04T09:33:46Z</time>
      </trkpt>
			<trkpt lat="37.62903" lon="-3.8075">
        <ele>1303.3</ele>
        <time>2026-08-04T09:33:47Z</time>
      </trkpt>
			<trkpt lat="37.62907" lon="-3.80754">
        <ele>1303.3</ele>
        <time>2026-08-04T09:33:48Z</time>
      </trkpt>
			<trkpt lat="37.62924" lon="-3.80782">
        <ele>1303</ele>
        <time>2026-08-04T09:33:50Z</time>
      </trkpt>
			<trkpt lat="37.6293" lon="-3.8079">
        <ele>1302.9</ele>
        <time>2026-08-04T09:33:51Z</time>
      </trkpt>
			<trkpt lat="37.62934" lon="-3.80795">
        <ele>1302.8</ele>
        <time>2026-08-04T09:33:52Z</time>
      </trkpt>
			<trkpt lat="37.6294" lon="-3.808">
        <ele>1302.7</ele>
        <time>2026-08-04T09:33:53Z</time>
      </trkpt>
			<trkpt lat="37.62962" lon="-3.80809">
        <ele>1302.3</ele>
        <time>2026-08-04T09:33:55Z</time>
      </trkpt>
			<trkpt lat="37.62979" lon="-3.80814">
        <ele>1302</ele>
        <time>2026-08-04T09:33:57Z</time>
      </trkpt>
			<trkpt lat="37.62995" lon="-3.80818">
        <ele>1301.7</ele>
        <time>2026-08-04T09:33:58Z</time>
      </trkpt>
			<trkpt lat="37.63001" lon="-3.8082">
        <ele>1301.7</ele>
        <time>2026-08-04T09:33:59Z</time>
      </trkpt>
			<trkpt lat="37.63007" lon="-3.80825">
        <ele>1301.6</ele>
        <time>2026-08-04T09:34:00Z</time>
      </trkpt>
			<trkpt lat="37.6302" lon="-3.80841">
        <ele>1301.4</ele>
        <time>2026-08-04T09:34:02Z</time>
      </trkpt>
			<trkpt lat="37.63053" lon="-3.80874">
        <ele>1301.3</ele>
        <time>2026-08-04T09:34:08Z</time>
      </trkpt>
			<trkpt lat="37.63079" lon="-3.80906">
        <ele>1301.8</ele>
        <time>2026-08-04T09:34:14Z</time>
      </trkpt>
			<trkpt lat="37.63097" lon="-3.80923">
        <ele>1302.4</ele>
        <time>2026-08-04T09:34:18Z</time>
      </trkpt>
			<trkpt lat="37.6312" lon="-3.80942">
        <ele>1303.4</ele>
        <time>2026-08-04T09:34:24Z</time>
      </trkpt>
			<trkpt lat="37.63143" lon="-3.80961">
        <ele>1304.7</ele>
        <time>2026-08-04T09:34:31Z</time>
      </trkpt>
			<trkpt lat="37.63156" lon="-3.80973">
        <ele>1305.7</ele>
        <time>2026-08-04T09:34:36Z</time>
      </trkpt>
			<trkpt lat="37.63171" lon="-3.8099">
        <ele>1306.9</ele>
        <time>2026-08-04T09:34:42Z</time>
      </trkpt>
			<trkpt lat="37.63179" lon="-3.80997">
        <ele>1307.6</ele>
        <time>2026-08-04T09:34:45Z</time>
      </trkpt>
			<trkpt lat="37.63185" lon="-3.81001">
        <ele>1308</ele>
        <time>2026-08-04T09:34:47Z</time>
      </trkpt>
			<trkpt lat="37.63193" lon="-3.81005">
        <ele>1308.7</ele>
        <time>2026-08-04T09:34:50Z</time>
      </trkpt>
			<trkpt lat="37.63205" lon="-3.81007">
        <ele>1309.5</ele>
        <time>2026-08-04T09:34:54Z</time>
      </trkpt>
			<trkpt lat="37.63224" lon="-3.81008">
        <ele>1311</ele>
        <time>2026-08-04T09:35:00Z</time>
      </trkpt>
			<trkpt lat="37.63246" lon="-3.81012">
        <ele>1312.7</ele>
        <time>2026-08-04T09:35:07Z</time>
      </trkpt>
			<trkpt lat="37.63257" lon="-3.81012">
        <ele>1313.7</ele>
        <time>2026-08-04T09:35:12Z</time>
      </trkpt>
			<trkpt lat="37.63264" lon="-3.8101">
        <ele>1314.3</ele>
        <time>2026-08-04T09:35:15Z</time>
      </trkpt>
			<trkpt lat="37.63292" lon="-3.80996">
        <ele>1316.7</ele>
        <time>2026-08-04T09:35:25Z</time>
      </trkpt>
			<trkpt lat="37.63306" lon="-3.80996">
        <ele>1317.8</ele>
        <time>2026-08-04T09:35:29Z</time>
      </trkpt>
			<trkpt lat="37.63317" lon="-3.80999">
        <ele>1318.7</ele>
        <time>2026-08-04T09:35:33Z</time>
      </trkpt>
			<trkpt lat="37.63331" lon="-3.81005">
        <ele>1319.9</ele>
        <time>2026-08-04T09:35:38Z</time>
      </trkpt>
			<trkpt lat="37.63351" lon="-3.81016">
        <ele>1321.5</ele>
        <time>2026-08-04T09:35:45Z</time>
      </trkpt>
			<trkpt lat="37.6337" lon="-3.81031">
        <ele>1323.1</ele>
        <time>2026-08-04T09:35:52Z</time>
      </trkpt>
			<trkpt lat="37.63376" lon="-3.81042">
        <ele>1323.8</ele>
        <time>2026-08-04T09:35:55Z</time>
      </trkpt>
			<trkpt lat="37.63385" lon="-3.81079">
        <ele>1325.9</ele>
        <time>2026-08-04T09:36:05Z</time>
      </trkpt>
			<trkpt lat="37.63388" lon="-3.81094">
        <ele>1326.6</ele>
        <time>2026-08-04T09:36:08Z</time>
      </trkpt>
			<trkpt lat="37.63388" lon="-3.81101">
        <ele>1327</ele>
        <time>2026-08-04T09:36:10Z</time>
      </trkpt>
			<trkpt lat="37.63387" lon="-3.81108">
        <ele>1327.3</ele>
        <time>2026-08-04T09:36:12Z</time>
      </trkpt>
			<trkpt lat="37.63384" lon="-3.81116">
        <ele>1327.7</ele>
        <time>2026-08-04T09:36:14Z</time>
      </trkpt>
			<trkpt lat="37.63367" lon="-3.81137">
        <ele>1329.1</ele>
        <time>2026-08-04T09:36:21Z</time>
      </trkpt>
			<trkpt lat="37.63361" lon="-3.81149">
        <ele>1329.7</ele>
        <time>2026-08-04T09:36:24Z</time>
      </trkpt>
			<trkpt lat="37.63358" lon="-3.81164">
        <ele>1330.3</ele>
        <time>2026-08-04T09:36:27Z</time>
      </trkpt>
			<trkpt lat="37.63358" lon="-3.81178">
        <ele>1330.9</ele>
        <time>2026-08-04T09:36:30Z</time>
      </trkpt>
			<trkpt lat="37.63362" lon="-3.81192">
        <ele>1331.5</ele>
        <time>2026-08-04T09:36:33Z</time>
      </trkpt>
			<trkpt lat="37.63377" lon="-3.81226">
        <ele>1333.2</ele>
        <time>2026-08-04T09:36:42Z</time>
      </trkpt>
			<trkpt lat="37.6339" lon="-3.81258">
        <ele>1334.8</ele>
        <time>2026-08-04T09:36:50Z</time>
      </trkpt>
			<trkpt lat="37.63397" lon="-3.8129">
        <ele>1336.6</ele>
        <time>2026-08-04T09:36:58Z</time>
      </trkpt>
			<trkpt lat="37.63406" lon="-3.81316">
        <ele>1338.1</ele>
        <time>2026-08-04T09:37:05Z</time>
      </trkpt>
			<trkpt lat="37.63418" lon="-3.81341">
        <ele>1339.9</ele>
        <time>2026-08-04T09:37:13Z</time>
      </trkpt>
			<trkpt lat="37.6343" lon="-3.81366">
        <ele>1341.9</ele>
        <time>2026-08-04T09:37:22Z</time>
      </trkpt>
			<trkpt lat="37.63436" lon="-3.8139">
        <ele>1343.8</ele>
        <time>2026-08-04T09:37:31Z</time>
      </trkpt>
			<trkpt lat="37.63441" lon="-3.81419">
        <ele>1346.1</ele>
        <time>2026-08-04T09:37:42Z</time>
      </trkpt>
			<trkpt lat="37.63447" lon="-3.81439">
        <ele>1347.9</ele>
        <time>2026-08-04T09:37:50Z</time>
      </trkpt>
			<trkpt lat="37.63469" lon="-3.81486">
        <ele>1352.5</ele>
        <time>2026-08-04T09:38:12Z</time>
      </trkpt>
			<trkpt lat="37.63491" lon="-3.81534">
        <ele>1356.9</ele>
        <time>2026-08-04T09:38:31Z</time>
      </trkpt>
			<trkpt lat="37.63501" lon="-3.81554">
        <ele>1358.6</ele>
        <time>2026-08-04T09:38:39Z</time>
      </trkpt>
			<trkpt lat="37.63505" lon="-3.81565">
        <ele>1359.4</ele>
        <time>2026-08-04T09:38:43Z</time>
      </trkpt>
			<trkpt lat="37.63511" lon="-3.81603">
        <ele>1361.7</ele>
        <time>2026-08-04T09:38:53Z</time>
      </trkpt>
			<trkpt lat="37.63512" lon="-3.81638">
        <ele>1363.6</ele>
        <time>2026-08-04T09:39:01Z</time>
      </trkpt>
			<trkpt lat="37.63516" lon="-3.81657">
        <ele>1364.4</ele>
        <time>2026-08-04T09:39:06Z</time>
      </trkpt>
			<trkpt lat="37.63522" lon="-3.81669">
        <ele>1365</ele>
        <time>2026-08-04T09:39:09Z</time>
      </trkpt>
			<trkpt lat="37.63528" lon="-3.81676">
        <ele>1365.4</ele>
        <time>2026-08-04T09:39:11Z</time>
      </trkpt>
			<trkpt lat="37.63544" lon="-3.8168">
        <ele>1366.1</ele>
        <time>2026-08-04T09:39:15Z</time>
      </trkpt>
			<trkpt lat="37.63553" lon="-3.81681">
        <ele>1366.5</ele>
        <time>2026-08-04T09:39:17Z</time>
      </trkpt>
			<trkpt lat="37.63559" lon="-3.81677">
        <ele>1366.7</ele>
        <time>2026-08-04T09:39:19Z</time>
      </trkpt>
			<trkpt lat="37.63565" lon="-3.81669">
        <ele>1367.1</ele>
        <time>2026-08-04T09:39:21Z</time>
      </trkpt>
			<trkpt lat="37.6357" lon="-3.81652">
        <ele>1367.6</ele>
        <time>2026-08-04T09:39:24Z</time>
      </trkpt>
			<trkpt lat="37.63572" lon="-3.81633">
        <ele>1368.1</ele>
        <time>2026-08-04T09:39:28Z</time>
      </trkpt>
			<trkpt lat="37.63572" lon="-3.81599">
        <ele>1368.9</ele>
        <time>2026-08-04T09:39:34Z</time>
      </trkpt>
			<trkpt lat="37.63572" lon="-3.81565">
        <ele>1369.7</ele>
        <time>2026-08-04T09:39:40Z</time>
      </trkpt>
			<trkpt lat="37.63573" lon="-3.81552">
        <ele>1370</ele>
        <time>2026-08-04T09:39:42Z</time>
      </trkpt>
			<trkpt lat="37.6358" lon="-3.8153">
        <ele>1370.5</ele>
        <time>2026-08-04T09:39:46Z</time>
      </trkpt>
			<trkpt lat="37.63582" lon="-3.8152">
        <ele>1370.8</ele>
        <time>2026-08-04T09:39:47Z</time>
      </trkpt>
			<trkpt lat="37.63581" lon="-3.81512">
        <ele>1371</ele>
        <time>2026-08-04T09:39:49Z</time>
      </trkpt>
			<trkpt lat="37.63577" lon="-3.815">
        <ele>1371.4</ele>
        <time>2026-08-04T09:39:51Z</time>
      </trkpt>
			<trkpt lat="37.63569" lon="-3.81484">
        <ele>1371.9</ele>
        <time>2026-08-04T09:39:54Z</time>
      </trkpt>
			<trkpt lat="37.6354" lon="-3.81445">
        <ele>1373.8</ele>
        <time>2026-08-04T09:40:05Z</time>
      </trkpt>
			<trkpt lat="37.63532" lon="-3.81429">
        <ele>1374.6</ele>
        <time>2026-08-04T09:40:09Z</time>
      </trkpt>
			<trkpt lat="37.63527" lon="-3.81413">
        <ele>1375.4</ele>
        <time>2026-08-04T09:40:13Z</time>
      </trkpt>
			<trkpt lat="37.6352" lon="-3.81373">
        <ele>1377.4</ele>
        <time>2026-08-04T09:40:23Z</time>
      </trkpt>
			<trkpt lat="37.63513" lon="-3.81334">
        <ele>1379.7</ele>
        <time>2026-08-04T09:40:34Z</time>
      </trkpt>
			<trkpt lat="37.63509" lon="-3.81298">
        <ele>1382</ele>
        <time>2026-08-04T09:40:43Z</time>
      </trkpt>
			<trkpt lat="37.63505" lon="-3.81262">
        <ele>1384.5</ele>
        <time>2026-08-04T09:40:55Z</time>
      </trkpt>
			<trkpt lat="37.63505" lon="-3.81215">
        <ele>1387.8</ele>
        <time>2026-08-04T09:41:10Z</time>
      </trkpt>
			<trkpt lat="37.63505" lon="-3.81167">
        <ele>1391.1</ele>
        <time>2026-08-04T09:41:25Z</time>
      </trkpt>
			<trkpt lat="37.63508" lon="-3.81152">
        <ele>1392.2</ele>
        <time>2026-08-04T09:41:30Z</time>
      </trkpt>
			<trkpt lat="37.63513" lon="-3.81133">
        <ele>1393.6</ele>
        <time>2026-08-04T09:41:36Z</time>
      </trkpt>
			<trkpt lat="37.63522" lon="-3.81118">
        <ele>1394.9</ele>
        <time>2026-08-04T09:41:42Z</time>
      </trkpt>
			<trkpt lat="37.63552" lon="-3.81082">
        <ele>1398.6</ele>
        <time>2026-08-04T09:41:59Z</time>
      </trkpt>
			<trkpt lat="37.63563" lon="-3.81062">
        <ele>1400.2</ele>
        <time>2026-08-04T09:42:05Z</time>
      </trkpt>
			<trkpt lat="37.63575" lon="-3.81034">
        <ele>1402.6</ele>
        <time>2026-08-04T09:42:16Z</time>
      </trkpt>
			<trkpt lat="37.63587" lon="-3.81014">
        <ele>1404.5</ele>
        <time>2026-08-04T09:42:25Z</time>
      </trkpt>
			<trkpt lat="37.63619" lon="-3.80981">
        <ele>1408.6</ele>
        <time>2026-08-04T09:42:44Z</time>
      </trkpt>
			<trkpt lat="37.63641" lon="-3.80955">
        <ele>1411.9</ele>
        <time>2026-08-04T09:42:59Z</time>
      </trkpt>
			<trkpt lat="37.63654" lon="-3.80942">
        <ele>1413.7</ele>
        <time>2026-08-04T09:43:07Z</time>
      </trkpt>
			<trkpt lat="37.63667" lon="-3.80935">
        <ele>1415.3</ele>
        <time>2026-08-04T09:43:14Z</time>
      </trkpt>
			<trkpt lat="37.63702" lon="-3.80921">
        <ele>1419.5</ele>
        <time>2026-08-04T09:43:32Z</time>
      </trkpt>
			<trkpt lat="37.63745" lon="-3.80911">
        <ele>1424.4</ele>
        <time>2026-08-04T09:43:54Z</time>
      </trkpt>
			<trkpt lat="37.63787" lon="-3.80901">
        <ele>1429.3</ele>
        <time>2026-08-04T09:44:16Z</time>
      </trkpt>
			<trkpt lat="37.63803" lon="-3.80894">
        <ele>1431.2</ele>
        <time>2026-08-04T09:44:24Z</time>
      </trkpt>
			<trkpt lat="37.63818" lon="-3.80885">
        <ele>1433</ele>
        <time>2026-08-04T09:44:33Z</time>
      </trkpt>
			<trkpt lat="37.6384" lon="-3.80863">
        <ele>1436.1</ele>
        <time>2026-08-04T09:44:47Z</time>
      </trkpt>
			<trkpt lat="37.63848" lon="-3.80849">
        <ele>1437.6</ele>
        <time>2026-08-04T09:44:53Z</time>
      </trkpt>
			<trkpt lat="37.6385" lon="-3.8084">
        <ele>1438.4</ele>
        <time>2026-08-04T09:44:57Z</time>
      </trkpt>
			<trkpt lat="37.63851" lon="-3.80829">
        <ele>1439.4</ele>
        <time>2026-08-04T09:45:01Z</time>
      </trkpt>
			<trkpt lat="37.63848" lon="-3.80796">
        <ele>1442.2</ele>
        <time>2026-08-04T09:45:15Z</time>
      </trkpt>
			<trkpt lat="37.63844" lon="-3.80769">
        <ele>1444.6</ele>
        <time>2026-08-04T09:45:26Z</time>
      </trkpt>
			<trkpt lat="37.63833" lon="-3.80725">
        <ele>1448.8</ele>
        <time>2026-08-04T09:45:44Z</time>
      </trkpt>
			<trkpt lat="37.63833" lon="-3.80715">
        <ele>1449.8</ele>
        <time>2026-08-04T09:45:48Z</time>
      </trkpt>
			<trkpt lat="37.63837" lon="-3.80703">
        <ele>1450.9</ele>
        <time>2026-08-04T09:45:53Z</time>
      </trkpt>
			<trkpt lat="37.63842" lon="-3.80688">
        <ele>1452.4</ele>
        <time>2026-08-04T09:45:59Z</time>
      </trkpt>
			<trkpt lat="37.63849" lon="-3.80678">
        <ele>1453.7</ele>
        <time>2026-08-04T09:46:05Z</time>
      </trkpt>
			<trkpt lat="37.63874" lon="-3.80657">
        <ele>1457.3</ele>
        <time>2026-08-04T09:46:20Z</time>
      </trkpt>
			<trkpt lat="37.63906" lon="-3.80622">
        <ele>1462.2</ele>
        <time>2026-08-04T09:46:41Z</time>
      </trkpt>
			<trkpt lat="37.63934" lon="-3.80598">
        <ele>1465.9</ele>
        <time>2026-08-04T09:46:58Z</time>
      </trkpt>
			<trkpt lat="37.63961" lon="-3.80573">
        <ele>1469.4</ele>
        <time>2026-08-04T09:47:13Z</time>
      </trkpt>
			<trkpt lat="37.63967" lon="-3.80562">
        <ele>1470.5</ele>
        <time>2026-08-04T09:47:17Z</time>
      </trkpt>
			<trkpt lat="37.63969" lon="-3.80553">
        <ele>1471.2</ele>
        <time>2026-08-04T09:47:21Z</time>
      </trkpt>
			<trkpt lat="37.63967" lon="-3.80544">
        <ele>1472</ele>
        <time>2026-08-04T09:47:24Z</time>
      </trkpt>
			<trkpt lat="37.63962" lon="-3.80536">
        <ele>1472.8</ele>
        <time>2026-08-04T09:47:28Z</time>
      </trkpt>
			<trkpt lat="37.63956" lon="-3.80531">
        <ele>1473.5</ele>
        <time>2026-08-04T09:47:31Z</time>
      </trkpt>
			<trkpt lat="37.63947" lon="-3.8053">
        <ele>1474.3</ele>
        <time>2026-08-04T09:47:35Z</time>
      </trkpt>
			<trkpt lat="37.63937" lon="-3.80531">
        <ele>1475.2</ele>
        <time>2026-08-04T09:47:39Z</time>
      </trkpt>
			<trkpt lat="37.63907" lon="-3.80552">
        <ele>1478.1</ele>
        <time>2026-08-04T09:47:53Z</time>
      </trkpt>
			<trkpt lat="37.63893" lon="-3.80557">
        <ele>1479.3</ele>
        <time>2026-08-04T09:47:57Z</time>
      </trkpt>
			<trkpt lat="37.63879" lon="-3.80559">
        <ele>1480.4</ele>
        <time>2026-08-04T09:48:02Z</time>
      </trkpt>
			<trkpt lat="37.63868" lon="-3.80559">
        <ele>1481.2</ele>
        <time>2026-08-04T09:48:06Z</time>
      </trkpt>
			<trkpt lat="37.63852" lon="-3.80555">
        <ele>1482.5</ele>
        <time>2026-08-04T09:48:11Z</time>
      </trkpt>
			<trkpt lat="37.63841" lon="-3.80553">
        <ele>1483.3</ele>
        <time>2026-08-04T09:48:15Z</time>
      </trkpt>
			<trkpt lat="37.63829" lon="-3.80554">
        <ele>1484.2</ele>
        <time>2026-08-04T09:48:19Z</time>
      </trkpt>
			<trkpt lat="37.63819" lon="-3.80556">
        <ele>1484.9</ele>
        <time>2026-08-04T09:48:22Z</time>
      </trkpt>
			<trkpt lat="37.63806" lon="-3.80562">
        <ele>1485.9</ele>
        <time>2026-08-04T09:48:26Z</time>
      </trkpt>
			<trkpt lat="37.63785" lon="-3.80575">
        <ele>1487.5</ele>
        <time>2026-08-04T09:48:33Z</time>
      </trkpt>
			<trkpt lat="37.63764" lon="-3.80588">
        <ele>1489.2</ele>
        <time>2026-08-04T09:48:41Z</time>
      </trkpt>
			<trkpt lat="37.63745" lon="-3.80595">
        <ele>1490.7</ele>
        <time>2026-08-04T09:48:48Z</time>
      </trkpt>
			<trkpt lat="37.63729" lon="-3.80597">
        <ele>1491.8</ele>
        <time>2026-08-04T09:48:53Z</time>
      </trkpt>
			<trkpt lat="37.63708" lon="-3.80594">
        <ele>1493.5</ele>
        <time>2026-08-04T09:49:00Z</time>
      </trkpt>
			<trkpt lat="37.63699" lon="-3.80594">
        <ele>1494.3</ele>
        <time>2026-08-04T09:49:03Z</time>
      </trkpt>
			<trkpt lat="37.63679" lon="-3.80603">
        <ele>1496.2</ele>
        <time>2026-08-04T09:49:12Z</time>
      </trkpt>
			<trkpt lat="37.63666" lon="-3.80605">
        <ele>1497.3</ele>
        <time>2026-08-04T09:49:17Z</time>
      </trkpt>
			<trkpt lat="37.63641" lon="-3.80601">
        <ele>1499.9</ele>
        <time>2026-08-04T09:49:28Z</time>
      </trkpt>
			<trkpt lat="37.63617" lon="-3.80592">
        <ele>1502.6</ele>
        <time>2026-08-04T09:49:41Z</time>
      </trkpt>
			<trkpt lat="37.63583" lon="-3.80573">
        <ele>1507.1</ele>
        <time>2026-08-04T09:49:59Z</time>
      </trkpt>
			<trkpt lat="37.63564" lon="-3.80559">
        <ele>1510.2</ele>
        <time>2026-08-04T09:50:14Z</time>
      </trkpt>
			<trkpt lat="37.6355" lon="-3.80538">
        <ele>1513.3</ele>
        <time>2026-08-04T09:50:28Z</time>
      </trkpt>
			<trkpt lat="37.63539" lon="-3.8051">
        <ele>1517.2</ele>
        <time>2026-08-04T09:50:45Z</time>
      </trkpt>
			<trkpt lat="37.63531" lon="-3.80474">
        <ele>1521.9</ele>
        <time>2026-08-04T09:51:05Z</time>
      </trkpt>
			<trkpt lat="37.63523" lon="-3.80426">
        <ele>1528.7</ele>
        <time>2026-08-04T09:51:36Z</time>
      </trkpt>
			<trkpt lat="37.63518" lon="-3.8038">
        <ele>1535.3</ele>
        <time>2026-08-04T09:52:05Z</time>
      </trkpt>
			<trkpt lat="37.63515" lon="-3.80366">
        <ele>1537.3</ele>
        <time>2026-08-04T09:52:14Z</time>
      </trkpt>
			<trkpt lat="37.63501" lon="-3.80322">
        <ele>1544.1</ele>
        <time>2026-08-04T09:52:45Z</time>
      </trkpt>
			<trkpt lat="37.63488" lon="-3.80279">
        <ele>1550.6</ele>
        <time>2026-08-04T09:53:14Z</time>
      </trkpt>
			<trkpt lat="37.63474" lon="-3.80235">
        <ele>1556.8</ele>
        <time>2026-08-04T09:53:44Z</time>
      </trkpt>
			<trkpt lat="37.63468" lon="-3.80192">
        <ele>1562.6</ele>
        <time>2026-08-04T09:54:11Z</time>
      </trkpt>
			<trkpt lat="37.6346" lon="-3.80158">
        <ele>1567</ele>
        <time>2026-08-04T09:54:30Z</time>
      </trkpt>
			<trkpt lat="37.63451" lon="-3.80125">
        <ele>1571.3</ele>
        <time>2026-08-04T09:54:49Z</time>
      </trkpt>
			<trkpt lat="37.63447" lon="-3.80099">
        <ele>1574.4</ele>
        <time>2026-08-04T09:55:03Z</time>
      </trkpt>
			<trkpt lat="37.63447" lon="-3.80071">
        <ele>1577.8</ele>
        <time>2026-08-04T09:55:17Z</time>
      </trkpt>
			<trkpt lat="37.63448" lon="-3.8006">
        <ele>1579</ele>
        <time>2026-08-04T09:55:22Z</time>
      </trkpt>
			<trkpt lat="37.6345" lon="-3.80051">
        <ele>1580.2</ele>
        <time>2026-08-04T09:55:28Z</time>
      </trkpt>
			<trkpt lat="37.63464" lon="-3.80012">
        <ele>1585.2</ele>
        <time>2026-08-04T09:55:51Z</time>
      </trkpt>
			<trkpt lat="37.63477" lon="-3.79973">
        <ele>1590.4</ele>
        <time>2026-08-04T09:56:13Z</time>
      </trkpt>
			<trkpt lat="37.63479" lon="-3.7996">
        <ele>1591.9</ele>
        <time>2026-08-04T09:56:20Z</time>
      </trkpt>
			<trkpt lat="37.63479" lon="-3.79949">
        <ele>1593.3</ele>
        <time>2026-08-04T09:56:26Z</time>
      </trkpt>
			<trkpt lat="37.63476" lon="-3.79938">
        <ele>1594.7</ele>
        <time>2026-08-04T09:56:32Z</time>
      </trkpt>
			<trkpt lat="37.63465" lon="-3.79914">
        <ele>1598.1</ele>
        <time>2026-08-04T09:56:47Z</time>
      </trkpt>
			<trkpt lat="37.63448" lon="-3.79885">
        <ele>1602.5</ele>
        <time>2026-08-04T09:57:06Z</time>
      </trkpt>
			<trkpt lat="37.6343" lon="-3.79856">
        <ele>1606.8</ele>
        <time>2026-08-04T09:57:25Z</time>
      </trkpt>
			<trkpt lat="37.63414" lon="-3.79834">
        <ele>1610.2</ele>
        <time>2026-08-04T09:57:41Z</time>
      </trkpt>
			<trkpt lat="37.63398" lon="-3.79813">
        <ele>1613.5</ele>
        <time>2026-08-04T09:57:57Z</time>
      </trkpt>
			<trkpt lat="37.63369" lon="-3.79789">
        <ele>1618.1</ele>
        <time>2026-08-04T09:58:16Z</time>
      </trkpt>
			<trkpt lat="37.63346" lon="-3.79756">
        <ele>1622.5</ele>
        <time>2026-08-04T09:58:34Z</time>
      </trkpt>
			<trkpt lat="37.63336" lon="-3.79747">
        <ele>1624</ele>
        <time>2026-08-04T09:58:40Z</time>
      </trkpt>
			<trkpt lat="37.63319" lon="-3.79743">
        <ele>1626</ele>
        <time>2026-08-04T09:58:49Z</time>
      </trkpt>
			<trkpt lat="37.63313" lon="-3.7974">
        <ele>1626.7</ele>
        <time>2026-08-04T09:58:52Z</time>
      </trkpt>
			<trkpt lat="37.63309" lon="-3.79734">
        <ele>1627.5</ele>
        <time>2026-08-04T09:58:55Z</time>
      </trkpt>
			<trkpt lat="37.63307" lon="-3.79725">
        <ele>1628.3</ele>
        <time>2026-08-04T09:58:59Z</time>
      </trkpt>
			<trkpt lat="37.63308" lon="-3.79718">
        <ele>1629</ele>
        <time>2026-08-04T09:59:02Z</time>
      </trkpt>
			<trkpt lat="37.63312" lon="-3.79704">
        <ele>1630.3</ele>
        <time>2026-08-04T09:59:08Z</time>
      </trkpt>
			<trkpt lat="37.63321" lon="-3.79693">
        <ele>1631.7</ele>
        <time>2026-08-04T09:59:14Z</time>
      </trkpt>
			<trkpt lat="37.63331" lon="-3.79687">
        <ele>1633</ele>
        <time>2026-08-04T09:59:20Z</time>
      </trkpt>
			<trkpt lat="37.63342" lon="-3.79686">
        <ele>1634.2</ele>
        <time>2026-08-04T09:59:25Z</time>
      </trkpt>
			<trkpt lat="37.63354" lon="-3.79688">
        <ele>1635.6</ele>
        <time>2026-08-04T09:59:31Z</time>
      </trkpt>
			<trkpt lat="37.63387" lon="-3.79705">
        <ele>1639.5</ele>
        <time>2026-08-04T09:59:49Z</time>
      </trkpt>
			<trkpt lat="37.634" lon="-3.79708">
        <ele>1641.1</ele>
        <time>2026-08-04T09:59:56Z</time>
      </trkpt>
			<trkpt lat="37.63409" lon="-3.79704">
        <ele>1642.2</ele>
        <time>2026-08-04T10:00:00Z</time>
      </trkpt>
			<trkpt lat="37.63417" lon="-3.79697">
        <ele>1643.3</ele>
        <time>2026-08-04T10:00:05Z</time>
      </trkpt>
			<trkpt lat="37.63421" lon="-3.79687">
        <ele>1644.3</ele>
        <time>2026-08-04T10:00:10Z</time>
      </trkpt>
			<trkpt lat="37.63424" lon="-3.79674">
        <ele>1645.6</ele>
        <time>2026-08-04T10:00:15Z</time>
      </trkpt>
			<trkpt lat="37.63423" lon="-3.7966">
        <ele>1646.9</ele>
        <time>2026-08-04T10:00:21Z</time>
      </trkpt>
			<trkpt lat="37.63419" lon="-3.7964">
        <ele>1648.9</ele>
        <time>2026-08-04T10:00:29Z</time>
      </trkpt>
			<trkpt lat="37.63405" lon="-3.79605">
        <ele>1652.6</ele>
        <time>2026-08-04T10:00:44Z</time>
      </trkpt>
			<trkpt lat="37.63391" lon="-3.79571">
        <ele>1656.3</ele>
        <time>2026-08-04T10:01:00Z</time>
      </trkpt>
			<trkpt lat="37.63381" lon="-3.79554">
        <ele>1658.4</ele>
        <time>2026-08-04T10:01:08Z</time>
      </trkpt>
			<trkpt lat="37.63364" lon="-3.79535">
        <ele>1661.1</ele>
        <time>2026-08-04T10:01:19Z</time>
      </trkpt>
			<trkpt lat="37.63346" lon="-3.79517">
        <ele>1663.7</ele>
        <time>2026-08-04T10:01:31Z</time>
      </trkpt>
			<trkpt lat="37.63328" lon="-3.79504">
        <ele>1666.1</ele>
        <time>2026-08-04T10:01:41Z</time>
      </trkpt>
			<trkpt lat="37.63308" lon="-3.79495">
        <ele>1668.6</ele>
        <time>2026-08-04T10:01:52Z</time>
      </trkpt>
			<trkpt lat="37.63276" lon="-3.79487">
        <ele>1672.3</ele>
        <time>2026-08-04T10:02:08Z</time>
      </trkpt>
			<trkpt lat="37.63254" lon="-3.79477">
        <ele>1675.1</ele>
        <time>2026-08-04T10:02:20Z</time>
      </trkpt>
			<trkpt lat="37.63243" lon="-3.79468">
        <ele>1676.7</ele>
        <time>2026-08-04T10:02:26Z</time>
      </trkpt>
			<trkpt lat="37.63236" lon="-3.79459">
        <ele>1677.9</ele>
        <time>2026-08-04T10:02:31Z</time>
      </trkpt>
			<trkpt lat="37.63235" lon="-3.7945">
        <ele>1678.8</ele>
        <time>2026-08-04T10:02:35Z</time>
      </trkpt>
			<trkpt lat="37.63237" lon="-3.79441">
        <ele>1679.7</ele>
        <time>2026-08-04T10:02:39Z</time>
      </trkpt>
			<trkpt lat="37.63242" lon="-3.79433">
        <ele>1680.7</ele>
        <time>2026-08-04T10:02:43Z</time>
      </trkpt>
			<trkpt lat="37.63253" lon="-3.79425">
        <ele>1682.3</ele>
        <time>2026-08-04T10:02:49Z</time>
      </trkpt>
			<trkpt lat="37.63281" lon="-3.79418">
        <ele>1686.2</ele>
        <time>2026-08-04T10:03:05Z</time>
      </trkpt>
			<trkpt lat="37.63289" lon="-3.79413">
        <ele>1687.5</ele>
        <time>2026-08-04T10:03:11Z</time>
      </trkpt>
			<trkpt lat="37.63295" lon="-3.79406">
        <ele>1688.6</ele>
        <time>2026-08-04T10:03:16Z</time>
      </trkpt>
			<trkpt lat="37.633" lon="-3.79396">
        <ele>1689.9</ele>
        <time>2026-08-04T10:03:21Z</time>
      </trkpt>
			<trkpt lat="37.63305" lon="-3.79378">
        <ele>1692.2</ele>
        <time>2026-08-04T10:03:32Z</time>
      </trkpt>
			<trkpt lat="37.63308" lon="-3.79363">
        <ele>1694.1</ele>
        <time>2026-08-04T10:03:40Z</time>
      </trkpt>
			<trkpt lat="37.63312" lon="-3.79319">
        <ele>1699.6</ele>
        <time>2026-08-04T10:04:03Z</time>
      </trkpt>
			<trkpt lat="37.63318" lon="-3.79293">
        <ele>1703.1</ele>
        <time>2026-08-04T10:04:20Z</time>
      </trkpt>
			<trkpt lat="37.63325" lon="-3.79275">
        <ele>1705.5</ele>
        <time>2026-08-04T10:04:31Z</time>
      </trkpt>
			<trkpt lat="37.63342" lon="-3.79251">
        <ele>1709.7</ele>
        <time>2026-08-04T10:04:51Z</time>
      </trkpt>
			<trkpt lat="37.63358" lon="-3.79226">
        <ele>1713.5</ele>
        <time>2026-08-04T10:05:08Z</time>
      </trkpt>
			<trkpt lat="37.63376" lon="-3.79204">
        <ele>1717.1</ele>
        <time>2026-08-04T10:05:25Z</time>
      </trkpt>
			<trkpt lat="37.63409" lon="-3.79189">
        <ele>1721.6</ele>
        <time>2026-08-04T10:05:45Z</time>
      </trkpt>
			<trkpt lat="37.63438" lon="-3.79186">
        <ele>1724.7</ele>
        <time>2026-08-04T10:06:00Z</time>
      </trkpt>
			<trkpt lat="37.63466" lon="-3.79182">
        <ele>1727.4</ele>
        <time>2026-08-04T10:06:12Z</time>
      </trkpt>
			<trkpt lat="37.63493" lon="-3.79168">
        <ele>1729.6</ele>
        <time>2026-08-04T10:06:22Z</time>
      </trkpt>
			<trkpt lat="37.63499" lon="-3.79161">
        <ele>1730.2</ele>
        <time>2026-08-04T10:06:25Z</time>
      </trkpt>
			<trkpt lat="37.63502" lon="-3.79153">
        <ele>1730.7</ele>
        <time>2026-08-04T10:06:27Z</time>
      </trkpt>
			<trkpt lat="37.63504" lon="-3.79145">
        <ele>1731.1</ele>
        <time>2026-08-04T10:06:29Z</time>
      </trkpt>
			<trkpt lat="37.63503" lon="-3.79136">
        <ele>1731.5</ele>
        <time>2026-08-04T10:06:31Z</time>
      </trkpt>
			<trkpt lat="37.63501" lon="-3.79126">
        <ele>1732</ele>
        <time>2026-08-04T10:06:33Z</time>
      </trkpt>
			<trkpt lat="37.63487" lon="-3.79099">
        <ele>1733.5</ele>
        <time>2026-08-04T10:06:41Z</time>
      </trkpt>
			<trkpt lat="37.63484" lon="-3.7909">
        <ele>1733.8</ele>
        <time>2026-08-04T10:06:42Z</time>
      </trkpt>
			<trkpt lat="37.63483" lon="-3.79083">
        <ele>1734.2</ele>
        <time>2026-08-04T10:06:44Z</time>
      </trkpt>
			<trkpt lat="37.63485" lon="-3.79069">
        <ele>1734.7</ele>
        <time>2026-08-04T10:06:47Z</time>
      </trkpt>
			<trkpt lat="37.63489" lon="-3.79055">
        <ele>1735.3</ele>
        <time>2026-08-04T10:06:50Z</time>
      </trkpt>
			<trkpt lat="37.63496" lon="-3.79042">
        <ele>1735.9</ele>
        <time>2026-08-04T10:06:53Z</time>
      </trkpt>
			<trkpt lat="37.63513" lon="-3.79023">
        <ele>1736.9</ele>
        <time>2026-08-04T10:06:59Z</time>
      </trkpt>
			<trkpt lat="37.6352" lon="-3.79011">
        <ele>1737.4</ele>
        <time>2026-08-04T10:07:02Z</time>
      </trkpt>
			<trkpt lat="37.63525" lon="-3.79002">
        <ele>1737.9</ele>
        <time>2026-08-04T10:07:04Z</time>
      </trkpt>
			<trkpt lat="37.63534" lon="-3.7897">
        <ele>1739.1</ele>
        <time>2026-08-04T10:07:11Z</time>
      </trkpt>
			<trkpt lat="37.63546" lon="-3.78951">
        <ele>1740</ele>
        <time>2026-08-04T10:07:16Z</time>
      </trkpt>
			<trkpt lat="37.63549" lon="-3.78942">
        <ele>1740.4</ele>
        <time>2026-08-04T10:07:18Z</time>
      </trkpt>
			<trkpt lat="37.6355" lon="-3.78934">
        <ele>1740.7</ele>
        <time>2026-08-04T10:07:20Z</time>
      </trkpt>
			<trkpt lat="37.63548" lon="-3.78926">
        <ele>1741.1</ele>
        <time>2026-08-04T10:07:22Z</time>
      </trkpt>
			<trkpt lat="37.63531" lon="-3.78879">
        <ele>1743.2</ele>
        <time>2026-08-04T10:07:33Z</time>
      </trkpt>
			<trkpt lat="37.63523" lon="-3.78844">
        <ele>1744.8</ele>
        <time>2026-08-04T10:07:42Z</time>
      </trkpt>
			<trkpt lat="37.63514" lon="-3.78828">
        <ele>1745.7</ele>
        <time>2026-08-04T10:07:46Z</time>
      </trkpt>
			<trkpt lat="37.63499" lon="-3.78809">
        <ele>1747</ele>
        <time>2026-08-04T10:07:53Z</time>
      </trkpt>
			<trkpt lat="37.63472" lon="-3.78784">
        <ele>1749.1</ele>
        <time>2026-08-04T10:08:03Z</time>
      </trkpt>
			<trkpt lat="37.63445" lon="-3.7876">
        <ele>1751.4</ele>
        <time>2026-08-04T10:08:13Z</time>
      </trkpt>
			<trkpt lat="37.63441" lon="-3.78753">
        <ele>1751.9</ele>
        <time>2026-08-04T10:08:15Z</time>
      </trkpt>
			<trkpt lat="37.63439" lon="-3.78745">
        <ele>1752.4</ele>
        <time>2026-08-04T10:08:18Z</time>
      </trkpt>
			<trkpt lat="37.6344" lon="-3.78738">
        <ele>1752.8</ele>
        <time>2026-08-04T10:08:19Z</time>
      </trkpt>
			<trkpt lat="37.63443" lon="-3.78731">
        <ele>1753.3</ele>
        <time>2026-08-04T10:08:21Z</time>
      </trkpt>
			<trkpt lat="37.63449" lon="-3.78726">
        <ele>1753.8</ele>
        <time>2026-08-04T10:08:24Z</time>
      </trkpt>
			<trkpt lat="37.63486" lon="-3.78715">
        <ele>1756.8</ele>
        <time>2026-08-04T10:08:36Z</time>
      </trkpt>
			<trkpt lat="37.63496" lon="-3.7871">
        <ele>1757.7</ele>
        <time>2026-08-04T10:08:41Z</time>
      </trkpt>
			<trkpt lat="37.63502" lon="-3.78702">
        <ele>1758.5</ele>
        <time>2026-08-04T10:08:44Z</time>
      </trkpt>
			<trkpt lat="37.63507" lon="-3.7869">
        <ele>1759.4</ele>
        <time>2026-08-04T10:08:48Z</time>
      </trkpt>
			<trkpt lat="37.63512" lon="-3.78666">
        <ele>1761.3</ele>
        <time>2026-08-04T10:08:57Z</time>
      </trkpt>
			<trkpt lat="37.63513" lon="-3.78656">
        <ele>1762.1</ele>
        <time>2026-08-04T10:09:01Z</time>
      </trkpt>
			<trkpt lat="37.63512" lon="-3.78646">
        <ele>1762.9</ele>
        <time>2026-08-04T10:09:04Z</time>
      </trkpt>
			<trkpt lat="37.63509" lon="-3.78638">
        <ele>1763.5</ele>
        <time>2026-08-04T10:09:07Z</time>
      </trkpt>
			<trkpt lat="37.63485" lon="-3.78603">
        <ele>1767.5</ele>
        <time>2026-08-04T10:09:25Z</time>
      </trkpt>
			<trkpt lat="37.63465" lon="-3.78563">
        <ele>1772</ele>
        <time>2026-08-04T10:09:44Z</time>
      </trkpt>
			<trkpt lat="37.63445" lon="-3.78524">
        <ele>1776.8</ele>
        <time>2026-08-04T10:10:05Z</time>
      </trkpt>
			<trkpt lat="37.63441" lon="-3.78507">
        <ele>1778.7</ele>
        <time>2026-08-04T10:10:13Z</time>
      </trkpt>
			<trkpt lat="37.6344" lon="-3.78492">
        <ele>1780.4</ele>
        <time>2026-08-04T10:10:21Z</time>
      </trkpt>
			<trkpt lat="37.6344" lon="-3.78479">
        <ele>1781.7</ele>
        <time>2026-08-04T10:10:26Z</time>
      </trkpt>
			<trkpt lat="37.63443" lon="-3.78465">
        <ele>1783.4</ele>
        <time>2026-08-04T10:10:34Z</time>
      </trkpt>
			<trkpt lat="37.63447" lon="-3.78448">
        <ele>1785.2</ele>
        <time>2026-08-04T10:10:42Z</time>
      </trkpt>
			<trkpt lat="37.63463" lon="-3.78413">
        <ele>1789.7</ele>
        <time>2026-08-04T10:11:03Z</time>
      </trkpt>
			<trkpt lat="37.63479" lon="-3.78377">
        <ele>1793.9</ele>
        <time>2026-08-04T10:11:22Z</time>
      </trkpt>
			<trkpt lat="37.63481" lon="-3.78362">
        <ele>1795.4</ele>
        <time>2026-08-04T10:11:28Z</time>
      </trkpt>
			<trkpt lat="37.63482" lon="-3.78342">
        <ele>1797.3</ele>
        <time>2026-08-04T10:11:36Z</time>
      </trkpt>
			<trkpt lat="37.63484" lon="-3.78313">
        <ele>1799.8</ele>
        <time>2026-08-04T10:11:48Z</time>
      </trkpt>
			<trkpt lat="37.63482" lon="-3.78277">
        <ele>1802.6</ele>
        <time>2026-08-04T10:12:00Z</time>
      </trkpt>
			<trkpt lat="37.6348" lon="-3.78263">
        <ele>1803.6</ele>
        <time>2026-08-04T10:12:05Z</time>
      </trkpt>
			<trkpt lat="37.63474" lon="-3.78251">
        <ele>1804.5</ele>
        <time>2026-08-04T10:12:09Z</time>
      </trkpt>
			<trkpt lat="37.63467" lon="-3.78241">
        <ele>1805.3</ele>
        <time>2026-08-04T10:12:12Z</time>
      </trkpt>
			<trkpt lat="37.63449" lon="-3.78225">
        <ele>1806.7</ele>
        <time>2026-08-04T10:12:19Z</time>
      </trkpt>
			<trkpt lat="37.63445" lon="-3.78217">
        <ele>1807.1</ele>
        <time>2026-08-04T10:12:21Z</time>
      </trkpt>
			<trkpt lat="37.63441" lon="-3.78189">
        <ele>1808.1</ele>
        <time>2026-08-04T10:12:27Z</time>
      </trkpt>
			<trkpt lat="37.63438" lon="-3.78179">
        <ele>1808.3</ele>
        <time>2026-08-04T10:12:28Z</time>
      </trkpt>
			<trkpt lat="37.63424" lon="-3.78146">
        <ele>1808.9</ele>
        <time>2026-08-04T10:12:34Z</time>
      </trkpt>
			<trkpt lat="37.63422" lon="-3.78133">
        <ele>1808.9</ele>
        <time>2026-08-04T10:12:35Z</time>
      </trkpt>
			<trkpt lat="37.63422" lon="-3.7812">
        <ele>1808.8</ele>
        <time>2026-08-04T10:12:36Z</time>
      </trkpt>
			<trkpt lat="37.63432" lon="-3.78071">
        <ele>1807.8</ele>
        <time>2026-08-04T10:12:40Z</time>
      </trkpt>
			<trkpt lat="37.63432" lon="-3.78057">
        <ele>1807.3</ele>
        <time>2026-08-04T10:12:41Z</time>
      </trkpt>
			<trkpt lat="37.6343" lon="-3.78045">
        <ele>1806.7</ele>
        <time>2026-08-04T10:12:42Z</time>
      </trkpt>
			<trkpt lat="37.63424" lon="-3.78034">
        <ele>1806.1</ele>
        <time>2026-08-04T10:12:43Z</time>
      </trkpt>
			<trkpt lat="37.63415" lon="-3.78023">
        <ele>1805.2</ele>
        <time>2026-08-04T10:12:45Z</time>
      </trkpt>
			<trkpt lat="37.63388" lon="-3.78002">
        <ele>1802.5</ele>
        <time>2026-08-04T10:12:48Z</time>
      </trkpt>
			<trkpt lat="37.63369" lon="-3.77979">
        <ele>1799.9</ele>
        <time>2026-08-04T10:12:50Z</time>
      </trkpt>
			<trkpt lat="37.63342" lon="-3.77938">
        <ele>1795.5</ele>
        <time>2026-08-04T10:12:54Z</time>
      </trkpt>
			<trkpt lat="37.63315" lon="-3.77915">
        <ele>1792.4</ele>
        <time>2026-08-04T10:12:58Z</time>
      </trkpt>
			<trkpt lat="37.63288" lon="-3.77893">
        <ele>1790.1</ele>
        <time>2026-08-04T10:13:01Z</time>
      </trkpt>
			<trkpt lat="37.63262" lon="-3.77874">
        <ele>1788.8</ele>
        <time>2026-08-04T10:13:04Z</time>
      </trkpt>
			<trkpt lat="37.63247" lon="-3.77857">
        <ele>1788.5</ele>
        <time>2026-08-04T10:13:06Z</time>
      </trkpt>
			<trkpt lat="37.63236" lon="-3.77841">
        <ele>1788.6</ele>
        <time>2026-08-04T10:13:09Z</time>
      </trkpt>
			<trkpt lat="37.63228" lon="-3.77826">
        <ele>1788.9</ele>
        <time>2026-08-04T10:13:11Z</time>
      </trkpt>
			<trkpt lat="37.63224" lon="-3.77812">
        <ele>1789.4</ele>
        <time>2026-08-04T10:13:14Z</time>
      </trkpt>
			<trkpt lat="37.63217" lon="-3.7778">
        <ele>1790.9</ele>
        <time>2026-08-04T10:13:22Z</time>
      </trkpt>
			<trkpt lat="37.6321" lon="-3.77748">
        <ele>1793</ele>
        <time>2026-08-04T10:13:31Z</time>
      </trkpt>
			<trkpt lat="37.63206" lon="-3.77723">
        <ele>1794.8</ele>
        <time>2026-08-04T10:13:39Z</time>
      </trkpt>
			<trkpt lat="37.63202" lon="-3.77704">
        <ele>1796.4</ele>
        <time>2026-08-04T10:13:46Z</time>
      </trkpt>
			<trkpt lat="37.63194" lon="-3.77677">
        <ele>1798.8</ele>
        <time>2026-08-04T10:13:56Z</time>
      </trkpt>
			<trkpt lat="37.63192" lon="-3.77666">
        <ele>1799.7</ele>
        <time>2026-08-04T10:14:00Z</time>
      </trkpt>
			<trkpt lat="37.6319" lon="-3.77641">
        <ele>1801.8</ele>
        <time>2026-08-04T10:14:09Z</time>
      </trkpt>
			<trkpt lat="37.63183" lon="-3.7762">
        <ele>1803.6</ele>
        <time>2026-08-04T10:14:17Z</time>
      </trkpt>
			<trkpt lat="37.63174" lon="-3.77582">
        <ele>1806.5</ele>
        <time>2026-08-04T10:14:29Z</time>
      </trkpt>
			<trkpt lat="37.63164" lon="-3.77544">
        <ele>1809.1</ele>
        <time>2026-08-04T10:14:40Z</time>
      </trkpt>
			<trkpt lat="37.63163" lon="-3.7753">
        <ele>1809.9</ele>
        <time>2026-08-04T10:14:43Z</time>
      </trkpt>
			<trkpt lat="37.63166" lon="-3.77515">
        <ele>1810.7</ele>
        <time>2026-08-04T10:14:47Z</time>
      </trkpt>
			<trkpt lat="37.63171" lon="-3.77504">
        <ele>1811.3</ele>
        <time>2026-08-04T10:14:50Z</time>
      </trkpt>
			<trkpt lat="37.63182" lon="-3.77488">
        <ele>1812.2</ele>
        <time>2026-08-04T10:14:55Z</time>
      </trkpt>
			<trkpt lat="37.63197" lon="-3.77468">
        <ele>1813.1</ele>
        <time>2026-08-04T10:15:00Z</time>
      </trkpt>
			<trkpt lat="37.63198" lon="-3.77462">
        <ele>1813.3</ele>
        <time>2026-08-04T10:15:01Z</time>
      </trkpt>
			<trkpt lat="37.63197" lon="-3.77454">
        <ele>1813.5</ele>
        <time>2026-08-04T10:15:03Z</time>
      </trkpt>
			<trkpt lat="37.63193" lon="-3.77449">
        <ele>1813.7</ele>
        <time>2026-08-04T10:15:04Z</time>
      </trkpt>
			<trkpt lat="37.63186" lon="-3.77446">
        <ele>1813.9</ele>
        <time>2026-08-04T10:15:05Z</time>
      </trkpt>
			<trkpt lat="37.63172" lon="-3.77447">
        <ele>1814.3</ele>
        <time>2026-08-04T10:15:08Z</time>
      </trkpt>
			<trkpt lat="37.63165" lon="-3.7745">
        <ele>1814.5</ele>
        <time>2026-08-04T10:15:10Z</time>
      </trkpt>
			<trkpt lat="37.6316" lon="-3.77455">
        <ele>1814.6</ele>
        <time>2026-08-04T10:15:11Z</time>
      </trkpt>
			<trkpt lat="37.63158" lon="-3.77462">
        <ele>1814.7</ele>
        <time>2026-08-04T10:15:12Z</time>
      </trkpt>
			<trkpt lat="37.6315" lon="-3.77492">
        <ele>1815</ele>
        <time>2026-08-04T10:15:16Z</time>
      </trkpt>
			<trkpt lat="37.63138" lon="-3.77514">
        <ele>1815.2</ele>
        <time>2026-08-04T10:15:20Z</time>
      </trkpt>
			<trkpt lat="37.63131" lon="-3.77535">
        <ele>1815.2</ele>
        <time>2026-08-04T10:15:23Z</time>
      </trkpt>
			<trkpt lat="37.63129" lon="-3.77551">
        <ele>1815.2</ele>
        <time>2026-08-04T10:15:25Z</time>
      </trkpt>
			<trkpt lat="37.63133" lon="-3.77589">
        <ele>1815.1</ele>
        <time>2026-08-04T10:15:29Z</time>
      </trkpt>
			<trkpt lat="37.63131" lon="-3.77602">
        <ele>1815.1</ele>
        <time>2026-08-04T10:15:31Z</time>
      </trkpt>
			<trkpt lat="37.63127" lon="-3.77611">
        <ele>1815</ele>
        <time>2026-08-04T10:15:32Z</time>
      </trkpt>
			<trkpt lat="37.63119" lon="-3.77615">
        <ele>1815</ele>
        <time>2026-08-04T10:15:33Z</time>
      </trkpt>
			<trkpt lat="37.63111" lon="-3.77613">
        <ele>1814.9</ele>
        <time>2026-08-04T10:15:34Z</time>
      </trkpt>
			<trkpt lat="37.63104" lon="-3.77606">
        <ele>1814.9</ele>
        <time>2026-08-04T10:15:35Z</time>
      </trkpt>
			<trkpt lat="37.631" lon="-3.77589">
        <ele>1814.8</ele>
        <time>2026-08-04T10:15:36Z</time>
      </trkpt>
			<trkpt lat="37.63098" lon="-3.77555">
        <ele>1814.6</ele>
        <time>2026-08-04T10:15:39Z</time>
      </trkpt>
			<trkpt lat="37.63101" lon="-3.77536">
        <ele>1814.5</ele>
        <time>2026-08-04T10:15:40Z</time>
      </trkpt>
			<trkpt lat="37.63114" lon="-3.77497">
        <ele>1814.3</ele>
        <time>2026-08-04T10:15:44Z</time>
      </trkpt>
		</trkseg>
	</trk>
</gpx>
