<?xml version="1.0" encoding="UTF-8"?>
<gpx creator="Wikiloc - https://www.wikiloc.com" version="1.1" xmlns="http://www.topografix.com/GPX/1/1" xmlns:xsi="http://www.w3.org/2001/XMLSchema-instance" xsi:schemaLocation="http://www.topografix.com/GPX/1/1 http://www.topografix.com/GPX/1/1/gpx.xsd">
  <metadata>
    <name>Wikiloc - Subida Refugio de Lizara 1.540m</name>
    <link href="https://www.wikiloc.com/cycling-trails/subida-refugio-de-lizara-1-540m-218508985">
      <text>Subida Refugio de Lizara 1.540m - Wikiloc on Wikiloc</text>
    </link>
    <time>2025-06-17T12:17:59Z</time>
  </metadata>
  <trk>
    <name>Subida Refugio de Lizara 1.540m - Wikiloc</name>
    <cmt></cmt>
    <desc></desc>
    <trkseg>
      <trkpt lat="42.691404" lon="-0.669831">
        <ele>883.725</ele>
        <time>2025-06-17T11:22:42Z</time>
      </trkpt>
      <trkpt lat="42.692448" lon="-0.670669">
        <ele>886.126</ele>
        <time>2025-06-17T11:23:10Z</time>
      </trkpt>
      <trkpt lat="42.694093" lon="-0.671670">
        <ele>889.508</ele>
        <time>2025-06-17T11:23:49Z</time>
      </trkpt>
      <trkpt lat="42.696190" lon="-0.671993">
        <ele>895.209</ele>
        <time>2025-06-17T11:24:34Z</time>
      </trkpt>
      <trkpt lat="42.698832" lon="-0.671571">
        <ele>911.844</ele>
        <time>2025-06-17T11:25:44Z</time>
      </trkpt>
      <trkpt lat="42.699677" lon="-0.671539">
        <ele>916.323</ele>
        <time>2025-06-17T11:26:07Z</time>
      </trkpt>
      <trkpt lat="42.700387" lon="-0.671769">
        <ele>920.510</ele>
        <time>2025-06-17T11:26:27Z</time>
      </trkpt>
      <trkpt lat="42.702148" lon="-0.670834">
        <ele>923.057</ele>
        <time>2025-06-17T11:27:09Z</time>
      </trkpt>
      <trkpt lat="42.702605" lon="-0.670664">
        <ele>924.362</ele>
        <time>2025-06-17T11:27:19Z</time>
      </trkpt>
      <trkpt lat="42.703564" lon="-0.670723">
        <ele>926.420</ele>
        <time>2025-06-17T11:27:39Z</time>
      </trkpt>
      <trkpt lat="42.704140" lon="-0.670289">
        <ele>929.131</ele>
        <time>2025-06-17T11:27:56Z</time>
      </trkpt>
      <trkpt lat="42.704740" lon="-0.670241">
        <ele>933.690</ele>
        <time>2025-06-17T11:28:11Z</time>
      </trkpt>
      <trkpt lat="42.705283" lon="-0.670080">
        <ele>937.777</ele>
        <time>2025-06-17T11:28:26Z</time>
      </trkpt>
      <trkpt lat="42.707138" lon="-0.669976">
        <ele>950.542</ele>
        <time>2025-06-17T11:29:14Z</time>
      </trkpt>
      <trkpt lat="42.707777" lon="-0.669842">
        <ele>954.422</ele>
        <time>2025-06-17T11:29:31Z</time>
      </trkpt>
      <trkpt lat="42.708652" lon="-0.669532">
        <ele>953.814</ele>
        <time>2025-06-17T11:29:53Z</time>
      </trkpt>
      <trkpt lat="42.709291" lon="-0.669610">
        <ele>950.809</ele>
        <time>2025-06-17T11:30:04Z</time>
      </trkpt>
      <trkpt lat="42.709898" lon="-0.669508">
        <ele>948.576</ele>
        <time>2025-06-17T11:30:13Z</time>
      </trkpt>
      <trkpt lat="42.710726" lon="-0.668988">
        <ele>949.235</ele>
        <time>2025-06-17T11:30:28Z</time>
      </trkpt>
      <trkpt lat="42.711126" lon="-0.668426">
        <ele>949.742</ele>
        <time>2025-06-17T11:30:47Z</time>
      </trkpt>
      <trkpt lat="42.711454" lon="-0.668356">
        <ele>949.799</ele>
        <time>2025-06-17T11:31:11Z</time>
      </trkpt>
      <trkpt lat="42.712200" lon="-0.667809">
        <ele>955.254</ele>
        <time>2025-06-17T11:31:32Z</time>
      </trkpt>
      <trkpt lat="42.712462" lon="-0.667837">
        <ele>957.492</ele>
        <time>2025-06-17T11:31:39Z</time>
      </trkpt>
      <trkpt lat="42.713025" lon="-0.668199">
        <ele>961.643</ele>
        <time>2025-06-17T11:31:55Z</time>
      </trkpt>
      <trkpt lat="42.713154" lon="-0.668198">
        <ele>962.122</ele>
        <time>2025-06-17T11:31:59Z</time>
      </trkpt>
      <trkpt lat="42.713303" lon="-0.667901">
        <ele>962.879</ele>
        <time>2025-06-17T11:32:06Z</time>
      </trkpt>
      <trkpt lat="42.713189" lon="-0.667508">
        <ele>964.347</ele>
        <time>2025-06-17T11:32:14Z</time>
      </trkpt>
      <trkpt lat="42.713241" lon="-0.667259">
        <ele>965.429</ele>
        <time>2025-06-17T11:32:19Z</time>
      </trkpt>
      <trkpt lat="42.713801" lon="-0.666966">
        <ele>968.121</ele>
        <time>2025-06-17T11:32:35Z</time>
      </trkpt>
      <trkpt lat="42.714328" lon="-0.666535">
        <ele>971.809</ele>
        <time>2025-06-17T11:32:51Z</time>
      </trkpt>
      <trkpt lat="42.714892" lon="-0.666452">
        <ele>975.296</ele>
        <time>2025-06-17T11:33:06Z</time>
      </trkpt>
      <trkpt lat="42.715571" lon="-0.666502">
        <ele>979.415</ele>
        <time>2025-06-17T11:33:24Z</time>
      </trkpt>
      <trkpt lat="42.716116" lon="-0.666328">
        <ele>983.282</ele>
        <time>2025-06-17T11:33:39Z</time>
      </trkpt>
      <trkpt lat="42.716424" lon="-0.666083">
        <ele>985.729</ele>
        <time>2025-06-17T11:33:49Z</time>
      </trkpt>
      <trkpt lat="42.716951" lon="-0.665294">
        <ele>990.874</ele>
        <time>2025-06-17T11:34:11Z</time>
      </trkpt>
      <trkpt lat="42.717882" lon="-0.664627">
        <ele>993.642</ele>
        <time>2025-06-17T11:34:39Z</time>
      </trkpt>
      <trkpt lat="42.718356" lon="-0.663631">
        <ele>994.433</ele>
        <time>2025-06-17T11:34:59Z</time>
      </trkpt>
      <trkpt lat="42.718966" lon="-0.663229">
        <ele>994.232</ele>
        <time>2025-06-17T11:35:13Z</time>
      </trkpt>
      <trkpt lat="42.719459" lon="-0.662690">
        <ele>992.799</ele>
        <time>2025-06-17T11:35:25Z</time>
      </trkpt>
      <trkpt lat="42.720134" lon="-0.662174">
        <ele>992.216</ele>
        <time>2025-06-17T11:35:39Z</time>
      </trkpt>
      <trkpt lat="42.720627" lon="-0.661911">
        <ele>992.976</ele>
        <time>2025-06-17T11:35:49Z</time>
      </trkpt>
      <trkpt lat="42.721056" lon="-0.661932">
        <ele>994.213</ele>
        <time>2025-06-17T11:35:58Z</time>
      </trkpt>
      <trkpt lat="42.721506" lon="-0.661672">
        <ele>997.709</ele>
        <time>2025-06-17T11:36:10Z</time>
      </trkpt>
      <trkpt lat="42.721994" lon="-0.661136">
        <ele>1003.493</ele>
        <time>2025-06-17T11:36:32Z</time>
      </trkpt>
      <trkpt lat="42.722561" lon="-0.660721">
        <ele>1009.062</ele>
        <time>2025-06-17T11:36:52Z</time>
      </trkpt>
      <trkpt lat="42.722940" lon="-0.660588">
        <ele>1012.249</ele>
        <time>2025-06-17T11:37:04Z</time>
      </trkpt>
      <trkpt lat="42.723428" lon="-0.660584">
        <ele>1014.536</ele>
        <time>2025-06-17T11:37:20Z</time>
      </trkpt>
      <trkpt lat="42.724470" lon="-0.659808">
        <ele>1016.221</ele>
        <time>2025-06-17T11:37:47Z</time>
      </trkpt>
      <trkpt lat="42.724985" lon="-0.659264">
        <ele>1019.359</ele>
        <time>2025-06-17T11:38:02Z</time>
      </trkpt>
      <trkpt lat="42.725328" lon="-0.659158">
        <ele>1020.480</ele>
        <time>2025-06-17T11:38:10Z</time>
      </trkpt>
      <trkpt lat="42.725846" lon="-0.659169">
        <ele>1021.519</ele>
        <time>2025-06-17T11:38:22Z</time>
      </trkpt>
      <trkpt lat="42.726474" lon="-0.658844">
        <ele>1024.116</ele>
        <time>2025-06-17T11:38:38Z</time>
      </trkpt>
      <trkpt lat="42.726693" lon="-0.658648">
        <ele>1026.481</ele>
        <time>2025-06-17T11:38:46Z</time>
      </trkpt>
      <trkpt lat="42.727766" lon="-0.658320">
        <ele>1035.661</ele>
        <time>2025-06-17T11:39:21Z</time>
      </trkpt>
      <trkpt lat="42.728671" lon="-0.657639">
        <ele>1037.617</ele>
        <time>2025-06-17T11:39:47Z</time>
      </trkpt>
      <trkpt lat="42.729381" lon="-0.656851">
        <ele>1038.909</ele>
        <time>2025-06-17T11:40:07Z</time>
      </trkpt>
      <trkpt lat="42.730395" lon="-0.656083">
        <ele>1045.220</ele>
        <time>2025-06-17T11:40:36Z</time>
      </trkpt>
      <trkpt lat="42.730892" lon="-0.655510">
        <ele>1049.139</ele>
        <time>2025-06-17T11:40:54Z</time>
      </trkpt>
      <trkpt lat="42.731064" lon="-0.655431">
        <ele>1049.476</ele>
        <time>2025-06-17T11:40:59Z</time>
      </trkpt>
      <trkpt lat="42.731407" lon="-0.655455">
        <ele>1049.743</ele>
        <time>2025-06-17T11:41:07Z</time>
      </trkpt>
      <trkpt lat="42.732056" lon="-0.655267">
        <ele>1053.298</ele>
        <time>2025-06-17T11:41:25Z</time>
      </trkpt>
      <trkpt lat="42.732578" lon="-0.655389">
        <ele>1057.846</ele>
        <time>2025-06-17T11:41:42Z</time>
      </trkpt>
      <trkpt lat="42.733131" lon="-0.655747">
        <ele>1063.167</ele>
        <time>2025-06-17T11:42:04Z</time>
      </trkpt>
      <trkpt lat="42.733679" lon="-0.655894">
        <ele>1068.076</ele>
        <time>2025-06-17T11:42:24Z</time>
      </trkpt>
      <trkpt lat="42.734655" lon="-0.655469">
        <ele>1077.113</ele>
        <time>2025-06-17T11:43:01Z</time>
      </trkpt>
      <trkpt lat="42.735484" lon="-0.655369">
        <ele>1081.664</ele>
        <time>2025-06-17T11:43:28Z</time>
      </trkpt>
      <trkpt lat="42.736209" lon="-0.655055">
        <ele>1087.706</ele>
        <time>2025-06-17T11:43:53Z</time>
      </trkpt>
      <trkpt lat="42.736780" lon="-0.654596">
        <ele>1093.616</ele>
        <time>2025-06-17T11:44:16Z</time>
      </trkpt>
      <trkpt lat="42.737305" lon="-0.653895">
        <ele>1098.409</ele>
        <time>2025-06-17T11:44:41Z</time>
      </trkpt>
      <trkpt lat="42.737412" lon="-0.653639">
        <ele>1098.628</ele>
        <time>2025-06-17T11:44:46Z</time>
      </trkpt>
      <trkpt lat="42.737486" lon="-0.652971">
        <ele>1099.177</ele>
        <time>2025-06-17T11:44:59Z</time>
      </trkpt>
      <trkpt lat="42.737634" lon="-0.652746">
        <ele>1099.014</ele>
        <time>2025-06-17T11:45:04Z</time>
      </trkpt>
      <trkpt lat="42.737797" lon="-0.652155">
        <ele>1098.921</ele>
        <time>2025-06-17T11:45:14Z</time>
      </trkpt>
      <trkpt lat="42.737779" lon="-0.651235">
        <ele>1099.636</ele>
        <time>2025-06-17T11:45:33Z</time>
      </trkpt>
      <trkpt lat="42.737933" lon="-0.650381">
        <ele>1100.934</ele>
        <time>2025-06-17T11:45:47Z</time>
      </trkpt>
      <trkpt lat="42.738502" lon="-0.649377">
        <ele>1105.985</ele>
        <time>2025-06-17T11:46:07Z</time>
      </trkpt>
      <trkpt lat="42.738611" lon="-0.648770">
        <ele>1107.544</ele>
        <time>2025-06-17T11:46:18Z</time>
      </trkpt>
      <trkpt lat="42.739000" lon="-0.648083">
        <ele>1111.321</ele>
        <time>2025-06-17T11:46:36Z</time>
      </trkpt>
      <trkpt lat="42.738895" lon="-0.647660">
        <ele>1111.824</ele>
        <time>2025-06-17T11:46:46Z</time>
      </trkpt>
      <trkpt lat="42.738776" lon="-0.647507">
        <ele>1112.604</ele>
        <time>2025-06-17T11:46:51Z</time>
      </trkpt>
      <trkpt lat="42.738121" lon="-0.647416">
        <ele>1118.414</ele>
        <time>2025-06-17T11:47:13Z</time>
      </trkpt>
      <trkpt lat="42.737632" lon="-0.647600">
        <ele>1122.909</ele>
        <time>2025-06-17T11:47:30Z</time>
      </trkpt>
      <trkpt lat="42.737528" lon="-0.647525">
        <ele>1123.964</ele>
        <time>2025-06-17T11:47:34Z</time>
      </trkpt>
      <trkpt lat="42.737531" lon="-0.647417">
        <ele>1124.673</ele>
        <time>2025-06-17T11:47:37Z</time>
      </trkpt>
      <trkpt lat="42.738239" lon="-0.646456">
        <ele>1134.080</ele>
        <time>2025-06-17T11:48:14Z</time>
      </trkpt>
      <trkpt lat="42.738673" lon="-0.645120">
        <ele>1143.467</ele>
        <time>2025-06-17T11:48:52Z</time>
      </trkpt>
      <trkpt lat="42.738862" lon="-0.644773">
        <ele>1146.252</ele>
        <time>2025-06-17T11:49:03Z</time>
      </trkpt>
      <trkpt lat="42.740080" lon="-0.643937">
        <ele>1158.520</ele>
        <time>2025-06-17T11:49:52Z</time>
      </trkpt>
      <trkpt lat="42.740459" lon="-0.643587">
        <ele>1163.591</ele>
        <time>2025-06-17T11:50:08Z</time>
      </trkpt>
      <trkpt lat="42.740878" lon="-0.642245">
        <ele>1171.390</ele>
        <time>2025-06-17T11:50:44Z</time>
      </trkpt>
      <trkpt lat="42.740916" lon="-0.641773">
        <ele>1172.927</ele>
        <time>2025-06-17T11:50:56Z</time>
      </trkpt>
      <trkpt lat="42.741061" lon="-0.641251">
        <ele>1174.399</ele>
        <time>2025-06-17T11:51:08Z</time>
      </trkpt>
      <trkpt lat="42.741550" lon="-0.640121">
        <ele>1179.707</ele>
        <time>2025-06-17T11:51:37Z</time>
      </trkpt>
      <trkpt lat="42.742004" lon="-0.639461">
        <ele>1185.327</ele>
        <time>2025-06-17T11:52:01Z</time>
      </trkpt>
      <trkpt lat="42.742473" lon="-0.638290">
        <ele>1189.709</ele>
        <time>2025-06-17T11:52:27Z</time>
      </trkpt>
      <trkpt lat="42.742659" lon="-0.638107">
        <ele>1190.221</ele>
        <time>2025-06-17T11:52:32Z</time>
      </trkpt>
      <trkpt lat="42.742998" lon="-0.638057">
        <ele>1191.360</ele>
        <time>2025-06-17T11:52:42Z</time>
      </trkpt>
      <trkpt lat="42.743134" lon="-0.637966">
        <ele>1192.497</ele>
        <time>2025-06-17T11:52:49Z</time>
      </trkpt>
      <trkpt lat="42.743366" lon="-0.637604">
        <ele>1195.554</ele>
        <time>2025-06-17T11:53:00Z</time>
      </trkpt>
      <trkpt lat="42.743551" lon="-0.636970">
        <ele>1199.389</ele>
        <time>2025-06-17T11:53:15Z</time>
      </trkpt>
      <trkpt lat="42.743699" lon="-0.636792">
        <ele>1200.677</ele>
        <time>2025-06-17T11:53:22Z</time>
      </trkpt>
      <trkpt lat="42.744246" lon="-0.636448">
        <ele>1203.948</ele>
        <time>2025-06-17T11:53:44Z</time>
      </trkpt>
      <trkpt lat="42.744385" lon="-0.636243">
        <ele>1205.017</ele>
        <time>2025-06-17T11:53:49Z</time>
      </trkpt>
      <trkpt lat="42.745468" lon="-0.635263">
        <ele>1214.254</ele>
        <time>2025-06-17T11:54:28Z</time>
      </trkpt>
      <trkpt lat="42.746316" lon="-0.634721">
        <ele>1217.682</ele>
        <time>2025-06-17T11:54:58Z</time>
      </trkpt>
      <trkpt lat="42.747762" lon="-0.633148">
        <ele>1229.343</ele>
        <time>2025-06-17T11:55:50Z</time>
      </trkpt>
      <trkpt lat="42.748021" lon="-0.633001">
        <ele>1231.117</ele>
        <time>2025-06-17T11:55:58Z</time>
      </trkpt>
      <trkpt lat="42.748447" lon="-0.632925">
        <ele>1233.409</ele>
        <time>2025-06-17T11:56:11Z</time>
      </trkpt>
      <trkpt lat="42.748771" lon="-0.632549">
        <ele>1234.780</ele>
        <time>2025-06-17T11:56:24Z</time>
      </trkpt>
      <trkpt lat="42.749146" lon="-0.632355">
        <ele>1236.659</ele>
        <time>2025-06-17T11:56:36Z</time>
      </trkpt>
      <trkpt lat="42.749311" lon="-0.631879">
        <ele>1238.126</ele>
        <time>2025-06-17T11:56:47Z</time>
      </trkpt>
      <trkpt lat="42.749470" lon="-0.631743">
        <ele>1238.663</ele>
        <time>2025-06-17T11:56:52Z</time>
      </trkpt>
      <trkpt lat="42.750772" lon="-0.631517">
        <ele>1245.168</ele>
        <time>2025-06-17T11:57:29Z</time>
      </trkpt>
      <trkpt lat="42.751088" lon="-0.631743">
        <ele>1246.186</ele>
        <time>2025-06-17T11:57:38Z</time>
      </trkpt>
      <trkpt lat="42.751280" lon="-0.631789">
        <ele>1246.687</ele>
        <time>2025-06-17T11:57:43Z</time>
      </trkpt>
      <trkpt lat="42.752639" lon="-0.631156">
        <ele>1249.376</ele>
        <time>2025-06-17T11:58:15Z</time>
      </trkpt>
      <trkpt lat="42.753111" lon="-0.631196">
        <ele>1252.453</ele>
        <time>2025-06-17T11:58:27Z</time>
      </trkpt>
      <trkpt lat="42.753602" lon="-0.631399">
        <ele>1256.085</ele>
        <time>2025-06-17T11:58:41Z</time>
      </trkpt>
      <trkpt lat="42.753823" lon="-0.631333">
        <ele>1257.389</ele>
        <time>2025-06-17T11:58:59Z</time>
      </trkpt>
      <trkpt lat="42.753877" lon="-0.631242">
        <ele>1257.717</ele>
        <time>2025-06-17T11:59:08Z</time>
      </trkpt>
      <trkpt lat="42.754449" lon="-0.631090">
        <ele>1260.409</ele>
        <time>2025-06-17T11:59:29Z</time>
      </trkpt>
      <trkpt lat="42.754586" lon="-0.631181">
        <ele>1260.960</ele>
        <time>2025-06-17T11:59:35Z</time>
      </trkpt>
      <trkpt lat="42.755033" lon="-0.631910">
        <ele>1267.249</ele>
        <time>2025-06-17T12:00:01Z</time>
      </trkpt>
      <trkpt lat="42.755243" lon="-0.631654">
        <ele>1271.116</ele>
        <time>2025-06-17T12:00:15Z</time>
      </trkpt>
      <trkpt lat="42.755681" lon="-0.631338">
        <ele>1276.793</ele>
        <time>2025-06-17T12:00:36Z</time>
      </trkpt>
      <trkpt lat="42.755959" lon="-0.630945">
        <ele>1281.618</ele>
        <time>2025-06-17T12:00:53Z</time>
      </trkpt>
      <trkpt lat="42.756066" lon="-0.630914">
        <ele>1282.946</ele>
        <time>2025-06-17T12:00:58Z</time>
      </trkpt>
      <trkpt lat="42.756102" lon="-0.631083">
        <ele>1284.117</ele>
        <time>2025-06-17T12:01:05Z</time>
      </trkpt>
      <trkpt lat="42.755627" lon="-0.632080">
        <ele>1290.576</ele>
        <time>2025-06-17T12:01:43Z</time>
      </trkpt>
      <trkpt lat="42.755536" lon="-0.632472">
        <ele>1293.223</ele>
        <time>2025-06-17T12:01:54Z</time>
      </trkpt>
      <trkpt lat="42.755557" lon="-0.632551">
        <ele>1293.999</ele>
        <time>2025-06-17T12:01:56Z</time>
      </trkpt>
      <trkpt lat="42.755608" lon="-0.632520">
        <ele>1294.707</ele>
        <time>2025-06-17T12:01:59Z</time>
      </trkpt>
      <trkpt lat="42.755531" lon="-0.632489">
        <ele>1295.927</ele>
        <time>2025-06-17T12:02:03Z</time>
      </trkpt>
      <trkpt lat="42.755499" lon="-0.632551">
        <ele>1296.009</ele>
        <time>2025-06-17T12:02:05Z</time>
      </trkpt>
      <trkpt lat="42.755569" lon="-0.632633">
        <ele>1297.081</ele>
        <time>2025-06-17T12:02:23Z</time>
      </trkpt>
      <trkpt lat="42.755747" lon="-0.632194">
        <ele>1300.840</ele>
        <time>2025-06-17T12:02:37Z</time>
      </trkpt>
      <trkpt lat="42.756278" lon="-0.631461">
        <ele>1309.037</ele>
        <time>2025-06-17T12:03:07Z</time>
      </trkpt>
      <trkpt lat="42.757350" lon="-0.630842">
        <ele>1321.324</ele>
        <time>2025-06-17T12:03:54Z</time>
      </trkpt>
      <trkpt lat="42.758378" lon="-0.630852">
        <ele>1330.979</ele>
        <time>2025-06-17T12:04:33Z</time>
      </trkpt>
      <trkpt lat="42.758795" lon="-0.630729">
        <ele>1335.377</ele>
        <time>2025-06-17T12:04:49Z</time>
      </trkpt>
      <trkpt lat="42.759060" lon="-0.630528">
        <ele>1338.618</ele>
        <time>2025-06-17T12:05:00Z</time>
      </trkpt>
      <trkpt lat="42.759279" lon="-0.630172">
        <ele>1342.327</ele>
        <time>2025-06-17T12:05:14Z</time>
      </trkpt>
      <trkpt lat="42.759960" lon="-0.629504">
        <ele>1351.324</ele>
        <time>2025-06-17T12:05:48Z</time>
      </trkpt>
      <trkpt lat="42.760003" lon="-0.629731">
        <ele>1352.984</ele>
        <time>2025-06-17T12:05:58Z</time>
      </trkpt>
      <trkpt lat="42.759729" lon="-0.630507">
        <ele>1358.807</ele>
        <time>2025-06-17T12:06:26Z</time>
      </trkpt>
      <trkpt lat="42.759169" lon="-0.631236">
        <ele>1365.617</ele>
        <time>2025-06-17T12:06:58Z</time>
      </trkpt>
      <trkpt lat="42.758598" lon="-0.631650">
        <ele>1372.309</ele>
        <time>2025-06-17T12:07:25Z</time>
      </trkpt>
      <trkpt lat="42.758544" lon="-0.631773">
        <ele>1373.610</ele>
        <time>2025-06-17T12:07:31Z</time>
      </trkpt>
      <trkpt lat="42.758718" lon="-0.631803">
        <ele>1376.069</ele>
        <time>2025-06-17T12:07:53Z</time>
      </trkpt>
      <trkpt lat="42.759188" lon="-0.631669">
        <ele>1381.746</ele>
        <time>2025-06-17T12:08:15Z</time>
      </trkpt>
      <trkpt lat="42.760335" lon="-0.630869">
        <ele>1395.283</ele>
        <time>2025-06-17T12:09:10Z</time>
      </trkpt>
      <trkpt lat="42.760859" lon="-0.629722">
        <ele>1404.198</ele>
        <time>2025-06-17T12:09:47Z</time>
      </trkpt>
      <trkpt lat="42.761742" lon="-0.629470">
        <ele>1411.216</ele>
        <time>2025-06-17T12:10:24Z</time>
      </trkpt>
      <trkpt lat="42.762229" lon="-0.629717">
        <ele>1415.327</ele>
        <time>2025-06-17T12:10:41Z</time>
      </trkpt>
      <trkpt lat="42.762466" lon="-0.629735">
        <ele>1416.696</ele>
        <time>2025-06-17T12:10:48Z</time>
      </trkpt>
      <trkpt lat="42.762891" lon="-0.629358">
        <ele>1417.523</ele>
        <time>2025-06-17T12:11:05Z</time>
      </trkpt>
      <trkpt lat="42.763063" lon="-0.628988">
        <ele>1416.577</ele>
        <time>2025-06-17T12:11:14Z</time>
      </trkpt>
      <trkpt lat="42.763072" lon="-0.628679">
        <ele>1415.461</ele>
        <time>2025-06-17T12:11:19Z</time>
      </trkpt>
      <trkpt lat="42.762810" lon="-0.627809">
        <ele>1414.227</ele>
        <time>2025-06-17T12:11:32Z</time>
      </trkpt>
      <trkpt lat="42.762538" lon="-0.627226">
        <ele>1418.009</ele>
        <time>2025-06-17T12:11:45Z</time>
      </trkpt>
      <trkpt lat="42.762537" lon="-0.627096">
        <ele>1419.219</ele>
        <time>2025-06-17T12:11:48Z</time>
      </trkpt>
      <trkpt lat="42.762628" lon="-0.627043">
        <ele>1420.418</ele>
        <time>2025-06-17T12:11:51Z</time>
      </trkpt>
      <trkpt lat="42.762991" lon="-0.627472">
        <ele>1424.995</ele>
        <time>2025-06-17T12:12:07Z</time>
      </trkpt>
      <trkpt lat="42.763636" lon="-0.629089">
        <ele>1434.842</ele>
        <time>2025-06-17T12:12:55Z</time>
      </trkpt>
      <trkpt lat="42.763562" lon="-0.629992">
        <ele>1439.897</ele>
        <time>2025-06-17T12:13:15Z</time>
      </trkpt>
      <trkpt lat="42.763325" lon="-0.631193">
        <ele>1447.065</ele>
        <time>2025-06-17T12:13:45Z</time>
      </trkpt>
      <trkpt lat="42.763025" lon="-0.631756">
        <ele>1451.396</ele>
        <time>2025-06-17T12:14:02Z</time>
      </trkpt>
      <trkpt lat="42.762626" lon="-0.632033">
        <ele>1455.925</ele>
        <time>2025-06-17T12:14:16Z</time>
      </trkpt>
      <trkpt lat="42.762486" lon="-0.631966">
        <ele>1457.382</ele>
        <time>2025-06-17T12:14:21Z</time>
      </trkpt>
      <trkpt lat="42.762183" lon="-0.631388">
        <ele>1462.164</ele>
        <time>2025-06-17T12:14:42Z</time>
      </trkpt>
      <trkpt lat="42.761836" lon="-0.631194">
        <ele>1466.206</ele>
        <time>2025-06-17T12:14:57Z</time>
      </trkpt>
      <trkpt lat="42.761447" lon="-0.631276">
        <ele>1470.616</ele>
        <time>2025-06-17T12:15:13Z</time>
      </trkpt>
      <trkpt lat="42.761350" lon="-0.631406">
        <ele>1472.009</ele>
        <time>2025-06-17T12:15:19Z</time>
      </trkpt>
      <trkpt lat="42.761312" lon="-0.631670">
        <ele>1474.248</ele>
        <time>2025-06-17T12:15:30Z</time>
      </trkpt>
      <trkpt lat="42.761762" lon="-0.632174">
        <ele>1480.777</ele>
        <time>2025-06-17T12:15:57Z</time>
      </trkpt>
      <trkpt lat="42.762325" lon="-0.633264">
        <ele>1488.994</ele>
        <time>2025-06-17T12:16:31Z</time>
      </trkpt>
      <trkpt lat="42.762849" lon="-0.633581">
        <ele>1494.971</ele>
        <time>2025-06-17T12:16:55Z</time>
      </trkpt>
      <trkpt lat="42.763207" lon="-0.633496">
        <ele>1498.466</ele>
        <time>2025-06-17T12:17:09Z</time>
      </trkpt>
      <trkpt lat="42.764023" lon="-0.633641">
        <ele>1508.564</ele>
        <time>2025-06-17T12:17:41Z</time>
      </trkpt>
      <trkpt lat="42.764239" lon="-0.633778">
        <ele>1512.845</ele>
        <time>2025-06-17T12:17:53Z</time>
      </trkpt>
      <trkpt lat="42.764188" lon="-0.633888">
        <ele>1515.634</ele>
        <time>2025-06-17T12:17:59Z</time>
      </trkpt>
    </trkseg>
  </trk></gpx>