<?xml version="1.0" encoding="UTF-8"?>
<gpx creator="Wikiloc - https://www.wikiloc.com" version="1.1" xmlns="http://www.topografix.com/GPX/1/1" xmlns:xsi="http://www.w3.org/2001/XMLSchema-instance" xsi:schemaLocation="http://www.topografix.com/GPX/1/1 http://www.topografix.com/GPX/1/1/gpx.xsd">
  <metadata>
    <name>Wikiloc - SUBIDA AL CENTRO DE TELECOMUNICACIONES DE ISABA ( ARDIBIDE P...</name>
    <link href="https://www.wikiloc.com/cycling-trails/subida-al-centro-de-telecomunicaciones-de-isaba-ardibide-pikua-1-457m-isaba-navarra-119846499">
      <text>SUBIDA AL CENTRO DE TELECOMUNICACIONES DE ISABA ( ARDIBIDE P... on Wikiloc</text>
    </link>
    <time>2022-09-07T09:27:36Z</time>
  </metadata>
  <trk>
    <name>SUBIDA AL CENTRO DE TELECOMUNICACIONES DE ISABA ( ARDIBIDE P... - Wikiloc</name>
    <cmt></cmt>
    <desc></desc>
    <trkseg>
      <trkpt lat="42.858711" lon="-0.924203">
        <ele>805.878</ele>
        <time>2022-09-07T08:49:12Z</time>
      </trkpt>
      <trkpt lat="42.858575" lon="-0.921748">
        <ele>818.033</ele>
        <time>2022-09-07T08:50:44Z</time>
      </trkpt>
      <trkpt lat="42.858298" lon="-0.920511">
        <ele>819.626</ele>
        <time>2022-09-07T08:51:12Z</time>
      </trkpt>
      <trkpt lat="42.858458" lon="-0.919865">
        <ele>823.209</ele>
        <time>2022-09-07T08:51:28Z</time>
      </trkpt>
      <trkpt lat="42.858740" lon="-0.919320">
        <ele>827.038</ele>
        <time>2022-09-07T08:51:44Z</time>
      </trkpt>
      <trkpt lat="42.858828" lon="-0.918713">
        <ele>828.098</ele>
        <time>2022-09-07T08:52:00Z</time>
      </trkpt>
      <trkpt lat="42.858753" lon="-0.918731">
        <ele>828.076</ele>
        <time>2022-09-07T08:52:32Z</time>
      </trkpt>
      <trkpt lat="42.858331" lon="-0.919543">
        <ele>839.825</ele>
        <time>2022-09-07T08:53:08Z</time>
      </trkpt>
      <trkpt lat="42.858321" lon="-0.919168">
        <ele>845.851</ele>
        <time>2022-09-07T08:53:24Z</time>
      </trkpt>
      <trkpt lat="42.858068" lon="-0.918853">
        <ele>852.013</ele>
        <time>2022-09-07T08:53:44Z</time>
      </trkpt>
      <trkpt lat="42.858088" lon="-0.919276">
        <ele>859.831</ele>
        <time>2022-09-07T08:54:08Z</time>
      </trkpt>
      <trkpt lat="42.857788" lon="-0.919906">
        <ele>867.896</ele>
        <time>2022-09-07T08:54:40Z</time>
      </trkpt>
      <trkpt lat="42.857633" lon="-0.919250">
        <ele>882.686</ele>
        <time>2022-09-07T08:55:20Z</time>
      </trkpt>
      <trkpt lat="42.857250" lon="-0.918758">
        <ele>892.486</ele>
        <time>2022-09-07T08:55:48Z</time>
      </trkpt>
      <trkpt lat="42.857181" lon="-0.918746">
        <ele>893.260</ele>
        <time>2022-09-07T08:55:52Z</time>
      </trkpt>
      <trkpt lat="42.857158" lon="-0.918931">
        <ele>897.026</ele>
        <time>2022-09-07T08:56:04Z</time>
      </trkpt>
      <trkpt lat="42.857100" lon="-0.918943">
        <ele>897.609</ele>
        <time>2022-09-07T08:56:08Z</time>
      </trkpt>
      <trkpt lat="42.856755" lon="-0.917980">
        <ele>913.499</ele>
        <time>2022-09-07T08:56:56Z</time>
      </trkpt>
      <trkpt lat="42.856463" lon="-0.917706">
        <ele>915.089</ele>
        <time>2022-09-07T08:57:16Z</time>
      </trkpt>
      <trkpt lat="42.856451" lon="-0.917576">
        <ele>915.697</ele>
        <time>2022-09-07T08:57:20Z</time>
      </trkpt>
      <trkpt lat="42.856778" lon="-0.916990">
        <ele>922.096</ele>
        <time>2022-09-07T08:57:44Z</time>
      </trkpt>
      <trkpt lat="42.856865" lon="-0.916548">
        <ele>924.842</ele>
        <time>2022-09-07T08:58:00Z</time>
      </trkpt>
      <trkpt lat="42.857028" lon="-0.916338">
        <ele>930.254</ele>
        <time>2022-09-07T08:58:12Z</time>
      </trkpt>
      <trkpt lat="42.857051" lon="-0.915615">
        <ele>940.672</ele>
        <time>2022-09-07T08:58:40Z</time>
      </trkpt>
      <trkpt lat="42.857190" lon="-0.915086">
        <ele>947.487</ele>
        <time>2022-09-07T08:59:00Z</time>
      </trkpt>
      <trkpt lat="42.857226" lon="-0.913781">
        <ele>959.617</ele>
        <time>2022-09-07T08:59:48Z</time>
      </trkpt>
      <trkpt lat="42.856813" lon="-0.912585">
        <ele>976.845</ele>
        <time>2022-09-07T09:00:40Z</time>
      </trkpt>
      <trkpt lat="42.856231" lon="-0.912163">
        <ele>992.047</ele>
        <time>2022-09-07T09:01:12Z</time>
      </trkpt>
      <trkpt lat="42.855846" lon="-0.911580">
        <ele>1001.011</ele>
        <time>2022-09-07T09:01:44Z</time>
      </trkpt>
      <trkpt lat="42.855696" lon="-0.911481">
        <ele>1003.009</ele>
        <time>2022-09-07T09:01:52Z</time>
      </trkpt>
      <trkpt lat="42.854853" lon="-0.911101">
        <ele>1021.835</ele>
        <time>2022-09-07T09:02:44Z</time>
      </trkpt>
      <trkpt lat="42.854098" lon="-0.911023">
        <ele>1030.675</ele>
        <time>2022-09-07T09:03:20Z</time>
      </trkpt>
      <trkpt lat="42.853963" lon="-0.910810">
        <ele>1036.633</ele>
        <time>2022-09-07T09:03:36Z</time>
      </trkpt>
      <trkpt lat="42.853346" lon="-0.910275">
        <ele>1051.012</ele>
        <time>2022-09-07T09:04:16Z</time>
      </trkpt>
      <trkpt lat="42.852723" lon="-0.909928">
        <ele>1060.068</ele>
        <time>2022-09-07T09:04:48Z</time>
      </trkpt>
      <trkpt lat="42.852185" lon="-0.909780">
        <ele>1071.020</ele>
        <time>2022-09-07T09:05:20Z</time>
      </trkpt>
      <trkpt lat="42.852811" lon="-0.912405">
        <ele>1110.638</ele>
        <time>2022-09-07T09:07:24Z</time>
      </trkpt>
      <trkpt lat="42.853110" lon="-0.913046">
        <ele>1120.643</ele>
        <time>2022-09-07T09:07:56Z</time>
      </trkpt>
      <trkpt lat="42.853201" lon="-0.913728">
        <ele>1127.883</ele>
        <time>2022-09-07T09:08:24Z</time>
      </trkpt>
      <trkpt lat="42.853138" lon="-0.914053">
        <ele>1131.097</ele>
        <time>2022-09-07T09:08:36Z</time>
      </trkpt>
      <trkpt lat="42.852556" lon="-0.913505">
        <ele>1145.023</ele>
        <time>2022-09-07T09:09:20Z</time>
      </trkpt>
      <trkpt lat="42.850250" lon="-0.911788">
        <ele>1179.825</ele>
        <time>2022-09-07T09:11:28Z</time>
      </trkpt>
      <trkpt lat="42.849995" lon="-0.911736">
        <ele>1182.809</ele>
        <time>2022-09-07T09:11:40Z</time>
      </trkpt>
      <trkpt lat="42.849738" lon="-0.911815">
        <ele>1185.220</ele>
        <time>2022-09-07T09:11:52Z</time>
      </trkpt>
      <trkpt lat="42.848738" lon="-0.912528">
        <ele>1202.880</ele>
        <time>2022-09-07T09:12:48Z</time>
      </trkpt>
      <trkpt lat="42.848481" lon="-0.912535">
        <ele>1206.058</ele>
        <time>2022-09-07T09:13:00Z</time>
      </trkpt>
      <trkpt lat="42.848243" lon="-0.912428">
        <ele>1210.067</ele>
        <time>2022-09-07T09:13:12Z</time>
      </trkpt>
      <trkpt lat="42.847521" lon="-0.911440">
        <ele>1226.633</ele>
        <time>2022-09-07T09:14:08Z</time>
      </trkpt>
      <trkpt lat="42.847193" lon="-0.910446">
        <ele>1240.245</ele>
        <time>2022-09-07T09:14:52Z</time>
      </trkpt>
      <trkpt lat="42.846595" lon="-0.909968">
        <ele>1253.213</ele>
        <time>2022-09-07T09:15:32Z</time>
      </trkpt>
      <trkpt lat="42.846786" lon="-0.910241">
        <ele>1256.638</ele>
        <time>2022-09-07T09:15:52Z</time>
      </trkpt>
      <trkpt lat="42.846868" lon="-0.910530">
        <ele>1260.838</ele>
        <time>2022-09-07T09:16:04Z</time>
      </trkpt>
      <trkpt lat="42.846786" lon="-0.911278">
        <ele>1270.681</ele>
        <time>2022-09-07T09:16:36Z</time>
      </trkpt>
      <trkpt lat="42.847233" lon="-0.913356">
        <ele>1286.461</ele>
        <time>2022-09-07T09:17:48Z</time>
      </trkpt>
      <trkpt lat="42.847863" lon="-0.914620">
        <ele>1303.017</ele>
        <time>2022-09-07T09:18:44Z</time>
      </trkpt>
      <trkpt lat="42.848648" lon="-0.915278">
        <ele>1314.009</ele>
        <time>2022-09-07T09:19:32Z</time>
      </trkpt>
      <trkpt lat="42.848598" lon="-0.915326">
        <ele>1315.029</ele>
        <time>2022-09-07T09:19:36Z</time>
      </trkpt>
      <trkpt lat="42.847821" lon="-0.915255">
        <ele>1331.679</ele>
        <time>2022-09-07T09:20:24Z</time>
      </trkpt>
      <trkpt lat="42.847958" lon="-0.915678">
        <ele>1337.677</ele>
        <time>2022-09-07T09:20:48Z</time>
      </trkpt>
      <trkpt lat="42.847491" lon="-0.916670">
        <ele>1355.696</ele>
        <time>2022-09-07T09:21:44Z</time>
      </trkpt>
      <trkpt lat="42.847286" lon="-0.917635">
        <ele>1367.252</ele>
        <time>2022-09-07T09:22:28Z</time>
      </trkpt>
      <trkpt lat="42.847113" lon="-0.916805">
        <ele>1380.024</ele>
        <time>2022-09-07T09:23:08Z</time>
      </trkpt>
      <trkpt lat="42.846825" lon="-0.916046">
        <ele>1393.812</ele>
        <time>2022-09-07T09:23:48Z</time>
      </trkpt>
      <trkpt lat="42.845938" lon="-0.915228">
        <ele>1420.287</ele>
        <time>2022-09-07T09:25:00Z</time>
      </trkpt>
      <trkpt lat="42.845766" lon="-0.914925">
        <ele>1428.217</ele>
        <time>2022-09-07T09:25:20Z</time>
      </trkpt>
      <trkpt lat="42.845638" lon="-0.914896">
        <ele>1429.447</ele>
        <time>2022-09-07T09:25:32Z</time>
      </trkpt>
      <trkpt lat="42.845966" lon="-0.915835">
        <ele>1450.629</ele>
        <time>2022-09-07T09:26:32Z</time>
      </trkpt>
      <trkpt lat="42.846131" lon="-0.916970">
        <ele>1467.821</ele>
        <time>2022-09-07T09:27:36Z</time>
      </trkpt>
    </trkseg>
  </trk></gpx>