<?xml version="1.0" encoding="UTF-8"?>
<gpx creator="Wikiloc - https://www.wikiloc.com" version="1.1" xmlns="http://www.topografix.com/GPX/1/1" xmlns:xsi="http://www.w3.org/2001/XMLSchema-instance" xsi:schemaLocation="http://www.topografix.com/GPX/1/1 http://www.topografix.com/GPX/1/1/gpx.xsd">
  <metadata>
    <name>Wikiloc - Subida al Santuario del Moncayo 1.620m desde Vera de Moncayo...</name>
    <link href="https://www.wikiloc.com/cycling-trails/subida-al-santuario-del-moncayo-1-620m-desde-vera-de-moncayo-250684894">
      <text>Subida al Santuario del Moncayo 1.620m desde Vera de Moncayo... on Wikiloc</text>
    </link>
    <time>2026-02-15T09:36:52Z</time>
  </metadata>
  <trk>
    <name>Subida al Santuario del Moncayo 1.620m desde Vera de Moncayo... - Wikiloc</name>
    <cmt></cmt>
    <desc></desc>
    <trkseg>
      <trkpt lat="41.820633" lon="-1.690738">
        <ele>630.864</ele>
        <time>2026-02-15T07:56:06Z</time>
      </trkpt>
      <trkpt lat="41.819303" lon="-1.692080">
        <ele>634.606</ele>
        <time>2026-02-15T07:56:52Z</time>
      </trkpt>
      <trkpt lat="41.812990" lon="-1.695547">
        <ele>657.816</ele>
        <time>2026-02-15T07:59:53Z</time>
      </trkpt>
      <trkpt lat="41.811668" lon="-1.697588">
        <ele>662.809</ele>
        <time>2026-02-15T08:00:51Z</time>
      </trkpt>
      <trkpt lat="41.811158" lon="-1.699492">
        <ele>669.418</ele>
        <time>2026-02-15T08:01:26Z</time>
      </trkpt>
      <trkpt lat="41.811208" lon="-1.699863">
        <ele>670.411</ele>
        <time>2026-02-15T08:01:32Z</time>
      </trkpt>
      <trkpt lat="41.811385" lon="-1.700273">
        <ele>671.296</ele>
        <time>2026-02-15T08:01:39Z</time>
      </trkpt>
      <trkpt lat="41.812603" lon="-1.700900">
        <ele>673.432</ele>
        <time>2026-02-15T08:02:05Z</time>
      </trkpt>
      <trkpt lat="41.812805" lon="-1.701352">
        <ele>675.074</ele>
        <time>2026-02-15T08:02:14Z</time>
      </trkpt>
      <trkpt lat="41.812412" lon="-1.703222">
        <ele>681.480</ele>
        <time>2026-02-15T08:02:48Z</time>
      </trkpt>
      <trkpt lat="41.811750" lon="-1.704495">
        <ele>684.844</ele>
        <time>2026-02-15T08:03:14Z</time>
      </trkpt>
      <trkpt lat="41.811548" lon="-1.708870">
        <ele>698.045</ele>
        <time>2026-02-15T08:04:32Z</time>
      </trkpt>
      <trkpt lat="41.811312" lon="-1.709847">
        <ele>701.470</ele>
        <time>2026-02-15T08:04:50Z</time>
      </trkpt>
      <trkpt lat="41.809772" lon="-1.713702">
        <ele>717.413</ele>
        <time>2026-02-15T08:06:09Z</time>
      </trkpt>
      <trkpt lat="41.809168" lon="-1.714693">
        <ele>720.043</ele>
        <time>2026-02-15T08:06:32Z</time>
      </trkpt>
      <trkpt lat="41.808595" lon="-1.716917">
        <ele>726.407</ele>
        <time>2026-02-15T08:07:13Z</time>
      </trkpt>
      <trkpt lat="41.807808" lon="-1.718470">
        <ele>733.609</ele>
        <time>2026-02-15T08:07:50Z</time>
      </trkpt>
      <trkpt lat="41.807628" lon="-1.719360">
        <ele>738.033</ele>
        <time>2026-02-15T08:08:08Z</time>
      </trkpt>
      <trkpt lat="41.807200" lon="-1.720190">
        <ele>740.456</ele>
        <time>2026-02-15T08:08:28Z</time>
      </trkpt>
      <trkpt lat="41.806997" lon="-1.722047">
        <ele>746.651</ele>
        <time>2026-02-15T08:09:05Z</time>
      </trkpt>
      <trkpt lat="41.806775" lon="-1.722793">
        <ele>750.287</ele>
        <time>2026-02-15T08:09:20Z</time>
      </trkpt>
      <trkpt lat="41.805713" lon="-1.724207">
        <ele>760.229</ele>
        <time>2026-02-15T08:10:03Z</time>
      </trkpt>
      <trkpt lat="41.805002" lon="-1.725680">
        <ele>769.815</ele>
        <time>2026-02-15T08:10:38Z</time>
      </trkpt>
      <trkpt lat="41.804252" lon="-1.728140">
        <ele>783.649</ele>
        <time>2026-02-15T08:11:32Z</time>
      </trkpt>
      <trkpt lat="41.803727" lon="-1.730748">
        <ele>798.290</ele>
        <time>2026-02-15T08:12:27Z</time>
      </trkpt>
      <trkpt lat="41.802933" lon="-1.732682">
        <ele>811.885</ele>
        <time>2026-02-15T08:13:13Z</time>
      </trkpt>
      <trkpt lat="41.802703" lon="-1.733690">
        <ele>818.269</ele>
        <time>2026-02-15T08:13:36Z</time>
      </trkpt>
      <trkpt lat="41.802037" lon="-1.734610">
        <ele>826.004</ele>
        <time>2026-02-15T08:14:03Z</time>
      </trkpt>
      <trkpt lat="41.801645" lon="-1.735585">
        <ele>832.624</ele>
        <time>2026-02-15T08:14:27Z</time>
      </trkpt>
      <trkpt lat="41.801113" lon="-1.736458">
        <ele>840.809</ele>
        <time>2026-02-15T08:14:54Z</time>
      </trkpt>
      <trkpt lat="41.799880" lon="-1.740157">
        <ele>867.648</ele>
        <time>2026-02-15T08:16:30Z</time>
      </trkpt>
      <trkpt lat="41.799027" lon="-1.741323">
        <ele>873.641</ele>
        <time>2026-02-15T08:17:09Z</time>
      </trkpt>
      <trkpt lat="41.796428" lon="-1.744182">
        <ele>898.496</ele>
        <time>2026-02-15T08:18:56Z</time>
      </trkpt>
      <trkpt lat="41.795743" lon="-1.745700">
        <ele>906.642</ele>
        <time>2026-02-15T08:19:36Z</time>
      </trkpt>
      <trkpt lat="41.795007" lon="-1.748410">
        <ele>918.644</ele>
        <time>2026-02-15T08:20:39Z</time>
      </trkpt>
      <trkpt lat="41.794048" lon="-1.750503">
        <ele>933.660</ele>
        <time>2026-02-15T08:21:38Z</time>
      </trkpt>
      <trkpt lat="41.794125" lon="-1.751008">
        <ele>935.284</ele>
        <time>2026-02-15T08:21:48Z</time>
      </trkpt>
      <trkpt lat="41.794558" lon="-1.751863">
        <ele>939.625</ele>
        <time>2026-02-15T08:22:09Z</time>
      </trkpt>
      <trkpt lat="41.794467" lon="-1.752340">
        <ele>942.860</ele>
        <time>2026-02-15T08:22:20Z</time>
      </trkpt>
      <trkpt lat="41.792907" lon="-1.754898">
        <ele>960.467</ele>
        <time>2026-02-15T08:23:35Z</time>
      </trkpt>
      <trkpt lat="41.792435" lon="-1.755978">
        <ele>964.481</ele>
        <time>2026-02-15T08:23:59Z</time>
      </trkpt>
      <trkpt lat="41.792082" lon="-1.756077">
        <ele>965.219</ele>
        <time>2026-02-15T08:24:07Z</time>
      </trkpt>
      <trkpt lat="41.791455" lon="-1.756005">
        <ele>967.209</ele>
        <time>2026-02-15T08:24:23Z</time>
      </trkpt>
      <trkpt lat="41.791200" lon="-1.756217">
        <ele>967.858</ele>
        <time>2026-02-15T08:24:30Z</time>
      </trkpt>
      <trkpt lat="41.790940" lon="-1.758842">
        <ele>978.661</ele>
        <time>2026-02-15T08:25:28Z</time>
      </trkpt>
      <trkpt lat="41.790653" lon="-1.759888">
        <ele>982.836</ele>
        <time>2026-02-15T08:25:50Z</time>
      </trkpt>
      <trkpt lat="41.790687" lon="-1.760547">
        <ele>985.272</ele>
        <time>2026-02-15T08:26:04Z</time>
      </trkpt>
      <trkpt lat="41.791245" lon="-1.761960">
        <ele>990.094</ele>
        <time>2026-02-15T08:26:35Z</time>
      </trkpt>
      <trkpt lat="41.791797" lon="-1.762290">
        <ele>991.810</ele>
        <time>2026-02-15T08:26:51Z</time>
      </trkpt>
      <trkpt lat="41.792550" lon="-1.763007">
        <ele>997.084</ele>
        <time>2026-02-15T08:27:14Z</time>
      </trkpt>
      <trkpt lat="41.792763" lon="-1.763613">
        <ele>998.495</ele>
        <time>2026-02-15T08:27:26Z</time>
      </trkpt>
      <trkpt lat="41.792562" lon="-1.764122">
        <ele>999.830</ele>
        <time>2026-02-15T08:27:37Z</time>
      </trkpt>
      <trkpt lat="41.789542" lon="-1.768483">
        <ele>1014.041</ele>
        <time>2026-02-15T08:29:30Z</time>
      </trkpt>
      <trkpt lat="41.789123" lon="-1.769593">
        <ele>1016.881</ele>
        <time>2026-02-15T08:29:53Z</time>
      </trkpt>
      <trkpt lat="41.789005" lon="-1.770467">
        <ele>1020.209</ele>
        <time>2026-02-15T08:30:17Z</time>
      </trkpt>
      <trkpt lat="41.789015" lon="-1.771205">
        <ele>1022.809</ele>
        <time>2026-02-15T08:30:38Z</time>
      </trkpt>
      <trkpt lat="41.789215" lon="-1.771718">
        <ele>1024.416</ele>
        <time>2026-02-15T08:30:49Z</time>
      </trkpt>
      <trkpt lat="41.789540" lon="-1.772122">
        <ele>1024.829</ele>
        <time>2026-02-15T08:30:55Z</time>
      </trkpt>
      <trkpt lat="41.790353" lon="-1.773805">
        <ele>1026.054</ele>
        <time>2026-02-15T08:31:32Z</time>
      </trkpt>
      <trkpt lat="41.792085" lon="-1.775713">
        <ele>1025.880</ele>
        <time>2026-02-15T08:32:11Z</time>
      </trkpt>
      <trkpt lat="41.792605" lon="-1.777080">
        <ele>1026.612</ele>
        <time>2026-02-15T08:32:30Z</time>
      </trkpt>
      <trkpt lat="41.792613" lon="-1.777483">
        <ele>1027.828</ele>
        <time>2026-02-15T08:32:39Z</time>
      </trkpt>
      <trkpt lat="41.792970" lon="-1.778238">
        <ele>1029.462</ele>
        <time>2026-02-15T08:32:52Z</time>
      </trkpt>
      <trkpt lat="41.793258" lon="-1.778628">
        <ele>1029.613</ele>
        <time>2026-02-15T08:32:57Z</time>
      </trkpt>
      <trkpt lat="41.794077" lon="-1.779017">
        <ele>1030.228</ele>
        <time>2026-02-15T08:33:12Z</time>
      </trkpt>
      <trkpt lat="41.794322" lon="-1.779363">
        <ele>1030.499</ele>
        <time>2026-02-15T08:33:19Z</time>
      </trkpt>
      <trkpt lat="41.796090" lon="-1.783375">
        <ele>1020.007</ele>
        <time>2026-02-15T08:34:02Z</time>
      </trkpt>
      <trkpt lat="41.796097" lon="-1.785115">
        <ele>1021.627</ele>
        <time>2026-02-15T08:34:23Z</time>
      </trkpt>
      <trkpt lat="41.796290" lon="-1.785808">
        <ele>1021.209</ele>
        <time>2026-02-15T08:34:31Z</time>
      </trkpt>
      <trkpt lat="41.798020" lon="-1.787080">
        <ele>1019.091</ele>
        <time>2026-02-15T08:34:56Z</time>
      </trkpt>
      <trkpt lat="41.798345" lon="-1.788277">
        <ele>1020.234</ele>
        <time>2026-02-15T08:35:11Z</time>
      </trkpt>
      <trkpt lat="41.799060" lon="-1.789625">
        <ele>1017.249</ele>
        <time>2026-02-15T08:35:27Z</time>
      </trkpt>
      <trkpt lat="41.799213" lon="-1.789747">
        <ele>1016.655</ele>
        <time>2026-02-15T08:35:30Z</time>
      </trkpt>
      <trkpt lat="41.799410" lon="-1.789670">
        <ele>1016.427</ele>
        <time>2026-02-15T08:35:33Z</time>
      </trkpt>
      <trkpt lat="41.800238" lon="-1.788677">
        <ele>1015.873</ele>
        <time>2026-02-15T08:35:48Z</time>
      </trkpt>
      <trkpt lat="41.801378" lon="-1.786370">
        <ele>1019.097</ele>
        <time>2026-02-15T08:36:22Z</time>
      </trkpt>
      <trkpt lat="41.801600" lon="-1.786187">
        <ele>1019.048</ele>
        <time>2026-02-15T08:36:27Z</time>
      </trkpt>
      <trkpt lat="41.802343" lon="-1.786545">
        <ele>1019.033</ele>
        <time>2026-02-15T08:36:41Z</time>
      </trkpt>
      <trkpt lat="41.803213" lon="-1.788897">
        <ele>1026.014</ele>
        <time>2026-02-15T08:37:21Z</time>
      </trkpt>
      <trkpt lat="41.804338" lon="-1.788958">
        <ele>1027.054</ele>
        <time>2026-02-15T08:37:42Z</time>
      </trkpt>
      <trkpt lat="41.804605" lon="-1.789117">
        <ele>1027.209</ele>
        <time>2026-02-15T08:37:48Z</time>
      </trkpt>
      <trkpt lat="41.804508" lon="-1.791342">
        <ele>1033.209</ele>
        <time>2026-02-15T08:38:26Z</time>
      </trkpt>
      <trkpt lat="41.806442" lon="-1.793295">
        <ele>1035.263</ele>
        <time>2026-02-15T08:39:11Z</time>
      </trkpt>
      <trkpt lat="41.806613" lon="-1.793817">
        <ele>1035.626</ele>
        <time>2026-02-15T08:39:21Z</time>
      </trkpt>
      <trkpt lat="41.806662" lon="-1.795250">
        <ele>1038.441</ele>
        <time>2026-02-15T08:39:45Z</time>
      </trkpt>
      <trkpt lat="41.806460" lon="-1.796605">
        <ele>1042.627</ele>
        <time>2026-02-15T08:40:10Z</time>
      </trkpt>
      <trkpt lat="41.805473" lon="-1.800105">
        <ele>1052.299</ele>
        <time>2026-02-15T08:41:16Z</time>
      </trkpt>
      <trkpt lat="41.805708" lon="-1.800213">
        <ele>1052.095</ele>
        <time>2026-02-15T08:41:22Z</time>
      </trkpt>
      <trkpt lat="41.806168" lon="-1.799853">
        <ele>1052.239</ele>
        <time>2026-02-15T08:41:33Z</time>
      </trkpt>
      <trkpt lat="41.806517" lon="-1.799797">
        <ele>1052.690</ele>
        <time>2026-02-15T08:41:41Z</time>
      </trkpt>
      <trkpt lat="41.808125" lon="-1.800603">
        <ele>1055.695</ele>
        <time>2026-02-15T08:42:15Z</time>
      </trkpt>
      <trkpt lat="41.808252" lon="-1.801695">
        <ele>1057.457</ele>
        <time>2026-02-15T08:42:33Z</time>
      </trkpt>
      <trkpt lat="41.808658" lon="-1.802080">
        <ele>1057.400</ele>
        <time>2026-02-15T08:42:41Z</time>
      </trkpt>
      <trkpt lat="41.809168" lon="-1.802227">
        <ele>1057.820</ele>
        <time>2026-02-15T08:42:52Z</time>
      </trkpt>
      <trkpt lat="41.809452" lon="-1.803548">
        <ele>1063.409</ele>
        <time>2026-02-15T08:43:21Z</time>
      </trkpt>
      <trkpt lat="41.809827" lon="-1.804192">
        <ele>1065.467</ele>
        <time>2026-02-15T08:43:31Z</time>
      </trkpt>
      <trkpt lat="41.810442" lon="-1.806673">
        <ele>1071.030</ele>
        <time>2026-02-15T08:44:15Z</time>
      </trkpt>
      <trkpt lat="41.810522" lon="-1.807390">
        <ele>1072.225</ele>
        <time>2026-02-15T08:44:26Z</time>
      </trkpt>
      <trkpt lat="41.810328" lon="-1.809452">
        <ele>1077.691</ele>
        <time>2026-02-15T08:44:59Z</time>
      </trkpt>
      <trkpt lat="41.810113" lon="-1.810400">
        <ele>1079.853</ele>
        <time>2026-02-15T08:46:57Z</time>
      </trkpt>
      <trkpt lat="41.810053" lon="-1.812195">
        <ele>1085.489</ele>
        <time>2026-02-15T08:47:26Z</time>
      </trkpt>
      <trkpt lat="41.810247" lon="-1.813338">
        <ele>1091.033</ele>
        <time>2026-02-15T08:47:51Z</time>
      </trkpt>
      <trkpt lat="41.810888" lon="-1.814080">
        <ele>1094.294</ele>
        <time>2026-02-15T08:48:05Z</time>
      </trkpt>
      <trkpt lat="41.811258" lon="-1.814905">
        <ele>1099.859</ele>
        <time>2026-02-15T08:48:26Z</time>
      </trkpt>
      <trkpt lat="41.811792" lon="-1.815310">
        <ele>1101.638</ele>
        <time>2026-02-15T08:48:41Z</time>
      </trkpt>
      <trkpt lat="41.812995" lon="-1.816752">
        <ele>1105.670</ele>
        <time>2026-02-15T08:49:17Z</time>
      </trkpt>
      <trkpt lat="41.813838" lon="-1.817403">
        <ele>1106.217</ele>
        <time>2026-02-15T08:49:36Z</time>
      </trkpt>
      <trkpt lat="41.814505" lon="-1.819047">
        <ele>1105.609</ele>
        <time>2026-02-15T08:50:00Z</time>
      </trkpt>
      <trkpt lat="41.814445" lon="-1.820392">
        <ele>1099.085</ele>
        <time>2026-02-15T08:50:14Z</time>
      </trkpt>
      <trkpt lat="41.815370" lon="-1.821830">
        <ele>1092.628</ele>
        <time>2026-02-15T08:50:27Z</time>
      </trkpt>
      <trkpt lat="41.816020" lon="-1.822253">
        <ele>1089.683</ele>
        <time>2026-02-15T08:50:38Z</time>
      </trkpt>
      <trkpt lat="41.817317" lon="-1.822343">
        <ele>1090.289</ele>
        <time>2026-02-15T08:51:08Z</time>
      </trkpt>
      <trkpt lat="41.817810" lon="-1.823682">
        <ele>1094.681</ele>
        <time>2026-02-15T08:52:03Z</time>
      </trkpt>
      <trkpt lat="41.817958" lon="-1.824590">
        <ele>1099.477</ele>
        <time>2026-02-15T08:52:22Z</time>
      </trkpt>
      <trkpt lat="41.817843" lon="-1.824747">
        <ele>1101.431</ele>
        <time>2026-02-15T08:52:28Z</time>
      </trkpt>
      <trkpt lat="41.817098" lon="-1.824072">
        <ele>1106.462</ele>
        <time>2026-02-15T08:52:51Z</time>
      </trkpt>
      <trkpt lat="41.816788" lon="-1.823995">
        <ele>1108.277</ele>
        <time>2026-02-15T08:52:59Z</time>
      </trkpt>
      <trkpt lat="41.816702" lon="-1.824102">
        <ele>1109.647</ele>
        <time>2026-02-15T08:53:03Z</time>
      </trkpt>
      <trkpt lat="41.817273" lon="-1.825845">
        <ele>1116.629</ele>
        <time>2026-02-15T08:53:37Z</time>
      </trkpt>
      <trkpt lat="41.817290" lon="-1.826178">
        <ele>1117.221</ele>
        <time>2026-02-15T08:53:43Z</time>
      </trkpt>
      <trkpt lat="41.817173" lon="-1.826293">
        <ele>1118.809</ele>
        <time>2026-02-15T08:53:48Z</time>
      </trkpt>
      <trkpt lat="41.816388" lon="-1.825257">
        <ele>1123.046</ele>
        <time>2026-02-15T08:54:13Z</time>
      </trkpt>
      <trkpt lat="41.816185" lon="-1.825202">
        <ele>1124.239</ele>
        <time>2026-02-15T08:54:18Z</time>
      </trkpt>
      <trkpt lat="41.815888" lon="-1.825355">
        <ele>1125.454</ele>
        <time>2026-02-15T08:54:24Z</time>
      </trkpt>
      <trkpt lat="41.814957" lon="-1.825035">
        <ele>1130.280</ele>
        <time>2026-02-15T08:54:44Z</time>
      </trkpt>
      <trkpt lat="41.814123" lon="-1.824417">
        <ele>1135.242</ele>
        <time>2026-02-15T08:55:04Z</time>
      </trkpt>
      <trkpt lat="41.813568" lon="-1.823697">
        <ele>1138.458</ele>
        <time>2026-02-15T08:55:20Z</time>
      </trkpt>
      <trkpt lat="41.813168" lon="-1.822642">
        <ele>1141.022</ele>
        <time>2026-02-15T08:55:36Z</time>
      </trkpt>
      <trkpt lat="41.812238" lon="-1.821457">
        <ele>1147.043</ele>
        <time>2026-02-15T08:56:02Z</time>
      </trkpt>
      <trkpt lat="41.811790" lon="-1.820637">
        <ele>1151.888</ele>
        <time>2026-02-15T08:56:20Z</time>
      </trkpt>
      <trkpt lat="41.811462" lon="-1.820395">
        <ele>1154.428</ele>
        <time>2026-02-15T08:56:29Z</time>
      </trkpt>
      <trkpt lat="41.811165" lon="-1.819735">
        <ele>1157.689</ele>
        <time>2026-02-15T08:56:41Z</time>
      </trkpt>
      <trkpt lat="41.810338" lon="-1.819310">
        <ele>1163.817</ele>
        <time>2026-02-15T08:57:04Z</time>
      </trkpt>
      <trkpt lat="41.809495" lon="-1.818348">
        <ele>1169.009</ele>
        <time>2026-02-15T08:57:30Z</time>
      </trkpt>
      <trkpt lat="41.808373" lon="-1.817482">
        <ele>1176.084</ele>
        <time>2026-02-15T08:57:59Z</time>
      </trkpt>
      <trkpt lat="41.807308" lon="-1.816060">
        <ele>1183.687</ele>
        <time>2026-02-15T08:58:30Z</time>
      </trkpt>
      <trkpt lat="41.806600" lon="-1.815392">
        <ele>1188.032</ele>
        <time>2026-02-15T08:58:49Z</time>
      </trkpt>
      <trkpt lat="41.805873" lon="-1.815015">
        <ele>1191.448</ele>
        <time>2026-02-15T08:59:05Z</time>
      </trkpt>
      <trkpt lat="41.805023" lon="-1.813847">
        <ele>1197.290</ele>
        <time>2026-02-15T08:59:31Z</time>
      </trkpt>
      <trkpt lat="41.804347" lon="-1.813347">
        <ele>1200.466</ele>
        <time>2026-02-15T08:59:47Z</time>
      </trkpt>
      <trkpt lat="41.802668" lon="-1.811408">
        <ele>1213.690</ele>
        <time>2026-02-15T09:00:36Z</time>
      </trkpt>
      <trkpt lat="41.802155" lon="-1.809698">
        <ele>1215.421</ele>
        <time>2026-02-15T09:01:02Z</time>
      </trkpt>
      <trkpt lat="41.801443" lon="-1.808598">
        <ele>1222.226</ele>
        <time>2026-02-15T09:01:26Z</time>
      </trkpt>
      <trkpt lat="41.799895" lon="-1.806752">
        <ele>1232.294</ele>
        <time>2026-02-15T09:02:11Z</time>
      </trkpt>
      <trkpt lat="41.801485" lon="-1.809750">
        <ele>1242.657</ele>
        <time>2026-02-15T09:03:06Z</time>
      </trkpt>
      <trkpt lat="41.801493" lon="-1.811310">
        <ele>1249.422</ele>
        <time>2026-02-15T09:03:33Z</time>
      </trkpt>
      <trkpt lat="41.801110" lon="-1.812192">
        <ele>1253.609</ele>
        <time>2026-02-15T09:03:50Z</time>
      </trkpt>
      <trkpt lat="41.801030" lon="-1.812715">
        <ele>1255.251</ele>
        <time>2026-02-15T09:03:58Z</time>
      </trkpt>
      <trkpt lat="41.801178" lon="-1.813537">
        <ele>1258.064</ele>
        <time>2026-02-15T09:04:12Z</time>
      </trkpt>
      <trkpt lat="41.801838" lon="-1.814740">
        <ele>1263.499</ele>
        <time>2026-02-15T09:04:35Z</time>
      </trkpt>
      <trkpt lat="41.803373" lon="-1.816685">
        <ele>1274.415</ele>
        <time>2026-02-15T09:05:22Z</time>
      </trkpt>
      <trkpt lat="41.800255" lon="-1.814920">
        <ele>1291.057</ele>
        <time>2026-02-15T09:06:39Z</time>
      </trkpt>
      <trkpt lat="41.799662" lon="-1.814428">
        <ele>1294.663</ele>
        <time>2026-02-15T09:06:56Z</time>
      </trkpt>
      <trkpt lat="41.799447" lon="-1.813938">
        <ele>1296.027</ele>
        <time>2026-02-15T09:07:07Z</time>
      </trkpt>
      <trkpt lat="41.799465" lon="-1.813285">
        <ele>1297.048</ele>
        <time>2026-02-15T09:07:15Z</time>
      </trkpt>
      <trkpt lat="41.800028" lon="-1.810880">
        <ele>1306.643</ele>
        <time>2026-02-15T09:07:58Z</time>
      </trkpt>
      <trkpt lat="41.799277" lon="-1.809062">
        <ele>1313.683</ele>
        <time>2026-02-15T09:08:29Z</time>
      </trkpt>
      <trkpt lat="41.798767" lon="-1.808955">
        <ele>1316.625</ele>
        <time>2026-02-15T09:08:42Z</time>
      </trkpt>
      <trkpt lat="41.798188" lon="-1.808118">
        <ele>1320.417</ele>
        <time>2026-02-15T09:09:01Z</time>
      </trkpt>
      <trkpt lat="41.797278" lon="-1.807392">
        <ele>1325.609</ele>
        <time>2026-02-15T09:09:26Z</time>
      </trkpt>
      <trkpt lat="41.796897" lon="-1.807392">
        <ele>1327.810</ele>
        <time>2026-02-15T09:09:35Z</time>
      </trkpt>
      <trkpt lat="41.796360" lon="-1.807673">
        <ele>1330.883</ele>
        <time>2026-02-15T09:09:48Z</time>
      </trkpt>
      <trkpt lat="41.795198" lon="-1.808703">
        <ele>1344.658</ele>
        <time>2026-02-15T09:10:29Z</time>
      </trkpt>
      <trkpt lat="41.794428" lon="-1.809080">
        <ele>1351.434</ele>
        <time>2026-02-15T09:10:54Z</time>
      </trkpt>
      <trkpt lat="41.794058" lon="-1.809047">
        <ele>1352.836</ele>
        <time>2026-02-15T09:11:00Z</time>
      </trkpt>
      <trkpt lat="41.793302" lon="-1.809398">
        <ele>1358.692</ele>
        <time>2026-02-15T09:11:27Z</time>
      </trkpt>
      <trkpt lat="41.795413" lon="-1.809312">
        <ele>1369.456</ele>
        <time>2026-02-15T09:12:20Z</time>
      </trkpt>
      <trkpt lat="41.796258" lon="-1.809073">
        <ele>1373.077</ele>
        <time>2026-02-15T09:12:43Z</time>
      </trkpt>
      <trkpt lat="41.796758" lon="-1.809218">
        <ele>1375.682</ele>
        <time>2026-02-15T09:12:55Z</time>
      </trkpt>
      <trkpt lat="41.797180" lon="-1.809592">
        <ele>1378.415</ele>
        <time>2026-02-15T09:13:07Z</time>
      </trkpt>
      <trkpt lat="41.797835" lon="-1.811130">
        <ele>1386.665</ele>
        <time>2026-02-15T09:13:44Z</time>
      </trkpt>
      <trkpt lat="41.797825" lon="-1.811643">
        <ele>1388.611</ele>
        <time>2026-02-15T09:13:56Z</time>
      </trkpt>
      <trkpt lat="41.796368" lon="-1.814553">
        <ele>1403.809</ele>
        <time>2026-02-15T09:15:09Z</time>
      </trkpt>
      <trkpt lat="41.796243" lon="-1.814315">
        <ele>1407.253</ele>
        <time>2026-02-15T09:15:18Z</time>
      </trkpt>
      <trkpt lat="41.796613" lon="-1.812732">
        <ele>1413.816</ele>
        <time>2026-02-15T09:15:55Z</time>
      </trkpt>
      <trkpt lat="41.797005" lon="-1.811698">
        <ele>1417.821</ele>
        <time>2026-02-15T09:16:17Z</time>
      </trkpt>
      <trkpt lat="41.796833" lon="-1.811180">
        <ele>1420.017</ele>
        <time>2026-02-15T09:16:27Z</time>
      </trkpt>
      <trkpt lat="41.796448" lon="-1.810780">
        <ele>1422.069</ele>
        <time>2026-02-15T09:16:37Z</time>
      </trkpt>
      <trkpt lat="41.795713" lon="-1.810797">
        <ele>1423.645</ele>
        <time>2026-02-15T09:16:55Z</time>
      </trkpt>
      <trkpt lat="41.793592" lon="-1.812085">
        <ele>1434.069</ele>
        <time>2026-02-15T09:17:54Z</time>
      </trkpt>
      <trkpt lat="41.791842" lon="-1.812530">
        <ele>1444.060</ele>
        <time>2026-02-15T09:18:40Z</time>
      </trkpt>
      <trkpt lat="41.791383" lon="-1.812447">
        <ele>1446.075</ele>
        <time>2026-02-15T09:18:53Z</time>
      </trkpt>
      <trkpt lat="41.790922" lon="-1.812160">
        <ele>1448.044</ele>
        <time>2026-02-15T09:19:06Z</time>
      </trkpt>
      <trkpt lat="41.790643" lon="-1.811815">
        <ele>1450.005</ele>
        <time>2026-02-15T09:19:16Z</time>
      </trkpt>
      <trkpt lat="41.790418" lon="-1.811105">
        <ele>1452.215</ele>
        <time>2026-02-15T09:19:34Z</time>
      </trkpt>
      <trkpt lat="41.790378" lon="-1.811402">
        <ele>1453.809</ele>
        <time>2026-02-15T09:19:42Z</time>
      </trkpt>
      <trkpt lat="41.790553" lon="-1.812000">
        <ele>1455.626</ele>
        <time>2026-02-15T09:19:55Z</time>
      </trkpt>
      <trkpt lat="41.790995" lon="-1.812713">
        <ele>1459.659</ele>
        <time>2026-02-15T09:20:15Z</time>
      </trkpt>
      <trkpt lat="41.793852" lon="-1.813927">
        <ele>1470.664</ele>
        <time>2026-02-15T09:21:28Z</time>
      </trkpt>
      <trkpt lat="41.793985" lon="-1.814345">
        <ele>1472.040</ele>
        <time>2026-02-15T09:21:38Z</time>
      </trkpt>
      <trkpt lat="41.793903" lon="-1.814897">
        <ele>1474.672</ele>
        <time>2026-02-15T09:21:53Z</time>
      </trkpt>
      <trkpt lat="41.794267" lon="-1.818305">
        <ele>1486.288</ele>
        <time>2026-02-15T09:22:56Z</time>
      </trkpt>
      <trkpt lat="41.795305" lon="-1.820502">
        <ele>1495.472</ele>
        <time>2026-02-15T09:23:44Z</time>
      </trkpt>
      <trkpt lat="41.795805" lon="-1.820607">
        <ele>1498.283</ele>
        <time>2026-02-15T09:23:58Z</time>
      </trkpt>
      <trkpt lat="41.796938" lon="-1.820227">
        <ele>1502.678</ele>
        <time>2026-02-15T09:24:29Z</time>
      </trkpt>
      <trkpt lat="41.797260" lon="-1.820377">
        <ele>1503.416</ele>
        <time>2026-02-15T09:24:36Z</time>
      </trkpt>
      <trkpt lat="41.798660" lon="-1.822098">
        <ele>1513.876</ele>
        <time>2026-02-15T09:25:24Z</time>
      </trkpt>
      <trkpt lat="41.801478" lon="-1.823988">
        <ele>1530.213</ele>
        <time>2026-02-15T09:26:47Z</time>
      </trkpt>
      <trkpt lat="41.802655" lon="-1.825732">
        <ele>1541.809</ele>
        <time>2026-02-15T09:27:38Z</time>
      </trkpt>
      <trkpt lat="41.801645" lon="-1.824682">
        <ele>1549.483</ele>
        <time>2026-02-15T09:28:17Z</time>
      </trkpt>
      <trkpt lat="41.800570" lon="-1.824128">
        <ele>1554.476</ele>
        <time>2026-02-15T09:28:47Z</time>
      </trkpt>
      <trkpt lat="41.796793" lon="-1.823082">
        <ele>1576.041</ele>
        <time>2026-02-15T09:30:37Z</time>
      </trkpt>
      <trkpt lat="41.795063" lon="-1.822737">
        <ele>1584.487</ele>
        <time>2026-02-15T09:31:27Z</time>
      </trkpt>
      <trkpt lat="41.792758" lon="-1.820867">
        <ele>1598.469</ele>
        <time>2026-02-15T09:32:50Z</time>
      </trkpt>
      <trkpt lat="41.792208" lon="-1.820227">
        <ele>1601.435</ele>
        <time>2026-02-15T09:33:12Z</time>
      </trkpt>
      <trkpt lat="41.791313" lon="-1.817802">
        <ele>1613.419</ele>
        <time>2026-02-15T09:34:35Z</time>
      </trkpt>
      <trkpt lat="41.790823" lon="-1.817468">
        <ele>1620.050</ele>
        <time>2026-02-15T09:35:20Z</time>
      </trkpt>
      <trkpt lat="41.790357" lon="-1.817548">
        <ele>1624.215</ele>
        <time>2026-02-15T09:36:52Z</time>
      </trkpt>
    </trkseg>
  </trk></gpx>