<?xml version="1.0" encoding="UTF-8"?>
<gpx creator="Wikiloc - https://www.wikiloc.com" version="1.1" xmlns="http://www.topografix.com/GPX/1/1" xmlns:xsi="http://www.w3.org/2001/XMLSchema-instance" xsi:schemaLocation="http://www.topografix.com/GPX/1/1 http://www.topografix.com/GPX/1/1/gpx.xsd">
  <metadata>
    <name>Wikiloc - Subida al refugio de Linza 1.343m</name>
    <link href="https://www.wikiloc.com/cycling-trails/subida-al-refugio-de-linza-1-343m-218503659">
      <text>Subida al refugio de Linza 1.343m - Wikiloc on Wikiloc</text>
    </link>
    <time>2025-06-03T14:30:04Z</time>
  </metadata>
  <trk>
    <name>Subida al refugio de Linza 1.343m - Wikiloc</name>
    <cmt></cmt>
    <desc></desc>
    <trkseg>
      <trkpt lat="42.749753" lon="-0.825863">
        <ele>842.643</ele>
        <time>2025-06-03T13:24:27Z</time>
      </trkpt>
      <trkpt lat="42.750936" lon="-0.826873">
        <ele>846.364</ele>
        <time>2025-06-03T13:25:01Z</time>
      </trkpt>
      <trkpt lat="42.752915" lon="-0.828097">
        <ele>850.510</ele>
        <time>2025-06-03T13:25:55Z</time>
      </trkpt>
      <trkpt lat="42.755567" lon="-0.826797">
        <ele>854.009</ele>
        <time>2025-06-03T13:28:22Z</time>
      </trkpt>
      <trkpt lat="42.755902" lon="-0.826332">
        <ele>854.326</ele>
        <time>2025-06-03T13:28:31Z</time>
      </trkpt>
      <trkpt lat="42.756005" lon="-0.825588">
        <ele>855.815</ele>
        <time>2025-06-03T13:28:42Z</time>
      </trkpt>
      <trkpt lat="42.756410" lon="-0.824758">
        <ele>859.152</ele>
        <time>2025-06-03T13:28:58Z</time>
      </trkpt>
      <trkpt lat="42.756600" lon="-0.824478">
        <ele>859.869</ele>
        <time>2025-06-03T13:29:05Z</time>
      </trkpt>
      <trkpt lat="42.756818" lon="-0.824405">
        <ele>860.774</ele>
        <time>2025-06-03T13:29:12Z</time>
      </trkpt>
      <trkpt lat="42.757077" lon="-0.824662">
        <ele>862.847</ele>
        <time>2025-06-03T13:29:19Z</time>
      </trkpt>
      <trkpt lat="42.757066" lon="-0.825433">
        <ele>865.050</ele>
        <time>2025-06-03T13:29:33Z</time>
      </trkpt>
      <trkpt lat="42.756845" lon="-0.826108">
        <ele>869.339</ele>
        <time>2025-06-03T13:29:47Z</time>
      </trkpt>
      <trkpt lat="42.756867" lon="-0.827315">
        <ele>875.313</ele>
        <time>2025-06-03T13:30:12Z</time>
      </trkpt>
      <trkpt lat="42.757073" lon="-0.827855">
        <ele>875.752</ele>
        <time>2025-06-03T13:30:23Z</time>
      </trkpt>
      <trkpt lat="42.757295" lon="-0.828048">
        <ele>875.853</ele>
        <time>2025-06-03T13:30:29Z</time>
      </trkpt>
      <trkpt lat="42.758527" lon="-0.828537">
        <ele>877.208</ele>
        <time>2025-06-03T13:30:57Z</time>
      </trkpt>
      <trkpt lat="42.759214" lon="-0.828455">
        <ele>877.509</ele>
        <time>2025-06-03T13:31:08Z</time>
      </trkpt>
      <trkpt lat="42.760263" lon="-0.829087">
        <ele>876.387</ele>
        <time>2025-06-03T13:31:27Z</time>
      </trkpt>
      <trkpt lat="42.761865" lon="-0.829032">
        <ele>872.556</ele>
        <time>2025-06-03T13:31:48Z</time>
      </trkpt>
      <trkpt lat="42.762502" lon="-0.828825">
        <ele>870.873</ele>
        <time>2025-06-03T13:31:57Z</time>
      </trkpt>
      <trkpt lat="42.763703" lon="-0.829258">
        <ele>868.670</ele>
        <time>2025-06-03T13:32:14Z</time>
      </trkpt>
      <trkpt lat="42.764104" lon="-0.829475">
        <ele>868.295</ele>
        <time>2025-06-03T13:32:23Z</time>
      </trkpt>
      <trkpt lat="42.764180" lon="-0.829642">
        <ele>867.988</ele>
        <time>2025-06-03T13:32:31Z</time>
      </trkpt>
      <trkpt lat="42.764493" lon="-0.829282">
        <ele>866.861</ele>
        <time>2025-06-03T13:32:47Z</time>
      </trkpt>
      <trkpt lat="42.764798" lon="-0.829122">
        <ele>865.630</ele>
        <time>2025-06-03T13:32:53Z</time>
      </trkpt>
      <trkpt lat="42.765561" lon="-0.829400">
        <ele>864.514</ele>
        <time>2025-06-03T13:33:04Z</time>
      </trkpt>
      <trkpt lat="42.766419" lon="-0.829348">
        <ele>864.928</ele>
        <time>2025-06-03T13:33:16Z</time>
      </trkpt>
      <trkpt lat="42.768701" lon="-0.828282">
        <ele>864.989</ele>
        <time>2025-06-03T13:33:52Z</time>
      </trkpt>
      <trkpt lat="42.770463" lon="-0.828370">
        <ele>866.417</ele>
        <time>2025-06-03T13:34:15Z</time>
      </trkpt>
      <trkpt lat="42.771459" lon="-0.827922">
        <ele>868.809</ele>
        <time>2025-06-03T13:34:34Z</time>
      </trkpt>
      <trkpt lat="42.772542" lon="-0.827148">
        <ele>869.074</ele>
        <time>2025-06-03T13:34:55Z</time>
      </trkpt>
      <trkpt lat="42.773728" lon="-0.827307">
        <ele>876.363</ele>
        <time>2025-06-03T13:35:18Z</time>
      </trkpt>
      <trkpt lat="42.775041" lon="-0.827112">
        <ele>881.150</ele>
        <time>2025-06-03T13:35:48Z</time>
      </trkpt>
      <trkpt lat="42.776074" lon="-0.826388">
        <ele>881.067</ele>
        <time>2025-06-03T13:36:12Z</time>
      </trkpt>
      <trkpt lat="42.776891" lon="-0.826032">
        <ele>881.152</ele>
        <time>2025-06-03T13:36:25Z</time>
      </trkpt>
      <trkpt lat="42.777539" lon="-0.825588">
        <ele>880.585</ele>
        <time>2025-06-03T13:36:37Z</time>
      </trkpt>
      <trkpt lat="42.778325" lon="-0.824783">
        <ele>882.528</ele>
        <time>2025-06-03T13:36:53Z</time>
      </trkpt>
      <trkpt lat="42.779267" lon="-0.824370">
        <ele>888.377</ele>
        <time>2025-06-03T13:37:12Z</time>
      </trkpt>
      <trkpt lat="42.781106" lon="-0.825078">
        <ele>890.161</ele>
        <time>2025-06-03T13:37:42Z</time>
      </trkpt>
      <trkpt lat="42.783109" lon="-0.825025">
        <ele>890.555</ele>
        <time>2025-06-03T13:38:15Z</time>
      </trkpt>
      <trkpt lat="42.783578" lon="-0.825147">
        <ele>893.407</ele>
        <time>2025-06-03T13:38:23Z</time>
      </trkpt>
      <trkpt lat="42.784074" lon="-0.825368">
        <ele>896.517</ele>
        <time>2025-06-03T13:38:33Z</time>
      </trkpt>
      <trkpt lat="42.784886" lon="-0.825993">
        <ele>901.709</ele>
        <time>2025-06-03T13:38:53Z</time>
      </trkpt>
      <trkpt lat="42.785600" lon="-0.825937">
        <ele>904.737</ele>
        <time>2025-06-03T13:39:11Z</time>
      </trkpt>
      <trkpt lat="42.786542" lon="-0.825525">
        <ele>908.766</ele>
        <time>2025-06-03T13:39:36Z</time>
      </trkpt>
      <trkpt lat="42.787290" lon="-0.825483">
        <ele>911.373</ele>
        <time>2025-06-03T13:39:53Z</time>
      </trkpt>
      <trkpt lat="42.787648" lon="-0.825670">
        <ele>911.860</ele>
        <time>2025-06-03T13:39:58Z</time>
      </trkpt>
      <trkpt lat="42.788812" lon="-0.826972">
        <ele>911.925</ele>
        <time>2025-06-03T13:40:26Z</time>
      </trkpt>
      <trkpt lat="42.789331" lon="-0.827058">
        <ele>910.828</ele>
        <time>2025-06-03T13:40:35Z</time>
      </trkpt>
      <trkpt lat="42.790322" lon="-0.827447">
        <ele>911.231</ele>
        <time>2025-06-03T13:40:52Z</time>
      </trkpt>
      <trkpt lat="42.790807" lon="-0.827292">
        <ele>911.450</ele>
        <time>2025-06-03T13:41:03Z</time>
      </trkpt>
      <trkpt lat="42.791539" lon="-0.827623">
        <ele>910.074</ele>
        <time>2025-06-03T13:41:14Z</time>
      </trkpt>
      <trkpt lat="42.792295" lon="-0.828208">
        <ele>909.036</ele>
        <time>2025-06-03T13:41:27Z</time>
      </trkpt>
      <trkpt lat="42.794957" lon="-0.829568">
        <ele>912.917</ele>
        <time>2025-06-03T13:42:11Z</time>
      </trkpt>
      <trkpt lat="42.795777" lon="-0.830232">
        <ele>914.918</ele>
        <time>2025-06-03T13:42:27Z</time>
      </trkpt>
      <trkpt lat="42.796502" lon="-0.830637">
        <ele>917.909</ele>
        <time>2025-06-03T13:42:42Z</time>
      </trkpt>
      <trkpt lat="42.797177" lon="-0.831337">
        <ele>921.475</ele>
        <time>2025-06-03T13:42:59Z</time>
      </trkpt>
      <trkpt lat="42.797704" lon="-0.831603">
        <ele>924.794</ele>
        <time>2025-06-03T13:43:11Z</time>
      </trkpt>
      <trkpt lat="42.798463" lon="-0.831528">
        <ele>929.741</ele>
        <time>2025-06-03T13:43:28Z</time>
      </trkpt>
      <trkpt lat="42.799161" lon="-0.831625">
        <ele>933.168</ele>
        <time>2025-06-03T13:43:46Z</time>
      </trkpt>
      <trkpt lat="42.799645" lon="-0.831437">
        <ele>935.513</ele>
        <time>2025-06-03T13:44:02Z</time>
      </trkpt>
      <trkpt lat="42.800355" lon="-0.831375">
        <ele>938.126</ele>
        <time>2025-06-03T13:44:13Z</time>
      </trkpt>
      <trkpt lat="42.801076" lon="-0.831488">
        <ele>940.619</ele>
        <time>2025-06-03T13:44:26Z</time>
      </trkpt>
      <trkpt lat="42.801763" lon="-0.832077">
        <ele>942.988</ele>
        <time>2025-06-03T13:44:43Z</time>
      </trkpt>
      <trkpt lat="42.802415" lon="-0.833002">
        <ele>944.662</ele>
        <time>2025-06-03T13:45:04Z</time>
      </trkpt>
      <trkpt lat="42.803319" lon="-0.832388">
        <ele>942.257</ele>
        <time>2025-06-03T13:45:26Z</time>
      </trkpt>
      <trkpt lat="42.804120" lon="-0.832567">
        <ele>941.300</ele>
        <time>2025-06-03T13:45:37Z</time>
      </trkpt>
      <trkpt lat="42.804265" lon="-0.832737">
        <ele>941.220</ele>
        <time>2025-06-03T13:45:40Z</time>
      </trkpt>
      <trkpt lat="42.804826" lon="-0.832893">
        <ele>941.009</ele>
        <time>2025-06-03T13:45:48Z</time>
      </trkpt>
      <trkpt lat="42.805570" lon="-0.832657">
        <ele>940.547</ele>
        <time>2025-06-03T13:46:01Z</time>
      </trkpt>
      <trkpt lat="42.806256" lon="-0.832607">
        <ele>942.066</ele>
        <time>2025-06-03T13:46:13Z</time>
      </trkpt>
      <trkpt lat="42.806676" lon="-0.832733">
        <ele>942.053</ele>
        <time>2025-06-03T13:46:20Z</time>
      </trkpt>
      <trkpt lat="42.806913" lon="-0.832670">
        <ele>942.040</ele>
        <time>2025-06-03T13:46:24Z</time>
      </trkpt>
      <trkpt lat="42.808087" lon="-0.831702">
        <ele>943.235</ele>
        <time>2025-06-03T13:46:47Z</time>
      </trkpt>
      <trkpt lat="42.808938" lon="-0.832123">
        <ele>945.568</ele>
        <time>2025-06-03T13:47:02Z</time>
      </trkpt>
      <trkpt lat="42.809468" lon="-0.832225">
        <ele>946.381</ele>
        <time>2025-06-03T13:47:12Z</time>
      </trkpt>
      <trkpt lat="42.810269" lon="-0.832812">
        <ele>948.960</ele>
        <time>2025-06-03T13:47:29Z</time>
      </trkpt>
      <trkpt lat="42.810632" lon="-0.832830">
        <ele>949.964</ele>
        <time>2025-06-03T13:47:36Z</time>
      </trkpt>
      <trkpt lat="42.810899" lon="-0.832672">
        <ele>950.778</ele>
        <time>2025-06-03T13:47:43Z</time>
      </trkpt>
      <trkpt lat="42.811303" lon="-0.832123">
        <ele>952.933</ele>
        <time>2025-06-03T13:47:55Z</time>
      </trkpt>
      <trkpt lat="42.812062" lon="-0.831708">
        <ele>957.126</ele>
        <time>2025-06-03T13:48:12Z</time>
      </trkpt>
      <trkpt lat="42.812028" lon="-0.831843">
        <ele>957.609</ele>
        <time>2025-06-03T13:48:15Z</time>
      </trkpt>
      <trkpt lat="42.812196" lon="-0.831610">
        <ele>958.739</ele>
        <time>2025-06-03T13:48:26Z</time>
      </trkpt>
      <trkpt lat="42.812429" lon="-0.831552">
        <ele>959.448</ele>
        <time>2025-06-03T13:48:31Z</time>
      </trkpt>
      <trkpt lat="42.812902" lon="-0.831127">
        <ele>961.015</ele>
        <time>2025-06-03T13:48:43Z</time>
      </trkpt>
      <trkpt lat="42.813974" lon="-0.830520">
        <ele>963.152</ele>
        <time>2025-06-03T13:49:06Z</time>
      </trkpt>
      <trkpt lat="42.814534" lon="-0.830652">
        <ele>964.237</ele>
        <time>2025-06-03T13:49:16Z</time>
      </trkpt>
      <trkpt lat="42.815553" lon="-0.831452">
        <ele>967.730</ele>
        <time>2025-06-03T13:49:39Z</time>
      </trkpt>
      <trkpt lat="42.816033" lon="-0.831497">
        <ele>969.923</ele>
        <time>2025-06-03T13:49:46Z</time>
      </trkpt>
      <trkpt lat="42.817517" lon="-0.830675">
        <ele>977.312</ele>
        <time>2025-06-03T13:50:25Z</time>
      </trkpt>
      <trkpt lat="42.817979" lon="-0.830145">
        <ele>979.456</ele>
        <time>2025-06-03T13:50:36Z</time>
      </trkpt>
      <trkpt lat="42.818940" lon="-0.830183">
        <ele>980.092</ele>
        <time>2025-06-03T13:50:58Z</time>
      </trkpt>
      <trkpt lat="42.819799" lon="-0.830760">
        <ele>982.173</ele>
        <time>2025-06-03T13:51:18Z</time>
      </trkpt>
      <trkpt lat="42.821370" lon="-0.829792">
        <ele>983.020</ele>
        <time>2025-06-03T13:51:48Z</time>
      </trkpt>
      <trkpt lat="42.821733" lon="-0.830175">
        <ele>984.609</ele>
        <time>2025-06-03T13:51:57Z</time>
      </trkpt>
      <trkpt lat="42.821866" lon="-0.830867">
        <ele>986.481</ele>
        <time>2025-06-03T13:52:10Z</time>
      </trkpt>
      <trkpt lat="42.822385" lon="-0.831495">
        <ele>989.080</ele>
        <time>2025-06-03T13:52:28Z</time>
      </trkpt>
      <trkpt lat="42.822640" lon="-0.831633">
        <ele>989.347</ele>
        <time>2025-06-03T13:52:34Z</time>
      </trkpt>
      <trkpt lat="42.823625" lon="-0.831497">
        <ele>993.454</ele>
        <time>2025-06-03T13:53:02Z</time>
      </trkpt>
      <trkpt lat="42.825139" lon="-0.832917">
        <ele>1004.389</ele>
        <time>2025-06-03T13:53:58Z</time>
      </trkpt>
      <trkpt lat="42.825608" lon="-0.833022">
        <ele>1007.522</ele>
        <time>2025-06-03T13:54:08Z</time>
      </trkpt>
      <trkpt lat="42.825986" lon="-0.833277">
        <ele>1010.955</ele>
        <time>2025-06-03T13:54:20Z</time>
      </trkpt>
      <trkpt lat="42.826791" lon="-0.833415">
        <ele>1018.234</ele>
        <time>2025-06-03T13:54:40Z</time>
      </trkpt>
      <trkpt lat="42.827344" lon="-0.834233">
        <ele>1023.558</ele>
        <time>2025-06-03T13:55:04Z</time>
      </trkpt>
      <trkpt lat="42.827619" lon="-0.835043">
        <ele>1027.652</ele>
        <time>2025-06-03T13:55:24Z</time>
      </trkpt>
      <trkpt lat="42.827950" lon="-0.835483">
        <ele>1030.753</ele>
        <time>2025-06-03T13:55:37Z</time>
      </trkpt>
      <trkpt lat="42.828389" lon="-0.835745">
        <ele>1033.008</ele>
        <time>2025-06-03T13:55:50Z</time>
      </trkpt>
      <trkpt lat="42.828820" lon="-0.836412">
        <ele>1033.709</ele>
        <time>2025-06-03T13:56:10Z</time>
      </trkpt>
      <trkpt lat="42.829270" lon="-0.836510">
        <ele>1034.117</ele>
        <time>2025-06-03T13:56:15Z</time>
      </trkpt>
      <trkpt lat="42.829953" lon="-0.837293">
        <ele>1034.186</ele>
        <time>2025-06-03T13:56:32Z</time>
      </trkpt>
      <trkpt lat="42.830716" lon="-0.837518">
        <ele>1033.913</ele>
        <time>2025-06-03T13:56:42Z</time>
      </trkpt>
      <trkpt lat="42.832017" lon="-0.837038">
        <ele>1041.320</ele>
        <time>2025-06-03T13:57:01Z</time>
      </trkpt>
      <trkpt lat="42.832376" lon="-0.836575">
        <ele>1044.275</ele>
        <time>2025-06-03T13:57:12Z</time>
      </trkpt>
      <trkpt lat="42.833455" lon="-0.835705">
        <ele>1052.098</ele>
        <time>2025-06-03T13:57:39Z</time>
      </trkpt>
      <trkpt lat="42.833653" lon="-0.835417">
        <ele>1051.511</ele>
        <time>2025-06-03T13:57:48Z</time>
      </trkpt>
      <trkpt lat="42.834027" lon="-0.835600">
        <ele>1049.570</ele>
        <time>2025-06-03T13:58:00Z</time>
      </trkpt>
      <trkpt lat="42.834275" lon="-0.836040">
        <ele>1047.054</ele>
        <time>2025-06-03T13:58:08Z</time>
      </trkpt>
      <trkpt lat="42.834428" lon="-0.836025">
        <ele>1045.914</ele>
        <time>2025-06-03T13:58:11Z</time>
      </trkpt>
      <trkpt lat="42.836183" lon="-0.834318">
        <ele>1039.754</ele>
        <time>2025-06-03T13:58:35Z</time>
      </trkpt>
      <trkpt lat="42.837338" lon="-0.834207">
        <ele>1043.009</ele>
        <time>2025-06-03T13:58:53Z</time>
      </trkpt>
      <trkpt lat="42.838040" lon="-0.834427">
        <ele>1049.009</ele>
        <time>2025-06-03T13:59:13Z</time>
      </trkpt>
      <trkpt lat="42.838193" lon="-0.834363">
        <ele>1050.383</ele>
        <time>2025-06-03T13:59:18Z</time>
      </trkpt>
      <trkpt lat="42.838384" lon="-0.834098">
        <ele>1052.672</ele>
        <time>2025-06-03T13:59:28Z</time>
      </trkpt>
      <trkpt lat="42.838479" lon="-0.833682">
        <ele>1054.579</ele>
        <time>2025-06-03T13:59:37Z</time>
      </trkpt>
      <trkpt lat="42.838483" lon="-0.832142">
        <ele>1058.496</ele>
        <time>2025-06-03T14:00:11Z</time>
      </trkpt>
      <trkpt lat="42.839376" lon="-0.830430">
        <ele>1068.271</ele>
        <time>2025-06-03T14:00:52Z</time>
      </trkpt>
      <trkpt lat="42.840283" lon="-0.830097">
        <ele>1072.914</ele>
        <time>2025-06-03T14:01:19Z</time>
      </trkpt>
      <trkpt lat="42.840829" lon="-0.829442">
        <ele>1073.937</ele>
        <time>2025-06-03T14:01:39Z</time>
      </trkpt>
      <trkpt lat="42.841714" lon="-0.828817">
        <ele>1072.656</ele>
        <time>2025-06-03T14:02:06Z</time>
      </trkpt>
      <trkpt lat="42.842279" lon="-0.828592">
        <ele>1063.470</ele>
        <time>2025-06-03T14:02:28Z</time>
      </trkpt>
      <trkpt lat="42.842771" lon="-0.828182">
        <ele>1060.628</ele>
        <time>2025-06-03T14:02:45Z</time>
      </trkpt>
      <trkpt lat="42.843423" lon="-0.827248">
        <ele>1072.789</ele>
        <time>2025-06-03T14:03:11Z</time>
      </trkpt>
      <trkpt lat="42.843690" lon="-0.827140">
        <ele>1066.817</ele>
        <time>2025-06-03T14:03:22Z</time>
      </trkpt>
      <trkpt lat="42.843972" lon="-0.827248">
        <ele>1062.509</ele>
        <time>2025-06-03T14:03:35Z</time>
      </trkpt>
      <trkpt lat="42.844281" lon="-0.827203">
        <ele>1068.014</ele>
        <time>2025-06-03T14:03:43Z</time>
      </trkpt>
      <trkpt lat="42.845490" lon="-0.826298">
        <ele>1094.873</ele>
        <time>2025-06-03T14:04:27Z</time>
      </trkpt>
      <trkpt lat="42.846616" lon="-0.826123">
        <ele>1107.560</ele>
        <time>2025-06-03T14:05:00Z</time>
      </trkpt>
      <trkpt lat="42.846971" lon="-0.825848">
        <ele>1123.587</ele>
        <time>2025-06-03T14:05:10Z</time>
      </trkpt>
      <trkpt lat="42.847425" lon="-0.826020">
        <ele>1128.422</ele>
        <time>2025-06-03T14:05:27Z</time>
      </trkpt>
      <trkpt lat="42.848188" lon="-0.826897">
        <ele>1131.545</ele>
        <time>2025-06-03T14:05:31Z</time>
      </trkpt>
      <trkpt lat="42.848573" lon="-0.826958">
        <ele>1135.628</ele>
        <time>2025-06-03T14:05:41Z</time>
      </trkpt>
      <trkpt lat="42.849031" lon="-0.826425">
        <ele>1142.097</ele>
        <time>2025-06-03T14:05:57Z</time>
      </trkpt>
      <trkpt lat="42.850366" lon="-0.825321">
        <ele>1154.961</ele>
        <time>2025-06-03T14:06:44Z</time>
      </trkpt>
      <trkpt lat="42.850831" lon="-0.825410">
        <ele>1157.184</ele>
        <time>2025-06-03T14:06:54Z</time>
      </trkpt>
      <trkpt lat="42.851480" lon="-0.825967">
        <ele>1163.607</ele>
        <time>2025-06-03T14:07:17Z</time>
      </trkpt>
      <trkpt lat="42.852166" lon="-0.825807">
        <ele>1169.517</ele>
        <time>2025-06-03T14:07:35Z</time>
      </trkpt>
      <trkpt lat="42.853265" lon="-0.826157">
        <ele>1175.409</ele>
        <time>2025-06-03T14:08:06Z</time>
      </trkpt>
      <trkpt lat="42.853738" lon="-0.826660">
        <ele>1176.740</ele>
        <time>2025-06-03T14:08:21Z</time>
      </trkpt>
      <trkpt lat="42.855256" lon="-0.826458">
        <ele>1176.879</ele>
        <time>2025-06-03T14:08:47Z</time>
      </trkpt>
      <trkpt lat="42.856198" lon="-0.826677">
        <ele>1179.786</ele>
        <time>2025-06-03T14:09:09Z</time>
      </trkpt>
      <trkpt lat="42.858182" lon="-0.825425">
        <ele>1179.213</ele>
        <time>2025-06-03T14:09:42Z</time>
      </trkpt>
      <trkpt lat="42.858556" lon="-0.824907">
        <ele>1182.448</ele>
        <time>2025-06-03T14:09:55Z</time>
      </trkpt>
      <trkpt lat="42.858804" lon="-0.823923">
        <ele>1188.761</ele>
        <time>2025-06-03T14:10:17Z</time>
      </trkpt>
      <trkpt lat="42.859139" lon="-0.823308">
        <ele>1193.994</ele>
        <time>2025-06-03T14:10:31Z</time>
      </trkpt>
      <trkpt lat="42.859674" lon="-0.822945">
        <ele>1198.633</ele>
        <time>2025-06-03T14:10:46Z</time>
      </trkpt>
      <trkpt lat="42.860005" lon="-0.822503">
        <ele>1204.027</ele>
        <time>2025-06-03T14:11:05Z</time>
      </trkpt>
      <trkpt lat="42.861283" lon="-0.822465">
        <ele>1213.448</ele>
        <time>2025-06-03T14:11:38Z</time>
      </trkpt>
      <trkpt lat="42.861798" lon="-0.822147">
        <ele>1214.261</ele>
        <time>2025-06-03T14:11:53Z</time>
      </trkpt>
      <trkpt lat="42.862706" lon="-0.821928">
        <ele>1211.417</ele>
        <time>2025-06-03T14:12:12Z</time>
      </trkpt>
      <trkpt lat="42.863278" lon="-0.820040">
        <ele>1209.309</ele>
        <time>2025-06-03T14:12:32Z</time>
      </trkpt>
      <trkpt lat="42.864221" lon="-0.818400">
        <ele>1210.736</ele>
        <time>2025-06-03T14:12:53Z</time>
      </trkpt>
      <trkpt lat="42.864442" lon="-0.817367">
        <ele>1211.415</ele>
        <time>2025-06-03T14:13:07Z</time>
      </trkpt>
      <trkpt lat="42.864984" lon="-0.816082">
        <ele>1209.292</ele>
        <time>2025-06-03T14:13:24Z</time>
      </trkpt>
      <trkpt lat="42.865201" lon="-0.814338">
        <ele>1207.399</ele>
        <time>2025-06-03T14:13:39Z</time>
      </trkpt>
      <trkpt lat="42.865129" lon="-0.813775">
        <ele>1207.894</ele>
        <time>2025-06-03T14:13:45Z</time>
      </trkpt>
      <trkpt lat="42.864648" lon="-0.812637">
        <ele>1209.987</ele>
        <time>2025-06-03T14:14:02Z</time>
      </trkpt>
      <trkpt lat="42.864614" lon="-0.811185">
        <ele>1215.750</ele>
        <time>2025-06-03T14:14:30Z</time>
      </trkpt>
      <trkpt lat="42.864842" lon="-0.810760">
        <ele>1218.369</ele>
        <time>2025-06-03T14:14:40Z</time>
      </trkpt>
      <trkpt lat="42.865270" lon="-0.810800">
        <ele>1221.033</ele>
        <time>2025-06-03T14:14:52Z</time>
      </trkpt>
      <trkpt lat="42.866693" lon="-0.812588">
        <ele>1233.312</ele>
        <time>2025-06-03T14:15:48Z</time>
      </trkpt>
      <trkpt lat="42.867539" lon="-0.813215">
        <ele>1240.332</ele>
        <time>2025-06-03T14:16:16Z</time>
      </trkpt>
      <trkpt lat="42.868875" lon="-0.813287">
        <ele>1249.705</ele>
        <time>2025-06-03T14:16:54Z</time>
      </trkpt>
      <trkpt lat="42.869428" lon="-0.813498">
        <ele>1254.209</ele>
        <time>2025-06-03T14:17:10Z</time>
      </trkpt>
      <trkpt lat="42.870046" lon="-0.813848">
        <ele>1257.733</ele>
        <time>2025-06-03T14:17:28Z</time>
      </trkpt>
      <trkpt lat="42.870763" lon="-0.814708">
        <ele>1262.172</ele>
        <time>2025-06-03T14:17:53Z</time>
      </trkpt>
      <trkpt lat="42.871411" lon="-0.814525">
        <ele>1265.049</ele>
        <time>2025-06-03T14:18:13Z</time>
      </trkpt>
      <trkpt lat="42.871938" lon="-0.814767">
        <ele>1266.876</ele>
        <time>2025-06-03T14:18:25Z</time>
      </trkpt>
      <trkpt lat="42.872258" lon="-0.814737">
        <ele>1266.841</ele>
        <time>2025-06-03T14:18:33Z</time>
      </trkpt>
      <trkpt lat="42.872796" lon="-0.814095">
        <ele>1265.174</ele>
        <time>2025-06-03T14:18:46Z</time>
      </trkpt>
      <trkpt lat="42.873288" lon="-0.813825">
        <ele>1264.757</ele>
        <time>2025-06-03T14:18:55Z</time>
      </trkpt>
      <trkpt lat="42.873593" lon="-0.813505">
        <ele>1265.196</ele>
        <time>2025-06-03T14:19:02Z</time>
      </trkpt>
      <trkpt lat="42.874482" lon="-0.813440">
        <ele>1264.870</ele>
        <time>2025-06-03T14:19:16Z</time>
      </trkpt>
      <trkpt lat="42.874780" lon="-0.812902">
        <ele>1263.761</ele>
        <time>2025-06-03T14:19:24Z</time>
      </trkpt>
      <trkpt lat="42.874856" lon="-0.812427">
        <ele>1263.021</ele>
        <time>2025-06-03T14:19:29Z</time>
      </trkpt>
      <trkpt lat="42.875207" lon="-0.812215">
        <ele>1262.413</ele>
        <time>2025-06-03T14:19:34Z</time>
      </trkpt>
      <trkpt lat="42.875371" lon="-0.811955">
        <ele>1262.009</ele>
        <time>2025-06-03T14:19:39Z</time>
      </trkpt>
      <trkpt lat="42.876550" lon="-0.811843">
        <ele>1260.248</ele>
        <time>2025-06-03T14:19:56Z</time>
      </trkpt>
      <trkpt lat="42.877076" lon="-0.810705">
        <ele>1260.177</ele>
        <time>2025-06-03T14:20:11Z</time>
      </trkpt>
      <trkpt lat="42.878133" lon="-0.809355">
        <ele>1263.554</ele>
        <time>2025-06-03T14:20:37Z</time>
      </trkpt>
      <trkpt lat="42.878495" lon="-0.808592">
        <ele>1265.351</ele>
        <time>2025-06-03T14:20:48Z</time>
      </trkpt>
      <trkpt lat="42.878594" lon="-0.807690">
        <ele>1270.826</ele>
        <time>2025-06-03T14:21:04Z</time>
      </trkpt>
      <trkpt lat="42.878762" lon="-0.807483">
        <ele>1272.829</ele>
        <time>2025-06-03T14:21:09Z</time>
      </trkpt>
      <trkpt lat="42.879109" lon="-0.807545">
        <ele>1274.982</ele>
        <time>2025-06-03T14:21:17Z</time>
      </trkpt>
      <trkpt lat="42.880731" lon="-0.808310">
        <ele>1282.131</ele>
        <time>2025-06-03T14:21:53Z</time>
      </trkpt>
      <trkpt lat="42.880921" lon="-0.808530">
        <ele>1282.755</ele>
        <time>2025-06-03T14:22:01Z</time>
      </trkpt>
      <trkpt lat="42.881806" lon="-0.809025">
        <ele>1283.448</ele>
        <time>2025-06-03T14:22:23Z</time>
      </trkpt>
      <trkpt lat="42.883130" lon="-0.808702">
        <ele>1276.661</ele>
        <time>2025-06-03T14:22:44Z</time>
      </trkpt>
      <trkpt lat="42.884164" lon="-0.808935">
        <ele>1277.017</ele>
        <time>2025-06-03T14:22:58Z</time>
      </trkpt>
      <trkpt lat="42.884381" lon="-0.808868">
        <ele>1277.309</ele>
        <time>2025-06-03T14:23:02Z</time>
      </trkpt>
      <trkpt lat="42.885354" lon="-0.807162">
        <ele>1282.896</ele>
        <time>2025-06-03T14:23:27Z</time>
      </trkpt>
      <trkpt lat="42.885652" lon="-0.805680">
        <ele>1285.835</ele>
        <time>2025-06-03T14:23:49Z</time>
      </trkpt>
      <trkpt lat="42.885976" lon="-0.804940">
        <ele>1287.752</ele>
        <time>2025-06-03T14:24:03Z</time>
      </trkpt>
      <trkpt lat="42.886720" lon="-0.804178">
        <ele>1290.719</ele>
        <time>2025-06-03T14:24:25Z</time>
      </trkpt>
      <trkpt lat="42.887223" lon="-0.803363">
        <ele>1291.254</ele>
        <time>2025-06-03T14:24:45Z</time>
      </trkpt>
      <trkpt lat="42.888490" lon="-0.804138">
        <ele>1292.637</ele>
        <time>2025-06-03T14:25:12Z</time>
      </trkpt>
      <trkpt lat="42.891877" lon="-0.806785">
        <ele>1307.660</ele>
        <time>2025-06-03T14:26:44Z</time>
      </trkpt>
      <trkpt lat="42.892354" lon="-0.806575">
        <ele>1309.269</ele>
        <time>2025-06-03T14:26:55Z</time>
      </trkpt>
      <trkpt lat="42.892743" lon="-0.806092">
        <ele>1310.933</ele>
        <time>2025-06-03T14:27:09Z</time>
      </trkpt>
      <trkpt lat="42.893849" lon="-0.805357">
        <ele>1315.233</ele>
        <time>2025-06-03T14:27:34Z</time>
      </trkpt>
      <trkpt lat="42.894509" lon="-0.805205">
        <ele>1317.623</ele>
        <time>2025-06-03T14:27:47Z</time>
      </trkpt>
      <trkpt lat="42.895738" lon="-0.805203">
        <ele>1323.315</ele>
        <time>2025-06-03T14:28:13Z</time>
      </trkpt>
      <trkpt lat="42.896310" lon="-0.804407">
        <ele>1327.609</ele>
        <time>2025-06-03T14:28:32Z</time>
      </trkpt>
      <trkpt lat="42.896791" lon="-0.803140">
        <ele>1331.965</ele>
        <time>2025-06-03T14:28:58Z</time>
      </trkpt>
      <trkpt lat="42.897531" lon="-0.801885">
        <ele>1336.084</ele>
        <time>2025-06-03T14:29:24Z</time>
      </trkpt>
      <trkpt lat="42.897836" lon="-0.800572">
        <ele>1342.521</ele>
        <time>2025-06-03T14:29:48Z</time>
      </trkpt>
      <trkpt lat="42.897859" lon="-0.799835">
        <ele>1345.798</ele>
        <time>2025-06-03T14:30:04Z</time>
      </trkpt>
    </trkseg>
  </trk></gpx>