<?xml version="1.0" encoding="UTF-8"?>
<gpx creator="Wikiloc - https://www.wikiloc.com" version="1.1" xmlns="http://www.topografix.com/GPX/1/1" xmlns:xsi="http://www.w3.org/2001/XMLSchema-instance" xsi:schemaLocation="http://www.topografix.com/GPX/1/1 http://www.topografix.com/GPX/1/1/gpx.xsd">
  <metadata>
    <name>Wikiloc - Subida Miradores Ordesa 2.181m desde Broto</name>
    <link href="https://www.wikiloc.com/gravel-bike-trails/subida-miradores-ordesa-2-181m-desde-broto-215451176">
      <text>Subida Miradores Ordesa 2.181m desde Broto - Wikiloc on Wikiloc</text>
    </link>
    <time>2025-05-24T09:42:04Z</time>
  </metadata>
  <trk>
    <name>Subida Miradores Ordesa 2.181m desde Broto - Wikiloc</name>
    <cmt></cmt>
    <desc></desc>
    <trkseg>
      <trkpt lat="42.604371" lon="-0.122757">
        <ele>893.811</ele>
        <time>2025-05-24T07:29:06Z</time>
      </trkpt>
      <trkpt lat="42.603925" lon="-0.121798">
        <ele>892.221</ele>
        <time>2025-05-24T07:29:30Z</time>
      </trkpt>
      <trkpt lat="42.603112" lon="-0.120788">
        <ele>891.603</ele>
        <time>2025-05-24T07:29:51Z</time>
      </trkpt>
      <trkpt lat="42.602342" lon="-0.120415">
        <ele>892.609</ele>
        <time>2025-05-24T07:30:08Z</time>
      </trkpt>
      <trkpt lat="42.601605" lon="-0.120575">
        <ele>893.433</ele>
        <time>2025-05-24T07:30:24Z</time>
      </trkpt>
      <trkpt lat="42.601113" lon="-0.120545">
        <ele>894.042</ele>
        <time>2025-05-24T07:30:35Z</time>
      </trkpt>
      <trkpt lat="42.600976" lon="-0.120428">
        <ele>894.456</ele>
        <time>2025-05-24T07:30:39Z</time>
      </trkpt>
      <trkpt lat="42.600465" lon="-0.119517">
        <ele>899.085</ele>
        <time>2025-05-24T07:31:03Z</time>
      </trkpt>
      <trkpt lat="42.599347" lon="-0.118662">
        <ele>907.496</ele>
        <time>2025-05-24T07:31:42Z</time>
      </trkpt>
      <trkpt lat="42.598725" lon="-0.117908">
        <ele>912.852</ele>
        <time>2025-05-24T07:32:09Z</time>
      </trkpt>
      <trkpt lat="42.598229" lon="-0.117543">
        <ele>916.652</ele>
        <time>2025-05-24T07:32:26Z</time>
      </trkpt>
      <trkpt lat="42.597680" lon="-0.117600">
        <ele>918.228</ele>
        <time>2025-05-24T07:32:42Z</time>
      </trkpt>
      <trkpt lat="42.597280" lon="-0.117752">
        <ele>920.097</ele>
        <time>2025-05-24T07:32:53Z</time>
      </trkpt>
      <trkpt lat="42.596200" lon="-0.118863">
        <ele>925.618</ele>
        <time>2025-05-24T07:33:29Z</time>
      </trkpt>
      <trkpt lat="42.595944" lon="-0.118815">
        <ele>927.098</ele>
        <time>2025-05-24T07:33:36Z</time>
      </trkpt>
      <trkpt lat="42.595639" lon="-0.118618">
        <ele>928.417</ele>
        <time>2025-05-24T07:33:45Z</time>
      </trkpt>
      <trkpt lat="42.595067" lon="-0.117893">
        <ele>932.209</ele>
        <time>2025-05-24T07:34:10Z</time>
      </trkpt>
      <trkpt lat="42.595220" lon="-0.117885">
        <ele>932.873</ele>
        <time>2025-05-24T07:34:16Z</time>
      </trkpt>
      <trkpt lat="42.595742" lon="-0.118333">
        <ele>938.412</ele>
        <time>2025-05-24T07:34:38Z</time>
      </trkpt>
      <trkpt lat="42.595983" lon="-0.118210">
        <ele>941.256</ele>
        <time>2025-05-24T07:34:48Z</time>
      </trkpt>
      <trkpt lat="42.596074" lon="-0.118018">
        <ele>942.865</ele>
        <time>2025-05-24T07:34:54Z</time>
      </trkpt>
      <trkpt lat="42.596227" lon="-0.117013">
        <ele>950.836</ele>
        <time>2025-05-24T07:35:24Z</time>
      </trkpt>
      <trkpt lat="42.596570" lon="-0.116562">
        <ele>955.212</ele>
        <time>2025-05-24T07:35:43Z</time>
      </trkpt>
      <trkpt lat="42.596726" lon="-0.115958">
        <ele>960.632</ele>
        <time>2025-05-24T07:36:04Z</time>
      </trkpt>
      <trkpt lat="42.597032" lon="-0.115762">
        <ele>964.078</ele>
        <time>2025-05-24T07:36:17Z</time>
      </trkpt>
      <trkpt lat="42.597039" lon="-0.115462">
        <ele>966.477</ele>
        <time>2025-05-24T07:36:27Z</time>
      </trkpt>
      <trkpt lat="42.596932" lon="-0.115352">
        <ele>967.879</ele>
        <time>2025-05-24T07:36:32Z</time>
      </trkpt>
      <trkpt lat="42.596696" lon="-0.115408">
        <ele>969.405</ele>
        <time>2025-05-24T07:36:41Z</time>
      </trkpt>
      <trkpt lat="42.596231" lon="-0.116060">
        <ele>972.825</ele>
        <time>2025-05-24T07:37:04Z</time>
      </trkpt>
      <trkpt lat="42.595769" lon="-0.116338">
        <ele>975.809</ele>
        <time>2025-05-24T07:37:24Z</time>
      </trkpt>
      <trkpt lat="42.595208" lon="-0.116508">
        <ele>980.699</ele>
        <time>2025-05-24T07:37:46Z</time>
      </trkpt>
      <trkpt lat="42.594285" lon="-0.116573">
        <ele>989.278</ele>
        <time>2025-05-24T07:38:25Z</time>
      </trkpt>
      <trkpt lat="42.593289" lon="-0.116897">
        <ele>998.052</ele>
        <time>2025-05-24T07:39:03Z</time>
      </trkpt>
      <trkpt lat="42.592214" lon="-0.116952">
        <ele>1008.091</ele>
        <time>2025-05-24T07:39:45Z</time>
      </trkpt>
      <trkpt lat="42.591367" lon="-0.116655">
        <ele>1015.642</ele>
        <time>2025-05-24T07:40:18Z</time>
      </trkpt>
      <trkpt lat="42.590814" lon="-0.115923">
        <ele>1023.048</ele>
        <time>2025-05-24T07:40:50Z</time>
      </trkpt>
      <trkpt lat="42.590070" lon="-0.115867">
        <ele>1031.038</ele>
        <time>2025-05-24T07:41:21Z</time>
      </trkpt>
      <trkpt lat="42.589650" lon="-0.115472">
        <ele>1036.264</ele>
        <time>2025-05-24T07:41:44Z</time>
      </trkpt>
      <trkpt lat="42.589112" lon="-0.115232">
        <ele>1042.693</ele>
        <time>2025-05-24T07:42:09Z</time>
      </trkpt>
      <trkpt lat="42.588273" lon="-0.114220">
        <ele>1055.227</ele>
        <time>2025-05-24T07:43:00Z</time>
      </trkpt>
      <trkpt lat="42.588170" lon="-0.113600">
        <ele>1059.668</ele>
        <time>2025-05-24T07:43:20Z</time>
      </trkpt>
      <trkpt lat="42.588048" lon="-0.113400">
        <ele>1061.814</ele>
        <time>2025-05-24T07:43:28Z</time>
      </trkpt>
      <trkpt lat="42.587762" lon="-0.113273">
        <ele>1065.009</ele>
        <time>2025-05-24T07:43:41Z</time>
      </trkpt>
      <trkpt lat="42.587243" lon="-0.113350">
        <ele>1071.414</ele>
        <time>2025-05-24T07:44:05Z</time>
      </trkpt>
      <trkpt lat="42.586789" lon="-0.112998">
        <ele>1078.213</ele>
        <time>2025-05-24T07:44:31Z</time>
      </trkpt>
      <trkpt lat="42.586568" lon="-0.111800">
        <ele>1090.017</ele>
        <time>2025-05-24T07:45:19Z</time>
      </trkpt>
      <trkpt lat="42.586217" lon="-0.111393">
        <ele>1095.266</ele>
        <time>2025-05-24T07:45:41Z</time>
      </trkpt>
      <trkpt lat="42.585710" lon="-0.111160">
        <ele>1098.287</ele>
        <time>2025-05-24T07:46:02Z</time>
      </trkpt>
      <trkpt lat="42.585423" lon="-0.110625">
        <ele>1101.863</ele>
        <time>2025-05-24T07:46:22Z</time>
      </trkpt>
      <trkpt lat="42.585164" lon="-0.109687">
        <ele>1110.693</ele>
        <time>2025-05-24T07:46:58Z</time>
      </trkpt>
      <trkpt lat="42.585050" lon="-0.108835">
        <ele>1120.059</ele>
        <time>2025-05-24T07:50:30Z</time>
      </trkpt>
      <trkpt lat="42.585126" lon="-0.109293">
        <ele>1118.028</ele>
        <time>2025-05-24T07:51:02Z</time>
      </trkpt>
      <trkpt lat="42.585492" lon="-0.109763">
        <ele>1119.084</ele>
        <time>2025-05-24T07:51:20Z</time>
      </trkpt>
      <trkpt lat="42.585759" lon="-0.110285">
        <ele>1124.607</ele>
        <time>2025-05-24T07:51:40Z</time>
      </trkpt>
      <trkpt lat="42.586442" lon="-0.110875">
        <ele>1131.817</ele>
        <time>2025-05-24T07:52:26Z</time>
      </trkpt>
      <trkpt lat="42.586453" lon="-0.110805">
        <ele>1131.809</ele>
        <time>2025-05-24T07:53:19Z</time>
      </trkpt>
      <trkpt lat="42.586873" lon="-0.111248">
        <ele>1134.080</ele>
        <time>2025-05-24T07:55:39Z</time>
      </trkpt>
      <trkpt lat="42.587129" lon="-0.111792">
        <ele>1134.449</ele>
        <time>2025-05-24T07:55:53Z</time>
      </trkpt>
      <trkpt lat="42.587457" lon="-0.112183">
        <ele>1135.493</ele>
        <time>2025-05-24T07:56:07Z</time>
      </trkpt>
      <trkpt lat="42.587777" lon="-0.112198">
        <ele>1137.412</ele>
        <time>2025-05-24T07:56:20Z</time>
      </trkpt>
      <trkpt lat="42.588620" lon="-0.112045">
        <ele>1142.053</ele>
        <time>2025-05-24T07:56:47Z</time>
      </trkpt>
      <trkpt lat="42.588849" lon="-0.112142">
        <ele>1143.239</ele>
        <time>2025-05-24T07:56:55Z</time>
      </trkpt>
      <trkpt lat="42.589028" lon="-0.112410">
        <ele>1145.629</ele>
        <time>2025-05-24T07:57:05Z</time>
      </trkpt>
      <trkpt lat="42.589250" lon="-0.112463">
        <ele>1147.475</ele>
        <time>2025-05-24T07:57:14Z</time>
      </trkpt>
      <trkpt lat="42.589620" lon="-0.112407">
        <ele>1150.244</ele>
        <time>2025-05-24T07:57:28Z</time>
      </trkpt>
      <trkpt lat="42.590116" lon="-0.112080">
        <ele>1152.486</ele>
        <time>2025-05-24T07:57:47Z</time>
      </trkpt>
      <trkpt lat="42.590859" lon="-0.111382">
        <ele>1154.060</ele>
        <time>2025-05-24T07:58:13Z</time>
      </trkpt>
      <trkpt lat="42.591138" lon="-0.111312">
        <ele>1154.426</ele>
        <time>2025-05-24T07:58:20Z</time>
      </trkpt>
      <trkpt lat="42.591393" lon="-0.111392">
        <ele>1155.009</ele>
        <time>2025-05-24T07:58:27Z</time>
      </trkpt>
      <trkpt lat="42.591687" lon="-0.111972">
        <ele>1156.070</ele>
        <time>2025-05-24T07:58:41Z</time>
      </trkpt>
      <trkpt lat="42.592271" lon="-0.112528">
        <ele>1161.879</ele>
        <time>2025-05-24T07:59:07Z</time>
      </trkpt>
      <trkpt lat="42.592530" lon="-0.112672">
        <ele>1163.693</ele>
        <time>2025-05-24T07:59:17Z</time>
      </trkpt>
      <trkpt lat="42.592702" lon="-0.112660">
        <ele>1165.032</ele>
        <time>2025-05-24T07:59:24Z</time>
      </trkpt>
      <trkpt lat="42.593137" lon="-0.112140">
        <ele>1171.663</ele>
        <time>2025-05-24T07:59:52Z</time>
      </trkpt>
      <trkpt lat="42.593263" lon="-0.111185">
        <ele>1180.239</ele>
        <time>2025-05-24T08:00:25Z</time>
      </trkpt>
      <trkpt lat="42.593465" lon="-0.110458">
        <ele>1185.669</ele>
        <time>2025-05-24T08:00:49Z</time>
      </trkpt>
      <trkpt lat="42.593473" lon="-0.109497">
        <ele>1191.255</ele>
        <time>2025-05-24T08:01:19Z</time>
      </trkpt>
      <trkpt lat="42.593911" lon="-0.108178">
        <ele>1197.634</ele>
        <time>2025-05-24T08:01:59Z</time>
      </trkpt>
      <trkpt lat="42.594712" lon="-0.107648">
        <ele>1203.012</ele>
        <time>2025-05-24T08:02:31Z</time>
      </trkpt>
      <trkpt lat="42.595925" lon="-0.106273">
        <ele>1216.032</ele>
        <time>2025-05-24T08:03:30Z</time>
      </trkpt>
      <trkpt lat="42.596513" lon="-0.105907">
        <ele>1222.605</ele>
        <time>2025-05-24T08:03:57Z</time>
      </trkpt>
      <trkpt lat="42.597795" lon="-0.104855">
        <ele>1235.809</ele>
        <time>2025-05-24T08:05:06Z</time>
      </trkpt>
      <trkpt lat="42.598325" lon="-0.104053">
        <ele>1238.273</ele>
        <time>2025-05-24T08:05:34Z</time>
      </trkpt>
      <trkpt lat="42.598317" lon="-0.103785">
        <ele>1239.282</ele>
        <time>2025-05-24T08:05:41Z</time>
      </trkpt>
      <trkpt lat="42.598004" lon="-0.103252">
        <ele>1237.836</ele>
        <time>2025-05-24T08:06:00Z</time>
      </trkpt>
      <trkpt lat="42.598546" lon="-0.103217">
        <ele>1238.885</ele>
        <time>2025-05-24T08:06:14Z</time>
      </trkpt>
      <trkpt lat="42.599107" lon="-0.102597">
        <ele>1241.836</ele>
        <time>2025-05-24T08:06:34Z</time>
      </trkpt>
      <trkpt lat="42.599946" lon="-0.102168">
        <ele>1251.052</ele>
        <time>2025-05-24T08:07:12Z</time>
      </trkpt>
      <trkpt lat="42.600156" lon="-0.101842">
        <ele>1255.452</ele>
        <time>2025-05-24T08:07:31Z</time>
      </trkpt>
      <trkpt lat="42.600606" lon="-0.101490">
        <ele>1260.818</ele>
        <time>2025-05-24T08:08:00Z</time>
      </trkpt>
      <trkpt lat="42.600808" lon="-0.101218">
        <ele>1265.617</ele>
        <time>2025-05-24T08:08:17Z</time>
      </trkpt>
      <trkpt lat="42.601148" lon="-0.099718">
        <ele>1280.459</ele>
        <time>2025-05-24T08:09:17Z</time>
      </trkpt>
      <trkpt lat="42.600961" lon="-0.099107">
        <ele>1286.403</ele>
        <time>2025-05-24T08:09:45Z</time>
      </trkpt>
      <trkpt lat="42.600919" lon="-0.098527">
        <ele>1291.223</ele>
        <time>2025-05-24T08:10:07Z</time>
      </trkpt>
      <trkpt lat="42.601026" lon="-0.097893">
        <ele>1299.409</ele>
        <time>2025-05-24T08:10:39Z</time>
      </trkpt>
      <trkpt lat="42.600968" lon="-0.097768">
        <ele>1301.027</ele>
        <time>2025-05-24T08:10:46Z</time>
      </trkpt>
      <trkpt lat="42.601052" lon="-0.097528">
        <ele>1303.226</ele>
        <time>2025-05-24T08:10:55Z</time>
      </trkpt>
      <trkpt lat="42.600663" lon="-0.096627">
        <ele>1310.060</ele>
        <time>2025-05-24T08:11:31Z</time>
      </trkpt>
      <trkpt lat="42.600816" lon="-0.096480">
        <ele>1310.059</ele>
        <time>2025-05-24T08:11:36Z</time>
      </trkpt>
      <trkpt lat="42.600823" lon="-0.096548">
        <ele>1310.880</ele>
        <time>2025-05-24T08:11:45Z</time>
      </trkpt>
      <trkpt lat="42.600976" lon="-0.096512">
        <ele>1313.426</ele>
        <time>2025-05-24T08:11:58Z</time>
      </trkpt>
      <trkpt lat="42.601396" lon="-0.095970">
        <ele>1319.096</ele>
        <time>2025-05-24T08:12:22Z</time>
      </trkpt>
      <trkpt lat="42.601510" lon="-0.095433">
        <ele>1320.442</ele>
        <time>2025-05-24T08:12:33Z</time>
      </trkpt>
      <trkpt lat="42.601495" lon="-0.094673">
        <ele>1321.821</ele>
        <time>2025-05-24T08:12:51Z</time>
      </trkpt>
      <trkpt lat="42.601827" lon="-0.094212">
        <ele>1323.011</ele>
        <time>2025-05-24T08:13:02Z</time>
      </trkpt>
      <trkpt lat="42.602075" lon="-0.093595">
        <ele>1327.221</ele>
        <time>2025-05-24T08:13:20Z</time>
      </trkpt>
      <trkpt lat="42.601930" lon="-0.093258">
        <ele>1328.403</ele>
        <time>2025-05-24T08:13:30Z</time>
      </trkpt>
      <trkpt lat="42.601933" lon="-0.092910">
        <ele>1329.609</ele>
        <time>2025-05-24T08:13:40Z</time>
      </trkpt>
      <trkpt lat="42.602105" lon="-0.092705">
        <ele>1330.633</ele>
        <time>2025-05-24T08:13:48Z</time>
      </trkpt>
      <trkpt lat="42.602857" lon="-0.092273">
        <ele>1338.062</ele>
        <time>2025-05-24T08:14:22Z</time>
      </trkpt>
      <trkpt lat="42.603307" lon="-0.091755">
        <ele>1342.676</ele>
        <time>2025-05-24T08:14:44Z</time>
      </trkpt>
      <trkpt lat="42.602914" lon="-0.090720">
        <ele>1340.665</ele>
        <time>2025-05-24T08:15:07Z</time>
      </trkpt>
      <trkpt lat="42.602990" lon="-0.090672">
        <ele>1339.876</ele>
        <time>2025-05-24T08:15:10Z</time>
      </trkpt>
      <trkpt lat="42.603295" lon="-0.090782">
        <ele>1339.242</ele>
        <time>2025-05-24T08:15:19Z</time>
      </trkpt>
      <trkpt lat="42.603955" lon="-0.090713">
        <ele>1340.042</ele>
        <time>2025-05-24T08:15:36Z</time>
      </trkpt>
      <trkpt lat="42.604356" lon="-0.090443">
        <ele>1339.228</ele>
        <time>2025-05-24T08:15:44Z</time>
      </trkpt>
      <trkpt lat="42.605203" lon="-0.090295">
        <ele>1336.467</ele>
        <time>2025-05-24T08:15:58Z</time>
      </trkpt>
      <trkpt lat="42.605928" lon="-0.088778">
        <ele>1332.233</ele>
        <time>2025-05-24T08:16:30Z</time>
      </trkpt>
      <trkpt lat="42.606488" lon="-0.088355">
        <ele>1329.423</ele>
        <time>2025-05-24T08:16:41Z</time>
      </trkpt>
      <trkpt lat="42.606931" lon="-0.088135">
        <ele>1330.615</ele>
        <time>2025-05-24T08:16:55Z</time>
      </trkpt>
      <trkpt lat="42.607217" lon="-0.087503">
        <ele>1336.009</ele>
        <time>2025-05-24T08:17:15Z</time>
      </trkpt>
      <trkpt lat="42.607766" lon="-0.086795">
        <ele>1342.875</ele>
        <time>2025-05-24T08:17:49Z</time>
      </trkpt>
      <trkpt lat="42.608052" lon="-0.086202">
        <ele>1345.854</ele>
        <time>2025-05-24T08:18:10Z</time>
      </trkpt>
      <trkpt lat="42.608167" lon="-0.085543">
        <ele>1349.688</ele>
        <time>2025-05-24T08:18:31Z</time>
      </trkpt>
      <trkpt lat="42.607942" lon="-0.084672">
        <ele>1359.667</ele>
        <time>2025-05-24T08:19:07Z</time>
      </trkpt>
      <trkpt lat="42.608064" lon="-0.084068">
        <ele>1365.848</ele>
        <time>2025-05-24T08:19:31Z</time>
      </trkpt>
      <trkpt lat="42.608037" lon="-0.083725">
        <ele>1368.894</ele>
        <time>2025-05-24T08:19:45Z</time>
      </trkpt>
      <trkpt lat="42.608197" lon="-0.083505">
        <ele>1371.454</ele>
        <time>2025-05-24T08:19:55Z</time>
      </trkpt>
      <trkpt lat="42.608018" lon="-0.083185">
        <ele>1375.440</ele>
        <time>2025-05-24T08:20:08Z</time>
      </trkpt>
      <trkpt lat="42.608457" lon="-0.082037">
        <ele>1385.889</ele>
        <time>2025-05-24T08:20:55Z</time>
      </trkpt>
      <trkpt lat="42.608350" lon="-0.081650">
        <ele>1387.888</ele>
        <time>2025-05-24T08:21:08Z</time>
      </trkpt>
      <trkpt lat="42.608514" lon="-0.081533">
        <ele>1389.024</ele>
        <time>2025-05-24T08:21:13Z</time>
      </trkpt>
      <trkpt lat="42.608434" lon="-0.081300">
        <ele>1390.826</ele>
        <time>2025-05-24T08:21:21Z</time>
      </trkpt>
      <trkpt lat="42.608464" lon="-0.080702">
        <ele>1395.609</ele>
        <time>2025-05-24T08:21:41Z</time>
      </trkpt>
      <trkpt lat="42.608781" lon="-0.080182">
        <ele>1401.450</ele>
        <time>2025-05-24T08:22:03Z</time>
      </trkpt>
      <trkpt lat="42.608636" lon="-0.079868">
        <ele>1405.269</ele>
        <time>2025-05-24T08:22:17Z</time>
      </trkpt>
      <trkpt lat="42.608666" lon="-0.079342">
        <ele>1411.653</ele>
        <time>2025-05-24T08:22:44Z</time>
      </trkpt>
      <trkpt lat="42.608483" lon="-0.079045">
        <ele>1414.632</ele>
        <time>2025-05-24T08:22:56Z</time>
      </trkpt>
      <trkpt lat="42.608529" lon="-0.078747">
        <ele>1418.293</ele>
        <time>2025-05-24T08:23:09Z</time>
      </trkpt>
      <trkpt lat="42.608674" lon="-0.078615">
        <ele>1420.229</ele>
        <time>2025-05-24T08:23:18Z</time>
      </trkpt>
      <trkpt lat="42.608552" lon="-0.078433">
        <ele>1422.279</ele>
        <time>2025-05-24T08:23:27Z</time>
      </trkpt>
      <trkpt lat="42.608548" lon="-0.077972">
        <ele>1426.865</ele>
        <time>2025-05-24T08:23:47Z</time>
      </trkpt>
      <trkpt lat="42.608426" lon="-0.077507">
        <ele>1432.674</ele>
        <time>2025-05-24T08:24:09Z</time>
      </trkpt>
      <trkpt lat="42.607999" lon="-0.076900">
        <ele>1438.665</ele>
        <time>2025-05-24T08:24:38Z</time>
      </trkpt>
      <trkpt lat="42.607701" lon="-0.075808">
        <ele>1447.068</ele>
        <time>2025-05-24T08:25:22Z</time>
      </trkpt>
      <trkpt lat="42.607339" lon="-0.075323">
        <ele>1449.814</ele>
        <time>2025-05-24T08:25:43Z</time>
      </trkpt>
      <trkpt lat="42.607301" lon="-0.074892">
        <ele>1452.209</ele>
        <time>2025-05-24T08:25:58Z</time>
      </trkpt>
      <trkpt lat="42.607099" lon="-0.074788">
        <ele>1453.868</ele>
        <time>2025-05-24T08:26:11Z</time>
      </trkpt>
      <trkpt lat="42.606626" lon="-0.074100">
        <ele>1464.097</ele>
        <time>2025-05-24T08:26:49Z</time>
      </trkpt>
      <trkpt lat="42.606652" lon="-0.074027">
        <ele>1465.221</ele>
        <time>2025-05-24T08:26:53Z</time>
      </trkpt>
      <trkpt lat="42.606340" lon="-0.073805">
        <ele>1470.050</ele>
        <time>2025-05-24T08:27:08Z</time>
      </trkpt>
      <trkpt lat="42.606156" lon="-0.073523">
        <ele>1475.011</ele>
        <time>2025-05-24T08:27:26Z</time>
      </trkpt>
      <trkpt lat="42.606320" lon="-0.073420">
        <ele>1476.887</ele>
        <time>2025-05-24T08:27:37Z</time>
      </trkpt>
      <trkpt lat="42.607137" lon="-0.073840">
        <ele>1489.097</ele>
        <time>2025-05-24T08:28:36Z</time>
      </trkpt>
      <trkpt lat="42.607408" lon="-0.073880">
        <ele>1493.053</ele>
        <time>2025-05-24T08:28:52Z</time>
      </trkpt>
      <trkpt lat="42.607511" lon="-0.073972">
        <ele>1496.272</ele>
        <time>2025-05-24T08:29:03Z</time>
      </trkpt>
      <trkpt lat="42.607652" lon="-0.073895">
        <ele>1499.421</ele>
        <time>2025-05-24T08:29:13Z</time>
      </trkpt>
      <trkpt lat="42.607881" lon="-0.073910">
        <ele>1504.041</ele>
        <time>2025-05-24T08:29:28Z</time>
      </trkpt>
      <trkpt lat="42.608254" lon="-0.074132">
        <ele>1510.405</ele>
        <time>2025-05-24T08:29:53Z</time>
      </trkpt>
      <trkpt lat="42.608541" lon="-0.074015">
        <ele>1515.009</ele>
        <time>2025-05-24T08:30:13Z</time>
      </trkpt>
      <trkpt lat="42.609094" lon="-0.073332">
        <ele>1526.694</ele>
        <time>2025-05-24T08:31:01Z</time>
      </trkpt>
      <trkpt lat="42.609208" lon="-0.073083">
        <ele>1530.293</ele>
        <time>2025-05-24T08:31:15Z</time>
      </trkpt>
      <trkpt lat="42.609296" lon="-0.072627">
        <ele>1535.487</ele>
        <time>2025-05-24T08:31:36Z</time>
      </trkpt>
      <trkpt lat="42.609189" lon="-0.072455">
        <ele>1538.656</ele>
        <time>2025-05-24T08:31:49Z</time>
      </trkpt>
      <trkpt lat="42.609162" lon="-0.072192">
        <ele>1540.687</ele>
        <time>2025-05-24T08:32:01Z</time>
      </trkpt>
      <trkpt lat="42.609304" lon="-0.071892">
        <ele>1543.463</ele>
        <time>2025-05-24T08:32:14Z</time>
      </trkpt>
      <trkpt lat="42.609304" lon="-0.071663">
        <ele>1545.813</ele>
        <time>2025-05-24T08:32:25Z</time>
      </trkpt>
      <trkpt lat="42.609578" lon="-0.071283">
        <ele>1551.019</ele>
        <time>2025-05-24T08:32:47Z</time>
      </trkpt>
      <trkpt lat="42.609658" lon="-0.070728">
        <ele>1557.678</ele>
        <time>2025-05-24T08:33:16Z</time>
      </trkpt>
      <trkpt lat="42.609952" lon="-0.070312">
        <ele>1562.434</ele>
        <time>2025-05-24T08:33:40Z</time>
      </trkpt>
      <trkpt lat="42.609922" lon="-0.070062">
        <ele>1564.055</ele>
        <time>2025-05-24T08:33:53Z</time>
      </trkpt>
      <trkpt lat="42.609868" lon="-0.070592">
        <ele>1570.010</ele>
        <time>2025-05-24T08:34:24Z</time>
      </trkpt>
      <trkpt lat="42.610505" lon="-0.072035">
        <ele>1580.009</ele>
        <time>2025-05-24T08:35:20Z</time>
      </trkpt>
      <trkpt lat="42.611604" lon="-0.073283">
        <ele>1592.025</ele>
        <time>2025-05-24T08:36:21Z</time>
      </trkpt>
      <trkpt lat="42.612134" lon="-0.073700">
        <ele>1599.264</ele>
        <time>2025-05-24T08:36:53Z</time>
      </trkpt>
      <trkpt lat="42.612176" lon="-0.073633">
        <ele>1601.048</ele>
        <time>2025-05-24T08:36:59Z</time>
      </trkpt>
      <trkpt lat="42.611985" lon="-0.073285">
        <ele>1605.077</ele>
        <time>2025-05-24T08:37:17Z</time>
      </trkpt>
      <trkpt lat="42.611947" lon="-0.073035">
        <ele>1607.858</ele>
        <time>2025-05-24T08:37:53Z</time>
      </trkpt>
      <trkpt lat="42.611489" lon="-0.072253">
        <ele>1613.644</ele>
        <time>2025-05-24T08:38:30Z</time>
      </trkpt>
      <trkpt lat="42.611230" lon="-0.071402">
        <ele>1620.464</ele>
        <time>2025-05-24T08:39:00Z</time>
      </trkpt>
      <trkpt lat="42.611280" lon="-0.071233">
        <ele>1622.410</ele>
        <time>2025-05-24T08:39:08Z</time>
      </trkpt>
      <trkpt lat="42.611695" lon="-0.072070">
        <ele>1629.089</ele>
        <time>2025-05-24T08:39:42Z</time>
      </trkpt>
      <trkpt lat="42.612233" lon="-0.072537">
        <ele>1635.471</ele>
        <time>2025-05-24T08:40:11Z</time>
      </trkpt>
      <trkpt lat="42.612870" lon="-0.072927">
        <ele>1644.641</ele>
        <time>2025-05-24T08:40:49Z</time>
      </trkpt>
      <trkpt lat="42.613072" lon="-0.072845">
        <ele>1648.015</ele>
        <time>2025-05-24T08:41:01Z</time>
      </trkpt>
      <trkpt lat="42.613088" lon="-0.072745">
        <ele>1649.609</ele>
        <time>2025-05-24T08:41:06Z</time>
      </trkpt>
      <trkpt lat="42.612653" lon="-0.072427">
        <ele>1656.699</ele>
        <time>2025-05-24T08:41:34Z</time>
      </trkpt>
      <trkpt lat="42.612622" lon="-0.072225">
        <ele>1659.648</ele>
        <time>2025-05-24T08:41:45Z</time>
      </trkpt>
      <trkpt lat="42.613050" lon="-0.072222">
        <ele>1666.042</ele>
        <time>2025-05-24T08:42:08Z</time>
      </trkpt>
      <trkpt lat="42.613462" lon="-0.071708">
        <ele>1675.061</ele>
        <time>2025-05-24T08:42:47Z</time>
      </trkpt>
      <trkpt lat="42.614064" lon="-0.071187">
        <ele>1687.422</ele>
        <time>2025-05-24T08:43:33Z</time>
      </trkpt>
      <trkpt lat="42.614156" lon="-0.070972">
        <ele>1691.288</ele>
        <time>2025-05-24T08:43:46Z</time>
      </trkpt>
      <trkpt lat="42.614720" lon="-0.070888">
        <ele>1701.228</ele>
        <time>2025-05-24T08:44:23Z</time>
      </trkpt>
      <trkpt lat="42.615178" lon="-0.070935">
        <ele>1705.014</ele>
        <time>2025-05-24T08:44:50Z</time>
      </trkpt>
      <trkpt lat="42.615491" lon="-0.071067">
        <ele>1703.213</ele>
        <time>2025-05-24T08:44:56Z</time>
      </trkpt>
      <trkpt lat="42.615617" lon="-0.071232">
        <ele>1702.432</ele>
        <time>2025-05-24T08:44:59Z</time>
      </trkpt>
      <trkpt lat="42.615827" lon="-0.072115">
        <ele>1704.892</ele>
        <time>2025-05-24T08:45:26Z</time>
      </trkpt>
      <trkpt lat="42.615998" lon="-0.072370">
        <ele>1703.811</ele>
        <time>2025-05-24T08:45:31Z</time>
      </trkpt>
      <trkpt lat="42.616723" lon="-0.072888">
        <ele>1699.809</ele>
        <time>2025-05-24T08:45:43Z</time>
      </trkpt>
      <trkpt lat="42.617360" lon="-0.073217">
        <ele>1693.855</ele>
        <time>2025-05-24T08:45:53Z</time>
      </trkpt>
      <trkpt lat="42.617440" lon="-0.073400">
        <ele>1692.044</ele>
        <time>2025-05-24T08:45:57Z</time>
      </trkpt>
      <trkpt lat="42.617379" lon="-0.073817">
        <ele>1695.678</ele>
        <time>2025-05-24T08:46:15Z</time>
      </trkpt>
      <trkpt lat="42.616368" lon="-0.075198">
        <ele>1710.037</ele>
        <time>2025-05-24T08:47:28Z</time>
      </trkpt>
      <trkpt lat="42.616380" lon="-0.075617">
        <ele>1712.048</ele>
        <time>2025-05-24T08:47:41Z</time>
      </trkpt>
      <trkpt lat="42.616830" lon="-0.077173">
        <ele>1727.044</ele>
        <time>2025-05-24T08:48:44Z</time>
      </trkpt>
      <trkpt lat="42.616658" lon="-0.077632">
        <ele>1728.484</ele>
        <time>2025-05-24T08:48:58Z</time>
      </trkpt>
      <trkpt lat="42.616284" lon="-0.078033">
        <ele>1730.430</ele>
        <time>2025-05-24T08:49:16Z</time>
      </trkpt>
      <trkpt lat="42.616105" lon="-0.078537">
        <ele>1734.249</ele>
        <time>2025-05-24T08:49:33Z</time>
      </trkpt>
      <trkpt lat="42.616979" lon="-0.079653">
        <ele>1747.091</ele>
        <time>2025-05-24T08:50:25Z</time>
      </trkpt>
      <trkpt lat="42.617646" lon="-0.080767">
        <ele>1752.681</ele>
        <time>2025-05-24T08:51:02Z</time>
      </trkpt>
      <trkpt lat="42.617932" lon="-0.081395">
        <ele>1756.219</ele>
        <time>2025-05-24T08:51:22Z</time>
      </trkpt>
      <trkpt lat="42.618165" lon="-0.082380">
        <ele>1765.609</ele>
        <time>2025-05-24T08:51:57Z</time>
      </trkpt>
      <trkpt lat="42.618688" lon="-0.083413">
        <ele>1774.491</ele>
        <time>2025-05-24T08:52:41Z</time>
      </trkpt>
      <trkpt lat="42.618791" lon="-0.083810">
        <ele>1777.440</ele>
        <time>2025-05-24T08:52:55Z</time>
      </trkpt>
      <trkpt lat="42.618905" lon="-0.083897">
        <ele>1779.294</ele>
        <time>2025-05-24T08:53:03Z</time>
      </trkpt>
      <trkpt lat="42.618974" lon="-0.083732">
        <ele>1780.643</ele>
        <time>2025-05-24T08:53:11Z</time>
      </trkpt>
      <trkpt lat="42.618833" lon="-0.082453">
        <ele>1786.264</ele>
        <time>2025-05-24T08:53:49Z</time>
      </trkpt>
      <trkpt lat="42.618867" lon="-0.080907">
        <ele>1804.410</ele>
        <time>2025-05-24T08:54:56Z</time>
      </trkpt>
      <trkpt lat="42.619042" lon="-0.079652">
        <ele>1823.660</ele>
        <time>2025-05-24T08:56:01Z</time>
      </trkpt>
      <trkpt lat="42.618962" lon="-0.078050">
        <ele>1835.816</ele>
        <time>2025-05-24T08:57:10Z</time>
      </trkpt>
      <trkpt lat="42.619081" lon="-0.077817">
        <ele>1837.055</ele>
        <time>2025-05-24T08:57:22Z</time>
      </trkpt>
      <trkpt lat="42.619424" lon="-0.076125">
        <ele>1834.433</ele>
        <time>2025-05-24T08:58:03Z</time>
      </trkpt>
      <trkpt lat="42.620145" lon="-0.074935">
        <ele>1835.023</ele>
        <time>2025-05-24T08:58:30Z</time>
      </trkpt>
      <trkpt lat="42.620378" lon="-0.074083">
        <ele>1843.415</ele>
        <time>2025-05-24T08:59:01Z</time>
      </trkpt>
      <trkpt lat="42.620690" lon="-0.073593">
        <ele>1848.209</ele>
        <time>2025-05-24T08:59:26Z</time>
      </trkpt>
      <trkpt lat="42.620606" lon="-0.072560">
        <ele>1856.045</ele>
        <time>2025-05-24T09:00:08Z</time>
      </trkpt>
      <trkpt lat="42.620671" lon="-0.071400">
        <ele>1864.244</ele>
        <time>2025-05-24T09:00:51Z</time>
      </trkpt>
      <trkpt lat="42.620622" lon="-0.070765">
        <ele>1869.888</ele>
        <time>2025-05-24T09:01:16Z</time>
      </trkpt>
      <trkpt lat="42.620500" lon="-0.070500">
        <ele>1872.447</ele>
        <time>2025-05-24T09:01:28Z</time>
      </trkpt>
      <trkpt lat="42.620488" lon="-0.070115">
        <ele>1875.218</ele>
        <time>2025-05-24T09:01:41Z</time>
      </trkpt>
      <trkpt lat="42.620355" lon="-0.069863">
        <ele>1877.234</ele>
        <time>2025-05-24T09:01:53Z</time>
      </trkpt>
      <trkpt lat="42.619603" lon="-0.069072">
        <ele>1885.234</ele>
        <time>2025-05-24T09:02:40Z</time>
      </trkpt>
      <trkpt lat="42.618936" lon="-0.068728">
        <ele>1890.620</ele>
        <time>2025-05-24T09:03:09Z</time>
      </trkpt>
      <trkpt lat="42.618260" lon="-0.068190">
        <ele>1896.279</ele>
        <time>2025-05-24T09:03:39Z</time>
      </trkpt>
      <trkpt lat="42.618085" lon="-0.067950">
        <ele>1898.043</ele>
        <time>2025-05-24T09:03:49Z</time>
      </trkpt>
      <trkpt lat="42.618108" lon="-0.067792">
        <ele>1899.664</ele>
        <time>2025-05-24T09:03:54Z</time>
      </trkpt>
      <trkpt lat="42.618257" lon="-0.067795">
        <ele>1902.610</ele>
        <time>2025-05-24T09:04:01Z</time>
      </trkpt>
      <trkpt lat="42.618581" lon="-0.068022">
        <ele>1907.009</ele>
        <time>2025-05-24T09:04:19Z</time>
      </trkpt>
      <trkpt lat="42.619596" lon="-0.067913">
        <ele>1918.016</ele>
        <time>2025-05-24T09:05:15Z</time>
      </trkpt>
      <trkpt lat="42.620118" lon="-0.068078">
        <ele>1924.265</ele>
        <time>2025-05-24T09:05:45Z</time>
      </trkpt>
      <trkpt lat="42.620118" lon="-0.067887">
        <ele>1926.819</ele>
        <time>2025-05-24T09:05:54Z</time>
      </trkpt>
      <trkpt lat="42.619336" lon="-0.067278">
        <ele>1935.218</ele>
        <time>2025-05-24T09:06:37Z</time>
      </trkpt>
      <trkpt lat="42.619222" lon="-0.067045">
        <ele>1937.889</ele>
        <time>2025-05-24T09:06:48Z</time>
      </trkpt>
      <trkpt lat="42.619336" lon="-0.066718">
        <ele>1942.035</ele>
        <time>2025-05-24T09:07:04Z</time>
      </trkpt>
      <trkpt lat="42.619794" lon="-0.066720">
        <ele>1949.465</ele>
        <time>2025-05-24T09:07:30Z</time>
      </trkpt>
      <trkpt lat="42.620378" lon="-0.066927">
        <ele>1958.071</ele>
        <time>2025-05-24T09:08:08Z</time>
      </trkpt>
      <trkpt lat="42.621633" lon="-0.068065">
        <ele>1966.880</ele>
        <time>2025-05-24T09:09:09Z</time>
      </trkpt>
      <trkpt lat="42.622132" lon="-0.068192">
        <ele>1968.497</ele>
        <time>2025-05-24T09:09:29Z</time>
      </trkpt>
      <trkpt lat="42.622884" lon="-0.067903">
        <ele>1968.623</ele>
        <time>2025-05-24T09:09:56Z</time>
      </trkpt>
      <trkpt lat="42.624093" lon="-0.067158">
        <ele>1966.225</ele>
        <time>2025-05-24T09:10:29Z</time>
      </trkpt>
      <trkpt lat="42.624974" lon="-0.066745">
        <ele>1963.809</ele>
        <time>2025-05-24T09:10:48Z</time>
      </trkpt>
      <trkpt lat="42.625356" lon="-0.066400">
        <ele>1966.271</ele>
        <time>2025-05-24T09:11:08Z</time>
      </trkpt>
      <trkpt lat="42.625688" lon="-0.066312">
        <ele>1972.020</ele>
        <time>2025-05-24T09:11:26Z</time>
      </trkpt>
      <trkpt lat="42.626462" lon="-0.066510">
        <ele>1984.244</ele>
        <time>2025-05-24T09:12:17Z</time>
      </trkpt>
      <trkpt lat="42.627111" lon="-0.066602">
        <ele>1994.833</ele>
        <time>2025-05-24T09:13:01Z</time>
      </trkpt>
      <trkpt lat="42.627736" lon="-0.066585">
        <ele>2004.614</ele>
        <time>2025-05-24T09:13:35Z</time>
      </trkpt>
      <trkpt lat="42.628892" lon="-0.066768">
        <ele>2022.820</ele>
        <time>2025-05-24T09:14:45Z</time>
      </trkpt>
      <trkpt lat="42.630578" lon="-0.067433">
        <ele>2056.020</ele>
        <time>2025-05-24T09:16:41Z</time>
      </trkpt>
      <trkpt lat="42.631200" lon="-0.067595">
        <ele>2069.256</ele>
        <time>2025-05-24T09:17:22Z</time>
      </trkpt>
      <trkpt lat="42.631619" lon="-0.067813">
        <ele>2078.415</ele>
        <time>2025-05-24T09:17:55Z</time>
      </trkpt>
      <trkpt lat="42.631856" lon="-0.068020">
        <ele>2082.296</ele>
        <time>2025-05-24T09:18:12Z</time>
      </trkpt>
      <trkpt lat="42.632085" lon="-0.068568">
        <ele>2083.231</ele>
        <time>2025-05-24T09:18:42Z</time>
      </trkpt>
      <trkpt lat="42.632173" lon="-0.068562">
        <ele>2082.824</ele>
        <time>2025-05-24T09:19:10Z</time>
      </trkpt>
      <trkpt lat="42.632180" lon="-0.068428">
        <ele>2082.809</ele>
        <time>2025-05-24T09:19:37Z</time>
      </trkpt>
      <trkpt lat="42.631982" lon="-0.068252">
        <ele>2083.491</ele>
        <time>2025-05-24T09:19:52Z</time>
      </trkpt>
      <trkpt lat="42.632066" lon="-0.068280">
        <ele>2083.460</ele>
        <time>2025-05-24T09:19:58Z</time>
      </trkpt>
      <trkpt lat="42.632123" lon="-0.068458">
        <ele>2083.424</ele>
        <time>2025-05-24T09:20:07Z</time>
      </trkpt>
      <trkpt lat="42.632058" lon="-0.068438">
        <ele>2083.483</ele>
        <time>2025-05-24T09:20:10Z</time>
      </trkpt>
      <trkpt lat="42.632070" lon="-0.068273">
        <ele>2083.484</ele>
        <time>2025-05-24T09:20:16Z</time>
      </trkpt>
      <trkpt lat="42.632249" lon="-0.067810">
        <ele>2086.260</ele>
        <time>2025-05-24T09:20:36Z</time>
      </trkpt>
      <trkpt lat="42.632985" lon="-0.067650">
        <ele>2096.060</ele>
        <time>2025-05-24T09:21:19Z</time>
      </trkpt>
      <trkpt lat="42.633195" lon="-0.067453">
        <ele>2099.866</ele>
        <time>2025-05-24T09:21:47Z</time>
      </trkpt>
      <trkpt lat="42.633138" lon="-0.067433">
        <ele>2099.825</ele>
        <time>2025-05-24T09:22:43Z</time>
      </trkpt>
      <trkpt lat="42.633191" lon="-0.067423">
        <ele>2099.841</ele>
        <time>2025-05-24T09:22:49Z</time>
      </trkpt>
      <trkpt lat="42.633012" lon="-0.066602">
        <ele>2095.481</ele>
        <time>2025-05-24T09:23:08Z</time>
      </trkpt>
      <trkpt lat="42.633115" lon="-0.066310">
        <ele>2092.009</ele>
        <time>2025-05-24T09:23:13Z</time>
      </trkpt>
      <trkpt lat="42.633496" lon="-0.065942">
        <ele>2086.409</ele>
        <time>2025-05-24T09:23:20Z</time>
      </trkpt>
      <trkpt lat="42.634011" lon="-0.065663">
        <ele>2090.286</ele>
        <time>2025-05-24T09:23:46Z</time>
      </trkpt>
      <trkpt lat="42.634385" lon="-0.065348">
        <ele>2096.025</ele>
        <time>2025-05-24T09:24:12Z</time>
      </trkpt>
      <trkpt lat="42.635022" lon="-0.064482">
        <ele>2109.229</ele>
        <time>2025-05-24T09:25:15Z</time>
      </trkpt>
      <trkpt lat="42.635091" lon="-0.064245">
        <ele>2112.028</ele>
        <time>2025-05-24T09:25:30Z</time>
      </trkpt>
      <trkpt lat="42.635339" lon="-0.064183">
        <ele>2115.239</ele>
        <time>2025-05-24T09:25:55Z</time>
      </trkpt>
      <trkpt lat="42.635404" lon="-0.064050">
        <ele>2115.875</ele>
        <time>2025-05-24T09:26:02Z</time>
      </trkpt>
      <trkpt lat="42.635655" lon="-0.062962">
        <ele>2117.865</ele>
        <time>2025-05-24T09:26:39Z</time>
      </trkpt>
      <trkpt lat="42.635655" lon="-0.061910">
        <ele>2118.821</ele>
        <time>2025-05-24T09:27:08Z</time>
      </trkpt>
      <trkpt lat="42.635789" lon="-0.061142">
        <ele>2119.010</ele>
        <time>2025-05-24T09:27:25Z</time>
      </trkpt>
      <trkpt lat="42.636052" lon="-0.060875">
        <ele>2119.297</ele>
        <time>2025-05-24T09:27:36Z</time>
      </trkpt>
      <trkpt lat="42.637406" lon="-0.060313">
        <ele>2121.423</ele>
        <time>2025-05-24T09:28:18Z</time>
      </trkpt>
      <trkpt lat="42.637693" lon="-0.060018">
        <ele>2121.425</ele>
        <time>2025-05-24T09:28:29Z</time>
      </trkpt>
      <trkpt lat="42.637818" lon="-0.059530">
        <ele>2122.009</ele>
        <time>2025-05-24T09:28:40Z</time>
      </trkpt>
      <trkpt lat="42.637914" lon="-0.057815">
        <ele>2123.041</ele>
        <time>2025-05-24T09:29:15Z</time>
      </trkpt>
      <trkpt lat="42.638276" lon="-0.057218">
        <ele>2121.630</ele>
        <time>2025-05-24T09:29:31Z</time>
      </trkpt>
      <trkpt lat="42.638379" lon="-0.057193">
        <ele>2121.494</ele>
        <time>2025-05-24T09:29:37Z</time>
      </trkpt>
      <trkpt lat="42.638459" lon="-0.057410">
        <ele>2122.223</ele>
        <time>2025-05-24T09:31:53Z</time>
      </trkpt>
      <trkpt lat="42.638341" lon="-0.057168">
        <ele>2122.034</ele>
        <time>2025-05-24T09:32:18Z</time>
      </trkpt>
      <trkpt lat="42.638131" lon="-0.055417">
        <ele>2131.220</ele>
        <time>2025-05-24T09:33:12Z</time>
      </trkpt>
      <trkpt lat="42.637845" lon="-0.054110">
        <ele>2140.630</ele>
        <time>2025-05-24T09:33:57Z</time>
      </trkpt>
      <trkpt lat="42.637025" lon="-0.051365">
        <ele>2159.066</ele>
        <time>2025-05-24T09:35:27Z</time>
      </trkpt>
      <trkpt lat="42.636281" lon="-0.049923">
        <ele>2170.475</ele>
        <time>2025-05-24T09:36:21Z</time>
      </trkpt>
      <trkpt lat="42.635575" lon="-0.048153">
        <ele>2173.846</ele>
        <time>2025-05-24T09:37:08Z</time>
      </trkpt>
      <trkpt lat="42.634862" lon="-0.046823">
        <ele>2172.088</ele>
        <time>2025-05-24T09:37:32Z</time>
      </trkpt>
      <trkpt lat="42.634149" lon="-0.045033">
        <ele>2169.616</ele>
        <time>2025-05-24T09:38:04Z</time>
      </trkpt>
      <trkpt lat="42.633687" lon="-0.044340">
        <ele>2163.809</ele>
        <time>2025-05-24T09:42:04Z</time>
      </trkpt>
    </trkseg>
  </trk></gpx>