<?xml version="1.0" encoding="UTF-8"?>
<gpx creator="Wikiloc - https://www.wikiloc.com" version="1.1" xmlns="http://www.topografix.com/GPX/1/1" xmlns:xsi="http://www.w3.org/2001/XMLSchema-instance" xsi:schemaLocation="http://www.topografix.com/GPX/1/1 http://www.topografix.com/GPX/1/1/gpx.xsd">
  <metadata>
    <name>Wikiloc - Subida Ciudad Encantada desde Cuenca</name>
    <link href="https://www.wikiloc.com/cycling-trails/subida-ciudad-encantada-desde-cuenca-189996056">
      <text>Subida Ciudad Encantada desde Cuenca - Wikiloc on Wikiloc</text>
    </link>
    <time>2023-12-04T09:35:25Z</time>
  </metadata>
  <trk>
    <name>Subida Ciudad Encantada desde Cuenca - Wikiloc</name>
    <cmt></cmt>
    <desc></desc>
    <trkseg>
      <trkpt lat="40.076074" lon="-2.129337">
        <ele>886.433</ele>
        <time>2023-12-04T08:11:32Z</time>
      </trkpt>
      <trkpt lat="40.076188" lon="-2.129662">
        <ele>886.223</ele>
        <time>2023-12-04T08:11:51Z</time>
      </trkpt>
      <trkpt lat="40.075818" lon="-2.129975">
        <ele>885.015</ele>
        <time>2023-12-04T08:12:03Z</time>
      </trkpt>
      <trkpt lat="40.075330" lon="-2.130768">
        <ele>883.209</ele>
        <time>2023-12-04T08:12:18Z</time>
      </trkpt>
      <trkpt lat="40.074216" lon="-2.131562">
        <ele>880.424</ele>
        <time>2023-12-04T08:12:39Z</time>
      </trkpt>
      <trkpt lat="40.073979" lon="-2.131992">
        <ele>880.061</ele>
        <time>2023-12-04T08:12:53Z</time>
      </trkpt>
      <trkpt lat="40.074246" lon="-2.133845">
        <ele>876.072</ele>
        <time>2023-12-04T08:13:24Z</time>
      </trkpt>
      <trkpt lat="40.074502" lon="-2.134423">
        <ele>875.232</ele>
        <time>2023-12-04T08:13:41Z</time>
      </trkpt>
      <trkpt lat="40.075608" lon="-2.134937">
        <ele>871.492</ele>
        <time>2023-12-04T08:14:16Z</time>
      </trkpt>
      <trkpt lat="40.075646" lon="-2.135775">
        <ele>871.469</ele>
        <time>2023-12-04T08:14:32Z</time>
      </trkpt>
      <trkpt lat="40.076665" lon="-2.135670">
        <ele>870.033</ele>
        <time>2023-12-04T08:14:59Z</time>
      </trkpt>
      <trkpt lat="40.077153" lon="-2.135997">
        <ele>869.278</ele>
        <time>2023-12-04T08:15:10Z</time>
      </trkpt>
      <trkpt lat="40.076726" lon="-2.135740">
        <ele>869.219</ele>
        <time>2023-12-04T08:15:28Z</time>
      </trkpt>
      <trkpt lat="40.076257" lon="-2.135805">
        <ele>870.067</ele>
        <time>2023-12-04T08:15:42Z</time>
      </trkpt>
      <trkpt lat="40.076245" lon="-2.136383">
        <ele>875.681</ele>
        <time>2023-12-04T08:16:04Z</time>
      </trkpt>
      <trkpt lat="40.076688" lon="-2.136193">
        <ele>876.419</ele>
        <time>2023-12-04T08:16:22Z</time>
      </trkpt>
      <trkpt lat="40.076982" lon="-2.136247">
        <ele>876.209</ele>
        <time>2023-12-04T08:16:28Z</time>
      </trkpt>
      <trkpt lat="40.078088" lon="-2.137405">
        <ele>878.827</ele>
        <time>2023-12-04T08:17:00Z</time>
      </trkpt>
      <trkpt lat="40.078546" lon="-2.137187">
        <ele>879.014</ele>
        <time>2023-12-04T08:17:13Z</time>
      </trkpt>
      <trkpt lat="40.077603" lon="-2.133746">
        <ele>869.615</ele>
        <time>2023-12-04T08:17:55Z</time>
      </trkpt>
      <trkpt lat="40.077706" lon="-2.133193">
        <ele>869.635</ele>
        <time>2023-12-04T08:18:04Z</time>
      </trkpt>
      <trkpt lat="40.078595" lon="-2.132587">
        <ele>869.695</ele>
        <time>2023-12-04T08:18:23Z</time>
      </trkpt>
      <trkpt lat="40.079690" lon="-2.132648">
        <ele>869.242</ele>
        <time>2023-12-04T08:18:42Z</time>
      </trkpt>
      <trkpt lat="40.081338" lon="-2.131509">
        <ele>872.636</ele>
        <time>2023-12-04T08:19:16Z</time>
      </trkpt>
      <trkpt lat="40.083364" lon="-2.129217">
        <ele>880.041</ele>
        <time>2023-12-04T08:20:08Z</time>
      </trkpt>
      <trkpt lat="40.084508" lon="-2.129153">
        <ele>886.842</ele>
        <time>2023-12-04T08:20:32Z</time>
      </trkpt>
      <trkpt lat="40.087274" lon="-2.129774">
        <ele>887.439</ele>
        <time>2023-12-04T08:21:25Z</time>
      </trkpt>
      <trkpt lat="40.088433" lon="-2.129237">
        <ele>887.601</ele>
        <time>2023-12-04T08:21:47Z</time>
      </trkpt>
      <trkpt lat="40.089868" lon="-2.127940">
        <ele>887.021</ele>
        <time>2023-12-04T08:22:16Z</time>
      </trkpt>
      <trkpt lat="40.090306" lon="-2.127890">
        <ele>885.409</ele>
        <time>2023-12-04T08:22:22Z</time>
      </trkpt>
      <trkpt lat="40.090760" lon="-2.128388">
        <ele>882.214</ele>
        <time>2023-12-04T08:22:29Z</time>
      </trkpt>
      <trkpt lat="40.090936" lon="-2.130020">
        <ele>878.031</ele>
        <time>2023-12-04T08:22:43Z</time>
      </trkpt>
      <trkpt lat="40.091260" lon="-2.130823">
        <ele>878.052</ele>
        <time>2023-12-04T08:22:52Z</time>
      </trkpt>
      <trkpt lat="40.092767" lon="-2.132398">
        <ele>877.462</ele>
        <time>2023-12-04T08:23:19Z</time>
      </trkpt>
      <trkpt lat="40.093583" lon="-2.133050">
        <ele>877.212</ele>
        <time>2023-12-04T08:23:33Z</time>
      </trkpt>
      <trkpt lat="40.094804" lon="-2.133490">
        <ele>879.099</ele>
        <time>2023-12-04T08:23:53Z</time>
      </trkpt>
      <trkpt lat="40.095311" lon="-2.133439">
        <ele>880.033</ele>
        <time>2023-12-04T08:24:02Z</time>
      </trkpt>
      <trkpt lat="40.096017" lon="-2.133044">
        <ele>880.438</ele>
        <time>2023-12-04T08:24:15Z</time>
      </trkpt>
      <trkpt lat="40.096826" lon="-2.132215">
        <ele>881.629</ele>
        <time>2023-12-04T08:24:33Z</time>
      </trkpt>
      <trkpt lat="40.097314" lon="-2.129690">
        <ele>881.682</ele>
        <time>2023-12-04T08:25:07Z</time>
      </trkpt>
      <trkpt lat="40.097810" lon="-2.128263">
        <ele>882.843</ele>
        <time>2023-12-04T08:25:28Z</time>
      </trkpt>
      <trkpt lat="40.098763" lon="-2.126942">
        <ele>882.817</ele>
        <time>2023-12-04T08:25:52Z</time>
      </trkpt>
      <trkpt lat="40.100396" lon="-2.125659">
        <ele>883.409</ele>
        <time>2023-12-04T08:26:18Z</time>
      </trkpt>
      <trkpt lat="40.100785" lon="-2.125492">
        <ele>883.869</ele>
        <time>2023-12-04T08:26:24Z</time>
      </trkpt>
      <trkpt lat="40.101560" lon="-2.125677">
        <ele>884.866</ele>
        <time>2023-12-04T08:26:37Z</time>
      </trkpt>
      <trkpt lat="40.102120" lon="-2.126427">
        <ele>889.247</ele>
        <time>2023-12-04T08:26:52Z</time>
      </trkpt>
      <trkpt lat="40.102635" lon="-2.127742">
        <ele>890.057</ele>
        <time>2023-12-04T08:27:11Z</time>
      </trkpt>
      <trkpt lat="40.102578" lon="-2.129437">
        <ele>890.627</ele>
        <time>2023-12-04T08:27:32Z</time>
      </trkpt>
      <trkpt lat="40.102921" lon="-2.130185">
        <ele>889.664</ele>
        <time>2023-12-04T08:27:42Z</time>
      </trkpt>
      <trkpt lat="40.103303" lon="-2.130503">
        <ele>889.288</ele>
        <time>2023-12-04T08:27:48Z</time>
      </trkpt>
      <trkpt lat="40.105485" lon="-2.130585">
        <ele>888.473</ele>
        <time>2023-12-04T08:28:20Z</time>
      </trkpt>
      <trkpt lat="40.108460" lon="-2.132420">
        <ele>888.264</ele>
        <time>2023-12-04T08:29:07Z</time>
      </trkpt>
      <trkpt lat="40.110970" lon="-2.132405">
        <ele>886.675</ele>
        <time>2023-12-04T08:29:41Z</time>
      </trkpt>
      <trkpt lat="40.112279" lon="-2.132657">
        <ele>885.428</ele>
        <time>2023-12-04T08:29:58Z</time>
      </trkpt>
      <trkpt lat="40.112851" lon="-2.133013">
        <ele>885.620</ele>
        <time>2023-12-04T08:30:07Z</time>
      </trkpt>
      <trkpt lat="40.113896" lon="-2.134087">
        <ele>886.609</ele>
        <time>2023-12-04T08:30:26Z</time>
      </trkpt>
      <trkpt lat="40.114263" lon="-2.134260">
        <ele>887.028</ele>
        <time>2023-12-04T08:30:32Z</time>
      </trkpt>
      <trkpt lat="40.114854" lon="-2.134375">
        <ele>887.455</ele>
        <time>2023-12-04T08:30:42Z</time>
      </trkpt>
      <trkpt lat="40.115605" lon="-2.134160">
        <ele>885.266</ele>
        <time>2023-12-04T08:30:57Z</time>
      </trkpt>
      <trkpt lat="40.116483" lon="-2.134165">
        <ele>886.076</ele>
        <time>2023-12-04T08:36:20Z</time>
      </trkpt>
      <trkpt lat="40.116643" lon="-2.134589">
        <ele>886.046</ele>
        <time>2023-12-04T08:36:30Z</time>
      </trkpt>
      <trkpt lat="40.116387" lon="-2.134938">
        <ele>887.843</ele>
        <time>2023-12-04T08:36:39Z</time>
      </trkpt>
      <trkpt lat="40.116090" lon="-2.135030">
        <ele>890.817</ele>
        <time>2023-12-04T08:36:48Z</time>
      </trkpt>
      <trkpt lat="40.115693" lon="-2.134600">
        <ele>893.642</ele>
        <time>2023-12-04T08:37:04Z</time>
      </trkpt>
      <trkpt lat="40.115643" lon="-2.133389">
        <ele>893.483</ele>
        <time>2023-12-04T08:37:26Z</time>
      </trkpt>
      <trkpt lat="40.115861" lon="-2.133032">
        <ele>894.258</ele>
        <time>2023-12-04T08:37:35Z</time>
      </trkpt>
      <trkpt lat="40.117570" lon="-2.132215">
        <ele>892.252</ele>
        <time>2023-12-04T08:38:04Z</time>
      </trkpt>
      <trkpt lat="40.120889" lon="-2.130080">
        <ele>888.417</ele>
        <time>2023-12-04T08:38:51Z</time>
      </trkpt>
      <trkpt lat="40.121480" lon="-2.129960">
        <ele>888.609</ele>
        <time>2023-12-04T08:38:59Z</time>
      </trkpt>
      <trkpt lat="40.123567" lon="-2.130157">
        <ele>888.236</ele>
        <time>2023-12-04T08:39:26Z</time>
      </trkpt>
      <trkpt lat="40.124227" lon="-2.129777">
        <ele>889.013</ele>
        <time>2023-12-04T08:39:36Z</time>
      </trkpt>
      <trkpt lat="40.125840" lon="-2.128026">
        <ele>891.664</ele>
        <time>2023-12-04T08:40:07Z</time>
      </trkpt>
      <trkpt lat="40.126256" lon="-2.127333">
        <ele>892.694</ele>
        <time>2023-12-04T08:40:17Z</time>
      </trkpt>
      <trkpt lat="40.126908" lon="-2.125027">
        <ele>894.074</ele>
        <time>2023-12-04T08:40:45Z</time>
      </trkpt>
      <trkpt lat="40.130052" lon="-2.115743">
        <ele>905.271</ele>
        <time>2023-12-04T08:42:49Z</time>
      </trkpt>
      <trkpt lat="40.130624" lon="-2.115122">
        <ele>906.235</ele>
        <time>2023-12-04T08:43:02Z</time>
      </trkpt>
      <trkpt lat="40.132092" lon="-2.114057">
        <ele>906.870</ele>
        <time>2023-12-04T08:43:29Z</time>
      </trkpt>
      <trkpt lat="40.137025" lon="-2.108740">
        <ele>915.481</ele>
        <time>2023-12-04T08:45:13Z</time>
      </trkpt>
      <trkpt lat="40.139760" lon="-2.106553">
        <ele>916.264</ele>
        <time>2023-12-04T08:46:02Z</time>
      </trkpt>
      <trkpt lat="40.141915" lon="-2.101980">
        <ele>920.206</ele>
        <time>2023-12-04T08:47:08Z</time>
      </trkpt>
      <trkpt lat="40.142087" lon="-2.101220">
        <ele>921.016</ele>
        <time>2023-12-04T08:47:18Z</time>
      </trkpt>
      <trkpt lat="40.142186" lon="-2.099225">
        <ele>927.409</ele>
        <time>2023-12-04T08:47:50Z</time>
      </trkpt>
      <trkpt lat="40.142644" lon="-2.098248">
        <ele>925.077</ele>
        <time>2023-12-04T08:48:04Z</time>
      </trkpt>
      <trkpt lat="40.143022" lon="-2.096748">
        <ele>924.214</ele>
        <time>2023-12-04T08:48:22Z</time>
      </trkpt>
      <trkpt lat="40.143865" lon="-2.095798">
        <ele>926.675</ele>
        <time>2023-12-04T08:48:43Z</time>
      </trkpt>
      <trkpt lat="40.144376" lon="-2.094343">
        <ele>932.055</ele>
        <time>2023-12-04T08:49:08Z</time>
      </trkpt>
      <trkpt lat="40.145406" lon="-2.093287">
        <ele>935.225</ele>
        <time>2023-12-04T08:49:33Z</time>
      </trkpt>
      <trkpt lat="40.146085" lon="-2.093070">
        <ele>937.662</ele>
        <time>2023-12-04T08:49:47Z</time>
      </trkpt>
      <trkpt lat="40.146398" lon="-2.092797">
        <ele>938.496</ele>
        <time>2023-12-04T08:49:54Z</time>
      </trkpt>
      <trkpt lat="40.147069" lon="-2.091137">
        <ele>942.081</ele>
        <time>2023-12-04T08:50:21Z</time>
      </trkpt>
      <trkpt lat="40.148480" lon="-2.089272">
        <ele>945.412</ele>
        <time>2023-12-04T08:50:58Z</time>
      </trkpt>
      <trkpt lat="40.148919" lon="-2.087540">
        <ele>950.212</ele>
        <time>2023-12-04T08:51:24Z</time>
      </trkpt>
      <trkpt lat="40.149404" lon="-2.086700">
        <ele>952.232</ele>
        <time>2023-12-04T08:51:39Z</time>
      </trkpt>
      <trkpt lat="40.149766" lon="-2.084732">
        <ele>957.005</ele>
        <time>2023-12-04T08:52:10Z</time>
      </trkpt>
      <trkpt lat="40.150155" lon="-2.083954">
        <ele>959.609</ele>
        <time>2023-12-04T08:52:24Z</time>
      </trkpt>
      <trkpt lat="40.150289" lon="-2.083350">
        <ele>961.842</ele>
        <time>2023-12-04T08:52:34Z</time>
      </trkpt>
      <trkpt lat="40.149804" lon="-2.081460">
        <ele>966.429</ele>
        <time>2023-12-04T08:53:05Z</time>
      </trkpt>
      <trkpt lat="40.148919" lon="-2.079293">
        <ele>970.480</ele>
        <time>2023-12-04T08:53:42Z</time>
      </trkpt>
      <trkpt lat="40.148820" lon="-2.077441">
        <ele>974.240</ele>
        <time>2023-12-04T08:54:09Z</time>
      </trkpt>
      <trkpt lat="40.149842" lon="-2.074878">
        <ele>986.270</ele>
        <time>2023-12-04T08:55:02Z</time>
      </trkpt>
      <trkpt lat="40.149907" lon="-2.073275">
        <ele>994.297</ele>
        <time>2023-12-04T08:55:31Z</time>
      </trkpt>
      <trkpt lat="40.151128" lon="-2.071400">
        <ele>1006.061</ele>
        <time>2023-12-04T08:56:18Z</time>
      </trkpt>
      <trkpt lat="40.151208" lon="-2.069507">
        <ele>1016.666</ele>
        <time>2023-12-04T08:56:56Z</time>
      </trkpt>
      <trkpt lat="40.152024" lon="-2.067443">
        <ele>1025.827</ele>
        <time>2023-12-04T08:57:39Z</time>
      </trkpt>
      <trkpt lat="40.152112" lon="-2.064668">
        <ele>1035.252</ele>
        <time>2023-12-04T08:58:28Z</time>
      </trkpt>
      <trkpt lat="40.153150" lon="-2.061651">
        <ele>1041.053</ele>
        <time>2023-12-04T08:59:20Z</time>
      </trkpt>
      <trkpt lat="40.152829" lon="-2.058655">
        <ele>1050.408</ele>
        <time>2023-12-04T09:00:09Z</time>
      </trkpt>
      <trkpt lat="40.153321" lon="-2.055832">
        <ele>1059.809</ele>
        <time>2023-12-04T09:00:56Z</time>
      </trkpt>
      <trkpt lat="40.153180" lon="-2.054230">
        <ele>1063.816</ele>
        <time>2023-12-04T09:01:21Z</time>
      </trkpt>
      <trkpt lat="40.154077" lon="-2.051328">
        <ele>1070.843</ele>
        <time>2023-12-04T09:02:08Z</time>
      </trkpt>
      <trkpt lat="40.154401" lon="-2.049703">
        <ele>1077.244</ele>
        <time>2023-12-04T09:02:35Z</time>
      </trkpt>
      <trkpt lat="40.155328" lon="-2.047957">
        <ele>1083.434</ele>
        <time>2023-12-04T09:03:09Z</time>
      </trkpt>
      <trkpt lat="40.155477" lon="-2.046372">
        <ele>1089.614</ele>
        <time>2023-12-04T09:03:36Z</time>
      </trkpt>
      <trkpt lat="40.155824" lon="-2.045506">
        <ele>1095.861</ele>
        <time>2023-12-04T09:03:55Z</time>
      </trkpt>
      <trkpt lat="40.156911" lon="-2.043988">
        <ele>1107.095</ele>
        <time>2023-12-04T09:04:35Z</time>
      </trkpt>
      <trkpt lat="40.157433" lon="-2.043497">
        <ele>1111.440</ele>
        <time>2023-12-04T09:06:49Z</time>
      </trkpt>
      <trkpt lat="40.158856" lon="-2.042856">
        <ele>1120.021</ele>
        <time>2023-12-04T09:07:33Z</time>
      </trkpt>
      <trkpt lat="40.159883" lon="-2.042928">
        <ele>1127.652</ele>
        <time>2023-12-04T09:08:01Z</time>
      </trkpt>
      <trkpt lat="40.161466" lon="-2.041428">
        <ele>1141.853</ele>
        <time>2023-12-04T09:08:52Z</time>
      </trkpt>
      <trkpt lat="40.161942" lon="-2.040645">
        <ele>1146.408</ele>
        <time>2023-12-04T09:09:12Z</time>
      </trkpt>
      <trkpt lat="40.162175" lon="-2.039380">
        <ele>1151.609</ele>
        <time>2023-12-04T09:09:36Z</time>
      </trkpt>
      <trkpt lat="40.162705" lon="-2.037752">
        <ele>1158.616</ele>
        <time>2023-12-04T09:10:07Z</time>
      </trkpt>
      <trkpt lat="40.163411" lon="-2.036523">
        <ele>1163.813</ele>
        <time>2023-12-04T09:10:34Z</time>
      </trkpt>
      <trkpt lat="40.163640" lon="-2.035230">
        <ele>1170.444</ele>
        <time>2023-12-04T09:11:00Z</time>
      </trkpt>
      <trkpt lat="40.164479" lon="-2.034022">
        <ele>1175.684</ele>
        <time>2023-12-04T09:11:29Z</time>
      </trkpt>
      <trkpt lat="40.164548" lon="-2.033357">
        <ele>1177.624</ele>
        <time>2023-12-04T09:11:40Z</time>
      </trkpt>
      <trkpt lat="40.165196" lon="-2.031957">
        <ele>1183.681</ele>
        <time>2023-12-04T09:12:09Z</time>
      </trkpt>
      <trkpt lat="40.165570" lon="-2.031858">
        <ele>1184.025</ele>
        <time>2023-12-04T09:12:17Z</time>
      </trkpt>
      <trkpt lat="40.166112" lon="-2.032398">
        <ele>1185.080</ele>
        <time>2023-12-04T09:12:31Z</time>
      </trkpt>
      <trkpt lat="40.166562" lon="-2.032407">
        <ele>1187.281</ele>
        <time>2023-12-04T09:12:40Z</time>
      </trkpt>
      <trkpt lat="40.167401" lon="-2.032062">
        <ele>1189.837</ele>
        <time>2023-12-04T09:12:59Z</time>
      </trkpt>
      <trkpt lat="40.167874" lon="-2.031593">
        <ele>1191.249</ele>
        <time>2023-12-04T09:13:11Z</time>
      </trkpt>
      <trkpt lat="40.168687" lon="-2.031392">
        <ele>1195.013</ele>
        <time>2023-12-04T09:13:29Z</time>
      </trkpt>
      <trkpt lat="40.169106" lon="-2.030628">
        <ele>1199.209</ele>
        <time>2023-12-04T09:13:45Z</time>
      </trkpt>
      <trkpt lat="40.170098" lon="-2.030048">
        <ele>1204.454</ele>
        <time>2023-12-04T09:14:10Z</time>
      </trkpt>
      <trkpt lat="40.171491" lon="-2.029528">
        <ele>1212.081</ele>
        <time>2023-12-04T09:14:43Z</time>
      </trkpt>
      <trkpt lat="40.172131" lon="-2.029825">
        <ele>1215.282</ele>
        <time>2023-12-04T09:14:58Z</time>
      </trkpt>
      <trkpt lat="40.172521" lon="-2.029777">
        <ele>1217.052</ele>
        <time>2023-12-04T09:15:07Z</time>
      </trkpt>
      <trkpt lat="40.173005" lon="-2.029572">
        <ele>1218.872</ele>
        <time>2023-12-04T09:15:18Z</time>
      </trkpt>
      <trkpt lat="40.173310" lon="-2.029270">
        <ele>1219.419</ele>
        <time>2023-12-04T09:15:26Z</time>
      </trkpt>
      <trkpt lat="40.173711" lon="-2.028737">
        <ele>1220.893</ele>
        <time>2023-12-04T09:15:38Z</time>
      </trkpt>
      <trkpt lat="40.173924" lon="-2.028110">
        <ele>1221.848</ele>
        <time>2023-12-04T09:15:49Z</time>
      </trkpt>
      <trkpt lat="40.173562" lon="-2.027030">
        <ele>1225.859</ele>
        <time>2023-12-04T09:16:08Z</time>
      </trkpt>
      <trkpt lat="40.173627" lon="-2.026577">
        <ele>1228.049</ele>
        <time>2023-12-04T09:16:16Z</time>
      </trkpt>
      <trkpt lat="40.173924" lon="-2.026248">
        <ele>1230.202</ele>
        <time>2023-12-04T09:16:25Z</time>
      </trkpt>
      <trkpt lat="40.174840" lon="-2.026147">
        <ele>1237.622</ele>
        <time>2023-12-04T09:16:49Z</time>
      </trkpt>
      <trkpt lat="40.175344" lon="-2.025865">
        <ele>1242.209</ele>
        <time>2023-12-04T09:17:03Z</time>
      </trkpt>
      <trkpt lat="40.176267" lon="-2.024028">
        <ele>1255.645</ele>
        <time>2023-12-04T09:17:47Z</time>
      </trkpt>
      <trkpt lat="40.176335" lon="-2.022937">
        <ele>1262.452</ele>
        <time>2023-12-04T09:18:10Z</time>
      </trkpt>
      <trkpt lat="40.176194" lon="-2.021762">
        <ele>1269.443</ele>
        <time>2023-12-04T09:18:34Z</time>
      </trkpt>
      <trkpt lat="40.175984" lon="-2.021194">
        <ele>1273.473</ele>
        <time>2023-12-04T09:18:47Z</time>
      </trkpt>
      <trkpt lat="40.176023" lon="-2.020884">
        <ele>1275.423</ele>
        <time>2023-12-04T09:18:54Z</time>
      </trkpt>
      <trkpt lat="40.176267" lon="-2.020682">
        <ele>1277.840</ele>
        <time>2023-12-04T09:19:03Z</time>
      </trkpt>
      <trkpt lat="40.176515" lon="-2.020850">
        <ele>1280.244</ele>
        <time>2023-12-04T09:19:11Z</time>
      </trkpt>
      <trkpt lat="40.176679" lon="-2.022405">
        <ele>1287.419</ele>
        <time>2023-12-04T09:19:44Z</time>
      </trkpt>
      <trkpt lat="40.176965" lon="-2.023003">
        <ele>1290.850</ele>
        <time>2023-12-04T09:19:58Z</time>
      </trkpt>
      <trkpt lat="40.176667" lon="-2.024738">
        <ele>1300.091</ele>
        <time>2023-12-04T09:20:34Z</time>
      </trkpt>
      <trkpt lat="40.176858" lon="-2.025997">
        <ele>1306.281</ele>
        <time>2023-12-04T09:20:59Z</time>
      </trkpt>
      <trkpt lat="40.177136" lon="-2.026458">
        <ele>1309.419</ele>
        <time>2023-12-04T09:21:11Z</time>
      </trkpt>
      <trkpt lat="40.177461" lon="-2.026647">
        <ele>1311.409</ele>
        <time>2023-12-04T09:21:20Z</time>
      </trkpt>
      <trkpt lat="40.177835" lon="-2.026674">
        <ele>1313.220</ele>
        <time>2023-12-04T09:21:29Z</time>
      </trkpt>
      <trkpt lat="40.178079" lon="-2.026462">
        <ele>1314.497</ele>
        <time>2023-12-04T09:21:36Z</time>
      </trkpt>
      <trkpt lat="40.181722" lon="-2.020248">
        <ele>1323.648</ele>
        <time>2023-12-04T09:23:28Z</time>
      </trkpt>
      <trkpt lat="40.182370" lon="-2.018821">
        <ele>1320.018</ele>
        <time>2023-12-04T09:23:46Z</time>
      </trkpt>
      <trkpt lat="40.182916" lon="-2.016385">
        <ele>1312.498</ele>
        <time>2023-12-04T09:24:06Z</time>
      </trkpt>
      <trkpt lat="40.183099" lon="-2.016200">
        <ele>1311.645</ele>
        <time>2023-12-04T09:24:09Z</time>
      </trkpt>
      <trkpt lat="40.183858" lon="-2.016602">
        <ele>1311.669</ele>
        <time>2023-12-04T09:24:21Z</time>
      </trkpt>
      <trkpt lat="40.184148" lon="-2.016460">
        <ele>1313.064</ele>
        <time>2023-12-04T09:24:27Z</time>
      </trkpt>
      <trkpt lat="40.184278" lon="-2.015165">
        <ele>1316.085</ele>
        <time>2023-12-04T09:24:46Z</time>
      </trkpt>
      <trkpt lat="40.185060" lon="-2.013583">
        <ele>1307.264</ele>
        <time>2023-12-04T09:25:02Z</time>
      </trkpt>
      <trkpt lat="40.186681" lon="-2.011870">
        <ele>1299.806</ele>
        <time>2023-12-04T09:25:23Z</time>
      </trkpt>
      <trkpt lat="40.186780" lon="-2.011272">
        <ele>1303.616</ele>
        <time>2023-12-04T09:25:33Z</time>
      </trkpt>
      <trkpt lat="40.186673" lon="-2.010306">
        <ele>1309.209</ele>
        <time>2023-12-04T09:25:49Z</time>
      </trkpt>
      <trkpt lat="40.186807" lon="-2.009708">
        <ele>1311.827</ele>
        <time>2023-12-04T09:25:59Z</time>
      </trkpt>
      <trkpt lat="40.187810" lon="-2.007030">
        <ele>1324.064</ele>
        <time>2023-12-04T09:26:51Z</time>
      </trkpt>
      <trkpt lat="40.188493" lon="-2.006020">
        <ele>1330.655</ele>
        <time>2023-12-04T09:27:16Z</time>
      </trkpt>
      <trkpt lat="40.188649" lon="-2.004292">
        <ele>1339.295</ele>
        <time>2023-12-04T09:27:49Z</time>
      </trkpt>
      <trkpt lat="40.188951" lon="-2.003393">
        <ele>1344.055</ele>
        <time>2023-12-04T09:28:08Z</time>
      </trkpt>
      <trkpt lat="40.189179" lon="-2.001872">
        <ele>1354.482</ele>
        <time>2023-12-04T09:28:46Z</time>
      </trkpt>
      <trkpt lat="40.189496" lon="-2.000698">
        <ele>1362.626</ele>
        <time>2023-12-04T09:29:12Z</time>
      </trkpt>
      <trkpt lat="40.189897" lon="-2.000078">
        <ele>1367.091</ele>
        <time>2023-12-04T09:29:28Z</time>
      </trkpt>
      <trkpt lat="40.190583" lon="-1.999917">
        <ele>1369.242</ele>
        <time>2023-12-04T09:29:45Z</time>
      </trkpt>
      <trkpt lat="40.191365" lon="-2.000490">
        <ele>1368.283</ele>
        <time>2023-12-04T09:30:04Z</time>
      </trkpt>
      <trkpt lat="40.192212" lon="-2.000860">
        <ele>1363.025</ele>
        <time>2023-12-04T09:30:16Z</time>
      </trkpt>
      <trkpt lat="40.193627" lon="-2.002498">
        <ele>1350.217</ele>
        <time>2023-12-04T09:30:34Z</time>
      </trkpt>
      <trkpt lat="40.195455" lon="-2.003602">
        <ele>1348.009</ele>
        <time>2023-12-04T09:30:59Z</time>
      </trkpt>
      <trkpt lat="40.195783" lon="-2.004130">
        <ele>1350.229</ele>
        <time>2023-12-04T09:31:09Z</time>
      </trkpt>
      <trkpt lat="40.195905" lon="-2.005457">
        <ele>1353.866</ele>
        <time>2023-12-04T09:31:30Z</time>
      </trkpt>
      <trkpt lat="40.196286" lon="-2.005978">
        <ele>1356.067</ele>
        <time>2023-12-04T09:31:42Z</time>
      </trkpt>
      <trkpt lat="40.198224" lon="-2.006390">
        <ele>1355.497</ele>
        <time>2023-12-04T09:32:18Z</time>
      </trkpt>
      <trkpt lat="40.198949" lon="-2.006077">
        <ele>1352.667</ele>
        <time>2023-12-04T09:32:29Z</time>
      </trkpt>
      <trkpt lat="40.199624" lon="-2.005568">
        <ele>1350.654</ele>
        <time>2023-12-04T09:32:39Z</time>
      </trkpt>
      <trkpt lat="40.199929" lon="-2.005540">
        <ele>1350.458</ele>
        <time>2023-12-04T09:32:43Z</time>
      </trkpt>
      <trkpt lat="40.200406" lon="-2.006015">
        <ele>1351.063</ele>
        <time>2023-12-04T09:32:52Z</time>
      </trkpt>
      <trkpt lat="40.200742" lon="-2.007523">
        <ele>1354.274</ele>
        <time>2023-12-04T09:33:13Z</time>
      </trkpt>
      <trkpt lat="40.200990" lon="-2.007770">
        <ele>1355.014</ele>
        <time>2023-12-04T09:33:19Z</time>
      </trkpt>
      <trkpt lat="40.201760" lon="-2.008108">
        <ele>1357.654</ele>
        <time>2023-12-04T09:33:34Z</time>
      </trkpt>
      <trkpt lat="40.203427" lon="-2.007864">
        <ele>1362.609</ele>
        <time>2023-12-04T09:34:05Z</time>
      </trkpt>
      <trkpt lat="40.205277" lon="-2.006707">
        <ele>1372.609</ele>
        <time>2023-12-04T09:34:48Z</time>
      </trkpt>
      <trkpt lat="40.206548" lon="-2.005527">
        <ele>1377.642</ele>
        <time>2023-12-04T09:35:25Z</time>
      </trkpt>
    </trkseg>
  </trk></gpx>