<?xml version="1.0" encoding="UTF-8"?>
<gpx creator="Wikiloc - https://www.wikiloc.com" version="1.1" xmlns="http://www.topografix.com/GPX/1/1" xmlns:xsi="http://www.w3.org/2001/XMLSchema-instance" xsi:schemaLocation="http://www.topografix.com/GPX/1/1 http://www.topografix.com/GPX/1/1/gpx.xsd">
  <metadata>
    <name>Wikiloc - TAL-MERĦLA (por Migra i-Furħa)</name>
    <link href="https://www.wikiloc.com/cycling-trails/tal-merhla-por-migra-i-furha-253012167">
      <text>TAL-MERĦLA (por Migra i-Furħa) - Wikiloc on Wikiloc</text>
    </link>
    <time>2026-07-16T09:58:37.040Z</time>
  </metadata>
  <trk>
    <name>TAL-MERĦLA (por Migra i-Furħa) - Wikiloc</name>
    <cmt></cmt>
    <desc></desc>
    <trkseg>
      <trkpt lat="35.874600" lon="14.342150">
        <ele>30.418</ele>
        <time>2026-07-16T09:58:37.040Z</time>
      </trkpt>
      <trkpt lat="35.874630" lon="14.342270">
        <ele>32.498</ele>
        <time>2026-07-16T09:58:57.040Z</time>
      </trkpt>
      <trkpt lat="35.874700" lon="14.342380">
        <ele>34.217</ele>
        <time>2026-07-16T09:59:17.040Z</time>
      </trkpt>
      <trkpt lat="35.874810" lon="14.342470">
        <ele>36.809</ele>
        <time>2026-07-16T09:59:37.040Z</time>
      </trkpt>
      <trkpt lat="35.874970" lon="14.342570">
        <ele>39.993</ele>
        <time>2026-07-16T09:59:57.040Z</time>
      </trkpt>
      <trkpt lat="35.875090" lon="14.342600">
        <ele>41.296</ele>
        <time>2026-07-16T10:00:17.040Z</time>
      </trkpt>
      <trkpt lat="35.875210" lon="14.342590">
        <ele>42.394</ele>
        <time>2026-07-16T10:00:37.040Z</time>
      </trkpt>
      <trkpt lat="35.875310" lon="14.342570">
        <ele>43.081</ele>
        <time>2026-07-16T10:00:57.040Z</time>
      </trkpt>
      <trkpt lat="35.875430" lon="14.342490">
        <ele>42.952</ele>
        <time>2026-07-16T10:01:17.040Z</time>
      </trkpt>
      <trkpt lat="35.876250" lon="14.341730">
        <ele>47.913</ele>
        <time>2026-07-16T10:01:37.040Z</time>
      </trkpt>
      <trkpt lat="35.876310" lon="14.341620">
        <ele>47.652</ele>
        <time>2026-07-16T10:01:57.040Z</time>
      </trkpt>
      <trkpt lat="35.876350" lon="14.341390">
        <ele>43.057</ele>
        <time>2026-07-16T10:02:17.040Z</time>
      </trkpt>
      <trkpt lat="35.876380" lon="14.341320">
        <ele>43.568</ele>
        <time>2026-07-16T10:02:37.040Z</time>
      </trkpt>
      <trkpt lat="35.876430" lon="14.341280">
        <ele>45.315</ele>
        <time>2026-07-16T10:02:57.040Z</time>
      </trkpt>
      <trkpt lat="35.876480" lon="14.341290">
        <ele>47.565</ele>
        <time>2026-07-16T10:03:17.040Z</time>
      </trkpt>
      <trkpt lat="35.876510" lon="14.341340">
        <ele>49.011</ele>
        <time>2026-07-16T10:03:37.040Z</time>
      </trkpt>
      <trkpt lat="35.876520" lon="14.341400">
        <ele>49.909</ele>
        <time>2026-07-16T10:03:57.040Z</time>
      </trkpt>
      <trkpt lat="35.876460" lon="14.341830">
        <ele>54.453</ele>
        <time>2026-07-16T10:04:17.040Z</time>
      </trkpt>
      <trkpt lat="35.876410" lon="14.342320">
        <ele>55.836</ele>
        <time>2026-07-16T10:04:37.040Z</time>
      </trkpt>
      <trkpt lat="35.876430" lon="14.343410">
        <ele>69.434</ele>
        <time>2026-07-16T10:04:57.040Z</time>
      </trkpt>
      <trkpt lat="35.876450" lon="14.343500">
        <ele>70.751</ele>
        <time>2026-07-16T10:05:17.040Z</time>
      </trkpt>
      <trkpt lat="35.876510" lon="14.343570">
        <ele>73.052</ele>
        <time>2026-07-16T10:05:37.040Z</time>
      </trkpt>
      <trkpt lat="35.876840" lon="14.343810">
        <ele>82.043</ele>
        <time>2026-07-16T10:05:57.040Z</time>
      </trkpt>
      <trkpt lat="35.876940" lon="14.343840">
        <ele>84.522</ele>
        <time>2026-07-16T10:06:17.040Z</time>
      </trkpt>
      <trkpt lat="35.877010" lon="14.343830">
        <ele>86.087</ele>
        <time>2026-07-16T10:06:37.040Z</time>
      </trkpt>
      <trkpt lat="35.877070" lon="14.343800">
        <ele>87.178</ele>
        <time>2026-07-16T10:06:57.040Z</time>
      </trkpt>
      <trkpt lat="35.877370" lon="14.343250">
        <ele>91.229</ele>
        <time>2026-07-16T10:07:17.040Z</time>
      </trkpt>
      <trkpt lat="35.877490" lon="14.343080">
        <ele>94.800</ele>
        <time>2026-07-16T10:07:37.040Z</time>
      </trkpt>
      <trkpt lat="35.877560" lon="14.343060">
        <ele>96.520</ele>
        <time>2026-07-16T10:07:57.040Z</time>
      </trkpt>
      <trkpt lat="35.877620" lon="14.343150">
        <ele>98.209</ele>
        <time>2026-07-16T10:08:17.040Z</time>
      </trkpt>
      <trkpt lat="35.877580" lon="14.343480">
        <ele>97.494</ele>
        <time>2026-07-16T10:08:37.040Z</time>
      </trkpt>
      <trkpt lat="35.877590" lon="14.343600">
        <ele>97.347</ele>
        <time>2026-07-16T10:08:57.040Z</time>
      </trkpt>
      <trkpt lat="35.877770" lon="14.343780">
        <ele>101.815</ele>
        <time>2026-07-16T10:09:17.040Z</time>
      </trkpt>
      <trkpt lat="35.878670" lon="14.344250">
        <ele>120.772</ele>
        <time>2026-07-16T10:09:37.040Z</time>
      </trkpt>
      <trkpt lat="35.878760" lon="14.344140">
        <ele>121.613</ele>
        <time>2026-07-16T10:09:57.040Z</time>
      </trkpt>
      <trkpt lat="35.878930" lon="14.343490">
        <ele>124.794</ele>
        <time>2026-07-16T10:10:17.040Z</time>
      </trkpt>
      <trkpt lat="35.879110" lon="14.343230">
        <ele>128.153</ele>
        <time>2026-07-16T10:10:37.040Z</time>
      </trkpt>
      <trkpt lat="35.879330" lon="14.343040">
        <ele>129.048</ele>
        <time>2026-07-16T10:10:57.040Z</time>
      </trkpt>
      <trkpt lat="35.880240" lon="14.343030">
        <ele>138.299</ele>
        <time>2026-07-16T10:11:17.040Z</time>
      </trkpt>
      <trkpt lat="35.880520" lon="14.343250">
        <ele>140.868</ele>
        <time>2026-07-16T10:11:37.040Z</time>
      </trkpt>
      <trkpt lat="35.880820" lon="14.343620">
        <ele>147.342</ele>
        <time>2026-07-16T10:11:57.040Z</time>
      </trkpt>
      <trkpt lat="35.881470" lon="14.344250">
        <ele>163.726</ele>
        <time>2026-07-16T10:12:17.040Z</time>
      </trkpt>
      <trkpt lat="35.882280" lon="14.344550">
        <ele>171.909</ele>
        <time>2026-07-16T10:12:37.040Z</time>
      </trkpt>
      <trkpt lat="35.882520" lon="14.344600">
        <ele>174.338</ele>
        <time>2026-07-16T10:12:57.040Z</time>
      </trkpt>
      <trkpt lat="35.882610" lon="14.344560">
        <ele>174.361</ele>
        <time>2026-07-16T10:13:17.040Z</time>
      </trkpt>
      <trkpt lat="35.882680" lon="14.344490">
        <ele>173.889</ele>
        <time>2026-07-16T10:13:37.040Z</time>
      </trkpt>
      <trkpt lat="35.882760" lon="14.344300">
        <ele>172.516</ele>
        <time>2026-07-16T10:13:57.040Z</time>
      </trkpt>
      <trkpt lat="35.882920" lon="14.343740">
        <ele>168.497</ele>
        <time>2026-07-16T10:14:17.040Z</time>
      </trkpt>
      <trkpt lat="35.883000" lon="14.343610">
        <ele>168.638</ele>
        <time>2026-07-16T10:14:37.040Z</time>
      </trkpt>
      <trkpt lat="35.883060" lon="14.343600">
        <ele>170.097</ele>
        <time>2026-07-16T10:14:57.040Z</time>
      </trkpt>
      <trkpt lat="35.883110" lon="14.343690">
        <ele>172.692</ele>
        <time>2026-07-16T10:15:17.040Z</time>
      </trkpt>
      <trkpt lat="35.882900" lon="14.344680">
        <ele>180.323</ele>
        <time>2026-07-16T10:15:37.040Z</time>
      </trkpt>
      <trkpt lat="35.882830" lon="14.344850">
        <ele>181.493</ele>
        <time>2026-07-16T10:15:57.040Z</time>
      </trkpt>
      <trkpt lat="35.882900" lon="14.344800">
        <ele>181.665</ele>
        <time>2026-07-16T10:16:17.040Z</time>
      </trkpt>
    </trkseg>
  </trk></gpx>