<?xml version="1.0" encoding="UTF-8"?>
<gpx creator="Wikiloc - https://www.wikiloc.com" version="1.1" xmlns="http://www.topografix.com/GPX/1/1" xmlns:xsi="http://www.w3.org/2001/XMLSchema-instance" xsi:schemaLocation="http://www.topografix.com/GPX/1/1 http://www.topografix.com/GPX/1/1/gpx.xsd">
  <metadata>
    <name>Wikiloc - Túnel de Bielsa</name>
    <link href="https://www.wikiloc.com/cycling-trails/tunel-de-bielsa-269553567">
      <text>Túnel de Bielsa - Wikiloc on Wikiloc</text>
    </link>
    <time>2025-08-05T10:53:17Z</time>
  </metadata>
  <trk>
    <name>Túnel de Bielsa - Wikiloc</name>
    <cmt></cmt>
    <desc></desc>
    <trkseg>
      <trkpt lat="42.584991" lon="0.217316">
        <ele>791.495</ele>
        <time>2025-08-05T09:40:43Z</time>
      </trkpt>
      <trkpt lat="42.584673" lon="0.220181">
        <ele>806.249</ele>
        <time>2025-08-05T09:42:01Z</time>
      </trkpt>
      <trkpt lat="42.584829" lon="0.222536">
        <ele>825.423</ele>
        <time>2025-08-05T09:43:08Z</time>
      </trkpt>
      <trkpt lat="42.585210" lon="0.223064">
        <ele>831.209</ele>
        <time>2025-08-05T09:43:30Z</time>
      </trkpt>
      <trkpt lat="42.586364" lon="0.223673">
        <ele>842.711</ele>
        <time>2025-08-05T09:44:19Z</time>
      </trkpt>
      <trkpt lat="42.587400" lon="0.224477">
        <ele>852.565</ele>
        <time>2025-08-05T09:44:57Z</time>
      </trkpt>
      <trkpt lat="42.587981" lon="0.225197">
        <ele>857.598</ele>
        <time>2025-08-05T09:45:20Z</time>
      </trkpt>
      <trkpt lat="42.588108" lon="0.225769">
        <ele>860.564</ele>
        <time>2025-08-05T09:45:34Z</time>
      </trkpt>
      <trkpt lat="42.588163" lon="0.228275">
        <ele>873.584</ele>
        <time>2025-08-05T09:46:29Z</time>
      </trkpt>
      <trkpt lat="42.589003" lon="0.230687">
        <ele>883.042</ele>
        <time>2025-08-05T09:47:19Z</time>
      </trkpt>
      <trkpt lat="42.589693" lon="0.232122">
        <ele>886.444</ele>
        <time>2025-08-05T09:47:49Z</time>
      </trkpt>
      <trkpt lat="42.592593" lon="0.234467">
        <ele>892.585</ele>
        <time>2025-08-05T09:48:49Z</time>
      </trkpt>
      <trkpt lat="42.595111" lon="0.236906">
        <ele>897.566</ele>
        <time>2025-08-05T09:49:39Z</time>
      </trkpt>
      <trkpt lat="42.596015" lon="0.237469">
        <ele>901.074</ele>
        <time>2025-08-05T09:49:56Z</time>
      </trkpt>
      <trkpt lat="42.597323" lon="0.237915">
        <ele>906.256</ele>
        <time>2025-08-05T09:50:20Z</time>
      </trkpt>
      <trkpt lat="42.599767" lon="0.239813">
        <ele>912.421</ele>
        <time>2025-08-05T09:51:06Z</time>
      </trkpt>
      <trkpt lat="42.600362" lon="0.240114">
        <ele>914.709</ele>
        <time>2025-08-05T09:51:17Z</time>
      </trkpt>
      <trkpt lat="42.601187" lon="0.240299">
        <ele>917.299</ele>
        <time>2025-08-05T09:51:31Z</time>
      </trkpt>
      <trkpt lat="42.603004" lon="0.240138">
        <ele>920.453</ele>
        <time>2025-08-05T09:52:00Z</time>
      </trkpt>
      <trkpt lat="42.605553" lon="0.239175">
        <ele>928.586</ele>
        <time>2025-08-05T09:52:43Z</time>
      </trkpt>
      <trkpt lat="42.608342" lon="0.238631">
        <ele>936.572</ele>
        <time>2025-08-05T09:53:30Z</time>
      </trkpt>
      <trkpt lat="42.609795" lon="0.237927">
        <ele>940.052</ele>
        <time>2025-08-05T09:53:55Z</time>
      </trkpt>
      <trkpt lat="42.610064" lon="0.237696">
        <ele>940.750</ele>
        <time>2025-08-05T09:54:00Z</time>
      </trkpt>
      <trkpt lat="42.610310" lon="0.237165">
        <ele>941.772</ele>
        <time>2025-08-05T09:54:07Z</time>
      </trkpt>
      <trkpt lat="42.610269" lon="0.235507">
        <ele>943.733</ele>
        <time>2025-08-05T09:54:25Z</time>
      </trkpt>
      <trkpt lat="42.610649" lon="0.234629">
        <ele>945.234</ele>
        <time>2025-08-05T09:54:37Z</time>
      </trkpt>
      <trkpt lat="42.612012" lon="0.233629">
        <ele>950.731</ele>
        <time>2025-08-05T09:55:06Z</time>
      </trkpt>
      <trkpt lat="42.614985" lon="0.232014">
        <ele>963.061</ele>
        <time>2025-08-05T09:56:04Z</time>
      </trkpt>
      <trkpt lat="42.616718" lon="0.230895">
        <ele>962.207</ele>
        <time>2025-08-05T09:56:31Z</time>
      </trkpt>
      <trkpt lat="42.618301" lon="0.230835">
        <ele>962.409</ele>
        <time>2025-08-05T09:56:54Z</time>
      </trkpt>
      <trkpt lat="42.620133" lon="0.231181">
        <ele>971.525</ele>
        <time>2025-08-05T09:57:29Z</time>
      </trkpt>
      <trkpt lat="42.620770" lon="0.231111">
        <ele>975.099</ele>
        <time>2025-08-05T09:57:42Z</time>
      </trkpt>
      <trkpt lat="42.622899" lon="0.229732">
        <ele>984.072</ele>
        <time>2025-08-05T09:58:28Z</time>
      </trkpt>
      <trkpt lat="42.624439" lon="0.228371">
        <ele>990.088</ele>
        <time>2025-08-05T09:59:04Z</time>
      </trkpt>
      <trkpt lat="42.625357" lon="0.228000">
        <ele>993.578</ele>
        <time>2025-08-05T09:59:23Z</time>
      </trkpt>
      <trkpt lat="42.626969" lon="0.227769">
        <ele>1000.516</ele>
        <time>2025-08-05T09:59:56Z</time>
      </trkpt>
      <trkpt lat="42.627399" lon="0.227233">
        <ele>1002.468</ele>
        <time>2025-08-05T10:00:07Z</time>
      </trkpt>
      <trkpt lat="42.627766" lon="0.225682">
        <ele>1003.029</ele>
        <time>2025-08-05T10:00:25Z</time>
      </trkpt>
      <trkpt lat="42.629135" lon="0.223760">
        <ele>1001.460</ele>
        <time>2025-08-05T10:00:51Z</time>
      </trkpt>
      <trkpt lat="42.631235" lon="0.221759">
        <ele>1007.053</ele>
        <time>2025-08-05T10:01:32Z</time>
      </trkpt>
      <trkpt lat="42.633380" lon="0.221234">
        <ele>1014.404</ele>
        <time>2025-08-05T10:02:11Z</time>
      </trkpt>
      <trkpt lat="42.635059" lon="0.220108">
        <ele>1021.014</ele>
        <time>2025-08-05T10:02:48Z</time>
      </trkpt>
      <trkpt lat="42.635882" lon="0.218846">
        <ele>1023.709</ele>
        <time>2025-08-05T10:03:10Z</time>
      </trkpt>
      <trkpt lat="42.636870" lon="0.216556">
        <ele>1029.417</ele>
        <time>2025-08-05T10:03:44Z</time>
      </trkpt>
      <trkpt lat="42.637208" lon="0.216130">
        <ele>1030.471</ele>
        <time>2025-08-05T10:03:52Z</time>
      </trkpt>
      <trkpt lat="42.639774" lon="0.214827">
        <ele>1036.814</ele>
        <time>2025-08-05T10:04:42Z</time>
      </trkpt>
      <trkpt lat="42.642112" lon="0.214477">
        <ele>1045.110</ele>
        <time>2025-08-05T10:05:25Z</time>
      </trkpt>
      <trkpt lat="42.642488" lon="0.214022">
        <ele>1046.830</ele>
        <time>2025-08-05T10:05:35Z</time>
      </trkpt>
      <trkpt lat="42.642849" lon="0.212955">
        <ele>1049.528</ele>
        <time>2025-08-05T10:05:51Z</time>
      </trkpt>
      <trkpt lat="42.643272" lon="0.212363">
        <ele>1051.870</ele>
        <time>2025-08-05T10:06:03Z</time>
      </trkpt>
      <trkpt lat="42.643770" lon="0.212188">
        <ele>1053.551</ele>
        <time>2025-08-05T10:06:14Z</time>
      </trkpt>
      <trkpt lat="42.644945" lon="0.212165">
        <ele>1058.032</ele>
        <time>2025-08-05T10:06:39Z</time>
      </trkpt>
      <trkpt lat="42.645743" lon="0.211903">
        <ele>1061.516</ele>
        <time>2025-08-05T10:06:56Z</time>
      </trkpt>
      <trkpt lat="42.646384" lon="0.211449">
        <ele>1064.576</ele>
        <time>2025-08-05T10:07:11Z</time>
      </trkpt>
      <trkpt lat="42.647814" lon="0.209686">
        <ele>1070.013</ele>
        <time>2025-08-05T10:07:48Z</time>
      </trkpt>
      <trkpt lat="42.648212" lon="0.209428">
        <ele>1070.409</ele>
        <time>2025-08-05T10:07:56Z</time>
      </trkpt>
      <trkpt lat="42.650035" lon="0.209440">
        <ele>1075.193</ele>
        <time>2025-08-05T10:08:31Z</time>
      </trkpt>
      <trkpt lat="42.652610" lon="0.208118">
        <ele>1085.177</ele>
        <time>2025-08-05T10:09:28Z</time>
      </trkpt>
      <trkpt lat="42.654600" lon="0.207957">
        <ele>1091.160</ele>
        <time>2025-08-05T10:10:08Z</time>
      </trkpt>
      <trkpt lat="42.657184" lon="0.209268">
        <ele>1107.886</ele>
        <time>2025-08-05T10:11:15Z</time>
      </trkpt>
      <trkpt lat="42.661690" lon="0.209300">
        <ele>1116.056</ele>
        <time>2025-08-05T10:12:40Z</time>
      </trkpt>
      <trkpt lat="42.662641" lon="0.209536">
        <ele>1119.834</ele>
        <time>2025-08-05T10:12:59Z</time>
      </trkpt>
      <trkpt lat="42.663563" lon="0.210150">
        <ele>1123.596</ele>
        <time>2025-08-05T10:13:19Z</time>
      </trkpt>
      <trkpt lat="42.665016" lon="0.211899">
        <ele>1133.177</ele>
        <time>2025-08-05T10:14:01Z</time>
      </trkpt>
      <trkpt lat="42.665498" lon="0.212274">
        <ele>1136.018</ele>
        <time>2025-08-05T10:14:13Z</time>
      </trkpt>
      <trkpt lat="42.670191" lon="0.214195">
        <ele>1165.114</ele>
        <time>2025-08-05T10:16:23Z</time>
      </trkpt>
      <trkpt lat="42.672761" lon="0.214625">
        <ele>1173.854</ele>
        <time>2025-08-05T10:17:24Z</time>
      </trkpt>
      <trkpt lat="42.673258" lon="0.214577">
        <ele>1178.409</ele>
        <time>2025-08-05T10:17:41Z</time>
      </trkpt>
      <trkpt lat="42.674485" lon="0.214122">
        <ele>1187.109</ele>
        <time>2025-08-05T10:18:19Z</time>
      </trkpt>
      <trkpt lat="42.675834" lon="0.214445">
        <ele>1191.573</ele>
        <time>2025-08-05T10:18:49Z</time>
      </trkpt>
      <trkpt lat="42.676707" lon="0.214379">
        <ele>1196.437</ele>
        <time>2025-08-05T10:19:12Z</time>
      </trkpt>
      <trkpt lat="42.678623" lon="0.213389">
        <ele>1209.820</ele>
        <time>2025-08-05T10:20:10Z</time>
      </trkpt>
      <trkpt lat="42.681283" lon="0.213171">
        <ele>1226.586</ele>
        <time>2025-08-05T10:21:25Z</time>
      </trkpt>
      <trkpt lat="42.683759" lon="0.212379">
        <ele>1237.586</ele>
        <time>2025-08-05T10:22:29Z</time>
      </trkpt>
      <trkpt lat="42.685623" lon="0.212027">
        <ele>1248.844</ele>
        <time>2025-08-05T10:23:24Z</time>
      </trkpt>
      <trkpt lat="42.685978" lon="0.211719">
        <ele>1251.886</ele>
        <time>2025-08-05T10:23:35Z</time>
      </trkpt>
      <trkpt lat="42.688368" lon="0.208493">
        <ele>1267.847</ele>
        <time>2025-08-05T10:25:00Z</time>
      </trkpt>
      <trkpt lat="42.691107" lon="0.206152">
        <ele>1286.158</ele>
        <time>2025-08-05T10:26:34Z</time>
      </trkpt>
      <trkpt lat="42.692442" lon="0.204277">
        <ele>1297.414</ele>
        <time>2025-08-05T10:27:33Z</time>
      </trkpt>
      <trkpt lat="42.696004" lon="0.202558">
        <ele>1320.154</ele>
        <time>2025-08-05T10:29:35Z</time>
      </trkpt>
      <trkpt lat="42.696548" lon="0.202486">
        <ele>1324.009</ele>
        <time>2025-08-05T10:29:54Z</time>
      </trkpt>
      <trkpt lat="42.698611" lon="0.202656">
        <ele>1341.509</ele>
        <time>2025-08-05T10:31:12Z</time>
      </trkpt>
      <trkpt lat="42.699065" lon="0.202516">
        <ele>1346.543</ele>
        <time>2025-08-05T10:31:31Z</time>
      </trkpt>
      <trkpt lat="42.700818" lon="0.201379">
        <ele>1367.597</ele>
        <time>2025-08-05T10:32:58Z</time>
      </trkpt>
      <trkpt lat="42.702289" lon="0.200770">
        <ele>1383.080</ele>
        <time>2025-08-05T10:34:12Z</time>
      </trkpt>
      <trkpt lat="42.703566" lon="0.199707">
        <ele>1396.076</ele>
        <time>2025-08-05T10:35:19Z</time>
      </trkpt>
      <trkpt lat="42.703938" lon="0.199841">
        <ele>1399.096</ele>
        <time>2025-08-05T10:35:35Z</time>
      </trkpt>
      <trkpt lat="42.704069" lon="0.200229">
        <ele>1401.584</ele>
        <time>2025-08-05T10:35:48Z</time>
      </trkpt>
      <trkpt lat="42.703879" lon="0.200705">
        <ele>1405.596</ele>
        <time>2025-08-05T10:36:04Z</time>
      </trkpt>
      <trkpt lat="42.703102" lon="0.201259">
        <ele>1411.577</ele>
        <time>2025-08-05T10:36:40Z</time>
      </trkpt>
      <trkpt lat="42.703056" lon="0.201627">
        <ele>1413.858</ele>
        <time>2025-08-05T10:36:51Z</time>
      </trkpt>
      <trkpt lat="42.703251" lon="0.201914">
        <ele>1416.099</ele>
        <time>2025-08-05T10:37:02Z</time>
      </trkpt>
      <trkpt lat="42.705941" lon="0.201498">
        <ele>1444.507</ele>
        <time>2025-08-05T10:39:09Z</time>
      </trkpt>
      <trkpt lat="42.707069" lon="0.201659">
        <ele>1456.527</ele>
        <time>2025-08-05T10:40:06Z</time>
      </trkpt>
      <trkpt lat="42.710349" lon="0.203095">
        <ele>1489.109</ele>
        <time>2025-08-05T10:42:53Z</time>
      </trkpt>
      <trkpt lat="42.712638" lon="0.204714">
        <ele>1517.841</ele>
        <time>2025-08-05T10:45:02Z</time>
      </trkpt>
      <trkpt lat="42.712981" lon="0.204821">
        <ele>1520.845</ele>
        <time>2025-08-05T10:45:20Z</time>
      </trkpt>
      <trkpt lat="42.713397" lon="0.204630">
        <ele>1526.858</ele>
        <time>2025-08-05T10:45:45Z</time>
      </trkpt>
      <trkpt lat="42.714209" lon="0.203833">
        <ele>1535.884</ele>
        <time>2025-08-05T10:46:27Z</time>
      </trkpt>
      <trkpt lat="42.714509" lon="0.202899">
        <ele>1542.194</ele>
        <time>2025-08-05T10:46:59Z</time>
      </trkpt>
      <trkpt lat="42.714776" lon="0.202581">
        <ele>1546.482</ele>
        <time>2025-08-05T10:47:16Z</time>
      </trkpt>
      <trkpt lat="42.716676" lon="0.201531">
        <ele>1566.584</ele>
        <time>2025-08-05T10:48:59Z</time>
      </trkpt>
      <trkpt lat="42.718475" lon="0.199459">
        <ele>1592.195</ele>
        <time>2025-08-05T10:51:00Z</time>
      </trkpt>
      <trkpt lat="42.719056" lon="0.199319">
        <ele>1600.516</ele>
        <time>2025-08-05T10:51:34Z</time>
      </trkpt>
      <trkpt lat="42.719819" lon="0.198714">
        <ele>1608.545</ele>
        <time>2025-08-05T10:52:11Z</time>
      </trkpt>
      <trkpt lat="42.720700" lon="0.197617">
        <ele>1621.047</ele>
        <time>2025-08-05T10:53:06Z</time>
      </trkpt>
      <trkpt lat="42.720747" lon="0.197831">
        <ele>1622.111</ele>
        <time>2025-08-05T10:53:17Z</time>
      </trkpt>
    </trkseg>
  </trk></gpx>