<?xml version="1.0" encoding="UTF-8"?><gpx creator="https://climbfinder.com" version="1.1"  xmlns:xsi="http://www.w3.org/2001/XMLSchema-instance"  xmlns="http://www.topografix.com/GPX/1/1" xsi:schemaLocation="http://www.topografix.com/GPX/1/1 http://www.topografix.com/GPX/1/1/gpx.xsd">
  <metadata>
    <name>valdelinares-desde-la-virgen-de-la-vega</name>
    <author>
      <link href="https://climbfinder.com">
        <text>climbfinder</text>
        <type>text/html</type>
      </link>
    </author>
  </metadata>
  <trk>
    <name>valdelinares-desde-la-virgen-de-la-vega</name>
    <trkseg>
			<trkpt lat="40.36596" lon="-0.70626">
        <ele>1389.9</ele>
        <time>2026-08-04T09:00:00Z</time>
      </trkpt>
			<trkpt lat="40.36602" lon="-0.70614">
        <ele>1390.3</ele>
        <time>2026-08-04T09:00:02Z</time>
      </trkpt>
			<trkpt lat="40.36623" lon="-0.70582">
        <ele>1391.5</ele>
        <time>2026-08-04T09:00:09Z</time>
      </trkpt>
			<trkpt lat="40.36643" lon="-0.70549">
        <ele>1392.7</ele>
        <time>2026-08-04T09:00:16Z</time>
      </trkpt>
			<trkpt lat="40.36668" lon="-0.70505">
        <ele>1394.5</ele>
        <time>2026-08-04T09:00:27Z</time>
      </trkpt>
			<trkpt lat="40.36694" lon="-0.70461">
        <ele>1396.4</ele>
        <time>2026-08-04T09:00:37Z</time>
      </trkpt>
			<trkpt lat="40.3672" lon="-0.70416">
        <ele>1398.3</ele>
        <time>2026-08-04T09:00:48Z</time>
      </trkpt>
			<trkpt lat="40.36739" lon="-0.70387">
        <ele>1399.6</ele>
        <time>2026-08-04T09:00:55Z</time>
      </trkpt>
			<trkpt lat="40.36757" lon="-0.70357">
        <ele>1400.8</ele>
        <time>2026-08-04T09:01:03Z</time>
      </trkpt>
			<trkpt lat="40.36772" lon="-0.70338">
        <ele>1401.7</ele>
        <time>2026-08-04T09:01:08Z</time>
      </trkpt>
			<trkpt lat="40.36785" lon="-0.70324">
        <ele>1402.4</ele>
        <time>2026-08-04T09:01:12Z</time>
      </trkpt>
			<trkpt lat="40.36815" lon="-0.703">
        <ele>1403.8</ele>
        <time>2026-08-04T09:01:21Z</time>
      </trkpt>
			<trkpt lat="40.36822" lon="-0.70292">
        <ele>1404.1</ele>
        <time>2026-08-04T09:01:23Z</time>
      </trkpt>
			<trkpt lat="40.36828" lon="-0.70284">
        <ele>1404.5</ele>
        <time>2026-08-04T09:01:25Z</time>
      </trkpt>
			<trkpt lat="40.36834" lon="-0.70272">
        <ele>1404.9</ele>
        <time>2026-08-04T09:01:27Z</time>
      </trkpt>
			<trkpt lat="40.36841" lon="-0.70256">
        <ele>1405.4</ele>
        <time>2026-08-04T09:01:31Z</time>
      </trkpt>
			<trkpt lat="40.36847" lon="-0.70237">
        <ele>1405.9</ele>
        <time>2026-08-04T09:01:34Z</time>
      </trkpt>
			<trkpt lat="40.36856" lon="-0.7019">
        <ele>1407.2</ele>
        <time>2026-08-04T09:01:42Z</time>
      </trkpt>
			<trkpt lat="40.36864" lon="-0.70143">
        <ele>1408.3</ele>
        <time>2026-08-04T09:01:50Z</time>
      </trkpt>
			<trkpt lat="40.36868" lon="-0.70108">
        <ele>1409.1</ele>
        <time>2026-08-04T09:01:56Z</time>
      </trkpt>
			<trkpt lat="40.3687" lon="-0.70088">
        <ele>1409.5</ele>
        <time>2026-08-04T09:01:59Z</time>
      </trkpt>
			<trkpt lat="40.3687" lon="-0.70048">
        <ele>1410.1</ele>
        <time>2026-08-04T09:02:05Z</time>
      </trkpt>
			<trkpt lat="40.36868" lon="-0.70013">
        <ele>1410.6</ele>
        <time>2026-08-04T09:02:10Z</time>
      </trkpt>
			<trkpt lat="40.36863" lon="-0.69976">
        <ele>1411</ele>
        <time>2026-08-04T09:02:15Z</time>
      </trkpt>
			<trkpt lat="40.36858" lon="-0.6994">
        <ele>1411.2</ele>
        <time>2026-08-04T09:02:20Z</time>
      </trkpt>
			<trkpt lat="40.36857" lon="-0.69918">
        <ele>1411.4</ele>
        <time>2026-08-04T09:02:23Z</time>
      </trkpt>
			<trkpt lat="40.36858" lon="-0.69894">
        <ele>1411.5</ele>
        <time>2026-08-04T09:02:26Z</time>
      </trkpt>
			<trkpt lat="40.3686" lon="-0.69843">
        <ele>1411.7</ele>
        <time>2026-08-04T09:02:32Z</time>
      </trkpt>
			<trkpt lat="40.36862" lon="-0.69797">
        <ele>1411.9</ele>
        <time>2026-08-04T09:02:38Z</time>
      </trkpt>
			<trkpt lat="40.36863" lon="-0.6975">
        <ele>1412.1</ele>
        <time>2026-08-04T09:02:44Z</time>
      </trkpt>
			<trkpt lat="40.36865" lon="-0.69704">
        <ele>1412.5</ele>
        <time>2026-08-04T09:02:50Z</time>
      </trkpt>
			<trkpt lat="40.36867" lon="-0.69684">
        <ele>1412.7</ele>
        <time>2026-08-04T09:02:53Z</time>
      </trkpt>
			<trkpt lat="40.36871" lon="-0.69665">
        <ele>1412.8</ele>
        <time>2026-08-04T09:02:55Z</time>
      </trkpt>
			<trkpt lat="40.36878" lon="-0.69651">
        <ele>1413</ele>
        <time>2026-08-04T09:02:58Z</time>
      </trkpt>
			<trkpt lat="40.36905" lon="-0.69608">
        <ele>1413.8</ele>
        <time>2026-08-04T09:03:06Z</time>
      </trkpt>
			<trkpt lat="40.36932" lon="-0.69565">
        <ele>1414.8</ele>
        <time>2026-08-04T09:03:14Z</time>
      </trkpt>
			<trkpt lat="40.36958" lon="-0.69522">
        <ele>1416</ele>
        <time>2026-08-04T09:03:23Z</time>
      </trkpt>
			<trkpt lat="40.36985" lon="-0.69479">
        <ele>1417.5</ele>
        <time>2026-08-04T09:03:32Z</time>
      </trkpt>
			<trkpt lat="40.36997" lon="-0.69459">
        <ele>1418.1</ele>
        <time>2026-08-04T09:03:37Z</time>
      </trkpt>
			<trkpt lat="40.37021" lon="-0.69411">
        <ele>1419.8</ele>
        <time>2026-08-04T09:03:46Z</time>
      </trkpt>
			<trkpt lat="40.37046" lon="-0.69363">
        <ele>1421.6</ele>
        <time>2026-08-04T09:03:58Z</time>
      </trkpt>
			<trkpt lat="40.3707" lon="-0.69315">
        <ele>1423.4</ele>
        <time>2026-08-04T09:04:08Z</time>
      </trkpt>
			<trkpt lat="40.37084" lon="-0.69284">
        <ele>1424.6</ele>
        <time>2026-08-04T09:04:15Z</time>
      </trkpt>
			<trkpt lat="40.37102" lon="-0.69233">
        <ele>1426.4</ele>
        <time>2026-08-04T09:04:26Z</time>
      </trkpt>
			<trkpt lat="40.37112" lon="-0.69209">
        <ele>1427.3</ele>
        <time>2026-08-04T09:04:31Z</time>
      </trkpt>
			<trkpt lat="40.37121" lon="-0.69191">
        <ele>1428</ele>
        <time>2026-08-04T09:04:35Z</time>
      </trkpt>
			<trkpt lat="40.37137" lon="-0.6916">
        <ele>1429.3</ele>
        <time>2026-08-04T09:04:43Z</time>
      </trkpt>
			<trkpt lat="40.37147" lon="-0.69139">
        <ele>1430.2</ele>
        <time>2026-08-04T09:04:47Z</time>
      </trkpt>
			<trkpt lat="40.37158" lon="-0.6911">
        <ele>1431.4</ele>
        <time>2026-08-04T09:04:53Z</time>
      </trkpt>
			<trkpt lat="40.37169" lon="-0.69063">
        <ele>1433.5</ele>
        <time>2026-08-04T09:05:04Z</time>
      </trkpt>
			<trkpt lat="40.3718" lon="-0.69016">
        <ele>1435.7</ele>
        <time>2026-08-04T09:05:15Z</time>
      </trkpt>
			<trkpt lat="40.37191" lon="-0.68969">
        <ele>1438</ele>
        <time>2026-08-04T09:05:26Z</time>
      </trkpt>
			<trkpt lat="40.37202" lon="-0.68922">
        <ele>1440.5</ele>
        <time>2026-08-04T09:05:38Z</time>
      </trkpt>
			<trkpt lat="40.37213" lon="-0.68875">
        <ele>1443</ele>
        <time>2026-08-04T09:05:49Z</time>
      </trkpt>
			<trkpt lat="40.37219" lon="-0.68853">
        <ele>1444.2</ele>
        <time>2026-08-04T09:05:55Z</time>
      </trkpt>
			<trkpt lat="40.37226" lon="-0.68837">
        <ele>1445.1</ele>
        <time>2026-08-04T09:05:59Z</time>
      </trkpt>
			<trkpt lat="40.37245" lon="-0.68802">
        <ele>1447.2</ele>
        <time>2026-08-04T09:06:09Z</time>
      </trkpt>
			<trkpt lat="40.3726" lon="-0.68778">
        <ele>1448.7</ele>
        <time>2026-08-04T09:06:17Z</time>
      </trkpt>
			<trkpt lat="40.37276" lon="-0.68755">
        <ele>1450.1</ele>
        <time>2026-08-04T09:06:23Z</time>
      </trkpt>
			<trkpt lat="40.37299" lon="-0.68729">
        <ele>1451.9</ele>
        <time>2026-08-04T09:06:32Z</time>
      </trkpt>
			<trkpt lat="40.37322" lon="-0.68704">
        <ele>1453.4</ele>
        <time>2026-08-04T09:06:41Z</time>
      </trkpt>
			<trkpt lat="40.37345" lon="-0.68678">
        <ele>1454.9</ele>
        <time>2026-08-04T09:06:48Z</time>
      </trkpt>
			<trkpt lat="40.37353" lon="-0.6867">
        <ele>1455.3</ele>
        <time>2026-08-04T09:06:51Z</time>
      </trkpt>
			<trkpt lat="40.37361" lon="-0.68668">
        <ele>1455.7</ele>
        <time>2026-08-04T09:06:53Z</time>
      </trkpt>
			<trkpt lat="40.37368" lon="-0.68668">
        <ele>1456</ele>
        <time>2026-08-04T09:06:55Z</time>
      </trkpt>
			<trkpt lat="40.37376" lon="-0.68674">
        <ele>1456.4</ele>
        <time>2026-08-04T09:06:57Z</time>
      </trkpt>
			<trkpt lat="40.374" lon="-0.68694">
        <ele>1457.5</ele>
        <time>2026-08-04T09:07:03Z</time>
      </trkpt>
			<trkpt lat="40.37424" lon="-0.68715">
        <ele>1458.6</ele>
        <time>2026-08-04T09:07:10Z</time>
      </trkpt>
			<trkpt lat="40.37456" lon="-0.68736">
        <ele>1459.9</ele>
        <time>2026-08-04T09:07:18Z</time>
      </trkpt>
			<trkpt lat="40.37467" lon="-0.68741">
        <ele>1460.4</ele>
        <time>2026-08-04T09:07:20Z</time>
      </trkpt>
			<trkpt lat="40.37473" lon="-0.68742">
        <ele>1460.6</ele>
        <time>2026-08-04T09:07:22Z</time>
      </trkpt>
			<trkpt lat="40.3748" lon="-0.68741">
        <ele>1460.9</ele>
        <time>2026-08-04T09:07:24Z</time>
      </trkpt>
			<trkpt lat="40.37485" lon="-0.68735">
        <ele>1461.1</ele>
        <time>2026-08-04T09:07:25Z</time>
      </trkpt>
			<trkpt lat="40.37487" lon="-0.68727">
        <ele>1461.4</ele>
        <time>2026-08-04T09:07:27Z</time>
      </trkpt>
			<trkpt lat="40.37487" lon="-0.68717">
        <ele>1461.7</ele>
        <time>2026-08-04T09:07:29Z</time>
      </trkpt>
			<trkpt lat="40.37483" lon="-0.68708">
        <ele>1462</ele>
        <time>2026-08-04T09:07:30Z</time>
      </trkpt>
			<trkpt lat="40.37479" lon="-0.68698">
        <ele>1462.4</ele>
        <time>2026-08-04T09:07:32Z</time>
      </trkpt>
			<trkpt lat="40.37452" lon="-0.68651">
        <ele>1464.4</ele>
        <time>2026-08-04T09:07:44Z</time>
      </trkpt>
			<trkpt lat="40.37426" lon="-0.68604">
        <ele>1466.9</ele>
        <time>2026-08-04T09:07:56Z</time>
      </trkpt>
			<trkpt lat="40.37399" lon="-0.68558">
        <ele>1470.1</ele>
        <time>2026-08-04T09:08:11Z</time>
      </trkpt>
			<trkpt lat="40.37372" lon="-0.68511">
        <ele>1473.9</ele>
        <time>2026-08-04T09:08:29Z</time>
      </trkpt>
			<trkpt lat="40.3735" lon="-0.68467">
        <ele>1477.8</ele>
        <time>2026-08-04T09:08:47Z</time>
      </trkpt>
			<trkpt lat="40.37338" lon="-0.68441">
        <ele>1480.2</ele>
        <time>2026-08-04T09:08:57Z</time>
      </trkpt>
			<trkpt lat="40.3732" lon="-0.68397">
        <ele>1484.2</ele>
        <time>2026-08-04T09:09:14Z</time>
      </trkpt>
			<trkpt lat="40.37302" lon="-0.68353">
        <ele>1488.2</ele>
        <time>2026-08-04T09:09:31Z</time>
      </trkpt>
			<trkpt lat="40.37284" lon="-0.68309">
        <ele>1491.9</ele>
        <time>2026-08-04T09:09:48Z</time>
      </trkpt>
			<trkpt lat="40.37273" lon="-0.68279">
        <ele>1494.3</ele>
        <time>2026-08-04T09:09:59Z</time>
      </trkpt>
			<trkpt lat="40.37261" lon="-0.6824">
        <ele>1497.4</ele>
        <time>2026-08-04T09:10:13Z</time>
      </trkpt>
			<trkpt lat="40.37253" lon="-0.68203">
        <ele>1500.2</ele>
        <time>2026-08-04T09:10:27Z</time>
      </trkpt>
			<trkpt lat="40.37248" lon="-0.68186">
        <ele>1501.6</ele>
        <time>2026-08-04T09:10:33Z</time>
      </trkpt>
			<trkpt lat="40.3724" lon="-0.68164">
        <ele>1503.3</ele>
        <time>2026-08-04T09:10:40Z</time>
      </trkpt>
			<trkpt lat="40.37229" lon="-0.68137">
        <ele>1505.7</ele>
        <time>2026-08-04T09:10:50Z</time>
      </trkpt>
			<trkpt lat="40.37218" lon="-0.68111">
        <ele>1508</ele>
        <time>2026-08-04T09:11:01Z</time>
      </trkpt>
			<trkpt lat="40.37203" lon="-0.68061">
        <ele>1512.4</ele>
        <time>2026-08-04T09:11:21Z</time>
      </trkpt>
			<trkpt lat="40.37188" lon="-0.68011">
        <ele>1517.1</ele>
        <time>2026-08-04T09:11:42Z</time>
      </trkpt>
			<trkpt lat="40.37173" lon="-0.67961">
        <ele>1521.7</ele>
        <time>2026-08-04T09:12:02Z</time>
      </trkpt>
			<trkpt lat="40.37161" lon="-0.67917">
        <ele>1525.8</ele>
        <time>2026-08-04T09:12:20Z</time>
      </trkpt>
			<trkpt lat="40.37148" lon="-0.67873">
        <ele>1529.6</ele>
        <time>2026-08-04T09:12:38Z</time>
      </trkpt>
			<trkpt lat="40.37136" lon="-0.67829">
        <ele>1533.3</ele>
        <time>2026-08-04T09:12:54Z</time>
      </trkpt>
			<trkpt lat="40.37122" lon="-0.67788">
        <ele>1536.6</ele>
        <time>2026-08-04T09:13:09Z</time>
      </trkpt>
			<trkpt lat="40.37107" lon="-0.67752">
        <ele>1539.5</ele>
        <time>2026-08-04T09:13:21Z</time>
      </trkpt>
			<trkpt lat="40.37091" lon="-0.67715">
        <ele>1542.3</ele>
        <time>2026-08-04T09:13:34Z</time>
      </trkpt>
			<trkpt lat="40.37076" lon="-0.67679">
        <ele>1544.9</ele>
        <time>2026-08-04T09:13:45Z</time>
      </trkpt>
			<trkpt lat="40.3707" lon="-0.67656">
        <ele>1546.4</ele>
        <time>2026-08-04T09:13:51Z</time>
      </trkpt>
			<trkpt lat="40.37062" lon="-0.67619">
        <ele>1548.7</ele>
        <time>2026-08-04T09:14:01Z</time>
      </trkpt>
			<trkpt lat="40.37054" lon="-0.67582">
        <ele>1551</ele>
        <time>2026-08-04T09:14:11Z</time>
      </trkpt>
			<trkpt lat="40.37044" lon="-0.67547">
        <ele>1553</ele>
        <time>2026-08-04T09:14:19Z</time>
      </trkpt>
			<trkpt lat="40.37037" lon="-0.6753">
        <ele>1554.1</ele>
        <time>2026-08-04T09:14:24Z</time>
      </trkpt>
			<trkpt lat="40.37028" lon="-0.67514">
        <ele>1555.1</ele>
        <time>2026-08-04T09:14:29Z</time>
      </trkpt>
			<trkpt lat="40.37002" lon="-0.67479">
        <ele>1557.6</ele>
        <time>2026-08-04T09:14:40Z</time>
      </trkpt>
			<trkpt lat="40.36975" lon="-0.67445">
        <ele>1559.8</ele>
        <time>2026-08-04T09:14:51Z</time>
      </trkpt>
			<trkpt lat="40.36941" lon="-0.67409">
        <ele>1562.2</ele>
        <time>2026-08-04T09:15:04Z</time>
      </trkpt>
			<trkpt lat="40.36935" lon="-0.67399">
        <ele>1562.7</ele>
        <time>2026-08-04T09:15:06Z</time>
      </trkpt>
			<trkpt lat="40.36935" lon="-0.67392">
        <ele>1563</ele>
        <time>2026-08-04T09:15:08Z</time>
      </trkpt>
			<trkpt lat="40.36937" lon="-0.67387">
        <ele>1563.3</ele>
        <time>2026-08-04T09:15:09Z</time>
      </trkpt>
			<trkpt lat="40.36941" lon="-0.67383">
        <ele>1563.5</ele>
        <time>2026-08-04T09:15:10Z</time>
      </trkpt>
			<trkpt lat="40.36946" lon="-0.67382">
        <ele>1563.8</ele>
        <time>2026-08-04T09:15:12Z</time>
      </trkpt>
			<trkpt lat="40.36955" lon="-0.67387">
        <ele>1564.2</ele>
        <time>2026-08-04T09:15:14Z</time>
      </trkpt>
			<trkpt lat="40.3697" lon="-0.67403">
        <ele>1565.2</ele>
        <time>2026-08-04T09:15:20Z</time>
      </trkpt>
			<trkpt lat="40.36998" lon="-0.67434">
        <ele>1566.9</ele>
        <time>2026-08-04T09:15:29Z</time>
      </trkpt>
			<trkpt lat="40.37018" lon="-0.67453">
        <ele>1567.9</ele>
        <time>2026-08-04T09:15:35Z</time>
      </trkpt>
			<trkpt lat="40.37037" lon="-0.67473">
        <ele>1569</ele>
        <time>2026-08-04T09:15:41Z</time>
      </trkpt>
			<trkpt lat="40.37071" lon="-0.67504">
        <ele>1570.8</ele>
        <time>2026-08-04T09:15:52Z</time>
      </trkpt>
			<trkpt lat="40.37076" lon="-0.67506">
        <ele>1571.1</ele>
        <time>2026-08-04T09:15:53Z</time>
      </trkpt>
			<trkpt lat="40.37081" lon="-0.67505">
        <ele>1571.3</ele>
        <time>2026-08-04T09:15:54Z</time>
      </trkpt>
			<trkpt lat="40.37086" lon="-0.67502">
        <ele>1571.5</ele>
        <time>2026-08-04T09:15:56Z</time>
      </trkpt>
			<trkpt lat="40.37093" lon="-0.67494">
        <ele>1572</ele>
        <time>2026-08-04T09:15:58Z</time>
      </trkpt>
			<trkpt lat="40.37096" lon="-0.67488">
        <ele>1572.2</ele>
        <time>2026-08-04T09:15:59Z</time>
      </trkpt>
			<trkpt lat="40.37097" lon="-0.67481">
        <ele>1572.5</ele>
        <time>2026-08-04T09:16:01Z</time>
      </trkpt>
			<trkpt lat="40.37098" lon="-0.67474">
        <ele>1572.7</ele>
        <time>2026-08-04T09:16:02Z</time>
      </trkpt>
			<trkpt lat="40.37096" lon="-0.67468">
        <ele>1573</ele>
        <time>2026-08-04T09:16:04Z</time>
      </trkpt>
			<trkpt lat="40.37093" lon="-0.67461">
        <ele>1573.3</ele>
        <time>2026-08-04T09:16:05Z</time>
      </trkpt>
			<trkpt lat="40.37089" lon="-0.67457">
        <ele>1573.5</ele>
        <time>2026-08-04T09:16:06Z</time>
      </trkpt>
			<trkpt lat="40.37077" lon="-0.67449">
        <ele>1574.2</ele>
        <time>2026-08-04T09:16:10Z</time>
      </trkpt>
			<trkpt lat="40.37051" lon="-0.67437">
        <ele>1575.6</ele>
        <time>2026-08-04T09:16:18Z</time>
      </trkpt>
			<trkpt lat="40.37037" lon="-0.6743">
        <ele>1576.5</ele>
        <time>2026-08-04T09:16:22Z</time>
      </trkpt>
			<trkpt lat="40.37025" lon="-0.67422">
        <ele>1577.4</ele>
        <time>2026-08-04T09:16:27Z</time>
      </trkpt>
			<trkpt lat="40.37014" lon="-0.67413">
        <ele>1578.2</ele>
        <time>2026-08-04T09:16:31Z</time>
      </trkpt>
			<trkpt lat="40.37006" lon="-0.67404">
        <ele>1579</ele>
        <time>2026-08-04T09:16:34Z</time>
      </trkpt>
			<trkpt lat="40.36988" lon="-0.67377">
        <ele>1581</ele>
        <time>2026-08-04T09:16:43Z</time>
      </trkpt>
			<trkpt lat="40.3698" lon="-0.67362">
        <ele>1582.3</ele>
        <time>2026-08-04T09:16:49Z</time>
      </trkpt>
			<trkpt lat="40.3697" lon="-0.67339">
        <ele>1584.2</ele>
        <time>2026-08-04T09:16:57Z</time>
      </trkpt>
			<trkpt lat="40.36959" lon="-0.67312">
        <ele>1586.6</ele>
        <time>2026-08-04T09:17:07Z</time>
      </trkpt>
			<trkpt lat="40.36944" lon="-0.67269">
        <ele>1591</ele>
        <time>2026-08-04T09:17:25Z</time>
      </trkpt>
			<trkpt lat="40.3694" lon="-0.67251">
        <ele>1592.9</ele>
        <time>2026-08-04T09:17:33Z</time>
      </trkpt>
			<trkpt lat="40.36938" lon="-0.67238">
        <ele>1594.3</ele>
        <time>2026-08-04T09:17:39Z</time>
      </trkpt>
			<trkpt lat="40.36938" lon="-0.67222">
        <ele>1596.2</ele>
        <time>2026-08-04T09:17:47Z</time>
      </trkpt>
			<trkpt lat="40.36941" lon="-0.67168">
        <ele>1602.7</ele>
        <time>2026-08-04T09:18:15Z</time>
      </trkpt>
			<trkpt lat="40.36941" lon="-0.67154">
        <ele>1604.3</ele>
        <time>2026-08-04T09:18:22Z</time>
      </trkpt>
			<trkpt lat="40.36935" lon="-0.6711">
        <ele>1610</ele>
        <time>2026-08-04T09:18:49Z</time>
      </trkpt>
			<trkpt lat="40.36928" lon="-0.67066">
        <ele>1615.5</ele>
        <time>2026-08-04T09:19:12Z</time>
      </trkpt>
			<trkpt lat="40.36922" lon="-0.67012">
        <ele>1621.7</ele>
        <time>2026-08-04T09:19:40Z</time>
      </trkpt>
			<trkpt lat="40.36918" lon="-0.66964">
        <ele>1626.2</ele>
        <time>2026-08-04T09:19:58Z</time>
      </trkpt>
			<trkpt lat="40.36915" lon="-0.66941">
        <ele>1628.1</ele>
        <time>2026-08-04T09:20:07Z</time>
      </trkpt>
			<trkpt lat="40.36909" lon="-0.66915">
        <ele>1630.1</ele>
        <time>2026-08-04T09:20:16Z</time>
      </trkpt>
			<trkpt lat="40.36901" lon="-0.66889">
        <ele>1631.9</ele>
        <time>2026-08-04T09:20:25Z</time>
      </trkpt>
			<trkpt lat="40.36892" lon="-0.6686">
        <ele>1633.6</ele>
        <time>2026-08-04T09:20:32Z</time>
      </trkpt>
			<trkpt lat="40.36882" lon="-0.66832">
        <ele>1635.2</ele>
        <time>2026-08-04T09:20:40Z</time>
      </trkpt>
			<trkpt lat="40.36865" lon="-0.66789">
        <ele>1637.4</ele>
        <time>2026-08-04T09:20:50Z</time>
      </trkpt>
			<trkpt lat="40.36864" lon="-0.66779">
        <ele>1637.8</ele>
        <time>2026-08-04T09:20:52Z</time>
      </trkpt>
			<trkpt lat="40.36864" lon="-0.6677">
        <ele>1638.2</ele>
        <time>2026-08-04T09:20:54Z</time>
      </trkpt>
			<trkpt lat="40.36867" lon="-0.66765">
        <ele>1638.4</ele>
        <time>2026-08-04T09:20:55Z</time>
      </trkpt>
			<trkpt lat="40.36873" lon="-0.66761">
        <ele>1638.8</ele>
        <time>2026-08-04T09:20:57Z</time>
      </trkpt>
			<trkpt lat="40.36879" lon="-0.6676">
        <ele>1639.2</ele>
        <time>2026-08-04T09:20:59Z</time>
      </trkpt>
			<trkpt lat="40.36886" lon="-0.66763">
        <ele>1639.5</ele>
        <time>2026-08-04T09:21:01Z</time>
      </trkpt>
			<trkpt lat="40.36891" lon="-0.66769">
        <ele>1639.9</ele>
        <time>2026-08-04T09:21:03Z</time>
      </trkpt>
			<trkpt lat="40.36898" lon="-0.66781">
        <ele>1640.6</ele>
        <time>2026-08-04T09:21:06Z</time>
      </trkpt>
			<trkpt lat="40.36905" lon="-0.66796">
        <ele>1641.3</ele>
        <time>2026-08-04T09:21:10Z</time>
      </trkpt>
			<trkpt lat="40.36922" lon="-0.66837">
        <ele>1643.6</ele>
        <time>2026-08-04T09:21:21Z</time>
      </trkpt>
			<trkpt lat="40.36928" lon="-0.66845">
        <ele>1644.2</ele>
        <time>2026-08-04T09:21:24Z</time>
      </trkpt>
			<trkpt lat="40.36937" lon="-0.66851">
        <ele>1644.9</ele>
        <time>2026-08-04T09:21:27Z</time>
      </trkpt>
			<trkpt lat="40.36942" lon="-0.66853">
        <ele>1645.2</ele>
        <time>2026-08-04T09:21:28Z</time>
      </trkpt>
			<trkpt lat="40.36946" lon="-0.66852">
        <ele>1645.6</ele>
        <time>2026-08-04T09:21:30Z</time>
      </trkpt>
			<trkpt lat="40.36951" lon="-0.66847">
        <ele>1646.1</ele>
        <time>2026-08-04T09:21:32Z</time>
      </trkpt>
			<trkpt lat="40.36953" lon="-0.66843">
        <ele>1646.3</ele>
        <time>2026-08-04T09:21:33Z</time>
      </trkpt>
			<trkpt lat="40.36953" lon="-0.66835">
        <ele>1646.8</ele>
        <time>2026-08-04T09:21:35Z</time>
      </trkpt>
			<trkpt lat="40.36953" lon="-0.66825">
        <ele>1647.5</ele>
        <time>2026-08-04T09:21:38Z</time>
      </trkpt>
			<trkpt lat="40.36945" lon="-0.66767">
        <ele>1651.6</ele>
        <time>2026-08-04T09:21:56Z</time>
      </trkpt>
			<trkpt lat="40.3694" lon="-0.66736">
        <ele>1654.2</ele>
        <time>2026-08-04T09:22:08Z</time>
      </trkpt>
			<trkpt lat="40.36935" lon="-0.66706">
        <ele>1657</ele>
        <time>2026-08-04T09:22:20Z</time>
      </trkpt>
			<trkpt lat="40.36928" lon="-0.66673">
        <ele>1660.3</ele>
        <time>2026-08-04T09:22:33Z</time>
      </trkpt>
			<trkpt lat="40.36924" lon="-0.66658">
        <ele>1661.8</ele>
        <time>2026-08-04T09:22:39Z</time>
      </trkpt>
			<trkpt lat="40.36917" lon="-0.66639">
        <ele>1663.9</ele>
        <time>2026-08-04T09:22:48Z</time>
      </trkpt>
			<trkpt lat="40.369" lon="-0.666">
        <ele>1668.4</ele>
        <time>2026-08-04T09:23:08Z</time>
      </trkpt>
			<trkpt lat="40.36885" lon="-0.66574">
        <ele>1671.8</ele>
        <time>2026-08-04T09:23:22Z</time>
      </trkpt>
			<trkpt lat="40.36865" lon="-0.66543">
        <ele>1675.6</ele>
        <time>2026-08-04T09:23:38Z</time>
      </trkpt>
			<trkpt lat="40.36857" lon="-0.66534">
        <ele>1676.9</ele>
        <time>2026-08-04T09:23:43Z</time>
      </trkpt>
			<trkpt lat="40.3685" lon="-0.66528">
        <ele>1677.9</ele>
        <time>2026-08-04T09:23:47Z</time>
      </trkpt>
			<trkpt lat="40.36836" lon="-0.66524">
        <ele>1679.6</ele>
        <time>2026-08-04T09:23:54Z</time>
      </trkpt>
			<trkpt lat="40.36825" lon="-0.66524">
        <ele>1680.8</ele>
        <time>2026-08-04T09:24:00Z</time>
      </trkpt>
			<trkpt lat="40.36793" lon="-0.66528">
        <ele>1684.3</ele>
        <time>2026-08-04T09:24:16Z</time>
      </trkpt>
			<trkpt lat="40.36761" lon="-0.66531">
        <ele>1687.5</ele>
        <time>2026-08-04T09:24:30Z</time>
      </trkpt>
			<trkpt lat="40.36751" lon="-0.66528">
        <ele>1688.5</ele>
        <time>2026-08-04T09:24:35Z</time>
      </trkpt>
			<trkpt lat="40.36747" lon="-0.66524">
        <ele>1689</ele>
        <time>2026-08-04T09:24:37Z</time>
      </trkpt>
			<trkpt lat="40.36745" lon="-0.66514">
        <ele>1689.7</ele>
        <time>2026-08-04T09:24:40Z</time>
      </trkpt>
			<trkpt lat="40.36745" lon="-0.66506">
        <ele>1690.2</ele>
        <time>2026-08-04T09:24:42Z</time>
      </trkpt>
			<trkpt lat="40.36747" lon="-0.665">
        <ele>1690.7</ele>
        <time>2026-08-04T09:24:44Z</time>
      </trkpt>
			<trkpt lat="40.36751" lon="-0.66492">
        <ele>1691.4</ele>
        <time>2026-08-04T09:24:48Z</time>
      </trkpt>
			<trkpt lat="40.36785" lon="-0.66465">
        <ele>1694.9</ele>
        <time>2026-08-04T09:25:04Z</time>
      </trkpt>
			<trkpt lat="40.36796" lon="-0.66454">
        <ele>1696.1</ele>
        <time>2026-08-04T09:25:09Z</time>
      </trkpt>
			<trkpt lat="40.36807" lon="-0.66438">
        <ele>1697.6</ele>
        <time>2026-08-04T09:25:16Z</time>
      </trkpt>
			<trkpt lat="40.36819" lon="-0.66425">
        <ele>1698.8</ele>
        <time>2026-08-04T09:25:21Z</time>
      </trkpt>
			<trkpt lat="40.36827" lon="-0.66418">
        <ele>1699.7</ele>
        <time>2026-08-04T09:25:25Z</time>
      </trkpt>
			<trkpt lat="40.36834" lon="-0.66414">
        <ele>1700.3</ele>
        <time>2026-08-04T09:25:27Z</time>
      </trkpt>
			<trkpt lat="40.36844" lon="-0.66411">
        <ele>1701.2</ele>
        <time>2026-08-04T09:25:31Z</time>
      </trkpt>
			<trkpt lat="40.36868" lon="-0.66409">
        <ele>1703.1</ele>
        <time>2026-08-04T09:25:39Z</time>
      </trkpt>
			<trkpt lat="40.36891" lon="-0.66407">
        <ele>1705</ele>
        <time>2026-08-04T09:25:47Z</time>
      </trkpt>
			<trkpt lat="40.36902" lon="-0.66405">
        <ele>1705.9</ele>
        <time>2026-08-04T09:25:51Z</time>
      </trkpt>
			<trkpt lat="40.36909" lon="-0.66402">
        <ele>1706.6</ele>
        <time>2026-08-04T09:25:54Z</time>
      </trkpt>
			<trkpt lat="40.36916" lon="-0.66399">
        <ele>1707.2</ele>
        <time>2026-08-04T09:25:56Z</time>
      </trkpt>
			<trkpt lat="40.36925" lon="-0.6639">
        <ele>1708.2</ele>
        <time>2026-08-04T09:26:01Z</time>
      </trkpt>
			<trkpt lat="40.36928" lon="-0.66382">
        <ele>1708.8</ele>
        <time>2026-08-04T09:26:04Z</time>
      </trkpt>
			<trkpt lat="40.36929" lon="-0.66374">
        <ele>1709.3</ele>
        <time>2026-08-04T09:26:06Z</time>
      </trkpt>
			<trkpt lat="40.36929" lon="-0.66366">
        <ele>1709.8</ele>
        <time>2026-08-04T09:26:08Z</time>
      </trkpt>
			<trkpt lat="40.36926" lon="-0.66349">
        <ele>1711</ele>
        <time>2026-08-04T09:26:13Z</time>
      </trkpt>
			<trkpt lat="40.36918" lon="-0.66318">
        <ele>1713.3</ele>
        <time>2026-08-04T09:26:23Z</time>
      </trkpt>
			<trkpt lat="40.36909" lon="-0.66288">
        <ele>1715.7</ele>
        <time>2026-08-04T09:26:34Z</time>
      </trkpt>
			<trkpt lat="40.36895" lon="-0.66241">
        <ele>1719.8</ele>
        <time>2026-08-04T09:26:53Z</time>
      </trkpt>
			<trkpt lat="40.36881" lon="-0.66193">
        <ele>1724.4</ele>
        <time>2026-08-04T09:27:13Z</time>
      </trkpt>
			<trkpt lat="40.36866" lon="-0.66146">
        <ele>1729.2</ele>
        <time>2026-08-04T09:27:32Z</time>
      </trkpt>
			<trkpt lat="40.36852" lon="-0.66099">
        <ele>1734</ele>
        <time>2026-08-04T09:27:52Z</time>
      </trkpt>
			<trkpt lat="40.36843" lon="-0.66074">
        <ele>1736.7</ele>
        <time>2026-08-04T09:28:04Z</time>
      </trkpt>
			<trkpt lat="40.36833" lon="-0.66052">
        <ele>1739</ele>
        <time>2026-08-04T09:28:13Z</time>
      </trkpt>
			<trkpt lat="40.36822" lon="-0.66018">
        <ele>1742.1</ele>
        <time>2026-08-04T09:28:27Z</time>
      </trkpt>
			<trkpt lat="40.3681" lon="-0.65984">
        <ele>1744.9</ele>
        <time>2026-08-04T09:28:40Z</time>
      </trkpt>
			<trkpt lat="40.36797" lon="-0.65934">
        <ele>1748.2</ele>
        <time>2026-08-04T09:28:54Z</time>
      </trkpt>
			<trkpt lat="40.36782" lon="-0.65884">
        <ele>1751.1</ele>
        <time>2026-08-04T09:29:06Z</time>
      </trkpt>
			<trkpt lat="40.36767" lon="-0.65835">
        <ele>1753.3</ele>
        <time>2026-08-04T09:29:18Z</time>
      </trkpt>
			<trkpt lat="40.36762" lon="-0.65806">
        <ele>1754.3</ele>
        <time>2026-08-04T09:29:23Z</time>
      </trkpt>
			<trkpt lat="40.36756" lon="-0.65777">
        <ele>1755.3</ele>
        <time>2026-08-04T09:29:29Z</time>
      </trkpt>
			<trkpt lat="40.36746" lon="-0.65735">
        <ele>1756.6</ele>
        <time>2026-08-04T09:29:37Z</time>
      </trkpt>
			<trkpt lat="40.36735" lon="-0.65698">
        <ele>1757.6</ele>
        <time>2026-08-04T09:29:43Z</time>
      </trkpt>
			<trkpt lat="40.36724" lon="-0.65668">
        <ele>1758.4</ele>
        <time>2026-08-04T09:29:49Z</time>
      </trkpt>
			<trkpt lat="40.36705" lon="-0.65626">
        <ele>1759.5</ele>
        <time>2026-08-04T09:29:57Z</time>
      </trkpt>
			<trkpt lat="40.3669" lon="-0.65601">
        <ele>1760.1</ele>
        <time>2026-08-04T09:30:02Z</time>
      </trkpt>
			<trkpt lat="40.36669" lon="-0.65566">
        <ele>1760.9</ele>
        <time>2026-08-04T09:30:08Z</time>
      </trkpt>
			<trkpt lat="40.36647" lon="-0.65532">
        <ele>1761.5</ele>
        <time>2026-08-04T09:30:15Z</time>
      </trkpt>
			<trkpt lat="40.36625" lon="-0.65494">
        <ele>1762.1</ele>
        <time>2026-08-04T09:30:21Z</time>
      </trkpt>
			<trkpt lat="40.36611" lon="-0.6546">
        <ele>1762.5</ele>
        <time>2026-08-04T09:30:26Z</time>
      </trkpt>
			<trkpt lat="40.3659" lon="-0.65416">
        <ele>1762.9</ele>
        <time>2026-08-04T09:30:33Z</time>
      </trkpt>
			<trkpt lat="40.36569" lon="-0.65373">
        <ele>1763.3</ele>
        <time>2026-08-04T09:30:40Z</time>
      </trkpt>
			<trkpt lat="40.36557" lon="-0.65351">
        <ele>1763.4</ele>
        <time>2026-08-04T09:30:43Z</time>
      </trkpt>
			<trkpt lat="40.36549" lon="-0.65331">
        <ele>1763.6</ele>
        <time>2026-08-04T09:30:46Z</time>
      </trkpt>
			<trkpt lat="40.36539" lon="-0.65299">
        <ele>1763.9</ele>
        <time>2026-08-04T09:30:50Z</time>
      </trkpt>
			<trkpt lat="40.36526" lon="-0.65258">
        <ele>1764.3</ele>
        <time>2026-08-04T09:30:56Z</time>
      </trkpt>
			<trkpt lat="40.36514" lon="-0.65216">
        <ele>1764.8</ele>
        <time>2026-08-04T09:31:02Z</time>
      </trkpt>
			<trkpt lat="40.36501" lon="-0.65175">
        <ele>1765.5</ele>
        <time>2026-08-04T09:31:09Z</time>
      </trkpt>
			<trkpt lat="40.36494" lon="-0.65142">
        <ele>1766.2</ele>
        <time>2026-08-04T09:31:14Z</time>
      </trkpt>
			<trkpt lat="40.36483" lon="-0.65088">
        <ele>1767.5</ele>
        <time>2026-08-04T09:31:23Z</time>
      </trkpt>
			<trkpt lat="40.36472" lon="-0.65033">
        <ele>1769.2</ele>
        <time>2026-08-04T09:31:34Z</time>
      </trkpt>
			<trkpt lat="40.36461" lon="-0.64979">
        <ele>1771.3</ele>
        <time>2026-08-04T09:31:45Z</time>
      </trkpt>
			<trkpt lat="40.3645" lon="-0.64925">
        <ele>1773.8</ele>
        <time>2026-08-04T09:31:57Z</time>
      </trkpt>
			<trkpt lat="40.36445" lon="-0.64895">
        <ele>1775.2</ele>
        <time>2026-08-04T09:32:04Z</time>
      </trkpt>
			<trkpt lat="40.36439" lon="-0.64866">
        <ele>1776.8</ele>
        <time>2026-08-04T09:32:11Z</time>
      </trkpt>
			<trkpt lat="40.36436" lon="-0.64838">
        <ele>1778.4</ele>
        <time>2026-08-04T09:32:18Z</time>
      </trkpt>
			<trkpt lat="40.36435" lon="-0.64802">
        <ele>1780.6</ele>
        <time>2026-08-04T09:32:27Z</time>
      </trkpt>
			<trkpt lat="40.36436" lon="-0.64754">
        <ele>1783.7</ele>
        <time>2026-08-04T09:32:42Z</time>
      </trkpt>
			<trkpt lat="40.36441" lon="-0.64711">
        <ele>1786.9</ele>
        <time>2026-08-04T09:32:56Z</time>
      </trkpt>
			<trkpt lat="40.36445" lon="-0.64668">
        <ele>1790.3</ele>
        <time>2026-08-04T09:33:11Z</time>
      </trkpt>
			<trkpt lat="40.36452" lon="-0.64625">
        <ele>1793.9</ele>
        <time>2026-08-04T09:33:28Z</time>
      </trkpt>
			<trkpt lat="40.36453" lon="-0.64614">
        <ele>1794.8</ele>
        <time>2026-08-04T09:33:32Z</time>
      </trkpt>
			<trkpt lat="40.36452" lon="-0.646">
        <ele>1796</ele>
        <time>2026-08-04T09:33:37Z</time>
      </trkpt>
			<trkpt lat="40.3645" lon="-0.64584">
        <ele>1797.5</ele>
        <time>2026-08-04T09:33:44Z</time>
      </trkpt>
			<trkpt lat="40.36442" lon="-0.64547">
        <ele>1800.9</ele>
        <time>2026-08-04T09:33:58Z</time>
      </trkpt>
			<trkpt lat="40.36434" lon="-0.64511">
        <ele>1804.3</ele>
        <time>2026-08-04T09:34:13Z</time>
      </trkpt>
			<trkpt lat="40.36428" lon="-0.64475">
        <ele>1807.6</ele>
        <time>2026-08-04T09:34:27Z</time>
      </trkpt>
			<trkpt lat="40.36422" lon="-0.6444">
        <ele>1810.8</ele>
        <time>2026-08-04T09:34:40Z</time>
      </trkpt>
			<trkpt lat="40.36418" lon="-0.64398">
        <ele>1814.3</ele>
        <time>2026-08-04T09:34:56Z</time>
      </trkpt>
			<trkpt lat="40.36414" lon="-0.64362">
        <ele>1817.1</ele>
        <time>2026-08-04T09:35:09Z</time>
      </trkpt>
			<trkpt lat="40.3641" lon="-0.64344">
        <ele>1818.4</ele>
        <time>2026-08-04T09:35:14Z</time>
      </trkpt>
			<trkpt lat="40.36408" lon="-0.64332">
        <ele>1819.3</ele>
        <time>2026-08-04T09:35:19Z</time>
      </trkpt>
			<trkpt lat="40.36403" lon="-0.64319">
        <ele>1820.2</ele>
        <time>2026-08-04T09:35:22Z</time>
      </trkpt>
			<trkpt lat="40.36388" lon="-0.64285">
        <ele>1822.6</ele>
        <time>2026-08-04T09:35:32Z</time>
      </trkpt>
			<trkpt lat="40.36373" lon="-0.64252">
        <ele>1824.8</ele>
        <time>2026-08-04T09:35:42Z</time>
      </trkpt>
			<trkpt lat="40.36368" lon="-0.6424">
        <ele>1825.6</ele>
        <time>2026-08-04T09:35:46Z</time>
      </trkpt>
			<trkpt lat="40.36366" lon="-0.64226">
        <ele>1826.3</ele>
        <time>2026-08-04T09:35:49Z</time>
      </trkpt>
			<trkpt lat="40.36366" lon="-0.64214">
        <ele>1826.9</ele>
        <time>2026-08-04T09:35:52Z</time>
      </trkpt>
			<trkpt lat="40.36371" lon="-0.64202">
        <ele>1827.6</ele>
        <time>2026-08-04T09:35:55Z</time>
      </trkpt>
			<trkpt lat="40.36376" lon="-0.64196">
        <ele>1828</ele>
        <time>2026-08-04T09:35:57Z</time>
      </trkpt>
			<trkpt lat="40.36381" lon="-0.64192">
        <ele>1828.4</ele>
        <time>2026-08-04T09:35:59Z</time>
      </trkpt>
			<trkpt lat="40.36393" lon="-0.64188">
        <ele>1829.1</ele>
        <time>2026-08-04T09:36:02Z</time>
      </trkpt>
			<trkpt lat="40.36424" lon="-0.64181">
        <ele>1831</ele>
        <time>2026-08-04T09:36:11Z</time>
      </trkpt>
			<trkpt lat="40.36455" lon="-0.64175">
        <ele>1832.9</ele>
        <time>2026-08-04T09:36:20Z</time>
      </trkpt>
			<trkpt lat="40.36485" lon="-0.64168">
        <ele>1834.8</ele>
        <time>2026-08-04T09:36:30Z</time>
      </trkpt>
			<trkpt lat="40.3652" lon="-0.64159">
        <ele>1837.2</ele>
        <time>2026-08-04T09:36:40Z</time>
      </trkpt>
			<trkpt lat="40.36555" lon="-0.64149">
        <ele>1839.5</ele>
        <time>2026-08-04T09:36:52Z</time>
      </trkpt>
			<trkpt lat="40.3659" lon="-0.64127">
        <ele>1842.2</ele>
        <time>2026-08-04T09:37:03Z</time>
      </trkpt>
			<trkpt lat="40.36626" lon="-0.64101">
        <ele>1845</ele>
        <time>2026-08-04T09:37:16Z</time>
      </trkpt>
			<trkpt lat="40.36637" lon="-0.64087">
        <ele>1846.1</ele>
        <time>2026-08-04T09:37:21Z</time>
      </trkpt>
			<trkpt lat="40.36646" lon="-0.64073">
        <ele>1847.1</ele>
        <time>2026-08-04T09:37:25Z</time>
      </trkpt>
			<trkpt lat="40.36656" lon="-0.64056">
        <ele>1848.2</ele>
        <time>2026-08-04T09:37:30Z</time>
      </trkpt>
			<trkpt lat="40.36664" lon="-0.64034">
        <ele>1849.5</ele>
        <time>2026-08-04T09:37:36Z</time>
      </trkpt>
			<trkpt lat="40.36679" lon="-0.63982">
        <ele>1852.6</ele>
        <time>2026-08-04T09:37:50Z</time>
      </trkpt>
			<trkpt lat="40.36694" lon="-0.6393">
        <ele>1855.8</ele>
        <time>2026-08-04T09:38:04Z</time>
      </trkpt>
			<trkpt lat="40.3671" lon="-0.63879">
        <ele>1859.2</ele>
        <time>2026-08-04T09:38:18Z</time>
      </trkpt>
			<trkpt lat="40.36725" lon="-0.63827">
        <ele>1862.9</ele>
        <time>2026-08-04T09:38:35Z</time>
      </trkpt>
			<trkpt lat="40.3674" lon="-0.63775">
        <ele>1866.6</ele>
        <time>2026-08-04T09:38:52Z</time>
      </trkpt>
			<trkpt lat="40.36747" lon="-0.63726">
        <ele>1870.1</ele>
        <time>2026-08-04T09:39:07Z</time>
      </trkpt>
			<trkpt lat="40.36749" lon="-0.63697">
        <ele>1872.2</ele>
        <time>2026-08-04T09:39:17Z</time>
      </trkpt>
			<trkpt lat="40.36747" lon="-0.6366">
        <ele>1874.9</ele>
        <time>2026-08-04T09:39:30Z</time>
      </trkpt>
			<trkpt lat="40.36748" lon="-0.63618">
        <ele>1878.1</ele>
        <time>2026-08-04T09:39:44Z</time>
      </trkpt>
			<trkpt lat="40.36754" lon="-0.63603">
        <ele>1879.4</ele>
        <time>2026-08-04T09:39:50Z</time>
      </trkpt>
			<trkpt lat="40.36768" lon="-0.63588">
        <ele>1881.3</ele>
        <time>2026-08-04T09:39:58Z</time>
      </trkpt>
			<trkpt lat="40.36794" lon="-0.63572">
        <ele>1884.5</ele>
        <time>2026-08-04T09:40:12Z</time>
      </trkpt>
			<trkpt lat="40.36814" lon="-0.63562">
        <ele>1886.9</ele>
        <time>2026-08-04T09:40:23Z</time>
      </trkpt>
			<trkpt lat="40.36833" lon="-0.63555">
        <ele>1889.2</ele>
        <time>2026-08-04T09:40:33Z</time>
      </trkpt>
			<trkpt lat="40.36862" lon="-0.63549">
        <ele>1892.7</ele>
        <time>2026-08-04T09:40:47Z</time>
      </trkpt>
			<trkpt lat="40.36895" lon="-0.63548">
        <ele>1896.7</ele>
        <time>2026-08-04T09:41:04Z</time>
      </trkpt>
			<trkpt lat="40.36924" lon="-0.63549">
        <ele>1900.3</ele>
        <time>2026-08-04T09:41:18Z</time>
      </trkpt>
			<trkpt lat="40.36947" lon="-0.63551">
        <ele>1903</ele>
        <time>2026-08-04T09:41:30Z</time>
      </trkpt>
			<trkpt lat="40.3699" lon="-0.63549">
        <ele>1907.9</ele>
        <time>2026-08-04T09:41:51Z</time>
      </trkpt>
			<trkpt lat="40.37014" lon="-0.63542">
        <ele>1910.4</ele>
        <time>2026-08-04T09:42:02Z</time>
      </trkpt>
			<trkpt lat="40.3703" lon="-0.63535">
        <ele>1912.2</ele>
        <time>2026-08-04T09:42:11Z</time>
      </trkpt>
			<trkpt lat="40.37071" lon="-0.63514">
        <ele>1916.3</ele>
        <time>2026-08-04T09:42:28Z</time>
      </trkpt>
			<trkpt lat="40.37087" lon="-0.63496">
        <ele>1918.1</ele>
        <time>2026-08-04T09:42:37Z</time>
      </trkpt>
			<trkpt lat="40.371" lon="-0.63473">
        <ele>1919.9</ele>
        <time>2026-08-04T09:42:44Z</time>
      </trkpt>
			<trkpt lat="40.37105" lon="-0.63443">
        <ele>1921.8</ele>
        <time>2026-08-04T09:42:52Z</time>
      </trkpt>
			<trkpt lat="40.3711" lon="-0.63413">
        <ele>1923.7</ele>
        <time>2026-08-04T09:43:00Z</time>
      </trkpt>
			<trkpt lat="40.3711" lon="-0.63368">
        <ele>1926.5</ele>
        <time>2026-08-04T09:43:11Z</time>
      </trkpt>
			<trkpt lat="40.37116" lon="-0.63335">
        <ele>1928.7</ele>
        <time>2026-08-04T09:43:22Z</time>
      </trkpt>
			<trkpt lat="40.37133" lon="-0.63294">
        <ele>1931.9</ele>
        <time>2026-08-04T09:43:36Z</time>
      </trkpt>
			<trkpt lat="40.37149" lon="-0.63254">
        <ele>1935.2</ele>
        <time>2026-08-04T09:43:51Z</time>
      </trkpt>
			<trkpt lat="40.37166" lon="-0.63213">
        <ele>1938.7</ele>
        <time>2026-08-04T09:44:07Z</time>
      </trkpt>
			<trkpt lat="40.37182" lon="-0.63172">
        <ele>1942.2</ele>
        <time>2026-08-04T09:44:23Z</time>
      </trkpt>
			<trkpt lat="40.37192" lon="-0.63137">
        <ele>1945</ele>
        <time>2026-08-04T09:44:35Z</time>
      </trkpt>
			<trkpt lat="40.37201" lon="-0.63102">
        <ele>1947.7</ele>
        <time>2026-08-04T09:44:48Z</time>
      </trkpt>
			<trkpt lat="40.37205" lon="-0.63066">
        <ele>1950.3</ele>
        <time>2026-08-04T09:44:59Z</time>
      </trkpt>
			<trkpt lat="40.37209" lon="-0.6303">
        <ele>1952.6</ele>
        <time>2026-08-04T09:45:08Z</time>
      </trkpt>
			<trkpt lat="40.37222" lon="-0.6299">
        <ele>1955</ele>
        <time>2026-08-04T09:45:19Z</time>
      </trkpt>
			<trkpt lat="40.37236" lon="-0.62965">
        <ele>1956.6</ele>
        <time>2026-08-04T09:45:26Z</time>
      </trkpt>
			<trkpt lat="40.37249" lon="-0.6294">
        <ele>1957.9</ele>
        <time>2026-08-04T09:45:33Z</time>
      </trkpt>
			<trkpt lat="40.37262" lon="-0.62904">
        <ele>1959.4</ele>
        <time>2026-08-04T09:45:41Z</time>
      </trkpt>
			<trkpt lat="40.37266" lon="-0.62871">
        <ele>1960.4</ele>
        <time>2026-08-04T09:45:47Z</time>
      </trkpt>
			<trkpt lat="40.37265" lon="-0.62838">
        <ele>1961.1</ele>
        <time>2026-08-04T09:45:53Z</time>
      </trkpt>
			<trkpt lat="40.37264" lon="-0.62805">
        <ele>1961.7</ele>
        <time>2026-08-04T09:45:57Z</time>
      </trkpt>
			<trkpt lat="40.37266" lon="-0.62788">
        <ele>1961.9</ele>
        <time>2026-08-04T09:46:00Z</time>
      </trkpt>
			<trkpt lat="40.37271" lon="-0.62778">
        <ele>1962</ele>
        <time>2026-08-04T09:46:01Z</time>
      </trkpt>
			<trkpt lat="40.37279" lon="-0.62771">
        <ele>1962.2</ele>
        <time>2026-08-04T09:46:03Z</time>
      </trkpt>
			<trkpt lat="40.37286" lon="-0.62765">
        <ele>1962.2</ele>
        <time>2026-08-04T09:46:04Z</time>
      </trkpt>
			<trkpt lat="40.37307" lon="-0.62756">
        <ele>1962.3</ele>
        <time>2026-08-04T09:46:08Z</time>
      </trkpt>
			<trkpt lat="40.37323" lon="-0.62755">
        <ele>1962.3</ele>
        <time>2026-08-04T09:46:10Z</time>
      </trkpt>
			<trkpt lat="40.37339" lon="-0.62756">
        <ele>1962.3</ele>
        <time>2026-08-04T09:46:12Z</time>
      </trkpt>
			<trkpt lat="40.37355" lon="-0.62762">
        <ele>1962.2</ele>
        <time>2026-08-04T09:46:14Z</time>
      </trkpt>
			<trkpt lat="40.37374" lon="-0.62771">
        <ele>1962</ele>
        <time>2026-08-04T09:46:16Z</time>
      </trkpt>
			<trkpt lat="40.37396" lon="-0.62789">
        <ele>1961.7</ele>
        <time>2026-08-04T09:46:18Z</time>
      </trkpt>
			<trkpt lat="40.37418" lon="-0.62807">
        <ele>1961.4</ele>
        <time>2026-08-04T09:46:21Z</time>
      </trkpt>
			<trkpt lat="40.3744" lon="-0.62828">
        <ele>1961</ele>
        <time>2026-08-04T09:46:24Z</time>
      </trkpt>
			<trkpt lat="40.37462" lon="-0.62849">
        <ele>1960.6</ele>
        <time>2026-08-04T09:46:26Z</time>
      </trkpt>
			<trkpt lat="40.37497" lon="-0.62886">
        <ele>1960</ele>
        <time>2026-08-04T09:46:31Z</time>
      </trkpt>
			<trkpt lat="40.37509" lon="-0.62901">
        <ele>1959.8</ele>
        <time>2026-08-04T09:46:32Z</time>
      </trkpt>
			<trkpt lat="40.37513" lon="-0.62896">
        <ele>1959.7</ele>
        <time>2026-08-04T09:46:33Z</time>
      </trkpt>
			<trkpt lat="40.37518" lon="-0.62893">
        <ele>1959.7</ele>
        <time>2026-08-04T09:46:34Z</time>
      </trkpt>
			<trkpt lat="40.37523" lon="-0.62892">
        <ele>1959.6</ele>
        <time>2026-08-04T09:46:34Z</time>
      </trkpt>
			<trkpt lat="40.37529" lon="-0.62893">
        <ele>1959.5</ele>
        <time>2026-08-04T09:46:35Z</time>
      </trkpt>
			<trkpt lat="40.37533" lon="-0.62896">
        <ele>1959.5</ele>
        <time>2026-08-04T09:46:35Z</time>
      </trkpt>
			<trkpt lat="40.37537" lon="-0.62901">
        <ele>1959.4</ele>
        <time>2026-08-04T09:46:36Z</time>
      </trkpt>
			<trkpt lat="40.3754" lon="-0.62907">
        <ele>1959.4</ele>
        <time>2026-08-04T09:46:37Z</time>
      </trkpt>
			<trkpt lat="40.37541" lon="-0.62914">
        <ele>1959.3</ele>
        <time>2026-08-04T09:46:37Z</time>
      </trkpt>
			<trkpt lat="40.3754" lon="-0.62921">
        <ele>1959.3</ele>
        <time>2026-08-04T09:46:38Z</time>
      </trkpt>
			<trkpt lat="40.37538" lon="-0.62927">
        <ele>1959.3</ele>
        <time>2026-08-04T09:46:39Z</time>
      </trkpt>
			<trkpt lat="40.37569" lon="-0.62957">
        <ele>1959</ele>
        <time>2026-08-04T09:46:43Z</time>
      </trkpt>
			<trkpt lat="40.376" lon="-0.62986">
        <ele>1958.9</ele>
        <time>2026-08-04T09:46:48Z</time>
      </trkpt>
			<trkpt lat="40.37631" lon="-0.63016">
        <ele>1958.9</ele>
        <time>2026-08-04T09:46:54Z</time>
      </trkpt>
			<trkpt lat="40.3765" lon="-0.63033">
        <ele>1958.9</ele>
        <time>2026-08-04T09:46:57Z</time>
      </trkpt>
			<trkpt lat="40.37669" lon="-0.6305">
        <ele>1959</ele>
        <time>2026-08-04T09:47:01Z</time>
      </trkpt>
			<trkpt lat="40.37706" lon="-0.63084">
        <ele>1959.3</ele>
        <time>2026-08-04T09:47:09Z</time>
      </trkpt>
			<trkpt lat="40.37742" lon="-0.63118">
        <ele>1959.8</ele>
        <time>2026-08-04T09:47:16Z</time>
      </trkpt>
			<trkpt lat="40.37779" lon="-0.63152">
        <ele>1960.4</ele>
        <time>2026-08-04T09:47:24Z</time>
      </trkpt>
			<trkpt lat="40.37805" lon="-0.63176">
        <ele>1960.9</ele>
        <time>2026-08-04T09:47:30Z</time>
      </trkpt>
			<trkpt lat="40.3783" lon="-0.63199">
        <ele>1961.4</ele>
        <time>2026-08-04T09:47:35Z</time>
      </trkpt>
			<trkpt lat="40.37856" lon="-0.63223">
        <ele>1961.9</ele>
        <time>2026-08-04T09:47:41Z</time>
      </trkpt>
			<trkpt lat="40.37888" lon="-0.6325">
        <ele>1962.5</ele>
        <time>2026-08-04T09:47:47Z</time>
      </trkpt>
			<trkpt lat="40.3792" lon="-0.63278">
        <ele>1963.1</ele>
        <time>2026-08-04T09:47:54Z</time>
      </trkpt>
			<trkpt lat="40.37952" lon="-0.63305">
        <ele>1963.7</ele>
        <time>2026-08-04T09:48:01Z</time>
      </trkpt>
			<trkpt lat="40.37984" lon="-0.63333">
        <ele>1964.2</ele>
        <time>2026-08-04T09:48:07Z</time>
      </trkpt>
			<trkpt lat="40.37995" lon="-0.63345">
        <ele>1964.4</ele>
        <time>2026-08-04T09:48:10Z</time>
      </trkpt>
			<trkpt lat="40.38013" lon="-0.63376">
        <ele>1964.7</ele>
        <time>2026-08-04T09:48:15Z</time>
      </trkpt>
		</trkseg>
	</trk>
</gpx>
