<?xml version="1.0" encoding="UTF-8"?>
<gpx xmlns:gpxdata="http://www.cluetrust.com/XML/GPXDATA/1/0" xmlns:xsi="http://www.w3.org/2001/XMLSchema-instance" xmlns="http://www.topografix.com/GPX/1/1" version="1.1" creator="http://ridewithgps.com/" xsi:schemaLocation="http://www.topografix.com/GPX/1/1 http://www.topografix.com/GPX/1/1/gpx.xsd http://www.cluetrust.com/XML/GPXDATA/1/0 http://www.cluetrust.com/Schemas/gpxdata10.xsd">
  <metadata>
    <name>Wicklow Gap West 2</name>
    <link href="https://ridewithgps.com/routes/40324141">
      <text>Wicklow Gap West 2</text>
    </link>
    <time>2022-07-25T01:50:26Z</time>
  </metadata>
  <trk>
    <name>Wicklow Gap West 2</name>
    <trkseg>
      <trkpt lat="53.062403" lon="-6.455449">
        <ele>261.5</ele>
      </trkpt>
      <trkpt lat="53.062345" lon="-6.455123">
        <ele>262.0</ele>
      </trkpt>
      <trkpt lat="53.062278" lon="-6.454809">
        <ele>264.3</ele>
      </trkpt>
      <trkpt lat="53.062257" lon="-6.454727">
        <ele>264.7</ele>
      </trkpt>
      <trkpt lat="53.06215" lon="-6.454423">
        <ele>266.0</ele>
      </trkpt>
      <trkpt lat="53.062021" lon="-6.454181">
        <ele>267.4</ele>
      </trkpt>
      <trkpt lat="53.061888" lon="-6.453983">
        <ele>268.2</ele>
      </trkpt>
      <trkpt lat="53.061727" lon="-6.453805">
        <ele>268.7</ele>
      </trkpt>
      <trkpt lat="53.061553" lon="-6.453638">
        <ele>269.3</ele>
      </trkpt>
      <trkpt lat="53.061375" lon="-6.453491">
        <ele>269.8</ele>
      </trkpt>
      <trkpt lat="53.061208" lon="-6.45336">
        <ele>270.3</ele>
      </trkpt>
      <trkpt lat="53.061002" lon="-6.453225">
        <ele>270.8</ele>
      </trkpt>
      <trkpt lat="53.060818" lon="-6.453095">
        <ele>271.6</ele>
      </trkpt>
      <trkpt lat="53.060649" lon="-6.452941">
        <ele>272.6</ele>
      </trkpt>
      <trkpt lat="53.060499" lon="-6.452759">
        <ele>273.6</ele>
      </trkpt>
      <trkpt lat="53.060366" lon="-6.452519">
        <ele>274.8</ele>
      </trkpt>
      <trkpt lat="53.060258" lon="-6.452246">
        <ele>276.0</ele>
      </trkpt>
      <trkpt lat="53.06017" lon="-6.451952">
        <ele>277.4</ele>
      </trkpt>
      <trkpt lat="53.060099" lon="-6.451663">
        <ele>278.8</ele>
      </trkpt>
      <trkpt lat="53.060027" lon="-6.451348">
        <ele>280.1</ele>
      </trkpt>
      <trkpt lat="53.059965" lon="-6.451046">
        <ele>281.2</ele>
      </trkpt>
      <trkpt lat="53.059903" lon="-6.450719">
        <ele>282.2</ele>
      </trkpt>
      <trkpt lat="53.059847" lon="-6.450387">
        <ele>283.1</ele>
      </trkpt>
      <trkpt lat="53.059793" lon="-6.450083">
        <ele>283.9</ele>
      </trkpt>
      <trkpt lat="53.05974" lon="-6.449781">
        <ele>284.4</ele>
      </trkpt>
      <trkpt lat="53.059675" lon="-6.449455">
        <ele>284.6</ele>
      </trkpt>
      <trkpt lat="53.05961" lon="-6.449116">
        <ele>284.8</ele>
      </trkpt>
      <trkpt lat="53.05954" lon="-6.448792">
        <ele>285.0</ele>
      </trkpt>
      <trkpt lat="53.059475" lon="-6.44846">
        <ele>285.1</ele>
      </trkpt>
      <trkpt lat="53.05941" lon="-6.448132">
        <ele>285.4</ele>
      </trkpt>
      <trkpt lat="53.059354" lon="-6.447847">
        <ele>285.8</ele>
      </trkpt>
      <trkpt lat="53.059291" lon="-6.44754">
        <ele>286.5</ele>
      </trkpt>
      <trkpt lat="53.05922" lon="-6.447218">
        <ele>287.2</ele>
      </trkpt>
      <trkpt lat="53.059137" lon="-6.446869">
        <ele>288.0</ele>
      </trkpt>
      <trkpt lat="53.059121" lon="-6.446797">
        <ele>288.2</ele>
      </trkpt>
      <trkpt lat="53.059056" lon="-6.446496">
        <ele>288.9</ele>
      </trkpt>
      <trkpt lat="53.058993" lon="-6.446203">
        <ele>289.6</ele>
      </trkpt>
      <trkpt lat="53.058925" lon="-6.445864">
        <ele>290.1</ele>
      </trkpt>
      <trkpt lat="53.058858" lon="-6.445541">
        <ele>290.5</ele>
      </trkpt>
      <trkpt lat="53.058793" lon="-6.445229">
        <ele>290.8</ele>
      </trkpt>
      <trkpt lat="53.058727" lon="-6.444895">
        <ele>291.4</ele>
      </trkpt>
      <trkpt lat="53.058664" lon="-6.444592">
        <ele>292.1</ele>
      </trkpt>
      <trkpt lat="53.0586" lon="-6.444246">
        <ele>292.7</ele>
      </trkpt>
      <trkpt lat="53.058538" lon="-6.443901">
        <ele>293.1</ele>
      </trkpt>
      <trkpt lat="53.058482" lon="-6.44359">
        <ele>293.5</ele>
      </trkpt>
      <trkpt lat="53.058424" lon="-6.4433">
        <ele>294.1</ele>
      </trkpt>
      <trkpt lat="53.058371" lon="-6.443015">
        <ele>294.8</ele>
      </trkpt>
      <trkpt lat="53.058301" lon="-6.442716">
        <ele>295.4</ele>
      </trkpt>
      <trkpt lat="53.058225" lon="-6.442411">
        <ele>295.8</ele>
      </trkpt>
      <trkpt lat="53.058155" lon="-6.442118">
        <ele>296.0</ele>
      </trkpt>
      <trkpt lat="53.058084" lon="-6.44181">
        <ele>296.2</ele>
      </trkpt>
      <trkpt lat="53.058007" lon="-6.441496">
        <ele>296.3</ele>
      </trkpt>
      <trkpt lat="53.05794" lon="-6.441178">
        <ele>296.4</ele>
      </trkpt>
      <trkpt lat="53.057874" lon="-6.44086">
        <ele>296.5</ele>
      </trkpt>
      <trkpt lat="53.057803" lon="-6.440531">
        <ele>296.6</ele>
      </trkpt>
      <trkpt lat="53.057729" lon="-6.440193">
        <ele>296.7</ele>
      </trkpt>
      <trkpt lat="53.05766" lon="-6.43986">
        <ele>296.9</ele>
      </trkpt>
      <trkpt lat="53.057603" lon="-6.439545">
        <ele>297.3</ele>
      </trkpt>
      <trkpt lat="53.057559" lon="-6.43921">
        <ele>297.9</ele>
      </trkpt>
      <trkpt lat="53.057512" lon="-6.43878">
        <ele>298.9</ele>
      </trkpt>
      <trkpt lat="53.057474" lon="-6.438407">
        <ele>299.7</ele>
      </trkpt>
      <trkpt lat="53.057438" lon="-6.43803">
        <ele>300.4</ele>
      </trkpt>
      <trkpt lat="53.057404" lon="-6.437693">
        <ele>301.2</ele>
      </trkpt>
      <trkpt lat="53.057359" lon="-6.437333">
        <ele>302.1</ele>
      </trkpt>
      <trkpt lat="53.057315" lon="-6.437037">
        <ele>302.9</ele>
      </trkpt>
      <trkpt lat="53.057266" lon="-6.436751">
        <ele>303.6</ele>
      </trkpt>
      <trkpt lat="53.057209" lon="-6.436405">
        <ele>304.4</ele>
      </trkpt>
      <trkpt lat="53.057138" lon="-6.436073">
        <ele>305.0</ele>
      </trkpt>
      <trkpt lat="53.057058" lon="-6.435745">
        <ele>305.5</ele>
      </trkpt>
      <trkpt lat="53.056987" lon="-6.435412">
        <ele>306.1</ele>
      </trkpt>
      <trkpt lat="53.056906" lon="-6.435077">
        <ele>306.9</ele>
      </trkpt>
      <trkpt lat="53.056833" lon="-6.434743">
        <ele>308.7</ele>
      </trkpt>
      <trkpt lat="53.056762" lon="-6.434417">
        <ele>310.4</ele>
      </trkpt>
      <trkpt lat="53.056696" lon="-6.434084">
        <ele>311.5</ele>
      </trkpt>
      <trkpt lat="53.05664" lon="-6.43375">
        <ele>312.5</ele>
      </trkpt>
      <trkpt lat="53.056591" lon="-6.433417">
        <ele>313.5</ele>
      </trkpt>
      <trkpt lat="53.05656" lon="-6.433111">
        <ele>314.6</ele>
      </trkpt>
      <trkpt lat="53.056538" lon="-6.432762">
        <ele>315.9</ele>
      </trkpt>
      <trkpt lat="53.056534" lon="-6.432421">
        <ele>317.3</ele>
      </trkpt>
      <trkpt lat="53.056539" lon="-6.432099">
        <ele>318.6</ele>
      </trkpt>
      <trkpt lat="53.056552" lon="-6.431771">
        <ele>319.9</ele>
      </trkpt>
      <trkpt lat="53.056563" lon="-6.431469">
        <ele>321.2</ele>
      </trkpt>
      <trkpt lat="53.056577" lon="-6.431134">
        <ele>323.0</ele>
      </trkpt>
      <trkpt lat="53.056596" lon="-6.43081">
        <ele>324.9</ele>
      </trkpt>
      <trkpt lat="53.056616" lon="-6.430455">
        <ele>327.1</ele>
      </trkpt>
      <trkpt lat="53.056636" lon="-6.430132">
        <ele>329.1</ele>
      </trkpt>
      <trkpt lat="53.056664" lon="-6.429812">
        <ele>331.1</ele>
      </trkpt>
      <trkpt lat="53.056694" lon="-6.429498">
        <ele>333.3</ele>
      </trkpt>
      <trkpt lat="53.056726" lon="-6.429172">
        <ele>335.6</ele>
      </trkpt>
      <trkpt lat="53.056759" lon="-6.428875">
        <ele>337.6</ele>
      </trkpt>
      <trkpt lat="53.056793" lon="-6.428559">
        <ele>339.6</ele>
      </trkpt>
      <trkpt lat="53.056818" lon="-6.428248">
        <ele>341.5</ele>
      </trkpt>
      <trkpt lat="53.056855" lon="-6.427923">
        <ele>343.4</ele>
      </trkpt>
      <trkpt lat="53.056897" lon="-6.427583">
        <ele>345.4</ele>
      </trkpt>
      <trkpt lat="53.056964" lon="-6.427269">
        <ele>347.0</ele>
      </trkpt>
      <trkpt lat="53.057035" lon="-6.426979">
        <ele>348.5</ele>
      </trkpt>
      <trkpt lat="53.057108" lon="-6.426673">
        <ele>350.0</ele>
      </trkpt>
      <trkpt lat="53.05717" lon="-6.426374">
        <ele>351.5</ele>
      </trkpt>
      <trkpt lat="53.057191" lon="-6.426022">
        <ele>353.1</ele>
      </trkpt>
      <trkpt lat="53.057187" lon="-6.425712">
        <ele>355.0</ele>
      </trkpt>
      <trkpt lat="53.057164" lon="-6.425378">
        <ele>355.3</ele>
      </trkpt>
      <trkpt lat="53.057142" lon="-6.425061">
        <ele>356.0</ele>
      </trkpt>
      <trkpt lat="53.057129" lon="-6.424734">
        <ele>356.5</ele>
      </trkpt>
      <trkpt lat="53.057128" lon="-6.42441">
        <ele>356.8</ele>
      </trkpt>
      <trkpt lat="53.057138" lon="-6.424093">
        <ele>357.5</ele>
      </trkpt>
      <trkpt lat="53.057153" lon="-6.423779">
        <ele>358.4</ele>
      </trkpt>
      <trkpt lat="53.057177" lon="-6.423477">
        <ele>359.2</ele>
      </trkpt>
      <trkpt lat="53.057192" lon="-6.423165">
        <ele>360.0</ele>
      </trkpt>
      <trkpt lat="53.057201" lon="-6.422831">
        <ele>360.8</ele>
      </trkpt>
      <trkpt lat="53.057229" lon="-6.422497">
        <ele>361.6</ele>
      </trkpt>
      <trkpt lat="53.057242" lon="-6.422154">
        <ele>362.4</ele>
      </trkpt>
      <trkpt lat="53.057256" lon="-6.421838">
        <ele>363.2</ele>
      </trkpt>
      <trkpt lat="53.057272" lon="-6.421489">
        <ele>364.4</ele>
      </trkpt>
      <trkpt lat="53.057289" lon="-6.421139">
        <ele>366.1</ele>
      </trkpt>
      <trkpt lat="53.057302" lon="-6.420813">
        <ele>368.4</ele>
      </trkpt>
      <trkpt lat="53.057316" lon="-6.420507">
        <ele>370.7</ele>
      </trkpt>
      <trkpt lat="53.057335" lon="-6.420146">
        <ele>373.2</ele>
      </trkpt>
      <trkpt lat="53.057357" lon="-6.419789">
        <ele>375.1</ele>
      </trkpt>
      <trkpt lat="53.057372" lon="-6.419474">
        <ele>376.5</ele>
      </trkpt>
      <trkpt lat="53.057398" lon="-6.419137">
        <ele>377.6</ele>
      </trkpt>
      <trkpt lat="53.057416" lon="-6.418804">
        <ele>378.6</ele>
      </trkpt>
      <trkpt lat="53.057436" lon="-6.418497">
        <ele>379.5</ele>
      </trkpt>
      <trkpt lat="53.057435" lon="-6.418298">
        <ele>380.1</ele>
      </trkpt>
      <trkpt lat="53.057443" lon="-6.418011">
        <ele>381.0</ele>
      </trkpt>
      <trkpt lat="53.057446" lon="-6.417677">
        <ele>382.0</ele>
      </trkpt>
      <trkpt lat="53.057433" lon="-6.417372">
        <ele>382.9</ele>
      </trkpt>
      <trkpt lat="53.057405" lon="-6.417067">
        <ele>383.8</ele>
      </trkpt>
      <trkpt lat="53.057351" lon="-6.416741">
        <ele>384.9</ele>
      </trkpt>
      <trkpt lat="53.057287" lon="-6.416458">
        <ele>385.8</ele>
      </trkpt>
      <trkpt lat="53.057215" lon="-6.41617">
        <ele>386.6</ele>
      </trkpt>
      <trkpt lat="53.057145" lon="-6.415895">
        <ele>387.3</ele>
      </trkpt>
      <trkpt lat="53.057065" lon="-6.415595">
        <ele>388.1</ele>
      </trkpt>
      <trkpt lat="53.056986" lon="-6.415317">
        <ele>388.8</ele>
      </trkpt>
      <trkpt lat="53.056901" lon="-6.41503">
        <ele>389.5</ele>
      </trkpt>
      <trkpt lat="53.056821" lon="-6.414747">
        <ele>390.3</ele>
      </trkpt>
      <trkpt lat="53.056752" lon="-6.414469">
        <ele>391.2</ele>
      </trkpt>
      <trkpt lat="53.05666" lon="-6.414148">
        <ele>392.2</ele>
      </trkpt>
      <trkpt lat="53.056579" lon="-6.41385">
        <ele>392.8</ele>
      </trkpt>
      <trkpt lat="53.056492" lon="-6.413553">
        <ele>393.0</ele>
      </trkpt>
      <trkpt lat="53.056405" lon="-6.413287">
        <ele>393.1</ele>
      </trkpt>
      <trkpt lat="53.056308" lon="-6.413012">
        <ele>393.5</ele>
      </trkpt>
      <trkpt lat="53.056201" lon="-6.412725">
        <ele>394.0</ele>
      </trkpt>
      <trkpt lat="53.056081" lon="-6.412439">
        <ele>394.0</ele>
      </trkpt>
      <trkpt lat="53.056064" lon="-6.412378">
        <ele>393.9</ele>
      </trkpt>
      <trkpt lat="53.055949" lon="-6.41209">
        <ele>393.3</ele>
      </trkpt>
      <trkpt lat="53.05585" lon="-6.411834">
        <ele>392.6</ele>
      </trkpt>
      <trkpt lat="53.055727" lon="-6.411576">
        <ele>392.3</ele>
      </trkpt>
      <trkpt lat="53.055604" lon="-6.411311">
        <ele>393.4</ele>
      </trkpt>
      <trkpt lat="53.055466" lon="-6.411037">
        <ele>394.7</ele>
      </trkpt>
      <trkpt lat="53.055307" lon="-6.41075">
        <ele>395.9</ele>
      </trkpt>
      <trkpt lat="53.055186" lon="-6.410529">
        <ele>397.0</ele>
      </trkpt>
      <trkpt lat="53.055042" lon="-6.410262">
        <ele>397.6</ele>
      </trkpt>
      <trkpt lat="53.054919" lon="-6.410033">
        <ele>398.9</ele>
      </trkpt>
      <trkpt lat="53.05478" lon="-6.40979">
        <ele>400.2</ele>
      </trkpt>
      <trkpt lat="53.054651" lon="-6.409567">
        <ele>401.3</ele>
      </trkpt>
      <trkpt lat="53.054531" lon="-6.409356">
        <ele>402.2</ele>
      </trkpt>
      <trkpt lat="53.054388" lon="-6.409148">
        <ele>403.2</ele>
      </trkpt>
      <trkpt lat="53.054237" lon="-6.408946">
        <ele>404.1</ele>
      </trkpt>
      <trkpt lat="53.054094" lon="-6.408758">
        <ele>404.9</ele>
      </trkpt>
      <trkpt lat="53.053926" lon="-6.408551">
        <ele>405.9</ele>
      </trkpt>
      <trkpt lat="53.053759" lon="-6.408357">
        <ele>406.9</ele>
      </trkpt>
      <trkpt lat="53.053593" lon="-6.408191">
        <ele>407.8</ele>
      </trkpt>
      <trkpt lat="53.053415" lon="-6.408054">
        <ele>408.8</ele>
      </trkpt>
      <trkpt lat="53.053243" lon="-6.407951">
        <ele>409.9</ele>
      </trkpt>
      <trkpt lat="53.053072" lon="-6.407869">
        <ele>411.1</ele>
      </trkpt>
      <trkpt lat="53.052886" lon="-6.407808">
        <ele>412.5</ele>
      </trkpt>
      <trkpt lat="53.052692" lon="-6.407782">
        <ele>413.9</ele>
      </trkpt>
      <trkpt lat="53.052501" lon="-6.40777">
        <ele>415.1</ele>
      </trkpt>
      <trkpt lat="53.052307" lon="-6.407774">
        <ele>416.1</ele>
      </trkpt>
      <trkpt lat="53.052093" lon="-6.407786">
        <ele>416.9</ele>
      </trkpt>
      <trkpt lat="53.051915" lon="-6.407809">
        <ele>417.5</ele>
      </trkpt>
      <trkpt lat="53.051726" lon="-6.407846">
        <ele>418.1</ele>
      </trkpt>
      <trkpt lat="53.051541" lon="-6.407886">
        <ele>418.6</ele>
      </trkpt>
      <trkpt lat="53.051344" lon="-6.407928">
        <ele>419.1</ele>
      </trkpt>
      <trkpt lat="53.051149" lon="-6.407971">
        <ele>419.6</ele>
      </trkpt>
      <trkpt lat="53.050952" lon="-6.408009">
        <ele>420.3</ele>
      </trkpt>
      <trkpt lat="53.050757" lon="-6.408023">
        <ele>421.1</ele>
      </trkpt>
      <trkpt lat="53.050576" lon="-6.408017">
        <ele>421.9</ele>
      </trkpt>
      <trkpt lat="53.050377" lon="-6.407979">
        <ele>422.8</ele>
      </trkpt>
      <trkpt lat="53.050167" lon="-6.407907">
        <ele>423.7</ele>
      </trkpt>
      <trkpt lat="53.049985" lon="-6.40784">
        <ele>424.6</ele>
      </trkpt>
      <trkpt lat="53.049788" lon="-6.407787">
        <ele>425.5</ele>
      </trkpt>
      <trkpt lat="53.049591" lon="-6.407752">
        <ele>426.5</ele>
      </trkpt>
      <trkpt lat="53.049388" lon="-6.407737">
        <ele>427.4</ele>
      </trkpt>
      <trkpt lat="53.04918" lon="-6.407716">
        <ele>428.3</ele>
      </trkpt>
      <trkpt lat="53.048976" lon="-6.407666">
        <ele>429.0</ele>
      </trkpt>
      <trkpt lat="53.048797" lon="-6.407572">
        <ele>429.4</ele>
      </trkpt>
      <trkpt lat="53.048631" lon="-6.407422">
        <ele>429.9</ele>
      </trkpt>
      <trkpt lat="53.048563" lon="-6.407336">
        <ele>430.3</ele>
      </trkpt>
      <trkpt lat="53.048485" lon="-6.407231">
        <ele>430.7</ele>
      </trkpt>
      <trkpt lat="53.048381" lon="-6.407116">
        <ele>431.5</ele>
      </trkpt>
      <trkpt lat="53.048218" lon="-6.406953">
        <ele>432.9</ele>
      </trkpt>
      <trkpt lat="53.048051" lon="-6.406795">
        <ele>434.5</ele>
      </trkpt>
      <trkpt lat="53.047892" lon="-6.406611">
        <ele>436.2</ele>
      </trkpt>
      <trkpt lat="53.047737" lon="-6.406438">
        <ele>437.9</ele>
      </trkpt>
      <trkpt lat="53.047584" lon="-6.406274">
        <ele>439.6</ele>
      </trkpt>
      <trkpt lat="53.047427" lon="-6.406108">
        <ele>441.3</ele>
      </trkpt>
      <trkpt lat="53.047275" lon="-6.405939">
        <ele>442.9</ele>
      </trkpt>
      <trkpt lat="53.047119" lon="-6.405748">
        <ele>444.3</ele>
      </trkpt>
      <trkpt lat="53.046971" lon="-6.405571">
        <ele>445.4</ele>
      </trkpt>
      <trkpt lat="53.046819" lon="-6.405378">
        <ele>446.4</ele>
      </trkpt>
      <trkpt lat="53.046667" lon="-6.405195">
        <ele>447.4</ele>
      </trkpt>
      <trkpt lat="53.046526" lon="-6.40501">
        <ele>448.3</ele>
      </trkpt>
      <trkpt lat="53.046365" lon="-6.404797">
        <ele>449.5</ele>
      </trkpt>
      <trkpt lat="53.046222" lon="-6.40461">
        <ele>450.5</ele>
      </trkpt>
      <trkpt lat="53.04608" lon="-6.404411">
        <ele>451.6</ele>
      </trkpt>
      <trkpt lat="53.045937" lon="-6.404232">
        <ele>452.7</ele>
      </trkpt>
      <trkpt lat="53.045784" lon="-6.404051">
        <ele>454.0</ele>
      </trkpt>
      <trkpt lat="53.045622" lon="-6.403871">
        <ele>455.5</ele>
      </trkpt>
      <trkpt lat="53.045443" lon="-6.403695">
        <ele>457.2</ele>
      </trkpt>
      <trkpt lat="53.045262" lon="-6.403548">
        <ele>458.2</ele>
      </trkpt>
      <trkpt lat="53.045094" lon="-6.403404">
        <ele>458.5</ele>
      </trkpt>
      <trkpt lat="53.044919" lon="-6.403249">
        <ele>458.8</ele>
      </trkpt>
      <trkpt lat="53.044769" lon="-6.403099">
        <ele>459.0</ele>
      </trkpt>
      <trkpt lat="53.044614" lon="-6.402942">
        <ele>459.2</ele>
      </trkpt>
      <trkpt lat="53.04445" lon="-6.402764">
        <ele>459.5</ele>
      </trkpt>
      <trkpt lat="53.044286" lon="-6.402555">
        <ele>460.4</ele>
      </trkpt>
      <trkpt lat="53.044136" lon="-6.402322">
        <ele>461.8</ele>
      </trkpt>
      <trkpt lat="53.044002" lon="-6.402084">
        <ele>463.0</ele>
      </trkpt>
      <trkpt lat="53.043883" lon="-6.401835">
        <ele>464.1</ele>
      </trkpt>
      <trkpt lat="53.043769" lon="-6.401571">
        <ele>464.6</ele>
      </trkpt>
      <trkpt lat="53.043664" lon="-6.4013">
        <ele>464.9</ele>
      </trkpt>
      <trkpt lat="53.043577" lon="-6.401033">
        <ele>465.4</ele>
      </trkpt>
      <trkpt lat="53.043482" lon="-6.400718">
        <ele>466.6</ele>
      </trkpt>
      <trkpt lat="53.043391" lon="-6.400398">
        <ele>467.3</ele>
      </trkpt>
      <trkpt lat="53.04331" lon="-6.400095">
        <ele>467.7</ele>
      </trkpt>
      <trkpt lat="53.043206" lon="-6.399796">
        <ele>468.0</ele>
      </trkpt>
      <trkpt lat="53.04307" lon="-6.399519">
        <ele>468.1</ele>
      </trkpt>
      <trkpt lat="53.04292" lon="-6.39931">
        <ele>467.8</ele>
      </trkpt>
      <trkpt lat="53.042767" lon="-6.399123">
        <ele>467.5</ele>
      </trkpt>
      <trkpt lat="53.042586" lon="-6.398907">
        <ele>467.8</ele>
      </trkpt>
      <trkpt lat="53.042419" lon="-6.398706">
        <ele>474.9</ele>
      </trkpt>
      <trkpt lat="53.042268" lon="-6.398513">
        <ele>475.8</ele>
      </trkpt>
      <trkpt lat="53.042117" lon="-6.398319">
        <ele>475.8</ele>
      </trkpt>
      <trkpt lat="53.041975" lon="-6.398108">
        <ele>475.2</ele>
      </trkpt>
      <trkpt lat="53.041851" lon="-6.397852">
        <ele>475.0</ele>
      </trkpt>
      <trkpt lat="53.041782" lon="-6.397504">
        <ele>475.3</ele>
      </trkpt>
      <trkpt lat="53.041773" lon="-6.397299">
        <ele>475.6</ele>
      </trkpt>
    </trkseg>
  </trk>
</gpx>
